{"type":"FeatureCollection","features":[{"type":"Feature","properties":{"k":"BTH","s":1.911},"geometry":{"type":"Polygon","coordinates":[[[2.75507,50.15692],[2.75621,50.15711],[2.75222,50.15407],[2.75184,50.15446],[2.75507,50.15692]]]}},{"type":"Feature","properties":{"k":"ORH","s":12.44},"geometry":{"type":"Polygon","coordinates":[[[2.73508,50.14232],[2.74276,50.14487],[2.74456,50.14344],[2.73663,50.14084],[2.73508,50.14232]]]}},{"type":"Feature","properties":{"k":"LIF","s":2.865},"geometry":{"type":"Polygon","coordinates":[[[2.73783,50.15544],[2.73958,50.15689],[2.74115,50.15549],[2.73684,50.15485],[2.73783,50.15544]]]}},{"type":"Feature","properties":{"k":"TRE","s":0.468},"geometry":{"type":"Polygon","coordinates":[[[2.73958,50.15689],[2.73692,50.15479],[2.7367,50.15484],[2.7396,50.157],[2.74129,50.15552],[2.73958,50.15689]]]}},{"type":"Feature","properties":{"k":"PHF","s":7.399},"geometry":{"type":"Polygon","coordinates":[[[2.73651,50.15488],[2.73301,50.15783],[2.73358,50.15949],[2.73371,50.15954],[2.73805,50.15593],[2.73651,50.15488]]]}},{"type":"Feature","properties":{"k":"CZH","s":7.403},"geometry":{"type":"Polygon","coordinates":[[[2.73563,50.16024],[2.73949,50.15704],[2.73805,50.15593],[2.73387,50.15941],[2.73435,50.15959],[2.7342,50.15972],[2.73563,50.16024]]]}},{"type":"Feature","properties":{"k":"LIF","s":7.339},"geometry":{"type":"Polygon","coordinates":[[[2.7395,50.15702],[2.73562,50.16024],[2.73768,50.16098],[2.74138,50.15796],[2.7395,50.15702]]]}},{"type":"Feature","properties":{"k":"BTN","s":10.903},"geometry":{"type":"Polygon","coordinates":[[[2.73768,50.16098],[2.7398,50.16175],[2.74051,50.16241],[2.74438,50.15917],[2.74138,50.15796],[2.73768,50.16098]]]}},{"type":"Feature","properties":{"k":"MIS","s":5.719},"geometry":{"type":"MultiPolygon","coordinates":[[[[2.73347,50.1607],[2.73871,50.1627],[2.73982,50.16185],[2.73362,50.15957],[2.73347,50.1607]]],[[[2.73992,50.16193],[2.73988,50.1619],[2.74023,50.16229],[2.74036,50.16238],[2.73992,50.16193]]]]}},{"type":"Feature","properties":{"k":"BTN","s":0.001},"geometry":{"type":"Polygon","coordinates":[]}},{"type":"Feature","properties":{"k":"BTH","s":4.846},"geometry":{"type":"MultiPolygon","coordinates":[[[[2.74409,50.16394],[2.74492,50.16439],[2.74494,50.16461],[2.74913,50.16771],[2.75,50.16734],[2.75027,50.16718],[2.74471,50.16343],[2.74409,50.16394]]],[[[2.7433,50.16351],[2.74351,50.16363],[2.74331,50.1635],[2.7433,50.16351]]]]}},{"type":"Feature","properties":{"k":"BTH","s":2.495},"geometry":{"type":"Polygon","coordinates":[[[2.7462,50.16325],[2.74918,50.16078],[2.74872,50.16044],[2.74845,50.16034],[2.74551,50.16278],[2.7462,50.16325]]]}},{"type":"Feature","properties":{"k":"BTH","s":7.566},"geometry":{"type":"Polygon","coordinates":[[[2.74409,50.16394],[2.74845,50.16034],[2.74643,50.1598],[2.74213,50.16342],[2.74277,50.16384],[2.74331,50.1635],[2.74409,50.16394]]]}},{"type":"Feature","properties":{"k":"BTN","s":7.224},"geometry":{"type":"Polygon","coordinates":[[[2.74627,50.15987],[2.74426,50.15927],[2.74052,50.16241],[2.74213,50.16342],[2.74627,50.15987]]]}},{"type":"Feature","properties":{"k":"BTN","s":0.186},"geometry":{"type":"Polygon","coordinates":[[[2.74239,50.16314],[2.74244,50.16316],[2.74627,50.15987],[2.74239,50.16314]]]}},{"type":"Feature","properties":{"k":"PTR","s":0.17},"geometry":{"type":"Polygon","coordinates":[[[2.74437,50.15918],[2.74426,50.15927],[2.74632,50.15989],[2.74643,50.1598],[2.74437,50.15918]]]}},{"type":"Feature","properties":{"k":"BTH","s":3.736},"geometry":{"type":"Polygon","coordinates":[[[2.74893,50.16047],[2.75138,50.15927],[2.75,50.15826],[2.74678,50.15981],[2.74893,50.16047]]]}},{"type":"Feature","properties":{"k":"MIS","s":7.601},"geometry":{"type":"Polygon","coordinates":[[[2.751,50.16296],[2.75002,50.16173],[2.74961,50.16203],[2.74936,50.1619],[2.74986,50.16149],[2.74919,50.16079],[2.7462,50.16325],[2.74856,50.16486],[2.751,50.16296]]]}},{"type":"Feature","properties":{"k":"BTH","s":1.328},"geometry":{"type":"Polygon","coordinates":[[[2.75383,50.16254],[2.75532,50.16358],[2.75564,50.16342],[2.75379,50.16212],[2.75136,50.16321],[2.75168,50.16352],[2.75383,50.16254]]]}},{"type":"Feature","properties":{"k":"PTC","s":5.962},"geometry":{"type":"Polygon","coordinates":[[[2.75134,50.16322],[2.75484,50.16166],[2.75274,50.16021],[2.74999,50.16153],[2.75134,50.16322]]]}},{"type":"Feature","properties":{"k":"PHF","s":3.23},"geometry":{"type":"Polygon","coordinates":[[[2.75003,50.16152],[2.75274,50.16021],[2.75138,50.15927],[2.74893,50.16048],[2.75003,50.16152]]]}},{"type":"Feature","properties":{"k":"BTH","s":20.265},"geometry":{"type":"Polygon","coordinates":[[[2.74583,50.15957],[2.74953,50.15613],[2.74195,50.15493],[2.73958,50.15702],[2.74223,50.15826],[2.74291,50.15795],[2.74314,50.15816],[2.74257,50.15842],[2.74583,50.15957]]]}},{"type":"Feature","properties":{"k":"PTC","s":6.255},"geometry":{"type":"Polygon","coordinates":[[[2.74857,50.16486],[2.75132,50.1668],[2.75357,50.16575],[2.75033,50.16351],[2.74857,50.16486]]]}},{"type":"Feature","properties":{"k":"ORH","s":3.027},"geometry":{"type":"Polygon","coordinates":[[[2.75168,50.16352],[2.75331,50.16459],[2.75531,50.16359],[2.75383,50.16254],[2.75168,50.16352]]]}},{"type":"Feature","properties":{"k":"BTH","s":2.301},"geometry":{"type":"Polygon","coordinates":[[[2.75357,50.16574],[2.75433,50.16548],[2.75206,50.16392],[2.751,50.16296],[2.75033,50.16349],[2.75357,50.16574]]]}},{"type":"Feature","properties":{"k":"BTH","s":5.299},"geometry":{"type":"Polygon","coordinates":[[[2.74746,50.16411],[2.7455,50.16277],[2.74472,50.16344],[2.75032,50.16721],[2.75132,50.1668],[2.74746,50.16411]]]}},{"type":"Feature","properties":{"k":"BTH","s":4.361},"geometry":{"type":"Polygon","coordinates":[[[2.75336,50.15176],[2.7517,50.1508],[2.74949,50.15305],[2.75142,50.15373],[2.75336,50.15176]]]}},{"type":"Feature","properties":{"k":"LIF","s":2.995},"geometry":{"type":"Polygon","coordinates":[[[2.7527,50.15436],[2.75466,50.15235],[2.75335,50.15177],[2.75142,50.15373],[2.7527,50.15436]]]}},{"type":"Feature","properties":{"k":"BTH","s":0.0},"geometry":{"type":"Polygon","coordinates":[]}},{"type":"Feature","properties":{"k":"LUZ","s":0.005},"geometry":{"type":"Polygon","coordinates":[[[2.75475,50.1524],[2.75466,50.15235],[2.75462,50.1524],[2.75475,50.1524]]]}},{"type":"Feature","properties":{"k":"PTC","s":8.225},"geometry":{"type":"Polygon","coordinates":[[[2.75419,50.14943],[2.75503,50.14795],[2.75376,50.14764],[2.75347,50.14722],[2.75016,50.1471],[2.74863,50.14689],[2.74831,50.14717],[2.74599,50.14659],[2.74537,50.14631],[2.74484,50.14661],[2.75419,50.14943]]]}},{"type":"Feature","properties":{"k":"BTN","s":0.264},"geometry":{"type":"MultiPolygon","coordinates":[[[[2.75276,50.15137],[2.75419,50.14943],[2.75403,50.14938],[2.75276,50.15137]]],[[[2.7532,50.15163],[2.75307,50.15157],[2.75314,50.15161],[2.7532,50.15163]]]]}},{"type":"Feature","properties":{"k":"MIS","s":0.416},"geometry":{"type":"Polygon","coordinates":[[[2.75096,50.15103],[2.7506,50.1509],[2.75097,50.15054],[2.75072,50.15045],[2.75019,50.15096],[2.75118,50.15133],[2.7517,50.1508],[2.75133,50.15067],[2.75096,50.15103]]]}},{"type":"Feature","properties":{"k":"BTH","s":8.054},"geometry":{"type":"Polygon","coordinates":[[[2.74868,50.14908],[2.74983,50.14993],[2.75196,50.15083],[2.75266,50.15128],[2.75403,50.14938],[2.74828,50.14764],[2.7476,50.14857],[2.74868,50.14908]]]}},{"type":"Feature","properties":{"k":"BTH","s":11.474},"geometry":{"type":"Polygon","coordinates":[[[2.74852,50.14906],[2.74706,50.14844],[2.74602,50.14859],[2.74506,50.1497],[2.746,50.1518],[2.74848,50.1527],[2.75062,50.15054],[2.74852,50.14906]]]}},{"type":"Feature","properties":{"k":"BTH","s":8.328},"geometry":{"type":"Polygon","coordinates":[[[2.7415,50.14821],[2.74063,50.14912],[2.74228,50.14911],[2.74408,50.14889],[2.74392,50.14846],[2.74427,50.1484],[2.74442,50.14882],[2.74694,50.14835],[2.7475,50.14853],[2.74819,50.14761],[2.74456,50.14653],[2.7415,50.14821]]]}},{"type":"Feature","properties":{"k":"PTC","s":0.114},"geometry":{"type":"Polygon","coordinates":[[[2.74537,50.14631],[2.74507,50.14621],[2.74452,50.14651],[2.74484,50.14661],[2.74537,50.14631]]]}},{"type":"Feature","properties":{"k":"BTN","s":4.391},"geometry":{"type":"Polygon","coordinates":[[[2.743,50.14467],[2.74249,50.14564],[2.74439,50.14649],[2.74656,50.14532],[2.74598,50.14491],[2.74395,50.14404],[2.743,50.14467]]]}},{"type":"Feature","properties":{"k":"BTH","s":2.555},"geometry":{"type":"Polygon","coordinates":[[[2.74146,50.14687],[2.74178,50.14787],[2.74437,50.14649],[2.74251,50.14565],[2.74146,50.14687]]]}},{"type":"Feature","properties":{"k":"PTC","s":11.761},"geometry":{"type":"Polygon","coordinates":[[[2.73505,50.14235],[2.73362,50.14371],[2.74167,50.14635],[2.74241,50.1456],[2.74276,50.14487],[2.73693,50.14296],[2.73505,50.14235]]]}},{"type":"Feature","properties":{"k":"BTH","s":30.95},"geometry":{"type":"Polygon","coordinates":[[[2.73141,50.14754],[2.73948,50.1501],[2.74065,50.1488],[2.74047,50.14873],[2.74162,50.14797],[2.74135,50.14691],[2.74165,50.14636],[2.73362,50.14371],[2.73183,50.14542],[2.73141,50.14754]]]}},{"type":"Feature","properties":{"k":"BTN","s":3.918},"geometry":{"type":"Polygon","coordinates":[[[2.73141,50.14754],[2.73118,50.14807],[2.73894,50.15061],[2.7393,50.15007],[2.73141,50.14754]]]}},{"type":"Feature","properties":{"k":"PTR","s":0.095},"geometry":{"type":"Polygon","coordinates":[[[2.73912,50.15067],[2.73947,50.15013],[2.7393,50.15007],[2.73894,50.15061],[2.73912,50.15067]]]}},{"type":"Feature","properties":{"k":"ORP","s":7.559},"geometry":{"type":"Polygon","coordinates":[[[2.73648,50.15164],[2.73676,50.1513],[2.73806,50.15165],[2.73912,50.15067],[2.73341,50.14881],[2.73233,50.14998],[2.73392,50.1502],[2.73349,50.15086],[2.73648,50.15164]]]}},{"type":"Feature","properties":{"k":"BTA","s":0.159},"geometry":{"type":"Polygon","coordinates":[[[2.73676,50.1513],[2.73648,50.15164],[2.7343,50.15103],[2.73652,50.1517],[2.73676,50.15135],[2.73795,50.15166],[2.73676,50.1513]]]}},{"type":"Feature","properties":{"k":"PPH","s":0.586},"geometry":{"type":"Polygon","coordinates":[[[2.73657,50.15388],[2.73604,50.15432],[2.7367,50.15484],[2.73746,50.15415],[2.73657,50.15388]]]}},{"type":"Feature","properties":{"k":"BTH","s":2.4},"geometry":{"type":"Polygon","coordinates":[[[2.74193,50.15495],[2.73746,50.15415],[2.73679,50.15476],[2.74129,50.15552],[2.74193,50.15495]]]}},{"type":"Feature","properties":{"k":"PPH","s":5.356},"geometry":{"type":"Polygon","coordinates":[[[2.73853,50.15431],[2.74041,50.15215],[2.73991,50.152],[2.74066,50.15112],[2.73925,50.15072],[2.7388,50.15124],[2.73912,50.15139],[2.73882,50.15162],[2.73961,50.15191],[2.73945,50.15207],[2.73906,50.15241],[2.73772,50.15197],[2.73624,50.15367],[2.73853,50.15431]]]}},{"type":"Feature","properties":{"k":"BTH","s":15.154},"geometry":{"type":"Polygon","coordinates":[[[2.7409,50.1547],[2.74508,50.14991],[2.74494,50.14967],[2.74396,50.1491],[2.74351,50.14903],[2.74353,50.14915],[2.74237,50.1493],[2.74233,50.14916],[2.7405,50.14918],[2.74021,50.14937],[2.73925,50.15072],[2.74066,50.15112],[2.73991,50.152],[2.74134,50.15256],[2.74034,50.15225],[2.73853,50.15431],[2.7409,50.1547]],[[2.74412,50.14936],[2.74414,50.14934],[2.74467,50.14962],[2.74412,50.14936]]]}},{"type":"Feature","properties":{"k":"LUZ","s":2.012},"geometry":{"type":"Polygon","coordinates":[[[2.74508,50.14991],[2.7409,50.1547],[2.74139,50.15478],[2.74525,50.15032],[2.74508,50.14991]]]}},{"type":"Feature","properties":{"k":"CZH","s":3.342},"geometry":{"type":"Polygon","coordinates":[[[2.74525,50.15032],[2.74139,50.15478],[2.7423,50.15492],[2.74558,50.15108],[2.74525,50.15032]]]}},{"type":"Feature","properties":{"k":"PHF","s":8.025},"geometry":{"type":"Polygon","coordinates":[[[2.74558,50.15108],[2.7423,50.15492],[2.7443,50.15514],[2.74498,50.15404],[2.74532,50.15416],[2.74428,50.15522],[2.74516,50.15536],[2.74766,50.15246],[2.746,50.15189],[2.74558,50.15108]]]}},{"type":"Feature","properties":{"k":"LIF","s":4.883},"geometry":{"type":"Polygon","coordinates":[[[2.74948,50.15317],[2.7476,50.15253],[2.74522,50.15529],[2.74717,50.15561],[2.74948,50.15317]]]}},{"type":"Feature","properties":{"k":"TRE","s":0.122},"geometry":{"type":"Polygon","coordinates":[[[2.74705,50.15567],[2.74717,50.15561],[2.74516,50.15536],[2.74705,50.15567]]]}},{"type":"Feature","properties":{"k":"PTC","s":1.129},"geometry":{"type":"Polygon","coordinates":[[[2.75008,50.15823],[2.75011,50.15825],[2.75331,50.15674],[2.75192,50.15654],[2.75008,50.15823]]]}},{"type":"Feature","properties":{"k":"PTC","s":6.449},"geometry":{"type":"Polygon","coordinates":[[[2.74675,50.15981],[2.75,50.15826],[2.75029,50.15797],[2.75031,50.15795],[2.75054,50.15771],[2.75031,50.15754],[2.7507,50.15719],[2.75096,50.15733],[2.75175,50.15653],[2.74953,50.15613],[2.74588,50.15958],[2.74675,50.15981]]]}},{"type":"Feature","properties":{"k":"BTH","s":3.865},"geometry":{"type":"Polygon","coordinates":[[[2.75183,50.15445],[2.75017,50.15615],[2.75376,50.1567],[2.75507,50.15692],[2.75183,50.15445]]]}},{"type":"Feature","properties":{"k":"LUZ","s":0.001},"geometry":{"type":"Polygon","coordinates":[[[2.7527,50.15436],[2.75271,50.15437],[2.75275,50.15432],[2.7527,50.15436]]]}},{"type":"Feature","properties":{"k":"PHF","s":0.102},"geometry":{"type":"Polygon","coordinates":[[[2.75275,50.15432],[2.7547,50.15244],[2.75462,50.1524],[2.75275,50.15432]]]}},{"type":"Feature","properties":{"k":"PTR","s":0.813},"geometry":{"type":"Polygon","coordinates":[[[2.75222,50.15407],[2.75186,50.15392],[2.74975,50.15609],[2.75017,50.15615],[2.75222,50.15407]]]}},{"type":"Feature","properties":{"k":"BTH","s":5.702},"geometry":{"type":"Polygon","coordinates":[[[2.75184,50.15391],[2.74954,50.15311],[2.74712,50.15566],[2.74972,50.15609],[2.75184,50.15391]]]}},{"type":"Feature","properties":{"k":"MIS","s":0.166},"geometry":{"type":"Polygon","coordinates":[[[2.74848,50.1527],[2.74949,50.15305],[2.74964,50.1529],[2.74863,50.15254],[2.74848,50.1527]]]}},{"type":"Feature","properties":{"k":"TRE","s":0.122},"geometry":{"type":"Polygon","coordinates":[[[2.74954,50.15311],[2.74766,50.15246],[2.7476,50.15253],[2.74954,50.15311]]]}},{"type":"Feature","properties":{"k":"BTH","s":1.704},"geometry":{"type":"Polygon","coordinates":[[[2.74863,50.15254],[2.74964,50.1529],[2.75118,50.15133],[2.75019,50.15096],[2.74863,50.15254]]]}},{"type":"Feature","properties":{"k":"PPH","s":4.94},"geometry":{"type":"Polygon","coordinates":[[[2.73562,50.15412],[2.73514,50.15431],[2.73481,50.15412],[2.73378,50.15487],[2.73282,50.15685],[2.73301,50.15783],[2.73651,50.15488],[2.73562,50.15412]]]}},{"type":"Feature","properties":{"k":"BTH","s":15.277},"geometry":{"type":"Polygon","coordinates":[[[2.73813,50.13939],[2.73663,50.14084],[2.74456,50.14344],[2.74475,50.14294],[2.74454,50.14188],[2.74533,50.1409],[2.7403,50.13921],[2.73813,50.13939]]]}},{"type":"Feature","properties":{"k":"ORP","s":3.658},"geometry":{"type":"Polygon","coordinates":[[[2.74615,50.14018],[2.74319,50.13899],[2.7403,50.13921],[2.74533,50.1409],[2.74615,50.14018]]]}},{"type":"Feature","properties":{"k":"BTH","s":7.653},"geometry":{"type":"Polygon","coordinates":[[[2.74594,50.14295],[2.74783,50.14216],[2.74904,50.14186],[2.74771,50.1399],[2.74722,50.13947],[2.74656,50.1397],[2.74468,50.14183],[2.74481,50.14319],[2.74396,50.14404],[2.74454,50.14426],[2.74594,50.14295]]]}},{"type":"Feature","properties":{"k":"BOR","s":0.124},"geometry":{"type":"Polygon","coordinates":[[[2.72749,50.15628],[2.72756,50.15631],[2.72904,50.15472],[2.72749,50.15628]]]}},{"type":"Feature","properties":{"k":"PHF","s":5.575},"geometry":{"type":"Polygon","coordinates":[[[2.72249,50.1538],[2.7226,50.1543],[2.72749,50.15628],[2.72843,50.15527],[2.72309,50.15322],[2.72249,50.1538]]]}},{"type":"Feature","properties":{"k":"BTH","s":13.692},"geometry":{"type":"Polygon","coordinates":[[[2.72845,50.15281],[2.72889,50.15119],[2.72842,50.15086],[2.72606,50.15038],[2.72309,50.15322],[2.72843,50.15527],[2.72896,50.15471],[2.72845,50.15281]]]}},{"type":"Feature","properties":{"k":"PPH","s":0.437},"geometry":{"type":"Polygon","coordinates":[[[2.73066,50.15394],[2.7315,50.15413],[2.73144,50.15336],[2.73073,50.15329],[2.73066,50.15394]]]}},{"type":"Feature","properties":{"k":"PPH","s":0.543},"geometry":{"type":"Polygon","coordinates":[[[2.73114,50.14969],[2.73158,50.14906],[2.73083,50.1487],[2.73031,50.14938],[2.73114,50.14969]]]}},{"type":"Feature","properties":{"k":"MIS","s":2.61},"geometry":{"type":"Polygon","coordinates":[[[2.72976,50.14938],[2.73012,50.14948],[2.73104,50.14817],[2.72946,50.14766],[2.72827,50.14917],[2.72936,50.14985],[2.72976,50.14938]]]}},{"type":"Feature","properties":{"k":"MIS","s":0.915},"geometry":{"type":"MultiPolygon","coordinates":[[[[2.72946,50.14766],[2.72801,50.14719],[2.72752,50.14782],[2.72898,50.14829],[2.72946,50.14766]]]]}},{"type":"Feature","properties":{"k":"MIS","s":0.0},"geometry":{"type":"Polygon","coordinates":[]}},{"type":"Feature","properties":{"k":"PPH","s":1.911},"geometry":{"type":"Polygon","coordinates":[[[2.73158,50.14851],[2.73105,50.14836],[2.73083,50.14869],[2.7316,50.14906],[2.7311,50.14979],[2.73228,50.14998],[2.73341,50.1488],[2.73182,50.14829],[2.73158,50.14851]]]}},{"type":"Feature","properties":{"k":"PTR","s":0.149},"geometry":{"type":"Polygon","coordinates":[[[2.72907,50.15887],[2.72904,50.1589],[2.73132,50.15983],[2.72907,50.15887]]]}},{"type":"Feature","properties":{"k":"ORH","s":0.18},"geometry":{"type":"Polygon","coordinates":[[[2.72828,50.15857],[2.7282,50.1591],[2.72904,50.1589],[2.72828,50.15857]]]}},{"type":"Feature","properties":{"k":"PTR","s":0.045},"geometry":{"type":"Polygon","coordinates":[[[2.73377,50.15949],[2.73426,50.15967],[2.73435,50.15959],[2.73387,50.15941],[2.73377,50.15949]]]}},{"type":"Feature","properties":{"k":"PPH","s":3.426},"geometry":{"type":"Polygon","coordinates":[[[2.72714,50.15048],[2.72742,50.15014],[2.72786,50.15031],[2.72826,50.14994],[2.72784,50.14975],[2.72898,50.14829],[2.72752,50.14782],[2.72568,50.15024],[2.72714,50.15048]]]}},{"type":"Feature","properties":{"k":"PPH","s":0.775},"geometry":{"type":"Polygon","coordinates":[[[2.72784,50.14979],[2.72872,50.15011],[2.72843,50.1505],[2.72888,50.15058],[2.72941,50.14989],[2.72827,50.14917],[2.72784,50.14979]]]}},{"type":"Feature","properties":{"k":"PTC","s":6.165},"geometry":{"type":"Polygon","coordinates":[[[2.73328,50.15922],[2.73262,50.15721],[2.73276,50.15657],[2.73124,50.15601],[2.73067,50.15647],[2.73145,50.15988],[2.73334,50.16065],[2.73328,50.15922]]]}},{"type":"Feature","properties":{"k":"BTH","s":1.745},"geometry":{"type":"Polygon","coordinates":[[[2.75379,50.16212],[2.75564,50.16342],[2.75665,50.16291],[2.75484,50.16166],[2.75379,50.16212]]]}}]}