{"type":"FeatureCollection","features":[{"type":"Feature","properties":{"k":"ORH","s":3.244},"geometry":{"type":"Polygon","coordinates":[[[1.88784,50.46484],[1.88865,50.46405],[1.88512,50.4627],[1.88388,50.46333],[1.88784,50.46484]]]}},{"type":"Feature","properties":{"k":"LUZ","s":4.887},"geometry":{"type":"Polygon","coordinates":[[[1.88253,50.46941],[1.88651,50.47127],[1.88689,50.4705],[1.88534,50.47008],[1.8863,50.46813],[1.88434,50.46818],[1.88253,50.46941]]]}},{"type":"Feature","properties":{"k":"PTC","s":2.637},"geometry":{"type":"Polygon","coordinates":[[[1.87551,50.46907],[1.87526,50.46894],[1.87307,50.46956],[1.87133,50.46985],[1.87416,50.47148],[1.87776,50.47328],[1.87994,50.47128],[1.87972,50.47117],[1.87779,50.47304],[1.87189,50.46995],[1.87551,50.46907]]]}},{"type":"Feature","properties":{"k":"PTC","s":11.058},"geometry":{"type":"Polygon","coordinates":[[[1.87972,50.47117],[1.87551,50.46907],[1.87189,50.46995],[1.87779,50.47304],[1.87972,50.47117]]]}},{"type":"Feature","properties":{"k":"ORH","s":4.102},"geometry":{"type":"Polygon","coordinates":[[[1.87527,50.46894],[1.88001,50.47128],[1.88086,50.47055],[1.8772,50.46867],[1.87527,50.46894]]]}},{"type":"Feature","properties":{"k":"ORP","s":5.226},"geometry":{"type":"Polygon","coordinates":[[[1.88086,50.47055],[1.88332,50.46883],[1.88211,50.46824],[1.87957,50.46864],[1.87728,50.46871],[1.88086,50.47055]]]}},{"type":"Feature","properties":{"k":"BTH","s":1.055},"geometry":{"type":"Polygon","coordinates":[[[1.88163,50.47002],[1.8814,50.47019],[1.88596,50.47236],[1.88609,50.47211],[1.88163,50.47002]]]}},{"type":"Feature","properties":{"k":"BTH","s":2.546},"geometry":{"type":"Polygon","coordinates":[[[1.8862,50.4719],[1.88651,50.47127],[1.88253,50.46941],[1.88184,50.46986],[1.8862,50.4719]]]}},{"type":"Feature","properties":{"k":"BTH","s":0.875},"geometry":{"type":"Polygon","coordinates":[[[1.88185,50.46987],[1.88163,50.47002],[1.88609,50.47211],[1.88619,50.4719],[1.88185,50.46987]]]}},{"type":"Feature","properties":{"k":"BTH","s":27.871},"geometry":{"type":"Polygon","coordinates":[[[1.8432,50.49407],[1.8434,50.4939],[1.84137,50.49164],[1.83469,50.49494],[1.84008,50.49665],[1.8363,50.49983],[1.83837,50.50026],[1.84423,50.49526],[1.8432,50.49407]],[[1.8414,50.49179],[1.84149,50.49195],[1.84135,50.49199],[1.84117,50.49185],[1.8414,50.49179]]]}},{"type":"Feature","properties":{"k":"BTH","s":7.829},"geometry":{"type":"Polygon","coordinates":[[[1.87991,50.4685],[1.87251,50.46511],[1.87108,50.46587],[1.8769,50.46861],[1.87991,50.4685]]]}},{"type":"Feature","properties":{"k":"MIS","s":6.89},"geometry":{"type":"Polygon","coordinates":[[[1.87405,50.46541],[1.87298,50.46488],[1.87251,50.46511],[1.87991,50.4685],[1.88203,50.46818],[1.8755,50.4652],[1.87405,50.46541]]]}},{"type":"Feature","properties":{"k":"LUZ","s":0.963},"geometry":{"type":"Polygon","coordinates":[[[1.87629,50.46424],[1.87336,50.46494],[1.87354,50.46506],[1.87642,50.46438],[1.88152,50.4638],[1.88136,50.46369],[1.87629,50.46424]]]}},{"type":"Feature","properties":{"k":"BTH","s":3.836},"geometry":{"type":"Polygon","coordinates":[[[1.87294,50.46485],[1.87405,50.46541],[1.88216,50.46423],[1.88152,50.4638],[1.87642,50.46438],[1.87354,50.46506],[1.87294,50.46485]]]}},{"type":"Feature","properties":{"k":"BTH","s":0.05},"geometry":{"type":"MultiPolygon","coordinates":[[[[1.87112,50.4636],[1.87178,50.46397],[1.87022,50.46304],[1.87112,50.4636]]],[[[1.87305,50.46479],[1.87335,50.46492],[1.87192,50.46406],[1.87305,50.46479]]]]}},{"type":"Feature","properties":{"k":"BTH","s":0.0},"geometry":{"type":"Polygon","coordinates":[]}},{"type":"Feature","properties":{"k":"BTP","s":0.001},"geometry":{"type":"Polygon","coordinates":[]}},{"type":"Feature","properties":{"k":"ORH","s":0.0},"geometry":{"type":"Polygon","coordinates":[]}},{"type":"Feature","properties":{"k":"BTH","s":3.427},"geometry":{"type":"Polygon","coordinates":[[[1.8363,50.49983],[1.83793,50.49847],[1.8353,50.49767],[1.83436,50.4994],[1.8363,50.49983]]]}},{"type":"Feature","properties":{"k":"BTP","s":0.017},"geometry":{"type":"Polygon","coordinates":[]}},{"type":"Feature","properties":{"k":"BTH","s":0.003},"geometry":{"type":"Polygon","coordinates":[]}},{"type":"Feature","properties":{"k":"PTC","s":0.0},"geometry":{"type":"Polygon","coordinates":[]}},{"type":"Feature","properties":{"k":"BTH","s":11.209},"geometry":{"type":"Polygon","coordinates":[[[1.84442,50.49511],[1.83837,50.50026],[1.84089,50.50064],[1.84577,50.49667],[1.84442,50.49511]]]}},{"type":"Feature","properties":{"k":"MIS","s":0.306},"geometry":{"type":"Polygon","coordinates":[[[1.84409,50.49509],[1.84423,50.49526],[1.84442,50.49511],[1.8434,50.4939],[1.8432,50.49407],[1.84409,50.49509]]]}},{"type":"Feature","properties":{"k":"PTC","s":6.279},"geometry":{"type":"Polygon","coordinates":[[[1.83782,50.49825],[1.83806,50.49832],[1.83966,50.49694],[1.83943,50.49687],[1.83959,50.49673],[1.83424,50.49511],[1.83381,50.49539],[1.83592,50.49629],[1.8353,50.49767],[1.83766,50.49839],[1.83782,50.49825]]]}},{"type":"Feature","properties":{"k":"PTC","s":2.79},"geometry":{"type":"Polygon","coordinates":[[[1.87592,50.46872],[1.87689,50.46861],[1.87108,50.46587],[1.87038,50.46623],[1.87592,50.46872]]]}},{"type":"Feature","properties":{"k":"BTN","s":0.557},"geometry":{"type":"Polygon","coordinates":[[[1.88332,50.46883],[1.88422,50.46822],[1.88417,50.46817],[1.88215,50.46824],[1.88332,50.46883]]]}},{"type":"Feature","properties":{"k":"CZH","s":1.692},"geometry":{"type":"Polygon","coordinates":[[[1.87994,50.4659],[1.88476,50.46808],[1.88507,50.46775],[1.88054,50.46577],[1.87994,50.4659]]]}},{"type":"Feature","properties":{"k":"BTN","s":1.956},"geometry":{"type":"Polygon","coordinates":[[[1.88064,50.46575],[1.88509,50.46773],[1.88546,50.46733],[1.88161,50.46559],[1.88064,50.46575]]]}},{"type":"Feature","properties":{"k":"PTC","s":2.803},"geometry":{"type":"Polygon","coordinates":[[[1.88308,50.46814],[1.87642,50.46507],[1.8755,50.4652],[1.88203,50.46818],[1.88308,50.46814]]]}},{"type":"Feature","properties":{"k":"BTH","s":8.848},"geometry":{"type":"Polygon","coordinates":[[[1.88308,50.46814],[1.88476,50.46808],[1.87994,50.4659],[1.88161,50.46559],[1.88546,50.46732],[1.88583,50.4669],[1.88048,50.46449],[1.87642,50.46507],[1.88308,50.46814]]]}},{"type":"Feature","properties":{"k":"MIS","s":0.023},"geometry":{"type":"Polygon","coordinates":[[[1.88134,50.4637],[1.88132,50.46367],[1.8805,50.46377],[1.88134,50.4637]]]}},{"type":"Feature","properties":{"k":"CZH","s":0.018},"geometry":{"type":"Polygon","coordinates":[[[1.88287,50.46386],[1.88304,50.46376],[1.88208,50.46416],[1.88287,50.46386]]]}},{"type":"Feature","properties":{"k":"BTN","s":3.142},"geometry":{"type":"Polygon","coordinates":[[[1.88586,50.46689],[1.88642,50.4663],[1.88179,50.4643],[1.88049,50.46448],[1.88586,50.46689]]]}},{"type":"Feature","properties":{"k":"MIS","s":2.748},"geometry":{"type":"Polygon","coordinates":[[[1.88702,50.46569],[1.88268,50.46396],[1.88179,50.4643],[1.88642,50.4663],[1.88702,50.46569]]]}},{"type":"Feature","properties":{"k":"BTN","s":2.201},"geometry":{"type":"Polygon","coordinates":[[[1.88267,50.46396],[1.88702,50.46569],[1.88749,50.4652],[1.88334,50.46361],[1.88267,50.46396]]]}},{"type":"Feature","properties":{"k":"BTH","s":1.546},"geometry":{"type":"Polygon","coordinates":[[[1.88784,50.46484],[1.8864,50.46428],[1.88388,50.46333],[1.88334,50.46361],[1.88742,50.46517],[1.88784,50.46484]]]}},{"type":"Feature","properties":{"k":"BTH","s":3.85},"geometry":{"type":"Polygon","coordinates":[[[1.88675,50.46796],[1.88893,50.46547],[1.88773,50.46502],[1.88488,50.46806],[1.88675,50.46796]]]}},{"type":"Feature","properties":{"k":"MIS","s":7.182},"geometry":{"type":"Polygon","coordinates":[[[1.88793,50.46772],[1.88956,50.46784],[1.8902,50.46696],[1.89149,50.46713],[1.89335,50.46558],[1.89131,50.46478],[1.89025,50.46597],[1.88894,50.46547],[1.88675,50.46796],[1.88793,50.46772]]]}},{"type":"Feature","properties":{"k":"CZH","s":2.966},"geometry":{"type":"Polygon","coordinates":[[[1.89024,50.46593],[1.89127,50.46477],[1.88887,50.46396],[1.88775,50.46501],[1.89024,50.46593]]]}},{"type":"Feature","properties":{"k":"PPH","s":3.613},"geometry":{"type":"Polygon","coordinates":[[[1.89843,50.46721],[1.89505,50.46622],[1.89433,50.46658],[1.89509,50.46824],[1.8962,50.46822],[1.89843,50.46721]]]}},{"type":"Feature","properties":{"k":"PPH","s":0.548},"geometry":{"type":"Polygon","coordinates":[[[1.89431,50.46656],[1.89395,50.46667],[1.89467,50.46825],[1.89509,50.46824],[1.89431,50.46656]]]}},{"type":"Feature","properties":{"k":"PPH","s":0.448},"geometry":{"type":"Polygon","coordinates":[[[1.89428,50.46824],[1.89466,50.46824],[1.89395,50.46667],[1.89363,50.46676],[1.89428,50.46824]]]}},{"type":"Feature","properties":{"k":"JAC","s":0.615},"geometry":{"type":"Polygon","coordinates":[[[1.89292,50.46674],[1.89243,50.46699],[1.89363,50.46676],[1.89512,50.46625],[1.89448,50.46601],[1.89292,50.46674]]]}},{"type":"Feature","properties":{"k":"BTH","s":4.813},"geometry":{"type":"Polygon","coordinates":[[[1.89238,50.46819],[1.89428,50.46824],[1.89362,50.46677],[1.89243,50.46699],[1.89448,50.466],[1.89339,50.46558],[1.89152,50.46715],[1.89019,50.46698],[1.88958,50.46783],[1.89238,50.46819]]]}},{"type":"Feature","properties":{"k":"PPH","s":7.024},"geometry":{"type":"Polygon","coordinates":[[[1.89105,50.4708],[1.89292,50.46867],[1.89672,50.46924],[1.89723,50.46841],[1.89314,50.46834],[1.89033,50.46802],[1.88908,50.47017],[1.89105,50.4708]]]}},{"type":"Feature","properties":{"k":"CZH","s":2.262},"geometry":{"type":"Polygon","coordinates":[[[1.89549,50.46993],[1.89671,50.46925],[1.89292,50.46868],[1.89236,50.46929],[1.89549,50.46993]]]}},{"type":"Feature","properties":{"k":"PPH","s":0.0},"geometry":{"type":"Polygon","coordinates":[]}},{"type":"Feature","properties":{"k":"MIS","s":1.856},"geometry":{"type":"Polygon","coordinates":[[[1.896,50.47194],[1.89654,50.47023],[1.89569,50.46989],[1.89488,50.47036],[1.89441,50.47085],[1.896,50.47194]]]}},{"type":"Feature","properties":{"k":"BTH","s":4.125},"geometry":{"type":"Polygon","coordinates":[[[1.89549,50.46993],[1.89236,50.46931],[1.89105,50.4708],[1.89395,50.47144],[1.89427,50.47074],[1.89549,50.46993]]]}},{"type":"Feature","properties":{"k":"MIS","s":1.275},"geometry":{"type":"Polygon","coordinates":[[[1.89364,50.47197],[1.89394,50.47145],[1.89098,50.47085],[1.89103,50.47137],[1.89364,50.47197]]]}},{"type":"Feature","properties":{"k":"BTH","s":4.042},"geometry":{"type":"Polygon","coordinates":[[[1.88709,50.46973],[1.88908,50.47017],[1.89032,50.46802],[1.88788,50.4678],[1.88724,50.469],[1.88709,50.46973]]]}},{"type":"Feature","properties":{"k":"BTN","s":1.685},"geometry":{"type":"Polygon","coordinates":[[[1.88566,50.46939],[1.88702,50.46972],[1.88776,50.46781],[1.8863,50.46813],[1.88566,50.46939]]]}},{"type":"Feature","properties":{"k":"MIS","s":0.916},"geometry":{"type":"Polygon","coordinates":[[[1.88566,50.46939],[1.88534,50.47008],[1.88689,50.4705],[1.88702,50.46972],[1.88566,50.46939]]]}},{"type":"Feature","properties":{"k":"MIS","s":2.024},"geometry":{"type":"Polygon","coordinates":[[[1.88687,50.47067],[1.88943,50.47125],[1.88972,50.47038],[1.88709,50.46973],[1.88687,50.47067]]]}},{"type":"Feature","properties":{"k":"ORH","s":3.537},"geometry":{"type":"Polygon","coordinates":[[[1.88942,50.47125],[1.88684,50.47067],[1.88611,50.47215],[1.88897,50.47278],[1.88942,50.47125]]]}},{"type":"Feature","properties":{"k":"ORP","s":0.61},"geometry":{"type":"Polygon","coordinates":[[[1.88611,50.47215],[1.886,50.47237],[1.88888,50.47309],[1.88897,50.47282],[1.88611,50.47215]]]}},{"type":"Feature","properties":{"k":"BTH","s":8.698},"geometry":{"type":"Polygon","coordinates":[[[1.8883,50.47393],[1.88705,50.47464],[1.88929,50.47581],[1.8913,50.47443],[1.8907,50.47423],[1.89156,50.47197],[1.89073,50.47177],[1.89046,50.47205],[1.8908,50.47134],[1.89079,50.47082],[1.88972,50.47038],[1.88879,50.47336],[1.8883,50.47393]]]}},{"type":"Feature","properties":{"k":"MIS","s":0.826},"geometry":{"type":"Polygon","coordinates":[[[1.89073,50.47177],[1.89347,50.47224],[1.89364,50.47197],[1.89109,50.47139],[1.89073,50.47177]]]}},{"type":"Feature","properties":{"k":"BTN","s":0.177},"geometry":{"type":"Polygon","coordinates":[[[1.89206,50.47209],[1.89338,50.47239],[1.89347,50.47224],[1.89215,50.47194],[1.89206,50.47209]]]}},{"type":"Feature","properties":{"k":"MLG","s":1.675},"geometry":{"type":"Polygon","coordinates":[[[1.89264,50.47348],[1.89338,50.47239],[1.89158,50.47198],[1.89109,50.47317],[1.89264,50.47348]]]}},{"type":"Feature","properties":{"k":"BTH","s":4.785},"geometry":{"type":"Polygon","coordinates":[[[1.89528,50.47443],[1.896,50.47196],[1.8944,50.47086],[1.89304,50.47305],[1.89302,50.47309],[1.89526,50.47451],[1.89528,50.47443]]]}},{"type":"Feature","properties":{"k":"PTC","s":3.475},"geometry":{"type":"Polygon","coordinates":[[[1.89415,50.47571],[1.89428,50.47557],[1.89448,50.47568],[1.89517,50.47467],[1.89496,50.47455],[1.89504,50.47438],[1.89323,50.47323],[1.89311,50.47338],[1.8929,50.47326],[1.89191,50.47409],[1.89209,50.4742],[1.89191,50.47432],[1.89415,50.47571]]]}},{"type":"Feature","properties":{"k":"MLG","s":1.055},"geometry":{"type":"Polygon","coordinates":[[[1.8913,50.47443],[1.89264,50.47349],[1.89109,50.47317],[1.8907,50.47423],[1.8913,50.47443]]]}},{"type":"Feature","properties":{"k":"ORH","s":2.094},"geometry":{"type":"MultiPolygon","coordinates":[[[[1.89108,50.47473],[1.89385,50.47652],[1.89441,50.47577],[1.89173,50.47421],[1.89108,50.47473]]]]}},{"type":"Feature","properties":{"k":"BTH","s":0.674},"geometry":{"type":"Polygon","coordinates":[[[1.89053,50.47505],[1.89175,50.47583],[1.89218,50.47548],[1.89384,50.47653],[1.89104,50.47471],[1.89053,50.47505]]]}},{"type":"Feature","properties":{"k":"MIS","s":0.967},"geometry":{"type":"Polygon","coordinates":[[[1.89173,50.4784],[1.89005,50.47947],[1.8907,50.47979],[1.89233,50.47877],[1.89173,50.4784]]]}},{"type":"Feature","properties":{"k":"MIS","s":0.562},"geometry":{"type":"Polygon","coordinates":[[[1.88966,50.47928],[1.89138,50.47815],[1.89111,50.47796],[1.88928,50.47908],[1.88966,50.47928]]]}},{"type":"Feature","properties":{"k":"ORH","s":0.629},"geometry":{"type":"Polygon","coordinates":[[[1.88966,50.47928],[1.89005,50.47948],[1.89094,50.47892],[1.89173,50.47839],[1.89138,50.47815],[1.88966,50.47928]]]}},{"type":"Feature","properties":{"k":"BTH","s":4.783},"geometry":{"type":"Polygon","coordinates":[[[1.88665,50.47772],[1.88928,50.47908],[1.89109,50.47796],[1.88861,50.47635],[1.88665,50.47772]]]}},{"type":"Feature","properties":{"k":"BTN","s":6.986},"geometry":{"type":"Polygon","coordinates":[[[1.89235,50.47878],[1.8907,50.4798],[1.89159,50.48024],[1.89439,50.47853],[1.8898,50.47555],[1.88862,50.47632],[1.89235,50.47878]]]}},{"type":"Feature","properties":{"k":"BTH","s":0.944},"geometry":{"type":"Polygon","coordinates":[[[1.89174,50.47583],[1.89051,50.47504],[1.8898,50.47554],[1.89109,50.47636],[1.89174,50.47583]]]}},{"type":"Feature","properties":{"k":"BTH","s":1.334},"geometry":{"type":"Polygon","coordinates":[[[1.88868,50.47622],[1.88929,50.47581],[1.88705,50.47464],[1.8864,50.47498],[1.88868,50.47622]]]}},{"type":"Feature","properties":{"k":"BTH","s":1.079},"geometry":{"type":"Polygon","coordinates":[[[1.88822,50.47655],[1.88868,50.47622],[1.88635,50.47502],[1.88581,50.47532],[1.88822,50.47655]]]}},{"type":"Feature","properties":{"k":"BTH","s":3.814},"geometry":{"type":"Polygon","coordinates":[[[1.88406,50.47639],[1.88645,50.47762],[1.88822,50.47655],[1.88581,50.47532],[1.88406,50.47639]]]}},{"type":"Feature","properties":{"k":"PTC","s":5.806},"geometry":{"type":"Polygon","coordinates":[[[1.88689,50.47999],[1.88837,50.47886],[1.88837,50.47868],[1.88499,50.47694],[1.88338,50.47816],[1.88689,50.47999]]]}},{"type":"Feature","properties":{"k":"BTN","s":2.121},"geometry":{"type":"Polygon","coordinates":[[[1.88501,50.47692],[1.88404,50.47643],[1.88193,50.47813],[1.88256,50.47874],[1.88501,50.47692]]]}},{"type":"Feature","properties":{"k":"JAC","s":0.05},"geometry":{"type":"Polygon","coordinates":[[[1.88214,50.47839],[1.88247,50.4788],[1.88223,50.47837],[1.88188,50.47817],[1.88214,50.47839]]]}},{"type":"Feature","properties":{"k":"PPH","s":1.784},"geometry":{"type":"Polygon","coordinates":[[[1.88282,50.47965],[1.8833,50.48031],[1.88358,50.48005],[1.88189,50.47819],[1.88072,50.47746],[1.87997,50.47789],[1.87976,50.47784],[1.88134,50.47879],[1.88168,50.47875],[1.88282,50.47965]]]}},{"type":"Feature","properties":{"k":"PPH","s":1.597},"geometry":{"type":"Polygon","coordinates":[[[1.87784,50.47762],[1.87772,50.47788],[1.87911,50.47839],[1.87879,50.47862],[1.88063,50.47953],[1.8812,50.47909],[1.8792,50.47803],[1.87697,50.47729],[1.87784,50.47762]]]}},{"type":"Feature","properties":{"k":"BTH","s":1.412},"geometry":{"type":"Polygon","coordinates":[[[1.8792,50.47803],[1.8812,50.47909],[1.88151,50.47887],[1.87976,50.47784],[1.87721,50.47692],[1.87712,50.47726],[1.8792,50.47803]]]}},{"type":"Feature","properties":{"k":"CZH","s":5.701},"geometry":{"type":"Polygon","coordinates":[[[1.88277,50.47588],[1.88194,50.47551],[1.87989,50.4757],[1.87802,50.47537],[1.87668,50.47651],[1.87764,50.47705],[1.87839,50.47656],[1.87971,50.47723],[1.88016,50.47699],[1.88089,50.47743],[1.88277,50.47588]]]}},{"type":"Feature","properties":{"k":"ORH","s":2.518},"geometry":{"type":"Polygon","coordinates":[[[1.88277,50.47588],[1.88086,50.47749],[1.88188,50.47816],[1.8836,50.47679],[1.88399,50.47641],[1.88277,50.47588]]]}},{"type":"Feature","properties":{"k":"BTN","s":7.615},"geometry":{"type":"Polygon","coordinates":[[[1.88406,50.47639],[1.88418,50.47631],[1.8884,50.47381],[1.88836,50.47379],[1.88794,50.4737],[1.88792,50.4737],[1.88786,50.47368],[1.88612,50.47328],[1.8855,50.47316],[1.8818,50.47535],[1.88406,50.47639]]]}},{"type":"Feature","properties":{"k":"LUZ","s":0.016},"geometry":{"type":"MultiPolygon","coordinates":[[[[1.87524,50.48063],[1.87512,50.48068],[1.87487,50.48082],[1.87524,50.48063]]],[[[1.87552,50.48141],[1.876,50.48177],[1.87492,50.48089],[1.87552,50.48141]]]]}},{"type":"Feature","properties":{"k":"PTC","s":0.123},"geometry":{"type":"Polygon","coordinates":[[[1.86873,50.48204],[1.8698,50.48167],[1.8697,50.48156],[1.86887,50.48184],[1.86873,50.48204]]]}},{"type":"Feature","properties":{"k":"CZH","s":0.012},"geometry":{"type":"Polygon","coordinates":[[[1.87679,50.47923],[1.87676,50.47922],[1.87585,50.47988],[1.87679,50.47923]]]}},{"type":"Feature","properties":{"k":"PPH","s":5.488},"geometry":{"type":"Polygon","coordinates":[[[1.87397,50.47912],[1.8743,50.4793],[1.87384,50.47959],[1.87519,50.48065],[1.87548,50.4805],[1.87524,50.4803],[1.87676,50.47922],[1.87743,50.47954],[1.87908,50.47841],[1.87669,50.4777],[1.87397,50.47912]]]}},{"type":"Feature","properties":{"k":"CZH","s":4.669},"geometry":{"type":"Polygon","coordinates":[[[1.88285,50.48135],[1.88355,50.48073],[1.88279,50.47965],[1.88169,50.47874],[1.88061,50.47958],[1.87886,50.47866],[1.87825,50.47907],[1.88019,50.48012],[1.8811,50.48101],[1.88177,50.48056],[1.88165,50.4803],[1.88285,50.48135]]]}},{"type":"Feature","properties":{"k":"BTN","s":4.563},"geometry":{"type":"Polygon","coordinates":[[[1.88358,50.48017],[1.88466,50.48089],[1.8851,50.48057],[1.88567,50.48089],[1.88689,50.47999],[1.88338,50.47816],[1.88249,50.4788],[1.88358,50.48017]]]}},{"type":"Feature","properties":{"k":"ORP","s":2.812},"geometry":{"type":"Polygon","coordinates":[[[1.86288,50.46831],[1.86489,50.46928],[1.86547,50.46859],[1.86585,50.46764],[1.86475,50.46728],[1.86463,50.46745],[1.86386,50.46733],[1.86288,50.46831]]]}},{"type":"Feature","properties":{"k":"PPH","s":0.13},"geometry":{"type":"Polygon","coordinates":[[[1.86386,50.46733],[1.86463,50.46745],[1.86475,50.46728],[1.86406,50.46711],[1.86386,50.46733]]]}},{"type":"Feature","properties":{"k":"ORH","s":0.665},"geometry":{"type":"Polygon","coordinates":[[[1.86328,50.46535],[1.86298,50.465],[1.86144,50.46656],[1.862,50.46653],[1.86328,50.46535]]]}},{"type":"Feature","properties":{"k":"PPH","s":5.121},"geometry":{"type":"Polygon","coordinates":[[[1.86187,50.46487],[1.86241,50.46458],[1.86322,50.46517],[1.86362,50.46593],[1.86445,50.46637],[1.86556,50.46668],[1.86494,50.46438],[1.86451,50.46379],[1.86367,50.46403],[1.86201,50.46333],[1.86103,50.46441],[1.86187,50.46487]]]}},{"type":"Feature","properties":{"k":"MIS","s":0.013},"geometry":{"type":"MultiPolygon","coordinates":[[[[1.86201,50.46333],[1.862,50.46332],[1.86102,50.4644],[1.86201,50.46333]]],[[[1.86451,50.46379],[1.86451,50.46378],[1.86366,50.46403],[1.86451,50.46379]]]]}},{"type":"Feature","properties":{"k":"BTH","s":12.546},"geometry":{"type":"Polygon","coordinates":[[[1.86554,50.46648],[1.86563,50.46665],[1.86581,50.46685],[1.86601,50.46707],[1.87177,50.46402],[1.86912,50.46239],[1.86834,50.46295],[1.86791,50.46281],[1.865,50.46434],[1.86554,50.46648]]]}},{"type":"Feature","properties":{"k":"CZH","s":6.11},"geometry":{"type":"Polygon","coordinates":[[[1.87056,50.46608],[1.87032,50.46597],[1.87283,50.46464],[1.87181,50.464],[1.866,50.46706],[1.86727,50.46782],[1.87056,50.46608]]]}},{"type":"Feature","properties":{"k":"MIS","s":0.473},"geometry":{"type":"Polygon","coordinates":[[[1.87283,50.46465],[1.87033,50.46597],[1.87056,50.46607],[1.87304,50.46479],[1.87283,50.46465]]]}},{"type":"Feature","properties":{"k":"BTN","s":0.009},"geometry":{"type":"Polygon","coordinates":[[[1.86658,50.46239],[1.86599,50.46268],[1.86601,50.46269],[1.86658,50.46239]]]}},{"type":"Feature","properties":{"k":"MIS","s":1.839},"geometry":{"type":"Polygon","coordinates":[[[1.865,50.46434],[1.86791,50.46281],[1.86659,50.46239],[1.86558,50.4629],[1.86609,50.46317],[1.86462,50.46383],[1.865,50.46434]]]}},{"type":"Feature","properties":{"k":"JAC","s":0.365},"geometry":{"type":"Polygon","coordinates":[[[1.88359,50.48017],[1.88331,50.48031],[1.88438,50.48111],[1.88466,50.48089],[1.88359,50.48017]]]}},{"type":"Feature","properties":{"k":"PTR","s":0.027},"geometry":{"type":"MultiPolygon","coordinates":[[[[1.88177,50.48056],[1.88187,50.4806],[1.88166,50.48032],[1.88177,50.48056]]],[[[1.88239,50.48114],[1.88261,50.48128],[1.88373,50.48181],[1.88239,50.48114]]]]}},{"type":"Feature","properties":{"k":"BTH","s":1.153},"geometry":{"type":"Polygon","coordinates":[[[1.88359,50.4807],[1.88285,50.48135],[1.88454,50.48205],[1.885,50.48149],[1.88359,50.4807]]]}},{"type":"Feature","properties":{"k":"BTH","s":0.189},"geometry":{"type":"Polygon","coordinates":[[[1.88512,50.4814],[1.88586,50.48167],[1.88612,50.48146],[1.88541,50.48117],[1.88512,50.4814]]]}},{"type":"Feature","properties":{"k":"BTH","s":0.021},"geometry":{"type":"MultiPolygon","coordinates":[[[[1.88691,50.48091],[1.88802,50.48133],[1.88701,50.48094],[1.88691,50.48091]]],[[[1.88627,50.48136],[1.88587,50.48167],[1.88669,50.48106],[1.88627,50.48136]]],[[[1.88512,50.4814],[1.88536,50.48149],[1.88513,50.48139],[1.88512,50.4814]]]]}},{"type":"Feature","properties":{"k":"PHF","s":2.083},"geometry":{"type":"Polygon","coordinates":[[[1.88927,50.47914],[1.88857,50.4788],[1.88541,50.48117],[1.88612,50.48146],[1.88927,50.47914]]]}},{"type":"Feature","properties":{"k":"MIS","s":2.284},"geometry":{"type":"Polygon","coordinates":[[[1.88928,50.47914],[1.88691,50.4809],[1.88802,50.48133],[1.89027,50.47963],[1.88928,50.47914]]]}},{"type":"Feature","properties":{"k":"ORH","s":5.403},"geometry":{"type":"Polygon","coordinates":[[[1.85377,50.50026],[1.85257,50.50145],[1.85378,50.50199],[1.85502,50.50095],[1.85431,50.50027],[1.85487,50.5],[1.85426,50.49935],[1.85448,50.49925],[1.85266,50.4972],[1.85113,50.49727],[1.85377,50.50026]]]}},{"type":"Feature","properties":{"k":"JAC","s":0.117},"geometry":{"type":"MultiPolygon","coordinates":[[[[1.8513,50.50104],[1.84995,50.50081],[1.85192,50.50125],[1.85274,50.50163],[1.85237,50.50137],[1.8513,50.50104]]],[[[1.8493,50.50082],[1.84992,50.50081],[1.84949,50.50078],[1.8493,50.50082]]]]}},{"type":"Feature","properties":{"k":"BTH","s":0.0},"geometry":{"type":"Polygon","coordinates":[[[1.84747,50.50105],[1.84697,50.50103],[1.84697,50.50104],[1.84747,50.50105]]]}},{"type":"Feature","properties":{"k":"LUZ","s":0.001},"geometry":{"type":"Polygon","coordinates":[]}},{"type":"Feature","properties":{"k":"PTR","s":0.0},"geometry":{"type":"Polygon","coordinates":[]}},{"type":"Feature","properties":{"k":"BTH","s":0.859},"geometry":{"type":"Polygon","coordinates":[[[1.85359,50.5004],[1.8536,50.50043],[1.85377,50.50026],[1.85106,50.49729],[1.85067,50.49731],[1.85359,50.5004]]]}},{"type":"Feature","properties":{"k":"BTH","s":6.413},"geometry":{"type":"Polygon","coordinates":[[[1.84519,50.49588],[1.84667,50.4975],[1.85051,50.49724],[1.84861,50.49511],[1.84836,50.49518],[1.84823,50.49507],[1.84519,50.49588]]]}},{"type":"Feature","properties":{"k":"ORH","s":3.714},"geometry":{"type":"Polygon","coordinates":[[[1.876,50.48177],[1.87486,50.48084],[1.87363,50.48141],[1.87116,50.47944],[1.87085,50.47941],[1.8707,50.47948],[1.87334,50.48154],[1.87236,50.482],[1.87344,50.48297],[1.876,50.48177]]]}},{"type":"Feature","properties":{"k":"ORH","s":1.566},"geometry":{"type":"Polygon","coordinates":[[[1.87352,50.47977],[1.87232,50.48036],[1.87363,50.48141],[1.87475,50.48083],[1.87352,50.47977]]]}},{"type":"Feature","properties":{"k":"MIS","s":0.002},"geometry":{"type":"MultiPolygon","coordinates":[[[[1.8758,50.4799],[1.87565,50.48002],[1.87581,50.47991],[1.8758,50.4799]]],[[[1.87552,50.48047],[1.87535,50.48034],[1.87547,50.48045],[1.87552,50.48047]]]]}},{"type":"Feature","properties":{"k":"BTH","s":0.455},"geometry":{"type":"Polygon","coordinates":[[[1.87482,50.48082],[1.87517,50.48065],[1.87382,50.4796],[1.87353,50.47976],[1.87482,50.48082]]]}},{"type":"Feature","properties":{"k":"LUZ","s":1.544},"geometry":{"type":"Polygon","coordinates":[[[1.87149,50.47967],[1.87238,50.48029],[1.87425,50.47929],[1.87332,50.47879],[1.87149,50.47967]]]}},{"type":"Feature","properties":{"k":"MIS","s":2.955},"geometry":{"type":"Polygon","coordinates":[[[1.87147,50.47965],[1.87332,50.47877],[1.87397,50.47912],[1.87669,50.4777],[1.87559,50.47753],[1.87431,50.47754],[1.87283,50.47866],[1.8711,50.47936],[1.87147,50.47965]]]}},{"type":"Feature","properties":{"k":"PPH","s":1.956},"geometry":{"type":"Polygon","coordinates":[[[1.87364,50.47744],[1.87311,50.47804],[1.87224,50.47856],[1.87071,50.47889],[1.87098,50.47934],[1.87279,50.47865],[1.87439,50.47751],[1.87591,50.47755],[1.8777,50.47789],[1.87782,50.47768],[1.87645,50.47727],[1.87451,50.47717],[1.87364,50.47744]]]}},{"type":"Feature","properties":{"k":"JAC","s":0.043},"geometry":{"type":"Polygon","coordinates":[]}},{"type":"Feature","properties":{"k":"JAC","s":0.61},"geometry":{"type":"Polygon","coordinates":[[[1.87668,50.47651],[1.87802,50.47537],[1.87652,50.4765],[1.87776,50.47716],[1.87977,50.47783],[1.87993,50.47774],[1.87787,50.47691],[1.87764,50.47705],[1.87668,50.47651]]]}},{"type":"Feature","properties":{"k":"JAC","s":0.567},"geometry":{"type":"Polygon","coordinates":[[[1.84795,50.49491],[1.84533,50.49561],[1.84545,50.4958],[1.84823,50.49507],[1.84824,50.49471],[1.84783,50.49475],[1.84795,50.49491]]]}},{"type":"Feature","properties":{"k":"PPH","s":2.433},"geometry":{"type":"Polygon","coordinates":[[[1.85084,50.49512],[1.85243,50.49671],[1.85259,50.49609],[1.85376,50.49565],[1.85314,50.49541],[1.85226,50.49573],[1.8511,50.49442],[1.8508,50.4944],[1.84958,50.49482],[1.84907,50.49484],[1.84977,50.49563],[1.85084,50.49512]]]}},{"type":"Feature","properties":{"k":"PPH","s":1.432},"geometry":{"type":"Polygon","coordinates":[[[1.8745,50.47554],[1.87308,50.47595],[1.87328,50.47615],[1.87495,50.47602],[1.87672,50.47613],[1.87747,50.47548],[1.8745,50.47554]],[[1.87571,50.47579],[1.87645,50.47582],[1.8757,50.47592],[1.87505,50.47578],[1.8751,50.47566],[1.87571,50.47579]]]}},{"type":"Feature","properties":{"k":"PPH","s":0.925},"geometry":{"type":"Polygon","coordinates":[[[1.87274,50.47667],[1.8725,50.47689],[1.87265,50.47698],[1.87461,50.47651],[1.87462,50.47604],[1.87218,50.47642],[1.87274,50.47667]]]}},{"type":"Feature","properties":{"k":"PTC","s":1.643},"geometry":{"type":"Polygon","coordinates":[[[1.87625,50.47441],[1.87691,50.47399],[1.87407,50.47261],[1.87349,50.4731],[1.87625,50.47441]]]}},{"type":"Feature","properties":{"k":"PTC","s":0.778},"geometry":{"type":"Polygon","coordinates":[[[1.87237,50.47203],[1.87199,50.47241],[1.87349,50.4731],[1.87407,50.47261],[1.87349,50.47233],[1.87332,50.47245],[1.87237,50.47203]]]}},{"type":"Feature","properties":{"k":"MIS","s":3.334},"geometry":{"type":"Polygon","coordinates":[[[1.87226,50.47148],[1.87301,50.47093],[1.87111,50.4699],[1.86936,50.47066],[1.87263,50.4719],[1.87691,50.47399],[1.87706,50.47389],[1.87226,50.47148]]]}},{"type":"Feature","properties":{"k":"PTC","s":3.36},"geometry":{"type":"Polygon","coordinates":[[[1.87781,50.47339],[1.87301,50.47093],[1.87226,50.47148],[1.87706,50.47389],[1.87781,50.47339]]]}},{"type":"Feature","properties":{"k":"ORH","s":1.559},"geometry":{"type":"Polygon","coordinates":[[[1.87538,50.47509],[1.87578,50.47544],[1.87822,50.47529],[1.8788,50.47539],[1.87657,50.47428],[1.87538,50.47509]]]}},{"type":"Feature","properties":{"k":"PHF","s":4.002},"geometry":{"type":"Polygon","coordinates":[[[1.88012,50.47563],[1.8818,50.47541],[1.87789,50.47342],[1.87657,50.47428],[1.87928,50.47555],[1.88012,50.47563]]]}},{"type":"Feature","properties":{"k":"ORP","s":3.483},"geometry":{"type":"Polygon","coordinates":[[[1.88186,50.47369],[1.87892,50.47228],[1.87804,50.47326],[1.87809,50.47346],[1.88038,50.47461],[1.88186,50.47369]]]}},{"type":"Feature","properties":{"k":"CZH","s":1.915},"geometry":{"type":"Polygon","coordinates":[[[1.88338,50.47373],[1.88122,50.47507],[1.8818,50.47535],[1.8855,50.47316],[1.88474,50.47292],[1.88338,50.47373]]]}},{"type":"Feature","properties":{"k":"BTH","s":1.709},"geometry":{"type":"Polygon","coordinates":[[[1.88324,50.47285],[1.88385,50.47248],[1.88054,50.4709],[1.88007,50.47132],[1.88324,50.47285]]]}},{"type":"Feature","properties":{"k":"PPH","s":2.435},"geometry":{"type":"Polygon","coordinates":[[[1.86302,50.48131],[1.86437,50.48085],[1.864,50.48049],[1.86422,50.48026],[1.86384,50.48012],[1.86344,50.47924],[1.86291,50.47881],[1.8625,50.47919],[1.86277,50.48001],[1.86174,50.48058],[1.86302,50.48131]]]}},{"type":"Feature","properties":{"k":"BTN","s":2.723},"geometry":{"type":"Polygon","coordinates":[[[1.88033,50.47461],[1.8812,50.47508],[1.88476,50.47292],[1.88386,50.47247],[1.88033,50.47461]]]}},{"type":"Feature","properties":{"k":"BTH","s":3.903},"geometry":{"type":"Polygon","coordinates":[[[1.86483,50.46926],[1.86288,50.46831],[1.86406,50.46711],[1.86279,50.46681],[1.86078,50.4681],[1.86416,50.46981],[1.86483,50.46926]]]}},{"type":"Feature","properties":{"k":"PPH","s":1.571},"geometry":{"type":"Polygon","coordinates":[[[1.86272,50.46918],[1.86079,50.46814],[1.85996,50.46867],[1.86193,50.46978],[1.86272,50.46918]]]}},{"type":"Feature","properties":{"k":"BTH","s":1.76},"geometry":{"type":"Polygon","coordinates":[[[1.86233,50.47111],[1.86367,50.47041],[1.86416,50.46993],[1.86308,50.4694],[1.86145,50.47049],[1.86233,50.47111]]]}},{"type":"Feature","properties":{"k":"PPH","s":0.721},"geometry":{"type":"Polygon","coordinates":[[[1.86193,50.46978],[1.85996,50.46867],[1.85962,50.46891],[1.86158,50.47003],[1.86193,50.46978]]]}},{"type":"Feature","properties":{"k":"CZH","s":2.892},"geometry":{"type":"Polygon","coordinates":[[[1.86625,50.47029],[1.86774,50.47123],[1.86905,50.47065],[1.8653,50.46893],[1.86452,50.46985],[1.86625,50.47029]]]}},{"type":"Feature","properties":{"k":"BTH","s":0.655},"geometry":{"type":"Polygon","coordinates":[[[1.86723,50.46787],[1.86607,50.46724],[1.86605,50.46739],[1.86565,50.46841],[1.86723,50.46787]]]}},{"type":"Feature","properties":{"k":"ORP","s":5.722},"geometry":{"type":"Polygon","coordinates":[[[1.86723,50.46797],[1.86559,50.46852],[1.8653,50.46893],[1.86905,50.47065],[1.87053,50.47001],[1.87037,50.4699],[1.87079,50.46972],[1.86723,50.46797]]]}},{"type":"Feature","properties":{"k":"ORH","s":4.509},"geometry":{"type":"Polygon","coordinates":[[[1.85376,50.49565],[1.85259,50.49609],[1.85243,50.49671],[1.85084,50.49512],[1.84977,50.49563],[1.84907,50.49484],[1.84865,50.49499],[1.85064,50.49724],[1.85256,50.49713],[1.85247,50.49699],[1.85457,50.49612],[1.85376,50.49565]]]}},{"type":"Feature","properties":{"k":"PPH","s":0.895},"geometry":{"type":"Polygon","coordinates":[[[1.85302,50.49521],[1.85373,50.49559],[1.85443,50.49481],[1.85338,50.49413],[1.85302,50.49521]]]}},{"type":"Feature","properties":{"k":"BTH","s":0.001},"geometry":{"type":"MultiPolygon","coordinates":[[[[1.85718,50.49487],[1.85716,50.4949],[1.85719,50.49488],[1.85718,50.49487]]]]}},{"type":"Feature","properties":{"k":"ORH","s":0.03},"geometry":{"type":"Polygon","coordinates":[[[1.85716,50.49485],[1.85719,50.49488],[1.85803,50.49435],[1.85716,50.49485]]]}},{"type":"Feature","properties":{"k":"BTH","s":0.013},"geometry":{"type":"Polygon","coordinates":[[[1.86065,50.49229],[1.86168,50.49138],[1.86085,50.49209],[1.86065,50.49229]]]}},{"type":"Feature","properties":{"k":"PPH","s":0.545},"geometry":{"type":"Polygon","coordinates":[[[1.85929,50.49222],[1.8597,50.49286],[1.86048,50.49234],[1.85985,50.4918],[1.85929,50.49222]]]}},{"type":"Feature","properties":{"k":"ORH","s":3.95},"geometry":{"type":"Polygon","coordinates":[[[1.86048,50.49234],[1.8617,50.49134],[1.85972,50.48922],[1.85893,50.48961],[1.8584,50.49015],[1.85918,50.49125],[1.86048,50.49234]]]}},{"type":"Feature","properties":{"k":"ORH","s":0.001},"geometry":{"type":"Polygon","coordinates":[]}},{"type":"Feature","properties":{"k":"ORH","s":0.032},"geometry":{"type":"MultiPolygon","coordinates":[[[[1.86186,50.48696],[1.86138,50.48769],[1.86131,50.48786],[1.86186,50.48696]]],[[[1.86086,50.48919],[1.86098,50.48933],[1.86099,50.48932],[1.86062,50.48875],[1.86086,50.48919]]]]}},{"type":"Feature","properties":{"k":"PPH","s":0.004},"geometry":{"type":"Polygon","coordinates":[[[1.86681,50.48433],[1.86714,50.48411],[1.86679,50.48431],[1.86681,50.48433]]]}},{"type":"Feature","properties":{"k":"PTC","s":0.103},"geometry":{"type":"Polygon","coordinates":[[[1.87076,50.48388],[1.8715,50.48354],[1.8714,50.48341],[1.87066,50.48374],[1.87076,50.48388]]]}},{"type":"Feature","properties":{"k":"BTN","s":0.003},"geometry":{"type":"MultiPolygon","coordinates":[[[[1.87344,50.48299],[1.87367,50.48288],[1.87344,50.48298],[1.87344,50.48299]]]]}},{"type":"Feature","properties":{"k":"BTN","s":3.577},"geometry":{"type":"Polygon","coordinates":[[[1.87318,50.48274],[1.87236,50.482],[1.87194,50.48218],[1.8705,50.48058],[1.86928,50.48111],[1.8715,50.48354],[1.87318,50.48274]]]}},{"type":"Feature","properties":{"k":"PTC","s":1.63},"geometry":{"type":"Polygon","coordinates":[[[1.8698,50.48167],[1.86873,50.48204],[1.86926,50.48271],[1.86957,50.48258],[1.86998,50.48283],[1.87066,50.48374],[1.87136,50.48336],[1.8698,50.48167]]]}},{"type":"Feature","properties":{"k":"BTH","s":5.307},"geometry":{"type":"Polygon","coordinates":[[[1.86973,50.47985],[1.86865,50.47991],[1.86734,50.48043],[1.86828,50.48153],[1.87054,50.48057],[1.87198,50.48217],[1.87334,50.48154],[1.87067,50.47949],[1.86973,50.47985]]]}},{"type":"Feature","properties":{"k":"PTC","s":0.391},"geometry":{"type":"Polygon","coordinates":[[[1.86779,50.47996],[1.86713,50.48031],[1.86734,50.48039],[1.86869,50.47986],[1.86968,50.47982],[1.86949,50.47968],[1.86874,50.47966],[1.86779,50.47996]]]}},{"type":"Feature","properties":{"k":"BTA","s":0.199},"geometry":{"type":"Polygon","coordinates":[[[1.86696,50.48077],[1.86729,50.48061],[1.86636,50.47995],[1.86623,50.48001],[1.86709,50.48058],[1.86675,50.48075],[1.86664,50.48132],[1.86696,50.48077]]]}},{"type":"Feature","properties":{"k":"BTA","s":0.161},"geometry":{"type":"Polygon","coordinates":[[[1.86769,50.48258],[1.86732,50.48189],[1.86692,50.48146],[1.86709,50.48085],[1.86738,50.48062],[1.86702,50.48082],[1.86684,50.48146],[1.86763,50.4826],[1.86838,50.48307],[1.86769,50.48258]]]}},{"type":"Feature","properties":{"k":"MIS","s":0.45},"geometry":{"type":"Polygon","coordinates":[[[1.86928,50.48111],[1.86829,50.48152],[1.86865,50.48192],[1.86968,50.48153],[1.86928,50.48111]]]}},{"type":"Feature","properties":{"k":"BTH","s":2.586},"geometry":{"type":"Polygon","coordinates":[[[1.86737,50.4679],[1.87101,50.46976],[1.87254,50.46956],[1.86794,50.46752],[1.86737,50.4679]]]}},{"type":"Feature","properties":{"k":"MIS","s":6.124},"geometry":{"type":"Polygon","coordinates":[[[1.88474,50.47291],[1.88839,50.47379],[1.88888,50.4731],[1.88596,50.47236],[1.8814,50.47019],[1.88054,50.47089],[1.88474,50.47291]]]}},{"type":"Feature","properties":{"k":"BTH","s":9.197},"geometry":{"type":"Polygon","coordinates":[[[1.86797,50.4675],[1.87259,50.46956],[1.8759,50.46873],[1.87042,50.46625],[1.86797,50.4675]]]}},{"type":"Feature","properties":{"k":"MIS","s":0.345},"geometry":{"type":"Polygon","coordinates":[[[1.87168,50.47231],[1.87199,50.47241],[1.87237,50.47203],[1.87332,50.47245],[1.87349,50.47233],[1.87235,50.47179],[1.87168,50.47231]]]}},{"type":"Feature","properties":{"k":"BTH","s":1.414},"geometry":{"type":"Polygon","coordinates":[[[1.87052,50.47161],[1.8719,50.4721],[1.8722,50.4718],[1.86928,50.47065],[1.86839,50.47103],[1.87042,50.47173],[1.87052,50.47161]]]}},{"type":"Feature","properties":{"k":"MIS","s":1.894},"geometry":{"type":"Polygon","coordinates":[[[1.86807,50.4814],[1.86742,50.48066],[1.86709,50.48085],[1.86692,50.48146],[1.86769,50.48258],[1.86838,50.48307],[1.86916,50.48275],[1.86807,50.4814]]]}},{"type":"Feature","properties":{"k":"FVP","s":1.295},"geometry":{"type":"Polygon","coordinates":[[[1.8679,50.47126],[1.87168,50.47255],[1.8719,50.47238],[1.87168,50.47231],[1.8719,50.4721],[1.87052,50.47161],[1.87042,50.47173],[1.86839,50.47103],[1.8679,50.47126]]]}},{"type":"Feature","properties":{"k":"MIS","s":10.017},"geometry":{"type":"Polygon","coordinates":[[[1.87115,50.47637],[1.87199,50.47609],[1.86992,50.4751],[1.87182,50.47358],[1.86529,50.47182],[1.86499,50.47199],[1.86693,50.4726],[1.86548,50.47373],[1.87115,50.47637]]]}},{"type":"Feature","properties":{"k":"BTH","s":11.521},"geometry":{"type":"Polygon","coordinates":[[[1.87198,50.47241],[1.87169,50.47256],[1.86783,50.47127],[1.86739,50.47146],[1.86621,50.4715],[1.86542,50.47176],[1.86904,50.47289],[1.87182,50.47358],[1.87092,50.4744],[1.87367,50.47567],[1.87509,50.4752],[1.87553,50.4749],[1.87537,50.47481],[1.87601,50.4744],[1.8762,50.47445],[1.87198,50.47241]]]}},{"type":"Feature","properties":{"k":"CZH","s":2.367},"geometry":{"type":"Polygon","coordinates":[[[1.87367,50.47568],[1.87089,50.47436],[1.86992,50.47514],[1.87199,50.47609],[1.87367,50.47568]]]}},{"type":"Feature","properties":{"k":"CZH","s":1.361},"geometry":{"type":"Polygon","coordinates":[[[1.87195,50.47741],[1.87265,50.47698],[1.8725,50.47689],[1.87274,50.47667],[1.87218,50.47642],[1.87325,50.47618],[1.87301,50.47595],[1.87156,50.47624],[1.87063,50.47678],[1.87195,50.47741]]]}},{"type":"Feature","properties":{"k":"BTH","s":10.651},"geometry":{"type":"Polygon","coordinates":[[[1.86663,50.47646],[1.86599,50.47689],[1.86968,50.47982],[1.87098,50.47934],[1.87071,50.47889],[1.87224,50.47856],[1.87311,50.47804],[1.87364,50.47744],[1.87468,50.47711],[1.87452,50.47662],[1.87338,50.47677],[1.87192,50.47747],[1.87061,50.47682],[1.87002,50.47697],[1.86809,50.4768],[1.86663,50.47646]]]}},{"type":"Feature","properties":{"k":"PTC","s":5.52},"geometry":{"type":"Polygon","coordinates":[[[1.86512,50.47832],[1.86494,50.47847],[1.86568,50.47887],[1.86621,50.47967],[1.86713,50.48031],[1.86839,50.47974],[1.86949,50.47968],[1.86614,50.47701],[1.86457,50.47804],[1.86512,50.47832]]]}},{"type":"Feature","properties":{"k":"PPH","s":0.147},"geometry":{"type":"Polygon","coordinates":[[[1.86664,50.47636],[1.86773,50.47652],[1.86618,50.47607],[1.86664,50.47636]]]}},{"type":"Feature","properties":{"k":"BTA","s":0.131},"geometry":{"type":"Polygon","coordinates":[[[1.86748,50.48265],[1.86843,50.48329],[1.86755,50.48264],[1.86676,50.48148],[1.86681,50.48127],[1.86669,50.48147],[1.86748,50.48265]]]}},{"type":"Feature","properties":{"k":"MIS","s":4.58},"geometry":{"type":"Polygon","coordinates":[[[1.8668,50.4843],[1.86843,50.48329],[1.86748,50.48265],[1.86673,50.48129],[1.86413,50.48206],[1.8668,50.4843]]]}},{"type":"Feature","properties":{"k":"MIS","s":3.111},"geometry":{"type":"Polygon","coordinates":[[[1.86709,50.48058],[1.86623,50.48001],[1.86301,50.48132],[1.86404,50.48207],[1.86664,50.48132],[1.86675,50.48075],[1.86709,50.48058]]]}},{"type":"Feature","properties":{"k":"BTH","s":2.111},"geometry":{"type":"Polygon","coordinates":[[[1.87012,50.4769],[1.87111,50.4764],[1.86907,50.4755],[1.86764,50.47657],[1.87012,50.4769]]]}},{"type":"Feature","properties":{"k":"MIS","s":1.828},"geometry":{"type":"Polygon","coordinates":[[[1.86902,50.47552],[1.86777,50.47487],[1.86618,50.47607],[1.86773,50.47652],[1.86902,50.47552]]]}},{"type":"Feature","properties":{"k":"PPH","s":0.713},"geometry":{"type":"Polygon","coordinates":[[[1.86624,50.47577],[1.86644,50.47587],[1.86776,50.47487],[1.86729,50.47465],[1.86548,50.47604],[1.86589,50.47615],[1.86624,50.47577]]]}},{"type":"Feature","properties":{"k":"BTH","s":2.137},"geometry":{"type":"Polygon","coordinates":[[[1.86353,50.47661],[1.86484,50.47757],[1.86647,50.47637],[1.86444,50.47584],[1.86353,50.47661]]]}},{"type":"Feature","properties":{"k":"PTC","s":0.225},"geometry":{"type":"Polygon","coordinates":[[[1.86487,50.47769],[1.86443,50.47796],[1.86457,50.47804],[1.86614,50.47701],[1.86599,50.47689],[1.86487,50.47769]]]}},{"type":"Feature","properties":{"k":"PPH","s":2.323},"geometry":{"type":"Polygon","coordinates":[[[1.86163,50.47654],[1.86069,50.47618],[1.86027,50.47659],[1.86098,50.47681],[1.86135,50.4765],[1.86195,50.47679],[1.86178,50.47727],[1.86206,50.47736],[1.86239,50.47698],[1.86281,50.47714],[1.86441,50.47583],[1.86296,50.47548],[1.86163,50.47654]]]}},{"type":"Feature","properties":{"k":"PPH","s":0.951},"geometry":{"type":"Polygon","coordinates":[[[1.86123,50.47573],[1.86141,50.47583],[1.86129,50.47608],[1.86188,50.47628],[1.86296,50.47547],[1.86176,50.47504],[1.86123,50.47573]]]}},{"type":"Feature","properties":{"k":"PPH","s":0.113},"geometry":{"type":"Polygon","coordinates":[[[1.86067,50.47538],[1.86121,50.47566],[1.86135,50.47543],[1.86087,50.47521],[1.86067,50.47538]]]}},{"type":"Feature","properties":{"k":"MIS","s":0.928},"geometry":{"type":"Polygon","coordinates":[[[1.88284,50.47305],[1.88324,50.47285],[1.88014,50.47138],[1.87981,50.47159],[1.88284,50.47305]]]}},{"type":"Feature","properties":{"k":"BTN","s":26.727},"geometry":{"type":"Polygon","coordinates":[[[1.85067,50.49731],[1.8465,50.49752],[1.84577,50.49667],[1.84089,50.50064],[1.8424,50.50081],[1.84265,50.50047],[1.84622,50.50098],[1.84802,50.50106],[1.84983,50.5008],[1.8513,50.50104],[1.85252,50.50145],[1.8536,50.50043],[1.85067,50.49731]],[[1.8493,50.49989],[1.84967,50.49975],[1.84924,50.50019],[1.8493,50.49989]]]}},{"type":"Feature","properties":{"k":"PPH","s":0.23},"geometry":{"type":"Polygon","coordinates":[[[1.86265,50.48003],[1.86251,50.47949],[1.862,50.47979],[1.86233,50.48025],[1.86265,50.48003]]]}},{"type":"Feature","properties":{"k":"BTH","s":7.273},"geometry":{"type":"Polygon","coordinates":[[[1.86248,50.48347],[1.86405,50.48211],[1.86267,50.48112],[1.8616,50.48061],[1.86117,50.48071],[1.85879,50.48284],[1.85931,50.48298],[1.86021,50.48365],[1.86248,50.48347]]]}},{"type":"Feature","properties":{"k":"PPH","s":0.008},"geometry":{"type":"Polygon","coordinates":[[[1.86302,50.48414],[1.86234,50.48394],[1.86232,50.48404],[1.86302,50.48414]]]}},{"type":"Feature","properties":{"k":"ORH","s":3.532},"geometry":{"type":"Polygon","coordinates":[[[1.86685,50.48444],[1.86552,50.48318],[1.86406,50.48219],[1.86257,50.4835],[1.86376,50.48363],[1.86429,50.48382],[1.86593,50.48488],[1.86685,50.48444]]]}},{"type":"Feature","properties":{"k":"JAC","s":0.241},"geometry":{"type":"MultiPolygon","coordinates":[[[[1.86303,50.48446],[1.8639,50.48491],[1.86379,50.48481],[1.86403,50.48467],[1.86324,50.4842],[1.86303,50.48446]]],[[[1.86483,50.48416],[1.86454,50.484],[1.8656,50.48472],[1.86483,50.48416]]]]}},{"type":"Feature","properties":{"k":"PPH","s":4.891},"geometry":{"type":"Polygon","coordinates":[[[1.8631,50.48522],[1.86213,50.48502],[1.86216,50.4846],[1.86099,50.48482],[1.86056,50.48576],[1.86192,50.48586],[1.86049,50.48802],[1.86056,50.48874],[1.86238,50.48612],[1.86351,50.48728],[1.86425,50.48665],[1.8636,50.48571],[1.8644,50.48538],[1.86376,50.48481],[1.8631,50.48522]]]}},{"type":"Feature","properties":{"k":"MIS","s":0.216},"geometry":{"type":"Polygon","coordinates":[[[1.85722,50.48443],[1.85667,50.48428],[1.85603,50.48545],[1.8561,50.48548],[1.85658,50.48564],[1.85722,50.48443]],[[1.85672,50.48437],[1.85712,50.48448],[1.85648,50.4856],[1.8561,50.48548],[1.85672,50.48437]]]}},{"type":"Feature","properties":{"k":"CZH","s":0.399},"geometry":{"type":"Polygon","coordinates":[[[1.85712,50.48448],[1.85672,50.48437],[1.8561,50.48548],[1.85647,50.4856],[1.85712,50.48448]]]}},{"type":"Feature","properties":{"k":"BDH","s":0.904},"geometry":{"type":"Polygon","coordinates":[[[1.85583,50.4858],[1.85817,50.48665],[1.8583,50.48628],[1.85529,50.48524],[1.85521,50.48559],[1.85583,50.4858]]]}},{"type":"Feature","properties":{"k":"BDH","s":1.621},"geometry":{"type":"Polygon","coordinates":[[[1.85551,50.48639],[1.8582,50.48736],[1.85815,50.48665],[1.85521,50.48559],[1.85516,50.48627],[1.85551,50.48639]]]}},{"type":"Feature","properties":{"k":"LUZ","s":2.407},"geometry":{"type":"Polygon","coordinates":[[[1.8543,50.48491],[1.85161,50.48723],[1.85231,50.48749],[1.85501,50.48584],[1.8552,50.4853],[1.8543,50.48491]]]}},{"type":"Feature","properties":{"k":"ORP","s":0.281},"geometry":{"type":"Polygon","coordinates":[[[1.85667,50.48428],[1.85484,50.4838],[1.85468,50.48395],[1.85656,50.48444],[1.85667,50.48428]]]}},{"type":"Feature","properties":{"k":"LUZ","s":1.58},"geometry":{"type":"Polygon","coordinates":[[[1.85433,50.48483],[1.85603,50.48545],[1.85656,50.48444],[1.85466,50.48397],[1.85433,50.48483]]]}},{"type":"Feature","properties":{"k":"MIS","s":0.117},"geometry":{"type":"Polygon","coordinates":[[[1.85696,50.48333],[1.85705,50.48316],[1.85624,50.48298],[1.85615,50.48313],[1.85696,50.48333]]]}},{"type":"Feature","properties":{"k":"PPR","s":1.937},"geometry":{"type":"Polygon","coordinates":[[[1.85853,50.48357],[1.85984,50.48334],[1.85931,50.48298],[1.85635,50.48236],[1.85605,50.48287],[1.85715,50.48312],[1.85697,50.48341],[1.85853,50.48357]]]}},{"type":"Feature","properties":{"k":"PPR","s":2.972},"geometry":{"type":"Polygon","coordinates":[[[1.85873,50.48483],[1.85954,50.48373],[1.85719,50.48357],[1.85537,50.48301],[1.85484,50.4838],[1.85873,50.48483]]]}},{"type":"Feature","properties":{"k":"MIS","s":0.885},"geometry":{"type":"Polygon","coordinates":[[[1.85597,50.48184],[1.85578,50.48214],[1.85877,50.48285],[1.85906,50.48261],[1.85597,50.48184]]]}},{"type":"Feature","properties":{"k":"MIS","s":4.365},"geometry":{"type":"Polygon","coordinates":[[[1.85905,50.4826],[1.86045,50.48136],[1.8576,50.48033],[1.85596,50.48184],[1.85905,50.4826]]]}},{"type":"Feature","properties":{"k":"PPH","s":6.453},"geometry":{"type":"Polygon","coordinates":[[[1.85594,50.47999],[1.85565,50.48017],[1.85465,50.47978],[1.85495,50.47936],[1.85457,50.47808],[1.85297,50.47881],[1.85329,50.4798],[1.85231,50.47996],[1.85309,50.48187],[1.85419,50.48178],[1.85569,50.48136],[1.85545,50.48103],[1.85605,50.4804],[1.85678,50.48073],[1.85679,50.48044],[1.85599,50.48001],[1.85575,50.48017],[1.85594,50.47999]]]}},{"type":"Feature","properties":{"k":"PPH","s":0.343},"geometry":{"type":"Polygon","coordinates":[[[1.85635,50.48236],[1.85569,50.48223],[1.85554,50.48252],[1.85585,50.4826],[1.85572,50.48304],[1.85697,50.48341],[1.85715,50.48312],[1.85605,50.48287],[1.85635,50.48236]],[[1.85613,50.48267],[1.856,50.48292],[1.85705,50.48316],[1.85696,50.48333],[1.8558,50.48304],[1.85599,50.48265],[1.85613,50.48267]]]}},{"type":"Feature","properties":{"k":"BTH","s":4.676},"geometry":{"type":"Polygon","coordinates":[[[1.84996,50.4831],[1.85322,50.48328],[1.85405,50.48295],[1.85515,50.48279],[1.85573,50.48164],[1.85521,50.48159],[1.85217,50.48209],[1.84912,50.48294],[1.84996,50.4831]]]}},{"type":"Feature","properties":{"k":"BTH","s":1.055},"geometry":{"type":"Polygon","coordinates":[[[1.85193,50.47804],[1.84861,50.47977],[1.84876,50.48009],[1.85225,50.47824],[1.85193,50.47804]]]}},{"type":"Feature","properties":{"k":"BTH","s":2.668},"geometry":{"type":"Polygon","coordinates":[[[1.85281,50.47892],[1.85226,50.47825],[1.84876,50.48009],[1.84915,50.48081],[1.85281,50.47892]]]}},{"type":"Feature","properties":{"k":"BTH","s":6.2},"geometry":{"type":"Polygon","coordinates":[[[1.85304,50.48188],[1.85224,50.47992],[1.85324,50.47978],[1.85291,50.47893],[1.84917,50.48085],[1.85016,50.48257],[1.85304,50.48188]]]}},{"type":"Feature","properties":{"k":"BTH","s":1.522},"geometry":{"type":"Polygon","coordinates":[[[1.85005,50.48252],[1.84847,50.47973],[1.84791,50.47988],[1.8495,50.48278],[1.85005,50.48252]]]}},{"type":"Feature","properties":{"k":"PHF","s":2.767},"geometry":{"type":"Polygon","coordinates":[[[1.84635,50.48167],[1.84696,50.48267],[1.84877,50.48291],[1.8495,50.48278],[1.84858,50.48114],[1.84635,50.48167]]]}},{"type":"Feature","properties":{"k":"MIS","s":0.805},"geometry":{"type":"Polygon","coordinates":[[[1.84786,50.48311],[1.84855,50.48295],[1.84584,50.48263],[1.84629,50.48337],[1.84786,50.48311]]]}},{"type":"Feature","properties":{"k":"PPH","s":5.28},"geometry":{"type":"Polygon","coordinates":[[[1.8486,50.4845],[1.84961,50.48416],[1.85075,50.4841],[1.85077,50.48322],[1.84875,50.48298],[1.84585,50.48354],[1.84735,50.48577],[1.8486,50.4845]]]}},{"type":"Feature","properties":{"k":"PPH","s":2.776},"geometry":{"type":"Polygon","coordinates":[[[1.85417,50.48468],[1.85428,50.48416],[1.85494,50.48346],[1.85462,50.48339],[1.85494,50.48294],[1.85293,50.48344],[1.85168,50.48325],[1.85144,50.48419],[1.85417,50.48468]]]}},{"type":"Feature","properties":{"k":"PPH","s":6.449},"geometry":{"type":"Polygon","coordinates":[[[1.85051,50.48565],[1.85162,50.48647],[1.85108,50.48669],[1.85158,50.48708],[1.85379,50.4853],[1.85418,50.48474],[1.85276,50.48432],[1.85075,50.4841],[1.84961,50.48416],[1.84852,50.48455],[1.85051,50.48565]]]}},{"type":"Feature","properties":{"k":"BTH","s":6.834},"geometry":{"type":"Polygon","coordinates":[[[1.84885,50.4878],[1.85068,50.48741],[1.85158,50.48708],[1.85108,50.48669],[1.85162,50.48647],[1.85051,50.48565],[1.84852,50.48455],[1.8469,50.48616],[1.84885,50.4878]]]}},{"type":"Feature","properties":{"k":"PTC","s":0.102},"geometry":{"type":"Polygon","coordinates":[[[1.84745,50.48859],[1.84807,50.48828],[1.84792,50.48816],[1.8473,50.48847],[1.84745,50.48859]]]}},{"type":"Feature","properties":{"k":"PTC","s":1.725},"geometry":{"type":"Polygon","coordinates":[[[1.84881,50.49017],[1.84891,50.49009],[1.84943,50.49029],[1.8499,50.48981],[1.84734,50.48874],[1.84642,50.48915],[1.84881,50.49017]]]}},{"type":"Feature","properties":{"k":"PPH","s":2.298},"geometry":{"type":"Polygon","coordinates":[[[1.84642,50.48915],[1.84585,50.4894],[1.85005,50.49115],[1.8506,50.49112],[1.85117,50.49034],[1.85018,50.48991],[1.84955,50.49047],[1.84642,50.48915]]]}},{"type":"Feature","properties":{"k":"CZP","s":1.119},"geometry":{"type":"Polygon","coordinates":[[[1.84742,50.48873],[1.85111,50.49032],[1.85134,50.49],[1.84781,50.48855],[1.84742,50.48873]]]}},{"type":"Feature","properties":{"k":"PPH","s":3.123},"geometry":{"type":"Polygon","coordinates":[[[1.85355,50.48867],[1.85124,50.48842],[1.85176,50.48878],[1.85187,50.48925],[1.8506,50.49112],[1.85206,50.49116],[1.85355,50.48867]]]}},{"type":"Feature","properties":{"k":"PPH","s":1.346},"geometry":{"type":"Polygon","coordinates":[[[1.85161,50.48723],[1.84952,50.48778],[1.85067,50.48822],[1.85162,50.48838],[1.85232,50.48748],[1.85161,50.48723]]]}},{"type":"Feature","properties":{"k":"MLG","s":2.259},"geometry":{"type":"Polygon","coordinates":[[[1.85501,50.48584],[1.85231,50.48749],[1.85162,50.48838],[1.85243,50.48847],[1.85505,50.48664],[1.85501,50.48584]]]}},{"type":"Feature","properties":{"k":"MIS","s":1.861},"geometry":{"type":"Polygon","coordinates":[[[1.85512,50.48721],[1.85505,50.48664],[1.85243,50.48847],[1.85525,50.48898],[1.85529,50.48888],[1.85468,50.48877],[1.85449,50.48746],[1.85512,50.48721]]]}},{"type":"Feature","properties":{"k":"EPE","s":0.083},"geometry":{"type":"Polygon","coordinates":[[[1.85456,50.48743],[1.85468,50.48877],[1.85477,50.48879],[1.85456,50.48743]]]}},{"type":"Feature","properties":{"k":"FVL","s":0.686},"geometry":{"type":"Polygon","coordinates":[[[1.85529,50.48831],[1.85512,50.48721],[1.85456,50.48743],[1.85477,50.48879],[1.85529,50.48888],[1.85529,50.48831]]]}},{"type":"Feature","properties":{"k":"PPH","s":0.774},"geometry":{"type":"Polygon","coordinates":[[[1.85538,50.48897],[1.85705,50.48843],[1.85529,50.48786],[1.85538,50.48897]]]}},{"type":"Feature","properties":{"k":"BDH","s":0.472},"geometry":{"type":"Polygon","coordinates":[[[1.85524,50.48764],[1.85731,50.48834],[1.85763,50.4882],[1.85522,50.48734],[1.85524,50.48764]]]}},{"type":"Feature","properties":{"k":"PTC","s":2.298},"geometry":{"type":"Polygon","coordinates":[[[1.85522,50.48734],[1.85762,50.4882],[1.85821,50.48737],[1.8551,50.48624],[1.85522,50.48734]]]}},{"type":"Feature","properties":{"k":"ORH","s":2.942},"geometry":{"type":"Polygon","coordinates":[[[1.85333,50.49062],[1.85434,50.49045],[1.85525,50.48952],[1.85526,50.48904],[1.85463,50.48892],[1.85354,50.4887],[1.85218,50.4911],[1.85273,50.49098],[1.85333,50.49062]],[[1.85506,50.48901],[1.85462,50.48893],[1.85463,50.48892],[1.85506,50.48901]]]}},{"type":"Feature","properties":{"k":"PPH","s":1.218},"geometry":{"type":"Polygon","coordinates":[[[1.85339,50.49064],[1.85238,50.4912],[1.85248,50.49154],[1.85451,50.491],[1.8554,50.49035],[1.85482,50.48998],[1.85423,50.49056],[1.85339,50.49064]]]}},{"type":"Feature","properties":{"k":"BTN","s":0.11},"geometry":{"type":"MultiPolygon","coordinates":[[[[1.85941,50.49313],[1.85918,50.49348],[1.86039,50.49265],[1.86045,50.49249],[1.85941,50.49313]]],[[[1.85853,50.49398],[1.85848,50.49406],[1.85886,50.49383],[1.85853,50.49398]]]]}},{"type":"Feature","properties":{"k":"ORH","s":0.018},"geometry":{"type":"Polygon","coordinates":[[[1.85813,50.49423],[1.85803,50.49435],[1.85848,50.49406],[1.85813,50.49423]]]}},{"type":"Feature","properties":{"k":"ORH","s":8.587},"geometry":{"type":"Polygon","coordinates":[[[1.85373,50.49559],[1.85463,50.49611],[1.85489,50.49577],[1.85671,50.49583],[1.85721,50.49483],[1.85894,50.4937],[1.85731,50.49287],[1.85676,50.49222],[1.85569,50.49204],[1.85435,50.49273],[1.85457,50.49323],[1.85567,50.49377],[1.85373,50.49559]]]}},{"type":"Feature","properties":{"k":"JAC","s":2.691},"geometry":{"type":"Polygon","coordinates":[[[1.85119,50.49178],[1.85067,50.49181],[1.85053,50.4928],[1.85039,50.49395],[1.8509,50.49396],[1.85133,50.49386],[1.85174,50.49328],[1.85223,50.49151],[1.85206,50.4913],[1.85058,50.49135],[1.84985,50.49123],[1.85119,50.49178]]]}},{"type":"Feature","properties":{"k":"MIS","s":4.995},"geometry":{"type":"Polygon","coordinates":[[[1.85067,50.49181],[1.84883,50.49114],[1.84966,50.49135],[1.85005,50.49115],[1.84603,50.48947],[1.85024,50.49406],[1.85067,50.49181]]]}},{"type":"Feature","properties":{"k":"LIF","s":8.022},"geometry":{"type":"Polygon","coordinates":[[[1.84585,50.4894],[1.84434,50.49021],[1.84465,50.49045],[1.84627,50.49048],[1.84665,50.49068],[1.84686,50.49097],[1.84658,50.49111],[1.84656,50.49136],[1.84818,50.49312],[1.84744,50.49248],[1.84722,50.49256],[1.84663,50.49198],[1.8454,50.49246],[1.84791,50.49475],[1.84824,50.49471],[1.85024,50.49406],[1.84585,50.4894]]]}},{"type":"Feature","properties":{"k":"BTH","s":10.981},"geometry":{"type":"Polygon","coordinates":[[[1.84484,50.49547],[1.84511,50.49539],[1.84533,50.49561],[1.84795,50.49491],[1.84344,50.49059],[1.84153,50.49159],[1.84484,50.49547]]]}},{"type":"Feature","properties":{"k":"JAC","s":0.247},"geometry":{"type":"Polygon","coordinates":[[[1.84551,50.49242],[1.84357,50.49052],[1.84344,50.49059],[1.84551,50.49242]]]}},{"type":"Feature","properties":{"k":"CZH","s":12.707},"geometry":{"type":"Polygon","coordinates":[[[1.83896,50.49271],[1.83261,50.49094],[1.83283,50.49082],[1.83147,50.49055],[1.83142,50.4919],[1.83344,50.49431],[1.83438,50.49491],[1.83896,50.49271]]]}},{"type":"Feature","properties":{"k":"ORH","s":6.927},"geometry":{"type":"MultiPolygon","coordinates":[[[[1.83337,50.49074],[1.83927,50.49255],[1.83955,50.4924],[1.83557,50.48936],[1.83305,50.49076],[1.83337,50.49074]]],[[[1.8334,50.49078],[1.83265,50.49093],[1.83896,50.49271],[1.83927,50.49255],[1.8334,50.49078]]]]}},{"type":"Feature","properties":{"k":"BTH","s":6.537},"geometry":{"type":"Polygon","coordinates":[[[1.83828,50.48726],[1.83696,50.48809],[1.84134,50.49152],[1.84279,50.49081],[1.83828,50.48726]]]}},{"type":"Feature","properties":{"k":"BTN","s":5.015},"geometry":{"type":"Polygon","coordinates":[[[1.84021,50.49206],[1.84133,50.49154],[1.83696,50.48809],[1.83598,50.48883],[1.84021,50.49206]]]}},{"type":"Feature","properties":{"k":"BTH","s":16.078},"geometry":{"type":"Polygon","coordinates":[[[1.83081,50.4889],[1.83154,50.48973],[1.83169,50.4905],[1.83297,50.49074],[1.83557,50.48936],[1.83955,50.4924],[1.84009,50.49215],[1.8363,50.48914],[1.83129,50.48591],[1.82872,50.48749],[1.83081,50.4889]]]}},{"type":"Feature","properties":{"k":"PTC","s":1.993},"geometry":{"type":"Polygon","coordinates":[[[1.83315,50.48702],[1.83584,50.48872],[1.83656,50.48827],[1.83371,50.4865],[1.83315,50.48702]]]}},{"type":"Feature","properties":{"k":"CZH","s":2.972},"geometry":{"type":"Polygon","coordinates":[[[1.83762,50.4876],[1.83479,50.48582],[1.83374,50.48649],[1.83656,50.48827],[1.83762,50.4876]]]}},{"type":"Feature","properties":{"k":"BTN","s":1.952},"geometry":{"type":"Polygon","coordinates":[[[1.84154,50.48552],[1.84125,50.48566],[1.8442,50.48799],[1.84378,50.48822],[1.84527,50.48941],[1.84602,50.48909],[1.84154,50.48552]]]}},{"type":"Feature","properties":{"k":"LIF","s":10.265},"geometry":{"type":"Polygon","coordinates":[[[1.83892,50.48683],[1.84352,50.49044],[1.8454,50.48951],[1.84378,50.48822],[1.8442,50.48799],[1.84125,50.48566],[1.83892,50.48683]]]}},{"type":"Feature","properties":{"k":"MIS","s":3.78},"geometry":{"type":"Polygon","coordinates":[[[1.84694,50.4888],[1.84237,50.48514],[1.84154,50.48552],[1.84602,50.48909],[1.84527,50.48941],[1.84539,50.4895],[1.84694,50.4888]]]}},{"type":"Feature","properties":{"k":"BTN","s":2.183},"geometry":{"type":"Polygon","coordinates":[[[1.84694,50.4888],[1.84745,50.48859],[1.84284,50.48493],[1.84237,50.48514],[1.84694,50.4888]]]}},{"type":"Feature","properties":{"k":"PTC","s":0.499},"geometry":{"type":"Polygon","coordinates":[[[1.84299,50.48504],[1.8473,50.48847],[1.8474,50.48842],[1.84311,50.48498],[1.84299,50.48504]]]}},{"type":"Feature","properties":{"k":"PTC","s":0.338},"geometry":{"type":"Polygon","coordinates":[[[1.8474,50.48842],[1.84749,50.48838],[1.84318,50.48495],[1.8474,50.48842]]]}},{"type":"Feature","properties":{"k":"PTC","s":2.138},"geometry":{"type":"Polygon","coordinates":[[[1.84318,50.48495],[1.84749,50.48838],[1.84792,50.48816],[1.84372,50.48469],[1.84318,50.48495]]]}},{"type":"Feature","properties":{"k":"MIS","s":3.366},"geometry":{"type":"Polygon","coordinates":[[[1.84358,50.48458],[1.84807,50.48828],[1.84863,50.48794],[1.84453,50.48448],[1.84599,50.48375],[1.84578,50.48355],[1.84358,50.48458]]]}},{"type":"Feature","properties":{"k":"ORH","s":3.008},"geometry":{"type":"Polygon","coordinates":[[[1.84863,50.48794],[1.84885,50.4878],[1.8469,50.48616],[1.84737,50.48581],[1.84599,50.48375],[1.84453,50.48448],[1.84863,50.48794]]]}},{"type":"Feature","properties":{"k":"PTC","s":0.105},"geometry":{"type":"Polygon","coordinates":[[[1.84284,50.48493],[1.84299,50.48504],[1.84372,50.48469],[1.84358,50.48458],[1.84284,50.48493]]]}},{"type":"Feature","properties":{"k":"ORH","s":8.644},"geometry":{"type":"Polygon","coordinates":[[[1.84491,50.48389],[1.84391,50.48235],[1.84082,50.4838],[1.83934,50.48284],[1.83798,50.48373],[1.84107,50.48567],[1.84491,50.48389]]]}},{"type":"Feature","properties":{"k":"CZH","s":1.511},"geometry":{"type":"Polygon","coordinates":[[[1.84629,50.48339],[1.84583,50.48262],[1.84392,50.48236],[1.84493,50.48391],[1.84629,50.48339]]]}},{"type":"Feature","properties":{"k":"PTC","s":2.588},"geometry":{"type":"Polygon","coordinates":[[[1.84556,50.48042],[1.84635,50.48167],[1.84858,50.48114],[1.84791,50.47988],[1.84556,50.48042]]]}},{"type":"Feature","properties":{"k":"LUZ","s":4.859},"geometry":{"type":"Polygon","coordinates":[[[1.84847,50.47973],[1.84752,50.47802],[1.84452,50.47842],[1.8455,50.48043],[1.84847,50.47973]]]}},{"type":"Feature","properties":{"k":"MIS","s":3.626},"geometry":{"type":"Polygon","coordinates":[[[1.84682,50.48266],[1.84452,50.47842],[1.84344,50.47858],[1.8456,50.48252],[1.84682,50.48266]]]}},{"type":"Feature","properties":{"k":"PPH","s":0.0},"geometry":{"type":"Polygon","coordinates":[]}},{"type":"Feature","properties":{"k":"BTH","s":5.431},"geometry":{"type":"Polygon","coordinates":[[[1.84122,50.47846],[1.84095,50.47862],[1.84114,50.47893],[1.8475,50.47799],[1.84691,50.47694],[1.84066,50.4779],[1.84122,50.47846]]]}},{"type":"Feature","properties":{"k":"BTH","s":0.016},"geometry":{"type":"Polygon","coordinates":[[[1.85993,50.46674],[1.85903,50.4673],[1.85974,50.46688],[1.85993,50.46674]]]}},{"type":"Feature","properties":{"k":"BTH","s":0.646},"geometry":{"type":"Polygon","coordinates":[[[1.85663,50.46866],[1.85497,50.46954],[1.85534,50.46991],[1.85701,50.4689],[1.85663,50.46866]]]}},{"type":"Feature","properties":{"k":"BTH","s":0.033},"geometry":{"type":"Polygon","coordinates":[[[1.8568,50.46875],[1.85685,50.46878],[1.85755,50.46829],[1.85792,50.46802],[1.8568,50.46875]]]}},{"type":"Feature","properties":{"k":"PPH","s":2.042},"geometry":{"type":"Polygon","coordinates":[[[1.86116,50.47025],[1.86154,50.47005],[1.85962,50.46891],[1.85851,50.46962],[1.85998,50.47063],[1.86116,50.47025]]]}},{"type":"Feature","properties":{"k":"PTR","s":1.54},"geometry":{"type":"Polygon","coordinates":[[[1.85744,50.4703],[1.85857,50.47115],[1.85998,50.47063],[1.85851,50.46962],[1.85744,50.4703]]]}},{"type":"Feature","properties":{"k":"PPH","s":1.662},"geometry":{"type":"Polygon","coordinates":[[[1.85857,50.46841],[1.85674,50.46959],[1.85628,50.46968],[1.85607,50.46957],[1.85555,50.46982],[1.85576,50.47001],[1.85466,50.47044],[1.85482,50.47062],[1.85526,50.47038],[1.85549,50.47055],[1.85679,50.46977],[1.85713,50.47],[1.85906,50.46882],[1.85857,50.46841]]]}},{"type":"Feature","properties":{"k":"CZH","s":0.014},"geometry":{"type":"Polygon","coordinates":[[[1.85552,50.46933],[1.85561,50.46928],[1.85412,50.46981],[1.85552,50.46933]]]}},{"type":"Feature","properties":{"k":"PPH","s":0.255},"geometry":{"type":"MultiPolygon","coordinates":[[[[1.85216,50.47021],[1.85224,50.47033],[1.8523,50.47037],[1.85216,50.47021]]],[[[1.85291,50.47083],[1.85295,50.47084],[1.85263,50.47063],[1.85291,50.47083]]],[[[1.85327,50.47107],[1.85406,50.47064],[1.85387,50.4704],[1.85421,50.47009],[1.85309,50.47091],[1.85327,50.47107]]]]}},{"type":"Feature","properties":{"k":"PPH","s":2.826},"geometry":{"type":"Polygon","coordinates":[[[1.8526,50.47211],[1.85492,50.4711],[1.85475,50.47085],[1.85429,50.47104],[1.85412,50.47086],[1.85387,50.47098],[1.85376,50.4708],[1.85327,50.47107],[1.85269,50.4707],[1.85215,50.4702],[1.85163,50.46898],[1.85064,50.46934],[1.85062,50.46957],[1.85261,50.47133],[1.8526,50.47211]]]}},{"type":"Feature","properties":{"k":"PPH","s":1.076},"geometry":{"type":"Polygon","coordinates":[[[1.85541,50.47834],[1.85721,50.47741],[1.85683,50.47713],[1.85613,50.47747],[1.85584,50.47723],[1.85487,50.47762],[1.85541,50.47834]]]}},{"type":"Feature","properties":{"k":"PPH","s":1.279},"geometry":{"type":"Polygon","coordinates":[[[1.85352,50.4732],[1.85396,50.47383],[1.85522,50.47416],[1.85598,50.47419],[1.85416,50.47274],[1.85305,50.47323],[1.85352,50.4732]]]}},{"type":"Feature","properties":{"k":"PPH","s":0.007},"geometry":{"type":"Polygon","coordinates":[[[1.85033,50.46912],[1.85016,50.46888],[1.85017,50.46894],[1.85033,50.46912]]]}},{"type":"Feature","properties":{"k":"PPH","s":0.007},"geometry":{"type":"Polygon","coordinates":[[[1.84907,50.47309],[1.84927,50.47297],[1.84886,50.47314],[1.84907,50.47309]]]}},{"type":"Feature","properties":{"k":"PPH","s":0.069},"geometry":{"type":"MultiPolygon","coordinates":[[[[1.84938,50.47279],[1.84942,50.47288],[1.84944,50.47287],[1.84938,50.47279]]],[[[1.84907,50.472],[1.84882,50.47209],[1.84899,50.47226],[1.84886,50.47209],[1.84907,50.472]]],[[[1.85134,50.47034],[1.85058,50.46968],[1.85056,50.46978],[1.85174,50.47077],[1.85134,50.47034]]]]}},{"type":"Feature","properties":{"k":"PPH","s":2.094},"geometry":{"type":"Polygon","coordinates":[[[1.85261,50.47214],[1.85315,50.47318],[1.85414,50.47272],[1.85472,50.47316],[1.85497,50.47336],[1.85655,50.47259],[1.85631,50.47237],[1.85514,50.47287],[1.85379,50.47159],[1.85261,50.47214]]]}},{"type":"Feature","properties":{"k":"PTR","s":2.334},"geometry":{"type":"Polygon","coordinates":[[[1.8561,50.47203],[1.85659,50.47243],[1.85726,50.47217],[1.8574,50.47229],[1.85857,50.47115],[1.85743,50.47029],[1.85598,50.47126],[1.85658,50.47159],[1.8561,50.47203]]]}},{"type":"Feature","properties":{"k":"PPH","s":1.311},"geometry":{"type":"Polygon","coordinates":[[[1.85859,50.47313],[1.8606,50.47198],[1.86022,50.47189],[1.85887,50.47202],[1.85776,50.47235],[1.85787,50.47278],[1.85859,50.47313]]]}},{"type":"Feature","properties":{"k":"PPH","s":3.816},"geometry":{"type":"Polygon","coordinates":[[[1.85671,50.47253],[1.85743,50.47244],[1.85886,50.47201],[1.86022,50.47188],[1.86062,50.47198],[1.86232,50.47111],[1.86112,50.47026],[1.85857,50.47115],[1.8574,50.47229],[1.85726,50.47217],[1.85659,50.47243],[1.85671,50.47253]]]}},{"type":"Feature","properties":{"k":"PPH","s":0.563},"geometry":{"type":"Polygon","coordinates":[[[1.86209,50.47208],[1.86166,50.47176],[1.86096,50.4722],[1.86071,50.47201],[1.86027,50.47222],[1.86077,50.47276],[1.86209,50.47208]]]}},{"type":"Feature","properties":{"k":"JAC","s":0.128},"geometry":{"type":"Polygon","coordinates":[[[1.86285,50.47314],[1.86349,50.47282],[1.86323,50.47267],[1.86285,50.47314]]]}},{"type":"Feature","properties":{"k":"ORP","s":1.502},"geometry":{"type":"Polygon","coordinates":[[[1.86151,50.47162],[1.86209,50.47207],[1.8627,50.47174],[1.86413,50.47154],[1.86436,50.47074],[1.86297,50.47089],[1.86151,50.47162]]]}},{"type":"Feature","properties":{"k":"MIS","s":5.014},"geometry":{"type":"Polygon","coordinates":[[[1.86223,50.47206],[1.86349,50.47282],[1.86587,50.47147],[1.86776,50.47121],[1.86625,50.47029],[1.8645,50.46987],[1.86319,50.47079],[1.86436,50.47074],[1.86413,50.47154],[1.86309,50.47164],[1.86223,50.47206]]]}},{"type":"Feature","properties":{"k":"CZH","s":4.589},"geometry":{"type":"Polygon","coordinates":[[[1.86264,50.47392],[1.86419,50.47471],[1.8669,50.47261],[1.86494,50.47199],[1.86311,50.47316],[1.86264,50.47392]]]}},{"type":"Feature","properties":{"k":"BTH","s":2.322},"geometry":{"type":"Polygon","coordinates":[[[1.86576,50.47582],[1.86727,50.47465],[1.86544,50.47373],[1.86442,50.47461],[1.86559,50.47513],[1.86505,50.47555],[1.86509,50.47571],[1.86576,50.47582]]]}},{"type":"Feature","properties":{"k":"PPH","s":2.139},"geometry":{"type":"Polygon","coordinates":[[[1.86415,50.47474],[1.86262,50.47394],[1.8623,50.47463],[1.8631,50.47496],[1.86275,50.47531],[1.8645,50.4758],[1.86559,50.47513],[1.86442,50.47461],[1.86415,50.47474]]]}},{"type":"Feature","properties":{"k":"PPH","s":1.048},"geometry":{"type":"Polygon","coordinates":[[[1.86046,50.47369],[1.8608,50.4739],[1.86036,50.4742],[1.8606,50.47435],[1.86073,50.47422],[1.86088,50.47429],[1.86084,50.47447],[1.86113,50.47421],[1.8619,50.47445],[1.86173,50.47478],[1.86189,50.47484],[1.86244,50.4743],[1.8625,50.47397],[1.86234,50.47408],[1.8624,50.47386],[1.8619,50.47363],[1.86237,50.47395],[1.86227,50.47404],[1.86175,50.47378],[1.86131,50.47385],[1.86115,50.47343],[1.86046,50.47369]]]}},{"type":"Feature","properties":{"k":"PPH","s":3.542},"geometry":{"type":"Polygon","coordinates":[[[1.86323,50.47267],[1.86219,50.47202],[1.86077,50.47276],[1.86026,50.47222],[1.858,50.47357],[1.85817,50.47378],[1.85782,50.47394],[1.85828,50.47436],[1.85865,50.47443],[1.85988,50.47398],[1.85924,50.47363],[1.8601,50.47301],[1.86072,50.4734],[1.8614,50.4733],[1.86083,50.47305],[1.86093,50.47288],[1.86183,50.47315],[1.86275,50.473],[1.86323,50.47267]]]}},{"type":"Feature","properties":{"k":"BTA","s":0.306},"geometry":{"type":"Polygon","coordinates":[[[1.85233,50.4714],[1.85218,50.4721],[1.85282,50.47332],[1.85266,50.47249],[1.85232,50.47209],[1.85249,50.47137],[1.85156,50.4709],[1.85233,50.4714]]]}},{"type":"Feature","properties":{"k":"BTA","s":0.123},"geometry":{"type":"Polygon","coordinates":[[[1.85304,50.47272],[1.85252,50.47215],[1.85303,50.47324],[1.85304,50.47272]]]}},{"type":"Feature","properties":{"k":"PPH","s":6.306},"geometry":{"type":"Polygon","coordinates":[[[1.85218,50.4721],[1.85233,50.4714],[1.85146,50.47095],[1.84891,50.4721],[1.84947,50.4729],[1.84908,50.47322],[1.84929,50.47348],[1.84977,50.4737],[1.85037,50.47338],[1.85052,50.47353],[1.85002,50.47391],[1.85042,50.47436],[1.85282,50.47332],[1.85218,50.4721]]]}},{"type":"Feature","properties":{"k":"ORH","s":1.615},"geometry":{"type":"Polygon","coordinates":[[[1.85405,50.47507],[1.85249,50.4735],[1.85157,50.47394],[1.85327,50.47545],[1.85405,50.47507]],[[1.85347,50.47457],[1.85355,50.47465],[1.85343,50.47471],[1.85347,50.47457]]]}},{"type":"Feature","properties":{"k":"MLG","s":1.252},"geometry":{"type":"Polygon","coordinates":[[[1.84135,50.4789],[1.84186,50.47903],[1.84215,50.47967],[1.84388,50.47939],[1.84344,50.47858],[1.84135,50.4789]]]}},{"type":"Feature","properties":{"k":"BTN","s":0.025},"geometry":{"type":"Polygon","coordinates":[[[1.8488,50.4757],[1.84904,50.47553],[1.84856,50.47578],[1.84868,50.47588],[1.8488,50.4757]]]}},{"type":"Feature","properties":{"k":"PTC","s":2.728},"geometry":{"type":"MultiPolygon","coordinates":[[[[1.84773,50.47823],[1.84988,50.47715],[1.8494,50.47669],[1.84918,50.47593],[1.84914,50.47603],[1.84936,50.47668],[1.84986,50.47714],[1.84955,50.4773],[1.84906,50.47691],[1.84856,50.47578],[1.84689,50.47674],[1.84773,50.47823]]],[[[1.85047,50.47518],[1.85018,50.47493],[1.85033,50.47484],[1.85016,50.47493],[1.85045,50.47518],[1.84936,50.47569],[1.84922,50.47584],[1.84918,50.47593],[1.85047,50.47518]]],[[[1.85004,50.4743],[1.84974,50.47401],[1.85042,50.47479],[1.85004,50.4743]]],[[[1.84878,50.47319],[1.84904,50.47348],[1.84883,50.47323],[1.84878,50.47319]]]]}},{"type":"Feature","properties":{"k":"ORH","s":0.945},"geometry":{"type":"MultiPolygon","coordinates":[[[[1.84875,50.47318],[1.84895,50.47339],[1.84878,50.47319],[1.84875,50.47318]]],[[[1.84867,50.47594],[1.84891,50.47667],[1.84955,50.4773],[1.84986,50.47714],[1.84936,50.47668],[1.84922,50.47584],[1.85045,50.47518],[1.85016,50.47493],[1.8488,50.4757],[1.84867,50.47594]]]]}},{"type":"Feature","properties":{"k":"BTH","s":4.303},"geometry":{"type":"Polygon","coordinates":[[[1.84988,50.47715],[1.84771,50.47825],[1.84858,50.47977],[1.85192,50.47803],[1.84988,50.47715]]]}},{"type":"Feature","properties":{"k":"PPH","s":2.796},"geometry":{"type":"Polygon","coordinates":[[[1.85286,50.47894],[1.85445,50.47812],[1.85425,50.47795],[1.85383,50.47818],[1.85326,50.47759],[1.85276,50.47759],[1.8511,50.47661],[1.84991,50.47714],[1.85192,50.47803],[1.85266,50.47856],[1.85286,50.47894]]]}},{"type":"Feature","properties":{"k":"PPH","s":3.309},"geometry":{"type":"Polygon","coordinates":[[[1.85479,50.47767],[1.85435,50.4779],[1.85457,50.47808],[1.85495,50.47936],[1.85465,50.47978],[1.85565,50.48017],[1.85657,50.47952],[1.85683,50.47963],[1.85805,50.47834],[1.85741,50.47798],[1.85677,50.47884],[1.85585,50.47818],[1.85541,50.47834],[1.85479,50.47767]]]}},{"type":"Feature","properties":{"k":"PPH","s":2.795},"geometry":{"type":"Polygon","coordinates":[[[1.85276,50.47759],[1.85326,50.47759],[1.85383,50.47818],[1.85483,50.47764],[1.85394,50.4768],[1.85523,50.47627],[1.85496,50.47594],[1.85555,50.47567],[1.85528,50.47551],[1.85427,50.47633],[1.85298,50.47682],[1.85187,50.47627],[1.85111,50.47661],[1.85276,50.47759]]]}},{"type":"Feature","properties":{"k":"PPH","s":0.879},"geometry":{"type":"Polygon","coordinates":[[[1.842,50.48068],[1.84097,50.479],[1.84094,50.47863],[1.84014,50.47889],[1.84162,50.48048],[1.84215,50.48144],[1.842,50.48068]]]}},{"type":"Feature","properties":{"k":"PPH","s":0.708},"geometry":{"type":"Polygon","coordinates":[[[1.85677,50.47884],[1.85736,50.47805],[1.85674,50.47767],[1.85593,50.47821],[1.85677,50.47884]]]}},{"type":"Feature","properties":{"k":"BTH","s":1.866},"geometry":{"type":"Polygon","coordinates":[[[1.84309,50.48204],[1.84187,50.47905],[1.84104,50.47889],[1.84211,50.48097],[1.84215,50.48144],[1.84189,50.48113],[1.8413,50.48141],[1.84309,50.48204]]]}},{"type":"Feature","properties":{"k":"FVP","s":0.427},"geometry":{"type":"Polygon","coordinates":[[[1.84161,50.48048],[1.84061,50.48118],[1.8413,50.48141],[1.84189,50.48113],[1.84161,50.48048]]]}},{"type":"Feature","properties":{"k":"MLG","s":4.391},"geometry":{"type":"Polygon","coordinates":[[[1.84215,50.47967],[1.8431,50.48204],[1.84554,50.48251],[1.84387,50.47939],[1.84215,50.47967]]]}},{"type":"Feature","properties":{"k":"MLG","s":3.755},"geometry":{"type":"Polygon","coordinates":[[[1.83935,50.48283],[1.84082,50.48378],[1.84389,50.48235],[1.84233,50.48195],[1.84163,50.48161],[1.83935,50.48283]]]}},{"type":"Feature","properties":{"k":"FVP","s":1.181},"geometry":{"type":"Polygon","coordinates":[[[1.84059,50.48119],[1.84157,50.4806],[1.84161,50.48048],[1.84098,50.47981],[1.84093,50.47975],[1.83954,50.48078],[1.84059,50.48119]]]}},{"type":"Feature","properties":{"k":"BTN","s":1.096},"geometry":{"type":"Polygon","coordinates":[[[1.84093,50.47975],[1.84014,50.4789],[1.83915,50.48066],[1.83952,50.48078],[1.84093,50.47975]]]}},{"type":"Feature","properties":{"k":"MLG","s":0.11},"geometry":{"type":"Polygon","coordinates":[[[1.8378,50.48032],[1.83552,50.48222],[1.83791,50.48036],[1.8378,50.48032]]]}},{"type":"Feature","properties":{"k":"BTH","s":15.336},"geometry":{"type":"Polygon","coordinates":[[[1.83434,50.48603],[1.84137,50.48152],[1.83791,50.48036],[1.83283,50.48446],[1.83329,50.48469],[1.83275,50.48502],[1.83434,50.48603]]]}},{"type":"Feature","properties":{"k":"BTH","s":9.52},"geometry":{"type":"Polygon","coordinates":[[[1.83479,50.48582],[1.83762,50.4876],[1.83952,50.48642],[1.84109,50.48568],[1.83796,50.48372],[1.83479,50.48582]]]}},{"type":"Feature","properties":{"k":"PTC","s":0.562},"geometry":{"type":"Polygon","coordinates":[[[1.83417,50.48592],[1.83275,50.48502],[1.83235,50.48526],[1.83377,50.48617],[1.83417,50.48592]]]}},{"type":"Feature","properties":{"k":"ORH","s":1.6},"geometry":{"type":"Polygon","coordinates":[[[1.83395,50.48628],[1.83235,50.48526],[1.83134,50.48588],[1.83302,50.48693],[1.83395,50.48628]]]}},{"type":"Feature","properties":{"k":"BTH","s":0.007},"geometry":{"type":"Polygon","coordinates":[[[1.82866,50.48752],[1.8291,50.48783],[1.82886,50.48763],[1.82866,50.48752]]]}},{"type":"Feature","properties":{"k":"CZH","s":0.003},"geometry":{"type":"MultiPolygon","coordinates":[[[[1.83146,50.49015],[1.83142,50.49052],[1.83146,50.49037],[1.83146,50.49015]]]]}},{"type":"Feature","properties":{"k":"JAC","s":0.444},"geometry":{"type":"MultiPolygon","coordinates":[[[[1.83134,50.49145],[1.83139,50.49181],[1.83147,50.49055],[1.83297,50.49074],[1.83155,50.49045],[1.83154,50.48973],[1.83081,50.4889],[1.83149,50.48983],[1.83134,50.49145]]],[[[1.83292,50.49391],[1.8339,50.49468],[1.83255,50.49338],[1.83139,50.49181],[1.83145,50.49212],[1.83292,50.49391]]]]}},{"type":"Feature","properties":{"k":"JAC","s":0.957},"geometry":{"type":"Polygon","coordinates":[[[1.83465,50.49518],[1.83424,50.49511],[1.83966,50.49676],[1.83986,50.4966],[1.83466,50.49495],[1.83465,50.49518]]]}},{"type":"Feature","properties":{"k":"ORH","s":2.059},"geometry":{"type":"Polygon","coordinates":[[[1.85545,50.47537],[1.85506,50.47502],[1.85472,50.4752],[1.8544,50.475],[1.85328,50.47551],[1.85226,50.47627],[1.85303,50.47676],[1.85415,50.47633],[1.85545,50.47537]]]}}]}