{"type":"FeatureCollection","features":[{"type":"Feature","properties":{"k":"PPH","s":5.381},"geometry":{"type":"Polygon","coordinates":[[[1.61783,50.81662],[1.62004,50.81605],[1.61904,50.81532],[1.61585,50.8144],[1.61385,50.81533],[1.61783,50.81662]]]}},{"type":"Feature","properties":{"k":"PPH","s":30.305},"geometry":{"type":"Polygon","coordinates":[[[1.64426,50.80514],[1.63888,50.8047],[1.63815,50.80422],[1.63562,50.80314],[1.63274,50.80322],[1.6315,50.80286],[1.62962,50.80188],[1.62932,50.80276],[1.62979,50.80381],[1.63049,50.80397],[1.63066,50.80366],[1.63108,50.80375],[1.63078,50.80437],[1.63335,50.80499],[1.63548,50.80604],[1.63856,50.80785],[1.64048,50.80842],[1.64122,50.80792],[1.64124,50.80772],[1.64287,50.80843],[1.64465,50.8057],[1.64426,50.80514]],[[1.64038,50.80814],[1.64016,50.80809],[1.64027,50.80791],[1.64051,50.80799],[1.64038,50.80814]]]}},{"type":"Feature","properties":{"k":"PPH","s":0.732},"geometry":{"type":"Polygon","coordinates":[[[1.63468,50.81695],[1.63419,50.81644],[1.63466,50.81568],[1.63296,50.81624],[1.63468,50.81695]]]}},{"type":"Feature","properties":{"k":"PPH","s":0.93},"geometry":{"type":"Polygon","coordinates":[[[1.63435,50.81371],[1.63451,50.81431],[1.63539,50.81467],[1.63521,50.81494],[1.63556,50.81502],[1.63557,50.81461],[1.63598,50.81423],[1.63474,50.81363],[1.63444,50.8133],[1.63399,50.81364],[1.63435,50.81371]]]}},{"type":"Feature","properties":{"k":"PPH","s":5.654},"geometry":{"type":"Polygon","coordinates":[[[1.63085,50.81083],[1.63116,50.81108],[1.63224,50.81146],[1.63346,50.81014],[1.63285,50.80993],[1.63124,50.80874],[1.63051,50.80869],[1.62916,50.80778],[1.62829,50.80765],[1.63085,50.81083]]]}},{"type":"Feature","properties":{"k":"BTH","s":0.775},"geometry":{"type":"Polygon","coordinates":[[[1.63556,50.80954],[1.63629,50.80866],[1.63534,50.80836],[1.63474,50.80918],[1.63556,50.80954]]]}},{"type":"Feature","properties":{"k":"MIS","s":3.271},"geometry":{"type":"Polygon","coordinates":[[[1.63574,50.80775],[1.63339,50.80646],[1.63355,50.80836],[1.63509,50.80867],[1.63534,50.80836],[1.6363,50.80866],[1.63699,50.80792],[1.6357,50.80721],[1.63574,50.80775]]]}},{"type":"Feature","properties":{"k":"BTN","s":0.96},"geometry":{"type":"Polygon","coordinates":[[[1.6357,50.80721],[1.63335,50.80592],[1.63339,50.80646],[1.63574,50.80775],[1.6357,50.80721]]]}},{"type":"Feature","properties":{"k":"MLG","s":9.23},"geometry":{"type":"Polygon","coordinates":[[[1.63041,50.80438],[1.63055,50.80498],[1.63111,50.80502],[1.6312,50.80598],[1.63081,50.80598],[1.6314,50.80793],[1.63355,50.80836],[1.63335,50.80592],[1.63703,50.80795],[1.63753,50.80737],[1.63476,50.80574],[1.63321,50.80503],[1.63041,50.80438]]]}},{"type":"Feature","properties":{"k":"BTH","s":0.372},"geometry":{"type":"Polygon","coordinates":[[[1.63111,50.80502],[1.63055,50.80498],[1.63081,50.80598],[1.6312,50.80598],[1.63111,50.80502]]]}},{"type":"Feature","properties":{"k":"PTR","s":1.605},"geometry":{"type":"Polygon","coordinates":[[[1.61296,50.80805],[1.61377,50.80844],[1.61592,50.80647],[1.61577,50.80625],[1.61544,50.80611],[1.61296,50.80805]]]}},{"type":"Feature","properties":{"k":"PPH","s":2.353},"geometry":{"type":"Polygon","coordinates":[[[1.61469,50.80639],[1.61475,50.80628],[1.61437,50.80544],[1.61327,50.80507],[1.61179,50.80662],[1.61291,50.80697],[1.61469,50.80639]],[[1.61366,50.80606],[1.61388,50.80579],[1.61439,50.80597],[1.61436,50.80624],[1.61459,50.80636],[1.61366,50.80606]]]}},{"type":"Feature","properties":{"k":"PTR","s":0.912},"geometry":{"type":"Polygon","coordinates":[[[1.61365,50.8074],[1.61292,50.80703],[1.6115,50.8073],[1.61268,50.80806],[1.61365,50.8074]]]}},{"type":"Feature","properties":{"k":"PPH","s":13.581},"geometry":{"type":"Polygon","coordinates":[[[1.61747,50.81679],[1.61619,50.81617],[1.61515,50.81664],[1.61489,50.81651],[1.61534,50.81607],[1.61447,50.81584],[1.61427,50.81613],[1.61408,50.81611],[1.6137,50.8159],[1.61385,50.81576],[1.61312,50.81544],[1.61284,50.81513],[1.61182,50.81479],[1.61136,50.81483],[1.60764,50.81738],[1.60873,50.81771],[1.60969,50.81767],[1.60987,50.81785],[1.61019,50.81751],[1.61078,50.8174],[1.61248,50.8173],[1.61274,50.81717],[1.61345,50.81749],[1.61379,50.81748],[1.61392,50.81729],[1.61435,50.81752],[1.61418,50.81775],[1.61492,50.81796],[1.6148,50.81823],[1.61557,50.81855],[1.6166,50.81817],[1.61684,50.81754],[1.6182,50.817],[1.61834,50.81689],[1.61791,50.81671],[1.61747,50.81679]]]}},{"type":"Feature","properties":{"k":"MIS","s":2.849},"geometry":{"type":"Polygon","coordinates":[[[1.63081,50.80598],[1.63008,50.8059],[1.62904,50.8044],[1.62832,50.80447],[1.62801,50.80529],[1.62826,50.80706],[1.62841,50.80706],[1.62831,50.80639],[1.63086,50.80641],[1.63081,50.80598]]]}},{"type":"Feature","properties":{"k":"PPH","s":8.908},"geometry":{"type":"Polygon","coordinates":[[[1.6246,50.81485],[1.6257,50.81516],[1.62631,50.81428],[1.62669,50.81439],[1.62691,50.81416],[1.62722,50.81429],[1.6271,50.81447],[1.6268,50.81445],[1.62675,50.81477],[1.62955,50.81536],[1.62918,50.81321],[1.62867,50.81251],[1.62783,50.81224],[1.62578,50.81244],[1.6248,50.81387],[1.6245,50.8138],[1.62365,50.81501],[1.62433,50.81521],[1.6246,50.81485]]]}},{"type":"Feature","properties":{"k":"PPH","s":0.433},"geometry":{"type":"Polygon","coordinates":[[[1.62894,50.80363],[1.62864,50.80441],[1.62999,50.80426],[1.62894,50.80363]]]}},{"type":"Feature","properties":{"k":"PPH","s":0.797},"geometry":{"type":"Polygon","coordinates":[[[1.63938,50.80861],[1.63992,50.80899],[1.63957,50.8097],[1.6401,50.81021],[1.64023,50.80842],[1.63915,50.80814],[1.63938,50.80861]]]}},{"type":"Feature","properties":{"k":"MLC","s":5.214},"geometry":{"type":"Polygon","coordinates":[[[1.63753,50.80737],[1.63635,50.80868],[1.63666,50.80878],[1.63592,50.80969],[1.63793,50.81027],[1.63953,50.80966],[1.63989,50.80901],[1.63932,50.8086],[1.63909,50.8081],[1.63753,50.80737]]]}},{"type":"Feature","properties":{"k":"BTH","s":1.673},"geometry":{"type":"Polygon","coordinates":[[[1.63793,50.81027],[1.63701,50.81111],[1.63775,50.81136],[1.63999,50.81023],[1.63953,50.80966],[1.63793,50.81027]]]}},{"type":"Feature","properties":{"k":"PPH","s":0.014},"geometry":{"type":"MultiPolygon","coordinates":[[[[1.64026,50.80857],[1.6404,50.80847],[1.64026,50.80843],[1.64026,50.80857]]],[[[1.64003,50.81084],[1.64003,50.81097],[1.64011,50.81035],[1.64003,50.81084]]],[[[1.64007,50.81109],[1.64003,50.81098],[1.64003,50.81102],[1.64007,50.81109]]],[[[1.64039,50.81194],[1.64035,50.81176],[1.64035,50.81187],[1.64039,50.81194]]]]}},{"type":"Feature","properties":{"k":"BTH","s":1.216},"geometry":{"type":"Polygon","coordinates":[[[1.62904,50.8044],[1.63008,50.8059],[1.63073,50.80597],[1.63032,50.80435],[1.62904,50.8044]]]}},{"type":"Feature","properties":{"k":"BTH","s":8.658},"geometry":{"type":"Polygon","coordinates":[[[1.63635,50.81653],[1.6352,50.81695],[1.63513,50.81722],[1.63798,50.81862],[1.63977,50.8197],[1.6401,50.81969],[1.642,50.81817],[1.64248,50.81552],[1.64138,50.81557],[1.64127,50.81621],[1.6396,50.81839],[1.63777,50.81745],[1.63728,50.81704],[1.63712,50.81709],[1.63635,50.81653]]]}},{"type":"Feature","properties":{"k":"PTR","s":0.64},"geometry":{"type":"Polygon","coordinates":[[[1.63733,50.8199],[1.63963,50.81981],[1.63893,50.81934],[1.63868,50.81954],[1.6382,50.81924],[1.63733,50.8199]]]}},{"type":"Feature","properties":{"k":"MIS","s":0.02},"geometry":{"type":"Polygon","coordinates":[[[1.63777,50.81993],[1.63744,50.81997],[1.63899,50.8199],[1.63777,50.81993]]]}},{"type":"Feature","properties":{"k":"BTH","s":0.034},"geometry":{"type":"Polygon","coordinates":[[[1.63337,50.81939],[1.63336,50.8194],[1.63496,50.81976],[1.63541,50.81981],[1.63337,50.81939]]]}},{"type":"Feature","properties":{"k":"PPH","s":1.955},"geometry":{"type":"Polygon","coordinates":[[[1.62868,50.82082],[1.62909,50.82045],[1.62715,50.81985],[1.62728,50.81965],[1.62628,50.8193],[1.62481,50.81904],[1.62464,50.81944],[1.62708,50.81998],[1.62697,50.82011],[1.62858,50.82067],[1.62795,50.82144],[1.629,50.82172],[1.62932,50.8213],[1.62868,50.82082]]]}},{"type":"Feature","properties":{"k":"MIS","s":2.203},"geometry":{"type":"Polygon","coordinates":[[[1.62461,50.81781],[1.62413,50.81767],[1.62424,50.81718],[1.6222,50.81695],[1.62114,50.81847],[1.62461,50.81781]]]}},{"type":"Feature","properties":{"k":"BTH","s":2.909},"geometry":{"type":"Polygon","coordinates":[[[1.62445,50.81971],[1.6269,50.82019],[1.62704,50.81998],[1.62462,50.81945],[1.62481,50.81904],[1.62354,50.81881],[1.62367,50.81853],[1.62321,50.81848],[1.62157,50.81845],[1.62129,50.81935],[1.62445,50.81971]]]}},{"type":"Feature","properties":{"k":"BTH","s":7.757},"geometry":{"type":"Polygon","coordinates":[[[1.62032,50.82207],[1.62171,50.82112],[1.62285,50.82166],[1.62376,50.82079],[1.62591,50.82147],[1.6269,50.8202],[1.62443,50.81973],[1.62123,50.81937],[1.6208,50.82033],[1.6196,50.8215],[1.62032,50.82207]]]}},{"type":"Feature","properties":{"k":"BTH","s":11.127},"geometry":{"type":"Polygon","coordinates":[[[1.62229,50.82248],[1.62216,50.82209],[1.62232,50.8221],[1.62405,50.82281],[1.62432,50.82235],[1.62902,50.82357],[1.62926,50.82183],[1.62795,50.82144],[1.62858,50.82067],[1.62697,50.82011],[1.62592,50.82148],[1.62375,50.8208],[1.62285,50.82166],[1.62171,50.82112],[1.6204,50.82201],[1.6218,50.82281],[1.62229,50.82248]]]}},{"type":"Feature","properties":{"k":"BTH","s":6.253},"geometry":{"type":"Polygon","coordinates":[[[1.62659,50.82361],[1.62871,50.82413],[1.62902,50.82357],[1.62432,50.82235],[1.62402,50.82286],[1.6225,50.82233],[1.6218,50.82281],[1.62174,50.82296],[1.62366,50.82395],[1.62509,50.82435],[1.62484,50.82471],[1.62547,50.82488],[1.62659,50.82361]]]}},{"type":"Feature","properties":{"k":"BTA","s":0.111},"geometry":{"type":"MultiPolygon","coordinates":[[[[1.62484,50.82471],[1.62481,50.82475],[1.62544,50.82493],[1.62484,50.82471]]],[[[1.62169,50.82293],[1.62164,50.82297],[1.62366,50.82395],[1.62169,50.82293]]]]}},{"type":"Feature","properties":{"k":"BTA","s":0.043},"geometry":{"type":"Polygon","coordinates":[[[1.62027,50.82211],[1.61998,50.82167],[1.6196,50.8215],[1.62027,50.82211]]]}},{"type":"Feature","properties":{"k":"JAC","s":0.168},"geometry":{"type":"Polygon","coordinates":[[[1.6204,50.82201],[1.62032,50.82207],[1.62166,50.82293],[1.62179,50.82283],[1.6204,50.82201]]]}},{"type":"Feature","properties":{"k":"BTA","s":0.067},"geometry":{"type":"Polygon","coordinates":[[[1.62162,50.82297],[1.62032,50.82207],[1.62027,50.82211],[1.62162,50.82297]]]}},{"type":"Feature","properties":{"k":"MIS","s":2.706},"geometry":{"type":"Polygon","coordinates":[[[1.62021,50.82104],[1.62096,50.82006],[1.62148,50.8185],[1.61974,50.81886],[1.61904,50.82033],[1.62021,50.82104]]]}},{"type":"Feature","properties":{"k":"MIS","s":1.285},"geometry":{"type":"Polygon","coordinates":[[[1.6197,50.81883],[1.62089,50.81686],[1.62017,50.81675],[1.61888,50.81881],[1.6197,50.81883]]]}},{"type":"Feature","properties":{"k":"PPH","s":4.457},"geometry":{"type":"Polygon","coordinates":[[[1.62016,50.81673],[1.61983,50.81653],[1.619,50.81668],[1.61761,50.81743],[1.61644,50.81842],[1.61799,50.81942],[1.61953,50.81921],[1.6197,50.81883],[1.61888,50.8188],[1.62016,50.81673]]]}},{"type":"Feature","properties":{"k":"PPH","s":1.464},"geometry":{"type":"Polygon","coordinates":[[[1.6174,50.81981],[1.61806,50.82032],[1.61785,50.82068],[1.61819,50.82084],[1.61904,50.82035],[1.61959,50.81921],[1.618,50.81943],[1.6174,50.81981]]]}},{"type":"Feature","properties":{"k":"JAC","s":0.003},"geometry":{"type":"MultiPolygon","coordinates":[[[[1.61538,50.81864],[1.61543,50.81865],[1.61541,50.81863],[1.61538,50.81864]]],[[[1.61992,50.82174],[1.6199,50.82173],[1.61993,50.82189],[1.61992,50.82174]]],[[[1.61554,50.81877],[1.61554,50.81884],[1.61558,50.81881],[1.61554,50.81877]]]]}},{"type":"Feature","properties":{"k":"PPH","s":0.012},"geometry":{"type":"Polygon","coordinates":[[[1.61514,50.81848],[1.61503,50.81849],[1.6153,50.81863],[1.61514,50.81848]]]}},{"type":"Feature","properties":{"k":"PPH","s":1.186},"geometry":{"type":"Polygon","coordinates":[[[1.62793,50.8053],[1.62701,50.80524],[1.62752,50.8071],[1.62823,50.80699],[1.62793,50.8053]]]}},{"type":"Feature","properties":{"k":"ORP","s":0.078},"geometry":{"type":"Polygon","coordinates":[[[1.64248,50.81552],[1.64248,50.81543],[1.64139,50.81547],[1.64248,50.81552]]]}},{"type":"Feature","properties":{"k":"BTA","s":0.03},"geometry":{"type":"Polygon","coordinates":[[[1.63995,50.81108],[1.6401,50.81022],[1.64002,50.81022],[1.63995,50.81108]]]}},{"type":"Feature","properties":{"k":"MLG","s":0.524},"geometry":{"type":"Polygon","coordinates":[[[1.63882,50.81089],[1.63946,50.81132],[1.63995,50.81108],[1.64002,50.81022],[1.63882,50.81089]]]}},{"type":"Feature","properties":{"k":"MIS","s":1.534},"geometry":{"type":"Polygon","coordinates":[[[1.63996,50.81109],[1.63946,50.81132],[1.63865,50.81088],[1.6378,50.81137],[1.63827,50.81201],[1.64029,50.81201],[1.63996,50.81109]]]}},{"type":"Feature","properties":{"k":"BTA","s":0.054},"geometry":{"type":"Polygon","coordinates":[[[1.64026,50.81155],[1.64002,50.81106],[1.64021,50.81185],[1.64036,50.81201],[1.64026,50.81155]]]}},{"type":"Feature","properties":{"k":"BTA","s":0.11},"geometry":{"type":"Polygon","coordinates":[[[1.64035,50.81308],[1.63905,50.81303],[1.63904,50.81307],[1.64047,50.81312],[1.64029,50.81201],[1.64035,50.81308]]]}},{"type":"Feature","properties":{"k":"PTC","s":1.363},"geometry":{"type":"Polygon","coordinates":[[[1.63901,50.81303],[1.64035,50.81308],[1.64029,50.81201],[1.63827,50.81201],[1.63901,50.81303]]]}},{"type":"Feature","properties":{"k":"PTC","s":4.576},"geometry":{"type":"Polygon","coordinates":[[[1.63594,50.8142],[1.63901,50.81303],[1.6378,50.81137],[1.63674,50.81222],[1.63444,50.8133],[1.63474,50.81363],[1.63594,50.8142]]]}},{"type":"Feature","properties":{"k":"BTA","s":0.126},"geometry":{"type":"Polygon","coordinates":[[[1.63611,50.81411],[1.63594,50.8142],[1.63664,50.81401],[1.63901,50.81303],[1.63611,50.81411]]]}},{"type":"Feature","properties":{"k":"PPH","s":1.498},"geometry":{"type":"Polygon","coordinates":[[[1.63893,50.81411],[1.63833,50.81342],[1.63649,50.8142],[1.63709,50.81502],[1.63893,50.81411]]]}},{"type":"Feature","properties":{"k":"MIS","s":1.243},"geometry":{"type":"Polygon","coordinates":[[[1.63801,50.8159],[1.63585,50.81477],[1.6355,50.81565],[1.63616,50.81608],[1.63697,50.81574],[1.63744,50.81619],[1.63801,50.8159]]]}},{"type":"Feature","properties":{"k":"PPH","s":11.989},"geometry":{"type":"Polygon","coordinates":[[[1.6396,50.81839],[1.64127,50.81621],[1.64139,50.81547],[1.64248,50.81543],[1.64147,50.81373],[1.63954,50.81441],[1.63925,50.81395],[1.63709,50.81502],[1.63649,50.8142],[1.63571,50.81466],[1.63534,50.8157],[1.63615,50.81613],[1.63621,50.8161],[1.6355,50.81565],[1.63585,50.81477],[1.63806,50.81593],[1.63739,50.81626],[1.63793,50.81674],[1.63728,50.81704],[1.6396,50.81839]]]}},{"type":"Feature","properties":{"k":"ORP","s":1.764},"geometry":{"type":"Polygon","coordinates":[[[1.63954,50.81441],[1.64122,50.81373],[1.64062,50.81316],[1.6392,50.81308],[1.63833,50.81342],[1.63893,50.81411],[1.63925,50.81395],[1.63954,50.81441]]]}},{"type":"Feature","properties":{"k":"MLG","s":5.892},"geometry":{"type":"Polygon","coordinates":[[[1.62831,50.8074],[1.63166,50.8083],[1.63206,50.80904],[1.63256,50.80938],[1.63379,50.80984],[1.63454,50.8091],[1.63474,50.80918],[1.63509,50.80867],[1.6314,50.80793],[1.63078,50.80641],[1.62831,50.80639],[1.62831,50.8074]]]}}]}