{"type":"FeatureCollection","features":[{"type":"Feature","properties":{"k":"BTH","s":0.599},"geometry":{"type":"Polygon","coordinates":[[[2.87368,50.36842],[2.87468,50.36826],[2.87406,50.36742],[2.87316,50.36755],[2.87377,50.36786],[2.87368,50.36842]]]}},{"type":"Feature","properties":{"k":"ORH","s":0.797},"geometry":{"type":"Polygon","coordinates":[[[2.87774,50.35719],[2.87709,50.35689],[2.87606,50.35781],[2.87645,50.35834],[2.87774,50.35719]]]}},{"type":"Feature","properties":{"k":"BTH","s":0.488},"geometry":{"type":"Polygon","coordinates":[[[2.87438,50.35867],[2.8747,50.35886],[2.87606,50.35792],[2.87581,50.35763],[2.87438,50.35867]]]}},{"type":"Feature","properties":{"k":"BTN","s":1.062},"geometry":{"type":"Polygon","coordinates":[[[2.87374,50.35824],[2.87438,50.35867],[2.87581,50.35763],[2.87529,50.35714],[2.87374,50.35824]]]}},{"type":"Feature","properties":{"k":"PPH","s":0.298},"geometry":{"type":"Polygon","coordinates":[[[2.87615,50.35646],[2.8754,50.35714],[2.87567,50.35736],[2.87651,50.35663],[2.87615,50.35646]]]}},{"type":"Feature","properties":{"k":"ORP","s":0.431},"geometry":{"type":"Polygon","coordinates":[[[2.87492,50.35681],[2.8754,50.35714],[2.87615,50.35646],[2.87561,50.3562],[2.87492,50.35681]]]}},{"type":"Feature","properties":{"k":"BTH","s":4.724},"geometry":{"type":"Polygon","coordinates":[[[2.87529,50.35714],[2.87368,50.35627],[2.87191,50.35561],[2.8719,50.35811],[2.87313,50.35866],[2.87529,50.35714]]]}},{"type":"Feature","properties":{"k":"PHS","s":4.009},"geometry":{"type":"Polygon","coordinates":[[[2.8747,50.35886],[2.87375,50.35824],[2.87237,50.35924],[2.874,50.36035],[2.87576,50.3596],[2.87555,50.3594],[2.87667,50.35882],[2.87606,50.35792],[2.8747,50.35886]]]}},{"type":"Feature","properties":{"k":"BTH","s":0.406},"geometry":{"type":"Polygon","coordinates":[[[2.87184,50.35856],[2.87269,50.35896],[2.87313,50.35866],[2.8719,50.35811],[2.87184,50.35856]]]}},{"type":"Feature","properties":{"k":"MIS","s":0.277},"geometry":{"type":"Polygon","coordinates":[[[2.87169,50.35945],[2.87175,50.35898],[2.87082,50.35958],[2.87113,50.35981],[2.87169,50.35945]]]}},{"type":"Feature","properties":{"k":"MIS","s":0.315},"geometry":{"type":"Polygon","coordinates":[[[2.87176,50.35857],[2.87058,50.3594],[2.87082,50.35958],[2.87173,50.359],[2.87176,50.35857]]]}},{"type":"Feature","properties":{"k":"BOR","s":0.205},"geometry":{"type":"Polygon","coordinates":[[[2.85806,50.37773],[2.8587,50.37708],[2.86238,50.37808],[2.85868,50.37704],[2.858,50.37774],[2.86196,50.37883],[2.85806,50.37773]]]}},{"type":"Feature","properties":{"k":"PTC","s":0.912},"geometry":{"type":"Polygon","coordinates":[[[2.85866,50.37703],[2.86237,50.37804],[2.86245,50.3779],[2.85832,50.37677],[2.85585,50.3761],[2.85568,50.37623],[2.85866,50.37703]]]}},{"type":"Feature","properties":{"k":"BTH","s":1.905},"geometry":{"type":"Polygon","coordinates":[[[2.86263,50.37757],[2.85617,50.37582],[2.85581,50.37608],[2.86248,50.3779],[2.86263,50.37757]]]}},{"type":"Feature","properties":{"k":"BTN","s":6.903},"geometry":{"type":"Polygon","coordinates":[[[2.85618,50.37581],[2.86263,50.37757],[2.86327,50.37631],[2.85759,50.37477],[2.85618,50.37581]]]}},{"type":"Feature","properties":{"k":"BTH","s":1.575},"geometry":{"type":"Polygon","coordinates":[[[2.85538,50.37875],[2.85745,50.37671],[2.85667,50.37651],[2.85464,50.37852],[2.85538,50.37875]]]}},{"type":"Feature","properties":{"k":"BTH","s":0.002},"geometry":{"type":"Polygon","coordinates":[[[2.85495,50.37672],[2.85481,50.37667],[2.85497,50.37675],[2.85495,50.37672]]]}},{"type":"Feature","properties":{"k":"BOR","s":0.006},"geometry":{"type":"Polygon","coordinates":[[[2.85501,50.37671],[2.85462,50.37657],[2.85481,50.37667],[2.85501,50.37671]]]}},{"type":"Feature","properties":{"k":"PHF","s":2.135},"geometry":{"type":"Polygon","coordinates":[[[2.85364,50.37818],[2.85463,50.37851],[2.85666,50.3765],[2.85566,50.37623],[2.85364,50.37818]]]}},{"type":"Feature","properties":{"k":"BTH","s":2.583},"geometry":{"type":"Polygon","coordinates":[[[2.85539,50.37876],[2.8566,50.37913],[2.85867,50.37704],[2.8575,50.37672],[2.85539,50.37876]]]}},{"type":"Feature","properties":{"k":"PHF","s":1.986},"geometry":{"type":"Polygon","coordinates":[[[2.85749,50.37949],[2.85346,50.37823],[2.85297,50.37857],[2.85723,50.38011],[2.85749,50.37949]]]}},{"type":"Feature","properties":{"k":"BTH","s":1.223},"geometry":{"type":"Polygon","coordinates":[[[2.85218,50.37918],[2.85368,50.37986],[2.8545,50.37912],[2.85297,50.37857],[2.85218,50.37918]]]}},{"type":"Feature","properties":{"k":"MIS","s":0.425},"geometry":{"type":"Polygon","coordinates":[[[2.85195,50.37941],[2.8534,50.38011],[2.85368,50.37986],[2.85218,50.37918],[2.85195,50.37941]]]}},{"type":"Feature","properties":{"k":"MDI","s":0.015},"geometry":{"type":"Polygon","coordinates":[[[2.86354,50.36096],[2.8636,50.36098],[2.86384,50.3606],[2.86354,50.36096]]]}},{"type":"Feature","properties":{"k":"PPH","s":1.01},"geometry":{"type":"Polygon","coordinates":[[[2.86389,50.36184],[2.86477,50.36033],[2.86433,50.36005],[2.86317,50.36165],[2.86389,50.36184]]]}},{"type":"Feature","properties":{"k":"FLA","s":1.208},"geometry":{"type":"Polygon","coordinates":[[[2.86314,50.36244],[2.86527,50.363],[2.86535,50.36275],[2.86465,50.36262],[2.86476,50.3623],[2.86452,50.36227],[2.86468,50.362],[2.86304,50.36162],[2.86283,50.36201],[2.86314,50.36244]]]}},{"type":"Feature","properties":{"k":"MIS","s":1.399},"geometry":{"type":"Polygon","coordinates":[[[2.86325,50.36467],[2.86343,50.36408],[2.86319,50.36405],[2.86346,50.36341],[2.86316,50.36332],[2.86332,50.36289],[2.86271,50.36267],[2.86203,50.3645],[2.86325,50.36467]]]}},{"type":"Feature","properties":{"k":"BTH","s":1.125},"geometry":{"type":"Polygon","coordinates":[[[2.86015,50.36421],[2.86083,50.36431],[2.86156,50.36234],[2.86087,50.36225],[2.86015,50.36421]]]}},{"type":"Feature","properties":{"k":"ORP","s":0.937},"geometry":{"type":"Polygon","coordinates":[[[2.86178,50.36238],[2.86156,50.36234],[2.86083,50.36431],[2.86153,50.36442],[2.86205,50.36302],[2.86161,50.36292],[2.86178,50.36238]]]}},{"type":"Feature","properties":{"k":"PTC","s":3.723},"geometry":{"type":"Polygon","coordinates":[[[2.86016,50.36423],[2.8598,50.36513],[2.8649,50.3659],[2.86514,50.36552],[2.8645,50.36543],[2.86464,50.36488],[2.86016,50.36423]]]}},{"type":"Feature","properties":{"k":"MIS","s":1.304},"geometry":{"type":"Polygon","coordinates":[[[2.86482,50.366],[2.86194,50.36559],[2.86176,50.36613],[2.86444,50.36652],[2.86482,50.366]]]}},{"type":"Feature","properties":{"k":"LUZ","s":1.415},"geometry":{"type":"Polygon","coordinates":[[[2.86127,50.36734],[2.86092,50.36835],[2.86266,50.36844],[2.86316,50.36761],[2.86127,50.36734]]]}},{"type":"Feature","properties":{"k":"BTH","s":2.426},"geometry":{"type":"Polygon","coordinates":[[[2.86402,50.36708],[2.86444,50.36652],[2.86176,50.36613],[2.86129,50.36734],[2.86319,50.36762],[2.86402,50.36708]]]}},{"type":"Feature","properties":{"k":"CZH","s":2.074},"geometry":{"type":"Polygon","coordinates":[[[2.86387,50.36737],[2.8681,50.36849],[2.86862,50.36803],[2.86439,50.36687],[2.86387,50.36737]]]}},{"type":"Feature","properties":{"k":"MIS","s":0.803},"geometry":{"type":"Polygon","coordinates":[[[2.86387,50.36737],[2.86363,50.36753],[2.86787,50.36868],[2.8681,50.36849],[2.86387,50.36737]]]}},{"type":"Feature","properties":{"k":"BOR","s":0.099},"geometry":{"type":"Polygon","coordinates":[[[2.8686,50.368],[2.86441,50.36684],[2.86862,50.36803],[2.8686,50.368]]]}},{"type":"Feature","properties":{"k":"MIS","s":0.382},"geometry":{"type":"Polygon","coordinates":[[[2.86464,50.36488],[2.86474,50.36459],[2.86336,50.3643],[2.86325,50.36467],[2.86464,50.36488]]]}},{"type":"Feature","properties":{"k":"BOR","s":0.062},"geometry":{"type":"MultiPolygon","coordinates":[[[[2.86621,50.36476],[2.86644,50.36477],[2.86618,50.36473],[2.86586,50.36551],[2.86621,50.36476]]],[[[2.86648,50.36478],[2.86678,50.36395],[2.86644,50.36477],[2.86648,50.36478]]]]}},{"type":"Feature","properties":{"k":"PTR","s":0.81},"geometry":{"type":"Polygon","coordinates":[[[2.86876,50.3644],[2.86857,50.36476],[2.86982,50.36538],[2.87006,50.3644],[2.86876,50.3644]]]}},{"type":"Feature","properties":{"k":"TRN","s":2.39},"geometry":{"type":"Polygon","coordinates":[[[2.86829,50.36465],[2.86739,50.36663],[2.86893,50.36703],[2.86969,50.3654],[2.86829,50.36465]]]}},{"type":"Feature","properties":{"k":"BOR","s":0.069},"geometry":{"type":"Polygon","coordinates":[[[2.86828,50.36468],[2.86826,50.36463],[2.86739,50.36663],[2.86828,50.36468]]]}},{"type":"Feature","properties":{"k":"BTH","s":3.277},"geometry":{"type":"Polygon","coordinates":[[[2.86726,50.3666],[2.86743,50.36652],[2.86826,50.36463],[2.86794,50.36438],[2.86681,50.36399],[2.86553,50.36611],[2.86726,50.3666]]]}},{"type":"Feature","properties":{"k":"TRN","s":3.464},"geometry":{"type":"Polygon","coordinates":[[[2.8686,50.368],[2.86943,50.36728],[2.86495,50.366],[2.86441,50.36684],[2.8686,50.368]]]}},{"type":"Feature","properties":{"k":"BOR","s":0.057},"geometry":{"type":"Polygon","coordinates":[[[2.86892,50.367],[2.86896,50.36704],[2.86971,50.36541],[2.86892,50.367]]]}},{"type":"Feature","properties":{"k":"PHS","s":1.48},"geometry":{"type":"Polygon","coordinates":[[[2.86956,50.36718],[2.87105,50.36595],[2.86971,50.36541],[2.86896,50.36704],[2.86956,50.36718]]]}},{"type":"Feature","properties":{"k":"PPH","s":2.183},"geometry":{"type":"Polygon","coordinates":[[[2.87299,50.36691],[2.87247,50.36694],[2.87243,50.36659],[2.87096,50.36636],[2.87018,50.36704],[2.86984,50.36704],[2.87303,50.36798],[2.87299,50.36691]]]}},{"type":"Feature","properties":{"k":"PPH","s":0.183},"geometry":{"type":"Polygon","coordinates":[[[2.87016,50.3655],[2.87048,50.36442],[2.87026,50.36444],[2.86995,50.36542],[2.87016,50.3655]]]}},{"type":"Feature","properties":{"k":"MIS","s":8.974},"geometry":{"type":"Polygon","coordinates":[[[2.87879,50.36427],[2.88118,50.36182],[2.87814,50.36011],[2.87723,50.36063],[2.87811,50.36114],[2.87673,50.36237],[2.87619,50.3622],[2.87557,50.3631],[2.87879,50.36427]]]}},{"type":"Feature","properties":{"k":"PPH","s":1.823},"geometry":{"type":"Polygon","coordinates":[[[2.87692,50.36079],[2.87639,50.36049],[2.87601,50.36058],[2.87579,50.36082],[2.87659,50.3611],[2.87713,50.36073],[2.87753,50.36104],[2.8769,50.36162],[2.8773,50.36181],[2.87613,50.36151],[2.875,50.36292],[2.87556,50.3631],[2.87619,50.36219],[2.87673,50.36237],[2.87811,50.36114],[2.87721,50.36064],[2.87692,50.36079]]]}},{"type":"Feature","properties":{"k":"PTC","s":4.338},"geometry":{"type":"Polygon","coordinates":[[[2.87769,50.35974],[2.87849,50.3602],[2.87892,50.36046],[2.88118,50.36169],[2.88294,50.36035],[2.87798,50.35926],[2.87769,50.35974]],[[2.87849,50.36017],[2.87853,50.36017],[2.87849,50.3602],[2.87849,50.36017]]]}},{"type":"Feature","properties":{"k":"PHF","s":4.045},"geometry":{"type":"Polygon","coordinates":[[[2.88508,50.3592],[2.88155,50.36188],[2.88273,50.36251],[2.88595,50.36002],[2.88508,50.3592]]]}},{"type":"Feature","properties":{"k":"BTN","s":2.963},"geometry":{"type":"Polygon","coordinates":[[[2.88273,50.36251],[2.88363,50.363],[2.88674,50.36058],[2.88597,50.36003],[2.88273,50.36251]]]}},{"type":"Feature","properties":{"k":"BTH","s":0.903},"geometry":{"type":"Polygon","coordinates":[[[2.88589,50.35998],[2.88676,50.36058],[2.88363,50.363],[2.88426,50.36336],[2.88527,50.36254],[2.8847,50.3622],[2.88693,50.36055],[2.88592,50.35996],[2.88592,50.35978],[2.88589,50.35998]]]}},{"type":"Feature","properties":{"k":"PHF","s":2.384},"geometry":{"type":"MultiPolygon","coordinates":[[[[2.88318,50.36456],[2.88428,50.36343],[2.8827,50.36256],[2.88142,50.36388],[2.88318,50.36456]]],[[[2.88401,50.36484],[2.88329,50.3646],[2.88388,50.36483],[2.88401,50.36484]]]]}},{"type":"Feature","properties":{"k":"BTH","s":11.388},"geometry":{"type":"Polygon","coordinates":[[[2.88118,50.36182],[2.87879,50.36427],[2.88004,50.3649],[2.87877,50.36611],[2.88158,50.36724],[2.88329,50.36567],[2.88388,50.36483],[2.88142,50.36388],[2.88255,50.36268],[2.88226,50.36234],[2.88118,50.36182]]]}},{"type":"Feature","properties":{"k":"MIS","s":0.688},"geometry":{"type":"Polygon","coordinates":[[[2.88548,50.36582],[2.88361,50.36537],[2.88388,50.36483],[2.88328,50.36567],[2.88529,50.36613],[2.88548,50.36582]]]}},{"type":"Feature","properties":{"k":"BTN","s":0.551},"geometry":{"type":"Polygon","coordinates":[[[2.88328,50.36567],[2.88304,50.36589],[2.88494,50.36654],[2.88523,50.3662],[2.88328,50.36567]]]}},{"type":"Feature","properties":{"k":"BTN","s":0.833},"geometry":{"type":"Polygon","coordinates":[[[2.88422,50.36734],[2.88459,50.36695],[2.88259,50.36631],[2.88215,50.36669],[2.88422,50.36734]]]}},{"type":"Feature","properties":{"k":"FVP","s":0.853},"geometry":{"type":"Polygon","coordinates":[[[2.88459,50.36695],[2.88497,50.36655],[2.88304,50.36589],[2.88259,50.36631],[2.88459,50.36695]]]}},{"type":"Feature","properties":{"k":"BTN","s":1.217},"geometry":{"type":"Polygon","coordinates":[[[2.88158,50.36724],[2.88367,50.36794],[2.88422,50.36734],[2.88215,50.36669],[2.88158,50.36724]]]}},{"type":"Feature","properties":{"k":"PTC","s":1.244},"geometry":{"type":"Polygon","coordinates":[[[2.87787,50.37175],[2.87726,50.37119],[2.87508,50.37152],[2.87535,50.37215],[2.87787,50.37175]]]}},{"type":"Feature","properties":{"k":"MIS","s":0.981},"geometry":{"type":"Polygon","coordinates":[[[2.87878,50.37112],[2.88002,50.3683],[2.87964,50.36815],[2.87839,50.37105],[2.87878,50.37112]]]}},{"type":"Feature","properties":{"k":"BTH","s":2.53},"geometry":{"type":"Polygon","coordinates":[[[2.87681,50.36799],[2.87892,50.36881],[2.87799,50.37098],[2.87836,50.37104],[2.87963,50.36814],[2.87726,50.3672],[2.87681,50.36799]]]}},{"type":"Feature","properties":{"k":"BTN","s":1.12},"geometry":{"type":"Polygon","coordinates":[[[2.86983,50.3564],[2.86942,50.35604],[2.86716,50.35745],[2.86758,50.35783],[2.86983,50.3564]]]}},{"type":"Feature","properties":{"k":"ORP","s":0.217},"geometry":{"type":"Polygon","coordinates":[[[2.87065,50.35864],[2.87166,50.358],[2.87149,50.35784],[2.87045,50.35851],[2.87065,50.35864]]]}},{"type":"Feature","properties":{"k":"BTH","s":7.735},"geometry":{"type":"Polygon","coordinates":[[[2.87175,50.35798],[2.87183,50.35796],[2.87195,50.35658],[2.87168,50.35552],[2.8705,50.35406],[2.87029,50.3531],[2.86986,50.35258],[2.86777,50.35454],[2.87175,50.35798]]]}},{"type":"Feature","properties":{"k":"BTH","s":3.683},"geometry":{"type":"Polygon","coordinates":[[[2.87251,50.35292],[2.87084,50.35439],[2.87176,50.35549],[2.87221,50.35565],[2.87418,50.35385],[2.87251,50.35292]]]}},{"type":"Feature","properties":{"k":"BTN","s":0.484},"geometry":{"type":"Polygon","coordinates":[[[2.87063,50.35413],[2.8708,50.35433],[2.87244,50.35288],[2.87224,50.35274],[2.87063,50.35413]]]}},{"type":"Feature","properties":{"k":"ORP","s":0.744},"geometry":{"type":"Polygon","coordinates":[[[2.85273,50.38005],[2.85175,50.37956],[2.85135,50.37997],[2.85172,50.38091],[2.85273,50.38005]]]}},{"type":"Feature","properties":{"k":"LUZ","s":0.57},"geometry":{"type":"Polygon","coordinates":[[[2.85173,50.3809],[2.85189,50.38128],[2.85334,50.38008],[2.85292,50.37989],[2.85173,50.3809]]]}},{"type":"Feature","properties":{"k":"ORP","s":0.846},"geometry":{"type":"Polygon","coordinates":[[[2.8519,50.38133],[2.85224,50.3818],[2.85304,50.38124],[2.85356,50.38062],[2.85369,50.38067],[2.853,50.38037],[2.8519,50.38133]]]}},{"type":"Feature","properties":{"k":"BTH","s":0.056},"geometry":{"type":"Polygon","coordinates":[[[2.8515,50.38074],[2.85136,50.38078],[2.85177,50.38138],[2.8515,50.38074]]]}},{"type":"Feature","properties":{"k":"LUZ","s":3.21},"geometry":{"type":"Polygon","coordinates":[[[2.85492,50.35006],[2.85762,50.34729],[2.85657,50.34685],[2.8539,50.3495],[2.85492,50.35006]]]}},{"type":"Feature","properties":{"k":"BOR","s":0.243},"geometry":{"type":"Polygon","coordinates":[[[2.85657,50.34685],[2.85762,50.34729],[2.85513,50.34979],[2.85492,50.35006],[2.85768,50.34728],[2.85656,50.34682],[2.85385,50.34951],[2.85657,50.34685]]]}},{"type":"Feature","properties":{"k":"CZH","s":2.513},"geometry":{"type":"MultiPolygon","coordinates":[[[[2.85592,50.34735],[2.85487,50.34693],[2.85279,50.34901],[2.85385,50.3495],[2.85592,50.34735]]],[[[2.85656,50.34682],[2.85683,50.34691],[2.85655,50.34679],[2.85645,50.34692],[2.85656,50.34682]]]]}},{"type":"Feature","properties":{"k":"PPH","s":0.008},"geometry":{"type":"Polygon","coordinates":[[[2.85184,50.34646],[2.85128,50.34709],[2.8513,50.34709],[2.85184,50.34646]]]}},{"type":"Feature","properties":{"k":"BTH","s":0.884},"geometry":{"type":"Polygon","coordinates":[[[2.85176,50.34655],[2.85416,50.34764],[2.85472,50.34707],[2.85448,50.3473],[2.85204,50.34624],[2.85176,50.34655]]]}},{"type":"Feature","properties":{"k":"BTH","s":2.837},"geometry":{"type":"Polygon","coordinates":[[[2.85176,50.34655],[2.8513,50.34709],[2.85208,50.34747],[2.85124,50.34829],[2.85274,50.34898],[2.85409,50.34761],[2.85176,50.34655]]]}},{"type":"Feature","properties":{"k":"PHF","s":4.777},"geometry":{"type":"Polygon","coordinates":[[[2.84902,50.34913],[2.85025,50.34786],[2.84997,50.34771],[2.8474,50.35046],[2.84974,50.3516],[2.85133,50.35011],[2.84902,50.34913]]]}},{"type":"Feature","properties":{"k":"BTH","s":0.938},"geometry":{"type":"Polygon","coordinates":[[[2.87477,50.37067],[2.87663,50.3704],[2.87609,50.36979],[2.87454,50.37002],[2.87477,50.37067]]]}},{"type":"Feature","properties":{"k":"BTN","s":2.354},"geometry":{"type":"Polygon","coordinates":[[[2.87799,50.37098],[2.87836,50.37011],[2.87533,50.36892],[2.87779,50.37155],[2.87855,50.37168],[2.87878,50.37112],[2.87799,50.37098]]]}},{"type":"Feature","properties":{"k":"BTN","s":1.023},"geometry":{"type":"Polygon","coordinates":[[[2.86486,50.35562],[2.86675,50.35371],[2.8664,50.35339],[2.86451,50.35528],[2.86486,50.35562]]]}},{"type":"Feature","properties":{"k":"PTC","s":3.246},"geometry":{"type":"Polygon","coordinates":[[[2.85842,50.37404],[2.85974,50.37307],[2.8606,50.37187],[2.85936,50.37159],[2.85867,50.37253],[2.85748,50.37254],[2.85705,50.37334],[2.85842,50.37404]]]}},{"type":"Feature","properties":{"k":"ORP","s":0.181},"geometry":{"type":"Polygon","coordinates":[[[2.87103,50.35889],[2.8718,50.35839],[2.87179,50.35813],[2.87083,50.35875],[2.87103,50.35889]]]}},{"type":"Feature","properties":{"k":"MIS","s":2.081},"geometry":{"type":"Polygon","coordinates":[[[2.86506,50.35588],[2.864,50.35482],[2.86201,50.35562],[2.86281,50.3565],[2.86402,50.35602],[2.86421,50.35623],[2.86506,50.35588]]]}},{"type":"Feature","properties":{"k":"BOR","s":0.134},"geometry":{"type":"Polygon","coordinates":[[[2.86005,50.35499],[2.86196,50.35674],[2.86006,50.35495],[2.8585,50.35605],[2.85887,50.35641],[2.85855,50.35606],[2.86005,50.35499]]]}},{"type":"Feature","properties":{"k":"CZH","s":1.686},"geometry":{"type":"Polygon","coordinates":[[[2.85869,50.35255],[2.85934,50.35318],[2.86121,50.35242],[2.8598,50.3515],[2.85869,50.35255]]]}},{"type":"Feature","properties":{"k":"PPH","s":0.59},"geometry":{"type":"Polygon","coordinates":[[[2.86935,50.3596],[2.86989,50.35937],[2.8708,50.35997],[2.87115,50.35983],[2.86994,50.35887],[2.86914,50.35937],[2.86935,50.3596]]]}},{"type":"Feature","properties":{"k":"BOR","s":0.105},"geometry":{"type":"Polygon","coordinates":[[[2.86716,50.36002],[2.86898,50.3593],[2.86718,50.35998],[2.86534,50.35854],[2.86716,50.36002]]]}},{"type":"Feature","properties":{"k":"BTH","s":4.57},"geometry":{"type":"Polygon","coordinates":[[[2.86982,50.3564],[2.86759,50.35782],[2.86913,50.35936],[2.87149,50.35784],[2.87086,50.35727],[2.87074,50.35737],[2.86982,50.3564]]]}},{"type":"Feature","properties":{"k":"BTN","s":5.142},"geometry":{"type":"Polygon","coordinates":[[[2.86589,50.35649],[2.86483,50.35694],[2.86594,50.35822],[2.86534,50.35854],[2.86718,50.35998],[2.86896,50.35928],[2.86589,50.35649]]]}},{"type":"Feature","properties":{"k":"PTC","s":9.452},"geometry":{"type":"Polygon","coordinates":[[[2.85769,50.34727],[2.85494,50.35007],[2.85673,50.35111],[2.85698,50.3509],[2.85779,50.35135],[2.8606,50.34855],[2.85769,50.34727]]]}},{"type":"Feature","properties":{"k":"BTH","s":7.214},"geometry":{"type":"Polygon","coordinates":[[[2.8615,50.34917],[2.86055,50.34867],[2.85762,50.35164],[2.85863,50.35246],[2.8597,50.35143],[2.86073,50.35204],[2.86264,50.35014],[2.8615,50.34917]]]}},{"type":"Feature","properties":{"k":"AVP","s":0.041},"geometry":{"type":"Polygon","coordinates":[[[2.87362,50.36843],[2.87377,50.36786],[2.87317,50.36767],[2.87371,50.36786],[2.87362,50.36843]]]}},{"type":"Feature","properties":{"k":"AVP","s":0.01},"geometry":{"type":"Polygon","coordinates":[[[2.87363,50.36843],[2.87359,50.3687],[2.87363,50.3687],[2.87363,50.36843]]]}},{"type":"Feature","properties":{"k":"BTH","s":0.296},"geometry":{"type":"Polygon","coordinates":[[[2.87468,50.36826],[2.87368,50.36842],[2.87363,50.3687],[2.8749,50.36857],[2.87468,50.36826]]]}},{"type":"Feature","properties":{"k":"PHS","s":1.039},"geometry":{"type":"Polygon","coordinates":[[[2.87405,50.36871],[2.87437,50.36977],[2.87588,50.36956],[2.87492,50.36856],[2.87405,50.36871]]]}},{"type":"Feature","properties":{"k":"JAC","s":0.726},"geometry":{"type":"Polygon","coordinates":[[[2.87462,50.3705],[2.87427,50.36978],[2.87301,50.36944],[2.87297,50.37002],[2.87462,50.3705]]]}},{"type":"Feature","properties":{"k":"BTN","s":2.079},"geometry":{"type":"Polygon","coordinates":[[[2.87418,50.35385],[2.87221,50.35565],[2.87327,50.35605],[2.87508,50.35439],[2.87418,50.35385]]]}},{"type":"Feature","properties":{"k":"BTN","s":1.348},"geometry":{"type":"Polygon","coordinates":[[[2.86716,50.35745],[2.86941,50.35604],[2.86891,50.35559],[2.86666,50.35704],[2.86716,50.35745]]]}},{"type":"Feature","properties":{"k":"MIS","s":0.099},"geometry":{"type":"Polygon","coordinates":[[[2.86511,50.35591],[2.86424,50.35625],[2.86433,50.35636],[2.86523,50.356],[2.86511,50.35591]]]}},{"type":"Feature","properties":{"k":"BTH","s":4.395},"geometry":{"type":"Polygon","coordinates":[[[2.87992,50.35652],[2.87988,50.35636],[2.87682,50.35509],[2.87561,50.3562],[2.87883,50.35766],[2.87992,50.35652]]]}},{"type":"Feature","properties":{"k":"BTH","s":1.736},"geometry":{"type":"Polygon","coordinates":[[[2.88485,50.36846],[2.88382,50.37089],[2.88462,50.37111],[2.88568,50.36865],[2.88485,50.36846]]]}},{"type":"Feature","properties":{"k":"BTN","s":1.687},"geometry":{"type":"Polygon","coordinates":[[[2.88409,50.36823],[2.88303,50.37067],[2.88382,50.37089],[2.88485,50.36846],[2.88409,50.36823]]]}},{"type":"Feature","properties":{"k":"PHS","s":0.607},"geometry":{"type":"Polygon","coordinates":[[[2.88382,50.36813],[2.88275,50.37059],[2.88303,50.37067],[2.88409,50.36823],[2.88382,50.36813]]]}},{"type":"Feature","properties":{"k":"MIS","s":1.297},"geometry":{"type":"Polygon","coordinates":[[[2.88323,50.36798],[2.88219,50.37037],[2.88275,50.37059],[2.88382,50.36812],[2.88323,50.36798]]]}},{"type":"Feature","properties":{"k":"MIS","s":1.206},"geometry":{"type":"Polygon","coordinates":[[[2.88516,50.37133],[2.88434,50.37106],[2.88361,50.37265],[2.88458,50.37282],[2.88516,50.37133]]]}},{"type":"Feature","properties":{"k":"BTH","s":0.244},"geometry":{"type":"Polygon","coordinates":[[[2.88341,50.3726],[2.88359,50.37264],[2.8843,50.37106],[2.88412,50.37101],[2.88341,50.3726]]]}},{"type":"Feature","properties":{"k":"BTH","s":0.657},"geometry":{"type":"Polygon","coordinates":[[[2.88295,50.37252],[2.88341,50.3726],[2.88412,50.37101],[2.88366,50.37088],[2.88295,50.37252]]]}},{"type":"Feature","properties":{"k":"MIS","s":0.458},"geometry":{"type":"Polygon","coordinates":[[[2.88301,50.37072],[2.88268,50.37062],[2.88196,50.37232],[2.88228,50.37236],[2.88301,50.37072]]]}},{"type":"Feature","properties":{"k":"BTN","s":1.536},"geometry":{"type":"Polygon","coordinates":[[[2.87575,50.36852],[2.87466,50.36811],[2.87533,50.36892],[2.87836,50.37011],[2.87856,50.36966],[2.87575,50.36852]]]}},{"type":"Feature","properties":{"k":"PTC","s":1.849},"geometry":{"type":"Polygon","coordinates":[[[2.87467,50.37202],[2.87526,50.37219],[2.8748,50.37098],[2.8729,50.37045],[2.87277,50.37147],[2.87467,50.37202]]]}},{"type":"Feature","properties":{"k":"BTH","s":0.003},"geometry":{"type":"MultiPolygon","coordinates":[[[[2.8582,50.34744],[2.85789,50.34734],[2.85818,50.34745],[2.8582,50.34744]]]]}},{"type":"Feature","properties":{"k":"BTH","s":3.285},"geometry":{"type":"Polygon","coordinates":[[[2.85257,50.349],[2.84975,50.35161],[2.85081,50.35212],[2.85357,50.34948],[2.85257,50.349]]]}},{"type":"Feature","properties":{"k":"BTH","s":8.7},"geometry":{"type":"Polygon","coordinates":[[[2.85296,50.35375],[2.856,50.35088],[2.85355,50.34951],[2.85083,50.35212],[2.85077,50.35237],[2.85296,50.35375]]]}},{"type":"Feature","properties":{"k":"BTN","s":0.916},"geometry":{"type":"Polygon","coordinates":[[[2.88268,50.37062],[2.8821,50.37045],[2.88134,50.37221],[2.88196,50.37233],[2.88268,50.37062]]]}},{"type":"Feature","properties":{"k":"BTN","s":4.35},"geometry":{"type":"Polygon","coordinates":[[[2.881,50.3687],[2.87965,50.37186],[2.88134,50.37217],[2.88255,50.36937],[2.881,50.3687]]]}},{"type":"Feature","properties":{"k":"BTH","s":3.021},"geometry":{"type":"Polygon","coordinates":[[[2.87855,50.37168],[2.87963,50.37188],[2.88099,50.36871],[2.88002,50.3683],[2.87855,50.37168]]]}},{"type":"Feature","properties":{"k":"MID","s":6.912},"geometry":{"type":"Polygon","coordinates":[[[2.87779,50.37156],[2.8792,50.37293],[2.88341,50.37374],[2.88298,50.37542],[2.88401,50.37558],[2.88475,50.37286],[2.87779,50.37156]]]}},{"type":"Feature","properties":{"k":"BTH","s":0.001},"geometry":{"type":"Polygon","coordinates":[[[2.88476,50.37285],[2.8846,50.3728],[2.8846,50.37281],[2.88476,50.37285]]]}},{"type":"Feature","properties":{"k":"BTN","s":0.388},"geometry":{"type":"Polygon","coordinates":[[[2.87682,50.37064],[2.87664,50.37041],[2.87477,50.37067],[2.87485,50.37091],[2.87682,50.37064]]]}},{"type":"Feature","properties":{"k":"BTH","s":0.533},"geometry":{"type":"Polygon","coordinates":[[[2.88532,50.37385],[2.88552,50.37307],[2.88476,50.37285],[2.88453,50.37371],[2.88532,50.37385]]]}},{"type":"Feature","properties":{"k":"MIS","s":0.548},"geometry":{"type":"Polygon","coordinates":[[[2.8851,50.37468],[2.88531,50.37386],[2.88453,50.37371],[2.88431,50.37456],[2.8851,50.37468]]]}},{"type":"Feature","properties":{"k":"BTH","s":0.083},"geometry":{"type":"MultiPolygon","coordinates":[]}},{"type":"Feature","properties":{"k":"BTH","s":5.802},"geometry":{"type":"Polygon","coordinates":[[[2.88342,50.37374],[2.87921,50.37295],[2.88013,50.37523],[2.88285,50.37573],[2.88342,50.37374]]]}},{"type":"Feature","properties":{"k":"PHF","s":5.625},"geometry":{"type":"Polygon","coordinates":[[[2.88003,50.37513],[2.87918,50.37316],[2.87588,50.37367],[2.87663,50.37569],[2.88003,50.37513]]]}},{"type":"Feature","properties":{"k":"BTN","s":3.805},"geometry":{"type":"Polygon","coordinates":[[[2.87535,50.37215],[2.87592,50.37366],[2.87917,50.37316],[2.87877,50.37253],[2.87787,50.37175],[2.87535,50.37215]]]}},{"type":"Feature","properties":{"k":"MIS","s":0.654},"geometry":{"type":"Polygon","coordinates":[[[2.8752,50.37327],[2.87573,50.37343],[2.87559,50.37312],[2.87254,50.37226],[2.87248,50.3725],[2.8752,50.37327]]]}},{"type":"Feature","properties":{"k":"MIS","s":0.98},"geometry":{"type":"Polygon","coordinates":[[[2.87459,50.37284],[2.87563,50.37313],[2.87544,50.37266],[2.87265,50.37189],[2.87249,50.37224],[2.87459,50.37284]]]}},{"type":"Feature","properties":{"k":"BTH","s":0.446},"geometry":{"type":"Polygon","coordinates":[[[2.87429,50.37233],[2.87545,50.37266],[2.87535,50.37243],[2.87271,50.37169],[2.87265,50.37189],[2.87429,50.37233]]]}},{"type":"Feature","properties":{"k":"PTC","s":0.872},"geometry":{"type":"Polygon","coordinates":[[[2.87532,50.37364],[2.87587,50.3738],[2.87572,50.37342],[2.87248,50.3725],[2.87237,50.37279],[2.87532,50.37364]]]}},{"type":"Feature","properties":{"k":"BTH","s":2.732},"geometry":{"type":"Polygon","coordinates":[[[2.87217,50.37365],[2.87621,50.37479],[2.87587,50.3738],[2.87236,50.37279],[2.87217,50.37365]]]}},{"type":"Feature","properties":{"k":"BTN","s":2.801},"geometry":{"type":"Polygon","coordinates":[[[2.87621,50.37479],[2.87217,50.37365],[2.8721,50.37449],[2.8766,50.3757],[2.87621,50.37479]]]}},{"type":"Feature","properties":{"k":"BTN","s":3.252},"geometry":{"type":"Polygon","coordinates":[[[2.87206,50.37531],[2.8767,50.37665],[2.87682,50.37636],[2.8766,50.3757],[2.87208,50.37448],[2.87206,50.37531]]]}},{"type":"Feature","properties":{"k":"PTC","s":5.514},"geometry":{"type":"Polygon","coordinates":[[[2.86644,50.37381],[2.86491,50.37329],[2.8645,50.3741],[2.87203,50.37659],[2.87198,50.3756],[2.86644,50.37381]]]}},{"type":"Feature","properties":{"k":"BTH","s":3.073},"geometry":{"type":"Polygon","coordinates":[[[2.87194,50.37559],[2.87201,50.37505],[2.86519,50.37281],[2.86496,50.3733],[2.87194,50.37559]]]}},{"type":"Feature","properties":{"k":"CZH","s":5.284},"geometry":{"type":"Polygon","coordinates":[[[2.86862,50.37358],[2.87198,50.37469],[2.87198,50.3736],[2.86582,50.37165],[2.86529,50.37247],[2.86862,50.37358]]]}},{"type":"Feature","properties":{"k":"PTC","s":1.94},"geometry":{"type":"Polygon","coordinates":[[[2.86864,50.37358],[2.8653,50.37247],[2.86516,50.3728],[2.87203,50.37506],[2.87198,50.37469],[2.86864,50.37358]]]}},{"type":"Feature","properties":{"k":"PHS","s":3.476},"geometry":{"type":"Polygon","coordinates":[[[2.86585,50.37166],[2.87198,50.3736],[2.87206,50.37293],[2.86614,50.371],[2.86585,50.37166]]]}},{"type":"Feature","properties":{"k":"PHF","s":11.436},"geometry":{"type":"Polygon","coordinates":[[[2.86715,50.3694],[2.87261,50.37121],[2.87303,50.36802],[2.86984,50.36704],[2.86715,50.3694]]]}},{"type":"Feature","properties":{"k":"BTH","s":8.806},"geometry":{"type":"Polygon","coordinates":[[[2.86611,50.37098],[2.87208,50.37295],[2.87261,50.37121],[2.86715,50.3694],[2.86611,50.37098]]]}},{"type":"Feature","properties":{"k":"PTC","s":7.448},"geometry":{"type":"Polygon","coordinates":[[[2.86622,50.3705],[2.86677,50.36974],[2.86277,50.36867],[2.86151,50.37066],[2.86567,50.37178],[2.86622,50.3705]]]}},{"type":"Feature","properties":{"k":"BTN","s":4.439},"geometry":{"type":"Polygon","coordinates":[[[2.86278,50.36867],[2.86675,50.36973],[2.86787,50.36868],[2.86363,50.36753],[2.86278,50.36867]]]}},{"type":"Feature","properties":{"k":"BTH","s":0.001},"geometry":{"type":"Polygon","coordinates":[]}},{"type":"Feature","properties":{"k":"BTH","s":0.003},"geometry":{"type":"Polygon","coordinates":[]}},{"type":"Feature","properties":{"k":"BTN","s":0.023},"geometry":{"type":"MultiPolygon","coordinates":[[[[2.86224,50.35896],[2.86249,50.35912],[2.86225,50.35895],[2.86224,50.35896]]],[[[2.86031,50.36201],[2.86028,50.36208],[2.86097,50.36216],[2.86031,50.36201]]]]}},{"type":"Feature","properties":{"k":"BTN","s":6.088},"geometry":{"type":"Polygon","coordinates":[[[2.85922,50.37359],[2.85931,50.37369],[2.86401,50.37488],[2.86472,50.37346],[2.86042,50.37227],[2.85922,50.37359]]]}},{"type":"Feature","properties":{"k":"BTH","s":6.397},"geometry":{"type":"Polygon","coordinates":[[[2.86042,50.37227],[2.86472,50.37346],[2.86567,50.37177],[2.86151,50.37066],[2.86042,50.37227]]]}},{"type":"Feature","properties":{"k":"BTH","s":1.041},"geometry":{"type":"Polygon","coordinates":[[[2.86384,50.37523],[2.8639,50.37498],[2.85913,50.37368],[2.85881,50.37386],[2.86384,50.37523]]]}},{"type":"Feature","properties":{"k":"BTH","s":5.18},"geometry":{"type":"Polygon","coordinates":[[[2.85881,50.37386],[2.85759,50.37477],[2.8631,50.37626],[2.86383,50.37523],[2.85881,50.37386]]]}},{"type":"Feature","properties":{"k":"BTN","s":4.019},"geometry":{"type":"Polygon","coordinates":[[[2.86809,50.37752],[2.86855,50.37656],[2.86402,50.37506],[2.86353,50.37601],[2.86809,50.37752]]]}},{"type":"Feature","properties":{"k":"BTH","s":2.997},"geometry":{"type":"Polygon","coordinates":[[[2.86317,50.37673],[2.86773,50.37823],[2.86808,50.37752],[2.86353,50.37602],[2.86317,50.37673]]]}},{"type":"Feature","properties":{"k":"BTH","s":2.513},"geometry":{"type":"Polygon","coordinates":[[[2.86734,50.37905],[2.86276,50.37756],[2.86243,50.37815],[2.86692,50.3796],[2.86734,50.37905]]]}},{"type":"Feature","properties":{"k":"MIS","s":3.396},"geometry":{"type":"Polygon","coordinates":[[[2.86774,50.37823],[2.86315,50.37677],[2.86276,50.37756],[2.86734,50.37905],[2.86774,50.37823]]]}},{"type":"Feature","properties":{"k":"BTH","s":0.0},"geometry":{"type":"Polygon","coordinates":[]}},{"type":"Feature","properties":{"k":"BTH","s":10.125},"geometry":{"type":"Polygon","coordinates":[[[2.86701,50.3795],[2.86692,50.3796],[2.86243,50.37815],[2.86142,50.38017],[2.86425,50.38074],[2.86734,50.38177],[2.86884,50.38011],[2.86701,50.3795]]]}},{"type":"Feature","properties":{"k":"BTN","s":4.092},"geometry":{"type":"Polygon","coordinates":[[[2.87219,50.37846],[2.86831,50.3772],[2.86773,50.37836],[2.87151,50.37959],[2.87219,50.37846]]]}},{"type":"Feature","properties":{"k":"PHF","s":2.494},"geometry":{"type":"Polygon","coordinates":[[[2.87565,50.36753],[2.87676,50.3656],[2.87594,50.36535],[2.87539,50.36658],[2.87312,50.36625],[2.87398,50.36724],[2.87565,50.36753]]]}},{"type":"Feature","properties":{"k":"BTH","s":3.216},"geometry":{"type":"Polygon","coordinates":[[[2.87531,50.35464],[2.87509,50.35439],[2.87327,50.35604],[2.87492,50.35681],[2.87682,50.35509],[2.87531,50.35464]]]}},{"type":"Feature","properties":{"k":"ORH","s":1.465},"geometry":{"type":"Polygon","coordinates":[[[2.88143,50.36882],[2.88257,50.36925],[2.88319,50.3679],[2.88201,50.3675],[2.88143,50.36882]]]}},{"type":"Feature","properties":{"k":"BTH","s":0.48},"geometry":{"type":"Polygon","coordinates":[[[2.86003,50.34823],[2.86177,50.34648],[2.86145,50.34639],[2.86015,50.34808],[2.85818,50.34746],[2.86003,50.34823]]]}},{"type":"Feature","properties":{"k":"CZH","s":3.235},"geometry":{"type":"Polygon","coordinates":[[[2.87079,50.38075],[2.87138,50.37984],[2.86759,50.37863],[2.86704,50.37952],[2.87079,50.38075]]]}},{"type":"Feature","properties":{"k":"CZH","s":0.892},"geometry":{"type":"Polygon","coordinates":[[[2.8676,50.37863],[2.87138,50.37984],[2.87151,50.37959],[2.86775,50.37836],[2.8676,50.37863]]]}},{"type":"Feature","properties":{"k":"OIG","s":0.023},"geometry":{"type":"Polygon","coordinates":[[[2.85131,50.38023],[2.85131,50.38063],[2.85145,50.38058],[2.85131,50.38023]]]}},{"type":"Feature","properties":{"k":"BTN","s":1.846},"geometry":{"type":"Polygon","coordinates":[[[2.87061,50.35406],[2.87215,50.35269],[2.87059,50.35191],[2.86987,50.35254],[2.87028,50.35292],[2.87061,50.35406]]]}},{"type":"Feature","properties":{"k":"BTH","s":0.0},"geometry":{"type":"Polygon","coordinates":[]}},{"type":"Feature","properties":{"k":"BTN","s":1.888},"geometry":{"type":"Polygon","coordinates":[[[2.86715,50.35399],[2.86777,50.35454],[2.86986,50.35258],[2.86932,50.35196],[2.86715,50.35399]]]}},{"type":"Feature","properties":{"k":"LUZ","s":0.466},"geometry":{"type":"Polygon","coordinates":[[[2.87277,50.37147],[2.87274,50.37148],[2.8727,50.37169],[2.87535,50.37243],[2.87527,50.37219],[2.87277,50.37147]]]}},{"type":"Feature","properties":{"k":"BTH","s":7.347},"geometry":{"type":"Polygon","coordinates":[[[2.86191,50.36544],[2.8598,50.36513],[2.86087,50.36225],[2.86024,50.36217],[2.85895,50.36477],[2.85825,50.36738],[2.86113,50.36754],[2.86191,50.36544]]]}},{"type":"Feature","properties":{"k":"BTH","s":8.163},"geometry":{"type":"Polygon","coordinates":[[[2.85649,50.35609],[2.85598,50.3567],[2.85704,50.35706],[2.86059,50.35465],[2.85909,50.35316],[2.85798,50.35366],[2.85776,50.3535],[2.85526,50.35527],[2.85649,50.35609]]]}},{"type":"Feature","properties":{"k":"ORP","s":0.645},"geometry":{"type":"Polygon","coordinates":[[[2.88143,50.36882],[2.88202,50.36749],[2.88145,50.36731],[2.8809,50.3686],[2.88143,50.36882]]]}},{"type":"Feature","properties":{"k":"BTN","s":5.311},"geometry":{"type":"Polygon","coordinates":[[[2.86676,50.35372],[2.86488,50.35564],[2.86666,50.35704],[2.86891,50.35559],[2.86676,50.35372]]]}},{"type":"Feature","properties":{"k":"MIS","s":0.0},"geometry":{"type":"Polygon","coordinates":[[[2.85513,50.3552],[2.85531,50.35531],[2.85526,50.35527],[2.85513,50.3552]]]}},{"type":"Feature","properties":{"k":"BTH","s":0.182},"geometry":{"type":"Polygon","coordinates":[[[2.88145,50.36731],[2.8813,50.36725],[2.88074,50.36855],[2.8809,50.3686],[2.88145,50.36731]]]}},{"type":"Feature","properties":{"k":"BTH","s":3.026},"geometry":{"type":"Polygon","coordinates":[[[2.88084,50.36707],[2.87842,50.36611],[2.87773,50.36733],[2.88029,50.36837],[2.88084,50.36707]]]}},{"type":"Feature","properties":{"k":"BTH","s":0.553},"geometry":{"type":"Polygon","coordinates":[[[2.8813,50.36725],[2.88084,50.36707],[2.88029,50.36837],[2.88074,50.36855],[2.8813,50.36725]]]}},{"type":"Feature","properties":{"k":"BTH","s":6.874},"geometry":{"type":"Polygon","coordinates":[[[2.87203,50.37659],[2.8645,50.3741],[2.86403,50.37505],[2.87217,50.37766],[2.87203,50.37659]]]}},{"type":"Feature","properties":{"k":"BTN","s":1.97},"geometry":{"type":"Polygon","coordinates":[[[2.86832,50.37718],[2.87216,50.37846],[2.8722,50.3778],[2.86857,50.37662],[2.86832,50.37718]]]}},{"type":"Feature","properties":{"k":"BTN","s":2.355},"geometry":{"type":"Polygon","coordinates":[[[2.87668,50.37664],[2.8721,50.37533],[2.87204,50.37598],[2.87626,50.3772],[2.87668,50.37664]]]}},{"type":"Feature","properties":{"k":"BTH","s":2.226},"geometry":{"type":"Polygon","coordinates":[[[2.87527,50.37849],[2.87581,50.3778],[2.8721,50.37675],[2.87226,50.37762],[2.87527,50.37849]]]}},{"type":"Feature","properties":{"k":"BTH","s":2.165},"geometry":{"type":"Polygon","coordinates":[[[2.87583,50.37776],[2.87625,50.3772],[2.87205,50.376],[2.8721,50.37668],[2.87583,50.37776]]]}},{"type":"Feature","properties":{"k":"BTH","s":3.078},"geometry":{"type":"Polygon","coordinates":[[[2.87663,50.36888],[2.87856,50.36966],[2.87891,50.36884],[2.87563,50.36756],[2.87403,50.36728],[2.87469,50.36811],[2.87663,50.36888]]]}},{"type":"Feature","properties":{"k":"PHF","s":2.646},"geometry":{"type":"Polygon","coordinates":[[[2.85842,50.35244],[2.85778,50.35188],[2.85606,50.3509],[2.85509,50.3518],[2.85718,50.35298],[2.85842,50.35244]]]}},{"type":"Feature","properties":{"k":"BOR","s":0.0},"geometry":{"type":"Polygon","coordinates":[]}},{"type":"Feature","properties":{"k":"MIS","s":0.888},"geometry":{"type":"Polygon","coordinates":[[[2.87565,50.36753],[2.87681,50.36799],[2.87726,50.3672],[2.87612,50.36675],[2.87565,50.36753]]]}},{"type":"Feature","properties":{"k":"MIS","s":0.21},"geometry":{"type":"Polygon","coordinates":[[[2.87735,50.36578],[2.87671,50.36694],[2.87689,50.367],[2.87755,50.36584],[2.87735,50.36578]]]}},{"type":"Feature","properties":{"k":"PHF","s":7.706},"geometry":{"type":"Polygon","coordinates":[[[2.88383,50.35802],[2.8829,50.35834],[2.87955,50.35884],[2.87829,50.35886],[2.87798,50.35926],[2.88294,50.36035],[2.88118,50.36169],[2.88155,50.36188],[2.88509,50.35919],[2.88383,50.35802]]]}},{"type":"Feature","properties":{"k":"PHF","s":2.954},"geometry":{"type":"MultiPolygon","coordinates":[[[[2.85648,50.37552],[2.85452,50.3745],[2.85322,50.37584],[2.85502,50.37671],[2.85648,50.37552]]]]}},{"type":"Feature","properties":{"k":"BTH","s":0.996},"geometry":{"type":"Polygon","coordinates":[[[2.85498,50.37412],[2.85452,50.3745],[2.85646,50.37551],[2.85698,50.37512],[2.85498,50.37412]]]}},{"type":"Feature","properties":{"k":"BTH","s":3.004},"geometry":{"type":"Polygon","coordinates":[[[2.85665,50.37356],[2.85544,50.37325],[2.85468,50.37398],[2.85496,50.37412],[2.85477,50.37429],[2.85498,50.37412],[2.85698,50.37512],[2.85842,50.37404],[2.85689,50.37326],[2.85665,50.37356]]]}},{"type":"Feature","properties":{"k":"BTH","s":0.06},"geometry":{"type":"Polygon","coordinates":[[[2.85747,50.37255],[2.85689,50.37326],[2.85704,50.37334],[2.85747,50.37255]]]}},{"type":"Feature","properties":{"k":"BTH","s":0.996},"geometry":{"type":"Polygon","coordinates":[[[2.88568,50.36865],[2.88462,50.37111],[2.88502,50.37122],[2.88617,50.36877],[2.88568,50.36865]]]}},{"type":"Feature","properties":{"k":"PTC","s":2.326},"geometry":{"type":"Polygon","coordinates":[[[2.85526,50.35527],[2.85626,50.35456],[2.85372,50.35311],[2.85305,50.35373],[2.85526,50.35527]]]}},{"type":"Feature","properties":{"k":"PTC","s":0.623},"geometry":{"type":"Polygon","coordinates":[[[2.85704,50.35707],[2.85755,50.35725],[2.85886,50.35641],[2.85849,50.35605],[2.85704,50.35707]]]}},{"type":"Feature","properties":{"k":"BOR","s":0.022},"geometry":{"type":"Polygon","coordinates":[[[2.86527,50.35851],[2.86475,50.35883],[2.86529,50.35854],[2.86527,50.35851]]]}},{"type":"Feature","properties":{"k":"BTN","s":0.962},"geometry":{"type":"Polygon","coordinates":[[[2.87842,50.36611],[2.87755,50.36584],[2.87689,50.367],[2.87773,50.36733],[2.87842,50.36611]]]}},{"type":"Feature","properties":{"k":"BTH","s":0.652},"geometry":{"type":"Polygon","coordinates":[[[2.87788,50.36584],[2.87837,50.366],[2.87969,50.36475],[2.87926,50.36455],[2.87788,50.36584]]]}},{"type":"Feature","properties":{"k":"MDI","s":0.289},"geometry":{"type":"Polygon","coordinates":[[[2.86319,50.36026],[2.8639,50.36049],[2.86384,50.3606],[2.86415,50.36011],[2.86354,50.35979],[2.86319,50.36026]]]}},{"type":"Feature","properties":{"k":"BTH","s":0.475},"geometry":{"type":"Polygon","coordinates":[[[2.87838,50.366],[2.87882,50.36607],[2.88004,50.3649],[2.87968,50.36478],[2.87838,50.366]]]}},{"type":"Feature","properties":{"k":"BTH","s":2.524},"geometry":{"type":"Polygon","coordinates":[[[2.87204,50.37876],[2.87454,50.37947],[2.87526,50.37849],[2.87227,50.37762],[2.87204,50.37876]]]}},{"type":"Feature","properties":{"k":"PTC","s":0.491},"geometry":{"type":"Polygon","coordinates":[[[2.87422,50.37964],[2.87453,50.37948],[2.87204,50.37876],[2.87193,50.37899],[2.87422,50.37964]]]}},{"type":"Feature","properties":{"k":"BTN","s":2.724},"geometry":{"type":"Polygon","coordinates":[[[2.87685,50.37656],[2.87628,50.3773],[2.8788,50.37809],[2.8778,50.37549],[2.87665,50.37574],[2.87685,50.37656]]]}},{"type":"Feature","properties":{"k":"LUZ","s":6.039},"geometry":{"type":"Polygon","coordinates":[[[2.8778,50.37549],[2.87882,50.3781],[2.88149,50.37893],[2.88003,50.37513],[2.8778,50.37549]]]}},{"type":"Feature","properties":{"k":"PTC","s":0.004},"geometry":{"type":"Polygon","coordinates":[[[2.86522,50.34759],[2.86494,50.34746],[2.86519,50.34761],[2.86522,50.34759]]]}},{"type":"Feature","properties":{"k":"PTC","s":0.023},"geometry":{"type":"Polygon","coordinates":[[[2.86593,50.34794],[2.86662,50.34824],[2.86522,50.34759],[2.86593,50.34794]]]}},{"type":"Feature","properties":{"k":"PTC","s":3.583},"geometry":{"type":"Polygon","coordinates":[[[2.86147,50.34907],[2.86368,50.34695],[2.86177,50.34648],[2.86003,50.34823],[2.86147,50.34907]]]}},{"type":"Feature","properties":{"k":"BTH","s":0.501},"geometry":{"type":"Polygon","coordinates":[[[2.87316,50.36755],[2.87406,50.36742],[2.87304,50.36623],[2.87316,50.36755]]]}},{"type":"Feature","properties":{"k":"PHF","s":4.417},"geometry":{"type":"Polygon","coordinates":[[[2.85626,50.35456],[2.85776,50.3535],[2.85722,50.35298],[2.85509,50.3518],[2.85372,50.35311],[2.85626,50.35456]]]}},{"type":"Feature","properties":{"k":"BTH","s":1.639},"geometry":{"type":"Polygon","coordinates":[[[2.86399,50.35131],[2.86335,50.35077],[2.86156,50.35256],[2.86226,50.35303],[2.86399,50.35131]]]}},{"type":"Feature","properties":{"k":"LUZ","s":0.0},"geometry":{"type":"Polygon","coordinates":[]}},{"type":"Feature","properties":{"k":"BOR","s":0.005},"geometry":{"type":"Polygon","coordinates":[[[2.86445,50.35885],[2.86395,50.35905],[2.86397,50.35906],[2.86445,50.35885]]]}},{"type":"Feature","properties":{"k":"BTH","s":0.009},"geometry":{"type":"Polygon","coordinates":[[[2.88589,50.36942],[2.8862,50.36878],[2.88617,50.36877],[2.88589,50.36942]]]}},{"type":"Feature","properties":{"k":"CZH","s":1.004},"geometry":{"type":"Polygon","coordinates":[[[2.88681,50.35909],[2.88724,50.35876],[2.88561,50.35723],[2.88505,50.35747],[2.88681,50.35909]]]}},{"type":"Feature","properties":{"k":"BTN","s":1.979},"geometry":{"type":"Polygon","coordinates":[[[2.86335,50.35077],[2.86264,50.35014],[2.86073,50.35204],[2.86155,50.35257],[2.86335,50.35077]]]}},{"type":"Feature","properties":{"k":"BTH","s":3.892},"geometry":{"type":"Polygon","coordinates":[[[2.86827,50.35035],[2.86761,50.34918],[2.86473,50.35189],[2.86571,50.35276],[2.86827,50.35035]]]}},{"type":"Feature","properties":{"k":"BTH","s":2.669},"geometry":{"type":"Polygon","coordinates":[[[2.8676,50.34918],[2.86711,50.34851],[2.8641,50.35135],[2.86473,50.35189],[2.8676,50.34918]]]}},{"type":"Feature","properties":{"k":"BTN","s":1.78},"geometry":{"type":"Polygon","coordinates":[[[2.8641,50.35135],[2.86711,50.34851],[2.86657,50.34826],[2.86368,50.35098],[2.8641,50.35135]]]}},{"type":"Feature","properties":{"k":"JAC","s":0.475},"geometry":{"type":"Polygon","coordinates":[[[2.8748,50.37098],[2.87463,50.37052],[2.8734,50.37016],[2.8732,50.37053],[2.8748,50.37098]]]}},{"type":"Feature","properties":{"k":"BTH","s":1.026},"geometry":{"type":"Polygon","coordinates":[[[2.87682,50.37064],[2.87485,50.37091],[2.87508,50.37152],[2.87726,50.37119],[2.87682,50.37064]]]}},{"type":"Feature","properties":{"k":"MIS","s":0.782},"geometry":{"type":"Polygon","coordinates":[[[2.87305,50.36938],[2.87436,50.36976],[2.87405,50.36871],[2.87313,50.36869],[2.87305,50.36938]]]}},{"type":"Feature","properties":{"k":"PTC","s":0.214},"geometry":{"type":"Polygon","coordinates":[[[2.86368,50.35098],[2.8665,50.34823],[2.86362,50.35094],[2.86368,50.35098]]]}},{"type":"Feature","properties":{"k":"PTC","s":7.956},"geometry":{"type":"Polygon","coordinates":[[[2.86368,50.34695],[2.86145,50.34906],[2.86362,50.35094],[2.8665,50.34823],[2.86368,50.34695]]]}},{"type":"Feature","properties":{"k":"BTH","s":0.0},"geometry":{"type":"Polygon","coordinates":[]}},{"type":"Feature","properties":{"k":"PHS","s":2.309},"geometry":{"type":"Polygon","coordinates":[[[2.86638,50.35332],[2.86873,50.35112],[2.86827,50.35035],[2.86571,50.35276],[2.86638,50.35332]]]}},{"type":"Feature","properties":{"k":"BTH","s":2.058},"geometry":{"type":"Polygon","coordinates":[[[2.86005,50.35499],[2.85855,50.35606],[2.8589,50.35639],[2.8596,50.35594],[2.86128,50.3571],[2.86192,50.35676],[2.86005,50.35499]]]}},{"type":"Feature","properties":{"k":"BTH","s":2.398},"geometry":{"type":"Polygon","coordinates":[[[2.86876,50.35115],[2.86641,50.35334],[2.86716,50.35399],[2.86931,50.35197],[2.86876,50.35115]]]}},{"type":"Feature","properties":{"k":"BTH","s":0.671},"geometry":{"type":"Polygon","coordinates":[[[2.86882,50.35116],[2.86989,50.35254],[2.87057,50.3519],[2.86882,50.35116]]]}},{"type":"Feature","properties":{"k":"BTN","s":4.881},"geometry":{"type":"Polygon","coordinates":[[[2.87973,50.35684],[2.87919,50.35735],[2.87833,50.35879],[2.88088,50.3586],[2.88345,50.35809],[2.88229,50.35722],[2.87973,50.35684]]]}},{"type":"Feature","properties":{"k":"BTH","s":0.662},"geometry":{"type":"Polygon","coordinates":[[[2.88466,50.35757],[2.88229,50.35722],[2.88345,50.35809],[2.88466,50.35757]]]}},{"type":"Feature","properties":{"k":"MIS","s":1.311},"geometry":{"type":"Polygon","coordinates":[[[2.88681,50.35909],[2.88503,50.35747],[2.88438,50.35773],[2.88624,50.35951],[2.88681,50.35909]]]}},{"type":"Feature","properties":{"k":"BTH","s":1.221},"geometry":{"type":"Polygon","coordinates":[[[2.88509,50.35921],[2.88577,50.35988],[2.88625,50.35951],[2.88441,50.35776],[2.88383,50.35802],[2.88509,50.35921]]]}},{"type":"Feature","properties":{"k":"BTH","s":0.882},"geometry":{"type":"Polygon","coordinates":[[[2.86552,50.35265],[2.86516,50.35234],[2.86344,50.35406],[2.86373,50.35439],[2.86552,50.35265]]]}},{"type":"Feature","properties":{"k":"BTN","s":2.969},"geometry":{"type":"Polygon","coordinates":[[[2.86344,50.35406],[2.86516,50.35234],[2.864,50.35131],[2.86226,50.35303],[2.86344,50.35406]]]}},{"type":"Feature","properties":{"k":"BTH","s":2.403},"geometry":{"type":"Polygon","coordinates":[[[2.8664,50.35339],[2.86551,50.35265],[2.86373,50.35439],[2.86449,50.3553],[2.8664,50.35339]]]}},{"type":"Feature","properties":{"k":"BTH","s":4.131},"geometry":{"type":"Polygon","coordinates":[[[2.86121,50.35242],[2.85934,50.35318],[2.8613,50.35495],[2.86337,50.3541],[2.86121,50.35242]]]}},{"type":"Feature","properties":{"k":"BTH","s":1.568},"geometry":{"type":"Polygon","coordinates":[[[2.8613,50.35495],[2.86201,50.35562],[2.864,50.35482],[2.86337,50.3541],[2.8613,50.35495]]]}},{"type":"Feature","properties":{"k":"BTN","s":1.293},"geometry":{"type":"Polygon","coordinates":[[[2.86197,50.35584],[2.86059,50.35465],[2.86008,50.35498],[2.86197,50.35674],[2.86254,50.35647],[2.86197,50.35584]]]}},{"type":"Feature","properties":{"k":"BTN","s":3.042},"geometry":{"type":"Polygon","coordinates":[[[2.86445,50.35885],[2.86244,50.3566],[2.86134,50.35715],[2.8629,50.35851],[2.8622,50.35891],[2.86302,50.35945],[2.86445,50.35885]]]}},{"type":"Feature","properties":{"k":"BTH","s":3.012},"geometry":{"type":"Polygon","coordinates":[[[2.86594,50.35822],[2.86402,50.35602],[2.86282,50.3565],[2.86472,50.3588],[2.86594,50.35822]]]}},{"type":"Feature","properties":{"k":"BTN","s":0.319},"geometry":{"type":"Polygon","coordinates":[[[2.86588,50.35649],[2.86556,50.35624],[2.86457,50.35664],[2.86483,50.35694],[2.86588,50.35649]]]}},{"type":"Feature","properties":{"k":"ORP","s":0.415},"geometry":{"type":"Polygon","coordinates":[[[2.8762,50.35994],[2.87678,50.35964],[2.87619,50.35907],[2.87556,50.35941],[2.8762,50.35994]]]}},{"type":"Feature","properties":{"k":"BTH","s":0.006},"geometry":{"type":"MultiPolygon","coordinates":[[[[2.85488,50.38121],[2.85501,50.38127],[2.85489,50.3812],[2.85488,50.38121]]],[[[2.85637,50.38198],[2.85621,50.38232],[2.85632,50.38213],[2.85637,50.38198]]]]}},{"type":"Feature","properties":{"k":"LIF","s":0.259},"geometry":{"type":"Polygon","coordinates":[[[2.85624,50.38233],[2.85784,50.3829],[2.858,50.3827],[2.85632,50.3822],[2.85624,50.38233]]]}},{"type":"Feature","properties":{"k":"PTC","s":0.003},"geometry":{"type":"Polygon","coordinates":[[[2.85484,50.38118],[2.85445,50.38101],[2.85444,50.38101],[2.85484,50.38118]]]}},{"type":"Feature","properties":{"k":"BOR","s":0.0},"geometry":{"type":"Polygon","coordinates":[[[2.85445,50.38101],[2.85438,50.38098],[2.85438,50.38099],[2.85445,50.38101]]]}},{"type":"Feature","properties":{"k":"BTH","s":2.175},"geometry":{"type":"Polygon","coordinates":[[[2.85372,50.37983],[2.853,50.38037],[2.8564,50.38188],[2.85671,50.38115],[2.85372,50.37983]]]}},{"type":"Feature","properties":{"k":"PHF","s":2.579},"geometry":{"type":"Polygon","coordinates":[[[2.85372,50.37983],[2.85672,50.38116],[2.8572,50.3801],[2.8545,50.37912],[2.85372,50.37983]]]}},{"type":"Feature","properties":{"k":"PHF","s":3.506},"geometry":{"type":"Polygon","coordinates":[[[2.85757,50.37952],[2.85634,50.38221],[2.858,50.3827],[2.85843,50.38218],[2.8581,50.38209],[2.85876,50.37985],[2.85757,50.37952]]]}},{"type":"Feature","properties":{"k":"BTH","s":6.003},"geometry":{"type":"Polygon","coordinates":[[[2.858,50.37774],[2.8566,50.37914],[2.85935,50.37994],[2.86123,50.38022],[2.86199,50.37887],[2.858,50.37774]]]}},{"type":"Feature","properties":{"k":"LEC","s":2.46},"geometry":{"type":"Polygon","coordinates":[[[2.85806,50.37773],[2.86186,50.3788],[2.86224,50.37804],[2.8587,50.37708],[2.85806,50.37773]]]}},{"type":"Feature","properties":{"k":"PHF","s":1.362},"geometry":{"type":"Polygon","coordinates":[[[2.87645,50.35834],[2.87759,50.3596],[2.87835,50.35852],[2.87695,50.35789],[2.87645,50.35834]]]}},{"type":"Feature","properties":{"k":"BTN","s":0.532},"geometry":{"type":"Polygon","coordinates":[[[2.87733,50.35755],[2.87695,50.35789],[2.87835,50.35851],[2.87858,50.35811],[2.87733,50.35755]]]}},{"type":"Feature","properties":{"k":"ORP","s":0.519},"geometry":{"type":"Polygon","coordinates":[[[2.87883,50.35766],[2.87774,50.35719],[2.87733,50.35755],[2.87858,50.35812],[2.87883,50.35766]]]}},{"type":"Feature","properties":{"k":"PPH","s":0.585},"geometry":{"type":"Polygon","coordinates":[[[2.87606,50.35781],[2.87709,50.35689],[2.87651,50.35663],[2.87567,50.35736],[2.87606,50.35781]]]}}]}