{"type":"FeatureCollection","features":[{"type":"Feature","properties":{"k":"PPH","s":1.028},"geometry":{"type":"Polygon","coordinates":[[[1.99242,50.85016],[1.99212,50.85031],[1.99182,50.85002],[1.991,50.85044],[1.99202,50.85127],[1.99305,50.85073],[1.99242,50.85016]]]}},{"type":"Feature","properties":{"k":"BTH","s":1.844},"geometry":{"type":"Polygon","coordinates":[[[1.98491,50.85173],[1.98642,50.85084],[1.98546,50.84999],[1.98374,50.85099],[1.98491,50.85173]]]}},{"type":"Feature","properties":{"k":"BTH","s":8.128},"geometry":{"type":"Polygon","coordinates":[[[1.99051,50.84512],[1.99225,50.84602],[1.99269,50.84643],[1.99335,50.8461],[1.99535,50.84759],[1.99727,50.84637],[1.99414,50.84457],[1.99333,50.84445],[1.9921,50.844],[1.99051,50.84512]]]}},{"type":"Feature","properties":{"k":"BTA","s":0.377},"geometry":{"type":"Polygon","coordinates":[[[1.99333,50.84445],[1.99414,50.84457],[1.99599,50.84572],[1.99727,50.84637],[1.99541,50.84763],[1.99742,50.84639],[1.99405,50.84446],[1.99335,50.8444],[1.99213,50.84398],[1.99333,50.84445]]]}},{"type":"Feature","properties":{"k":"BTN","s":4.103},"geometry":{"type":"Polygon","coordinates":[[[1.98843,50.83747],[1.99491,50.84161],[1.9955,50.84119],[1.98895,50.837],[1.98843,50.83747]]]}},{"type":"Feature","properties":{"k":"BTH","s":2.603},"geometry":{"type":"Polygon","coordinates":[[[1.99576,50.84102],[1.99427,50.84012],[1.99416,50.84021],[1.99044,50.83784],[1.99167,50.83713],[1.99007,50.8361],[1.98895,50.837],[1.9955,50.84119],[1.99576,50.84102]]]}},{"type":"Feature","properties":{"k":"BTH","s":2.64},"geometry":{"type":"Polygon","coordinates":[[[1.9952,50.835],[1.99367,50.83342],[1.99203,50.83466],[1.99335,50.8355],[1.9952,50.835]]]}},{"type":"Feature","properties":{"k":"BTN","s":3.137},"geometry":{"type":"Polygon","coordinates":[[[1.99167,50.83713],[1.9931,50.83629],[1.99241,50.83576],[1.99329,50.83552],[1.99196,50.8347],[1.99007,50.8361],[1.99167,50.83713]]]}},{"type":"Feature","properties":{"k":"LIF","s":11.338},"geometry":{"type":"Polygon","coordinates":[[[1.98976,50.83617],[1.99287,50.83383],[1.99089,50.83219],[1.98602,50.83409],[1.98943,50.83642],[1.98959,50.8363],[1.98976,50.83617]]]}},{"type":"Feature","properties":{"k":"BTH","s":5.678},"geometry":{"type":"Polygon","coordinates":[[[1.98432,50.83183],[1.98688,50.83356],[1.98949,50.83266],[1.9867,50.83076],[1.98432,50.83183]]]}},{"type":"Feature","properties":{"k":"PHF","s":8.094},"geometry":{"type":"Polygon","coordinates":[[[1.98063,50.83444],[1.98251,50.83567],[1.98688,50.83356],[1.98477,50.83214],[1.98063,50.83444]]]}},{"type":"Feature","properties":{"k":"BTH","s":3.785},"geometry":{"type":"Polygon","coordinates":[[[1.98272,50.83075],[1.98066,50.83209],[1.98287,50.83307],[1.98251,50.83329],[1.98477,50.83214],[1.98272,50.83075]]]}},{"type":"Feature","properties":{"k":"BTN","s":0.497},"geometry":{"type":"MultiPolygon","coordinates":[[[[1.98176,50.8311],[1.98188,50.83117],[1.98272,50.83075],[1.98251,50.83061],[1.98176,50.8311]]],[[[1.97831,50.83296],[1.97836,50.83293],[1.97658,50.83147],[1.97623,50.83165],[1.97831,50.83296]]]]}},{"type":"Feature","properties":{"k":"PTC","s":6.055},"geometry":{"type":"Polygon","coordinates":[[[1.98432,50.83183],[1.98895,50.82975],[1.98859,50.82951],[1.98739,50.83009],[1.98605,50.82919],[1.98522,50.82964],[1.98464,50.82923],[1.98251,50.83061],[1.98432,50.83183]]]}},{"type":"Feature","properties":{"k":"PTC","s":5.607},"geometry":{"type":"Polygon","coordinates":[[[1.99176,50.83168],[1.98895,50.82976],[1.9867,50.83076],[1.98949,50.83266],[1.99176,50.83168]]]}},{"type":"Feature","properties":{"k":"BTH","s":0.012},"geometry":{"type":"Polygon","coordinates":[[[1.97651,50.83143],[1.97612,50.83153],[1.97621,50.83158],[1.97651,50.83143]]]}},{"type":"Feature","properties":{"k":"BTA","s":0.006},"geometry":{"type":"MultiPolygon","coordinates":[[[[1.9961,50.84568],[1.99581,50.84551],[1.99595,50.84561],[1.9961,50.84568]]],[[[1.99781,50.8465],[1.99735,50.8463],[1.99762,50.84645],[1.99781,50.8465]]]]}},{"type":"Feature","properties":{"k":"PHF","s":5.502},"geometry":{"type":"Polygon","coordinates":[[[1.97822,50.8329],[1.97618,50.83163],[1.97328,50.8332],[1.97519,50.83453],[1.97822,50.8329]]]}},{"type":"Feature","properties":{"k":"ORP","s":0.033},"geometry":{"type":"Polygon","coordinates":[[[1.97842,50.83302],[1.97984,50.83393],[1.97836,50.83293],[1.97842,50.83302]]]}},{"type":"Feature","properties":{"k":"PHF","s":10.134},"geometry":{"type":"Polygon","coordinates":[[[1.97316,50.83541],[1.9753,50.83676],[1.97649,50.83585],[1.97673,50.836],[1.9788,50.83543],[1.97909,50.83562],[1.98087,50.83463],[1.9784,50.83302],[1.97803,50.83307],[1.97564,50.83436],[1.97316,50.83541]]]}},{"type":"Feature","properties":{"k":"BTP","s":3.819},"geometry":{"type":"Polygon","coordinates":[[[1.97198,50.83579],[1.97519,50.83453],[1.97328,50.8332],[1.97174,50.83402],[1.97198,50.83579]]]}},{"type":"Feature","properties":{"k":"ORH","s":0.702},"geometry":{"type":"Polygon","coordinates":[[[1.97143,50.83272],[1.97171,50.83397],[1.97365,50.83295],[1.97273,50.83238],[1.97248,50.83244],[1.97339,50.83295],[1.97207,50.83367],[1.97183,50.83289],[1.97228,50.83249],[1.97143,50.83272]]]}},{"type":"Feature","properties":{"k":"ORP","s":0.785},"geometry":{"type":"Polygon","coordinates":[[[1.97248,50.83244],[1.97228,50.83249],[1.97183,50.83289],[1.97207,50.83367],[1.97339,50.83295],[1.97248,50.83244]]]}},{"type":"Feature","properties":{"k":"ORP","s":0.012},"geometry":{"type":"Polygon","coordinates":[[[1.97143,50.83271],[1.97143,50.83272],[1.97171,50.83272],[1.97143,50.83271]]]}},{"type":"Feature","properties":{"k":"PPH","s":1.346},"geometry":{"type":"MultiPolygon","coordinates":[[[[1.97721,50.8406],[1.97843,50.84004],[1.97764,50.83942],[1.97676,50.83977],[1.97662,50.83963],[1.97674,50.8398],[1.9763,50.84004],[1.97695,50.8406],[1.9767,50.84078],[1.9771,50.84122],[1.97763,50.84105],[1.97721,50.8406]]],[[[1.97587,50.83882],[1.97594,50.83889],[1.97588,50.83882],[1.97587,50.83882]]]]}},{"type":"Feature","properties":{"k":"BTH","s":1.773},"geometry":{"type":"Polygon","coordinates":[[[1.97256,50.83727],[1.97445,50.83624],[1.97332,50.83552],[1.97203,50.83604],[1.97256,50.83727]]]}},{"type":"Feature","properties":{"k":"PPH","s":4.94},"geometry":{"type":"Polygon","coordinates":[[[1.97884,50.83627],[1.97941,50.83583],[1.98012,50.8363],[1.97981,50.83656],[1.98011,50.83681],[1.98091,50.83645],[1.98068,50.83614],[1.98146,50.8357],[1.98035,50.83491],[1.97909,50.83562],[1.9788,50.83543],[1.97673,50.836],[1.97649,50.83585],[1.97544,50.83668],[1.9765,50.83738],[1.97768,50.8367],[1.97872,50.83738],[1.97977,50.83695],[1.97947,50.83674],[1.97923,50.83686],[1.97793,50.83595],[1.97807,50.83588],[1.97884,50.83627]]]}},{"type":"Feature","properties":{"k":"PPH","s":1.641},"geometry":{"type":"Polygon","coordinates":[[[1.98268,50.83605],[1.98229,50.83627],[1.98249,50.8364],[1.98221,50.83653],[1.98172,50.83619],[1.98121,50.83645],[1.98207,50.83723],[1.98256,50.83698],[1.98363,50.83764],[1.98431,50.83727],[1.98268,50.83605]]]}},{"type":"Feature","properties":{"k":"MIS","s":12.206},"geometry":{"type":"Polygon","coordinates":[[[1.98249,50.83586],[1.98541,50.83806],[1.98591,50.83766],[1.9865,50.83808],[1.9871,50.83773],[1.98761,50.83808],[1.98943,50.83642],[1.98602,50.83409],[1.98249,50.83586]]]}},{"type":"Feature","properties":{"k":"PPH","s":4.937},"geometry":{"type":"Polygon","coordinates":[[[1.98611,50.84229],[1.9875,50.8418],[1.98795,50.84209],[1.98881,50.84152],[1.98833,50.84128],[1.98841,50.84107],[1.98795,50.84052],[1.98875,50.83997],[1.98885,50.83923],[1.9884,50.83842],[1.98737,50.83947],[1.98659,50.83917],[1.98623,50.83973],[1.986,50.84075],[1.98672,50.84079],[1.98665,50.84114],[1.98746,50.84165],[1.98716,50.8416],[1.98662,50.84192],[1.98569,50.84161],[1.98563,50.84196],[1.98611,50.84229]]]}},{"type":"Feature","properties":{"k":"BTH","s":14.584},"geometry":{"type":"Polygon","coordinates":[[[1.98785,50.83802],[1.98856,50.83831],[1.98859,50.83833],[1.989,50.83913],[1.98888,50.84001],[1.98813,50.84053],[1.98855,50.84096],[1.98851,50.84124],[1.99039,50.84223],[1.99228,50.84377],[1.99491,50.84161],[1.98842,50.83747],[1.98785,50.83802]]]}},{"type":"Feature","properties":{"k":"BTA","s":0.455},"geometry":{"type":"Polygon","coordinates":[[[1.99039,50.84223],[1.98851,50.84124],[1.98855,50.84096],[1.98813,50.84053],[1.98888,50.84001],[1.989,50.83915],[1.98881,50.83856],[1.98859,50.83833],[1.98891,50.83914],[1.9888,50.83999],[1.98802,50.84052],[1.98847,50.84099],[1.98841,50.84126],[1.99032,50.84226],[1.99222,50.84373],[1.99039,50.84223]]]}},{"type":"Feature","properties":{"k":"BTA","s":0.247},"geometry":{"type":"Polygon","coordinates":[[[1.99091,50.84282],[1.99035,50.84236],[1.98881,50.84153],[1.99045,50.84252],[1.99102,50.84319],[1.99206,50.84395],[1.99091,50.84282]]]}},{"type":"Feature","properties":{"k":"LIF","s":6.333},"geometry":{"type":"Polygon","coordinates":[[[1.99045,50.84252],[1.98877,50.84157],[1.98693,50.84278],[1.99042,50.84499],[1.99206,50.84395],[1.99102,50.84319],[1.99045,50.84252]]]}},{"type":"Feature","properties":{"k":"BTH","s":13.77},"geometry":{"type":"Polygon","coordinates":[[[1.98164,50.84406],[1.98256,50.84456],[1.98285,50.84422],[1.98203,50.84381],[1.98366,50.8428],[1.98239,50.8418],[1.98378,50.84102],[1.98236,50.84021],[1.98093,50.83971],[1.9792,50.84075],[1.97841,50.84008],[1.97726,50.84062],[1.98061,50.84424],[1.9821,50.8451],[1.98232,50.84484],[1.98132,50.84428],[1.98164,50.84406]]]}},{"type":"Feature","properties":{"k":"PTC","s":2.926},"geometry":{"type":"Polygon","coordinates":[[[1.97765,50.84105],[1.97711,50.84123],[1.97922,50.8439],[1.97993,50.84437],[1.97889,50.84506],[1.97918,50.84521],[1.98114,50.84467],[1.97765,50.84105]]]}},{"type":"Feature","properties":{"k":"BTH","s":3.219},"geometry":{"type":"Polygon","coordinates":[[[1.97823,50.84599],[1.9798,50.8469],[1.98035,50.84675],[1.97998,50.84643],[1.98087,50.84616],[1.98191,50.84512],[1.98114,50.84467],[1.97918,50.84521],[1.97823,50.84599]]]}},{"type":"Feature","properties":{"k":"BTP","s":0.062},"geometry":{"type":"Polygon","coordinates":[[[1.98013,50.84709],[1.98032,50.84681],[1.98027,50.84676],[1.97979,50.84689],[1.98013,50.84709]]]}},{"type":"Feature","properties":{"k":"PTC","s":3.849},"geometry":{"type":"Polygon","coordinates":[[[1.98564,50.84779],[1.982,50.84582],[1.98146,50.84624],[1.98119,50.84611],[1.98071,50.84659],[1.98419,50.84829],[1.9844,50.84817],[1.98485,50.84848],[1.98564,50.84779]]]}},{"type":"Feature","properties":{"k":"BTH","s":7.94},"geometry":{"type":"Polygon","coordinates":[[[1.98273,50.84467],[1.98172,50.84566],[1.98562,50.84776],[1.98763,50.84621],[1.98439,50.84426],[1.98352,50.84503],[1.98273,50.84467]]]}},{"type":"Feature","properties":{"k":"LUZ","s":0.052},"geometry":{"type":"Polygon","coordinates":[[[1.98351,50.84504],[1.98439,50.84426],[1.98349,50.84501],[1.98277,50.84469],[1.98351,50.84504]]]}},{"type":"Feature","properties":{"k":"LIF","s":1.784},"geometry":{"type":"Polygon","coordinates":[[[1.98524,50.84407],[1.98482,50.84384],[1.98437,50.84422],[1.98766,50.84621],[1.98807,50.84572],[1.98524,50.84407]]]}},{"type":"Feature","properties":{"k":"LIF","s":4.22},"geometry":{"type":"Polygon","coordinates":[[[1.98892,50.8442],[1.98698,50.84291],[1.98524,50.84407],[1.98807,50.84572],[1.98892,50.8442]]]}},{"type":"Feature","properties":{"k":"BTH","s":8.224},"geometry":{"type":"Polygon","coordinates":[[[1.98728,50.84662],[1.98787,50.84698],[1.9861,50.84818],[1.9873,50.84896],[1.99208,50.84605],[1.98964,50.84473],[1.98852,50.84533],[1.98728,50.84662]]]}},{"type":"Feature","properties":{"k":"BTH","s":8.372},"geometry":{"type":"Polygon","coordinates":[[[1.98785,50.84937],[1.98839,50.8491],[1.98939,50.84988],[1.98983,50.84965],[1.98998,50.84977],[1.99233,50.84861],[1.99307,50.84921],[1.99357,50.84896],[1.99258,50.84786],[1.99256,50.84657],[1.99229,50.84616],[1.99208,50.84605],[1.9873,50.84896],[1.98785,50.84937]]]}},{"type":"Feature","properties":{"k":"MIS","s":0.723},"geometry":{"type":"Polygon","coordinates":[[[1.991,50.85045],[1.99028,50.85084],[1.99142,50.85161],[1.99202,50.85128],[1.991,50.85045]]]}},{"type":"Feature","properties":{"k":"BTH","s":0.52},"geometry":{"type":"Polygon","coordinates":[[[1.99817,50.85661],[1.99804,50.85568],[1.9967,50.85691],[1.99817,50.85661]]]}},{"type":"Feature","properties":{"k":"PTC","s":0.293},"geometry":{"type":"Polygon","coordinates":[[[1.98409,50.84921],[1.98512,50.85017],[1.9854,50.85003],[1.98426,50.84907],[1.98409,50.84921]]]}},{"type":"Feature","properties":{"k":"BTN","s":2.146},"geometry":{"type":"Polygon","coordinates":[[[1.98419,50.84829],[1.98071,50.84659],[1.98006,50.84741],[1.98117,50.84792],[1.98167,50.84744],[1.98348,50.84873],[1.98419,50.84829]]]}},{"type":"Feature","properties":{"k":"NVT","s":0.545},"geometry":{"type":"Polygon","coordinates":[[[1.98006,50.84741],[1.97974,50.84792],[1.98073,50.84835],[1.98117,50.84792],[1.98006,50.84741]]]}},{"type":"Feature","properties":{"k":"MIS","s":0.077},"geometry":{"type":"MultiPolygon","coordinates":[[[[1.98473,50.85211],[1.98521,50.85245],[1.98537,50.85234],[1.98486,50.85202],[1.98473,50.85211]]]]}},{"type":"Feature","properties":{"k":"PPH","s":0.0},"geometry":{"type":"MultiPolygon","coordinates":[]}},{"type":"Feature","properties":{"k":"BTN","s":0.487},"geometry":{"type":"Polygon","coordinates":[[[1.98331,50.85116],[1.98472,50.8521],[1.98506,50.85191],[1.98359,50.85099],[1.98331,50.85116]]]}},{"type":"Feature","properties":{"k":"BTH","s":0.002},"geometry":{"type":"MultiPolygon","coordinates":[]}},{"type":"Feature","properties":{"k":"BTH","s":8.278},"geometry":{"type":"Polygon","coordinates":[[[1.98699,50.85297],[1.98842,50.85381],[1.99071,50.85484],[1.99211,50.85499],[1.9943,50.85653],[1.99486,50.85603],[1.98872,50.85165],[1.98684,50.85261],[1.98722,50.85285],[1.98699,50.85297]]]}},{"type":"Feature","properties":{"k":"MIS","s":0.843},"geometry":{"type":"Polygon","coordinates":[[[1.99142,50.85161],[1.99028,50.85084],[1.98952,50.85126],[1.99064,50.85204],[1.99142,50.85161]]]}},{"type":"Feature","properties":{"k":"PTC","s":4.887},"geometry":{"type":"Polygon","coordinates":[[[1.99484,50.85202],[1.99642,50.85141],[1.99677,50.85171],[1.99614,50.85093],[1.99477,50.85072],[1.99417,50.85024],[1.99154,50.85155],[1.99301,50.85273],[1.99484,50.85202]]]}},{"type":"Feature","properties":{"k":"BTH","s":16.387},"geometry":{"type":"Polygon","coordinates":[[[1.98952,50.85126],[1.98872,50.85165],[1.99486,50.85603],[1.99596,50.85512],[1.99779,50.85499],[1.99754,50.85396],[1.99759,50.8527],[1.99642,50.85141],[1.99301,50.85273],[1.99154,50.85155],[1.99064,50.85204],[1.98952,50.85126]]]}},{"type":"Feature","properties":{"k":"PHF","s":0.0},"geometry":{"type":"Polygon","coordinates":[]}},{"type":"Feature","properties":{"k":"MIS","s":3.757},"geometry":{"type":"Polygon","coordinates":[[[1.99601,50.85517],[1.99432,50.85656],[1.99599,50.85733],[1.9967,50.85691],[1.99804,50.85568],[1.99784,50.85505],[1.99601,50.85517]]]}},{"type":"Feature","properties":{"k":"LIF","s":1.185},"geometry":{"type":"Polygon","coordinates":[[[1.97494,50.83227],[1.97621,50.83158],[1.97273,50.83238],[1.97365,50.83295],[1.97494,50.83227]]]}}]}