{"type":"FeatureCollection","features":[{"type":"Feature","properties":{"k":"CZH","s":0.063},"geometry":{"type":"MultiPolygon","coordinates":[[[[2.60938,50.20463],[2.60986,50.20496],[2.60874,50.20383],[2.60938,50.20463]]]]}},{"type":"Feature","properties":{"k":"MIS","s":0.001},"geometry":{"type":"Polygon","coordinates":[[[2.60874,50.20383],[2.60873,50.20381],[2.60869,50.20385],[2.60874,50.20383]]]}},{"type":"Feature","properties":{"k":"PPH","s":0.032},"geometry":{"type":"Polygon","coordinates":[[[2.60751,50.20224],[2.60736,50.20186],[2.60702,50.2015],[2.60751,50.20224]]]}},{"type":"Feature","properties":{"k":"BTH","s":14.231},"geometry":{"type":"Polygon","coordinates":[[[2.60672,50.20172],[2.60586,50.20105],[2.59878,50.20421],[2.5999,50.20497],[2.60065,50.20531],[2.60135,50.20564],[2.60757,50.20291],[2.60672,50.20172]],[[2.60038,50.20507],[2.60073,50.20524],[2.60065,50.20531],[2.60038,50.20507]]]}},{"type":"Feature","properties":{"k":"PTC","s":7.885},"geometry":{"type":"Polygon","coordinates":[[[2.59522,50.20183],[2.59876,50.20419],[2.60164,50.20291],[2.59889,50.20109],[2.59522,50.20183]]]}},{"type":"Feature","properties":{"k":"PTC","s":2.119},"geometry":{"type":"Polygon","coordinates":[[[2.59889,50.20109],[2.60164,50.20291],[2.60257,50.20251],[2.60009,50.20088],[2.59889,50.20109]]]}},{"type":"Feature","properties":{"k":"BTH","s":2.918},"geometry":{"type":"Polygon","coordinates":[[[2.60257,50.20251],[2.60406,50.20186],[2.60206,50.20053],[2.60011,50.20087],[2.60257,50.20251]]]}},{"type":"Feature","properties":{"k":"MIS","s":0.664},"geometry":{"type":"Polygon","coordinates":[[[2.6029,50.20032],[2.60277,50.19999],[2.60298,50.19977],[2.6021,50.19926],[2.60185,50.2005],[2.6029,50.20032]]]}},{"type":"Feature","properties":{"k":"BTH","s":3.433},"geometry":{"type":"Polygon","coordinates":[[[2.60017,50.19808],[2.5997,50.20087],[2.60185,50.2005],[2.60212,50.19924],[2.60017,50.19808]]]}},{"type":"Feature","properties":{"k":"MIS","s":0.948},"geometry":{"type":"Polygon","coordinates":[[[2.5997,50.20087],[2.60015,50.19811],[2.59982,50.1979],[2.59923,50.20097],[2.5997,50.20087]]]}},{"type":"Feature","properties":{"k":"MIS","s":4.026},"geometry":{"type":"Polygon","coordinates":[[[2.59843,50.19778],[2.59779,50.20127],[2.59923,50.20097],[2.59982,50.19788],[2.59854,50.19709],[2.59843,50.19778]]]}},{"type":"Feature","properties":{"k":"MIS","s":1.4},"geometry":{"type":"Polygon","coordinates":[[[2.60087,50.19845],[2.60185,50.19903],[2.60287,50.19804],[2.60222,50.19724],[2.60087,50.19845]]]}},{"type":"Feature","properties":{"k":"PPH","s":3.021},"geometry":{"type":"Polygon","coordinates":[[[2.60584,50.20106],[2.60558,50.2008],[2.60592,50.20065],[2.60549,50.20023],[2.60455,50.20011],[2.6021,50.2005],[2.60406,50.20186],[2.60584,50.20106]]]}},{"type":"Feature","properties":{"k":"BTH","s":4.917},"geometry":{"type":"Polygon","coordinates":[[[2.59723,50.19661],[2.59934,50.19463],[2.59811,50.19335],[2.59508,50.19616],[2.59723,50.19661]]]}},{"type":"Feature","properties":{"k":"LUZ","s":0.29},"geometry":{"type":"Polygon","coordinates":[[[2.59935,50.19466],[2.59918,50.19482],[2.60059,50.19574],[2.60075,50.19559],[2.59935,50.19466]]]}},{"type":"Feature","properties":{"k":"BTH","s":0.085},"geometry":{"type":"MultiPolygon","coordinates":[[[[2.60217,50.19683],[2.60247,50.19714],[2.60242,50.19694],[2.6015,50.19613],[2.60217,50.19683]]]]}},{"type":"Feature","properties":{"k":"LIF","s":3.062},"geometry":{"type":"Polygon","coordinates":[[[2.59729,50.19662],[2.59814,50.19682],[2.59896,50.19728],[2.60059,50.19574],[2.59918,50.19482],[2.59729,50.19662]]]}},{"type":"Feature","properties":{"k":"BTH","s":8.538},"geometry":{"type":"Polygon","coordinates":[[[2.59778,50.19676],[2.59127,50.1954],[2.59012,50.19653],[2.59828,50.19825],[2.59845,50.19704],[2.59778,50.19676]]]}},{"type":"Feature","properties":{"k":"BTH","s":1.116},"geometry":{"type":"Polygon","coordinates":[[[2.59302,50.19934],[2.59318,50.19899],[2.58944,50.19822],[2.58935,50.19858],[2.59302,50.19934]]]}},{"type":"Feature","properties":{"k":"PTC","s":1.595},"geometry":{"type":"Polygon","coordinates":[[[2.58944,50.19822],[2.59318,50.19899],[2.59341,50.19852],[2.58959,50.19771],[2.58944,50.19822]]]}},{"type":"Feature","properties":{"k":"PTC","s":8.589},"geometry":{"type":"Polygon","coordinates":[[[2.58959,50.19771],[2.59805,50.19949],[2.59828,50.19825],[2.59012,50.19653],[2.58959,50.19771]]]}},{"type":"Feature","properties":{"k":"PTC","s":5.404},"geometry":{"type":"Polygon","coordinates":[[[2.59037,50.19954],[2.59777,50.20109],[2.59792,50.20034],[2.58937,50.19858],[2.58926,50.19917],[2.58948,50.19959],[2.59005,50.19994],[2.59037,50.19954]]]}},{"type":"Feature","properties":{"k":"BTH","s":3.36},"geometry":{"type":"Polygon","coordinates":[[[2.59302,50.19934],[2.59792,50.20034],[2.59805,50.19949],[2.59341,50.19852],[2.59302,50.19934]]]}},{"type":"Feature","properties":{"k":"PTC","s":4.396},"geometry":{"type":"Polygon","coordinates":[[[2.59776,50.2011],[2.59269,50.20002],[2.59189,50.20098],[2.59334,50.20153],[2.59503,50.20173],[2.59768,50.20132],[2.59776,50.2011]]]}},{"type":"Feature","properties":{"k":"PPH","s":2.316},"geometry":{"type":"Polygon","coordinates":[[[2.59261,50.20004],[2.59038,50.19956],[2.59007,50.19995],[2.59056,50.20014],[2.59015,50.20058],[2.59238,50.20165],[2.59334,50.20153],[2.59183,50.20096],[2.59261,50.20004]]]}},{"type":"Feature","properties":{"k":"PPH","s":0.652},"geometry":{"type":"Polygon","coordinates":[[[2.59383,50.20158],[2.59249,50.2017],[2.59383,50.20233],[2.59463,50.20171],[2.59383,50.20158]]]}},{"type":"Feature","properties":{"k":"PTC","s":0.533},"geometry":{"type":"Polygon","coordinates":[[[2.59531,50.20196],[2.59463,50.20171],[2.59383,50.20233],[2.59447,50.20262],[2.59531,50.20196]]]}},{"type":"Feature","properties":{"k":"BTH","s":3.713},"geometry":{"type":"Polygon","coordinates":[[[2.59265,50.20572],[2.59494,50.20399],[2.59401,50.20362],[2.59448,50.20321],[2.59539,50.20361],[2.59654,50.20279],[2.59531,50.20196],[2.59447,50.20262],[2.59482,50.20279],[2.59174,50.20525],[2.59265,50.20572]]]}},{"type":"Feature","properties":{"k":"BTH","s":11.116},"geometry":{"type":"Polygon","coordinates":[[[2.59917,50.20454],[2.59654,50.20279],[2.59265,50.20572],[2.59552,50.20725],[2.59917,50.20454]]]}},{"type":"Feature","properties":{"k":"BTH","s":0.002},"geometry":{"type":"MultiPolygon","coordinates":[]}},{"type":"Feature","properties":{"k":"BTH","s":1.778},"geometry":{"type":"Polygon","coordinates":[[[2.58465,50.21358],[2.58587,50.2139],[2.58713,50.21151],[2.58653,50.21137],[2.58584,50.2128],[2.58493,50.21271],[2.58465,50.21358]]]}},{"type":"Feature","properties":{"k":"PTC","s":5.458},"geometry":{"type":"Polygon","coordinates":[[[2.59385,50.21318],[2.59439,50.21246],[2.59468,50.21247],[2.5988,50.20914],[2.59782,50.20862],[2.59245,50.21296],[2.59385,50.21318]]]}},{"type":"Feature","properties":{"k":"PTC","s":1.413},"geometry":{"type":"MultiPolygon","coordinates":[[[[2.59245,50.21296],[2.59782,50.20862],[2.59756,50.20848],[2.59238,50.21286],[2.59245,50.21296]]]]}},{"type":"Feature","properties":{"k":"BTH","s":5.423},"geometry":{"type":"Polygon","coordinates":[[[2.59917,50.20454],[2.59562,50.20717],[2.59709,50.20809],[2.60055,50.20532],[2.59917,50.20454]]]}},{"type":"Feature","properties":{"k":"PTC","s":7.05},"geometry":{"type":"Polygon","coordinates":[[[2.59894,50.2091],[2.60261,50.20629],[2.60061,50.20535],[2.59707,50.20811],[2.59894,50.2091]]]}},{"type":"Feature","properties":{"k":"BTN","s":16.782},"geometry":{"type":"Polygon","coordinates":[[[2.60802,50.20773],[2.60968,50.20765],[2.60884,50.20582],[2.60768,50.20397],[2.60759,50.20296],[2.60135,50.20564],[2.60333,50.20656],[2.60397,50.20711],[2.60802,50.20773]]]}},{"type":"Feature","properties":{"k":"PTC","s":13.44},"geometry":{"type":"Polygon","coordinates":[[[2.60103,50.21019],[2.60226,50.21],[2.60368,50.21057],[2.60651,50.20903],[2.60261,50.20629],[2.59894,50.2091],[2.60103,50.21019]]]}},{"type":"Feature","properties":{"k":"ORH","s":2.7},"geometry":{"type":"Polygon","coordinates":[[[2.60757,50.20987],[2.6065,50.20904],[2.60373,50.21059],[2.60493,50.211],[2.6055,50.21063],[2.60577,50.21084],[2.60757,50.20987]]]}},{"type":"Feature","properties":{"k":"MIS","s":4.239},"geometry":{"type":"Polygon","coordinates":[[[2.60604,50.21264],[2.60629,50.21213],[2.60841,50.21202],[2.60814,50.21084],[2.60758,50.20987],[2.60577,50.21084],[2.60469,50.21207],[2.60604,50.21264]]]}},{"type":"Feature","properties":{"k":"PPH","s":0.418},"geometry":{"type":"Polygon","coordinates":[[[2.60854,50.21259],[2.60886,50.21259],[2.60841,50.21204],[2.60632,50.21215],[2.60624,50.2123],[2.60844,50.21223],[2.60854,50.21259]]]}},{"type":"Feature","properties":{"k":"MIS","s":0.664},"geometry":{"type":"Polygon","coordinates":[[[2.60469,50.21207],[2.60577,50.21084],[2.6055,50.21063],[2.6045,50.21129],[2.60441,50.21196],[2.60469,50.21207]]]}},{"type":"Feature","properties":{"k":"MIS","s":0.404},"geometry":{"type":"Polygon","coordinates":[[[2.60429,50.21191],[2.60457,50.21152],[2.60318,50.21117],[2.603,50.21138],[2.60429,50.21191]]]}},{"type":"Feature","properties":{"k":"PPH","s":0.935},"geometry":{"type":"Polygon","coordinates":[[[2.603,50.21138],[2.6033,50.21105],[2.6045,50.21128],[2.60491,50.21101],[2.60327,50.21044],[2.60288,50.2109],[2.60239,50.21076],[2.60219,50.21095],[2.603,50.21138]]]}},{"type":"Feature","properties":{"k":"PPH","s":1.421},"geometry":{"type":"Polygon","coordinates":[[[2.60211,50.21235],[2.60288,50.21292],[2.60567,50.21306],[2.60581,50.21272],[2.60399,50.21252],[2.60289,50.21215],[2.60211,50.21235]]]}},{"type":"Feature","properties":{"k":"PPH","s":0.343},"geometry":{"type":"Polygon","coordinates":[[[2.60094,50.21296],[2.60256,50.21288],[2.60197,50.2124],[2.60094,50.21296]]]}},{"type":"Feature","properties":{"k":"PPH","s":1.791},"geometry":{"type":"Polygon","coordinates":[[[2.60175,50.21093],[2.60191,50.21106],[2.60116,50.21139],[2.60196,50.21222],[2.60248,50.21208],[2.60341,50.21216],[2.60344,50.21169],[2.6026,50.21135],[2.60113,50.21038],[2.60045,50.21068],[2.601,50.21124],[2.60175,50.21093]]]}},{"type":"Feature","properties":{"k":"MIS","s":0.945},"geometry":{"type":"Polygon","coordinates":[[[2.60212,50.20997],[2.60108,50.21019],[2.60219,50.21095],[2.6024,50.21074],[2.60281,50.21085],[2.60328,50.21042],[2.60212,50.20997]]]}},{"type":"Feature","properties":{"k":"PPH","s":0.32},"geometry":{"type":"Polygon","coordinates":[[[2.60112,50.21037],[2.59989,50.20971],[2.60045,50.21067],[2.60112,50.21037]]]}},{"type":"Feature","properties":{"k":"BTH","s":5.829},"geometry":{"type":"Polygon","coordinates":[[[2.59471,50.21249],[2.59581,50.21252],[2.59692,50.21276],[2.59772,50.2116],[2.60026,50.21048],[2.59977,50.20969],[2.59882,50.20915],[2.59471,50.21249]]]}},{"type":"Feature","properties":{"k":"MIS","s":6.302},"geometry":{"type":"Polygon","coordinates":[[[2.59691,50.21317],[2.59838,50.2133],[2.59939,50.21324],[2.59945,50.21244],[2.59996,50.21244],[2.59994,50.21313],[2.6019,50.21228],[2.60029,50.21051],[2.59772,50.2116],[2.59713,50.21243],[2.59691,50.21317]]]}},{"type":"Feature","properties":{"k":"LIF","s":21.431},"geometry":{"type":"Polygon","coordinates":[[[2.59811,50.21666],[2.60122,50.21692],[2.60335,50.21339],[2.60262,50.21292],[2.60256,50.21292],[2.60221,50.21287],[2.60185,50.21286],[2.59932,50.21334],[2.59695,50.21329],[2.59608,50.2135],[2.59512,50.21343],[2.59471,50.21353],[2.59437,50.21338],[2.59355,50.21555],[2.59811,50.21666]],[[2.60253,50.21299],[2.60241,50.2129],[2.60256,50.21292],[2.60253,50.21299]]]}},{"type":"Feature","properties":{"k":"PPH","s":0.898},"geometry":{"type":"Polygon","coordinates":[[[2.60445,50.21306],[2.60402,50.21387],[2.60475,50.21437],[2.60558,50.21312],[2.60445,50.21306]]]}},{"type":"Feature","properties":{"k":"PPH","s":1.194},"geometry":{"type":"Polygon","coordinates":[[[2.6076,50.21325],[2.60835,50.21338],[2.60819,50.21259],[2.6085,50.21259],[2.60847,50.21246],[2.60738,50.21248],[2.60734,50.21232],[2.60622,50.21231],[2.60609,50.21265],[2.6076,50.21325]]]}},{"type":"Feature","properties":{"k":"BTH","s":2.26},"geometry":{"type":"Polygon","coordinates":[[[2.60635,50.21562],[2.60685,50.21497],[2.60612,50.21449],[2.60693,50.21363],[2.6056,50.21313],[2.60476,50.21439],[2.60635,50.21562]]]}},{"type":"Feature","properties":{"k":"JAC","s":0.837},"geometry":{"type":"Polygon","coordinates":[[[2.60831,50.21509],[2.60821,50.21502],[2.60782,50.21531],[2.60701,50.21485],[2.60637,50.21562],[2.60682,50.21615],[2.60831,50.21509]]]}},{"type":"Feature","properties":{"k":"MIS","s":2.569},"geometry":{"type":"Polygon","coordinates":[[[2.60787,50.21742],[2.60808,50.21716],[2.60826,50.21724],[2.60946,50.21583],[2.60834,50.21508],[2.60683,50.21616],[2.60787,50.21742]]]}},{"type":"Feature","properties":{"k":"MIS","s":2.53},"geometry":{"type":"Polygon","coordinates":[[[2.60675,50.21771],[2.60718,50.21683],[2.60612,50.21552],[2.6046,50.21763],[2.60675,50.21771]]]}},{"type":"Feature","properties":{"k":"MIS","s":4.491},"geometry":{"type":"Polygon","coordinates":[[[2.6055,50.21636],[2.60612,50.21549],[2.60595,50.21539],[2.6051,50.21621],[2.60499,50.2158],[2.6057,50.21521],[2.60334,50.21337],[2.60208,50.21551],[2.6055,50.21636]]]}},{"type":"Feature","properties":{"k":"PTC","s":4.234},"geometry":{"type":"Polygon","coordinates":[[[2.60459,50.21762],[2.6055,50.21636],[2.60208,50.21551],[2.60123,50.21693],[2.60459,50.21762]]]}},{"type":"Feature","properties":{"k":"MIS","s":0.295},"geometry":{"type":"Polygon","coordinates":[[[2.60729,50.21769],[2.60757,50.21721],[2.60719,50.21684],[2.60675,50.21771],[2.60729,50.21769]]]}},{"type":"Feature","properties":{"k":"PPH","s":7.919},"geometry":{"type":"Polygon","coordinates":[[[2.60793,50.2177],[2.60772,50.21823],[2.60746,50.21819],[2.60765,50.21772],[2.60689,50.2178],[2.60553,50.22133],[2.60838,50.22184],[2.60954,50.21912],[2.60816,50.21897],[2.6086,50.21777],[2.60793,50.2177]]]}},{"type":"Feature","properties":{"k":"CZH","s":3.999},"geometry":{"type":"Polygon","coordinates":[[[2.60402,50.22106],[2.60553,50.22133],[2.60689,50.2178],[2.60565,50.2178],[2.60402,50.22106]]]}},{"type":"Feature","properties":{"k":"CZH","s":2.629},"geometry":{"type":"Polygon","coordinates":[[[2.60309,50.22091],[2.60402,50.22106],[2.60548,50.21775],[2.60449,50.21769],[2.60309,50.22091]]]}},{"type":"Feature","properties":{"k":"PHF","s":0.025},"geometry":{"type":"Polygon","coordinates":[[[2.60245,50.22078],[2.6004,50.22042],[2.60309,50.22091],[2.60245,50.22078]]]}},{"type":"Feature","properties":{"k":"BTH","s":8.484},"geometry":{"type":"Polygon","coordinates":[[[2.60309,50.22091],[2.60447,50.21769],[2.60146,50.21704],[2.59999,50.22049],[2.60027,50.22054],[2.6004,50.22042],[2.60309,50.22091]],[[2.60136,50.2173],[2.60147,50.21705],[2.60167,50.21709],[2.60154,50.21733],[2.60136,50.2173]]]}},{"type":"Feature","properties":{"k":"LBF","s":4.942},"geometry":{"type":"Polygon","coordinates":[[[2.59724,50.22003],[2.59898,50.22032],[2.60043,50.21686],[2.59864,50.21683],[2.59724,50.22003]]]}},{"type":"Feature","properties":{"k":"ORH","s":0.19},"geometry":{"type":"Polygon","coordinates":[[[2.5985,50.21678],[2.59736,50.2169],[2.59842,50.21716],[2.5985,50.21678]]]}},{"type":"Feature","properties":{"k":"ORH","s":0.704},"geometry":{"type":"Polygon","coordinates":[[[2.59736,50.2169],[2.59589,50.21709],[2.59821,50.21763],[2.59841,50.21716],[2.59736,50.2169]]]}},{"type":"Feature","properties":{"k":"ORH","s":0.39},"geometry":{"type":"Polygon","coordinates":[[[2.59821,50.21763],[2.59589,50.21709],[2.59543,50.21716],[2.59813,50.21782],[2.59821,50.21763]]]}},{"type":"Feature","properties":{"k":"BTN","s":6.549},"geometry":{"type":"Polygon","coordinates":[[[2.5972,50.22002],[2.59055,50.21839],[2.59009,50.21851],[2.59232,50.21921],[2.5969,50.22033],[2.59635,50.22159],[2.59941,50.22234],[2.60027,50.22054],[2.59725,50.22003],[2.59722,50.22015],[2.5972,50.22002]]]}},{"type":"Feature","properties":{"k":"LIF","s":9.291},"geometry":{"type":"Polygon","coordinates":[[[2.59813,50.21782],[2.59536,50.21715],[2.59048,50.21838],[2.59718,50.22001],[2.59813,50.21782]]]}},{"type":"Feature","properties":{"k":"BTH","s":14.479},"geometry":{"type":"Polygon","coordinates":[[[2.59573,50.21701],[2.59823,50.21672],[2.59331,50.21554],[2.59224,50.21507],[2.5896,50.21451],[2.5881,50.21739],[2.59089,50.21819],[2.59573,50.21701]]]}},{"type":"Feature","properties":{"k":"MIS","s":1.663},"geometry":{"type":"Polygon","coordinates":[[[2.59615,50.21336],[2.59692,50.21314],[2.59704,50.21281],[2.59543,50.21248],[2.59437,50.21249],[2.59385,50.21317],[2.59482,50.21337],[2.59615,50.21336]]]}},{"type":"Feature","properties":{"k":"BTH","s":2.973},"geometry":{"type":"Polygon","coordinates":[[[2.59154,50.21418],[2.59165,50.21457],[2.59273,50.21531],[2.59355,50.21553],[2.59437,50.21338],[2.59327,50.21343],[2.59178,50.21393],[2.59154,50.21418]]]}},{"type":"Feature","properties":{"k":"AVP","s":2.657},"geometry":{"type":"Polygon","coordinates":[[[2.59143,50.21421],[2.59172,50.21377],[2.59251,50.21368],[2.5934,50.21327],[2.59047,50.21247],[2.58972,50.21391],[2.59143,50.21421]]]}},{"type":"Feature","properties":{"k":"LUZ","s":1.109},"geometry":{"type":"Polygon","coordinates":[[[2.5896,50.21451],[2.59219,50.21506],[2.59163,50.21461],[2.59143,50.21421],[2.58972,50.21391],[2.58941,50.21446],[2.5896,50.21451]]]}},{"type":"Feature","properties":{"k":"LUZ","s":0.424},"geometry":{"type":"Polygon","coordinates":[[[2.58807,50.21737],[2.5896,50.2145],[2.58941,50.21446],[2.58793,50.21733],[2.58807,50.21737]]]}},{"type":"Feature","properties":{"k":"AVH","s":14.89},"geometry":{"type":"Polygon","coordinates":[[[2.58694,50.21422],[2.58167,50.21297],[2.58132,50.21361],[2.58566,50.21471],[2.58475,50.21642],[2.58793,50.21733],[2.59048,50.21246],[2.58817,50.21192],[2.58694,50.21422]]]}},{"type":"Feature","properties":{"k":"PTR","s":0.469},"geometry":{"type":"Polygon","coordinates":[[[2.58488,50.21309],[2.58396,50.21277],[2.58367,50.21334],[2.58465,50.21358],[2.58488,50.21309]]]}},{"type":"Feature","properties":{"k":"CZH","s":0.093},"geometry":{"type":"Polygon","coordinates":[[[2.60548,50.22131],[2.60547,50.22134],[2.61056,50.22226],[2.61057,50.22225],[2.60548,50.22131]]]}},{"type":"Feature","properties":{"k":"PTC","s":0.0},"geometry":{"type":"Polygon","coordinates":[]}},{"type":"Feature","properties":{"k":"BTH","s":2.919},"geometry":{"type":"Polygon","coordinates":[[[2.60042,50.21684],[2.59899,50.2203],[2.59999,50.22049],[2.60145,50.21704],[2.60042,50.21684]],[[2.60052,50.21709],[2.60036,50.21707],[2.60044,50.21686],[2.6006,50.21689],[2.60052,50.21709]]]}},{"type":"Feature","properties":{"k":"BTH","s":0.002},"geometry":{"type":"Polygon","coordinates":[[[2.61416,50.22288],[2.61384,50.22285],[2.61384,50.22287],[2.61416,50.22288]]]}},{"type":"Feature","properties":{"k":"ORH","s":0.003},"geometry":{"type":"Polygon","coordinates":[[[2.61344,50.22286],[2.61384,50.22287],[2.61384,50.22285],[2.61344,50.22286]]]}},{"type":"Feature","properties":{"k":"BTH","s":10.142},"geometry":{"type":"Polygon","coordinates":[[[2.61165,50.21974],[2.61019,50.22313],[2.61363,50.22278],[2.61535,50.22294],[2.61507,50.22153],[2.61572,50.22034],[2.61165,50.21974]]]}},{"type":"Feature","properties":{"k":"BTH","s":19.079},"geometry":{"type":"Polygon","coordinates":[[[2.60827,50.21089],[2.60849,50.21189],[2.60926,50.21279],[2.61368,50.21245],[2.61579,50.21179],[2.61527,50.21132],[2.61274,50.21226],[2.61163,50.21242],[2.61126,50.21192],[2.61204,50.21175],[2.61198,50.21164],[2.6141,50.21071],[2.61207,50.20999],[2.60966,50.20767],[2.60813,50.20775],[2.60417,50.20726],[2.60768,50.20986],[2.60827,50.21089]]]}},{"type":"Feature","properties":{"k":"BTH","s":2.159},"geometry":{"type":"Polygon","coordinates":[[[2.62003,50.21329],[2.61953,50.21514],[2.62006,50.2154],[2.62211,50.21398],[2.62003,50.21329]]]}},{"type":"Feature","properties":{"k":"BTH","s":0.808},"geometry":{"type":"Polygon","coordinates":[[[2.58395,50.21277],[2.58242,50.21242],[2.58217,50.21301],[2.58367,50.21333],[2.58395,50.21277]]]}},{"type":"Feature","properties":{"k":"AVP","s":3.553},"geometry":{"type":"Polygon","coordinates":[[[2.58519,50.21559],[2.58566,50.21471],[2.58132,50.21361],[2.5807,50.21445],[2.58519,50.21559]]]}},{"type":"Feature","properties":{"k":"OIG","s":2.975},"geometry":{"type":"Polygon","coordinates":[[[2.58054,50.21521],[2.58475,50.21642],[2.58519,50.21559],[2.58068,50.21448],[2.58054,50.21521]]]}},{"type":"Feature","properties":{"k":"PTR","s":0.036},"geometry":{"type":"Polygon","coordinates":[[[2.58054,50.21521],[2.58061,50.21461],[2.58055,50.21483],[2.58054,50.21521]]]}},{"type":"Feature","properties":{"k":"PPH","s":3.692},"geometry":{"type":"Polygon","coordinates":[[[2.62537,50.21344],[2.62715,50.21213],[2.6256,50.21091],[2.62347,50.21245],[2.62537,50.21344]]]}},{"type":"Feature","properties":{"k":"BTH","s":1.198},"geometry":{"type":"Polygon","coordinates":[[[2.62047,50.21173],[2.62265,50.2128],[2.62287,50.21281],[2.62336,50.21242],[2.6205,50.21128],[2.62047,50.21173]]]}},{"type":"Feature","properties":{"k":"PPH","s":1.254},"geometry":{"type":"Polygon","coordinates":[[[2.62337,50.21242],[2.62411,50.21192],[2.62232,50.21106],[2.62166,50.21174],[2.62337,50.21242]]]}},{"type":"Feature","properties":{"k":"PPH","s":5.916},"geometry":{"type":"Polygon","coordinates":[[[2.62232,50.21106],[2.62414,50.21193],[2.62557,50.2109],[2.62423,50.2101],[2.62361,50.21056],[2.62086,50.20893],[2.62058,50.20959],[2.62047,50.21125],[2.62167,50.21172],[2.62232,50.21106]]]}},{"type":"Feature","properties":{"k":"ORH","s":0.002},"geometry":{"type":"Polygon","coordinates":[]}},{"type":"Feature","properties":{"k":"MIS","s":0.002},"geometry":{"type":"Polygon","coordinates":[]}},{"type":"Feature","properties":{"k":"PTC","s":1.938},"geometry":{"type":"Polygon","coordinates":[[[2.62086,50.20893],[2.62361,50.21056],[2.62423,50.2101],[2.62122,50.20829],[2.62086,50.20893]]]}},{"type":"Feature","properties":{"k":"BTH","s":0.003},"geometry":{"type":"Polygon","coordinates":[[[2.61597,50.20672],[2.61572,50.20664],[2.61595,50.20673],[2.61597,50.20672]]]}},{"type":"Feature","properties":{"k":"PPH","s":2.134},"geometry":{"type":"Polygon","coordinates":[[[2.62491,50.21622],[2.62547,50.21657],[2.62493,50.21698],[2.62566,50.21703],[2.62686,50.21623],[2.62612,50.21552],[2.62743,50.21472],[2.62676,50.21432],[2.6255,50.21514],[2.62598,50.21547],[2.62491,50.21622]]]}},{"type":"Feature","properties":{"k":"PPH","s":1.485},"geometry":{"type":"Polygon","coordinates":[[[2.62613,50.21552],[2.62686,50.21617],[2.62743,50.21655],[2.6271,50.21632],[2.62849,50.21535],[2.62743,50.21473],[2.62613,50.21552]]]}},{"type":"Feature","properties":{"k":"BTN","s":0.004},"geometry":{"type":"Polygon","coordinates":[[[2.62794,50.21394],[2.62714,50.21447],[2.62716,50.21447],[2.62794,50.21394]]]}},{"type":"Feature","properties":{"k":"JAC","s":0.273},"geometry":{"type":"Polygon","coordinates":[[[2.58216,50.21303],[2.58243,50.21237],[2.58196,50.21229],[2.58171,50.21293],[2.58216,50.21303]]]}},{"type":"Feature","properties":{"k":"MIS","s":1.02},"geometry":{"type":"Polygon","coordinates":[[[2.62337,50.21249],[2.62215,50.21329],[2.62341,50.21369],[2.62429,50.21299],[2.62337,50.21249]]]}},{"type":"Feature","properties":{"k":"BTA","s":0.116},"geometry":{"type":"Polygon","coordinates":[[[2.62215,50.21329],[2.62207,50.2134],[2.62333,50.21376],[2.62312,50.21355],[2.62215,50.21329]]]}},{"type":"Feature","properties":{"k":"PPH","s":7.207},"geometry":{"type":"MultiPolygon","coordinates":[[[[2.61923,50.21599],[2.61921,50.21611],[2.62003,50.21562],[2.62174,50.21621],[2.62419,50.21436],[2.62382,50.21421],[2.625,50.21332],[2.62432,50.21301],[2.62313,50.21399],[2.62326,50.21374],[2.62205,50.21341],[2.62264,50.21286],[2.6215,50.21234],[2.62081,50.21305],[2.62252,50.21374],[2.61923,50.21599]]],[[[2.62513,50.21485],[2.62574,50.21444],[2.62594,50.21456],[2.62654,50.21421],[2.62532,50.21349],[2.62419,50.21436],[2.62513,50.21485]]]]}},{"type":"Feature","properties":{"k":"BTN","s":5.984},"geometry":{"type":"Polygon","coordinates":[[[2.62012,50.21698],[2.62297,50.21736],[2.62422,50.21668],[2.62591,50.21543],[2.62429,50.21444],[2.62173,50.21622],[2.62148,50.21615],[2.62012,50.21698]]]}},{"type":"Feature","properties":{"k":"BTH","s":1.704},"geometry":{"type":"Polygon","coordinates":[[[2.62529,50.21807],[2.62343,50.21768],[2.62244,50.21848],[2.624,50.2191],[2.62529,50.21807]]]}},{"type":"Feature","properties":{"k":"PPH","s":1.673},"geometry":{"type":"Polygon","coordinates":[[[2.62689,50.2171],[2.62751,50.21738],[2.62809,50.21695],[2.62686,50.21623],[2.62499,50.2175],[2.62583,50.21788],[2.62689,50.2171]]]}},{"type":"Feature","properties":{"k":"PPH","s":0.622},"geometry":{"type":"Polygon","coordinates":[[[2.62652,50.21816],[2.62751,50.21738],[2.62689,50.2171],[2.62583,50.21788],[2.62652,50.21816]]]}},{"type":"Feature","properties":{"k":"PTC","s":0.475},"geometry":{"type":"Polygon","coordinates":[[[2.6115,50.20652],[2.61201,50.2062],[2.61175,50.20629],[2.61043,50.20537],[2.61006,50.20553],[2.6115,50.20652]]]}},{"type":"Feature","properties":{"k":"PPH","s":0.401},"geometry":{"type":"Polygon","coordinates":[[[2.62401,50.21911],[2.62427,50.21921],[2.62575,50.21815],[2.62532,50.21807],[2.62401,50.21911]]]}},{"type":"Feature","properties":{"k":"PTR","s":0.0},"geometry":{"type":"Polygon","coordinates":[]}},{"type":"Feature","properties":{"k":"PTC","s":3.59},"geometry":{"type":"Polygon","coordinates":[[[2.62238,50.21852],[2.62001,50.22041],[2.62136,50.22116],[2.62393,50.21914],[2.62238,50.21852]]]}},{"type":"Feature","properties":{"k":"LIF","s":0.503},"geometry":{"type":"Polygon","coordinates":[[[2.62392,50.21914],[2.62144,50.22119],[2.62422,50.21925],[2.62392,50.21914]]]}},{"type":"Feature","properties":{"k":"BTN","s":0.0},"geometry":{"type":"Polygon","coordinates":[]}},{"type":"Feature","properties":{"k":"PPH","s":0.004},"geometry":{"type":"MultiPolygon","coordinates":[]}},{"type":"Feature","properties":{"k":"PTR","s":0.897},"geometry":{"type":"Polygon","coordinates":[[[2.61927,50.21824],[2.61809,50.21865],[2.61836,50.21945],[2.61983,50.21881],[2.61927,50.21824]]]}},{"type":"Feature","properties":{"k":"BTH","s":2.022},"geometry":{"type":"Polygon","coordinates":[[[2.62341,50.21769],[2.6226,50.21759],[2.61942,50.22009],[2.62001,50.22041],[2.62341,50.21769]]]}},{"type":"Feature","properties":{"k":"MIS","s":2.208},"geometry":{"type":"Polygon","coordinates":[[[2.61931,50.21828],[2.62036,50.21935],[2.62262,50.21758],[2.62177,50.21736],[2.61931,50.21828]]]}},{"type":"Feature","properties":{"k":"PPH","s":0.767},"geometry":{"type":"Polygon","coordinates":[[[2.6195,50.21801],[2.61891,50.21741],[2.61813,50.21771],[2.61867,50.2183],[2.61915,50.21812],[2.61931,50.21828],[2.62177,50.21736],[2.6195,50.21801]]]}},{"type":"Feature","properties":{"k":"PPH","s":0.659},"geometry":{"type":"Polygon","coordinates":[[[2.62063,50.2175],[2.62133,50.21726],[2.6203,50.21714],[2.61906,50.21756],[2.6195,50.21801],[2.62012,50.21779],[2.62002,50.2177],[2.62063,50.2175]]]}},{"type":"Feature","properties":{"k":"PPH","s":2.427},"geometry":{"type":"Polygon","coordinates":[[[2.60884,50.20574],[2.60971,50.20661],[2.61012,50.20642],[2.61071,50.20704],[2.6115,50.20652],[2.61006,50.20553],[2.61043,50.20537],[2.60932,50.2046],[2.60837,50.20488],[2.60884,50.20574]],[[2.60992,50.20527],[2.60975,50.20536],[2.60963,50.20527],[2.60975,50.20514],[2.60992,50.20527]]]}},{"type":"Feature","properties":{"k":"TCR","s":0.067},"geometry":{"type":"Polygon","coordinates":[[[2.60885,50.20584],[2.60908,50.20632],[2.60909,50.2062],[2.60939,50.20619],[2.60885,50.20584]]]}},{"type":"Feature","properties":{"k":"BTH","s":11.936},"geometry":{"type":"Polygon","coordinates":[[[2.61057,50.22225],[2.61165,50.21974],[2.61572,50.22034],[2.61639,50.21881],[2.61311,50.21837],[2.61061,50.21841],[2.60992,50.2183],[2.6084,50.22184],[2.61057,50.22225]]]}},{"type":"Feature","properties":{"k":"PTC","s":2.733},"geometry":{"type":"Polygon","coordinates":[[[2.60807,50.21749],[2.60826,50.2176],[2.60989,50.21794],[2.61091,50.2164],[2.60947,50.21583],[2.60807,50.21749]]]}},{"type":"Feature","properties":{"k":"PPH","s":3.097},"geometry":{"type":"Polygon","coordinates":[[[2.61207,50.21639],[2.61109,50.21642],[2.61066,50.21709],[2.61169,50.21742],[2.61063,50.21711],[2.61013,50.2179],[2.61052,50.21804],[2.61014,50.2183],[2.61226,50.21831],[2.61302,50.21749],[2.61238,50.21719],[2.61268,50.2169],[2.61207,50.21639]]]}},{"type":"Feature","properties":{"k":"PPH","s":1.7},"geometry":{"type":"Polygon","coordinates":[[[2.61446,50.2186],[2.61461,50.21806],[2.61543,50.21791],[2.6144,50.21738],[2.61393,50.2177],[2.61318,50.21736],[2.61226,50.21831],[2.61446,50.2186]]]}},{"type":"Feature","properties":{"k":"PPH","s":0.641},"geometry":{"type":"Polygon","coordinates":[[[2.61211,50.21543],[2.61266,50.21459],[2.61216,50.21431],[2.61123,50.21543],[2.61211,50.21543]]]}},{"type":"Feature","properties":{"k":"PPH","s":0.493},"geometry":{"type":"Polygon","coordinates":[[[2.61072,50.21535],[2.61165,50.21419],[2.6112,50.21407],[2.61028,50.21527],[2.61072,50.21535]]]}},{"type":"Feature","properties":{"k":"PPH","s":2.942},"geometry":{"type":"Polygon","coordinates":[[[2.60863,50.21525],[2.60921,50.2148],[2.6098,50.21522],[2.61018,50.2153],[2.61115,50.21406],[2.60982,50.21382],[2.60801,50.21418],[2.60703,50.21485],[2.60782,50.2153],[2.60821,50.21501],[2.60863,50.21525]]]}},{"type":"Feature","properties":{"k":"PPH","s":8.113},"geometry":{"type":"Polygon","coordinates":[[[2.61942,50.2152],[2.61991,50.21324],[2.61972,50.2128],[2.61795,50.21235],[2.61658,50.21231],[2.61589,50.21243],[2.61451,50.21324],[2.61441,50.21351],[2.61558,50.2135],[2.61564,50.21339],[2.61631,50.21352],[2.61629,50.21409],[2.61586,50.21465],[2.6156,50.21457],[2.61518,50.21499],[2.6162,50.21536],[2.61684,50.21476],[2.61718,50.21475],[2.61726,50.21486],[2.61678,50.21526],[2.6165,50.21517],[2.61622,50.21539],[2.61655,50.21559],[2.61791,50.21452],[2.61942,50.2152]],[[2.61885,50.21359],[2.61949,50.21385],[2.61907,50.21429],[2.61827,50.21399],[2.61885,50.21359]]]}},{"type":"Feature","properties":{"k":"PPH","s":0.345},"geometry":{"type":"Polygon","coordinates":[[[2.61584,50.21601],[2.61644,50.21555],[2.61589,50.21527],[2.61528,50.21568],[2.61584,50.21601]]]}},{"type":"Feature","properties":{"k":"PPH","s":1.151},"geometry":{"type":"Polygon","coordinates":[[[2.61718,50.21618],[2.61781,50.21656],[2.61941,50.21522],[2.61876,50.21494],[2.61718,50.21618]]]}},{"type":"Feature","properties":{"k":"PPH","s":0.204},"geometry":{"type":"Polygon","coordinates":[[[2.61953,50.21514],[2.61924,50.21598],[2.61998,50.21545],[2.61953,50.21514]]]}},{"type":"Feature","properties":{"k":"BTA","s":0.045},"geometry":{"type":"Polygon","coordinates":[]}},{"type":"Feature","properties":{"k":"BTH","s":0.71},"geometry":{"type":"Polygon","coordinates":[[[2.62152,50.21613],[2.62079,50.21594],[2.61932,50.21691],[2.62008,50.21701],[2.62152,50.21613]]]}},{"type":"Feature","properties":{"k":"BTA","s":0.147},"geometry":{"type":"Polygon","coordinates":[[[2.61368,50.21245],[2.61227,50.21252],[2.60926,50.21279],[2.61369,50.21248],[2.61576,50.21183],[2.61368,50.21245]]]}},{"type":"Feature","properties":{"k":"MIS","s":0.806},"geometry":{"type":"Polygon","coordinates":[[[2.61989,50.21277],[2.62002,50.21327],[2.62215,50.21397],[2.6225,50.21374],[2.61989,50.21277]]]}},{"type":"Feature","properties":{"k":"PPH","s":0.415},"geometry":{"type":"Polygon","coordinates":[[[2.6215,50.21234],[2.62092,50.21208],[2.62035,50.21286],[2.62081,50.21305],[2.6215,50.21234]]]}},{"type":"Feature","properties":{"k":"JAC","s":0.026},"geometry":{"type":"Polygon","coordinates":[[[2.61815,50.21139],[2.61904,50.21184],[2.61906,50.21182],[2.61815,50.21139]]]}},{"type":"Feature","properties":{"k":"BTN","s":0.069},"geometry":{"type":"Polygon","coordinates":[]}},{"type":"Feature","properties":{"k":"BTH","s":1.626},"geometry":{"type":"Polygon","coordinates":[[[2.61575,50.21069],[2.61641,50.20969],[2.61483,50.20908],[2.61398,50.21014],[2.61575,50.21069]]]}},{"type":"Feature","properties":{"k":"PPH","s":0.021},"geometry":{"type":"Polygon","coordinates":[[[2.62741,50.21657],[2.62809,50.21695],[2.62812,50.21694],[2.62741,50.21657]]]}},{"type":"Feature","properties":{"k":"PPH","s":1.844},"geometry":{"type":"Polygon","coordinates":[[[2.61855,50.2124],[2.61978,50.21266],[2.62033,50.21155],[2.6203,50.20991],[2.61855,50.2124]]]}},{"type":"Feature","properties":{"k":"PPH","s":0.003},"geometry":{"type":"Polygon","coordinates":[[[2.62038,50.20977],[2.62026,50.20941],[2.62034,50.20973],[2.62038,50.20977]]]}},{"type":"Feature","properties":{"k":"BTA","s":0.0},"geometry":{"type":"Polygon","coordinates":[[[2.61946,50.20916],[2.61941,50.20917],[2.61945,50.20919],[2.61946,50.20916]]]}},{"type":"Feature","properties":{"k":"MIS","s":1.679},"geometry":{"type":"Polygon","coordinates":[[[2.61996,50.21036],[2.61944,50.20922],[2.61817,50.21136],[2.61906,50.21182],[2.61996,50.21036]]]}},{"type":"Feature","properties":{"k":"BTH","s":11.074},"geometry":{"type":"Polygon","coordinates":[[[2.61891,50.2093],[2.61635,50.20833],[2.61602,50.2085],[2.61562,50.2082],[2.61692,50.20709],[2.61572,50.20664],[2.61421,50.20753],[2.61291,50.20665],[2.61138,50.20764],[2.61214,50.20841],[2.61447,50.20972],[2.61485,50.20904],[2.61724,50.20988],[2.61763,50.21102],[2.61813,50.21139],[2.61945,50.20919],[2.61891,50.2093]]]}},{"type":"Feature","properties":{"k":"MIS","s":1.178},"geometry":{"type":"Polygon","coordinates":[[[2.61575,50.2107],[2.61681,50.21113],[2.61725,50.21075],[2.61748,50.21087],[2.61733,50.21008],[2.61641,50.20969],[2.61575,50.2107]]]}},{"type":"Feature","properties":{"k":"PPH","s":1.473},"geometry":{"type":"Polygon","coordinates":[[[2.6156,50.21074],[2.61509,50.21116],[2.61673,50.21188],[2.61698,50.21167],[2.61757,50.21195],[2.618,50.21138],[2.61727,50.21077],[2.6168,50.2112],[2.6156,50.21074]]]}},{"type":"Feature","properties":{"k":"MIS","s":1.186},"geometry":{"type":"Polygon","coordinates":[[[2.61199,50.21164],[2.61262,50.21218],[2.61488,50.21146],[2.6131,50.21116],[2.61199,50.21164]]]}},{"type":"Feature","properties":{"k":"PPH","s":3.18},"geometry":{"type":"Polygon","coordinates":[[[2.62714,50.21447],[2.62876,50.21338],[2.62715,50.21213],[2.62537,50.21344],[2.62714,50.21447]]]}}]}