{"type":"FeatureCollection","features":[{"type":"Feature","properties":{"k":"BTH","s":3.895},"geometry":{"type":"Polygon","coordinates":[[[2.95125,50.06534],[2.95019,50.06599],[2.95298,50.06881],[2.95415,50.06829],[2.95125,50.06534]]]}},{"type":"Feature","properties":{"k":"BTN","s":15.725},"geometry":{"type":"Polygon","coordinates":[[[2.9484,50.075],[2.94508,50.07212],[2.94453,50.07228],[2.94513,50.07282],[2.9445,50.07228],[2.94455,50.07225],[2.9442,50.07237],[2.94237,50.07333],[2.94036,50.07473],[2.94216,50.07634],[2.94486,50.07591],[2.94706,50.07591],[2.9484,50.075]]]}},{"type":"Feature","properties":{"k":"ORH","s":2.155},"geometry":{"type":"Polygon","coordinates":[[[2.94835,50.07598],[2.95093,50.07421],[2.95036,50.0737],[2.94713,50.07592],[2.94835,50.07598]]]}},{"type":"Feature","properties":{"k":"LIF","s":3.107},"geometry":{"type":"Polygon","coordinates":[[[2.94829,50.07823],[2.94854,50.07806],[2.95012,50.07633],[2.94888,50.07612],[2.94635,50.07876],[2.9475,50.07923],[2.94788,50.07884],[2.94735,50.07865],[2.94789,50.07809],[2.94829,50.07823]]]}},{"type":"Feature","properties":{"k":"BTH","s":3.248},"geometry":{"type":"Polygon","coordinates":[[[2.94888,50.07611],[2.94733,50.076],[2.94513,50.07827],[2.94632,50.07875],[2.94888,50.07611]]]}},{"type":"Feature","properties":{"k":"BTN","s":11.906},"geometry":{"type":"Polygon","coordinates":[[[2.94387,50.08048],[2.94475,50.08092],[2.9467,50.07891],[2.94513,50.07827],[2.94733,50.076],[2.94503,50.07602],[2.94395,50.07616],[2.94151,50.07865],[2.94387,50.08048]]]}},{"type":"Feature","properties":{"k":"MDI","s":0.055},"geometry":{"type":"Polygon","coordinates":[[[2.94744,50.07929],[2.9475,50.07923],[2.9467,50.07891],[2.94744,50.07929]]]}},{"type":"Feature","properties":{"k":"BTN","s":1.723},"geometry":{"type":"Polygon","coordinates":[[[2.94475,50.08092],[2.94558,50.08122],[2.94744,50.07929],[2.94664,50.07898],[2.94475,50.08092]]]}},{"type":"Feature","properties":{"k":"BTH","s":7.811},"geometry":{"type":"Polygon","coordinates":[[[2.94989,50.07945],[2.95005,50.07927],[2.94804,50.07868],[2.94558,50.08122],[2.946,50.08128],[2.94816,50.08241],[2.95077,50.07971],[2.94989,50.07945]]]}},{"type":"Feature","properties":{"k":"JAC","s":0.262},"geometry":{"type":"Polygon","coordinates":[[[2.94475,50.08107],[2.94685,50.08205],[2.94651,50.08164],[2.94475,50.08107]]]}},{"type":"Feature","properties":{"k":"BTN","s":7.426},"geometry":{"type":"Polygon","coordinates":[[[2.93817,50.08146],[2.94,50.08276],[2.94357,50.08028],[2.94183,50.07895],[2.93817,50.08146]]]}},{"type":"Feature","properties":{"k":"PTR","s":0.5},"geometry":{"type":"Polygon","coordinates":[[[2.94168,50.07885],[2.93806,50.08135],[2.93816,50.08145],[2.94181,50.07894],[2.94168,50.07885]]]}},{"type":"Feature","properties":{"k":"BTN","s":5.2},"geometry":{"type":"Polygon","coordinates":[[[2.93684,50.08027],[2.93806,50.08135],[2.94168,50.07885],[2.94017,50.07802],[2.93684,50.08027]]]}},{"type":"Feature","properties":{"k":"BTH","s":7.017},"geometry":{"type":"Polygon","coordinates":[[[2.93657,50.07691],[2.93507,50.07882],[2.93685,50.08026],[2.94019,50.07801],[2.93657,50.07691]]]}},{"type":"Feature","properties":{"k":"BTH","s":0.068},"geometry":{"type":"MultiPolygon","coordinates":[[[[2.93746,50.08078],[2.93808,50.08138],[2.93747,50.08077],[2.93746,50.08078]]],[[[2.93658,50.08153],[2.93695,50.08146],[2.93724,50.08098],[2.93658,50.08153]]]]}},{"type":"Feature","properties":{"k":"BTH","s":2.192},"geometry":{"type":"Polygon","coordinates":[[[2.93381,50.08049],[2.93474,50.08121],[2.934,50.08138],[2.93428,50.08201],[2.93652,50.08155],[2.93434,50.0798],[2.93381,50.08049]]]}},{"type":"Feature","properties":{"k":"MIS","s":2.818},"geometry":{"type":"Polygon","coordinates":[[[2.93685,50.08028],[2.93505,50.07883],[2.93434,50.0798],[2.93652,50.08155],[2.93747,50.08077],[2.93685,50.08028]]]}},{"type":"Feature","properties":{"k":"BTH","s":3.894},"geometry":{"type":"Polygon","coordinates":[[[2.93074,50.08095],[2.93157,50.08229],[2.9342,50.08234],[2.93298,50.08009],[2.93074,50.08095]]]}},{"type":"Feature","properties":{"k":"LBF","s":1.996},"geometry":{"type":"Polygon","coordinates":[[[2.92969,50.08049],[2.93013,50.08118],[2.93299,50.08009],[2.93276,50.07933],[2.92969,50.08049]]]}},{"type":"Feature","properties":{"k":"LBF","s":2.973},"geometry":{"type":"Polygon","coordinates":[[[2.92923,50.08066],[2.93274,50.07933],[2.93267,50.07894],[2.93193,50.07863],[2.92834,50.08],[2.92923,50.08066]]]}},{"type":"Feature","properties":{"k":"JAC","s":0.214},"geometry":{"type":"Polygon","coordinates":[[[2.93376,50.07841],[2.934,50.07808],[2.9332,50.07784],[2.93306,50.07807],[2.93376,50.07841]]]}},{"type":"Feature","properties":{"k":"PPH","s":0.181},"geometry":{"type":"Polygon","coordinates":[[[2.93516,50.07865],[2.93388,50.07828],[2.93379,50.07842],[2.93504,50.07881],[2.93516,50.07865]]]}},{"type":"Feature","properties":{"k":"JAC","s":0.76},"geometry":{"type":"Polygon","coordinates":[[[2.93334,50.07484],[2.93407,50.07447],[2.9332,50.07376],[2.93166,50.07411],[2.93183,50.07435],[2.93307,50.07402],[2.9329,50.07415],[2.93334,50.07484]]]}},{"type":"Feature","properties":{"k":"PPH","s":0.452},"geometry":{"type":"Polygon","coordinates":[[[2.92842,50.07782],[2.92807,50.0775],[2.92747,50.07779],[2.92794,50.07813],[2.92856,50.07786],[2.92903,50.07813],[2.92941,50.0779],[2.92911,50.07763],[2.92842,50.07782]]]}},{"type":"Feature","properties":{"k":"PPH","s":0.505},"geometry":{"type":"Polygon","coordinates":[[[2.92826,50.07669],[2.92877,50.07638],[2.92763,50.07583],[2.92733,50.07624],[2.92826,50.07669]]]}},{"type":"Feature","properties":{"k":"JAC","s":0.029},"geometry":{"type":"Polygon","coordinates":[]}},{"type":"Feature","properties":{"k":"BTN","s":2.704},"geometry":{"type":"Polygon","coordinates":[[[2.92969,50.0757],[2.9303,50.07534],[2.92772,50.07266],[2.92713,50.07385],[2.92969,50.0757]]]}},{"type":"Feature","properties":{"k":"LBF","s":2.777},"geometry":{"type":"Polygon","coordinates":[[[2.92872,50.07621],[2.92971,50.07571],[2.92713,50.07385],[2.92627,50.07481],[2.92782,50.07582],[2.92872,50.07621]]]}},{"type":"Feature","properties":{"k":"PPH","s":0.187},"geometry":{"type":"Polygon","coordinates":[[[2.92696,50.07532],[2.92618,50.07486],[2.92595,50.0751],[2.92664,50.0754],[2.92696,50.07532]]]}},{"type":"Feature","properties":{"k":"PPH","s":1.413},"geometry":{"type":"Polygon","coordinates":[[[2.92318,50.07779],[2.92526,50.07878],[2.92554,50.07831],[2.92483,50.07724],[2.92318,50.07779]]]}},{"type":"Feature","properties":{"k":"TTH","s":2.059},"geometry":{"type":"Polygon","coordinates":[[[2.9304,50.078],[2.93006,50.07824],[2.9304,50.07842],[2.92939,50.07873],[2.92805,50.07978],[2.92834,50.08],[2.93196,50.07861],[2.9304,50.078]]]}},{"type":"Feature","properties":{"k":"PPH","s":3.6},"geometry":{"type":"Polygon","coordinates":[[[2.92805,50.07978],[2.92871,50.07923],[2.92812,50.07878],[2.92731,50.07921],[2.92658,50.0785],[2.92572,50.07895],[2.92761,50.08129],[2.92923,50.08066],[2.92805,50.07978]]]}},{"type":"Feature","properties":{"k":"BTH","s":1.855},"geometry":{"type":"Polygon","coordinates":[[[2.92968,50.08049],[2.92761,50.08129],[2.92826,50.08213],[2.93029,50.08145],[2.92968,50.08049]]]}},{"type":"Feature","properties":{"k":"PPH","s":0.999},"geometry":{"type":"Polygon","coordinates":[[[2.92537,50.08106],[2.9268,50.08034],[2.9262,50.07976],[2.92477,50.08057],[2.92537,50.08106]]]}},{"type":"Feature","properties":{"k":"BTH","s":5.394},"geometry":{"type":"Polygon","coordinates":[[[2.92221,50.08052],[2.92521,50.07881],[2.9229,50.07769],[2.92033,50.07913],[2.92221,50.08052]]]}},{"type":"Feature","properties":{"k":"BTH","s":0.537},"geometry":{"type":"Polygon","coordinates":[[[2.92277,50.07754],[2.92009,50.07896],[2.92033,50.07913],[2.9229,50.07769],[2.92277,50.07754]]]}},{"type":"Feature","properties":{"k":"BTN","s":2.452},"geometry":{"type":"Polygon","coordinates":[[[2.9188,50.078],[2.9201,50.07895],[2.92276,50.07753],[2.92262,50.07737],[2.92084,50.07739],[2.9188,50.078]]]}},{"type":"Feature","properties":{"k":"PHF","s":11.111},"geometry":{"type":"Polygon","coordinates":[[[2.92332,50.08131],[2.91878,50.078],[2.91796,50.0783],[2.9166,50.07902],[2.91631,50.07919],[2.92088,50.08253],[2.92102,50.08263],[2.92332,50.08131]]]}},{"type":"Feature","properties":{"k":"BTH","s":1.2},"geometry":{"type":"Polygon","coordinates":[[[2.91612,50.07761],[2.91842,50.07593],[2.91758,50.07584],[2.91558,50.07731],[2.91612,50.07761]]]}},{"type":"Feature","properties":{"k":"BTH","s":1.142},"geometry":{"type":"Polygon","coordinates":[[[2.91531,50.07716],[2.9172,50.07578],[2.91644,50.07553],[2.91472,50.07683],[2.91531,50.07716]]]}},{"type":"Feature","properties":{"k":"BTH","s":7.433},"geometry":{"type":"Polygon","coordinates":[[[2.91268,50.07716],[2.91604,50.07929],[2.91756,50.07844],[2.91468,50.07683],[2.91646,50.07552],[2.91428,50.07501],[2.91323,50.07604],[2.91268,50.07716]]]}},{"type":"Feature","properties":{"k":"BTN","s":4.113},"geometry":{"type":"Polygon","coordinates":[[[2.91883,50.07595],[2.92025,50.07666],[2.92249,50.07391],[2.92091,50.07344],[2.91883,50.07595]]]}},{"type":"Feature","properties":{"k":"BTN","s":4.42},"geometry":{"type":"Polygon","coordinates":[[[2.91928,50.07619],[2.91842,50.07593],[2.91612,50.07764],[2.91756,50.07844],[2.91916,50.07782],[2.92045,50.07689],[2.91928,50.07619]]]}},{"type":"Feature","properties":{"k":"JAC","s":0.383},"geometry":{"type":"Polygon","coordinates":[[[2.92072,50.07735],[2.92078,50.07712],[2.92045,50.07689],[2.91916,50.07782],[2.92072,50.07735]]]}},{"type":"Feature","properties":{"k":"BOR","s":0.173},"geometry":{"type":"Polygon","coordinates":[[[2.92264,50.07726],[2.92265,50.07728],[2.92474,50.07656],[2.92348,50.07609],[2.92455,50.07656],[2.92264,50.07726]]]}},{"type":"Feature","properties":{"k":"JAC","s":0.647},"geometry":{"type":"Polygon","coordinates":[[[2.92264,50.07726],[2.92455,50.07656],[2.92344,50.07614],[2.92264,50.07726]]]}},{"type":"Feature","properties":{"k":"BTH","s":9.203},"geometry":{"type":"Polygon","coordinates":[[[2.92127,50.07728],[2.92253,50.0773],[2.92323,50.07631],[2.92173,50.07587],[2.92202,50.0755],[2.9235,50.07594],[2.92392,50.07563],[2.92576,50.07516],[2.92651,50.07447],[2.92135,50.07292],[2.92091,50.07344],[2.92249,50.07391],[2.92025,50.07666],[2.92127,50.07728]]]}},{"type":"Feature","properties":{"k":"TTH","s":0.528},"geometry":{"type":"Polygon","coordinates":[[[2.92173,50.07587],[2.92314,50.07629],[2.92329,50.07622],[2.9235,50.07594],[2.92202,50.0755],[2.92173,50.07587]]]}},{"type":"Feature","properties":{"k":"BTH","s":4.389},"geometry":{"type":"Polygon","coordinates":[[[2.91722,50.07142],[2.91974,50.07209],[2.92108,50.07048],[2.91791,50.06965],[2.91722,50.07142]]]}},{"type":"Feature","properties":{"k":"PTC","s":9.659},"geometry":{"type":"Polygon","coordinates":[[[2.92358,50.07023],[2.92191,50.06977],[2.91697,50.07565],[2.91883,50.07595],[2.92358,50.07023]]]}},{"type":"Feature","properties":{"k":"PTC","s":1.003},"geometry":{"type":"Polygon","coordinates":[[[2.91681,50.07559],[2.91694,50.07564],[2.92191,50.06977],[2.92172,50.06972],[2.91681,50.07559]]]}},{"type":"Feature","properties":{"k":"BTH","s":2.199},"geometry":{"type":"Polygon","coordinates":[[[2.91617,50.07536],[2.91681,50.07559],[2.91974,50.07209],[2.91908,50.07192],[2.91617,50.07536]]]}},{"type":"Feature","properties":{"k":"BTH","s":3.895},"geometry":{"type":"Polygon","coordinates":[[[2.91557,50.07519],[2.91844,50.07175],[2.91725,50.07143],[2.91441,50.07489],[2.91557,50.07519]]]}},{"type":"Feature","properties":{"k":"MIS","s":2.181},"geometry":{"type":"Polygon","coordinates":[[[2.91557,50.07519],[2.91617,50.07536],[2.91908,50.07192],[2.91844,50.07175],[2.91557,50.07519]]]}},{"type":"Feature","properties":{"k":"ORH","s":2.976},"geometry":{"type":"Polygon","coordinates":[[[2.91861,50.06831],[2.91992,50.06868],[2.92172,50.06645],[2.92051,50.06605],[2.91861,50.06831]]]}},{"type":"Feature","properties":{"k":"PHF","s":8.325},"geometry":{"type":"Polygon","coordinates":[[[2.92108,50.07048],[2.92363,50.06737],[2.92176,50.06645],[2.91991,50.0687],[2.91861,50.06831],[2.91798,50.06967],[2.92108,50.07048]]]}},{"type":"Feature","properties":{"k":"BTH","s":4.017},"geometry":{"type":"Polygon","coordinates":[[[2.9253,50.06815],[2.92371,50.0674],[2.92172,50.06972],[2.92357,50.07023],[2.9253,50.06815]]]}},{"type":"Feature","properties":{"k":"BTN","s":1.635},"geometry":{"type":"Polygon","coordinates":[[[2.92411,50.06547],[2.92394,50.06539],[2.92255,50.06679],[2.92373,50.06736],[2.92486,50.06614],[2.92386,50.06573],[2.92411,50.06547]]]}},{"type":"Feature","properties":{"k":"BTH","s":1.827},"geometry":{"type":"Polygon","coordinates":[[[2.92499,50.06796],[2.9262,50.06672],[2.92486,50.06614],[2.92373,50.06736],[2.92499,50.06796]]]}},{"type":"Feature","properties":{"k":"BTH","s":0.965},"geometry":{"type":"Polygon","coordinates":[[[2.92502,50.06798],[2.92574,50.06825],[2.92692,50.06703],[2.92623,50.06674],[2.92502,50.06798]]]}},{"type":"Feature","properties":{"k":"PTC","s":0.542},"geometry":{"type":"Polygon","coordinates":[[[2.9262,50.06842],[2.92662,50.06859],[2.92774,50.06742],[2.92735,50.06723],[2.9262,50.06842]]]}},{"type":"Feature","properties":{"k":"BTH","s":2.462},"geometry":{"type":"Polygon","coordinates":[[[2.92436,50.06524],[2.92386,50.06573],[2.92879,50.06789],[2.92857,50.06709],[2.92436,50.06524]]]}},{"type":"Feature","properties":{"k":"MIS","s":0.224},"geometry":{"type":"Polygon","coordinates":[[[2.92859,50.06673],[2.93027,50.06731],[2.93031,50.06716],[2.92854,50.06655],[2.92859,50.06673]]]}},{"type":"Feature","properties":{"k":"MIS","s":1.262},"geometry":{"type":"Polygon","coordinates":[[[2.929,50.06805],[2.93002,50.06837],[2.93027,50.06731],[2.92859,50.06673],[2.929,50.06805]]]}},{"type":"Feature","properties":{"k":"BTN","s":3.016},"geometry":{"type":"Polygon","coordinates":[[[2.92663,50.0686],[2.9291,50.07023],[2.92928,50.06949],[2.92879,50.06789],[2.92774,50.06742],[2.92663,50.0686]]]}},{"type":"Feature","properties":{"k":"JAC","s":0.282},"geometry":{"type":"Polygon","coordinates":[[[2.92913,50.06849],[2.92987,50.06873],[2.93002,50.06837],[2.929,50.06805],[2.92913,50.06849]]]}},{"type":"Feature","properties":{"k":"BTH","s":9.516},"geometry":{"type":"Polygon","coordinates":[[[2.92597,50.07224],[2.92813,50.06963],[2.92693,50.0688],[2.9253,50.06815],[2.92273,50.07125],[2.92597,50.07224]]]}},{"type":"Feature","properties":{"k":"PTC","s":1.104},"geometry":{"type":"Polygon","coordinates":[[[2.92761,50.07272],[2.92271,50.07126],[2.92258,50.07142],[2.92746,50.07296],[2.92761,50.07272]]]}},{"type":"Feature","properties":{"k":"NVT","s":3.203},"geometry":{"type":"Polygon","coordinates":[[[2.92694,50.07362],[2.92713,50.07368],[2.92747,50.07297],[2.92645,50.07266],[2.92255,50.0715],[2.922,50.07212],[2.92694,50.07362]]]}},{"type":"Feature","properties":{"k":"NVT","s":0.938},"geometry":{"type":"Polygon","coordinates":[[[2.92713,50.07368],[2.922,50.07212],[2.92186,50.07231],[2.92702,50.07387],[2.92713,50.07368]]]}},{"type":"Feature","properties":{"k":"BTH","s":2.607},"geometry":{"type":"Polygon","coordinates":[[[2.92143,50.07283],[2.92659,50.07437],[2.92702,50.07387],[2.9218,50.07237],[2.92143,50.07283]]]}},{"type":"Feature","properties":{"k":"BTH","s":0.476},"geometry":{"type":"Polygon","coordinates":[[[2.92651,50.07447],[2.92659,50.07437],[2.92142,50.07284],[2.92135,50.07292],[2.92651,50.07447]]]}},{"type":"Feature","properties":{"k":"BTN","s":1.309},"geometry":{"type":"Polygon","coordinates":[[[2.92885,50.07279],[2.92807,50.07196],[2.92772,50.07266],[2.92908,50.07407],[2.92982,50.07349],[2.92885,50.07279]]]}},{"type":"Feature","properties":{"k":"MIS","s":1.421},"geometry":{"type":"Polygon","coordinates":[[[2.93006,50.07192],[2.92939,50.07111],[2.92834,50.07161],[2.92807,50.07196],[2.92885,50.07279],[2.93006,50.07192]]]}},{"type":"Feature","properties":{"k":"MIS","s":3.695},"geometry":{"type":"Polygon","coordinates":[[[2.92837,50.07149],[2.92935,50.07102],[2.92886,50.07043],[2.92909,50.07031],[2.92813,50.06963],[2.92597,50.07224],[2.9276,50.07272],[2.92837,50.07149]]]}},{"type":"Feature","properties":{"k":"PPH","s":1.255},"geometry":{"type":"Polygon","coordinates":[[[2.9294,50.07091],[2.93037,50.07195],[2.9314,50.07132],[2.93041,50.07039],[2.9294,50.07091]]]}},{"type":"Feature","properties":{"k":"BTH","s":1.7},"geometry":{"type":"Polygon","coordinates":[[[2.93172,50.07122],[2.93392,50.07303],[2.93467,50.07273],[2.93236,50.07079],[2.93172,50.07122]]]}},{"type":"Feature","properties":{"k":"LUZ","s":0.487},"geometry":{"type":"Polygon","coordinates":[[[2.93276,50.07257],[2.93226,50.07277],[2.9324,50.07291],[2.93329,50.07252],[2.93162,50.07128],[2.93276,50.07257]]]}},{"type":"Feature","properties":{"k":"PPH","s":0.641},"geometry":{"type":"Polygon","coordinates":[[[2.93162,50.07128],[2.93123,50.07152],[2.93226,50.07277],[2.93276,50.07257],[2.93162,50.07128]]]}},{"type":"Feature","properties":{"k":"PPH","s":0.304},"geometry":{"type":"Polygon","coordinates":[[[2.9321,50.07351],[2.93234,50.07394],[2.93319,50.07375],[2.93276,50.07333],[2.9321,50.07351]]]}},{"type":"Feature","properties":{"k":"BTN","s":0.578},"geometry":{"type":"Polygon","coordinates":[[[2.93293,50.07345],[2.93391,50.07303],[2.93329,50.07252],[2.9324,50.07291],[2.93293,50.07345]]]}},{"type":"Feature","properties":{"k":"BTN","s":4.345},"geometry":{"type":"Polygon","coordinates":[[[2.93659,50.07193],[2.93381,50.06995],[2.93237,50.07078],[2.93467,50.07273],[2.93659,50.07193]]]}},{"type":"Feature","properties":{"k":"BTH","s":3.156},"geometry":{"type":"Polygon","coordinates":[[[2.93245,50.07057],[2.92998,50.0687],[2.92923,50.07018],[2.9294,50.07091],[2.93041,50.07039],[2.9314,50.07132],[2.93245,50.07057]]]}},{"type":"Feature","properties":{"k":"BTN","s":0.946},"geometry":{"type":"Polygon","coordinates":[[[2.93376,50.0699],[2.93401,50.06978],[2.9304,50.06702],[2.93034,50.06735],[2.93376,50.0699]]]}},{"type":"Feature","properties":{"k":"BTH","s":3.817},"geometry":{"type":"Polygon","coordinates":[[[2.93376,50.0699],[2.93035,50.06736],[2.92998,50.0687],[2.93245,50.07057],[2.93376,50.0699]]]}},{"type":"Feature","properties":{"k":"BTH","s":2.083},"geometry":{"type":"Polygon","coordinates":[[[2.93467,50.06945],[2.93512,50.0692],[2.93067,50.06582],[2.93058,50.06636],[2.93467,50.06945]]]}},{"type":"Feature","properties":{"k":"LBF","s":2.425},"geometry":{"type":"Polygon","coordinates":[[[2.93275,50.06803],[2.93058,50.06636],[2.93042,50.06704],[2.93401,50.06978],[2.93467,50.06946],[2.93275,50.06803]]]}},{"type":"Feature","properties":{"k":"MIS","s":1.435},"geometry":{"type":"Polygon","coordinates":[[[2.9318,50.06516],[2.931,50.06458],[2.93089,50.06481],[2.93606,50.06876],[2.93637,50.06863],[2.9318,50.06516]]]}},{"type":"Feature","properties":{"k":"MIS","s":2.316},"geometry":{"type":"Polygon","coordinates":[[[2.93637,50.06863],[2.93684,50.06844],[2.93124,50.06428],[2.931,50.06458],[2.93637,50.06863]]]}},{"type":"Feature","properties":{"k":"BTN","s":4.486},"geometry":{"type":"Polygon","coordinates":[[[2.93067,50.06582],[2.93512,50.0692],[2.93606,50.06876],[2.93089,50.06481],[2.93067,50.06582]]]}},{"type":"Feature","properties":{"k":"BTH","s":1.51},"geometry":{"type":"Polygon","coordinates":[[[2.93741,50.06829],[2.93404,50.06573],[2.93362,50.06597],[2.93695,50.06841],[2.93741,50.06829]]]}},{"type":"Feature","properties":{"k":"BTH","s":1.597},"geometry":{"type":"Polygon","coordinates":[[[2.93643,50.06207],[2.93542,50.06127],[2.93485,50.06171],[2.93743,50.06368],[2.93748,50.06285],[2.93643,50.06207]]]}},{"type":"Feature","properties":{"k":"LBF","s":3.567},"geometry":{"type":"Polygon","coordinates":[[[2.93363,50.06239],[2.93649,50.06458],[2.93743,50.06368],[2.93485,50.06171],[2.93363,50.06239]]]}},{"type":"Feature","properties":{"k":"BTH","s":2.189},"geometry":{"type":"Polygon","coordinates":[[[2.93547,50.06486],[2.93624,50.06439],[2.93363,50.06239],[2.93289,50.0629],[2.93547,50.06486]]]}},{"type":"Feature","properties":{"k":"BTH","s":0.895},"geometry":{"type":"Polygon","coordinates":[[[2.93514,50.06506],[2.93547,50.06486],[2.93289,50.0629],[2.93257,50.06309],[2.93514,50.06506]]]}},{"type":"Feature","properties":{"k":"BTH","s":4.331},"geometry":{"type":"Polygon","coordinates":[[[2.93515,50.06507],[2.93257,50.06309],[2.93124,50.06427],[2.93353,50.06601],[2.93515,50.06507]]]}},{"type":"Feature","properties":{"k":"BTH","s":3.559},"geometry":{"type":"Polygon","coordinates":[[[2.93031,50.06716],[2.93065,50.06543],[2.92784,50.06426],[2.92854,50.06655],[2.93031,50.06716]]]}},{"type":"Feature","properties":{"k":"BTH","s":0.016},"geometry":{"type":"Polygon","coordinates":[[[2.92843,50.06451],[2.92869,50.06459],[2.92783,50.06423],[2.92843,50.06451]]]}},{"type":"Feature","properties":{"k":"PTC","s":2.193},"geometry":{"type":"Polygon","coordinates":[[[2.92834,50.0663],[2.92483,50.06473],[2.92436,50.06524],[2.92857,50.06709],[2.92834,50.0663]]]}},{"type":"Feature","properties":{"k":"PTC","s":2.747},"geometry":{"type":"Polygon","coordinates":[[[2.92791,50.0649],[2.92563,50.0639],[2.92483,50.06473],[2.92834,50.0663],[2.92791,50.0649]]]}},{"type":"Feature","properties":{"k":"PTC","s":0.894},"geometry":{"type":"MultiPolygon","coordinates":[[[[2.92788,50.06487],[2.9277,50.06423],[2.92751,50.06415],[2.92788,50.06487]]],[[[2.92601,50.06348],[2.92563,50.06388],[2.92579,50.06394],[2.92615,50.06359],[2.92602,50.0635],[2.92621,50.06359],[2.9258,50.06397],[2.92772,50.06482],[2.92751,50.06415],[2.92601,50.06348]]]]}},{"type":"Feature","properties":{"k":"BTH","s":5.05},"geometry":{"type":"Polygon","coordinates":[[[2.92379,50.0625],[2.9228,50.0633],[2.92364,50.06366],[2.92333,50.06398],[2.92251,50.06364],[2.92178,50.06449],[2.9241,50.06546],[2.92601,50.06348],[2.92768,50.06416],[2.92379,50.0625]]]}},{"type":"Feature","properties":{"k":"BTH","s":0.499},"geometry":{"type":"Polygon","coordinates":[[[2.93679,50.06169],[2.93563,50.06086],[2.93544,50.06126],[2.93643,50.06204],[2.93679,50.06169]]]}},{"type":"Feature","properties":{"k":"LBF","s":0.01},"geometry":{"type":"MultiPolygon","coordinates":[[[[2.93504,50.06158],[2.93497,50.06161],[2.93503,50.06159],[2.93504,50.06158]]],[[[2.93546,50.06108],[2.93555,50.06089],[2.93521,50.06145],[2.93546,50.06108]]]]}},{"type":"Feature","properties":{"k":"BTH","s":1.232},"geometry":{"type":"Polygon","coordinates":[[[2.92134,50.06504],[2.92342,50.06591],[2.92394,50.06539],[2.92179,50.0645],[2.92134,50.06504]]]}},{"type":"Feature","properties":{"k":"LBF","s":1.023},"geometry":{"type":"Polygon","coordinates":[[[2.92303,50.06631],[2.92098,50.06548],[2.92057,50.06598],[2.92255,50.06679],[2.92303,50.06631]]]}},{"type":"Feature","properties":{"k":"BTN","s":0.321},"geometry":{"type":"Polygon","coordinates":[[[2.92332,50.08269],[2.92298,50.08288],[2.9238,50.08359],[2.92414,50.0834],[2.92332,50.08269]]]}},{"type":"Feature","properties":{"k":"BTH","s":0.349},"geometry":{"type":"Polygon","coordinates":[[[2.92242,50.08191],[2.92209,50.0821],[2.92298,50.08288],[2.92332,50.08269],[2.92242,50.08191]]]}},{"type":"Feature","properties":{"k":"BTN","s":6.557},"geometry":{"type":"Polygon","coordinates":[[[2.92537,50.08106],[2.92476,50.08058],[2.92242,50.08191],[2.92243,50.08192],[2.92419,50.08344],[2.92774,50.08155],[2.92679,50.08034],[2.92537,50.08106]]]}},{"type":"Feature","properties":{"k":"BTH","s":5.935},"geometry":{"type":"Polygon","coordinates":[[[2.92578,50.08482],[2.92892,50.08308],[2.92772,50.08153],[2.92419,50.08344],[2.92578,50.08482]]]}},{"type":"Feature","properties":{"k":"BTH","s":0.746},"geometry":{"type":"Polygon","coordinates":[[[2.93029,50.08145],[2.92829,50.08218],[2.9286,50.08255],[2.93051,50.08183],[2.93029,50.08145]]]}},{"type":"Feature","properties":{"k":"BTH","s":2.142},"geometry":{"type":"Polygon","coordinates":[[[2.92953,50.08378],[2.9307,50.08336],[2.93078,50.08278],[2.93108,50.08277],[2.93051,50.08183],[2.9286,50.08255],[2.92953,50.08378]]]}},{"type":"Feature","properties":{"k":"BTH","s":2.146},"geometry":{"type":"Polygon","coordinates":[[[2.92824,50.0847],[2.9282,50.08435],[2.92979,50.08422],[2.92892,50.0831],[2.92581,50.08481],[2.92824,50.0847]]]}},{"type":"Feature","properties":{"k":"BTH","s":0.004},"geometry":{"type":"Polygon","coordinates":[]}},{"type":"Feature","properties":{"k":"PTC","s":0.313},"geometry":{"type":"Polygon","coordinates":[[[2.9238,50.08359],[2.92458,50.08427],[2.92494,50.08409],[2.92414,50.0834],[2.9238,50.08359]]]}},{"type":"Feature","properties":{"k":"BTH","s":0.461},"geometry":{"type":"Polygon","coordinates":[[[2.92592,50.08496],[2.92494,50.08408],[2.92459,50.08428],[2.92588,50.0854],[2.92592,50.08496]]]}},{"type":"Feature","properties":{"k":"MIS","s":0.005},"geometry":{"type":"Polygon","coordinates":[[[2.93386,50.08474],[2.93386,50.08473],[2.93281,50.08462],[2.93386,50.08474]]]}},{"type":"Feature","properties":{"k":"BTH","s":0.014},"geometry":{"type":"Polygon","coordinates":[[[2.93116,50.08453],[2.93216,50.08476],[2.93114,50.08449],[2.93116,50.08453]]]}},{"type":"Feature","properties":{"k":"PTC","s":0.001},"geometry":{"type":"Polygon","coordinates":[]}},{"type":"Feature","properties":{"k":"BTH","s":3.588},"geometry":{"type":"Polygon","coordinates":[[[2.9322,50.08477],[2.93224,50.08456],[2.93386,50.08474],[2.93425,50.08323],[2.9319,50.08316],[2.93103,50.08295],[2.93093,50.08442],[2.9322,50.08477]]]}},{"type":"Feature","properties":{"k":"PTC","s":0.906},"geometry":{"type":"Polygon","coordinates":[[[2.9307,50.08336],[2.92953,50.08378],[2.92998,50.08421],[2.93093,50.08442],[2.93103,50.08295],[2.93081,50.08292],[2.9307,50.08336]]]}},{"type":"Feature","properties":{"k":"BTH","s":1.245},"geometry":{"type":"Polygon","coordinates":[[[2.9321,50.08315],[2.93074,50.08095],[2.93013,50.08118],[2.93123,50.08298],[2.9321,50.08315]]]}},{"type":"Feature","properties":{"k":"BTH","s":1.633},"geometry":{"type":"Polygon","coordinates":[[[2.9342,50.08234],[2.93157,50.08229],[2.9321,50.08315],[2.9343,50.08317],[2.9342,50.08234]]]}},{"type":"Feature","properties":{"k":"LBF","s":0.007},"geometry":{"type":"Polygon","coordinates":[[[2.94121,50.08354],[2.94094,50.08339],[2.94117,50.08355],[2.94076,50.08381],[2.94121,50.08354]]]}},{"type":"Feature","properties":{"k":"TTH","s":0.0},"geometry":{"type":"Polygon","coordinates":[]}},{"type":"Feature","properties":{"k":"BTH","s":4.503},"geometry":{"type":"Polygon","coordinates":[[[2.94346,50.08036],[2.94001,50.08277],[2.94122,50.08352],[2.94483,50.08102],[2.94346,50.08036]]]}},{"type":"Feature","properties":{"k":"BTH","s":10.753},"geometry":{"type":"Polygon","coordinates":[[[2.94475,50.08107],[2.94076,50.08381],[2.9417,50.08425],[2.94327,50.08546],[2.94778,50.08237],[2.94754,50.08224],[2.94675,50.0828],[2.94625,50.08254],[2.94684,50.08212],[2.94475,50.08107]]]}},{"type":"Feature","properties":{"k":"LBF","s":2.225},"geometry":{"type":"Polygon","coordinates":[[[2.9479,50.08245],[2.94537,50.08423],[2.94622,50.08472],[2.94881,50.08291],[2.9479,50.08245]]]}},{"type":"Feature","properties":{"k":"BTN","s":1.116},"geometry":{"type":"Polygon","coordinates":[[[2.94919,50.0832],[2.94881,50.08291],[2.94623,50.08473],[2.94666,50.08498],[2.94919,50.0832]]]}},{"type":"Feature","properties":{"k":"BTN","s":0.01},"geometry":{"type":"Polygon","coordinates":[[[2.94738,50.08457],[2.94737,50.08457],[2.94992,50.08627],[2.94738,50.08457]]]}},{"type":"Feature","properties":{"k":"BTH","s":2.356},"geometry":{"type":"Polygon","coordinates":[[[2.94563,50.08438],[2.94363,50.08575],[2.94398,50.08616],[2.94409,50.08609],[2.94521,50.08666],[2.94537,50.08585],[2.94666,50.08498],[2.94563,50.08438]]]}},{"type":"Feature","properties":{"k":"PPH","s":0.739},"geometry":{"type":"Polygon","coordinates":[[[2.94762,50.08246],[2.94327,50.08546],[2.94341,50.08557],[2.9479,50.08245],[2.94762,50.08246]]]}},{"type":"Feature","properties":{"k":"BTN","s":0.0},"geometry":{"type":"Polygon","coordinates":[]}},{"type":"Feature","properties":{"k":"PTC","s":0.003},"geometry":{"type":"Polygon","coordinates":[[[2.94363,50.08575],[2.94355,50.08569],[2.94377,50.08593],[2.94363,50.08575]]]}},{"type":"Feature","properties":{"k":"BTN","s":3.742},"geometry":{"type":"Polygon","coordinates":[[[2.94998,50.0862],[2.95115,50.08521],[2.94868,50.08356],[2.94734,50.08449],[2.94998,50.0862]]]}},{"type":"Feature","properties":{"k":"ORH","s":1.286},"geometry":{"type":"Polygon","coordinates":[[[2.95116,50.08519],[2.95145,50.08469],[2.94919,50.0832],[2.94868,50.08355],[2.95116,50.08519]]]}},{"type":"Feature","properties":{"k":"PHF","s":0.001},"geometry":{"type":"Polygon","coordinates":[[[2.95196,50.08415],[2.95207,50.08401],[2.95195,50.08414],[2.95196,50.08415]]]}},{"type":"Feature","properties":{"k":"BTH","s":0.971},"geometry":{"type":"Polygon","coordinates":[[[2.94945,50.06712],[2.94901,50.06672],[2.94871,50.06686],[2.95137,50.0695],[2.95168,50.06936],[2.94945,50.06712]]]}},{"type":"Feature","properties":{"k":"BTH","s":0.949},"geometry":{"type":"Polygon","coordinates":[[[2.94871,50.06686],[2.94842,50.067],[2.95107,50.06966],[2.95137,50.0695],[2.94871,50.06686]]]}},{"type":"Feature","properties":{"k":"ORP","s":1.252},"geometry":{"type":"Polygon","coordinates":[[[2.95107,50.06966],[2.94842,50.067],[2.948,50.06717],[2.95079,50.06981],[2.95107,50.06966]]]}},{"type":"Feature","properties":{"k":"LIF","s":6.543},"geometry":{"type":"Polygon","coordinates":[[[2.95638,50.07293],[2.95764,50.07204],[2.95378,50.06857],[2.95217,50.06919],[2.95638,50.07293]]]}},{"type":"Feature","properties":{"k":"BTH","s":3.85},"geometry":{"type":"Polygon","coordinates":[[[2.95218,50.06919],[2.95132,50.0696],[2.95568,50.07341],[2.95637,50.07292],[2.95218,50.06919]]]}},{"type":"Feature","properties":{"k":"BTH","s":4.628},"geometry":{"type":"Polygon","coordinates":[[[2.95378,50.06857],[2.95762,50.07204],[2.95917,50.07095],[2.958,50.07002],[2.95702,50.07009],[2.95573,50.06969],[2.9548,50.0681],[2.95378,50.06857]]]}},{"type":"Feature","properties":{"k":"BTH","s":3.399},"geometry":{"type":"Polygon","coordinates":[[[2.95229,50.06495],[2.95225,50.06473],[2.95126,50.06534],[2.95416,50.06829],[2.95484,50.06798],[2.95387,50.06634],[2.95229,50.06495]]]}},{"type":"Feature","properties":{"k":"LBF","s":4.027},"geometry":{"type":"Polygon","coordinates":[[[2.95168,50.06936],[2.95298,50.06881],[2.9502,50.066],[2.94902,50.06672],[2.95168,50.06936]]]}},{"type":"Feature","properties":{"k":"PTC","s":23.139},"geometry":{"type":"Polygon","coordinates":[[[2.95231,50.08266],[2.95264,50.08228],[2.95358,50.08262],[2.95372,50.08252],[2.95676,50.07905],[2.95414,50.07748],[2.95332,50.07717],[2.94814,50.08243],[2.95144,50.08464],[2.95303,50.08302],[2.95231,50.08266]]]}},{"type":"Feature","properties":{"k":"BTH","s":2.391},"geometry":{"type":"Polygon","coordinates":[[[2.94989,50.07945],[2.95077,50.07971],[2.95318,50.07724],[2.95232,50.07686],[2.94989,50.07945]]]}},{"type":"Feature","properties":{"k":"LBF","s":4.805},"geometry":{"type":"Polygon","coordinates":[[[2.95032,50.07636],[2.94804,50.07868],[2.95005,50.07927],[2.95232,50.07686],[2.95032,50.07636]]]}},{"type":"Feature","properties":{"k":"ORH","s":1.209},"geometry":{"type":"Polygon","coordinates":[[[2.95185,50.07503],[2.95012,50.07626],[2.95116,50.07649],[2.95249,50.0756],[2.95185,50.07503]]]}},{"type":"Feature","properties":{"k":"BTH","s":2.548},"geometry":{"type":"Polygon","coordinates":[[[2.95012,50.07626],[2.95185,50.07503],[2.95093,50.07421],[2.94835,50.07599],[2.95012,50.07626]]]}},{"type":"Feature","properties":{"k":"JAC","s":0.495},"geometry":{"type":"Polygon","coordinates":[[[2.93842,50.07673],[2.93742,50.07657],[2.93723,50.07675],[2.9378,50.07693],[2.93765,50.07712],[2.93829,50.07733],[2.93896,50.07664],[2.93842,50.07673]]]}},{"type":"Feature","properties":{"k":"BTH","s":2.794},"geometry":{"type":"Polygon","coordinates":[[[2.94056,50.07811],[2.9422,50.07644],[2.93896,50.07665],[2.93831,50.07733],[2.94056,50.07811]]]}},{"type":"Feature","properties":{"k":"LIF","s":6.444},"geometry":{"type":"Polygon","coordinates":[[[2.95322,50.07708],[2.95715,50.07435],[2.95583,50.07336],[2.95134,50.07646],[2.95322,50.07708]]]}},{"type":"Feature","properties":{"k":"BTH","s":7.195},"geometry":{"type":"Polygon","coordinates":[[[2.96098,50.0761],[2.96179,50.07547],[2.95875,50.07313],[2.9583,50.07344],[2.95703,50.07249],[2.95638,50.07295],[2.95775,50.07394],[2.95324,50.07709],[2.95381,50.0773],[2.95811,50.07431],[2.9606,50.07623],[2.96086,50.07602],[2.96098,50.0761]]]}},{"type":"Feature","properties":{"k":"LIF","s":4.53},"geometry":{"type":"Polygon","coordinates":[[[2.95381,50.0773],[2.95492,50.07789],[2.95903,50.07504],[2.95811,50.07431],[2.95381,50.0773]]]}},{"type":"Feature","properties":{"k":"ORH","s":2.078},"geometry":{"type":"Polygon","coordinates":[[[2.9584,50.07696],[2.95767,50.07639],[2.95521,50.07807],[2.9561,50.07854],[2.9584,50.07696]]]}},{"type":"Feature","properties":{"k":"BTH","s":0.753},"geometry":{"type":"Polygon","coordinates":[[[2.95764,50.07641],[2.95736,50.0762],[2.95492,50.07789],[2.95521,50.07807],[2.95764,50.07641]]]}},{"type":"Feature","properties":{"k":"BTN","s":3.209},"geometry":{"type":"Polygon","coordinates":[[[2.95902,50.07505],[2.95738,50.07618],[2.95914,50.07751],[2.96066,50.07631],[2.95902,50.07505]]]}},{"type":"Feature","properties":{"k":"BTH","s":2.157},"geometry":{"type":"Polygon","coordinates":[[[2.96299,50.0745],[2.96342,50.07422],[2.95929,50.07097],[2.95882,50.07128],[2.96299,50.0745]]]}},{"type":"Feature","properties":{"k":"BTN","s":2.563},"geometry":{"type":"Polygon","coordinates":[[[2.96038,50.07327],[2.96248,50.0749],[2.96299,50.07451],[2.95881,50.07129],[2.95828,50.07163],[2.96038,50.07327]]]}},{"type":"Feature","properties":{"k":"BTH","s":3.736},"geometry":{"type":"Polygon","coordinates":[[[2.9575,50.07216],[2.96179,50.07547],[2.96247,50.07491],[2.95826,50.07163],[2.9575,50.07216]]]}},{"type":"Feature","properties":{"k":"TTH","s":0.89},"geometry":{"type":"Polygon","coordinates":[[[2.9564,50.07296],[2.95583,50.07336],[2.95715,50.07435],[2.95775,50.07394],[2.9564,50.07296]]]}},{"type":"Feature","properties":{"k":"CZH","s":0.224},"geometry":{"type":"Polygon","coordinates":[[[2.95972,50.07057],[2.95849,50.07039],[2.95917,50.07095],[2.95972,50.07057]]]}},{"type":"Feature","properties":{"k":"BTN","s":6.745},"geometry":{"type":"Polygon","coordinates":[[[2.95215,50.07225],[2.95442,50.07427],[2.95569,50.07342],[2.95132,50.0696],[2.95005,50.07038],[2.95215,50.07225]]]}},{"type":"Feature","properties":{"k":"BTH","s":5.339},"geometry":{"type":"Polygon","coordinates":[[[2.93827,50.07123],[2.9415,50.07388],[2.94281,50.07302],[2.94025,50.07041],[2.93827,50.07123]]]}},{"type":"Feature","properties":{"k":"BTH","s":4.997},"geometry":{"type":"Polygon","coordinates":[[[2.9415,50.07387],[2.93827,50.07123],[2.93679,50.07185],[2.94026,50.07475],[2.9415,50.07387]]]}},{"type":"Feature","properties":{"k":"LIF","s":8.488},"geometry":{"type":"Polygon","coordinates":[[[2.93499,50.07513],[2.93839,50.07375],[2.93987,50.07498],[2.94026,50.07475],[2.93679,50.07185],[2.93296,50.07344],[2.93499,50.07513]]]}},{"type":"Feature","properties":{"k":"BTH","s":2.58},"geometry":{"type":"Polygon","coordinates":[[[2.93983,50.07496],[2.93839,50.07376],[2.93667,50.07445],[2.93826,50.07577],[2.93983,50.07496]]]}},{"type":"Feature","properties":{"k":"JAC","s":2.208},"geometry":{"type":"Polygon","coordinates":[[[2.93787,50.07608],[2.93742,50.07646],[2.9382,50.07662],[2.93975,50.07644],[2.94116,50.07646],[2.9397,50.07515],[2.93787,50.07608]]]}},{"type":"Feature","properties":{"k":"LIF","s":0.005},"geometry":{"type":"Polygon","coordinates":[[[2.9632,50.07442],[2.96376,50.07411],[2.96331,50.07434],[2.9632,50.07442]]]}},{"type":"Feature","properties":{"k":"BTH","s":1.953},"geometry":{"type":"Polygon","coordinates":[[[2.95601,50.0786],[2.95687,50.07907],[2.95914,50.07751],[2.9584,50.07696],[2.95601,50.0786]]]}},{"type":"Feature","properties":{"k":"BTH","s":10.938},"geometry":{"type":"Polygon","coordinates":[[[2.94774,50.07138],[2.95252,50.07559],[2.95442,50.07428],[2.95004,50.07037],[2.94774,50.07138]]]}},{"type":"Feature","properties":{"k":"MIS","s":5.003},"geometry":{"type":"Polygon","coordinates":[[[2.95069,50.06987],[2.948,50.06717],[2.94637,50.06785],[2.94933,50.07069],[2.95069,50.06987]]]}},{"type":"Feature","properties":{"k":"BTN","s":4.865},"geometry":{"type":"Polygon","coordinates":[[[2.94425,50.06587],[2.94301,50.065],[2.94191,50.06594],[2.94526,50.06829],[2.94683,50.06766],[2.94425,50.06587]]]}},{"type":"Feature","properties":{"k":"LBF","s":5.918},"geometry":{"type":"Polygon","coordinates":[[[2.94526,50.06829],[2.94191,50.06594],[2.94048,50.0674],[2.94308,50.06921],[2.94526,50.06829]]]}},{"type":"Feature","properties":{"k":"BTN","s":6.07},"geometry":{"type":"Polygon","coordinates":[[[2.94317,50.06918],[2.94576,50.07185],[2.94792,50.07122],[2.94508,50.06837],[2.94317,50.06918]]]}},{"type":"Feature","properties":{"k":"BTH","s":1.279},"geometry":{"type":"Polygon","coordinates":[[[2.94318,50.07629],[2.9422,50.07644],[2.94055,50.07812],[2.9411,50.07842],[2.94318,50.07629]]]}},{"type":"Feature","properties":{"k":"LBF","s":1.177},"geometry":{"type":"Polygon","coordinates":[[[2.94151,50.07865],[2.94395,50.07616],[2.94317,50.0763],[2.9411,50.07842],[2.94151,50.07865]]]}},{"type":"Feature","properties":{"k":"BTH","s":2.633},"geometry":{"type":"Polygon","coordinates":[[[2.93638,50.06872],[2.93934,50.07079],[2.94034,50.07037],[2.93746,50.06836],[2.93638,50.06872]]]}},{"type":"Feature","properties":{"k":"BTN","s":5.925},"geometry":{"type":"Polygon","coordinates":[[[2.94112,50.07005],[2.9436,50.07259],[2.94576,50.07185],[2.94317,50.06918],[2.94112,50.07005]]]}},{"type":"Feature","properties":{"k":"BTN","s":1.393},"geometry":{"type":"Polygon","coordinates":[[[2.94074,50.06699],[2.93867,50.06541],[2.93819,50.06587],[2.94027,50.06747],[2.94074,50.06699]]]}},{"type":"Feature","properties":{"k":"BTN","s":7.142},"geometry":{"type":"Polygon","coordinates":[[[2.94771,50.07136],[2.94508,50.07212],[2.9484,50.075],[2.95031,50.07369],[2.94771,50.07136]]]}},{"type":"Feature","properties":{"k":"PHI","s":4.304},"geometry":{"type":"Polygon","coordinates":[[[2.94932,50.07069],[2.94636,50.06785],[2.94508,50.06837],[2.94792,50.07122],[2.94932,50.07069]]]}},{"type":"Feature","properties":{"k":"BTN","s":2.493},"geometry":{"type":"Polygon","coordinates":[[[2.94025,50.07041],[2.94285,50.07303],[2.9436,50.07259],[2.94112,50.07005],[2.94025,50.07041]]]}},{"type":"Feature","properties":{"k":"BTN","s":6.408},"geometry":{"type":"Polygon","coordinates":[[[2.93746,50.06836],[2.94034,50.07037],[2.94308,50.06921],[2.94048,50.0674],[2.93976,50.06783],[2.93746,50.06836]]]}},{"type":"Feature","properties":{"k":"BTH","s":0.466},"geometry":{"type":"Polygon","coordinates":[[[2.93904,50.06799],[2.93945,50.06788],[2.9374,50.06644],[2.93718,50.06657],[2.93904,50.06799]]]}},{"type":"Feature","properties":{"k":"JAC","s":0.752},"geometry":{"type":"Polygon","coordinates":[[[2.93867,50.0514],[2.93838,50.05158],[2.94048,50.05284],[2.94081,50.05248],[2.93867,50.0514]]]}},{"type":"Feature","properties":{"k":"BTH","s":1.927},"geometry":{"type":"Polygon","coordinates":[[[2.93787,50.05426],[2.93619,50.05314],[2.93519,50.05397],[2.93706,50.05499],[2.93787,50.05426]]]}},{"type":"Feature","properties":{"k":"BTH","s":3.535},"geometry":{"type":"Polygon","coordinates":[[[2.93856,50.05594],[2.93878,50.05543],[2.93796,50.05492],[2.93846,50.0546],[2.94003,50.05561],[2.94089,50.05539],[2.93676,50.05271],[2.93619,50.05314],[2.93787,50.05426],[2.93702,50.05503],[2.93856,50.05594]]]}},{"type":"Feature","properties":{"k":"LBF","s":1.603},"geometry":{"type":"Polygon","coordinates":[[[2.93753,50.05211],[2.93676,50.05266],[2.93851,50.05384],[2.93942,50.05334],[2.93753,50.05211]]]}},{"type":"Feature","properties":{"k":"PTC","s":4.605},"geometry":{"type":"Polygon","coordinates":[[[2.94323,50.05478],[2.94024,50.05281],[2.93851,50.05384],[2.94089,50.05539],[2.94323,50.05478]]]}},{"type":"Feature","properties":{"k":"LBF","s":1.676},"geometry":{"type":"Polygon","coordinates":[[[2.94024,50.05281],[2.94323,50.05478],[2.94382,50.05462],[2.94295,50.05418],[2.9427,50.05359],[2.94111,50.05261],[2.94081,50.05248],[2.94048,50.05284],[2.94024,50.05281]]]}},{"type":"Feature","properties":{"k":"BTH","s":3.49},"geometry":{"type":"Polygon","coordinates":[[[2.93928,50.05108],[2.94533,50.0542],[2.9457,50.05411],[2.94385,50.05286],[2.9423,50.05214],[2.94158,50.05136],[2.94168,50.05086],[2.94044,50.05038],[2.93928,50.05108]]]}},{"type":"Feature","properties":{"k":"BTH","s":4.074},"geometry":{"type":"Polygon","coordinates":[[[2.94697,50.05488],[2.94768,50.05466],[2.94827,50.05547],[2.9493,50.05591],[2.9493,50.05551],[2.94949,50.05546],[2.94979,50.05601],[2.95027,50.05591],[2.94866,50.05344],[2.94545,50.05422],[2.94697,50.05488]]]}},{"type":"Feature","properties":{"k":"BTH","s":9.547},"geometry":{"type":"Polygon","coordinates":[[[2.94103,50.05553],[2.9479,50.05798],[2.94869,50.05617],[2.94632,50.05526],[2.94572,50.05506],[2.94474,50.05507],[2.94385,50.05463],[2.9408,50.05544],[2.94103,50.05553]]]}},{"type":"Feature","properties":{"k":"BTH","s":2.161},"geometry":{"type":"Polygon","coordinates":[[[2.9408,50.05545],[2.94024,50.0556],[2.94774,50.05828],[2.9479,50.05798],[2.9408,50.05545]]]}},{"type":"Feature","properties":{"k":"LBF","s":3.898},"geometry":{"type":"Polygon","coordinates":[[[2.94024,50.0556],[2.93918,50.05584],[2.94752,50.05884],[2.94774,50.05828],[2.94024,50.0556]]]}},{"type":"Feature","properties":{"k":"BTH","s":2.165},"geometry":{"type":"Polygon","coordinates":[[[2.93865,50.05598],[2.94205,50.05718],[2.9474,50.05911],[2.94754,50.05884],[2.94183,50.05679],[2.93918,50.05587],[2.93865,50.05598]]]}},{"type":"Feature","properties":{"k":"CZH","s":1.179},"geometry":{"type":"Polygon","coordinates":[[[2.94012,50.05809],[2.94044,50.05733],[2.93856,50.05669],[2.93841,50.05747],[2.94012,50.05809]]]}},{"type":"Feature","properties":{"k":"ORH","s":0.642},"geometry":{"type":"Polygon","coordinates":[[[2.93768,50.05858],[2.93739,50.06029],[2.93862,50.05754],[2.93841,50.05747],[2.93768,50.05858]]]}},{"type":"Feature","properties":{"k":"MIS","s":0.524},"geometry":{"type":"Polygon","coordinates":[[[2.93862,50.05754],[2.93739,50.06029],[2.93735,50.06089],[2.93876,50.0576],[2.93862,50.05754]]]}},{"type":"Feature","properties":{"k":"BTH","s":3.925},"geometry":{"type":"Polygon","coordinates":[[[2.93735,50.06089],[2.93875,50.0612],[2.94012,50.05809],[2.9388,50.05761],[2.93735,50.06089]]]}},{"type":"Feature","properties":{"k":"BTH","s":4.699},"geometry":{"type":"Polygon","coordinates":[[[2.93875,50.0612],[2.93965,50.0614],[2.9416,50.05702],[2.93856,50.05601],[2.93856,50.05667],[2.94046,50.05734],[2.93875,50.0612]]]}},{"type":"Feature","properties":{"k":"PHF","s":6.009},"geometry":{"type":"Polygon","coordinates":[[[2.94127,50.06176],[2.94313,50.05759],[2.94161,50.05704],[2.93966,50.0614],[2.94127,50.06176]]]}},{"type":"Feature","properties":{"k":"BTH","s":0.826},"geometry":{"type":"Polygon","coordinates":[[[2.939,50.0622],[2.93972,50.06151],[2.93919,50.06139],[2.9376,50.06294],[2.93794,50.06319],[2.939,50.0622]]]}},{"type":"Feature","properties":{"k":"BTH","s":0.781},"geometry":{"type":"Polygon","coordinates":[[[2.93851,50.06204],[2.93919,50.06139],[2.93865,50.06128],[2.93722,50.06263],[2.93761,50.06292],[2.93851,50.06204]]]}},{"type":"Feature","properties":{"k":"ORP","s":0.528},"geometry":{"type":"Polygon","coordinates":[[[2.93652,50.0608],[2.93722,50.06129],[2.93754,50.06102],[2.93579,50.06057],[2.93563,50.06086],[2.93645,50.06144],[2.93652,50.0608]]]}},{"type":"Feature","properties":{"k":"BTH","s":0.27},"geometry":{"type":"Polygon","coordinates":[[[2.93721,50.06264],[2.93865,50.06128],[2.93844,50.06123],[2.93708,50.06253],[2.93721,50.06264]]]}},{"type":"Feature","properties":{"k":"JAC","s":0.148},"geometry":{"type":"Polygon","coordinates":[[[2.93794,50.06319],[2.93748,50.06285],[2.93747,50.06365],[2.93794,50.06319]]]}},{"type":"Feature","properties":{"k":"BTH","s":4.041},"geometry":{"type":"Polygon","coordinates":[[[2.93737,50.06525],[2.94098,50.06179],[2.93973,50.06152],[2.93649,50.06458],[2.93737,50.06525]]]}},{"type":"Feature","properties":{"k":"BTN","s":3.716},"geometry":{"type":"Polygon","coordinates":[[[2.9354,50.06491],[2.93933,50.06791],[2.93958,50.06785],[2.94027,50.06747],[2.93624,50.06439],[2.9354,50.06491]]]}},{"type":"Feature","properties":{"k":"BTH","s":0.576},"geometry":{"type":"Polygon","coordinates":[[[2.94025,50.06569],[2.94121,50.06642],[2.94142,50.06621],[2.93944,50.06469],[2.93922,50.06489],[2.94025,50.06569]]]}},{"type":"Feature","properties":{"k":"MIS","s":1.466},"geometry":{"type":"Polygon","coordinates":[[[2.93988,50.06632],[2.94075,50.06699],[2.94121,50.06642],[2.9392,50.06491],[2.93867,50.06541],[2.93988,50.06632]]]}},{"type":"Feature","properties":{"k":"BTH","s":1.909},"geometry":{"type":"Polygon","coordinates":[[[2.94082,50.06571],[2.94418,50.06252],[2.94354,50.06237],[2.94043,50.06542],[2.94082,50.06571]]]}},{"type":"Feature","properties":{"k":"PTC","s":3.771},"geometry":{"type":"Polygon","coordinates":[[[2.93945,50.06468],[2.94039,50.06539],[2.94354,50.06237],[2.9422,50.06208],[2.93945,50.06468]]]}},{"type":"Feature","properties":{"k":"BTH","s":4.327},"geometry":{"type":"Polygon","coordinates":[[[2.93737,50.06524],[2.93819,50.06587],[2.9422,50.06208],[2.94099,50.06179],[2.93737,50.06524]]]}},{"type":"Feature","properties":{"k":"PHF","s":3.527},"geometry":{"type":"Polygon","coordinates":[[[2.94284,50.06515],[2.94355,50.06421],[2.94557,50.06277],[2.9442,50.06252],[2.94084,50.06572],[2.94147,50.0662],[2.94284,50.06515]]]}},{"type":"Feature","properties":{"k":"ORH","s":2.505},"geometry":{"type":"Polygon","coordinates":[[[2.94683,50.06766],[2.94753,50.06735],[2.94342,50.0645],[2.94301,50.065],[2.94683,50.06766]]]}},{"type":"Feature","properties":{"k":"PHF","s":1.254},"geometry":{"type":"Polygon","coordinates":[[[2.94755,50.06735],[2.9479,50.06721],[2.94361,50.06422],[2.94344,50.06448],[2.94755,50.06735]]]}},{"type":"Feature","properties":{"k":"ORH","s":2.235},"geometry":{"type":"Polygon","coordinates":[[[2.94559,50.06435],[2.94447,50.06358],[2.94402,50.06389],[2.94847,50.06698],[2.94901,50.06672],[2.94559,50.06435]]]}},{"type":"Feature","properties":{"k":"BTH","s":2.195},"geometry":{"type":"Polygon","coordinates":[[[2.9479,50.06721],[2.94847,50.06698],[2.94402,50.06389],[2.94361,50.06422],[2.9479,50.06721]]]}},{"type":"Feature","properties":{"k":"BTH","s":0.699},"geometry":{"type":"Polygon","coordinates":[[[2.94946,50.06347],[2.94676,50.06517],[2.94698,50.06532],[2.94989,50.06355],[2.94946,50.06347]]]}},{"type":"Feature","properties":{"k":"LBF","s":0.297},"geometry":{"type":"Polygon","coordinates":[[[2.94948,50.06345],[2.94664,50.06509],[2.94675,50.06516],[2.94948,50.06345]]]}},{"type":"Feature","properties":{"k":"LBF","s":2.62},"geometry":{"type":"Polygon","coordinates":[[[2.94751,50.0631],[2.94559,50.06435],[2.94663,50.06508],[2.94934,50.06341],[2.94751,50.0631]]]}},{"type":"Feature","properties":{"k":"CZH","s":1.892},"geometry":{"type":"Polygon","coordinates":[[[2.9475,50.06311],[2.94562,50.06279],[2.94447,50.06358],[2.94559,50.06435],[2.9475,50.06311]]]}},{"type":"Feature","properties":{"k":"BTH","s":6.485},"geometry":{"type":"Polygon","coordinates":[[[2.9474,50.06302],[2.94938,50.06336],[2.95068,50.06029],[2.94962,50.05878],[2.95003,50.05861],[2.94948,50.05827],[2.9474,50.06302]]]}},{"type":"Feature","properties":{"k":"PPR","s":4.002},"geometry":{"type":"Polygon","coordinates":[[[2.94582,50.06269],[2.9474,50.05911],[2.94619,50.05867],[2.94459,50.06251],[2.94582,50.06269]]]}},{"type":"Feature","properties":{"k":"LBF","s":7.891},"geometry":{"type":"Polygon","coordinates":[[[2.94406,50.05792],[2.94229,50.06199],[2.94459,50.06251],[2.94619,50.05867],[2.94406,50.05792]]]}},{"type":"Feature","properties":{"k":"ORH","s":4.362},"geometry":{"type":"MultiPolygon","coordinates":[[[[2.94869,50.05637],[2.9483,50.05724],[2.94925,50.05715],[2.94931,50.05646],[2.94889,50.0563],[2.94869,50.05637]]],[[[2.94589,50.06269],[2.94675,50.06289],[2.94892,50.05791],[2.9482,50.05746],[2.94589,50.06269]]]]}},{"type":"Feature","properties":{"k":"BTH","s":2.759},"geometry":{"type":"MultiPolygon","coordinates":[[[[2.94948,50.05827],[2.94892,50.05791],[2.94675,50.06289],[2.9474,50.06302],[2.94948,50.05827]]],[[[2.94932,50.05715],[2.94932,50.057],[2.94925,50.05715],[2.94932,50.05715]]]]}},{"type":"Feature","properties":{"k":"BTH","s":0.017},"geometry":{"type":"Polygon","coordinates":[[[2.95068,50.06029],[2.95063,50.06041],[2.95091,50.06056],[2.95068,50.06029]]]}},{"type":"Feature","properties":{"k":"BTH","s":3.141},"geometry":{"type":"Polygon","coordinates":[[[2.94938,50.06336],[2.95113,50.06366],[2.95141,50.06299],[2.95114,50.06224],[2.95147,50.06125],[2.95064,50.06043],[2.94938,50.06336]]]}},{"type":"Feature","properties":{"k":"BTH","s":0.282},"geometry":{"type":"Polygon","coordinates":[[[2.95223,50.06384],[2.95141,50.06299],[2.95113,50.06366],[2.95223,50.06384]]]}},{"type":"Feature","properties":{"k":"PHF","s":7.323},"geometry":{"type":"Polygon","coordinates":[[[2.9499,50.06355],[2.94701,50.06534],[2.94901,50.06672],[2.95283,50.06436],[2.95238,50.06397],[2.9499,50.06355]]]}},{"type":"Feature","properties":{"k":"BTN","s":0.15},"geometry":{"type":"MultiPolygon","coordinates":[[[[2.95284,50.06466],[2.95265,50.06447],[2.95225,50.06473],[2.95241,50.06489],[2.95284,50.06466]]],[[[2.95377,50.06607],[2.95305,50.06553],[2.95387,50.06634],[2.95377,50.06607]]]]}},{"type":"Feature","properties":{"k":"BTN","s":4.325},"geometry":{"type":"Polygon","coordinates":[[[2.93742,50.06827],[2.93903,50.06799],[2.93521,50.06508],[2.93405,50.06572],[2.93742,50.06827]]]}},{"type":"Feature","properties":{"k":"BTH","s":0.236},"geometry":{"type":"Polygon","coordinates":[[[2.94893,50.05338],[2.94866,50.05344],[2.94994,50.05529],[2.94893,50.05338]]]}},{"type":"Feature","properties":{"k":"LBF","s":3.099},"geometry":{"type":"Polygon","coordinates":[[[2.96344,50.07421],[2.96445,50.07367],[2.96312,50.07266],[2.96267,50.07289],[2.95982,50.0706],[2.95929,50.07097],[2.96344,50.07421]]]}},{"type":"Feature","properties":{"k":"ORH","s":1.219},"geometry":{"type":"Polygon","coordinates":[[[2.9397,50.07515],[2.94116,50.07646],[2.94211,50.07637],[2.94034,50.07479],[2.9397,50.07515]]]}}]}