{"type":"FeatureCollection","features":[{"type":"Feature","properties":{"k":"MIS","s":0.0},"geometry":{"type":"Polygon","coordinates":[]}},{"type":"Feature","properties":{"k":"MIS","s":0.267},"geometry":{"type":"MultiPolygon","coordinates":[[[[2.62068,50.44835],[2.62118,50.44875],[2.621,50.44885],[2.62224,50.44962],[2.62091,50.44842],[2.62068,50.44835]]],[[[2.61991,50.44772],[2.62046,50.44817],[2.62044,50.44805],[2.61991,50.44772]]]]}},{"type":"Feature","properties":{"k":"BTN","s":0.545},"geometry":{"type":"MultiPolygon","coordinates":[[[[2.62173,50.44851],[2.62138,50.44858],[2.62091,50.44842],[2.62234,50.44956],[2.62275,50.44935],[2.62173,50.44851]]],[[[2.6201,50.44766],[2.61999,50.4477],[2.62044,50.44805],[2.6201,50.44766]]]]}},{"type":"Feature","properties":{"k":"MIS","s":0.767},"geometry":{"type":"Polygon","coordinates":[[[2.62416,50.45098],[2.62295,50.45133],[2.62382,50.45208],[2.62447,50.45175],[2.62416,50.45098]]]}},{"type":"Feature","properties":{"k":"BTH","s":2.051},"geometry":{"type":"Polygon","coordinates":[[[2.62439,50.45162],[2.62498,50.45259],[2.62605,50.45251],[2.62677,50.45214],[2.62482,50.45074],[2.62457,50.45069],[2.62439,50.45162]]]}},{"type":"Feature","properties":{"k":"MIS","s":0.431},"geometry":{"type":"Polygon","coordinates":[[[2.62284,50.45011],[2.62332,50.44982],[2.62279,50.44938],[2.62212,50.44983],[2.62234,50.45002],[2.62284,50.45011]]]}},{"type":"Feature","properties":{"k":"MIS","s":0.353},"geometry":{"type":"Polygon","coordinates":[[[2.62267,50.4509],[2.62206,50.45032],[2.62165,50.45031],[2.62284,50.45136],[2.62323,50.45116],[2.62267,50.4509]]]}},{"type":"Feature","properties":{"k":"AVP","s":1.439},"geometry":{"type":"Polygon","coordinates":[[[2.61269,50.44509],[2.61184,50.44595],[2.61166,50.44586],[2.61272,50.44469],[2.61226,50.44432],[2.61105,50.44567],[2.61134,50.4458],[2.61082,50.44602],[2.61227,50.44613],[2.6131,50.44543],[2.61269,50.44509]]]}},{"type":"Feature","properties":{"k":"BTH","s":0.577},"geometry":{"type":"Polygon","coordinates":[[[2.60625,50.44604],[2.60638,50.44646],[2.60817,50.44615],[2.60783,50.44577],[2.60625,50.44604]]]}},{"type":"Feature","properties":{"k":"BTH","s":0.665},"geometry":{"type":"Polygon","coordinates":[[[2.60789,50.44761],[2.60831,50.44732],[2.60719,50.44639],[2.60649,50.4465],[2.60789,50.44761]]]}},{"type":"Feature","properties":{"k":"MIS","s":0.184},"geometry":{"type":"Polygon","coordinates":[[[2.60917,50.44853],[2.61003,50.44787],[2.60964,50.44785],[2.609,50.44834],[2.60917,50.44853]]]}},{"type":"Feature","properties":{"k":"JAC","s":0.643},"geometry":{"type":"Polygon","coordinates":[[[2.60905,50.44939],[2.60799,50.4483],[2.60874,50.44797],[2.6088,50.44806],[2.60996,50.44714],[2.60955,50.44693],[2.60862,50.44776],[2.6087,50.44789],[2.60788,50.44828],[2.60889,50.44935],[2.60806,50.4498],[2.60905,50.44939]]]}},{"type":"Feature","properties":{"k":"CZH","s":1.245},"geometry":{"type":"Polygon","coordinates":[[[2.60807,50.44978],[2.60888,50.44936],[2.60788,50.44829],[2.60713,50.44862],[2.60692,50.44844],[2.60673,50.44854],[2.60807,50.44978]]]}},{"type":"Feature","properties":{"k":"JAC","s":0.475},"geometry":{"type":"Polygon","coordinates":[[[2.60773,50.44963],[2.60674,50.44864],[2.6065,50.44907],[2.60709,50.44962],[2.60695,50.44982],[2.60718,50.45],[2.60773,50.44963]]]}},{"type":"Feature","properties":{"k":"CZH","s":5.764},"geometry":{"type":"Polygon","coordinates":[[[2.60874,50.44797],[2.60799,50.4483],[2.60905,50.44939],[2.60813,50.44986],[2.60908,50.45101],[2.6103,50.45029],[2.61084,50.4505],[2.61186,50.44962],[2.61132,50.44861],[2.61089,50.44854],[2.6117,50.44784],[2.61151,50.44758],[2.61114,50.44789],[2.61091,50.44763],[2.61071,50.44764],[2.60933,50.44871],[2.609,50.44834],[2.6088,50.44806],[2.60874,50.44797]]]}},{"type":"Feature","properties":{"k":"CZH","s":0.941},"geometry":{"type":"Polygon","coordinates":[[[2.60905,50.45124],[2.61072,50.45109],[2.61136,50.45064],[2.61025,50.45032],[2.60906,50.45103],[2.60905,50.45124]]]}},{"type":"Feature","properties":{"k":"JAC","s":0.435},"geometry":{"type":"Polygon","coordinates":[[[2.61392,50.45217],[2.6137,50.45194],[2.61227,50.45297],[2.61246,50.45319],[2.61392,50.45217]]]}},{"type":"Feature","properties":{"k":"CZH","s":1.097},"geometry":{"type":"Polygon","coordinates":[[[2.60995,50.45333],[2.61138,50.45292],[2.61109,50.45261],[2.61121,50.45203],[2.60969,50.4524],[2.60995,50.45333]]]}},{"type":"Feature","properties":{"k":"BTH","s":1.299},"geometry":{"type":"Polygon","coordinates":[[[2.6068,50.45163],[2.60585,50.45155],[2.6054,50.45175],[2.60544,50.45283],[2.60647,50.45292],[2.6068,50.45163]]]}},{"type":"Feature","properties":{"k":"MIS","s":1.059},"geometry":{"type":"Polygon","coordinates":[[[2.60375,50.4529],[2.60462,50.45291],[2.60527,50.45349],[2.6049,50.45153],[2.60445,50.45163],[2.60423,50.45185],[2.60467,50.45215],[2.60436,50.45247],[2.60389,50.4522],[2.60376,50.45233],[2.60363,50.4525],[2.6039,50.45274],[2.60375,50.4529]]]}},{"type":"Feature","properties":{"k":"CZH","s":0.484},"geometry":{"type":"Polygon","coordinates":[[[2.60595,50.45134],[2.60683,50.4514],[2.60688,50.45085],[2.60662,50.45064],[2.6058,50.45099],[2.60595,50.45134]]]}},{"type":"Feature","properties":{"k":"CZH","s":2.023},"geometry":{"type":"Polygon","coordinates":[[[2.60582,50.44971],[2.60509,50.44973],[2.60427,50.44851],[2.60321,50.44895],[2.60509,50.45105],[2.60582,50.44971]]]}},{"type":"Feature","properties":{"k":"BTH","s":3.576},"geometry":{"type":"Polygon","coordinates":[[[2.60271,50.45038],[2.60356,50.4509],[2.60429,50.45072],[2.60482,50.45126],[2.60514,50.4511],[2.60224,50.44794],[2.60106,50.44843],[2.60271,50.45038]]]}},{"type":"Feature","properties":{"k":"BTH","s":0.911},"geometry":{"type":"Polygon","coordinates":[[[2.6015,50.44894],[2.60082,50.44926],[2.60201,50.45051],[2.60239,50.4503],[2.6027,50.45038],[2.6015,50.44894]]]}},{"type":"Feature","properties":{"k":"JAC","s":0.196},"geometry":{"type":"Polygon","coordinates":[[[2.60338,50.45186],[2.60323,50.45174],[2.60198,50.45242],[2.60214,50.45253],[2.60338,50.45186]]]}},{"type":"Feature","properties":{"k":"AVP","s":1.805},"geometry":{"type":"Polygon","coordinates":[[[2.59949,50.453],[2.60031,50.45278],[2.59934,50.45161],[2.60011,50.45128],[2.59914,50.45063],[2.59896,50.45115],[2.59813,50.45178],[2.59949,50.453]]]}},{"type":"Feature","properties":{"k":"BTH","s":0.528},"geometry":{"type":"Polygon","coordinates":[[[2.59675,50.45302],[2.5987,50.45237],[2.59844,50.45211],[2.5965,50.45276],[2.59675,50.45302]]]}},{"type":"Feature","properties":{"k":"PTC","s":2.487},"geometry":{"type":"Polygon","coordinates":[[[2.60007,50.44962],[2.59933,50.45039],[2.59951,50.45053],[2.59933,50.45067],[2.60038,50.45136],[2.60201,50.45051],[2.60082,50.44926],[2.60007,50.44962]]]}},{"type":"Feature","properties":{"k":"BTH","s":1.761},"geometry":{"type":"Polygon","coordinates":[[[2.59916,50.45051],[2.60003,50.44961],[2.60151,50.44895],[2.60111,50.44853],[2.59815,50.44971],[2.59916,50.45051]]]}},{"type":"Feature","properties":{"k":"PTR","s":0.282},"geometry":{"type":"Polygon","coordinates":[[[2.59805,50.44962],[2.59815,50.44971],[2.60111,50.44853],[2.59805,50.44962]]]}},{"type":"Feature","properties":{"k":"PPH","s":0.918},"geometry":{"type":"Polygon","coordinates":[[[2.59719,50.44836],[2.59653,50.44793],[2.59513,50.44793],[2.5957,50.44838],[2.59717,50.449],[2.59719,50.44836]]]}},{"type":"Feature","properties":{"k":"PPH","s":3.019},"geometry":{"type":"Polygon","coordinates":[[[2.59489,50.44795],[2.59623,50.44789],[2.59676,50.44715],[2.59737,50.44679],[2.59817,50.44673],[2.59833,50.44653],[2.59768,50.44604],[2.59552,50.44713],[2.59443,50.44746],[2.59328,50.4468],[2.59282,50.44701],[2.59434,50.44826],[2.59489,50.44795]]]}},{"type":"Feature","properties":{"k":"LUZ","s":1.803},"geometry":{"type":"Polygon","coordinates":[[[2.60334,50.4472],[2.6046,50.44679],[2.60379,50.44548],[2.60223,50.44601],[2.60334,50.4472]]]}},{"type":"Feature","properties":{"k":"BTH","s":2.644},"geometry":{"type":"Polygon","coordinates":[[[2.60182,50.44528],[2.60164,50.44509],[2.6004,50.4456],[2.60153,50.44706],[2.6024,50.44668],[2.60202,50.44624],[2.60219,50.44598],[2.60381,50.44546],[2.60318,50.44483],[2.60182,50.44528]]]}},{"type":"Feature","properties":{"k":"MIS","s":3.351},"geometry":{"type":"Polygon","coordinates":[[[2.60006,50.44713],[2.59975,50.44724],[2.5997,50.44786],[2.59936,50.44823],[2.59954,50.44872],[2.60066,50.44815],[2.60208,50.44783],[2.60263,50.44756],[2.60195,50.44691],[2.6015,50.4471],[2.60037,50.4456],[2.60005,50.44579],[2.60033,50.44634],[2.59965,50.44655],[2.60006,50.44713]]]}},{"type":"Feature","properties":{"k":"PPH","s":0.206},"geometry":{"type":"Polygon","coordinates":[[[2.60301,50.44875],[2.60316,50.44893],[2.60425,50.44849],[2.60404,50.44834],[2.60301,50.44875]]]}},{"type":"Feature","properties":{"k":"BTH","s":0.297},"geometry":{"type":"Polygon","coordinates":[[[2.60239,50.44671],[2.60199,50.44691],[2.60262,50.44755],[2.603,50.44739],[2.60239,50.44671]]]}},{"type":"Feature","properties":{"k":"PTR","s":0.18},"geometry":{"type":"Polygon","coordinates":[[[2.60325,50.44756],[2.6034,50.44769],[2.60507,50.44699],[2.60496,50.4469],[2.60325,50.44756]]]}},{"type":"Feature","properties":{"k":"BTH","s":1.157},"geometry":{"type":"Polygon","coordinates":[[[2.6034,50.44769],[2.60443,50.4486],[2.60525,50.44824],[2.6045,50.44776],[2.60544,50.44729],[2.60507,50.44699],[2.6034,50.44769]]]}},{"type":"Feature","properties":{"k":"BTH","s":2.06},"geometry":{"type":"Polygon","coordinates":[[[2.60527,50.44823],[2.60501,50.44832],[2.60555,50.44874],[2.60476,50.44899],[2.6049,50.4495],[2.60539,50.44971],[2.60596,50.44945],[2.60636,50.44811],[2.60545,50.4473],[2.60455,50.44775],[2.60527,50.44823]]]}},{"type":"Feature","properties":{"k":"JAC","s":0.702},"geometry":{"type":"Polygon","coordinates":[[[2.60504,50.44694],[2.60638,50.44805],[2.60619,50.44664],[2.60504,50.44694]]]}},{"type":"Feature","properties":{"k":"AVP","s":0.968},"geometry":{"type":"Polygon","coordinates":[[[2.60617,50.4465],[2.60547,50.44498],[2.60484,50.44486],[2.60556,50.4462],[2.60461,50.44639],[2.60483,50.44682],[2.60617,50.4465]]]}},{"type":"Feature","properties":{"k":"JAC","s":0.805},"geometry":{"type":"Polygon","coordinates":[[[2.59179,50.45027],[2.59375,50.4495],[2.59369,50.44935],[2.59324,50.44954],[2.59229,50.44863],[2.59179,50.45027]]]}},{"type":"Feature","properties":{"k":"MIS","s":0.615},"geometry":{"type":"Polygon","coordinates":[[[2.59399,50.44973],[2.5938,50.44948],[2.59182,50.45026],[2.5915,50.45073],[2.59399,50.44973]]]}},{"type":"Feature","properties":{"k":"PPH","s":0.119},"geometry":{"type":"Polygon","coordinates":[[[2.59264,50.45335],[2.59216,50.45352],[2.5923,50.45373],[2.59289,50.45353],[2.59328,50.45384],[2.59298,50.45357],[2.59264,50.45335]]]}},{"type":"Feature","properties":{"k":"PPH","s":2.39},"geometry":{"type":"Polygon","coordinates":[[[2.59429,50.45314],[2.59368,50.45325],[2.59303,50.4536],[2.59492,50.4551],[2.59621,50.45455],[2.59429,50.45314]]]}},{"type":"Feature","properties":{"k":"BTH","s":1.088},"geometry":{"type":"Polygon","coordinates":[[[2.59495,50.45513],[2.59573,50.45576],[2.59716,50.45541],[2.59625,50.45456],[2.59495,50.45513]]]}},{"type":"Feature","properties":{"k":"JAC","s":0.319},"geometry":{"type":"Polygon","coordinates":[[[2.59806,50.4547],[2.59693,50.45514],[2.59625,50.45456],[2.59716,50.45541],[2.59825,50.4549],[2.59806,50.4547]]]}},{"type":"Feature","properties":{"k":"BTH","s":2.438},"geometry":{"type":"Polygon","coordinates":[[[2.5996,50.45643],[2.60012,50.45547],[2.59895,50.45582],[2.59887,50.45567],[2.59856,50.45577],[2.59819,50.45493],[2.59703,50.45547],[2.59772,50.45628],[2.59877,50.4572],[2.5996,50.45643]]]}},{"type":"Feature","properties":{"k":"BTN","s":1.188},"geometry":{"type":"Polygon","coordinates":[[[2.60012,50.45523],[2.59956,50.45435],[2.59831,50.45486],[2.59861,50.45576],[2.60012,50.45523]]]}},{"type":"Feature","properties":{"k":"OAG","s":0.056},"geometry":{"type":"Polygon","coordinates":[[[2.60273,50.45433],[2.60271,50.45429],[2.60124,50.45466],[2.60273,50.45433]]]}},{"type":"Feature","properties":{"k":"PPH","s":0.174},"geometry":{"type":"Polygon","coordinates":[[[2.604,50.45612],[2.60372,50.45624],[2.6044,50.45677],[2.60464,50.45662],[2.604,50.45612]]]}},{"type":"Feature","properties":{"k":"BTN","s":6.437},"geometry":{"type":"Polygon","coordinates":[[[2.60092,50.45608],[2.60246,50.4572],[2.60309,50.45687],[2.60363,50.45723],[2.6044,50.45677],[2.60329,50.45573],[2.60346,50.45568],[2.60313,50.45506],[2.6046,50.45432],[2.6052,50.45488],[2.60531,50.45463],[2.60588,50.45446],[2.6053,50.45385],[2.60433,50.45349],[2.60341,50.45344],[2.60373,50.45407],[2.60333,50.45415],[2.60298,50.45347],[2.60233,50.45361],[2.60273,50.45433],[2.60128,50.4547],[2.60197,50.45548],[2.60092,50.45608]],[[2.60193,50.45597],[2.60197,50.45594],[2.60245,50.45655],[2.60193,50.45597]]]}},{"type":"Feature","properties":{"k":"JAC","s":1.39},"geometry":{"type":"Polygon","coordinates":[[[2.60069,50.4562],[2.60171,50.45691],[2.60099,50.45721],[2.60111,50.4574],[2.6015,50.45772],[2.60227,50.45797],[2.60342,50.45711],[2.60311,50.45688],[2.60247,50.4572],[2.60092,50.45608],[2.60069,50.4562]]]}},{"type":"Feature","properties":{"k":"BTH","s":7.003},"geometry":{"type":"Polygon","coordinates":[[[2.60617,50.45681],[2.60589,50.4562],[2.6046,50.45667],[2.60359,50.45727],[2.60478,50.45822],[2.6081,50.45888],[2.60801,50.45862],[2.60929,50.45814],[2.60883,50.45745],[2.60792,50.45649],[2.60704,50.45686],[2.60674,50.45657],[2.60617,50.45681]]]}},{"type":"Feature","properties":{"k":"LBF","s":4.099},"geometry":{"type":"Polygon","coordinates":[[[2.60379,50.46017],[2.60465,50.46071],[2.60529,50.46031],[2.60599,50.4585],[2.6047,50.45822],[2.60395,50.45758],[2.60301,50.46007],[2.60379,50.46017]]]}},{"type":"Feature","properties":{"k":"BTN","s":1.274},"geometry":{"type":"Polygon","coordinates":[[[2.60351,50.45725],[2.60232,50.46014],[2.60301,50.46005],[2.60392,50.45759],[2.60351,50.45725]]]}},{"type":"Feature","properties":{"k":"MIS","s":3.35},"geometry":{"type":"Polygon","coordinates":[[[2.60343,50.45712],[2.60227,50.45798],[2.60193,50.45783],[2.6,50.45879],[2.60062,50.4594],[2.60088,50.45931],[2.60224,50.46014],[2.60343,50.45712]]]}},{"type":"Feature","properties":{"k":"BTN","s":4.761},"geometry":{"type":"Polygon","coordinates":[[[2.59975,50.45715],[2.59868,50.45751],[2.59999,50.45878],[2.60189,50.45784],[2.60137,50.45764],[2.60099,50.45721],[2.60171,50.45691],[2.60069,50.4562],[2.60196,50.45548],[2.60121,50.45467],[2.60067,50.45498],[2.60042,50.45472],[2.59975,50.45715]]]}},{"type":"Feature","properties":{"k":"JAC","s":0.108},"geometry":{"type":"Polygon","coordinates":[[[2.59963,50.45651],[2.59988,50.45675],[2.59957,50.45687],[2.59974,50.45715],[2.59989,50.45675],[2.6,50.45628],[2.59988,50.45617],[2.59998,50.45628],[2.59963,50.45651]]]}},{"type":"Feature","properties":{"k":"CZH","s":1.25},"geometry":{"type":"MultiPolygon","coordinates":[[[[2.60692,50.46397],[2.60624,50.46342],[2.60532,50.46364],[2.6063,50.46434],[2.60692,50.46397]]],[[[2.60697,50.46394],[2.60752,50.46352],[2.6066,50.46262],[2.60626,50.46341],[2.60697,50.46394]]]]}},{"type":"Feature","properties":{"k":"PPH","s":0.001},"geometry":{"type":"Polygon","coordinates":[[[2.60511,50.46369],[2.60528,50.46367],[2.60526,50.46365],[2.60511,50.46369]]]}},{"type":"Feature","properties":{"k":"JAC","s":0.069},"geometry":{"type":"Polygon","coordinates":[[[2.60429,50.46388],[2.6028,50.46375],[2.60433,50.46395],[2.60429,50.46388]]]}},{"type":"Feature","properties":{"k":"JAC","s":0.007},"geometry":{"type":"Polygon","coordinates":[[[2.60254,50.46394],[2.6022,50.46418],[2.60227,50.46418],[2.60254,50.46394]]]}},{"type":"Feature","properties":{"k":"MIS","s":1.189},"geometry":{"type":"Polygon","coordinates":[[[2.60412,50.46486],[2.60472,50.46471],[2.60433,50.46395],[2.6028,50.46375],[2.60227,50.46418],[2.60412,50.46486]]]}},{"type":"Feature","properties":{"k":"PPH","s":0.036},"geometry":{"type":"Polygon","coordinates":[[[2.60396,50.46485],[2.6038,50.46471],[2.60392,50.46499],[2.60422,50.465],[2.60396,50.46485]]]}},{"type":"Feature","properties":{"k":"MIS","s":1.036},"geometry":{"type":"Polygon","coordinates":[[[2.60437,50.46386],[2.60493,50.46504],[2.60624,50.46433],[2.60532,50.46366],[2.60437,50.46386]]]}},{"type":"Feature","properties":{"k":"LUZ","s":0.83},"geometry":{"type":"Polygon","coordinates":[[[2.60673,50.46446],[2.6057,50.46495],[2.60632,50.46544],[2.60688,50.46554],[2.60748,50.46527],[2.60673,50.46446]]]}},{"type":"Feature","properties":{"k":"JAC","s":0.006},"geometry":{"type":"Polygon","coordinates":[[[2.60602,50.46524],[2.6059,50.46517],[2.60627,50.46547],[2.60602,50.46524]]]}},{"type":"Feature","properties":{"k":"BTH","s":2.513},"geometry":{"type":"Polygon","coordinates":[[[2.62175,50.4687],[2.62445,50.46892],[2.62463,50.46778],[2.62164,50.46761],[2.62175,50.4687]]]}},{"type":"Feature","properties":{"k":"ORH","s":1.944},"geometry":{"type":"Polygon","coordinates":[[[2.62767,50.46802],[2.62917,50.46947],[2.62963,50.46931],[2.6297,50.4674],[2.62767,50.46802]]]}},{"type":"Feature","properties":{"k":"BTH","s":0.001},"geometry":{"type":"Polygon","coordinates":[]}},{"type":"Feature","properties":{"k":"ORH","s":4.661},"geometry":{"type":"Polygon","coordinates":[[[2.63286,50.46968],[2.63119,50.46759],[2.62978,50.46805],[2.62959,50.47003],[2.63124,50.47045],[2.63286,50.46968]]]}},{"type":"Feature","properties":{"k":"BTH","s":1.928},"geometry":{"type":"Polygon","coordinates":[[[2.63119,50.46759],[2.63147,50.46793],[2.63238,50.46759],[2.63275,50.46743],[2.63253,50.46698],[2.63161,50.46666],[2.62978,50.46721],[2.62978,50.46805],[2.63119,50.46759]]]}},{"type":"Feature","properties":{"k":"BTH","s":0.366},"geometry":{"type":"Polygon","coordinates":[[[2.63161,50.46666],[2.63088,50.46659],[2.63006,50.46676],[2.62978,50.46722],[2.63161,50.46666]]]}},{"type":"Feature","properties":{"k":"PTC","s":2.332},"geometry":{"type":"Polygon","coordinates":[[[2.62985,50.4662],[2.62709,50.4669],[2.62767,50.46802],[2.6297,50.4674],[2.62985,50.4662]]]}},{"type":"Feature","properties":{"k":"BTH","s":3.217},"geometry":{"type":"Polygon","coordinates":[[[2.62654,50.46703],[2.6298,50.46621],[2.62981,50.46522],[2.62585,50.46599],[2.62654,50.46703]]]}},{"type":"Feature","properties":{"k":"BTH","s":2.467},"geometry":{"type":"Polygon","coordinates":[[[2.62534,50.4652],[2.62585,50.46599],[2.62978,50.46518],[2.62923,50.4646],[2.62534,50.4652]]]}},{"type":"Feature","properties":{"k":"JAC","s":0.071},"geometry":{"type":"Polygon","coordinates":[[[2.62892,50.46415],[2.62934,50.46434],[2.62917,50.46384],[2.62892,50.46415]]]}},{"type":"Feature","properties":{"k":"PTC","s":3.045},"geometry":{"type":"Polygon","coordinates":[[[2.62948,50.4645],[2.63173,50.4641],[2.62992,50.46164],[2.6292,50.46186],[2.63013,50.463],[2.62899,50.46327],[2.62948,50.4645]],[[2.63112,50.46418],[2.6299,50.46441],[2.63006,50.46437],[2.63112,50.46418]]]}},{"type":"Feature","properties":{"k":"CZH","s":0.456},"geometry":{"type":"Polygon","coordinates":[[[2.62902,50.46327],[2.63013,50.463],[2.62976,50.46253],[2.62879,50.46278],[2.62902,50.46327]]]}},{"type":"Feature","properties":{"k":"JAC","s":0.06},"geometry":{"type":"Polygon","coordinates":[[[2.62922,50.46079],[2.62899,50.4605],[2.62916,50.4608],[2.63001,50.46167],[2.62922,50.46079]]]}},{"type":"Feature","properties":{"k":"CZH","s":0.253},"geometry":{"type":"Polygon","coordinates":[[[2.62881,50.46402],[2.62897,50.46342],[2.62814,50.46376],[2.62881,50.46402]]]}},{"type":"Feature","properties":{"k":"CZH","s":0.276},"geometry":{"type":"Polygon","coordinates":[[[2.62931,50.46451],[2.62808,50.46399],[2.62855,50.46464],[2.62931,50.46451]]]}},{"type":"Feature","properties":{"k":"BTN","s":1.141},"geometry":{"type":"Polygon","coordinates":[[[2.62804,50.46391],[2.62747,50.46367],[2.62633,50.46404],[2.62736,50.46481],[2.62855,50.46465],[2.62804,50.46391]]]}},{"type":"Feature","properties":{"k":"BTN","s":2.721},"geometry":{"type":"Polygon","coordinates":[[[2.62633,50.46404],[2.62744,50.46369],[2.62693,50.46352],[2.62405,50.46297],[2.62311,50.46358],[2.62735,50.46481],[2.62633,50.46404]]]}},{"type":"Feature","properties":{"k":"LIF","s":11.496},"geometry":{"type":"Polygon","coordinates":[[[2.62026,50.46324],[2.6212,50.46512],[2.62103,50.46636],[2.6216,50.46633],[2.62521,50.46518],[2.6272,50.46483],[2.62311,50.46358],[2.62387,50.4631],[2.62154,50.46229],[2.62169,50.46216],[2.62052,50.46171],[2.6192,50.46262],[2.62026,50.46324]]]}},{"type":"Feature","properties":{"k":"PTC","s":0.276},"geometry":{"type":"Polygon","coordinates":[[[2.62154,50.46229],[2.62387,50.4631],[2.62401,50.46299],[2.62174,50.46221],[2.62154,50.46229]]]}},{"type":"Feature","properties":{"k":"AVP","s":0.11},"geometry":{"type":"Polygon","coordinates":[[[2.62174,50.46221],[2.62407,50.46295],[2.62179,50.46216],[2.62174,50.46221]]]}},{"type":"Feature","properties":{"k":"BTH","s":6.164},"geometry":{"type":"Polygon","coordinates":[[[2.62697,50.46337],[2.62805,50.46378],[2.62896,50.46343],[2.62864,50.46276],[2.62787,50.46303],[2.62634,50.46139],[2.62572,50.46161],[2.62486,50.46068],[2.62287,50.4624],[2.62697,50.46337]]]}},{"type":"Feature","properties":{"k":"LBF","s":6.605},"geometry":{"type":"Polygon","coordinates":[[[2.62158,50.46114],[2.62072,50.46167],[2.62287,50.4624],[2.62486,50.46068],[2.62397,50.4596],[2.62371,50.45971],[2.62245,50.45869],[2.62093,50.46078],[2.62158,50.46114]]]}},{"type":"Feature","properties":{"k":"AVP","s":0.067},"geometry":{"type":"Polygon","coordinates":[[[2.62093,50.46078],[2.62148,50.46114],[2.62066,50.46164],[2.62158,50.46114],[2.62093,50.46078]]]}},{"type":"Feature","properties":{"k":"BTA","s":0.062},"geometry":{"type":"Polygon","coordinates":[[[2.62012,50.46333],[2.62018,50.46329],[2.61908,50.46265],[2.62012,50.46333]]]}},{"type":"Feature","properties":{"k":"BTA","s":0.137},"geometry":{"type":"Polygon","coordinates":[[[2.6211,50.46516],[2.62108,50.46565],[2.62115,50.46566],[2.62116,50.46514],[2.62017,50.46335],[2.6211,50.46516]]]}},{"type":"Feature","properties":{"k":"BTH","s":1.464},"geometry":{"type":"Polygon","coordinates":[[[2.62092,50.46633],[2.62106,50.46566],[2.61864,50.46516],[2.61835,50.46579],[2.62092,50.46633]]]}},{"type":"Feature","properties":{"k":"BTA","s":0.037},"geometry":{"type":"Polygon","coordinates":[[[2.62092,50.46633],[2.62094,50.46633],[2.62112,50.46567],[2.62092,50.46633]]]}},{"type":"Feature","properties":{"k":"ORH","s":1.762},"geometry":{"type":"Polygon","coordinates":[[[2.62164,50.46761],[2.62463,50.46778],[2.62468,50.46736],[2.62184,50.46715],[2.62205,50.46624],[2.62102,50.46641],[2.62093,50.46654],[2.62079,50.46711],[2.62157,50.46714],[2.62164,50.46761]]]}},{"type":"Feature","properties":{"k":"BTH","s":11.381},"geometry":{"type":"Polygon","coordinates":[[[2.62745,50.4678],[2.62709,50.4669],[2.62654,50.46705],[2.6253,50.46519],[2.6221,50.46622],[2.62186,50.46715],[2.62468,50.46736],[2.62442,50.46908],[2.62642,50.4693],[2.6295,50.47],[2.6292,50.46946],[2.62745,50.4678]]]}},{"type":"Feature","properties":{"k":"BTH","s":1.643},"geometry":{"type":"Polygon","coordinates":[[[2.62085,50.46712],[2.62046,50.46878],[2.6244,50.46909],[2.62445,50.46892],[2.62175,50.4687],[2.62157,50.46714],[2.62085,50.46712]]]}},{"type":"Feature","properties":{"k":"BTA","s":0.103},"geometry":{"type":"Polygon","coordinates":[[[2.62072,50.46664],[2.62034,50.46843],[2.62034,50.46878],[2.62086,50.46639],[2.62072,50.46664]]]}},{"type":"Feature","properties":{"k":"ORH","s":6.607},"geometry":{"type":"Polygon","coordinates":[[[2.6177,50.46881],[2.62034,50.46878],[2.62086,50.46637],[2.61741,50.46571],[2.6177,50.46881]]]}},{"type":"Feature","properties":{"k":"BTH","s":3.572},"geometry":{"type":"Polygon","coordinates":[[[2.62014,50.46332],[2.61951,50.46375],[2.61836,50.46307],[2.61728,50.46365],[2.61912,50.46427],[2.61864,50.46516],[2.62108,50.46565],[2.6211,50.46516],[2.62014,50.46332]]]}},{"type":"Feature","properties":{"k":"PPH","s":0.27},"geometry":{"type":"Polygon","coordinates":[[[2.6152,50.46528],[2.61468,50.46556],[2.61492,50.46573],[2.61625,50.46548],[2.6152,50.46528]]]}},{"type":"Feature","properties":{"k":"JAC","s":0.192},"geometry":{"type":"Polygon","coordinates":[[[2.61468,50.46556],[2.61378,50.46605],[2.61397,50.46617],[2.61493,50.46575],[2.61468,50.46556]]]}},{"type":"Feature","properties":{"k":"BTH","s":4.682},"geometry":{"type":"Polygon","coordinates":[[[2.61397,50.46617],[2.61343,50.46558],[2.61269,50.46583],[2.61349,50.46679],[2.61385,50.46879],[2.61465,50.46885],[2.61422,50.46673],[2.61729,50.46677],[2.61707,50.4657],[2.61625,50.46548],[2.61493,50.46575],[2.61397,50.46617]]]}},{"type":"Feature","properties":{"k":"PTC","s":4.542},"geometry":{"type":"Polygon","coordinates":[[[2.61714,50.46883],[2.61709,50.46847],[2.61755,50.46845],[2.61735,50.46714],[2.61619,50.46707],[2.61615,50.4668],[2.61422,50.46673],[2.61465,50.46885],[2.61714,50.46883]]]}},{"type":"Feature","properties":{"k":"CZH","s":0.594},"geometry":{"type":"Polygon","coordinates":[[[2.61132,50.46644],[2.61131,50.46668],[2.61154,50.4661],[2.60979,50.46619],[2.60884,50.46605],[2.60924,50.46635],[2.61027,50.46655],[2.61132,50.46644]]]}},{"type":"Feature","properties":{"k":"JAC","s":0.123},"geometry":{"type":"Polygon","coordinates":[[[2.60691,50.46598],[2.6076,50.46582],[2.60657,50.46564],[2.60691,50.46598]]]}},{"type":"Feature","properties":{"k":"ORH","s":5.453},"geometry":{"type":"Polygon","coordinates":[[[2.60785,50.4651],[2.60811,50.46535],[2.60857,50.46518],[2.60902,50.4657],[2.61013,50.46581],[2.61128,50.46574],[2.61142,50.46517],[2.61029,50.46421],[2.61031,50.46393],[2.60955,50.46324],[2.60673,50.46446],[2.60748,50.46527],[2.60785,50.4651]]]}},{"type":"Feature","properties":{"k":"CZH","s":1.76},"geometry":{"type":"Polygon","coordinates":[[[2.60963,50.46602],[2.61125,50.46598],[2.61219,50.46581],[2.61379,50.46508],[2.6137,50.46498],[2.61332,50.46517],[2.61312,50.46501],[2.6117,50.46555],[2.61176,50.46568],[2.61128,50.46574],[2.60978,50.46581],[2.60902,50.4657],[2.60857,50.46518],[2.60811,50.46535],[2.60785,50.4651],[2.60696,50.46559],[2.60963,50.46602]]]}},{"type":"Feature","properties":{"k":"JAC","s":0.25},"geometry":{"type":"Polygon","coordinates":[[[2.61124,50.46488],[2.61313,50.46413],[2.61299,50.46403],[2.61111,50.46475],[2.61124,50.46488]]]}},{"type":"Feature","properties":{"k":"ORH","s":1.311},"geometry":{"type":"Polygon","coordinates":[[[2.61039,50.46396],[2.61034,50.4642],[2.611,50.46464],[2.61254,50.46401],[2.61226,50.4637],[2.6114,50.46404],[2.61095,50.46358],[2.61163,50.46322],[2.61146,50.46301],[2.61005,50.46363],[2.61039,50.46396]]]}},{"type":"Feature","properties":{"k":"ORH","s":9.672},"geometry":{"type":"Polygon","coordinates":[[[2.60676,50.46255],[2.6066,50.46262],[2.60752,50.46352],[2.6089,50.46215],[2.60666,50.46004],[2.60722,50.45978],[2.60929,50.46156],[2.60963,50.4596],[2.60903,50.45982],[2.60826,50.45928],[2.60929,50.45895],[2.60803,50.45891],[2.60598,50.45852],[2.60531,50.46029],[2.60544,50.46038],[2.60512,50.4608],[2.60676,50.46255]]]}},{"type":"Feature","properties":{"k":"BTH","s":0.702},"geometry":{"type":"Polygon","coordinates":[[[2.61836,50.46306],[2.61951,50.46375],[2.62012,50.46333],[2.61899,50.46271],[2.61836,50.46306]]]}},{"type":"Feature","properties":{"k":"BOR","s":0.478},"geometry":{"type":"Polygon","coordinates":[[[2.61217,50.45817],[2.61174,50.45797],[2.61145,50.45819],[2.61108,50.45803],[2.61131,50.45782],[2.61109,50.45752],[2.61164,50.45697],[2.61142,50.45688],[2.61179,50.45662],[2.61161,50.45647],[2.61114,50.4569],[2.61139,50.45701],[2.61086,50.45753],[2.6111,50.4578],[2.61083,50.45805],[2.61126,50.45826],[2.61102,50.45846],[2.61217,50.45817]]]}},{"type":"Feature","properties":{"k":"CZH","s":1.3},"geometry":{"type":"Polygon","coordinates":[[[2.61027,50.45909],[2.61126,50.45826],[2.61083,50.45805],[2.6111,50.4578],[2.61086,50.45753],[2.61139,50.45701],[2.61114,50.4569],[2.60963,50.45834],[2.61027,50.45909]]]}},{"type":"Feature","properties":{"k":"CZH","s":2.214},"geometry":{"type":"Polygon","coordinates":[[[2.60748,50.45372],[2.60762,50.45395],[2.60725,50.45476],[2.60733,50.45513],[2.60846,50.45462],[2.609,50.45511],[2.60944,50.45478],[2.60889,50.45441],[2.60952,50.45413],[2.60913,50.45377],[2.60993,50.45355],[2.60975,50.45321],[2.60748,50.45372]]]}},{"type":"Feature","properties":{"k":"CZH","s":0.701},"geometry":{"type":"Polygon","coordinates":[[[2.60958,50.45283],[2.60749,50.45332],[2.60748,50.45372],[2.60975,50.4532],[2.60958,50.45283]]]}},{"type":"Feature","properties":{"k":"AVP","s":0.083},"geometry":{"type":"Polygon","coordinates":[[[2.62394,50.45956],[2.62372,50.45965],[2.62249,50.45864],[2.62371,50.45971],[2.62394,50.45956]]]}},{"type":"Feature","properties":{"k":"BTH","s":5.255},"geometry":{"type":"Polygon","coordinates":[[[2.62583,50.45794],[2.62421,50.45886],[2.62468,50.4593],[2.62397,50.45959],[2.62572,50.4616],[2.62718,50.46107],[2.6267,50.46016],[2.6258,50.45945],[2.62659,50.45916],[2.62631,50.45884],[2.62659,50.45874],[2.62597,50.45813],[2.62647,50.45773],[2.62563,50.45708],[2.62517,50.45732],[2.62583,50.45794]]]}},{"type":"Feature","properties":{"k":"JAC","s":0.093},"geometry":{"type":"Polygon","coordinates":[[[2.62468,50.4593],[2.62421,50.45886],[2.62581,50.45798],[2.62581,50.45793],[2.62549,50.45769],[2.62578,50.45795],[2.62415,50.45885],[2.62464,50.45929],[2.624,50.45957],[2.62468,50.4593]]]}},{"type":"Feature","properties":{"k":"JAC","s":0.198},"geometry":{"type":"Polygon","coordinates":[[[2.62659,50.45916],[2.6258,50.45945],[2.6267,50.46016],[2.62718,50.46107],[2.62633,50.46139],[2.62723,50.46108],[2.62692,50.46044],[2.62723,50.46033],[2.62697,50.46003],[2.62671,50.46014],[2.62584,50.45945],[2.62665,50.45917],[2.62638,50.45893],[2.62659,50.45916]]]}},{"type":"Feature","properties":{"k":"BTH","s":1.733},"geometry":{"type":"Polygon","coordinates":[[[2.63068,50.45868],[2.63097,50.45896],[2.6306,50.45912],[2.63084,50.45936],[2.63059,50.45948],[2.63126,50.46021],[2.63281,50.45962],[2.63142,50.4584],[2.63068,50.45868]]]}},{"type":"Feature","properties":{"k":"JAC","s":0.038},"geometry":{"type":"Polygon","coordinates":[[[2.63063,50.45775],[2.63013,50.45745],[2.63135,50.45828],[2.63063,50.45775]]]}},{"type":"Feature","properties":{"k":"PTR","s":0.037},"geometry":{"type":"Polygon","coordinates":[[[2.63108,50.45853],[2.63142,50.4584],[2.63132,50.45831],[2.63098,50.45844],[2.63108,50.45853]]]}},{"type":"Feature","properties":{"k":"OAG","s":0.054},"geometry":{"type":"Polygon","coordinates":[[[2.62978,50.45715],[2.62954,50.45696],[2.62931,50.45704],[2.62954,50.45724],[2.62978,50.45715]]]}},{"type":"Feature","properties":{"k":"JAC","s":0.022},"geometry":{"type":"Polygon","coordinates":[[[2.6296,50.45696],[2.63042,50.45662],[2.62954,50.45696],[2.6296,50.45696]]]}},{"type":"Feature","properties":{"k":"OAG","s":0.129},"geometry":{"type":"Polygon","coordinates":[[[2.63156,50.45587],[2.63123,50.45599],[2.63134,50.45615],[2.63029,50.45656],[2.63174,50.45606],[2.63156,50.45587]]]}},{"type":"Feature","properties":{"k":"BTN","s":0.565},"geometry":{"type":"Polygon","coordinates":[[[2.63034,50.45556],[2.62988,50.45576],[2.63034,50.45622],[2.63112,50.45593],[2.63035,50.45502],[2.63001,50.45515],[2.63034,50.45556]]]}},{"type":"Feature","properties":{"k":"JAC","s":0.013},"geometry":{"type":"Polygon","coordinates":[[[2.63034,50.45556],[2.63032,50.45554],[2.62985,50.45572],[2.63034,50.45556]]]}},{"type":"Feature","properties":{"k":"BTH","s":0.847},"geometry":{"type":"Polygon","coordinates":[[[2.62629,50.45366],[2.6274,50.45388],[2.62759,50.45287],[2.62714,50.45246],[2.62629,50.45366]]]}},{"type":"Feature","properties":{"k":"BTH","s":1.407},"geometry":{"type":"Polygon","coordinates":[[[2.63202,50.45735],[2.63341,50.45886],[2.63428,50.45851],[2.63514,50.45939],[2.63314,50.4573],[2.63276,50.45715],[2.63202,50.45735]]]}},{"type":"Feature","properties":{"k":"BTH","s":17.939},"geometry":{"type":"Polygon","coordinates":[[[2.63173,50.4641],[2.63382,50.46355],[2.63243,50.46104],[2.63506,50.46028],[2.63704,50.46279],[2.63807,50.46261],[2.63654,50.46115],[2.63602,50.46033],[2.63428,50.45851],[2.63341,50.45886],[2.63325,50.45873],[2.63202,50.45735],[2.63276,50.45715],[2.63174,50.45606],[2.62958,50.45699],[2.63116,50.4581],[2.63281,50.45962],[2.63127,50.46021],[2.6318,50.46074],[2.63172,50.46076],[2.63122,50.4603],[2.63066,50.46053],[2.62981,50.46019],[2.62899,50.4605],[2.63173,50.4641]]]}},{"type":"Feature","properties":{"k":"BTH","s":6.706},"geometry":{"type":"Polygon","coordinates":[[[2.63704,50.4628],[2.63506,50.46028],[2.63243,50.46104],[2.63382,50.46355],[2.63704,50.4628]]]}},{"type":"Feature","properties":{"k":"BTN","s":0.0},"geometry":{"type":"Polygon","coordinates":[]}},{"type":"Feature","properties":{"k":"PTC","s":6.744},"geometry":{"type":"Polygon","coordinates":[[[2.63501,50.46321],[2.63384,50.46359],[2.63487,50.46521],[2.63627,50.46487],[2.63684,50.46586],[2.63829,50.46549],[2.63778,50.46434],[2.6381,50.46266],[2.63501,50.46321]]]}},{"type":"Feature","properties":{"k":"PHF","s":8.648},"geometry":{"type":"Polygon","coordinates":[[[2.63627,50.46487],[2.63487,50.46521],[2.63384,50.46359],[2.6321,50.46408],[2.62955,50.46453],[2.63005,50.46519],[2.63183,50.46666],[2.63657,50.46537],[2.63627,50.46487]]]}},{"type":"Feature","properties":{"k":"BTN","s":1.964},"geometry":{"type":"Polygon","coordinates":[[[2.63355,50.46721],[2.63253,50.46697],[2.63276,50.46743],[2.63238,50.46759],[2.6339,50.46916],[2.63462,50.46888],[2.63492,50.46877],[2.63355,50.46721]]]}},{"type":"Feature","properties":{"k":"LIF","s":8.054},"geometry":{"type":"Polygon","coordinates":[[[2.63367,50.46714],[2.63491,50.46858],[2.63577,50.46899],[2.63767,50.46872],[2.63651,50.46735],[2.63755,50.46708],[2.63659,50.46543],[2.63186,50.46666],[2.63367,50.46714]]]}},{"type":"Feature","properties":{"k":"CZH","s":2.437},"geometry":{"type":"Polygon","coordinates":[[[2.63767,50.46872],[2.63819,50.46869],[2.63802,50.4678],[2.63988,50.46747],[2.6393,50.46662],[2.63651,50.46735],[2.63767,50.46872]]]}},{"type":"Feature","properties":{"k":"BTH","s":1.727},"geometry":{"type":"Polygon","coordinates":[[[2.63929,50.46662],[2.63829,50.46549],[2.63684,50.46586],[2.63755,50.46708],[2.63929,50.46662]]]}},{"type":"Feature","properties":{"k":"CZH","s":0.006},"geometry":{"type":"Polygon","coordinates":[[[2.63561,50.46936],[2.63559,50.4692],[2.6355,50.46922],[2.63561,50.46936]]]}},{"type":"Feature","properties":{"k":"ORP","s":0.227},"geometry":{"type":"Polygon","coordinates":[[[2.63564,50.46974],[2.63561,50.46944],[2.63414,50.46994],[2.63564,50.46974]]]}},{"type":"Feature","properties":{"k":"ORH","s":1.168},"geometry":{"type":"Polygon","coordinates":[[[2.63306,50.47081],[2.63398,50.47037],[2.63376,50.47009],[2.63561,50.46942],[2.63559,50.46908],[2.63249,50.4702],[2.63306,50.47081]]]}},{"type":"Feature","properties":{"k":"ORH","s":1.051},"geometry":{"type":"Polygon","coordinates":[[[2.63222,50.46992],[2.63249,50.4702],[2.63559,50.46908],[2.63492,50.46877],[2.6339,50.46916],[2.63398,50.46928],[2.63222,50.46992]]]}},{"type":"Feature","properties":{"k":"PTC","s":1.861},"geometry":{"type":"Polygon","coordinates":[[[2.63287,50.46968],[2.63401,50.46927],[2.63238,50.46759],[2.63146,50.46794],[2.63287,50.46968]]]}},{"type":"Feature","properties":{"k":"BTH","s":0.242},"geometry":{"type":"Polygon","coordinates":[[[2.63306,50.47081],[2.63222,50.46992],[2.63201,50.47005],[2.63298,50.47097],[2.63375,50.4705],[2.63306,50.47081]]]}}]}