{"type":"FeatureCollection","features":[{"type":"Feature","properties":{"k":"BTH","s":2.803},"geometry":{"type":"Polygon","coordinates":[[[2.58216,50.21809],[2.587,50.21927],[2.58801,50.21899],[2.58785,50.21894],[2.58801,50.21888],[2.58281,50.21754],[2.58216,50.21809]]]}},{"type":"Feature","properties":{"k":"AVH","s":0.048},"geometry":{"type":"Polygon","coordinates":[[[2.586,50.21681],[2.5872,50.21713],[2.58475,50.21642],[2.586,50.21681]]]}},{"type":"Feature","properties":{"k":"BTH","s":0.008},"geometry":{"type":"Polygon","coordinates":[[[2.59086,50.21819],[2.59089,50.21819],[2.5881,50.21739],[2.59086,50.21819]]]}},{"type":"Feature","properties":{"k":"BTH","s":7.106},"geometry":{"type":"Polygon","coordinates":[[[2.59086,50.21819],[2.58472,50.21647],[2.58281,50.21754],[2.5883,50.21891],[2.59086,50.21819]]]}},{"type":"Feature","properties":{"k":"BTN","s":2.88},"geometry":{"type":"Polygon","coordinates":[[[2.59069,50.22021],[2.59159,50.21914],[2.58973,50.21861],[2.58706,50.21932],[2.59069,50.22021]]]}},{"type":"Feature","properties":{"k":"BTH","s":3.821},"geometry":{"type":"Polygon","coordinates":[[[2.59102,50.22131],[2.59165,50.22054],[2.58695,50.21938],[2.58528,50.21985],[2.59102,50.22131]]]}},{"type":"Feature","properties":{"k":"PTC","s":8.813},"geometry":{"type":"Polygon","coordinates":[[[2.58674,50.2221],[2.58797,50.22146],[2.58965,50.22268],[2.59132,50.22154],[2.58477,50.21986],[2.58391,50.22],[2.58164,50.22077],[2.58674,50.2221]]]}},{"type":"Feature","properties":{"k":"MIS","s":0.008},"geometry":{"type":"MultiPolygon","coordinates":[[[[2.58671,50.22211],[2.58659,50.22221],[2.58693,50.22201],[2.58671,50.22211]]],[[[2.58659,50.22227],[2.58683,50.22262],[2.58659,50.22221],[2.58658,50.22221],[2.58659,50.22227]]]]}},{"type":"Feature","properties":{"k":"MIS","s":0.062},"geometry":{"type":"MultiPolygon","coordinates":[[[[2.58961,50.2227],[2.58797,50.22146],[2.58793,50.22148],[2.58961,50.2227]]]]}},{"type":"Feature","properties":{"k":"MIS","s":0.723},"geometry":{"type":"Polygon","coordinates":[[[2.58779,50.22502],[2.58731,50.22501],[2.58729,50.22479],[2.58764,50.22468],[2.58755,50.2245],[2.58694,50.22454],[2.58555,50.22419],[2.5855,50.22462],[2.58572,50.22452],[2.588,50.22538],[2.58779,50.22502]]]}},{"type":"Feature","properties":{"k":"MIS","s":0.002},"geometry":{"type":"Polygon","coordinates":[[[2.58396,50.22563],[2.58379,50.22577],[2.58381,50.22578],[2.58396,50.22563]]]}},{"type":"Feature","properties":{"k":"BTH","s":0.003},"geometry":{"type":"Polygon","coordinates":[[[2.58603,50.22831],[2.586,50.22835],[2.58622,50.22828],[2.58603,50.22831]]]}},{"type":"Feature","properties":{"k":"MIS","s":0.001},"geometry":{"type":"Polygon","coordinates":[[[2.55028,50.23616],[2.55028,50.23617],[2.5504,50.23622],[2.55028,50.23616]]]}},{"type":"Feature","properties":{"k":"LIF","s":0.02},"geometry":{"type":"Polygon","coordinates":[[[2.5504,50.23622],[2.55151,50.23669],[2.55095,50.23644],[2.5504,50.23622]]]}},{"type":"Feature","properties":{"k":"ORH","s":0.056},"geometry":{"type":"MultiPolygon","coordinates":[[[[2.55478,50.23595],[2.55457,50.23597],[2.55636,50.23631],[2.55478,50.23595]]],[[[2.55343,50.2359],[2.55418,50.236],[2.55347,50.23586],[2.55343,50.2359]]]]}},{"type":"Feature","properties":{"k":"BTH","s":3.157},"geometry":{"type":"Polygon","coordinates":[[[2.57009,50.23595],[2.56753,50.23763],[2.56929,50.23822],[2.57136,50.23672],[2.57009,50.23595]]]}},{"type":"Feature","properties":{"k":"BTH","s":2.609},"geometry":{"type":"Polygon","coordinates":[[[2.56784,50.21916],[2.57188,50.21657],[2.57094,50.21633],[2.56759,50.21841],[2.5677,50.21917],[2.56784,50.21916]]]}},{"type":"Feature","properties":{"k":"PPH","s":26.136},"geometry":{"type":"Polygon","coordinates":[[[2.56126,50.22077],[2.56398,50.22342],[2.56491,50.22296],[2.5655,50.22325],[2.56624,50.22311],[2.56653,50.22266],[2.56886,50.22175],[2.56537,50.21865],[2.56616,50.21831],[2.56291,50.21639],[2.5594,50.2201],[2.56126,50.22077]]]}},{"type":"Feature","properties":{"k":"BTH","s":5.994},"geometry":{"type":"Polygon","coordinates":[[[2.5594,50.22009],[2.56291,50.21639],[2.56236,50.21612],[2.56189,50.21561],[2.56188,50.21559],[2.56069,50.21658],[2.55792,50.21955],[2.5594,50.22009]],[[2.56201,50.21576],[2.56174,50.21595],[2.5616,50.21585],[2.56189,50.21561],[2.56201,50.21576]]]}},{"type":"Feature","properties":{"k":"MIS","s":1.759},"geometry":{"type":"Polygon","coordinates":[[[2.55902,50.21838],[2.55924,50.21814],[2.55279,50.21579],[2.55255,50.21606],[2.55902,50.21838]]]}},{"type":"Feature","properties":{"k":"BTN","s":0.795},"geometry":{"type":"Polygon","coordinates":[[[2.55244,50.21617],[2.5589,50.2185],[2.55902,50.21838],[2.55255,50.21606],[2.55244,50.21617]]]}},{"type":"Feature","properties":{"k":"BTN","s":7.001},"geometry":{"type":"Polygon","coordinates":[[[2.55185,50.21733],[2.55792,50.21955],[2.5589,50.2185],[2.55244,50.21617],[2.55198,50.21669],[2.55185,50.21733]]]}},{"type":"Feature","properties":{"k":"MIS","s":22.798},"geometry":{"type":"Polygon","coordinates":[[[2.55183,50.21735],[2.55135,50.21794],[2.55054,50.21764],[2.54831,50.21901],[2.54954,50.22183],[2.54985,50.22179],[2.54999,50.22228],[2.55091,50.22228],[2.55107,50.22211],[2.55151,50.22222],[2.55135,50.22237],[2.55278,50.2231],[2.55523,50.2228],[2.55413,50.2221],[2.55616,50.21893],[2.55183,50.21735]]]}},{"type":"Feature","properties":{"k":"MIS","s":5.203},"geometry":{"type":"Polygon","coordinates":[[[2.54357,50.21428],[2.5437,50.2147],[2.54447,50.21524],[2.54503,50.21599],[2.54523,50.21592],[2.54604,50.2169],[2.54529,50.21717],[2.54645,50.21801],[2.54663,50.21904],[2.54716,50.21888],[2.54734,50.21909],[2.5482,50.21888],[2.54844,50.21874],[2.54595,50.2156],[2.54454,50.21401],[2.54357,50.21428]]]}},{"type":"Feature","properties":{"k":"PTC","s":4.898},"geometry":{"type":"Polygon","coordinates":[[[2.54638,50.21614],[2.54836,50.21863],[2.55031,50.21764],[2.54812,50.21545],[2.54638,50.21614]]]}},{"type":"Feature","properties":{"k":"BTH","s":8.598},"geometry":{"type":"Polygon","coordinates":[[[2.55314,50.21537],[2.54967,50.21387],[2.54755,50.21488],[2.55031,50.21764],[2.5518,50.21676],[2.55314,50.21537]]]}},{"type":"Feature","properties":{"k":"BTH","s":3.996},"geometry":{"type":"Polygon","coordinates":[[[2.54484,50.21293],[2.54412,50.2133],[2.54638,50.21614],[2.54809,50.21542],[2.54484,50.21293]]]}},{"type":"Feature","properties":{"k":"MIS","s":0.733},"geometry":{"type":"Polygon","coordinates":[[[2.54754,50.21488],[2.54873,50.21431],[2.5478,50.21384],[2.54691,50.21442],[2.54754,50.21488]]]}},{"type":"Feature","properties":{"k":"CZH","s":1.576},"geometry":{"type":"Polygon","coordinates":[[[2.54484,50.21292],[2.54691,50.21442],[2.5478,50.21384],[2.54544,50.21263],[2.54484,50.21292]]]}},{"type":"Feature","properties":{"k":"BTH","s":3.003},"geometry":{"type":"Polygon","coordinates":[[[2.55373,50.21494],[2.54809,50.21258],[2.54737,50.21301],[2.55316,50.21536],[2.55373,50.21494]]]}},{"type":"Feature","properties":{"k":"PTC","s":3.539},"geometry":{"type":"Polygon","coordinates":[[[2.55436,50.21443],[2.54889,50.21209],[2.54809,50.21258],[2.5537,50.21493],[2.55436,50.21443]]]}},{"type":"Feature","properties":{"k":"BTH","s":5.403},"geometry":{"type":"Polygon","coordinates":[[[2.55354,50.21274],[2.55035,50.21121],[2.54889,50.21209],[2.55436,50.21443],[2.55509,50.21366],[2.55335,50.21291],[2.55354,50.21274]]]}},{"type":"Feature","properties":{"k":"PPH","s":1.118},"geometry":{"type":"Polygon","coordinates":[[[2.55517,50.21336],[2.55531,50.21319],[2.55559,50.21328],[2.5555,50.21264],[2.55421,50.21213],[2.55356,50.21272],[2.55517,50.21336]]]}},{"type":"Feature","properties":{"k":"BTH","s":0.304},"geometry":{"type":"Polygon","coordinates":[[[2.55354,50.21274],[2.55335,50.21291],[2.55486,50.21355],[2.55507,50.21334],[2.55354,50.21274]]]}},{"type":"Feature","properties":{"k":"BTH","s":10.507},"geometry":{"type":"Polygon","coordinates":[[[2.55448,50.21442],[2.55279,50.21579],[2.55924,50.21814],[2.56069,50.21658],[2.55477,50.2144],[2.55448,50.21442]]]}},{"type":"Feature","properties":{"k":"MIS","s":7.275},"geometry":{"type":"Polygon","coordinates":[[[2.56069,50.21658],[2.56189,50.21559],[2.56063,50.21485],[2.55561,50.21348],[2.55457,50.21432],[2.56069,50.21658]]]}},{"type":"Feature","properties":{"k":"PPH","s":0.526},"geometry":{"type":"Polygon","coordinates":[[[2.5577,50.21394],[2.558,50.21342],[2.55658,50.21328],[2.55639,50.21366],[2.5577,50.21394]]]}},{"type":"Feature","properties":{"k":"JAC","s":0.143},"geometry":{"type":"Polygon","coordinates":[[[2.55771,50.21209],[2.55722,50.21276],[2.55747,50.21281],[2.55794,50.21214],[2.55771,50.21209]]]}},{"type":"Feature","properties":{"k":"PPH","s":0.073},"geometry":{"type":"Polygon","coordinates":[[[2.5581,50.2116],[2.55795,50.21157],[2.55773,50.21199],[2.55798,50.21207],[2.5581,50.2116]]]}},{"type":"Feature","properties":{"k":"PPH","s":0.327},"geometry":{"type":"Polygon","coordinates":[[[2.55593,50.21179],[2.55713,50.21201],[2.55727,50.21171],[2.55601,50.21147],[2.55593,50.21179]]]}},{"type":"Feature","properties":{"k":"PTR","s":1.898},"geometry":{"type":"Polygon","coordinates":[[[2.55546,50.211],[2.55604,50.21092],[2.55713,50.21029],[2.55615,50.21009],[2.55281,50.21003],[2.55546,50.211]]]}},{"type":"Feature","properties":{"k":"PPH","s":0.015},"geometry":{"type":"Polygon","coordinates":[[[2.55432,50.21001],[2.55323,50.21002],[2.55492,50.21003],[2.55432,50.21001]]]}},{"type":"Feature","properties":{"k":"PPH","s":1.211},"geometry":{"type":"Polygon","coordinates":[[[2.55221,50.21003],[2.55156,50.21082],[2.5523,50.21113],[2.55248,50.21097],[2.55327,50.21121],[2.55385,50.21064],[2.55221,50.21003]]]}},{"type":"Feature","properties":{"k":"PTR","s":0.71},"geometry":{"type":"Polygon","coordinates":[[[2.54583,50.20945],[2.54558,50.20956],[2.54828,50.21111],[2.54868,50.21094],[2.54583,50.20945]]]}},{"type":"Feature","properties":{"k":"PTR","s":1.151},"geometry":{"type":"Polygon","coordinates":[[[2.55135,50.21095],[2.55079,50.21148],[2.55258,50.21228],[2.5532,50.21173],[2.55135,50.21095]]]}},{"type":"Feature","properties":{"k":"MIS","s":5.689},"geometry":{"type":"Polygon","coordinates":[[[2.5441,50.21018],[2.54382,50.21003],[2.54228,50.21076],[2.54521,50.21259],[2.54751,50.21147],[2.54484,50.20988],[2.5441,50.21018]]]}},{"type":"Feature","properties":{"k":"PPH","s":1.685},"geometry":{"type":"Polygon","coordinates":[[[2.54349,50.2119],[2.54282,50.21275],[2.54347,50.21347],[2.54389,50.21328],[2.54379,50.21306],[2.54397,50.21296],[2.54425,50.21311],[2.54521,50.21259],[2.54345,50.21155],[2.54349,50.2119]]]}},{"type":"Feature","properties":{"k":"PPH","s":2.393},"geometry":{"type":"MultiPolygon","coordinates":[[[[2.54583,50.20945],[2.54674,50.20991],[2.54758,50.20935],[2.54679,50.20901],[2.54406,50.21016],[2.54484,50.20988],[2.54751,50.21147],[2.54828,50.21111],[2.54558,50.20956],[2.54583,50.20945]],[[2.54735,50.21105],[2.54746,50.21116],[2.54738,50.21119],[2.54735,50.21105]]],[[[2.54404,50.21015],[2.54381,50.21],[2.5422,50.21072],[2.54382,50.21003],[2.54404,50.21015]]]]}},{"type":"Feature","properties":{"k":"PPH","s":0.444},"geometry":{"type":"Polygon","coordinates":[[[2.54403,50.21335],[2.54355,50.21361],[2.54355,50.21428],[2.54456,50.214],[2.54403,50.21335]]]}},{"type":"Feature","properties":{"k":"BTH","s":0.008},"geometry":{"type":"MultiPolygon","coordinates":[[[[2.54392,50.22758],[2.54413,50.22739],[2.54407,50.22741],[2.54392,50.22758]]],[[[2.54474,50.22711],[2.54454,50.22723],[2.54464,50.22719],[2.54474,50.22711]]],[[[2.54483,50.22702],[2.54489,50.2268],[2.54479,50.22707],[2.54483,50.22702]]],[[[2.54504,50.22643],[2.545,50.22653],[2.54505,50.22642],[2.54504,50.22643]]]]}},{"type":"Feature","properties":{"k":"PTR","s":1.773},"geometry":{"type":"Polygon","coordinates":[[[2.54778,50.2219],[2.54952,50.22225],[2.54899,50.22063],[2.5473,50.22078],[2.54778,50.2219]]]}},{"type":"Feature","properties":{"k":"MIS","s":6.343},"geometry":{"type":"Polygon","coordinates":[[[2.56115,50.22087],[2.56125,50.22079],[2.55616,50.21893],[2.55413,50.2221],[2.55523,50.2228],[2.55687,50.22253],[2.55694,50.22236],[2.55617,50.22246],[2.55793,50.21971],[2.56115,50.22087]]]}},{"type":"Feature","properties":{"k":"MIS","s":0.166},"geometry":{"type":"Polygon","coordinates":[[[2.55853,50.22303],[2.55863,50.22294],[2.55694,50.22236],[2.5569,50.22247],[2.55853,50.22303]]]}},{"type":"Feature","properties":{"k":"BTN","s":3.813},"geometry":{"type":"Polygon","coordinates":[[[2.55239,50.22494],[2.55468,50.22586],[2.55511,50.22524],[2.55341,50.22449],[2.55167,50.22308],[2.55194,50.22281],[2.55178,50.22272],[2.55027,50.2242],[2.55239,50.22494]]]}},{"type":"Feature","properties":{"k":"BTH","s":9.956},"geometry":{"type":"Polygon","coordinates":[[[2.55196,50.22282],[2.55169,50.22307],[2.55349,50.22452],[2.55827,50.22638],[2.55931,50.22531],[2.55586,50.22279],[2.553,50.22318],[2.55196,50.22282]]]}},{"type":"Feature","properties":{"k":"PPH","s":6.314},"geometry":{"type":"Polygon","coordinates":[[[2.55636,50.22814],[2.55604,50.22865],[2.55678,50.22937],[2.55706,50.22939],[2.55765,50.22903],[2.55841,50.22885],[2.56074,50.22874],[2.56079,50.22852],[2.55908,50.22809],[2.55446,50.22583],[2.55368,50.22626],[2.55636,50.22814]]]}},{"type":"Feature","properties":{"k":"BTH","s":17.325},"geometry":{"type":"Polygon","coordinates":[[[2.55191,50.23011],[2.55499,50.22993],[2.55678,50.22937],[2.55604,50.22865],[2.55636,50.22814],[2.55368,50.22626],[2.55446,50.22583],[2.55292,50.22519],[2.54881,50.22931],[2.55191,50.23011]]]}},{"type":"Feature","properties":{"k":"MIS","s":5.002},"geometry":{"type":"Polygon","coordinates":[[[2.55179,50.2248],[2.54772,50.22886],[2.54865,50.22927],[2.54881,50.22931],[2.55292,50.22519],[2.55179,50.2248]]]}},{"type":"Feature","properties":{"k":"BTH","s":19.801},"geometry":{"type":"MultiPolygon","coordinates":[[[[2.55027,50.2242],[2.55177,50.22269],[2.55105,50.22241],[2.54967,50.22236],[2.54904,50.22224],[2.54772,50.22197],[2.5481,50.22241],[2.5469,50.22417],[2.54721,50.22428],[2.54717,50.22443],[2.54617,50.2253],[2.5459,50.22596],[2.5451,50.2264],[2.54456,50.22725],[2.54725,50.22856],[2.54736,50.22844],[2.54789,50.22869],[2.55178,50.2248],[2.55027,50.2242]],[[2.5498,50.22248],[2.54898,50.22235],[2.54904,50.22224],[2.5498,50.22248]]],[[[2.54751,50.22879],[2.5477,50.22888],[2.54738,50.22871],[2.54751,50.22879]]]]}},{"type":"Feature","properties":{"k":"BTH","s":0.073},"geometry":{"type":"MultiPolygon","coordinates":[[[[2.5459,50.22596],[2.54598,50.22584],[2.54601,50.22557],[2.54576,50.22606],[2.54541,50.22624],[2.54564,50.22617],[2.5459,50.22596]]],[[[2.54617,50.2253],[2.54627,50.22518],[2.54619,50.22525],[2.54602,50.22557],[2.54617,50.2253]]],[[[2.54702,50.22462],[2.54709,50.22453],[2.54648,50.22502],[2.54702,50.22462]]],[[[2.54717,50.22443],[2.54721,50.22428],[2.5469,50.22417],[2.54717,50.2243],[2.54709,50.22453],[2.54717,50.22443]]]]}},{"type":"Feature","properties":{"k":"LIF","s":8.832},"geometry":{"type":"Polygon","coordinates":[[[2.54775,50.22894],[2.54456,50.22725],[2.54413,50.22741],[2.5433,50.22813],[2.54447,50.22934],[2.54433,50.22946],[2.54789,50.23118],[2.54968,50.22967],[2.54775,50.22894]]]}},{"type":"Feature","properties":{"k":"BTN","s":2.538},"geometry":{"type":"Polygon","coordinates":[[[2.54921,50.23159],[2.55026,50.23076],[2.5517,50.23019],[2.54969,50.22967],[2.5479,50.23118],[2.54921,50.23159]]]}},{"type":"Feature","properties":{"k":"MIS","s":2.52},"geometry":{"type":"Polygon","coordinates":[[[2.55697,50.22953],[2.55704,50.22964],[2.55635,50.22979],[2.55942,50.23101],[2.56014,50.23015],[2.55771,50.22915],[2.55697,50.22953]]]}},{"type":"Feature","properties":{"k":"CZH","s":5.099},"geometry":{"type":"Polygon","coordinates":[[[2.55605,50.22989],[2.55623,50.23011],[2.556,50.23021],[2.55555,50.22997],[2.55333,50.23019],[2.55842,50.23231],[2.55904,50.23151],[2.5588,50.23143],[2.55911,50.23106],[2.55933,50.23113],[2.55942,50.23101],[2.55635,50.22979],[2.55605,50.22989]]]}},{"type":"Feature","properties":{"k":"MIS","s":5.289},"geometry":{"type":"Polygon","coordinates":[[[2.55194,50.23027],[2.55134,50.23053],[2.55777,50.23313],[2.55845,50.23232],[2.55333,50.23019],[2.55194,50.23027]]]}},{"type":"Feature","properties":{"k":"BTN","s":1.649},"geometry":{"type":"Polygon","coordinates":[[[2.55777,50.23313],[2.55758,50.23305],[2.55134,50.23053],[2.55091,50.23066],[2.55758,50.23338],[2.55777,50.23313]]]}},{"type":"Feature","properties":{"k":"CAR","s":3.001},"geometry":{"type":"Polygon","coordinates":[[[2.54942,50.23148],[2.55619,50.23429],[2.55652,50.23429],[2.55682,50.234],[2.54986,50.23113],[2.54942,50.23148]]]}},{"type":"Feature","properties":{"k":"NVT","s":0.996},"geometry":{"type":"Polygon","coordinates":[[[2.54927,50.2316],[2.55559,50.23424],[2.55619,50.23429],[2.54942,50.23148],[2.54927,50.2316]]]}},{"type":"Feature","properties":{"k":"BTN","s":5.002},"geometry":{"type":"Polygon","coordinates":[[[2.54986,50.23113],[2.55682,50.234],[2.55726,50.23356],[2.55741,50.23361],[2.55758,50.23338],[2.55091,50.23066],[2.54986,50.23113]]]}},{"type":"Feature","properties":{"k":"CZH","s":6.197},"geometry":{"type":"MultiPolygon","coordinates":[[[[2.55854,50.23455],[2.55845,50.23454],[2.55862,50.23458],[2.55854,50.23455]]],[[[2.55634,50.23435],[2.55559,50.23424],[2.55389,50.23353],[2.55352,50.23381],[2.55392,50.23397],[2.55293,50.23569],[2.55177,50.23679],[2.55225,50.23698],[2.55347,50.23586],[2.55478,50.23595],[2.55637,50.23629],[2.55727,50.23429],[2.55634,50.23435]]]]}},{"type":"Feature","properties":{"k":"ORH","s":0.0},"geometry":{"type":"Polygon","coordinates":[]}},{"type":"Feature","properties":{"k":"BTH","s":8.001},"geometry":{"type":"Polygon","coordinates":[[[2.54884,50.23543],[2.55177,50.23679],[2.55293,50.23569],[2.55392,50.23397],[2.55108,50.23283],[2.55173,50.2331],[2.54884,50.23543]]]}},{"type":"Feature","properties":{"k":"BTP","s":1.599},"geometry":{"type":"Polygon","coordinates":[[[2.55352,50.23381],[2.55389,50.23353],[2.54923,50.23163],[2.5489,50.2319],[2.55352,50.23381]]]}},{"type":"Feature","properties":{"k":"TTH","s":7.459},"geometry":{"type":"Polygon","coordinates":[[[2.54881,50.23537],[2.55161,50.23305],[2.54888,50.23189],[2.5463,50.23406],[2.54881,50.23537]]]}},{"type":"Feature","properties":{"k":"PTC","s":12.182},"geometry":{"type":"Polygon","coordinates":[[[2.54433,50.23452],[2.54568,50.23376],[2.54621,50.23405],[2.54918,50.2316],[2.54744,50.23101],[2.5448,50.2297],[2.54308,50.23119],[2.54348,50.23175],[2.54433,50.23452]]]}},{"type":"Feature","properties":{"k":"ORH","s":0.016},"geometry":{"type":"Polygon","coordinates":[[[2.54581,50.23387],[2.54692,50.23448],[2.54618,50.23404],[2.54581,50.23387]]]}},{"type":"Feature","properties":{"k":"BTH","s":0.002},"geometry":{"type":"Polygon","coordinates":[[[2.54814,50.23516],[2.54859,50.23537],[2.5486,50.23536],[2.54814,50.23516]]]}},{"type":"Feature","properties":{"k":"CZH","s":0.0},"geometry":{"type":"Polygon","coordinates":[]}},{"type":"Feature","properties":{"k":"BTH","s":0.821},"geometry":{"type":"Polygon","coordinates":[[[2.54432,50.22946],[2.54281,50.23078],[2.54308,50.23118],[2.54478,50.22968],[2.54432,50.22946]]]}},{"type":"Feature","properties":{"k":"PPH","s":0.012},"geometry":{"type":"MultiPolygon","coordinates":[[[[2.54417,50.22911],[2.54437,50.22932],[2.5444,50.22929],[2.54417,50.22911]]],[[[2.54375,50.22869],[2.5439,50.22884],[2.54379,50.22871],[2.54375,50.22869]]],[[[2.5434,50.22833],[2.54357,50.2285],[2.54355,50.2284],[2.5434,50.22833]]],[[[2.54369,50.2278],[2.54327,50.22807],[2.54367,50.22783],[2.54369,50.2278]]]]}},{"type":"Feature","properties":{"k":"ORH","s":1.063},"geometry":{"type":"Polygon","coordinates":[[[2.58211,50.23407],[2.58139,50.23462],[2.58298,50.23549],[2.58356,50.2351],[2.58211,50.23407]]]}},{"type":"Feature","properties":{"k":"MIS","s":0.997},"geometry":{"type":"Polygon","coordinates":[[[2.5807,50.23515],[2.58237,50.2359],[2.58298,50.23549],[2.58139,50.23462],[2.5807,50.23515]]]}},{"type":"Feature","properties":{"k":"LIF","s":1.184},"geometry":{"type":"MultiPolygon","coordinates":[[[[2.57487,50.23415],[2.57536,50.2338],[2.57465,50.23345],[2.57493,50.23307],[2.57413,50.23272],[2.57317,50.23335],[2.57487,50.23415]]],[[[2.58152,50.23552],[2.58092,50.23529],[2.58219,50.23586],[2.58152,50.23552]]]]}},{"type":"Feature","properties":{"k":"PPH","s":2.319},"geometry":{"type":"Polygon","coordinates":[[[2.57758,50.2335],[2.57702,50.23392],[2.5807,50.23515],[2.58211,50.23407],[2.58158,50.2337],[2.58062,50.23455],[2.57758,50.2335]]]}},{"type":"Feature","properties":{"k":"BTN","s":2.387},"geometry":{"type":"Polygon","coordinates":[[[2.57999,50.2325],[2.5791,50.23327],[2.57828,50.23296],[2.57758,50.2335],[2.58004,50.23429],[2.58108,50.23333],[2.57999,50.2325]]]}},{"type":"Feature","properties":{"k":"BTP","s":0.796},"geometry":{"type":"Polygon","coordinates":[[[2.57606,50.23217],[2.5791,50.23327],[2.57938,50.23303],[2.57626,50.23192],[2.57606,50.23217]]]}},{"type":"Feature","properties":{"k":"BTH","s":15.44},"geometry":{"type":"Polygon","coordinates":[[[2.578,50.23135],[2.58012,50.22986],[2.58274,50.22933],[2.57758,50.22715],[2.57744,50.2274],[2.57616,50.22807],[2.57459,50.22828],[2.57351,50.22981],[2.578,50.23135]]]}},{"type":"Feature","properties":{"k":"LBF","s":2.662},"geometry":{"type":"Polygon","coordinates":[[[2.57916,50.23188],[2.57695,50.23104],[2.57626,50.23192],[2.57938,50.23303],[2.57993,50.23255],[2.57916,50.23188]]]}},{"type":"Feature","properties":{"k":"PPH","s":3.917},"geometry":{"type":"Polygon","coordinates":[[[2.5744,50.23174],[2.57563,50.23227],[2.57665,50.23094],[2.57355,50.22997],[2.5725,50.23134],[2.57416,50.23182],[2.5744,50.23174]]]}},{"type":"Feature","properties":{"k":"BTP","s":0.008},"geometry":{"type":"Polygon","coordinates":[[[2.57361,50.22985],[2.57351,50.22981],[2.57346,50.22989],[2.57361,50.22985]]]}},{"type":"Feature","properties":{"k":"PPH","s":2.803},"geometry":{"type":"Polygon","coordinates":[[[2.57105,50.22898],[2.57346,50.22989],[2.57459,50.22828],[2.57172,50.22821],[2.57105,50.22898]]]}},{"type":"Feature","properties":{"k":"PPH","s":0.644},"geometry":{"type":"Polygon","coordinates":[[[2.57211,50.22789],[2.57133,50.22737],[2.57077,50.2277],[2.57097,50.22787],[2.57121,50.22774],[2.57138,50.22782],[2.5712,50.22796],[2.57163,50.22818],[2.57115,50.2283],[2.57086,50.22822],[2.57074,50.22842],[2.57127,50.22861],[2.57105,50.22898],[2.57211,50.22789]]]}},{"type":"Feature","properties":{"k":"PPH","s":2.027},"geometry":{"type":"Polygon","coordinates":[[[2.56993,50.2301],[2.57066,50.23077],[2.57149,50.23101],[2.57247,50.22963],[2.5715,50.22929],[2.57105,50.22976],[2.57017,50.22946],[2.56993,50.2301]]]}},{"type":"Feature","properties":{"k":"BTH","s":1.313},"geometry":{"type":"Polygon","coordinates":[[[2.57154,50.23099],[2.57249,50.23132],[2.57353,50.22999],[2.57257,50.22964],[2.57154,50.23099]]]}},{"type":"Feature","properties":{"k":"PPH","s":5.534},"geometry":{"type":"Polygon","coordinates":[[[2.57063,50.23078],[2.5699,50.23012],[2.56872,50.23109],[2.57324,50.2331],[2.57401,50.2326],[2.5751,50.23306],[2.5753,50.23288],[2.57441,50.23247],[2.57484,50.23193],[2.57063,50.23078]]]}},{"type":"Feature","properties":{"k":"PTC","s":1.761},"geometry":{"type":"Polygon","coordinates":[[[2.57213,50.23466],[2.57324,50.23534],[2.57487,50.23415],[2.57375,50.23363],[2.57213,50.23466]]]}},{"type":"Feature","properties":{"k":"PTR","s":0.014},"geometry":{"type":"Polygon","coordinates":[[[2.58054,50.21521],[2.58047,50.21519],[2.58041,50.21543],[2.58054,50.21521]]]}},{"type":"Feature","properties":{"k":"PTR","s":0.001},"geometry":{"type":"Polygon","coordinates":[]}},{"type":"Feature","properties":{"k":"OIG","s":0.74},"geometry":{"type":"Polygon","coordinates":[[[2.58039,50.21551],[2.58473,50.21646],[2.58054,50.21521],[2.58039,50.21551]]]}},{"type":"Feature","properties":{"k":"PTR","s":0.29},"geometry":{"type":"Polygon","coordinates":[[[2.5596,50.21239],[2.56032,50.21256],[2.56064,50.21212],[2.55988,50.21205],[2.5596,50.21239]]]}},{"type":"Feature","properties":{"k":"PPH","s":8.082},"geometry":{"type":"Polygon","coordinates":[[[2.56025,50.21119],[2.55729,50.21032],[2.55631,50.21089],[2.55736,50.21115],[2.55728,50.21127],[2.55683,50.21125],[2.56074,50.21206],[2.56601,50.21359],[2.56676,50.21219],[2.56025,50.21119]]]}},{"type":"Feature","properties":{"k":"PPH","s":4.517},"geometry":{"type":"Polygon","coordinates":[[[2.56084,50.21414],[2.56102,50.21394],[2.56049,50.2138],[2.56035,50.21406],[2.55988,50.21391],[2.55974,50.2141],[2.56006,50.21412],[2.55991,50.2143],[2.55946,50.21444],[2.56151,50.21518],[2.56245,50.21609],[2.56425,50.21706],[2.56596,50.21587],[2.56532,50.21549],[2.56443,50.21618],[2.56341,50.21563],[2.56372,50.2154],[2.5634,50.21524],[2.563,50.21554],[2.56239,50.21521],[2.56293,50.2148],[2.56202,50.21451],[2.56181,50.2143],[2.56201,50.21405],[2.56145,50.2139],[2.56115,50.21424],[2.56084,50.21414]]]}},{"type":"Feature","properties":{"k":"PPH","s":1.178},"geometry":{"type":"Polygon","coordinates":[[[2.56443,50.21618],[2.56553,50.21529],[2.56465,50.21473],[2.56341,50.21563],[2.56443,50.21618]]]}},{"type":"Feature","properties":{"k":"BTH","s":3.548},"geometry":{"type":"Polygon","coordinates":[[[2.56851,50.21437],[2.56942,50.21272],[2.56676,50.21219],[2.56601,50.21359],[2.56851,50.21437]]]}},{"type":"Feature","properties":{"k":"BTH","s":2.971},"geometry":{"type":"Polygon","coordinates":[[[2.56851,50.21437],[2.57036,50.21494],[2.57134,50.21308],[2.57227,50.2132],[2.56942,50.21272],[2.56851,50.21437]]]}},{"type":"Feature","properties":{"k":"PPH","s":3.925},"geometry":{"type":"Polygon","coordinates":[[[2.56536,50.21357],[2.56505,50.21396],[2.56575,50.21407],[2.56552,50.21423],[2.5671,50.21463],[2.5668,50.2151],[2.57064,50.21608],[2.57132,50.21539],[2.56536,50.21357]]]}},{"type":"Feature","properties":{"k":"PHF","s":3.719},"geometry":{"type":"Polygon","coordinates":[[[2.56776,50.22044],[2.56724,50.21675],[2.56683,50.21616],[2.56491,50.2174],[2.56597,50.21803],[2.56666,50.2187],[2.56719,50.22003],[2.56776,50.22044]]]}},{"type":"Feature","properties":{"k":"PPH","s":4.082},"geometry":{"type":"Polygon","coordinates":[[[2.56693,50.21535],[2.56647,50.21566],[2.56731,50.2167],[2.56757,50.21818],[2.57061,50.21625],[2.56693,50.21535]]]}},{"type":"Feature","properties":{"k":"PPH","s":1.955},"geometry":{"type":"Polygon","coordinates":[[[2.5653,50.22694],[2.56464,50.22751],[2.56417,50.22721],[2.56379,50.22751],[2.565,50.22889],[2.56567,50.22843],[2.56632,50.22761],[2.5653,50.22694]]]}},{"type":"Feature","properties":{"k":"PPH","s":8.941},"geometry":{"type":"Polygon","coordinates":[[[2.5551,50.22524],[2.55469,50.22585],[2.55605,50.2264],[2.55917,50.22805],[2.5616,50.22868],[2.56227,50.22856],[2.56374,50.22743],[2.56282,50.22579],[2.56108,50.22741],[2.5551,50.22524]]]}},{"type":"Feature","properties":{"k":"PPH","s":10.831},"geometry":{"type":"Polygon","coordinates":[[[2.55827,50.22638],[2.56109,50.2274],[2.56248,50.2261],[2.56148,50.22566],[2.56289,50.22528],[2.56113,50.22408],[2.55934,50.22334],[2.55698,50.22263],[2.55586,50.22279],[2.55932,50.22531],[2.55827,50.22638]]]}},{"type":"Feature","properties":{"k":"PPH","s":0.745},"geometry":{"type":"Polygon","coordinates":[[[2.56445,50.22596],[2.56418,50.2256],[2.56322,50.22549],[2.56285,50.22583],[2.5633,50.22648],[2.56445,50.22596]]]}},{"type":"Feature","properties":{"k":"PPH","s":9.351},"geometry":{"type":"Polygon","coordinates":[[[2.56391,50.22338],[2.56125,50.22079],[2.55853,50.22303],[2.56101,50.2239],[2.56302,50.22525],[2.56406,50.2255],[2.56461,50.22521],[2.56447,50.22495],[2.56356,50.22471],[2.56391,50.22453],[2.56401,50.22423],[2.56382,50.22397],[2.56345,50.22388],[2.56341,50.22363],[2.56391,50.22338]]]}},{"type":"Feature","properties":{"k":"TTH","s":6.63},"geometry":{"type":"Polygon","coordinates":[[[2.55863,50.22294],[2.56115,50.22087],[2.55793,50.21971],[2.55617,50.22246],[2.55709,50.22241],[2.55863,50.22294]]]}},{"type":"Feature","properties":{"k":"PPH","s":0.904},"geometry":{"type":"Polygon","coordinates":[[[2.56868,50.22307],[2.56803,50.2236],[2.56863,50.2243],[2.56983,50.22375],[2.56868,50.22307]]]}},{"type":"Feature","properties":{"k":"PTC","s":2.558},"geometry":{"type":"Polygon","coordinates":[[[2.57457,50.22154],[2.5708,50.22003],[2.57031,50.2207],[2.57385,50.22211],[2.57457,50.22154]]]}},{"type":"Feature","properties":{"k":"LIF","s":6.23},"geometry":{"type":"Polygon","coordinates":[[[2.56879,50.22148],[2.56928,50.22216],[2.57163,50.22353],[2.57186,50.22343],[2.57225,50.22356],[2.57394,50.22215],[2.57031,50.2207],[2.56879,50.22148]]]}},{"type":"Feature","properties":{"k":"MIS","s":2.818},"geometry":{"type":"Polygon","coordinates":[[[2.5708,50.22003],[2.57457,50.22154],[2.57537,50.22073],[2.57115,50.21951],[2.5708,50.22003]]]}},{"type":"Feature","properties":{"k":"PPH","s":0.383},"geometry":{"type":"Polygon","coordinates":[[[2.57419,50.22237],[2.57499,50.22223],[2.57666,50.22297],[2.57695,50.2228],[2.5751,50.22218],[2.57411,50.2223],[2.57379,50.22265],[2.57419,50.22237]]]}},{"type":"Feature","properties":{"k":"BTN","s":1.479},"geometry":{"type":"Polygon","coordinates":[[[2.58319,50.22911],[2.57769,50.22683],[2.5776,50.22716],[2.58273,50.22927],[2.58319,50.22911]]]}},{"type":"Feature","properties":{"k":"PTC","s":5.0},"geometry":{"type":"Polygon","coordinates":[[[2.57851,50.22546],[2.57804,50.22576],[2.5779,50.22615],[2.58414,50.22882],[2.58541,50.22842],[2.57851,50.22546]]]}},{"type":"Feature","properties":{"k":"MLC","s":3.425},"geometry":{"type":"Polygon","coordinates":[[[2.57769,50.22683],[2.58319,50.22911],[2.58414,50.22882],[2.5779,50.22615],[2.57769,50.22683]]]}},{"type":"Feature","properties":{"k":"ORP","s":9.31},"geometry":{"type":"Polygon","coordinates":[[[2.58216,50.22513],[2.58048,50.22419],[2.57848,50.22545],[2.58548,50.22845],[2.5863,50.22824],[2.58638,50.22749],[2.58337,50.22618],[2.58379,50.22577],[2.58216,50.22513]]]}},{"type":"Feature","properties":{"k":"LIF","s":9.989},"geometry":{"type":"Polygon","coordinates":[[[2.57786,50.22164],[2.5764,50.22196],[2.57691,50.22218],[2.57743,50.22206],[2.58695,50.22453],[2.58762,50.2245],[2.58718,50.22321],[2.58017,50.22137],[2.57937,50.22163],[2.57786,50.22164]]]}},{"type":"Feature","properties":{"k":"BTN","s":6.778},"geometry":{"type":"Polygon","coordinates":[[[2.57691,50.22218],[2.58266,50.22469],[2.58216,50.22513],[2.58379,50.22577],[2.58462,50.22503],[2.58549,50.22462],[2.58555,50.22419],[2.57743,50.22206],[2.57691,50.22218]]]}},{"type":"Feature","properties":{"k":"PPH","s":1.774},"geometry":{"type":"Polygon","coordinates":[[[2.58053,50.22418],[2.58097,50.22393],[2.57639,50.22196],[2.57543,50.22214],[2.58053,50.22418]]]}},{"type":"Feature","properties":{"k":"BTH","s":3.866},"geometry":{"type":"Polygon","coordinates":[[[2.5848,50.2197],[2.5861,50.21957],[2.58681,50.21934],[2.58119,50.21798],[2.58085,50.21838],[2.57881,50.21781],[2.57868,50.21807],[2.5848,50.2197]]]}},{"type":"Feature","properties":{"k":"BTH","s":5.801},"geometry":{"type":"Polygon","coordinates":[[[2.58194,50.21803],[2.58216,50.21809],[2.58342,50.21711],[2.58462,50.21649],[2.5804,50.21551],[2.57927,50.21733],[2.58183,50.218],[2.58265,50.21721],[2.58194,50.21803]]]}},{"type":"Feature","properties":{"k":"PTC","s":9.204},"geometry":{"type":"Polygon","coordinates":[[[2.57693,50.2193],[2.57037,50.21759],[2.56845,50.21882],[2.57545,50.22065],[2.57693,50.2193]]]}},{"type":"Feature","properties":{"k":"CZH","s":0.995},"geometry":{"type":"Polygon","coordinates":[[[2.57711,50.21916],[2.5706,50.21746],[2.57037,50.21759],[2.57693,50.2193],[2.57711,50.21916]]]}},{"type":"Feature","properties":{"k":"AVP","s":2.986},"geometry":{"type":"Polygon","coordinates":[[[2.57111,50.21566],[2.57068,50.21609],[2.57809,50.21798],[2.57858,50.21767],[2.57111,50.21566]]]}},{"type":"Feature","properties":{"k":"CZH","s":6.242},"geometry":{"type":"Polygon","coordinates":[[[2.57711,50.21916],[2.57813,50.21821],[2.57189,50.21658],[2.57053,50.21744],[2.57711,50.21916]]]}},{"type":"Feature","properties":{"k":"PTC","s":11.089},"geometry":{"type":"Polygon","coordinates":[[[2.57953,50.21662],[2.58014,50.2157],[2.57854,50.21525],[2.57884,50.21472],[2.5723,50.2132],[2.57134,50.21308],[2.57064,50.21439],[2.57953,50.21662]]]}},{"type":"Feature","properties":{"k":"PTC","s":5.386},"geometry":{"type":"Polygon","coordinates":[[[2.57036,50.21494],[2.57202,50.21547],[2.5788,50.21722],[2.57908,50.21725],[2.57928,50.21699],[2.57953,50.21662],[2.57064,50.21439],[2.57036,50.21494]]]}},{"type":"Feature","properties":{"k":"LUZ","s":1.852},"geometry":{"type":"Polygon","coordinates":[[[2.57138,50.21539],[2.57111,50.21566],[2.57858,50.21767],[2.57886,50.21739],[2.57138,50.21539]]]}},{"type":"Feature","properties":{"k":"BTH","s":0.034},"geometry":{"type":"Polygon","coordinates":[[[2.57748,50.21439],[2.57751,50.21434],[2.576,50.21404],[2.57748,50.21439]]]}},{"type":"Feature","properties":{"k":"AVH","s":0.013},"geometry":{"type":"Polygon","coordinates":[[[2.57879,50.21472],[2.57885,50.21472],[2.57819,50.21452],[2.57879,50.21472]]]}},{"type":"Feature","properties":{"k":"MIS","s":0.023},"geometry":{"type":"Polygon","coordinates":[[[2.57819,50.21452],[2.57752,50.21434],[2.57749,50.21439],[2.57819,50.21452]]]}},{"type":"Feature","properties":{"k":"BTH","s":2.39},"geometry":{"type":"Polygon","coordinates":[[[2.57009,50.23595],[2.57136,50.23672],[2.57324,50.23534],[2.57213,50.23466],[2.57009,50.23595]]]}},{"type":"Feature","properties":{"k":"MLC","s":6.399},"geometry":{"type":"Polygon","coordinates":[[[2.56541,50.23384],[2.57031,50.23581],[2.57189,50.2348],[2.56685,50.23282],[2.56541,50.23384]]]}},{"type":"Feature","properties":{"k":"OIG","s":2.578},"geometry":{"type":"Polygon","coordinates":[[[2.56685,50.23282],[2.57189,50.2348],[2.5725,50.23441],[2.56736,50.23238],[2.56685,50.23282]]]}},{"type":"Feature","properties":{"k":"POT","s":5.506},"geometry":{"type":"Polygon","coordinates":[[[2.56845,50.23144],[2.56736,50.23238],[2.5725,50.23441],[2.57373,50.23362],[2.56845,50.23144]]]}},{"type":"Feature","properties":{"k":"PTC","s":1.032},"geometry":{"type":"Polygon","coordinates":[[[2.57321,50.23326],[2.56949,50.23152],[2.56872,50.2312],[2.56845,50.23144],[2.5731,50.23337],[2.57321,50.23326]]]}},{"type":"Feature","properties":{"k":"JAC","s":0.517},"geometry":{"type":"Polygon","coordinates":[[[2.56419,50.23471],[2.56685,50.23282],[2.56872,50.2312],[2.56419,50.23471]]]}},{"type":"Feature","properties":{"k":"CAR","s":4.916},"geometry":{"type":"Polygon","coordinates":[[[2.56425,50.23467],[2.56911,50.23658],[2.57031,50.23581],[2.56541,50.23385],[2.56425,50.23467]]]}},{"type":"Feature","properties":{"k":"MLC","s":0.234},"geometry":{"type":"Polygon","coordinates":[[[2.56584,50.23536],[2.56911,50.23658],[2.56425,50.23467],[2.56584,50.23536]]]}},{"type":"Feature","properties":{"k":"CPL","s":1.009},"geometry":{"type":"Polygon","coordinates":[[[2.55861,50.22895],[2.55771,50.22915],[2.56014,50.23015],[2.56055,50.22974],[2.55861,50.22895]]]}},{"type":"Feature","properties":{"k":"ORH","s":0.902},"geometry":{"type":"Polygon","coordinates":[[[2.56063,50.22886],[2.55861,50.22895],[2.56056,50.22973],[2.56115,50.22901],[2.56063,50.22886]]]}},{"type":"Feature","properties":{"k":"PPH","s":0.629},"geometry":{"type":"Polygon","coordinates":[[[2.56372,50.22755],[2.56221,50.22869],[2.56281,50.22883],[2.56404,50.22784],[2.56372,50.22755]]]}},{"type":"Feature","properties":{"k":"MIS","s":5.398},"geometry":{"type":"Polygon","coordinates":[[[2.56346,50.22921],[2.5628,50.23017],[2.56766,50.23183],[2.56857,50.23107],[2.5666,50.23004],[2.56497,50.22941],[2.56377,50.22909],[2.56365,50.22926],[2.56346,50.22921]]]}},{"type":"Feature","properties":{"k":"BTN","s":3.496},"geometry":{"type":"Polygon","coordinates":[[[2.56637,50.23289],[2.56765,50.23182],[2.56458,50.23077],[2.5636,50.23196],[2.56637,50.23289]]]}},{"type":"Feature","properties":{"k":"MIS","s":2.559},"geometry":{"type":"Polygon","coordinates":[[[2.56745,50.22889],[2.5666,50.23004],[2.56857,50.23107],[2.56973,50.23006],[2.56774,50.22918],[2.56745,50.22889]]]}},{"type":"Feature","properties":{"k":"PPH","s":2.766},"geometry":{"type":"Polygon","coordinates":[[[2.57042,50.22879],[2.56936,50.22841],[2.56887,50.22806],[2.5681,50.22801],[2.56745,50.22889],[2.56806,50.22942],[2.56973,50.23006],[2.57042,50.22879]]]}},{"type":"Feature","properties":{"k":"PPH","s":0.29},"geometry":{"type":"Polygon","coordinates":[[[2.56616,50.22551],[2.56678,50.22539],[2.5667,50.22519],[2.56575,50.22541],[2.56625,50.2262],[2.56647,50.22608],[2.56616,50.22551]],[[2.56612,50.2256],[2.56615,50.2257],[2.56609,50.22571],[2.56612,50.2256]]]}},{"type":"Feature","properties":{"k":"MIS","s":1.103},"geometry":{"type":"Polygon","coordinates":[[[2.56031,50.23306],[2.55844,50.23243],[2.55798,50.23302],[2.55983,50.23364],[2.56031,50.23306]]]}},{"type":"Feature","properties":{"k":"ORH","s":2.079},"geometry":{"type":"Polygon","coordinates":[[[2.56427,50.23442],[2.56469,50.23411],[2.5587,50.23208],[2.55844,50.23243],[2.56427,50.23442]]]}},{"type":"Feature","properties":{"k":"BTH","s":6.174},"geometry":{"type":"Polygon","coordinates":[[[2.56355,50.22908],[2.56193,50.22876],[2.5614,50.22884],[2.56108,50.22977],[2.56062,50.22983],[2.56009,50.23034],[2.55979,50.23067],[2.5636,50.23196],[2.56458,50.23077],[2.56279,50.23016],[2.56355,50.22908]]]}},{"type":"Feature","properties":{"k":"BTH","s":7.661},"geometry":{"type":"Polygon","coordinates":[[[2.55712,50.23415],[2.55899,50.23461],[2.5621,50.23567],[2.56427,50.23442],[2.56031,50.23306],[2.55983,50.23364],[2.55798,50.23302],[2.55712,50.23415]]]}}]}