{"type":"FeatureCollection","features":[{"type":"Feature","properties":{"k":"PPH","s":3.741},"geometry":{"type":"Polygon","coordinates":[[[1.812,50.45363],[1.81402,50.45276],[1.8146,50.45345],[1.8138,50.45423],[1.81264,50.45458],[1.81272,50.45472],[1.81682,50.4536],[1.81812,50.45311],[1.8177,50.4525],[1.81482,50.45339],[1.81409,50.45245],[1.81163,50.45296],[1.812,50.45363]]]}},{"type":"Feature","properties":{"k":"PPH","s":1.3},"geometry":{"type":"Polygon","coordinates":[[[1.81182,50.45496],[1.81074,50.45429],[1.80981,50.45469],[1.81108,50.45572],[1.81241,50.45488],[1.81211,50.45479],[1.81249,50.45454],[1.81182,50.45496]]]}},{"type":"Feature","properties":{"k":"PTC","s":1.935},"geometry":{"type":"Polygon","coordinates":[[[1.81195,50.45076],[1.81218,50.45121],[1.8143,50.45085],[1.81626,50.45023],[1.81597,50.44985],[1.81195,50.45076]]]}},{"type":"Feature","properties":{"k":"PPH","s":5.205},"geometry":{"type":"Polygon","coordinates":[[[1.81452,50.44909],[1.81552,50.44873],[1.81522,50.44814],[1.81239,50.44846],[1.81092,50.44828],[1.81056,50.44844],[1.81052,50.44889],[1.81177,50.4506],[1.81324,50.45025],[1.81286,50.44948],[1.81461,50.44937],[1.81452,50.44909]]]}},{"type":"Feature","properties":{"k":"BTN","s":4.82},"geometry":{"type":"Polygon","coordinates":[[[1.81052,50.44738],[1.81092,50.44828],[1.81239,50.44846],[1.81461,50.44823],[1.81596,50.4479],[1.81599,50.44751],[1.81556,50.44685],[1.81052,50.44738]]]}},{"type":"Feature","properties":{"k":"BTH","s":5.644},"geometry":{"type":"Polygon","coordinates":[[[1.81889,50.44862],[1.81849,50.4477],[1.81849,50.44769],[1.81831,50.44708],[1.81606,50.4475],[1.81597,50.44792],[1.81649,50.44853],[1.81454,50.44911],[1.8146,50.44935],[1.81507,50.44937],[1.81289,50.44957],[1.81326,50.45028],[1.81599,50.44964],[1.81889,50.44862]]]}},{"type":"Feature","properties":{"k":"PPH","s":0.247},"geometry":{"type":"Polygon","coordinates":[[[1.81578,50.44875],[1.81649,50.44853],[1.81605,50.44789],[1.81578,50.44875]]]}},{"type":"Feature","properties":{"k":"PPH","s":0.843},"geometry":{"type":"Polygon","coordinates":[[[1.81849,50.44935],[1.81932,50.44886],[1.816,50.44982],[1.81632,50.45025],[1.81849,50.44935]]]}},{"type":"Feature","properties":{"k":"PPH","s":1.015},"geometry":{"type":"Polygon","coordinates":[[[1.81634,50.4504],[1.8165,50.45062],[1.8185,50.4503],[1.8191,50.44925],[1.81634,50.4504]]]}},{"type":"Feature","properties":{"k":"JAC","s":0.183},"geometry":{"type":"Polygon","coordinates":[[[1.76758,50.45697],[1.76732,50.4565],[1.76676,50.45635],[1.76671,50.45655],[1.76758,50.45697]]]}},{"type":"Feature","properties":{"k":"BTH","s":2.544},"geometry":{"type":"Polygon","coordinates":[[[1.76798,50.45664],[1.768,50.45691],[1.76894,50.45733],[1.77254,50.45524],[1.7698,50.45575],[1.76798,50.45664]]]}},{"type":"Feature","properties":{"k":"BTN","s":0.117},"geometry":{"type":"Polygon","coordinates":[[[1.81047,50.42285],[1.81035,50.42316],[1.81111,50.42179],[1.81089,50.4218],[1.81047,50.42285]]]}},{"type":"Feature","properties":{"k":"PPH","s":0.169},"geometry":{"type":"MultiPolygon","coordinates":[[[[1.81249,50.44031],[1.81257,50.44031],[1.81178,50.43902],[1.81157,50.43905],[1.81249,50.44031]]],[[[1.81327,50.43885],[1.81297,50.43889],[1.81343,50.43884],[1.81327,50.43885]]]]}},{"type":"Feature","properties":{"k":"BTH","s":32.983},"geometry":{"type":"Polygon","coordinates":[[[1.8005,50.44209],[1.8024,50.44186],[1.80543,50.44082],[1.80649,50.4409],[1.80814,50.43973],[1.80879,50.43945],[1.81085,50.43913],[1.80924,50.43697],[1.80436,50.43455],[1.80114,50.43731],[1.80249,50.43799],[1.80099,50.43905],[1.80176,50.43962],[1.80184,50.44],[1.8005,50.44209]]]}},{"type":"Feature","properties":{"k":"BTH","s":14.563},"geometry":{"type":"Polygon","coordinates":[[[1.81086,50.43912],[1.81344,50.43883],[1.81371,50.43731],[1.8061,50.43347],[1.80461,50.43454],[1.80928,50.43696],[1.81086,50.43912]]]}},{"type":"Feature","properties":{"k":"BTN","s":10.273},"geometry":{"type":"Polygon","coordinates":[[[1.80332,50.43063],[1.80117,50.43334],[1.80441,50.43441],[1.80673,50.43287],[1.80736,50.43202],[1.80332,50.43063]]]}},{"type":"Feature","properties":{"k":"BTH","s":14.006},"geometry":{"type":"Polygon","coordinates":[[[1.80227,50.43618],[1.80422,50.43452],[1.80008,50.43304],[1.79728,50.43232],[1.79718,50.43242],[1.79628,50.43205],[1.79604,50.43214],[1.79493,50.43373],[1.80227,50.43618]]]}},{"type":"Feature","properties":{"k":"PPH","s":7.518},"geometry":{"type":"Polygon","coordinates":[[[1.80227,50.43619],[1.79616,50.43414],[1.79584,50.43489],[1.79695,50.43526],[1.79685,50.4365],[1.79894,50.43733],[1.79981,50.43816],[1.80007,50.43793],[1.79906,50.43698],[1.79965,50.43667],[1.79977,50.43675],[1.8,50.43667],[1.80033,50.43693],[1.80062,50.43673],[1.80123,50.43708],[1.80227,50.43619]],[[1.7999,50.43664],[1.8,50.43666],[1.79977,50.43675],[1.7999,50.43664]],[[1.79641,50.43452],[1.79668,50.43458],[1.79644,50.43488],[1.7961,50.43484],[1.79609,50.43461],[1.79641,50.43452]]]}},{"type":"Feature","properties":{"k":"PPH","s":0.264},"geometry":{"type":"Polygon","coordinates":[[[1.80143,50.43876],[1.80087,50.43839],[1.80036,50.43853],[1.80099,50.43905],[1.80143,50.43876]]]}},{"type":"Feature","properties":{"k":"PTC","s":11.726},"geometry":{"type":"Polygon","coordinates":[[[1.80203,50.42441],[1.80186,50.42608],[1.8048,50.42619],[1.81001,50.42606],[1.80999,50.42588],[1.81018,50.42586],[1.80993,50.42427],[1.80203,50.42441]]]}},{"type":"Feature","properties":{"k":"BTN","s":9.566},"geometry":{"type":"MultiPolygon","coordinates":[[[[1.79429,50.42795],[1.79143,50.4301],[1.79356,50.4304],[1.79485,50.43103],[1.79436,50.43078],[1.79608,50.42858],[1.79429,50.42795]]],[[[1.78988,50.43103],[1.78858,50.43136],[1.78861,50.4319],[1.79022,50.43167],[1.79362,50.43167],[1.79358,50.43219],[1.79403,50.43231],[1.79623,50.43191],[1.79539,50.43132],[1.79491,50.43105],[1.79485,50.43103],[1.78988,50.43103]]]]}},{"type":"Feature","properties":{"k":"BTH","s":0.004},"geometry":{"type":"Polygon","coordinates":[[[1.79429,50.42795],[1.79367,50.42835],[1.79286,50.42893],[1.79429,50.42795]]]}},{"type":"Feature","properties":{"k":"BTH","s":0.02},"geometry":{"type":"Polygon","coordinates":[[[1.81026,50.42604],[1.81057,50.4262],[1.81028,50.42596],[1.80993,50.42427],[1.81026,50.42604]]]}},{"type":"Feature","properties":{"k":"ORP","s":0.58},"geometry":{"type":"Polygon","coordinates":[[[1.81078,50.42847],[1.81101,50.42824],[1.81021,50.42786],[1.81151,50.42695],[1.80937,50.42799],[1.81078,50.42847]]]}},{"type":"Feature","properties":{"k":"BTN","s":2.29},"geometry":{"type":"Polygon","coordinates":[[[1.79085,50.43894],[1.79223,50.43714],[1.78897,50.4375],[1.79061,50.43899],[1.79085,50.43894]]]}},{"type":"Feature","properties":{"k":"PPH","s":1.381},"geometry":{"type":"Polygon","coordinates":[[[1.79445,50.43781],[1.79497,50.43717],[1.79278,50.43663],[1.79223,50.43723],[1.79445,50.43781]]]}},{"type":"Feature","properties":{"k":"ORH","s":10.724},"geometry":{"type":"Polygon","coordinates":[[[1.78117,50.45743],[1.7799,50.45813],[1.77987,50.45837],[1.77635,50.46077],[1.77615,50.46187],[1.77892,50.46227],[1.77949,50.46219],[1.77908,50.46185],[1.7804,50.46099],[1.78258,50.45596],[1.78117,50.45743]]]}},{"type":"Feature","properties":{"k":"JAC","s":0.006},"geometry":{"type":"MultiPolygon","coordinates":[[[[1.77191,50.46359],[1.77206,50.46373],[1.77213,50.46371],[1.77191,50.46359]]]]}},{"type":"Feature","properties":{"k":"FVP","s":3.197},"geometry":{"type":"Polygon","coordinates":[[[1.78858,50.43136],[1.78988,50.43103],[1.79485,50.43103],[1.79356,50.4304],[1.79143,50.4301],[1.78878,50.43059],[1.78858,50.43136]]]}},{"type":"Feature","properties":{"k":"BTH","s":32.659},"geometry":{"type":"Polygon","coordinates":[[[1.77473,50.45868],[1.77575,50.45967],[1.77568,50.46008],[1.7749,50.46076],[1.77501,50.46068],[1.77534,50.46084],[1.77772,50.45909],[1.78117,50.45743],[1.78258,50.45596],[1.7804,50.46099],[1.78098,50.46058],[1.78157,50.45893],[1.78263,50.45741],[1.78303,50.45486],[1.78386,50.45329],[1.77313,50.45513],[1.77473,50.45868]]]}},{"type":"Feature","properties":{"k":"JAC","s":0.393},"geometry":{"type":"Polygon","coordinates":[[[1.76789,50.45892],[1.76833,50.45891],[1.76726,50.4585],[1.76644,50.45783],[1.76676,50.45862],[1.76789,50.45892]]]}},{"type":"Feature","properties":{"k":"LUZ","s":0.894},"geometry":{"type":"Polygon","coordinates":[[[1.76749,50.45842],[1.76863,50.45886],[1.76879,50.4585],[1.76804,50.45801],[1.76689,50.45754],[1.76651,50.45754],[1.76749,50.45842]]]}},{"type":"Feature","properties":{"k":"PPH","s":1.617},"geometry":{"type":"Polygon","coordinates":[[[1.76551,50.45817],[1.76579,50.45748],[1.76523,50.45833],[1.76542,50.45889],[1.76587,50.45923],[1.76593,50.45986],[1.76679,50.46008],[1.76733,50.46006],[1.76676,50.45862],[1.76551,50.45817]]]}},{"type":"Feature","properties":{"k":"BTH","s":4.248},"geometry":{"type":"Polygon","coordinates":[[[1.81602,50.4475],[1.81831,50.44706],[1.81805,50.44649],[1.81575,50.44485],[1.81447,50.44507],[1.81602,50.4475]]]}},{"type":"Feature","properties":{"k":"PPH","s":0.006},"geometry":{"type":"MultiPolygon","coordinates":[[[[1.81853,50.44589],[1.81856,50.44585],[1.81851,50.44587],[1.81853,50.44589]]],[[[1.81925,50.4465],[1.81886,50.44619],[1.81922,50.44651],[1.81925,50.4465]]]]}},{"type":"Feature","properties":{"k":"BTH","s":8.301},"geometry":{"type":"Polygon","coordinates":[[[1.81019,50.44611],[1.8147,50.44562],[1.81365,50.44339],[1.8091,50.44395],[1.81019,50.44611]]]}},{"type":"Feature","properties":{"k":"JAC","s":1.895},"geometry":{"type":"Polygon","coordinates":[[[1.77325,50.46062],[1.77364,50.46085],[1.77298,50.46011],[1.76722,50.45721],[1.76699,50.45749],[1.76816,50.45793],[1.76879,50.45844],[1.76863,50.45886],[1.77325,50.46062]],[[1.76873,50.45817],[1.77303,50.46044],[1.76873,50.45886],[1.76894,50.4583],[1.76873,50.45817]]]}},{"type":"Feature","properties":{"k":"ORH","s":1.124},"geometry":{"type":"Polygon","coordinates":[[[1.76873,50.45817],[1.76894,50.4583],[1.76873,50.45886],[1.77303,50.46044],[1.76873,50.45817]]]}},{"type":"Feature","properties":{"k":"PPH","s":10.309},"geometry":{"type":"Polygon","coordinates":[[[1.76829,50.46032],[1.76911,50.46114],[1.76998,50.46247],[1.77132,50.46336],[1.77216,50.4637],[1.77309,50.46343],[1.77215,50.46152],[1.77226,50.46077],[1.77169,50.46021],[1.76842,50.45899],[1.76685,50.4587],[1.76673,50.45876],[1.76742,50.46011],[1.76829,50.46032]]]}},{"type":"Feature","properties":{"k":"BTH","s":0.003},"geometry":{"type":"Polygon","coordinates":[[[1.80995,50.42418],[1.81001,50.42397],[1.80992,50.42416],[1.80995,50.42418]]]}},{"type":"Feature","properties":{"k":"PTC","s":13.391},"geometry":{"type":"Polygon","coordinates":[[[1.81089,50.4218],[1.8056,50.42205],[1.80417,50.42224],[1.80207,50.42404],[1.80203,50.42441],[1.80993,50.42421],[1.81089,50.4218]]]}},{"type":"Feature","properties":{"k":"BTH","s":0.0},"geometry":{"type":"Polygon","coordinates":[]}},{"type":"Feature","properties":{"k":"PPH","s":0.199},"geometry":{"type":"Polygon","coordinates":[[[1.79632,50.43925],[1.79649,50.43936],[1.79704,50.43925],[1.79769,50.43978],[1.79678,50.43885],[1.79632,50.43925]],[[1.79696,50.4391],[1.79682,50.43918],[1.79661,50.43901],[1.79676,50.43895],[1.79696,50.4391]]]}},{"type":"Feature","properties":{"k":"PPH","s":0.986},"geometry":{"type":"Polygon","coordinates":[[[1.80064,50.4377],[1.80124,50.43809],[1.8008,50.43834],[1.80142,50.43874],[1.80238,50.43796],[1.80112,50.43732],[1.80064,50.4377]]]}},{"type":"Feature","properties":{"k":"PPH","s":2.378},"geometry":{"type":"Polygon","coordinates":[[[1.79872,50.4391],[1.79847,50.4389],[1.79859,50.43876],[1.79873,50.43866],[1.79908,50.43889],[1.79984,50.43818],[1.79897,50.43735],[1.79843,50.43789],[1.79682,50.43859],[1.79791,50.43964],[1.79872,50.4391]]]}},{"type":"Feature","properties":{"k":"PPH","s":1.849},"geometry":{"type":"Polygon","coordinates":[[[1.80053,50.43977],[1.80028,50.43951],[1.79989,50.43976],[1.79903,50.43935],[1.79859,50.43957],[1.79844,50.43948],[1.79733,50.44019],[1.8005,50.44026],[1.80172,50.43985],[1.80135,50.43945],[1.80053,50.43977]]]}},{"type":"Feature","properties":{"k":"BTH","s":19.988},"geometry":{"type":"Polygon","coordinates":[[[1.79907,50.4448],[1.79949,50.44354],[1.80162,50.44033],[1.80172,50.43985],[1.8005,50.44026],[1.79733,50.44019],[1.79494,50.44175],[1.7935,50.44238],[1.79704,50.44594],[1.79907,50.4448]]]}},{"type":"Feature","properties":{"k":"PPH","s":6.828},"geometry":{"type":"Polygon","coordinates":[[[1.80879,50.43945],[1.80814,50.43973],[1.80649,50.4409],[1.80783,50.44105],[1.80835,50.44078],[1.81123,50.44119],[1.81268,50.44126],[1.81257,50.44031],[1.81146,50.43906],[1.80879,50.43945]]]}},{"type":"Feature","properties":{"k":"LIF","s":12.166},"geometry":{"type":"Polygon","coordinates":[[[1.80053,50.44228],[1.80192,50.44417],[1.80851,50.44278],[1.80766,50.44111],[1.80613,50.44091],[1.80538,50.44088],[1.80286,50.44178],[1.80053,50.44228]]]}},{"type":"Feature","properties":{"k":"BTH","s":9.016},"geometry":{"type":"Polygon","coordinates":[[[1.80851,50.44278],[1.80192,50.44417],[1.80305,50.44569],[1.80932,50.44439],[1.80851,50.44278]]]}},{"type":"Feature","properties":{"k":"MIS","s":9.162},"geometry":{"type":"Polygon","coordinates":[[[1.80427,50.44734],[1.81017,50.44611],[1.80932,50.44439],[1.80305,50.44569],[1.80427,50.44734]]]}},{"type":"Feature","properties":{"k":"BTN","s":19.67},"geometry":{"type":"Polygon","coordinates":[[[1.79723,50.45216],[1.79696,50.45161],[1.79713,50.45113],[1.79884,50.44814],[1.79944,50.44749],[1.79979,50.44629],[1.79955,50.44626],[1.79959,50.44497],[1.79977,50.44497],[1.80083,50.4463],[1.80118,50.44637],[1.80027,50.44829],[1.80308,50.45065],[1.80441,50.44958],[1.8042,50.44736],[1.80041,50.44227],[1.79922,50.44427],[1.79924,50.44577],[1.79881,50.44735],[1.79647,50.45126],[1.79634,50.45179],[1.79674,50.45239],[1.79723,50.45216]]]}},{"type":"Feature","properties":{"k":"ORP","s":0.512},"geometry":{"type":"Polygon","coordinates":[[[1.80118,50.44637],[1.80083,50.4463],[1.80006,50.44801],[1.80039,50.4481],[1.80118,50.44637]]]}},{"type":"Feature","properties":{"k":"BTH","s":6.633},"geometry":{"type":"Polygon","coordinates":[[[1.79417,50.4494],[1.7947,50.44995],[1.79513,50.44986],[1.79705,50.44704],[1.79832,50.44787],[1.79914,50.44581],[1.79907,50.4448],[1.79623,50.44639],[1.79417,50.4494]]]}},{"type":"Feature","properties":{"k":"PPH","s":1.024},"geometry":{"type":"Polygon","coordinates":[[[1.79607,50.43897],[1.79442,50.43839],[1.79392,50.43904],[1.79503,50.43954],[1.79607,50.43897]]]}},{"type":"Feature","properties":{"k":"BTH","s":2.495},"geometry":{"type":"Polygon","coordinates":[[[1.77528,50.46251],[1.77605,50.46239],[1.77617,50.4626],[1.77892,50.46227],[1.77615,50.46187],[1.77635,50.46077],[1.77469,50.46102],[1.77528,50.46251]]]}},{"type":"Feature","properties":{"k":"PPH","s":0.127},"geometry":{"type":"Polygon","coordinates":[[[1.79663,50.45564],[1.79601,50.45506],[1.79593,50.45531],[1.79627,50.45557],[1.7955,50.45569],[1.79663,50.45564]]]}},{"type":"Feature","properties":{"k":"BTH","s":9.604},"geometry":{"type":"Polygon","coordinates":[[[1.78386,50.45101],[1.78351,50.45068],[1.7824,50.45089],[1.7774,50.45191],[1.77819,50.45369],[1.78386,50.45268],[1.78386,50.45101]]]}},{"type":"Feature","properties":{"k":"PTR","s":2.091},"geometry":{"type":"Polygon","coordinates":[[[1.79442,50.43445],[1.79382,50.43521],[1.79687,50.43615],[1.79693,50.43526],[1.79442,50.43445]]]}},{"type":"Feature","properties":{"k":"JAC","s":1.98},"geometry":{"type":"Polygon","coordinates":[[[1.77469,50.46102],[1.77639,50.46077],[1.77987,50.45837],[1.77991,50.45811],[1.77772,50.45909],[1.77534,50.46084],[1.77501,50.46068],[1.77469,50.46102]]]}},{"type":"Feature","properties":{"k":"LIF","s":7.489},"geometry":{"type":"Polygon","coordinates":[[[1.7962,50.43176],[1.79666,50.4316],[1.79836,50.42933],[1.79935,50.42877],[1.79968,50.42721],[1.79896,50.42798],[1.79608,50.42858],[1.79436,50.43078],[1.7962,50.43176]]]}},{"type":"Feature","properties":{"k":"PPH","s":0.979},"geometry":{"type":"Polygon","coordinates":[[[1.80182,50.42863],[1.80228,50.42858],[1.80228,50.42867],[1.80306,50.4286],[1.80384,50.42883],[1.80498,50.42863],[1.80493,50.42853],[1.80348,50.42871],[1.80323,50.42838],[1.80094,50.42855],[1.79965,50.4288],[1.79955,50.42914],[1.80062,50.42903],[1.80073,50.42884],[1.80183,50.42875],[1.80182,50.42863]]]}},{"type":"Feature","properties":{"k":"BTN","s":12.914},"geometry":{"type":"Polygon","coordinates":[[[1.80335,50.43062],[1.80737,50.43201],[1.80837,50.43064],[1.81078,50.42847],[1.80934,50.42798],[1.80493,50.42852],[1.80507,50.42882],[1.80476,50.42885],[1.80335,50.43062]]]}},{"type":"Feature","properties":{"k":"CZH","s":15.14},"geometry":{"type":"Polygon","coordinates":[[[1.80506,50.4262],[1.80515,50.42708],[1.79976,50.42716],[1.79944,50.42887],[1.80089,50.42853],[1.80328,50.42835],[1.80351,50.42867],[1.80933,50.42796],[1.81156,50.42676],[1.81018,50.42606],[1.80506,50.4262]]]}},{"type":"Feature","properties":{"k":"ORP","s":0.922},"geometry":{"type":"Polygon","coordinates":[[[1.79223,50.43714],[1.7944,50.43432],[1.79394,50.43436],[1.7918,50.43719],[1.79223,50.43714]]]}},{"type":"Feature","properties":{"k":"MIS","s":16.651},"geometry":{"type":"Polygon","coordinates":[[[1.80199,50.42882],[1.80113,50.4291],[1.79883,50.42916],[1.7975,50.4306],[1.79727,50.43137],[1.79668,50.43203],[1.80118,50.43334],[1.80477,50.42886],[1.80199,50.42882]]]}},{"type":"Feature","properties":{"k":"PPH","s":6.117},"geometry":{"type":"Polygon","coordinates":[[[1.79286,50.4366],[1.79567,50.43734],[1.79641,50.43725],[1.79643,50.43755],[1.79684,50.43771],[1.79668,50.43798],[1.79743,50.43834],[1.79843,50.43789],[1.7989,50.4374],[1.7968,50.43651],[1.79687,50.43615],[1.79382,50.43521],[1.79286,50.4366]]]}},{"type":"Feature","properties":{"k":"JAC","s":0.072},"geometry":{"type":"Polygon","coordinates":[[[1.78847,50.45572],[1.78978,50.45558],[1.78977,50.45555],[1.78845,50.45562],[1.78847,50.45572]]]}},{"type":"Feature","properties":{"k":"PPH","s":4.332},"geometry":{"type":"Polygon","coordinates":[[[1.78755,50.45642],[1.78705,50.45593],[1.78648,50.45375],[1.7861,50.45459],[1.78596,50.45581],[1.78693,50.45692],[1.78665,50.45703],[1.78831,50.45848],[1.78947,50.45872],[1.78908,50.45824],[1.79003,50.45786],[1.78755,50.45642]]]}},{"type":"Feature","properties":{"k":"PPH","s":0.566},"geometry":{"type":"Polygon","coordinates":[[[1.78374,50.45984],[1.78504,50.45901],[1.78311,50.45953],[1.78281,50.4599],[1.78374,50.45984]]]}},{"type":"Feature","properties":{"k":"PPH","s":9.237},"geometry":{"type":"Polygon","coordinates":[[[1.78719,50.45584],[1.78778,50.45643],[1.79031,50.45783],[1.7917,50.45732],[1.79145,50.45713],[1.79427,50.45641],[1.79417,50.45591],[1.79548,50.45609],[1.79576,50.45652],[1.79511,50.45665],[1.79559,50.45743],[1.79579,50.45739],[1.79549,50.457],[1.79662,50.45673],[1.7963,50.45634],[1.79706,50.45609],[1.79656,50.45565],[1.79517,50.45577],[1.79508,50.45543],[1.79406,50.45587],[1.79385,50.4555],[1.79001,50.45557],[1.78719,50.45584]]]}},{"type":"Feature","properties":{"k":"BTP","s":10.086},"geometry":{"type":"Polygon","coordinates":[[[1.77462,50.45857],[1.77308,50.45514],[1.77254,50.45524],[1.76894,50.45733],[1.77096,50.45842],[1.77565,50.45959],[1.77462,50.45857]]]}},{"type":"Feature","properties":{"k":"PPH","s":1.225},"geometry":{"type":"Polygon","coordinates":[[[1.81339,50.44141],[1.81364,50.44319],[1.81451,50.44307],[1.81422,50.44178],[1.81436,50.44124],[1.81339,50.44141]]]}},{"type":"Feature","properties":{"k":"LIF","s":3.003},"geometry":{"type":"Polygon","coordinates":[[[1.8091,50.44395],[1.81365,50.44339],[1.81353,50.44296],[1.80853,50.44281],[1.8091,50.44395]]]}},{"type":"Feature","properties":{"k":"MIS","s":7.316},"geometry":{"type":"Polygon","coordinates":[[[1.81328,50.44133],[1.81124,50.44126],[1.80836,50.44082],[1.80784,50.44128],[1.80853,50.44281],[1.81353,50.44296],[1.81328,50.44133]]]}},{"type":"Feature","properties":{"k":"BTH","s":16.882},"geometry":{"type":"Polygon","coordinates":[[[1.80808,50.43123],[1.80699,50.43279],[1.80635,50.43331],[1.80648,50.43352],[1.81371,50.4373],[1.81427,50.43439],[1.80808,50.43123]]]}},{"type":"Feature","properties":{"k":"ORH","s":0.005},"geometry":{"type":"Polygon","coordinates":[[[1.81396,50.43612],[1.81375,50.43725],[1.81376,50.43725],[1.81396,50.43612]]]}},{"type":"Feature","properties":{"k":"PTR","s":0.726},"geometry":{"type":"Polygon","coordinates":[[[1.78477,50.43352],[1.78829,50.4332],[1.78931,50.43289],[1.78456,50.43332],[1.78477,50.43352]]]}},{"type":"Feature","properties":{"k":"ORH","s":13.388},"geometry":{"type":"Polygon","coordinates":[[[1.79564,50.43257],[1.79558,50.43241],[1.78931,50.43289],[1.78829,50.4332],[1.78477,50.43352],[1.78516,50.43368],[1.78513,50.43387],[1.78628,50.43499],[1.7944,50.43432],[1.79564,50.43257]]]}},{"type":"Feature","properties":{"k":"PPH","s":3.804},"geometry":{"type":"Polygon","coordinates":[[[1.79569,50.43245],[1.79085,50.43894],[1.79061,50.43899],[1.79075,50.43911],[1.7906,50.43914],[1.7908,50.43912],[1.79619,50.43204],[1.79392,50.43246],[1.79331,50.43224],[1.79124,50.43209],[1.79081,50.4323],[1.78996,50.43227],[1.78814,50.43269],[1.78489,50.43289],[1.78432,50.43308],[1.78456,50.43332],[1.79569,50.43245]]]}},{"type":"Feature","properties":{"k":"BTH","s":11.27},"geometry":{"type":"MultiPolygon","coordinates":[[[[1.79394,50.43436],[1.78628,50.43499],[1.78897,50.4375],[1.7918,50.43719],[1.79394,50.43436]]],[[[1.78496,50.4337],[1.78513,50.43387],[1.78516,50.43368],[1.78496,50.4337]]]]}},{"type":"Feature","properties":{"k":"BTH","s":0.001},"geometry":{"type":"Polygon","coordinates":[]}},{"type":"Feature","properties":{"k":"PPR","s":10.01},"geometry":{"type":"Polygon","coordinates":[[[1.78256,50.45773],[1.7837,50.4593],[1.78624,50.45885],[1.78558,50.45691],[1.78659,50.45665],[1.78594,50.45583],[1.78609,50.45495],[1.78317,50.45478],[1.78299,50.45658],[1.78256,50.45773]]]}},{"type":"Feature","properties":{"k":"PPH","s":0.981},"geometry":{"type":"Polygon","coordinates":[[[1.77259,50.46081],[1.77248,50.46158],[1.77317,50.46267],[1.77415,50.46248],[1.77412,50.46237],[1.77357,50.46251],[1.77263,50.46167],[1.7731,50.46136],[1.77334,50.46147],[1.77311,50.46165],[1.77332,50.46176],[1.7738,50.46155],[1.77373,50.46125],[1.77294,50.46076],[1.77259,50.46081]]]}},{"type":"Feature","properties":{"k":"BTH","s":0.009},"geometry":{"type":"Polygon","coordinates":[[[1.81352,50.43853],[1.81348,50.43884],[1.81376,50.43725],[1.81352,50.43853]]]}},{"type":"Feature","properties":{"k":"PPH","s":3.85},"geometry":{"type":"Polygon","coordinates":[[[1.7903,50.45785],[1.79048,50.45798],[1.79204,50.45768],[1.79247,50.45808],[1.79365,50.45782],[1.79406,50.45763],[1.79398,50.45737],[1.79474,50.45721],[1.79492,50.45758],[1.79559,50.45743],[1.79508,50.45665],[1.79576,50.45652],[1.79548,50.45609],[1.79406,50.45594],[1.79427,50.45641],[1.79145,50.45713],[1.7917,50.45732],[1.7903,50.45785]]]}},{"type":"Feature","properties":{"k":"BTH","s":2.832},"geometry":{"type":"Polygon","coordinates":[[[1.77329,50.4599],[1.77349,50.45995],[1.77447,50.45948],[1.77355,50.4601],[1.77467,50.46088],[1.77563,50.46007],[1.77565,50.45959],[1.77096,50.45842],[1.77329,50.4599]]]}},{"type":"Feature","properties":{"k":"PTC","s":9.302},"geometry":{"type":"Polygon","coordinates":[[[1.79089,50.44339],[1.78912,50.44406],[1.79417,50.4494],[1.79516,50.44796],[1.79089,50.44339]]]}},{"type":"Feature","properties":{"k":"PHF","s":11.356},"geometry":{"type":"Polygon","coordinates":[[[1.79623,50.44639],[1.79704,50.44594],[1.7935,50.44238],[1.79089,50.44339],[1.79516,50.44796],[1.79623,50.44639]]]}},{"type":"Feature","properties":{"k":"PPH","s":0.855},"geometry":{"type":"Polygon","coordinates":[[[1.797,50.43929],[1.79564,50.43976],[1.79607,50.44031],[1.79639,50.44007],[1.79713,50.44013],[1.79764,50.43982],[1.797,50.43929]]]}},{"type":"Feature","properties":{"k":"PPH","s":0.905},"geometry":{"type":"Polygon","coordinates":[[[1.79414,50.44059],[1.79429,50.44092],[1.79489,50.44112],[1.79527,50.44106],[1.79549,50.44086],[1.79557,50.44028],[1.79467,50.44005],[1.79434,50.44009],[1.79414,50.44059]]]}},{"type":"Feature","properties":{"k":"PHF","s":6.412},"geometry":{"type":"Polygon","coordinates":[[[1.79357,50.44222],[1.79049,50.44028],[1.7919,50.43907],[1.79284,50.43857],[1.79392,50.43904],[1.79477,50.43793],[1.79224,50.43723],[1.79079,50.43913],[1.78946,50.43927],[1.79221,50.44278],[1.79357,50.44222]]]}},{"type":"Feature","properties":{"k":"PTC","s":6.424},"geometry":{"type":"Polygon","coordinates":[[[1.78749,50.43948],[1.79049,50.44342],[1.79221,50.44278],[1.78946,50.43927],[1.78749,50.43948]]]}},{"type":"Feature","properties":{"k":"CZH","s":3.044},"geometry":{"type":"Polygon","coordinates":[[[1.78541,50.44052],[1.78458,50.44069],[1.78526,50.44161],[1.78769,50.43977],[1.78747,50.43949],[1.7906,50.43914],[1.78613,50.43953],[1.78398,50.43987],[1.78435,50.44036],[1.78571,50.44013],[1.78541,50.44052]]]}},{"type":"Feature","properties":{"k":"PTR","s":0.309},"geometry":{"type":"Polygon","coordinates":[[[1.78571,50.44013],[1.78435,50.44036],[1.78458,50.44069],[1.78541,50.44052],[1.78571,50.44013]]]}},{"type":"Feature","properties":{"k":"BTN","s":10.123},"geometry":{"type":"Polygon","coordinates":[[[1.78745,50.44462],[1.79044,50.44344],[1.78769,50.43977],[1.78526,50.44161],[1.78745,50.44462]]]}},{"type":"Feature","properties":{"k":"BTH","s":8.097},"geometry":{"type":"Polygon","coordinates":[[[1.7921,50.44738],[1.79212,50.44711],[1.78912,50.44406],[1.78688,50.44501],[1.79001,50.4482],[1.7921,50.44738]]]}},{"type":"Feature","properties":{"k":"BTH","s":6.783},"geometry":{"type":"Polygon","coordinates":[[[1.78499,50.44582],[1.78804,50.44897],[1.79001,50.4482],[1.78688,50.44501],[1.78499,50.44582]]]}},{"type":"Feature","properties":{"k":"PPH","s":3.69},"geometry":{"type":"MultiPolygon","coordinates":[[[[1.81549,50.44383],[1.81614,50.4427],[1.81638,50.44268],[1.81554,50.44227],[1.81555,50.44211],[1.81432,50.4418],[1.81452,50.44308],[1.81366,50.44321],[1.81443,50.44498],[1.81447,50.44507],[1.81572,50.44484],[1.81549,50.44383]]],[[[1.81648,50.44273],[1.8167,50.4427],[1.81648,50.44269],[1.81613,50.44227],[1.81592,50.4422],[1.81648,50.44273]]]]}},{"type":"Feature","properties":{"k":"BTH","s":10.427},"geometry":{"type":"Polygon","coordinates":[[[1.8081,50.43124],[1.81427,50.43439],[1.81446,50.43335],[1.81411,50.4333],[1.81058,50.43133],[1.81333,50.42934],[1.81117,50.42831],[1.8081,50.43124]]]}},{"type":"Feature","properties":{"k":"PPH","s":0.0},"geometry":{"type":"Polygon","coordinates":[]}},{"type":"Feature","properties":{"k":"BTN","s":0.014},"geometry":{"type":"Polygon","coordinates":[[[1.78843,50.43193],[1.78859,50.43191],[1.78849,50.4317],[1.78843,50.43193]]]}},{"type":"Feature","properties":{"k":"BTH","s":2.023},"geometry":{"type":"Polygon","coordinates":[[[1.77837,50.45409],[1.78386,50.45316],[1.78386,50.45268],[1.77819,50.45369],[1.77837,50.45409]]]}},{"type":"Feature","properties":{"k":"BTH","s":5.512},"geometry":{"type":"Polygon","coordinates":[[[1.77186,50.45426],[1.7697,50.4555],[1.76981,50.45556],[1.77517,50.45466],[1.774,50.45203],[1.77186,50.45426]]]}},{"type":"Feature","properties":{"k":"ORH","s":9.416},"geometry":{"type":"Polygon","coordinates":[[[1.77837,50.45409],[1.77661,50.45009],[1.77445,50.45142],[1.774,50.45203],[1.77517,50.45466],[1.77837,50.45409]]]}},{"type":"Feature","properties":{"k":"LIF","s":2.099},"geometry":{"type":"Polygon","coordinates":[[[1.78036,50.44801],[1.77897,50.44876],[1.78019,50.44942],[1.78248,50.45021],[1.78036,50.44801]]]}},{"type":"Feature","properties":{"k":"BTH","s":5.879},"geometry":{"type":"Polygon","coordinates":[[[1.777,50.451],[1.7774,50.45191],[1.7824,50.45089],[1.78242,50.45026],[1.77994,50.44938],[1.777,50.451]]]}},{"type":"Feature","properties":{"k":"BTN","s":2.86},"geometry":{"type":"Polygon","coordinates":[[[1.78569,50.44986],[1.78273,50.4468],[1.78187,50.44719],[1.78486,50.45017],[1.78569,50.44986]]]}},{"type":"Feature","properties":{"k":"PHF","s":5.321},"geometry":{"type":"Polygon","coordinates":[[[1.78036,50.44801],[1.78248,50.45021],[1.78374,50.45073],[1.78486,50.45017],[1.78184,50.44721],[1.78036,50.44801]]]}},{"type":"Feature","properties":{"k":"LIF","s":7.876},"geometry":{"type":"Polygon","coordinates":[[[1.78804,50.44897],[1.78499,50.44582],[1.78273,50.4468],[1.78569,50.44986],[1.78804,50.44897]]]}},{"type":"Feature","properties":{"k":"ORH","s":7.257},"geometry":{"type":"Polygon","coordinates":[[[1.79172,50.45383],[1.7895,50.44846],[1.78797,50.44904],[1.78932,50.45306],[1.79172,50.45383]]]}},{"type":"Feature","properties":{"k":"BTN","s":5.912},"geometry":{"type":"Polygon","coordinates":[[[1.78597,50.4498],[1.78709,50.45274],[1.78932,50.45306],[1.788,50.44914],[1.78597,50.4498]]]}},{"type":"Feature","properties":{"k":"CZH","s":5.693},"geometry":{"type":"Polygon","coordinates":[[[1.78395,50.45086],[1.78405,50.4531],[1.78709,50.45274],[1.78597,50.4498],[1.78395,50.45086]]]}},{"type":"Feature","properties":{"k":"BTN","s":2.121},"geometry":{"type":"Polygon","coordinates":[[[1.78608,50.45492],[1.78633,50.45392],[1.78382,50.45379],[1.78318,50.45476],[1.78608,50.45492]]]}},{"type":"Feature","properties":{"k":"PPH","s":2.786},"geometry":{"type":"Polygon","coordinates":[[[1.78611,50.45296],[1.78653,50.45322],[1.78724,50.45585],[1.78847,50.45572],[1.78772,50.45305],[1.78724,50.45285],[1.78611,50.45296]]]}},{"type":"Feature","properties":{"k":"BTH","s":2.983},"geometry":{"type":"Polygon","coordinates":[[[1.78914,50.45307],[1.78773,50.45289],[1.78844,50.45563],[1.78977,50.45553],[1.78914,50.45307]]]}},{"type":"Feature","properties":{"k":"BTH","s":1.957},"geometry":{"type":"Polygon","coordinates":[[[1.79457,50.4517],[1.79406,50.45115],[1.79258,50.45159],[1.79367,50.45435],[1.79428,50.45436],[1.79337,50.4521],[1.79457,50.4517]]]}},{"type":"Feature","properties":{"k":"PHF","s":5.514},"geometry":{"type":"Polygon","coordinates":[[[1.78978,50.45558],[1.79385,50.4555],[1.7933,50.45437],[1.78915,50.45314],[1.78978,50.45558]]]}},{"type":"Feature","properties":{"k":"PPH","s":1.448},"geometry":{"type":"Polygon","coordinates":[[[1.79408,50.45587],[1.79583,50.45506],[1.79538,50.45474],[1.79448,50.45503],[1.79446,50.45442],[1.79331,50.45437],[1.79408,50.45587]]]}},{"type":"Feature","properties":{"k":"PPH","s":0.03},"geometry":{"type":"Polygon","coordinates":[[[1.79593,50.45531],[1.79598,50.45506],[1.79571,50.45514],[1.79593,50.45531]]]}},{"type":"Feature","properties":{"k":"JAC","s":0.388},"geometry":{"type":"Polygon","coordinates":[[[1.79741,50.45392],[1.798,50.45365],[1.7978,50.45352],[1.79711,50.45376],[1.79663,50.45364],[1.79568,50.45284],[1.79553,50.45261],[1.7957,50.45247],[1.7955,50.45235],[1.79522,50.45259],[1.79673,50.45385],[1.79741,50.45392]]]}},{"type":"Feature","properties":{"k":"PTC","s":1.612},"geometry":{"type":"Polygon","coordinates":[[[1.79553,50.45261],[1.79568,50.45284],[1.79663,50.45364],[1.79711,50.45376],[1.7978,50.45352],[1.79713,50.45304],[1.79597,50.45173],[1.79529,50.45215],[1.7957,50.45247],[1.79553,50.45261]]]}},{"type":"Feature","properties":{"k":"PPH","s":3.259},"geometry":{"type":"Polygon","coordinates":[[[1.79457,50.4517],[1.79337,50.4521],[1.79414,50.45396],[1.79458,50.45424],[1.79447,50.45406],[1.7954,50.45365],[1.79607,50.45413],[1.79673,50.45386],[1.79483,50.45232],[1.79504,50.45201],[1.79425,50.4511],[1.79406,50.45115],[1.79457,50.4517]]]}},{"type":"Feature","properties":{"k":"JAC","s":0.145},"geometry":{"type":"Polygon","coordinates":[[[1.79518,50.45196],[1.79529,50.45215],[1.79597,50.45173],[1.79576,50.45158],[1.79518,50.45196]]]}},{"type":"Feature","properties":{"k":"PPH","s":1.015},"geometry":{"type":"Polygon","coordinates":[[[1.79511,50.45198],[1.79576,50.45157],[1.79619,50.45182],[1.79621,50.45138],[1.79537,50.45079],[1.79429,50.45112],[1.79511,50.45198]]]}},{"type":"Feature","properties":{"k":"PPH","s":0.909},"geometry":{"type":"Polygon","coordinates":[[[1.79513,50.45044],[1.79542,50.45074],[1.79698,50.44843],[1.79647,50.44844],[1.79513,50.45044]]]}},{"type":"Feature","properties":{"k":"PPH","s":3.118},"geometry":{"type":"Polygon","coordinates":[[[1.79201,50.45138],[1.79397,50.4508],[1.79427,50.45111],[1.79531,50.45079],[1.79403,50.44942],[1.79158,50.4504],[1.79201,50.45138]]]}},{"type":"Feature","properties":{"k":"PPH","s":0.622},"geometry":{"type":"Polygon","coordinates":[[[1.79425,50.4511],[1.79397,50.4508],[1.79201,50.45138],[1.79213,50.45176],[1.79425,50.4511]]]}},{"type":"Feature","properties":{"k":"PTC","s":5.779},"geometry":{"type":"Polygon","coordinates":[[[1.79172,50.45383],[1.79325,50.45429],[1.79056,50.44804],[1.7895,50.44846],[1.79172,50.45383]]]}},{"type":"Feature","properties":{"k":"BTH","s":4.501},"geometry":{"type":"Polygon","coordinates":[[[1.79408,50.44941],[1.79218,50.44744],[1.79056,50.44804],[1.79158,50.4504],[1.79408,50.44941]]]}},{"type":"Feature","properties":{"k":"PPH","s":0.996},"geometry":{"type":"Polygon","coordinates":[[[1.79647,50.44844],[1.79698,50.44843],[1.79736,50.44777],[1.79671,50.44761],[1.79487,50.45016],[1.79513,50.45044],[1.79647,50.44844]]]}},{"type":"Feature","properties":{"k":"PTC","s":2.744},"geometry":{"type":"Polygon","coordinates":[[[1.79828,50.44796],[1.79755,50.4475],[1.79544,50.45075],[1.7962,50.45128],[1.79828,50.44796]]]}},{"type":"Feature","properties":{"k":"BTH","s":8.075},"geometry":{"type":"Polygon","coordinates":[[[1.79955,50.44626],[1.80043,50.44637],[1.79796,50.45109],[1.79779,50.4525],[1.79888,50.45322],[1.80005,50.45338],[1.80064,50.45319],[1.80211,50.45136],[1.80188,50.45121],[1.80093,50.45203],[1.7988,50.45097],[1.80039,50.4481],[1.80006,50.44801],[1.80083,50.4463],[1.79977,50.44497],[1.79959,50.44497],[1.79955,50.44626]]]}},{"type":"Feature","properties":{"k":"MIS","s":1.447},"geometry":{"type":"Polygon","coordinates":[[[1.80117,50.45175],[1.79933,50.45046],[1.80046,50.44845],[1.80027,50.44829],[1.7988,50.45097],[1.80093,50.45203],[1.80117,50.45175]]]}},{"type":"Feature","properties":{"k":"PPH","s":5.274},"geometry":{"type":"Polygon","coordinates":[[[1.80043,50.44637],[1.79979,50.44629],[1.79944,50.44749],[1.79884,50.44814],[1.79701,50.45139],[1.79723,50.45216],[1.79676,50.45242],[1.79796,50.45345],[1.79845,50.45317],[1.7989,50.45342],[1.80009,50.45351],[1.80019,50.45407],[1.80225,50.4531],[1.80208,50.45285],[1.80112,50.45322],[1.8007,50.45304],[1.80046,50.45331],[1.79992,50.45338],[1.79888,50.45322],[1.79779,50.4525],[1.79796,50.45109],[1.80043,50.44637]]]}},{"type":"Feature","properties":{"k":"PTC","s":4.755},"geometry":{"type":"Polygon","coordinates":[[[1.80046,50.44845],[1.79933,50.45046],[1.80137,50.45177],[1.80188,50.45121],[1.80292,50.45052],[1.80046,50.44845]]]}},{"type":"Feature","properties":{"k":"MIS","s":0.166},"geometry":{"type":"Polygon","coordinates":[[[1.80308,50.45065],[1.80293,50.45052],[1.80197,50.45128],[1.80211,50.45136],[1.80308,50.45065]]]}},{"type":"Feature","properties":{"k":"ORP","s":0.15},"geometry":{"type":"Polygon","coordinates":[[[1.80461,50.44847],[1.80444,50.44731],[1.80427,50.44734],[1.80447,50.44851],[1.80461,50.44847]]]}},{"type":"Feature","properties":{"k":"BTH","s":21.358},"geometry":{"type":"Polygon","coordinates":[[[1.80254,50.45181],[1.80484,50.45088],[1.8074,50.45026],[1.80866,50.44957],[1.80968,50.44834],[1.80964,50.4479],[1.81072,50.44779],[1.81052,50.44738],[1.81555,50.44684],[1.81478,50.44561],[1.81005,50.44613],[1.80444,50.44731],[1.80461,50.44847],[1.80447,50.44851],[1.8045,50.4496],[1.80272,50.45101],[1.80233,50.45139],[1.80254,50.45181]]]}},{"type":"Feature","properties":{"k":"PPH","s":6.53},"geometry":{"type":"Polygon","coordinates":[[[1.8113,50.45001],[1.8105,50.44885],[1.81056,50.44844],[1.81096,50.44827],[1.81072,50.44779],[1.80964,50.4479],[1.80968,50.44834],[1.80866,50.44957],[1.8074,50.45026],[1.80467,50.45095],[1.80254,50.45181],[1.80241,50.4522],[1.8052,50.45134],[1.80665,50.45066],[1.8071,50.45123],[1.8113,50.45001]]]}},{"type":"Feature","properties":{"k":"PTC","s":2.506},"geometry":{"type":"Polygon","coordinates":[[[1.81171,50.45065],[1.8113,50.45001],[1.8071,50.45123],[1.80758,50.45185],[1.81171,50.45065]]]}},{"type":"Feature","properties":{"k":"PPH","s":2.803},"geometry":{"type":"Polygon","coordinates":[[[1.8093,50.45298],[1.80895,50.45262],[1.80815,50.45292],[1.80818,50.45305],[1.8077,50.45299],[1.80707,50.45379],[1.80785,50.45401],[1.8081,50.45365],[1.80933,50.45325],[1.81029,50.45434],[1.81187,50.45368],[1.81149,50.45313],[1.8093,50.45298]]]}},{"type":"Feature","properties":{"k":"PPH","s":0.401},"geometry":{"type":"Polygon","coordinates":[[[1.80109,50.45391],[1.80122,50.45402],[1.80083,50.45423],[1.80106,50.45443],[1.8021,50.4539],[1.80162,50.45354],[1.80109,50.45391]]]}},{"type":"Feature","properties":{"k":"PPH","s":0.136},"geometry":{"type":"Polygon","coordinates":[[[1.80098,50.45299],[1.80103,50.45304],[1.80203,50.45277],[1.80181,50.45258],[1.80098,50.45299]]]}},{"type":"Feature","properties":{"k":"PPH","s":0.078},"geometry":{"type":"Polygon","coordinates":[[[1.79757,50.45527],[1.79798,50.45531],[1.79771,50.45509],[1.79662,50.45563],[1.79757,50.45527]]]}},{"type":"Feature","properties":{"k":"PPH","s":0.177},"geometry":{"type":"Polygon","coordinates":[[[1.79675,50.45571],[1.79721,50.45547],[1.79763,50.45563],[1.79791,50.45537],[1.79757,50.45527],[1.79656,50.45565],[1.79687,50.45584],[1.79675,50.45571]]]}},{"type":"Feature","properties":{"k":"PPH","s":2.279},"geometry":{"type":"Polygon","coordinates":[[[1.80519,50.45748],[1.80776,50.45761],[1.80844,50.45751],[1.80961,50.45705],[1.81027,50.45639],[1.80948,50.45605],[1.80872,50.45652],[1.80924,50.457],[1.80874,50.45695],[1.80791,50.45728],[1.80614,50.45737],[1.80577,50.45716],[1.80377,50.45743],[1.80344,50.45675],[1.80281,50.45693],[1.80348,50.45765],[1.80519,50.45748]]]}}]}