{"type":"FeatureCollection","features":[{"type":"Feature","properties":{"k":"MIS","s":0.101},"geometry":{"type":"Polygon","coordinates":[[[2.45235,50.281],[2.45207,50.28101],[2.4519,50.2816],[2.45235,50.281]]]}},{"type":"Feature","properties":{"k":"BTH","s":0.223},"geometry":{"type":"Polygon","coordinates":[[[2.48677,50.28813],[2.48738,50.28841],[2.48749,50.2883],[2.48642,50.2874],[2.48628,50.28754],[2.48677,50.28813]]]}},{"type":"Feature","properties":{"k":"MIS","s":0.034},"geometry":{"type":"Polygon","coordinates":[[[2.48738,50.28841],[2.48757,50.28853],[2.48774,50.28841],[2.48749,50.2883],[2.48738,50.28841]]]}},{"type":"Feature","properties":{"k":"BTH","s":0.134},"geometry":{"type":"Polygon","coordinates":[[[2.46875,50.26439],[2.46862,50.26436],[2.46794,50.26544],[2.46808,50.26547],[2.46875,50.26439]]]}},{"type":"Feature","properties":{"k":"BFS","s":0.108},"geometry":{"type":"MultiPolygon","coordinates":[[[[2.45897,50.28424],[2.46145,50.28415],[2.46296,50.28406],[2.45897,50.28424]]],[[[2.45682,50.28434],[2.45685,50.28433],[2.45681,50.28431],[2.45682,50.28434]]]]}},{"type":"Feature","properties":{"k":"BTH","s":0.008},"geometry":{"type":"Polygon","coordinates":[[[2.46083,50.28425],[2.46122,50.28422],[2.46025,50.28425],[2.46083,50.28425]]]}},{"type":"Feature","properties":{"k":"PHF","s":0.003},"geometry":{"type":"MultiPolygon","coordinates":[[[[2.46351,50.28407],[2.46398,50.28406],[2.46378,50.28405],[2.46351,50.28407]]]]}},{"type":"Feature","properties":{"k":"JAC","s":0.063},"geometry":{"type":"Polygon","coordinates":[[[2.46378,50.28399],[2.46295,50.28409],[2.46604,50.28401],[2.46378,50.28399]]]}},{"type":"Feature","properties":{"k":"PPH","s":7.082},"geometry":{"type":"Polygon","coordinates":[[[2.47424,50.2811],[2.47329,50.28106],[2.47355,50.28141],[2.47347,50.28185],[2.47234,50.28455],[2.47552,50.28475],[2.47514,50.28429],[2.47554,50.28182],[2.47587,50.28116],[2.4744,50.28111],[2.47477,50.27921],[2.47432,50.27937],[2.47424,50.2811]]]}},{"type":"Feature","properties":{"k":"BTH","s":5.296},"geometry":{"type":"Polygon","coordinates":[[[2.49951,50.26463],[2.50332,50.26617],[2.50441,50.26493],[2.50283,50.26421],[2.50003,50.26344],[2.49951,50.26463]]]}},{"type":"Feature","properties":{"k":"BTH","s":5.473},"geometry":{"type":"Polygon","coordinates":[[[2.50332,50.26617],[2.49951,50.26463],[2.4989,50.26636],[2.50199,50.26767],[2.50332,50.26617]]]}},{"type":"Feature","properties":{"k":"PPH","s":0.117},"geometry":{"type":"Polygon","coordinates":[[[2.47738,50.28481],[2.47587,50.28485],[2.47665,50.28495],[2.47771,50.28479],[2.47738,50.28481]]]}},{"type":"Feature","properties":{"k":"PPH","s":0.824},"geometry":{"type":"Polygon","coordinates":[[[2.48428,50.28525],[2.48397,50.28513],[2.47979,50.28513],[2.47916,50.28502],[2.4791,50.28472],[2.47775,50.28472],[2.47773,50.28487],[2.47895,50.28478],[2.47912,50.28514],[2.48372,50.28525],[2.4848,50.28658],[2.48503,50.28651],[2.48472,50.28645],[2.48428,50.28525]]]}},{"type":"Feature","properties":{"k":"PPH","s":2.519},"geometry":{"type":"Polygon","coordinates":[[[2.47766,50.27838],[2.47719,50.27839],[2.47723,50.27799],[2.47689,50.278],[2.47694,50.27914],[2.47664,50.27913],[2.47627,50.28068],[2.47747,50.28071],[2.47817,50.27989],[2.47811,50.27863],[2.47777,50.2786],[2.47766,50.27838]]]}},{"type":"Feature","properties":{"k":"PPH","s":0.453},"geometry":{"type":"Polygon","coordinates":[[[2.47638,50.27959],[2.47655,50.27852],[2.47615,50.27863],[2.47563,50.27957],[2.47638,50.27959]]]}},{"type":"Feature","properties":{"k":"PPH","s":0.231},"geometry":{"type":"Polygon","coordinates":[[[2.47829,50.27956],[2.47837,50.27826],[2.47817,50.27819],[2.47806,50.27954],[2.47829,50.27956]]]}},{"type":"Feature","properties":{"k":"PTC","s":8.103},"geometry":{"type":"Polygon","coordinates":[[[2.4981,50.26749],[2.49875,50.26654],[2.49942,50.26455],[2.4964,50.26385],[2.49487,50.26488],[2.49657,50.26529],[2.49546,50.26708],[2.4978,50.26755],[2.4981,50.26749]]]}},{"type":"Feature","properties":{"k":"MIS","s":0.899},"geometry":{"type":"Polygon","coordinates":[[[2.49543,50.26183],[2.49514,50.26169],[2.49135,50.26442],[2.49152,50.26454],[2.49543,50.26183]]]}},{"type":"Feature","properties":{"k":"PPH","s":0.46},"geometry":{"type":"Polygon","coordinates":[[[2.48101,50.27812],[2.48151,50.27817],[2.48126,50.277],[2.48073,50.27701],[2.48101,50.27812]]]}},{"type":"Feature","properties":{"k":"PPH","s":7.622},"geometry":{"type":"Polygon","coordinates":[[[2.4777,50.27478],[2.4776,50.27695],[2.47818,50.27696],[2.47869,50.27819],[2.47918,50.27816],[2.47905,50.277],[2.48034,50.27701],[2.48057,50.27821],[2.48099,50.2782],[2.4807,50.27701],[2.48153,50.27694],[2.48129,50.27481],[2.4777,50.27478]]]}},{"type":"Feature","properties":{"k":"MIS","s":3.019},"geometry":{"type":"Polygon","coordinates":[[[2.48144,50.27613],[2.48157,50.27695],[2.48288,50.27665],[2.48311,50.27438],[2.48128,50.27444],[2.48144,50.27613]]]}},{"type":"Feature","properties":{"k":"MIS","s":1.29},"geometry":{"type":"Polygon","coordinates":[[[2.4776,50.27695],[2.47769,50.27476],[2.47697,50.27475],[2.47684,50.27697],[2.4776,50.27695]]]}},{"type":"Feature","properties":{"k":"PPH","s":1.693},"geometry":{"type":"Polygon","coordinates":[[[2.47606,50.27688],[2.47684,50.27697],[2.47697,50.27475],[2.47588,50.27473],[2.47606,50.27688]]]}},{"type":"Feature","properties":{"k":"PPH","s":0.228},"geometry":{"type":"Polygon","coordinates":[[[2.47832,50.27755],[2.47816,50.27706],[2.47756,50.27705],[2.47778,50.27752],[2.47832,50.27755]]]}},{"type":"Feature","properties":{"k":"PPH","s":1.704},"geometry":{"type":"Polygon","coordinates":[[[2.47301,50.27749],[2.47297,50.27877],[2.47379,50.27859],[2.47457,50.27644],[2.47235,50.27748],[2.47301,50.27749]]]}},{"type":"Feature","properties":{"k":"MIS","s":1.596},"geometry":{"type":"Polygon","coordinates":[[[2.47588,50.27651],[2.47573,50.27412],[2.47487,50.27406],[2.47494,50.27636],[2.47588,50.27651]]]}},{"type":"Feature","properties":{"k":"BTH","s":5.077},"geometry":{"type":"Polygon","coordinates":[[[2.47238,50.27738],[2.47461,50.27639],[2.47494,50.27636],[2.47487,50.27406],[2.47287,50.27392],[2.47238,50.27738]]]}},{"type":"Feature","properties":{"k":"BTH","s":11.265},"geometry":{"type":"Polygon","coordinates":[[[2.47242,50.27687],[2.47311,50.27218],[2.471,50.27211],[2.47008,50.27227],[2.46939,50.27676],[2.47242,50.27687]]]}},{"type":"Feature","properties":{"k":"PPH","s":2.34},"geometry":{"type":"Polygon","coordinates":[[[2.49434,50.26606],[2.49398,50.26629],[2.4954,50.26706],[2.49654,50.26529],[2.49497,50.26491],[2.49422,50.26599],[2.49434,50.26606]]]}},{"type":"Feature","properties":{"k":"PPH","s":0.927},"geometry":{"type":"Polygon","coordinates":[[[2.4724,50.27687],[2.47151,50.27684],[2.47155,50.2782],[2.47245,50.27821],[2.4724,50.27687]]]}},{"type":"Feature","properties":{"k":"BTH","s":2.531},"geometry":{"type":"Polygon","coordinates":[[[2.49944,50.26455],[2.49958,50.2633],[2.49781,50.26282],[2.49641,50.26385],[2.49944,50.26455]]]}},{"type":"Feature","properties":{"k":"LUZ","s":0.994},"geometry":{"type":"Polygon","coordinates":[[[2.47149,50.27818],[2.47151,50.27685],[2.47056,50.27682],[2.47058,50.27818],[2.47149,50.27818]]]}},{"type":"Feature","properties":{"k":"MIS","s":1.926},"geometry":{"type":"Polygon","coordinates":[[[2.47054,50.2768],[2.46885,50.27674],[2.46883,50.2782],[2.47054,50.2782],[2.47054,50.2768]]]}},{"type":"Feature","properties":{"k":"BTH","s":2.789},"geometry":{"type":"Polygon","coordinates":[[[2.4713,50.27966],[2.47251,50.27899],[2.47234,50.27825],[2.46982,50.27824],[2.46982,50.27976],[2.4713,50.27966]]]}},{"type":"Feature","properties":{"k":"PPH","s":0.81},"geometry":{"type":"Polygon","coordinates":[[[2.4736,50.2798],[2.4734,50.28101],[2.47425,50.28103],[2.47446,50.2798],[2.4736,50.2798]]]}},{"type":"Feature","properties":{"k":"PPH","s":0.458},"geometry":{"type":"Polygon","coordinates":[[[2.47621,50.28033],[2.47537,50.28027],[2.47519,50.28111],[2.47574,50.28113],[2.47621,50.28033]]]}},{"type":"Feature","properties":{"k":"PPH","s":1.065},"geometry":{"type":"Polygon","coordinates":[[[2.46881,50.27985],[2.46877,50.27821],[2.46797,50.27823],[2.46798,50.27988],[2.46881,50.27985]]]}},{"type":"Feature","properties":{"k":"LUZ","s":1.242},"geometry":{"type":"Polygon","coordinates":[[[2.46981,50.27824],[2.46881,50.27823],[2.46881,50.27982],[2.4698,50.27977],[2.46981,50.27824]]]}},{"type":"Feature","properties":{"k":"PPH","s":0.624},"geometry":{"type":"Polygon","coordinates":[[[2.46663,50.27975],[2.46661,50.27823],[2.46609,50.27823],[2.46606,50.27964],[2.46663,50.27975]]]}},{"type":"Feature","properties":{"k":"MIS","s":6.795},"geometry":{"type":"Polygon","coordinates":[[[2.46603,50.27963],[2.46605,50.27824],[2.46662,50.27822],[2.46663,50.27975],[2.46797,50.27985],[2.46786,50.2767],[2.46546,50.27664],[2.46467,50.2782],[2.46434,50.27948],[2.46603,50.27963]]]}},{"type":"Feature","properties":{"k":"BTH","s":2.939},"geometry":{"type":"Polygon","coordinates":[[[2.46546,50.2766],[2.46603,50.27274],[2.46531,50.27276],[2.46467,50.27485],[2.46442,50.27651],[2.46546,50.2766]]]}},{"type":"Feature","properties":{"k":"BTN","s":0.012},"geometry":{"type":"Polygon","coordinates":[[[2.46463,50.27497],[2.46449,50.27541],[2.46456,50.27541],[2.46463,50.27497]]]}},{"type":"Feature","properties":{"k":"BTH","s":0.135},"geometry":{"type":"Polygon","coordinates":[[[2.46545,50.27664],[2.46526,50.27664],[2.4647,50.27813],[2.46545,50.27664]]]}},{"type":"Feature","properties":{"k":"CZH","s":1.166},"geometry":{"type":"Polygon","coordinates":[[[2.46885,50.27673],[2.46786,50.2767],[2.46786,50.27823],[2.46877,50.2782],[2.46885,50.27673]]]}},{"type":"Feature","properties":{"k":"LIF","s":12.952},"geometry":{"type":"Polygon","coordinates":[[[2.4694,50.27676],[2.4701,50.27225],[2.46771,50.27265],[2.46603,50.27274],[2.46545,50.27663],[2.4694,50.27676]]]}},{"type":"Feature","properties":{"k":"BTH","s":3.23},"geometry":{"type":"Polygon","coordinates":[[[2.46183,50.26609],[2.45919,50.26689],[2.46285,50.26781],[2.46288,50.2677],[2.46319,50.26777],[2.46349,50.26653],[2.46183,50.26609]]]}},{"type":"Feature","properties":{"k":"BTH","s":21.656},"geometry":{"type":"Polygon","coordinates":[[[2.46755,50.26982],[2.4669,50.26918],[2.46501,50.26901],[2.46506,50.26869],[2.46655,50.26882],[2.46538,50.26796],[2.46441,50.26695],[2.46356,50.26656],[2.46199,50.27281],[2.46728,50.27257],[2.46913,50.27232],[2.47016,50.27212],[2.47034,50.2716],[2.46755,50.26982]]]}},{"type":"Feature","properties":{"k":"ORP","s":1.082},"geometry":{"type":"Polygon","coordinates":[[[2.46595,50.26797],[2.46479,50.26675],[2.46465,50.26699],[2.46567,50.2681],[2.46778,50.26986],[2.4682,50.27008],[2.46867,50.27009],[2.46595,50.26797]]]}},{"type":"Feature","properties":{"k":"JAC","s":0.093},"geometry":{"type":"Polygon","coordinates":[[[2.46887,50.27041],[2.46892,50.27009],[2.4682,50.27008],[2.46887,50.27041]]]}},{"type":"Feature","properties":{"k":"ORP","s":8.521},"geometry":{"type":"Polygon","coordinates":[[[2.476,50.26757],[2.47512,50.26407],[2.47245,50.2634],[2.47144,50.26502],[2.46875,50.26439],[2.46809,50.26548],[2.47521,50.2656],[2.47555,50.26757],[2.47521,50.26955],[2.47566,50.26956],[2.476,50.26757]]]}},{"type":"Feature","properties":{"k":"BTH","s":40.605},"geometry":{"type":"Polygon","coordinates":[[[2.47567,50.27218],[2.4754,50.27133],[2.47566,50.26956],[2.47521,50.26955],[2.47555,50.26757],[2.47521,50.2656],[2.46794,50.26544],[2.46777,50.26571],[2.46562,50.26536],[2.46479,50.26675],[2.46595,50.26797],[2.46803,50.26971],[2.46877,50.27009],[2.4729,50.27016],[2.47285,50.27073],[2.46908,50.27055],[2.47087,50.2719],[2.47567,50.27218]]]}},{"type":"Feature","properties":{"k":"CZH","s":1.613},"geometry":{"type":"Polygon","coordinates":[[[2.47285,50.27073],[2.4729,50.27016],[2.46892,50.27009],[2.46887,50.27041],[2.46907,50.27055],[2.47285,50.27073]]]}},{"type":"Feature","properties":{"k":"BTH","s":2.944},"geometry":{"type":"Polygon","coordinates":[[[2.47575,50.27368],[2.47567,50.27234],[2.47311,50.27218],[2.47292,50.27351],[2.47575,50.27368]]]}},{"type":"Feature","properties":{"k":"MIS","s":0.944},"geometry":{"type":"Polygon","coordinates":[[[2.47287,50.27391],[2.47574,50.27411],[2.47574,50.27368],[2.47292,50.27351],[2.47287,50.27391]]]}},{"type":"Feature","properties":{"k":"LIF","s":6.663},"geometry":{"type":"Polygon","coordinates":[[[2.47718,50.26906],[2.47649,50.27229],[2.4797,50.2725],[2.47999,50.27054],[2.47718,50.26906]]]}},{"type":"Feature","properties":{"k":"MIS","s":1.315},"geometry":{"type":"Polygon","coordinates":[[[2.47589,50.27244],[2.47588,50.27473],[2.47654,50.27474],[2.47662,50.27243],[2.47589,50.27244]]]}},{"type":"Feature","properties":{"k":"BTN","s":0.999},"geometry":{"type":"Polygon","coordinates":[[[2.47718,50.27249],[2.47662,50.27243],[2.47654,50.27474],[2.47707,50.27475],[2.47718,50.27249]]]}},{"type":"Feature","properties":{"k":"BTN","s":2.498},"geometry":{"type":"Polygon","coordinates":[[[2.47846,50.27477],[2.47861,50.27259],[2.47718,50.27249],[2.47707,50.27475],[2.47846,50.27477]]]}},{"type":"Feature","properties":{"k":"BTH","s":0.991},"geometry":{"type":"Polygon","coordinates":[[[2.47846,50.27477],[2.47903,50.27479],[2.47919,50.2726],[2.47861,50.27259],[2.47846,50.27477]]]}},{"type":"Feature","properties":{"k":"BTH","s":5.615},"geometry":{"type":"Polygon","coordinates":[[[2.48129,50.27481],[2.48126,50.27443],[2.48266,50.27441],[2.48283,50.27282],[2.47919,50.2726],[2.47903,50.27479],[2.48129,50.27481]]]}},{"type":"Feature","properties":{"k":"BTH","s":2.043},"geometry":{"type":"Polygon","coordinates":[[[2.4817,50.27262],[2.48109,50.27112],[2.47999,50.27054],[2.47972,50.27248],[2.4817,50.27262]]]}},{"type":"Feature","properties":{"k":"PHF","s":6.435},"geometry":{"type":"Polygon","coordinates":[[[2.48604,50.26967],[2.47818,50.26949],[2.48054,50.27073],[2.48619,50.27086],[2.48604,50.26967]]]}},{"type":"Feature","properties":{"k":"BTH","s":5.205},"geometry":{"type":"Polygon","coordinates":[[[2.47821,50.26948],[2.48604,50.26967],[2.4859,50.26889],[2.47683,50.26868],[2.47821,50.26948]]]}},{"type":"Feature","properties":{"k":"CZH","s":3.411},"geometry":{"type":"Polygon","coordinates":[[[2.47602,50.26826],[2.4755,50.27128],[2.47583,50.2722],[2.47649,50.27229],[2.47718,50.26906],[2.47602,50.26826]]]}},{"type":"Feature","properties":{"k":"MIS","s":6.942},"geometry":{"type":"Polygon","coordinates":[[[2.47615,50.26795],[2.47678,50.26868],[2.4859,50.26889],[2.48549,50.26812],[2.47611,50.26754],[2.47615,50.26795]]]}},{"type":"Feature","properties":{"k":"BTH","s":9.399},"geometry":{"type":"Polygon","coordinates":[[[2.48692,50.26469],[2.48439,50.26631],[2.48591,50.26852],[2.48636,50.26863],[2.48606,50.2682],[2.48652,50.26812],[2.48686,50.26868],[2.48995,50.26906],[2.48692,50.26469]]]}},{"type":"Feature","properties":{"k":"MIS","s":3.927},"geometry":{"type":"Polygon","coordinates":[[[2.48996,50.26907],[2.4911,50.2692],[2.49382,50.26627],[2.49306,50.26578],[2.48964,50.26872],[2.48996,50.26907]]]}},{"type":"Feature","properties":{"k":"BTH","s":6.829},"geometry":{"type":"Polygon","coordinates":[[[2.49165,50.26467],[2.48829,50.26669],[2.48965,50.26871],[2.49306,50.26578],[2.49236,50.26541],[2.49165,50.26467]]]}},{"type":"Feature","properties":{"k":"PHF","s":5.85},"geometry":{"type":"Polygon","coordinates":[[[2.49111,50.26919],[2.49712,50.26989],[2.49754,50.26874],[2.49223,50.26798],[2.49111,50.26919]]]}},{"type":"Feature","properties":{"k":"LIF","s":4.49},"geometry":{"type":"Polygon","coordinates":[[[2.48616,50.26984],[2.49161,50.27023],[2.49136,50.2694],[2.48598,50.26866],[2.48616,50.26984]]]}},{"type":"Feature","properties":{"k":"BTH","s":11.812},"geometry":{"type":"Polygon","coordinates":[[[2.49779,50.2722],[2.49709,50.27122],[2.497,50.26998],[2.49404,50.26961],[2.49424,50.27032],[2.49383,50.27037],[2.49359,50.26956],[2.49133,50.2693],[2.49238,50.27271],[2.49779,50.2722]]]}},{"type":"Feature","properties":{"k":"CZH","s":1.585},"geometry":{"type":"Polygon","coordinates":[[[2.49203,50.27289],[2.49113,50.27304],[2.49348,50.27505],[2.49409,50.27469],[2.49203,50.27289]]]}},{"type":"Feature","properties":{"k":"JAC","s":0.066},"geometry":{"type":"Polygon","coordinates":[]}},{"type":"Feature","properties":{"k":"PPH","s":0.324},"geometry":{"type":"Polygon","coordinates":[[[2.48682,50.27394],[2.48638,50.27374],[2.48569,50.27457],[2.48598,50.2747],[2.48682,50.27394]]]}},{"type":"Feature","properties":{"k":"PPH","s":0.386},"geometry":{"type":"Polygon","coordinates":[[[2.48638,50.27374],[2.48588,50.27354],[2.48532,50.27439],[2.48569,50.27457],[2.48638,50.27374]]]}},{"type":"Feature","properties":{"k":"MIS","s":1.029},"geometry":{"type":"Polygon","coordinates":[[[2.48599,50.27296],[2.48586,50.27343],[2.48715,50.27397],[2.48811,50.27309],[2.48599,50.27296]]]}},{"type":"Feature","properties":{"k":"PPH","s":1.124},"geometry":{"type":"Polygon","coordinates":[[[2.48664,50.27271],[2.4866,50.27291],[2.48693,50.27294],[2.48707,50.27179],[2.48538,50.2718],[2.48549,50.27257],[2.48664,50.27271]]]}},{"type":"Feature","properties":{"k":"PPH","s":0.94},"geometry":{"type":"Polygon","coordinates":[[[2.48515,50.27283],[2.48495,50.27178],[2.48368,50.27177],[2.48414,50.2728],[2.48515,50.27283]]]}},{"type":"Feature","properties":{"k":"PPR","s":3.384},"geometry":{"type":"Polygon","coordinates":[[[2.48231,50.27167],[2.48615,50.27175],[2.48637,50.27162],[2.48622,50.27087],[2.48054,50.27073],[2.48231,50.27167]]]}},{"type":"Feature","properties":{"k":"PPH","s":1.295},"geometry":{"type":"Polygon","coordinates":[[[2.48368,50.27275],[2.48109,50.27112],[2.4817,50.27262],[2.48368,50.27275]]]}},{"type":"Feature","properties":{"k":"PPH","s":0.991},"geometry":{"type":"Polygon","coordinates":[[[2.48588,50.27355],[2.48468,50.27307],[2.48435,50.27435],[2.48532,50.27439],[2.48588,50.27355]]]}},{"type":"Feature","properties":{"k":"MIS","s":2.041},"geometry":{"type":"Polygon","coordinates":[[[2.48467,50.27306],[2.48284,50.27283],[2.48267,50.2744],[2.48432,50.27434],[2.48467,50.27306]]]}},{"type":"Feature","properties":{"k":"PPH","s":0.168},"geometry":{"type":"Polygon","coordinates":[[[2.48616,50.27476],[2.48702,50.27403],[2.48682,50.27394],[2.48599,50.27469],[2.48616,50.27476]]]}},{"type":"Feature","properties":{"k":"JAC","s":0.064},"geometry":{"type":"Polygon","coordinates":[[[2.48813,50.27571],[2.48821,50.27573],[2.48824,50.27573],[2.48593,50.27471],[2.48813,50.27571]]]}},{"type":"Feature","properties":{"k":"BTH","s":7.248},"geometry":{"type":"Polygon","coordinates":[[[2.48318,50.2744],[2.48294,50.27663],[2.48619,50.27601],[2.48771,50.27772],[2.48836,50.27763],[2.48773,50.2758],[2.48821,50.27573],[2.48532,50.27439],[2.48318,50.2744]]]}},{"type":"Feature","properties":{"k":"BTH","s":0.871},"geometry":{"type":"Polygon","coordinates":[[[2.48496,50.27625],[2.48644,50.27774],[2.48708,50.27778],[2.48559,50.27613],[2.48496,50.27625]]]}},{"type":"Feature","properties":{"k":"MIS","s":0.819},"geometry":{"type":"Polygon","coordinates":[[[2.48749,50.27773],[2.4862,50.27602],[2.4856,50.27613],[2.48708,50.27778],[2.48749,50.27773]]]}},{"type":"Feature","properties":{"k":"PPH","s":0.868},"geometry":{"type":"Polygon","coordinates":[[[2.48923,50.27752],[2.4887,50.277],[2.48824,50.27573],[2.48773,50.2758],[2.48845,50.27762],[2.48923,50.27752]]]}},{"type":"Feature","properties":{"k":"MIS","s":5.137},"geometry":{"type":"Polygon","coordinates":[[[2.48166,50.27815],[2.48662,50.27783],[2.48493,50.27627],[2.48128,50.27705],[2.48151,50.27817],[2.48166,50.27815]]]}},{"type":"Feature","properties":{"k":"PPH","s":0.277},"geometry":{"type":"Polygon","coordinates":[[[2.48699,50.27874],[2.48736,50.27892],[2.48764,50.27883],[2.48701,50.27839],[2.48632,50.27851],[2.48649,50.27872],[2.48699,50.27874]]]}},{"type":"Feature","properties":{"k":"PPH","s":0.705},"geometry":{"type":"Polygon","coordinates":[[[2.48876,50.27887],[2.48771,50.27817],[2.48725,50.27823],[2.48697,50.27793],[2.48642,50.278],[2.48831,50.27912],[2.48876,50.27887]]]}},{"type":"Feature","properties":{"k":"PPH","s":3.389},"geometry":{"type":"Polygon","coordinates":[[[2.48973,50.27754],[2.48843,50.27774],[2.48939,50.27855],[2.48823,50.27917],[2.48935,50.27992],[2.49163,50.27866],[2.48973,50.27754]]]}},{"type":"Feature","properties":{"k":"PPH","s":0.989},"geometry":{"type":"Polygon","coordinates":[[[2.48934,50.27993],[2.48975,50.28024],[2.49218,50.27896],[2.4917,50.2787],[2.48934,50.27993]]]}},{"type":"Feature","properties":{"k":"PPH","s":3.899},"geometry":{"type":"Polygon","coordinates":[[[2.49117,50.28141],[2.49376,50.28013],[2.4937,50.27994],[2.49318,50.27951],[2.49288,50.27965],[2.49263,50.2795],[2.49285,50.27932],[2.49218,50.27896],[2.48976,50.28023],[2.49117,50.28141]]]}},{"type":"Feature","properties":{"k":"PPH","s":2.705},"geometry":{"type":"Polygon","coordinates":[[[2.49204,50.28222],[2.49488,50.28083],[2.49384,50.28007],[2.49114,50.28143],[2.49204,50.28222]]]}},{"type":"Feature","properties":{"k":"PPH","s":0.656},"geometry":{"type":"Polygon","coordinates":[[[2.49436,50.28045],[2.49567,50.27983],[2.4951,50.27944],[2.4939,50.28003],[2.49436,50.28045]]]}},{"type":"Feature","properties":{"k":"PPH","s":0.425},"geometry":{"type":"Polygon","coordinates":[[[2.49487,50.27857],[2.49322,50.27944],[2.49345,50.27959],[2.49533,50.27867],[2.49487,50.27857]]]}},{"type":"Feature","properties":{"k":"JAC","s":0.842},"geometry":{"type":"Polygon","coordinates":[[[2.49485,50.27694],[2.49535,50.27663],[2.49341,50.27568],[2.49292,50.27593],[2.49485,50.27694]]]}},{"type":"Feature","properties":{"k":"PPH","s":0.16},"geometry":{"type":"Polygon","coordinates":[[[2.48964,50.27744],[2.48983,50.27739],[2.48957,50.27659],[2.48931,50.2767],[2.48964,50.27744]]]}},{"type":"Feature","properties":{"k":"PPH","s":0.337},"geometry":{"type":"Polygon","coordinates":[[[2.48869,50.27695],[2.48881,50.27714],[2.48923,50.27752],[2.48964,50.27744],[2.48931,50.2767],[2.48869,50.27695]]]}},{"type":"Feature","properties":{"k":"PPH","s":0.764},"geometry":{"type":"Polygon","coordinates":[[[2.48849,50.27638],[2.48984,50.2755],[2.48914,50.27512],[2.48826,50.27568],[2.48849,50.27638]]]}},{"type":"Feature","properties":{"k":"PPH","s":0.488},"geometry":{"type":"Polygon","coordinates":[[[2.49059,50.27464],[2.48951,50.27519],[2.48973,50.27531],[2.49149,50.27447],[2.49222,50.27411],[2.49203,50.27397],[2.49059,50.27464]]]}},{"type":"Feature","properties":{"k":"PPH","s":0.585},"geometry":{"type":"Polygon","coordinates":[[[2.49174,50.27529],[2.49199,50.27529],[2.49232,50.27559],[2.49336,50.27508],[2.49284,50.27462],[2.49174,50.27529]]]}},{"type":"Feature","properties":{"k":"PPH","s":0.158},"geometry":{"type":"Polygon","coordinates":[[[2.49284,50.27462],[2.49276,50.27452],[2.49156,50.27512],[2.49174,50.27529],[2.49284,50.27462]]]}},{"type":"Feature","properties":{"k":"PPH","s":0.375},"geometry":{"type":"Polygon","coordinates":[[[2.49236,50.27559],[2.4927,50.27587],[2.49375,50.2754],[2.49326,50.27515],[2.49236,50.27559]]]}},{"type":"Feature","properties":{"k":"PPH","s":2.064},"geometry":{"type":"Polygon","coordinates":[[[2.49862,50.27449],[2.49609,50.27481],[2.49839,50.27622],[2.49864,50.27607],[2.49878,50.27484],[2.49862,50.27449]]]}},{"type":"Feature","properties":{"k":"BTH","s":2.722},"geometry":{"type":"Polygon","coordinates":[[[2.49881,50.27455],[2.49873,50.2762],[2.499,50.27642],[2.50003,50.27662],[2.50027,50.27621],[2.50056,50.27416],[2.49881,50.27455]]]}},{"type":"Feature","properties":{"k":"BTH","s":1.928},"geometry":{"type":"Polygon","coordinates":[[[2.50129,50.27546],[2.50147,50.27411],[2.50056,50.27416],[2.50016,50.27657],[2.50104,50.27718],[2.50129,50.27546]]]}},{"type":"Feature","properties":{"k":"BTH","s":0.993},"geometry":{"type":"Polygon","coordinates":[[[2.49919,50.27656],[2.49854,50.27628],[2.49715,50.27748],[2.49783,50.27777],[2.49919,50.27656]]]}},{"type":"Feature","properties":{"k":"JAC","s":0.044},"geometry":{"type":"Polygon","coordinates":[[[2.50084,50.27717],[2.50104,50.27718],[2.5006,50.27678],[2.50084,50.27717]]]}},{"type":"Feature","properties":{"k":"MIS","s":2.027},"geometry":{"type":"Polygon","coordinates":[[[2.50028,50.27885],[2.50034,50.27809],[2.49986,50.27795],[2.50076,50.27723],[2.50028,50.27679],[2.49988,50.27666],[2.49838,50.27804],[2.50028,50.27885]]]}},{"type":"Feature","properties":{"k":"PPH","s":0.336},"geometry":{"type":"Polygon","coordinates":[[[2.49815,50.27792],[2.49834,50.27802],[2.49988,50.27666],[2.49961,50.27661],[2.49815,50.27792]]]}},{"type":"Feature","properties":{"k":"PPH","s":1.748},"geometry":{"type":"Polygon","coordinates":[[[2.49505,50.27687],[2.49579,50.2773],[2.49581,50.27747],[2.49601,50.27729],[2.49629,50.27745],[2.49615,50.27757],[2.49657,50.27782],[2.49745,50.27706],[2.49667,50.27662],[2.4971,50.27627],[2.49654,50.27591],[2.49505,50.27687]]]}},{"type":"Feature","properties":{"k":"PPH","s":0.487},"geometry":{"type":"Polygon","coordinates":[[[2.49554,50.2799],[2.49438,50.28046],[2.49489,50.28075],[2.49596,50.28025],[2.49554,50.2799]]]}},{"type":"Feature","properties":{"k":"PPH","s":0.457},"geometry":{"type":"Polygon","coordinates":[[[2.497,50.28031],[2.49691,50.28012],[2.49545,50.28099],[2.49596,50.28132],[2.49659,50.28094],[2.49627,50.28073],[2.497,50.28031]]]}},{"type":"Feature","properties":{"k":"PPH","s":1.002},"geometry":{"type":"Polygon","coordinates":[[[2.49703,50.28241],[2.49747,50.28211],[2.49772,50.28221],[2.49794,50.28206],[2.49733,50.28178],[2.49701,50.28202],[2.49664,50.28177],[2.4973,50.28135],[2.49688,50.28105],[2.49757,50.28059],[2.49731,50.28047],[2.49606,50.28139],[2.49703,50.28241]]]}},{"type":"Feature","properties":{"k":"PPH","s":0.3},"geometry":{"type":"Polygon","coordinates":[[[2.49836,50.2818],[2.49868,50.28144],[2.49838,50.28133],[2.49856,50.28114],[2.49888,50.28125],[2.49897,50.28113],[2.49834,50.28097],[2.49797,50.28155],[2.49836,50.2818]]]}},{"type":"Feature","properties":{"k":"PPH","s":2.594},"geometry":{"type":"Polygon","coordinates":[[[2.50043,50.27898],[2.50082,50.27976],[2.50362,50.28037],[2.50294,50.27931],[2.50205,50.27846],[2.50043,50.27898]]]}},{"type":"Feature","properties":{"k":"JAC","s":0.024},"geometry":{"type":"Polygon","coordinates":[[[2.50538,50.28091],[2.50535,50.28089],[2.50507,50.28135],[2.50543,50.28143],[2.50512,50.28133],[2.50538,50.28091]]]}},{"type":"Feature","properties":{"k":"BTH","s":0.671},"geometry":{"type":"Polygon","coordinates":[[[2.50694,50.28219],[2.50754,50.28188],[2.50551,50.28145],[2.50528,50.2819],[2.50694,50.28219]]]}},{"type":"Feature","properties":{"k":"MIS","s":0.042},"geometry":{"type":"Polygon","coordinates":[[[2.5061,50.28056],[2.50758,50.28003],[2.50684,50.28027],[2.5061,50.28056]]]}},{"type":"Feature","properties":{"k":"PPH","s":5.08},"geometry":{"type":"Polygon","coordinates":[[[2.50299,50.27927],[2.50372,50.28039],[2.50523,50.28087],[2.50705,50.28013],[2.50656,50.2783],[2.50299,50.27927]]]}},{"type":"Feature","properties":{"k":"LBF","s":1.374},"geometry":{"type":"Polygon","coordinates":[[[2.50685,50.27935],[2.50705,50.28013],[2.50792,50.27979],[2.50748,50.27805],[2.50656,50.2783],[2.50685,50.27935]]]}},{"type":"Feature","properties":{"k":"BTH","s":2.428},"geometry":{"type":"Polygon","coordinates":[[[2.50534,50.27666],[2.50579,50.27849],[2.50748,50.27805],[2.50707,50.27651],[2.50534,50.27666]]]}},{"type":"Feature","properties":{"k":"CZH","s":6.245},"geometry":{"type":"Polygon","coordinates":[[[2.50093,50.27726],[2.50299,50.27927],[2.50579,50.27849],[2.50534,50.27666],[2.50093,50.27726]]]}},{"type":"Feature","properties":{"k":"PPH","s":1.196},"geometry":{"type":"Polygon","coordinates":[[[2.50042,50.27821],[2.50043,50.27898],[2.50202,50.27845],[2.50087,50.27727],[2.50042,50.27821]]]}},{"type":"Feature","properties":{"k":"BTH","s":0.114},"geometry":{"type":"Polygon","coordinates":[[[2.50419,50.27616],[2.50401,50.27679],[2.50421,50.27676],[2.50446,50.27531],[2.50419,50.27616]]]}},{"type":"Feature","properties":{"k":"MIS","s":7.077},"geometry":{"type":"Polygon","coordinates":[[[2.50147,50.27411],[2.50104,50.27718],[2.50401,50.27679],[2.50469,50.27395],[2.50147,50.27411]]]}},{"type":"Feature","properties":{"k":"PPH","s":0.165},"geometry":{"type":"Polygon","coordinates":[[[2.50463,50.27389],[2.50534,50.2736],[2.50533,50.27358],[2.50438,50.27336],[2.50463,50.27389]],[[2.50474,50.2736],[2.50475,50.27377],[2.5046,50.27379],[2.50455,50.2736],[2.50474,50.2736]]]}},{"type":"Feature","properties":{"k":"BTH","s":0.478},"geometry":{"type":"Polygon","coordinates":[[[2.50495,50.27185],[2.50619,50.27035],[2.50587,50.2703],[2.50457,50.27178],[2.50495,50.27185]]]}},{"type":"Feature","properties":{"k":"BTH","s":6.515},"geometry":{"type":"Polygon","coordinates":[[[2.5008,50.27243],[2.50353,50.273],[2.50587,50.2703],[2.50391,50.27009],[2.50314,50.26979],[2.5008,50.27243]]]}},{"type":"Feature","properties":{"k":"BTH","s":0.444},"geometry":{"type":"Polygon","coordinates":[[[2.50392,50.2731],[2.50495,50.27185],[2.50456,50.27179],[2.50353,50.273],[2.50392,50.2731]]]}},{"type":"Feature","properties":{"k":"BTH","s":4.277},"geometry":{"type":"Polygon","coordinates":[[[2.49969,50.27239],[2.49991,50.27294],[2.4984,50.27339],[2.49876,50.27438],[2.5007,50.27407],[2.50284,50.27406],[2.50228,50.27285],[2.49969,50.27239]]]}},{"type":"Feature","properties":{"k":"BTP","s":0.46},"geometry":{"type":"Polygon","coordinates":[[[2.49991,50.27294],[2.49969,50.27236],[2.49799,50.27234],[2.49957,50.27241],[2.49965,50.27278],[2.49829,50.27318],[2.4984,50.27339],[2.49991,50.27294]]]}},{"type":"Feature","properties":{"k":"CZH","s":0.697},"geometry":{"type":"Polygon","coordinates":[[[2.49965,50.27278],[2.49957,50.27241],[2.49801,50.2724],[2.49829,50.27318],[2.49965,50.27278]]]}},{"type":"Feature","properties":{"k":"CZH","s":2.36},"geometry":{"type":"Polygon","coordinates":[[[2.47544,50.26473],[2.48386,50.26569],[2.48347,50.26511],[2.4808,50.26499],[2.47538,50.26446],[2.47544,50.26473]]]}},{"type":"Feature","properties":{"k":"LBF","s":9.913},"geometry":{"type":"Polygon","coordinates":[[[2.47579,50.2662],[2.48491,50.26723],[2.48386,50.26569],[2.47544,50.26473],[2.47579,50.2662]]]}},{"type":"Feature","properties":{"k":"MIS","s":6.109},"geometry":{"type":"Polygon","coordinates":[[[2.49858,50.27432],[2.49841,50.27374],[2.4979,50.27383],[2.4973,50.2724],[2.49338,50.27271],[2.49541,50.27486],[2.49858,50.27432]]]}},{"type":"Feature","properties":{"k":"BTH","s":0.111},"geometry":{"type":"Polygon","coordinates":[[[2.50043,50.27225],[2.50046,50.27207],[2.49983,50.272],[2.49972,50.27208],[2.50043,50.27225]]]}},{"type":"Feature","properties":{"k":"BTH","s":5.005},"geometry":{"type":"Polygon","coordinates":[[[2.49924,50.27223],[2.5008,50.27243],[2.50314,50.26979],[2.50149,50.26905],[2.49905,50.27188],[2.49924,50.27223]],[[2.50014,50.27201],[2.50046,50.27207],[2.50049,50.27221],[2.49972,50.27208],[2.50014,50.27201]]]}},{"type":"Feature","properties":{"k":"PTC","s":2.725},"geometry":{"type":"Polygon","coordinates":[[[2.49864,50.271],[2.49905,50.27188],[2.50149,50.26905],[2.50042,50.26857],[2.49864,50.271]]]}},{"type":"Feature","properties":{"k":"AVP","s":2.328},"geometry":{"type":"Polygon","coordinates":[[[2.4975,50.26918],[2.4972,50.27007],[2.49729,50.27129],[2.49864,50.271],[2.49936,50.26999],[2.4975,50.26918]]]}},{"type":"Feature","properties":{"k":"BTH","s":0.045},"geometry":{"type":"Polygon","coordinates":[[[2.472,50.26395],[2.47159,50.2645],[2.47172,50.26453],[2.472,50.26395]]]}},{"type":"Feature","properties":{"k":"BTH","s":0.021},"geometry":{"type":"Polygon","coordinates":[[[2.47247,50.26336],[2.472,50.26395],[2.47204,50.26396],[2.47247,50.26336]]]}},{"type":"Feature","properties":{"k":"BTN","s":0.08},"geometry":{"type":"Polygon","coordinates":[[[2.47143,50.26472],[2.47116,50.26495],[2.47144,50.26502],[2.47159,50.2645],[2.47143,50.26472]]]}},{"type":"Feature","properties":{"k":"MIS","s":4.433},"geometry":{"type":"Polygon","coordinates":[[[2.49795,50.26762],[2.49762,50.26758],[2.4975,50.26788],[2.49491,50.26732],[2.49379,50.2667],[2.49405,50.26642],[2.49382,50.26627],[2.49223,50.26798],[2.49754,50.26874],[2.49795,50.26762]]]}},{"type":"Feature","properties":{"k":"BTN","s":1.05},"geometry":{"type":"Polygon","coordinates":[[[2.49491,50.26732],[2.4975,50.26788],[2.49762,50.26758],[2.49554,50.26716],[2.49405,50.26642],[2.49379,50.2667],[2.49491,50.26732]]]}},{"type":"Feature","properties":{"k":"CZH","s":3.264},"geometry":{"type":"Polygon","coordinates":[[[2.50198,50.26766],[2.49892,50.26637],[2.49824,50.26752],[2.5003,50.26845],[2.5007,50.26801],[2.5011,50.26816],[2.50069,50.26862],[2.501,50.26876],[2.50198,50.26766]]]}},{"type":"Feature","properties":{"k":"BTH","s":4.993},"geometry":{"type":"Polygon","coordinates":[[[2.50101,50.26876],[2.50207,50.26922],[2.50218,50.26911],[2.5022,50.26928],[2.50558,50.26549],[2.5044,50.26495],[2.50101,50.26876]]]}},{"type":"Feature","properties":{"k":"BTH","s":3.897},"geometry":{"type":"Polygon","coordinates":[[[2.5055,50.27019],[2.50679,50.26887],[2.50637,50.2686],[2.50831,50.26644],[2.50748,50.26616],[2.50404,50.27003],[2.50481,50.27011],[2.50487,50.27002],[2.5055,50.27019]]]}},{"type":"Feature","properties":{"k":"BTN","s":7.636},"geometry":{"type":"Polygon","coordinates":[[[2.50404,50.27003],[2.50748,50.26616],[2.50558,50.26549],[2.5022,50.26928],[2.50404,50.27003]]]}},{"type":"Feature","properties":{"k":"PPH","s":0.031},"geometry":{"type":"Polygon","coordinates":[[[2.51487,50.2817],[2.51529,50.28199],[2.5138,50.28083],[2.51487,50.2817]]]}},{"type":"Feature","properties":{"k":"MIS","s":1.272},"geometry":{"type":"Polygon","coordinates":[[[2.51477,50.2823],[2.51528,50.282],[2.51355,50.28063],[2.5127,50.28116],[2.51477,50.2823]]]}},{"type":"Feature","properties":{"k":"BTH","s":0.017},"geometry":{"type":"Polygon","coordinates":[[[2.50913,50.27612],[2.50913,50.27611],[2.5066,50.27645],[2.50913,50.27612]]]}},{"type":"Feature","properties":{"k":"MIS","s":0.828},"geometry":{"type":"Polygon","coordinates":[[[2.50924,50.27809],[2.50949,50.27912],[2.50981,50.27898],[2.50911,50.27615],[2.50877,50.27621],[2.50924,50.27809]]]}},{"type":"Feature","properties":{"k":"MIS","s":0.226},"geometry":{"type":"Polygon","coordinates":[[[2.50914,50.27614],[2.50981,50.27898],[2.50997,50.27891],[2.50914,50.27614]]]}},{"type":"Feature","properties":{"k":"LIF","s":2.373},"geometry":{"type":"Polygon","coordinates":[[[2.508,50.27706],[2.5086,50.2795],[2.50949,50.27912],[2.50877,50.27621],[2.50784,50.27632],[2.508,50.27706]]]}},{"type":"Feature","properties":{"k":"MIS","s":1.926},"geometry":{"type":"Polygon","coordinates":[[[2.50781,50.27634],[2.50706,50.27644],[2.5079,50.27973],[2.50859,50.27944],[2.50781,50.27634]]]}},{"type":"Feature","properties":{"k":"PTR","s":0.034},"geometry":{"type":"Polygon","coordinates":[[[2.50792,50.27978],[2.50859,50.27944],[2.5079,50.27973],[2.50792,50.27978]]]}},{"type":"Feature","properties":{"k":"BTN","s":1.561},"geometry":{"type":"Polygon","coordinates":[[[2.51169,50.27906],[2.51062,50.27873],[2.50882,50.27948],[2.51118,50.28],[2.51169,50.27906]]]}},{"type":"Feature","properties":{"k":"PTC","s":1.963},"geometry":{"type":"Polygon","coordinates":[[[2.51118,50.28],[2.51359,50.28052],[2.51447,50.27997],[2.51169,50.27906],[2.51118,50.28]]]}},{"type":"Feature","properties":{"k":"CHV","s":1.046},"geometry":{"type":"Polygon","coordinates":[[[2.51271,50.28118],[2.51214,50.28151],[2.51415,50.28261],[2.5147,50.28234],[2.51271,50.28118]]]}},{"type":"Feature","properties":{"k":"BTP","s":0.194},"geometry":{"type":"Polygon","coordinates":[[[2.51401,50.28265],[2.51415,50.28261],[2.51214,50.28151],[2.51401,50.28265]]]}},{"type":"Feature","properties":{"k":"BTH","s":2.442},"geometry":{"type":"Polygon","coordinates":[[[2.51131,50.28195],[2.50862,50.28135],[2.50694,50.28219],[2.51008,50.28263],[2.51131,50.28195]]]}},{"type":"Feature","properties":{"k":"BTN","s":1.62},"geometry":{"type":"Polygon","coordinates":[[[2.46353,50.26646],[2.46464,50.26698],[2.46561,50.26536],[2.46434,50.2651],[2.46353,50.26646]]]}},{"type":"Feature","properties":{"k":"BTH","s":0.346},"geometry":{"type":"Polygon","coordinates":[[[2.50882,50.28122],[2.50862,50.28135],[2.51131,50.28195],[2.51151,50.28183],[2.50882,50.28122]]]}},{"type":"Feature","properties":{"k":"BTH","s":3.273},"geometry":{"type":"Polygon","coordinates":[[[2.50751,50.28001],[2.51263,50.28115],[2.51359,50.28052],[2.50879,50.27947],[2.50751,50.28001]]]}},{"type":"Feature","properties":{"k":"BTH","s":5.811},"geometry":{"type":"Polygon","coordinates":[[[2.50758,50.28003],[2.50579,50.28072],[2.50538,50.28091],[2.50512,50.28133],[2.50754,50.28188],[2.50882,50.28122],[2.5114,50.2818],[2.5125,50.28113],[2.50758,50.28003]],[[2.50617,50.28059],[2.50628,50.28057],[2.5062,50.28061],[2.50617,50.28059]]]}},{"type":"Feature","properties":{"k":"BTH","s":1.719},"geometry":{"type":"Polygon","coordinates":[[[2.462,50.26606],[2.46353,50.26646],[2.46434,50.2651],[2.46352,50.26488],[2.46322,50.2648],[2.462,50.26606]]]}},{"type":"Feature","properties":{"k":"BTH","s":1.723},"geometry":{"type":"Polygon","coordinates":[[[2.51098,50.28221],[2.51232,50.28289],[2.51313,50.28304],[2.51401,50.28265],[2.51203,50.28158],[2.51098,50.28221]]]}},{"type":"Feature","properties":{"k":"BTH","s":5.885},"geometry":{"type":"Polygon","coordinates":[[[2.51178,50.2829],[2.50998,50.28631],[2.51204,50.28702],[2.51264,50.28577],[2.51308,50.2838],[2.51301,50.28316],[2.51178,50.2829]]]}},{"type":"Feature","properties":{"k":"PTC","s":0.04},"geometry":{"type":"Polygon","coordinates":[]}},{"type":"Feature","properties":{"k":"BTH","s":8.18},"geometry":{"type":"Polygon","coordinates":[[[2.50744,50.28291],[2.50628,50.28379],[2.50998,50.28631],[2.51178,50.2829],[2.50923,50.28261],[2.50855,50.28365],[2.50744,50.28291]]]}},{"type":"Feature","properties":{"k":"BTH","s":1.105},"geometry":{"type":"Polygon","coordinates":[[[2.50992,50.28641],[2.50903,50.28741],[2.50927,50.28752],[2.51005,50.28699],[2.51184,50.28738],[2.51204,50.28702],[2.50992,50.28641]]]}},{"type":"Feature","properties":{"k":"PTR","s":0.035},"geometry":{"type":"Polygon","coordinates":[[[2.50912,50.28762],[2.50927,50.28752],[2.50903,50.28741],[2.50884,50.2875],[2.50912,50.28762]]]}},{"type":"Feature","properties":{"k":"BTP","s":0.034},"geometry":{"type":"Polygon","coordinates":[[[2.50896,50.28773],[2.50912,50.28762],[2.50884,50.2875],[2.50896,50.28773]]]}},{"type":"Feature","properties":{"k":"ORH","s":0.217},"geometry":{"type":"Polygon","coordinates":[[[2.50784,50.28671],[2.50769,50.28679],[2.50865,50.2875],[2.509,50.28733],[2.50784,50.28671]]]}},{"type":"Feature","properties":{"k":"BTH","s":10.458},"geometry":{"type":"Polygon","coordinates":[[[2.51292,50.2855],[2.51557,50.28628],[2.51652,50.28638],[2.51652,50.28662],[2.51806,50.2871],[2.51936,50.28517],[2.51918,50.28499],[2.51372,50.28338],[2.51337,50.28373],[2.51292,50.2855]]]}},{"type":"Feature","properties":{"k":"MIS","s":0.0},"geometry":{"type":"Polygon","coordinates":[]}},{"type":"Feature","properties":{"k":"LIF","s":0.296},"geometry":{"type":"Polygon","coordinates":[[[2.50703,50.28626],[2.50626,50.28667],[2.50573,50.28628],[2.5065,50.28691],[2.50727,50.28647],[2.50769,50.28679],[2.50784,50.28671],[2.50703,50.28626]]]}},{"type":"Feature","properties":{"k":"BTH","s":3.341},"geometry":{"type":"Polygon","coordinates":[[[2.50712,50.28629],[2.50857,50.28536],[2.5063,50.2838],[2.50505,50.2849],[2.50712,50.28629]]]}},{"type":"Feature","properties":{"k":"MIS","s":1.308},"geometry":{"type":"Polygon","coordinates":[[[2.50652,50.28589],[2.50505,50.2849],[2.50459,50.28536],[2.50626,50.28667],[2.50703,50.28626],[2.50652,50.28589]]]}},{"type":"Feature","properties":{"k":"MIS","s":2.386},"geometry":{"type":"Polygon","coordinates":[[[2.50367,50.28312],[2.50285,50.28362],[2.50452,50.28529],[2.50575,50.2842],[2.50367,50.28312]]]}},{"type":"Feature","properties":{"k":"BTH","s":0.949},"geometry":{"type":"Polygon","coordinates":[[[2.50676,50.28334],[2.50804,50.28244],[2.50669,50.28224],[2.50593,50.28289],[2.50676,50.28334]]]}},{"type":"Feature","properties":{"k":"JAC","s":0.476},"geometry":{"type":"Polygon","coordinates":[[[2.5057,50.2821],[2.50523,50.28251],[2.50594,50.28288],[2.50669,50.28224],[2.5057,50.2821]]]}},{"type":"Feature","properties":{"k":"PPH","s":0.792},"geometry":{"type":"Polygon","coordinates":[[[2.50568,50.28277],[2.50457,50.28221],[2.50436,50.28257],[2.50642,50.28361],[2.50676,50.28334],[2.50568,50.28277]]]}},{"type":"Feature","properties":{"k":"PPH","s":4.081},"geometry":{"type":"Polygon","coordinates":[[[2.50201,50.2837],[2.50131,50.28304],[2.49987,50.28364],[2.49981,50.28528],[2.50001,50.28566],[2.50334,50.28422],[2.50262,50.28346],[2.50201,50.2837]]]}},{"type":"Feature","properties":{"k":"BTH","s":2.013},"geometry":{"type":"Polygon","coordinates":[[[2.50193,50.28652],[2.50451,50.28532],[2.50382,50.2847],[2.50125,50.28589],[2.50193,50.28652]]]}},{"type":"Feature","properties":{"k":"MIS","s":1.897},"geometry":{"type":"Polygon","coordinates":[[[2.50001,50.28566],[2.5006,50.28614],[2.50382,50.2847],[2.50333,50.28421],[2.50001,50.28566]]]}},{"type":"Feature","properties":{"k":"MIS","s":1.386},"geometry":{"type":"Polygon","coordinates":[[[2.49711,50.28511],[2.49779,50.28553],[2.49894,50.28494],[2.49962,50.28549],[2.49969,50.28459],[2.49871,50.28446],[2.49874,50.28411],[2.49711,50.28511]]]}},{"type":"Feature","properties":{"k":"PPH","s":0.218},"geometry":{"type":"Polygon","coordinates":[[[2.50001,50.28239],[2.49956,50.28215],[2.49922,50.28246],[2.49966,50.28281],[2.50001,50.28239]]]}},{"type":"Feature","properties":{"k":"PPH","s":0.641},"geometry":{"type":"Polygon","coordinates":[[[2.49773,50.28299],[2.49831,50.2834],[2.49905,50.28307],[2.49883,50.28286],[2.49925,50.28258],[2.49882,50.2823],[2.49773,50.28299]]]}},{"type":"Feature","properties":{"k":"PPH","s":5.333},"geometry":{"type":"Polygon","coordinates":[[[2.49652,50.28199],[2.49353,50.28347],[2.49591,50.28436],[2.49711,50.28511],[2.49874,50.28411],[2.49871,50.28378],[2.49751,50.28287],[2.49539,50.28394],[2.49508,50.28361],[2.4971,50.28263],[2.49652,50.28199]]]}},{"type":"Feature","properties":{"k":"MIS","s":0.506},"geometry":{"type":"Polygon","coordinates":[[[2.49814,50.28667],[2.4975,50.28632],[2.4973,50.28679],[2.49874,50.28732],[2.49895,50.2871],[2.49814,50.28667]]]}},{"type":"Feature","properties":{"k":"BTH","s":3.862},"geometry":{"type":"Polygon","coordinates":[[[2.50099,50.28664],[2.49894,50.28494],[2.49779,50.28553],[2.49789,50.2858],[2.4975,50.28632],[2.49997,50.28764],[2.50099,50.28664]]]}},{"type":"Feature","properties":{"k":"MIS","s":0.185},"geometry":{"type":"Polygon","coordinates":[[[2.49874,50.28732],[2.49986,50.28773],[2.49997,50.28764],[2.49895,50.2871],[2.49874,50.28732]]]}},{"type":"Feature","properties":{"k":"CZH","s":4.77},"geometry":{"type":"Polygon","coordinates":[[[2.49488,50.28083],[2.49205,50.28223],[2.49354,50.28345],[2.49652,50.28199],[2.49589,50.28135],[2.49488,50.28083]]]}},{"type":"Feature","properties":{"k":"BTH","s":8.949},"geometry":{"type":"Polygon","coordinates":[[[2.49241,50.26537],[2.49342,50.26591],[2.49779,50.26283],[2.49544,50.26183],[2.4917,50.26455],[2.49241,50.26537]]]}},{"type":"Feature","properties":{"k":"PPH","s":0.461},"geometry":{"type":"Polygon","coordinates":[[[2.49342,50.26591],[2.49367,50.26609],[2.49401,50.26587],[2.49425,50.2658],[2.49426,50.26597],[2.49442,50.26585],[2.49487,50.26488],[2.49342,50.26591]]]}},{"type":"Feature","properties":{"k":"PHF","s":5.801},"geometry":{"type":"Polygon","coordinates":[[[2.49164,50.26467],[2.48937,50.26324],[2.48725,50.26451],[2.48859,50.26653],[2.49164,50.26467]]]}},{"type":"Feature","properties":{"k":"CZH","s":0.661},"geometry":{"type":"Polygon","coordinates":[[[2.48724,50.26451],[2.48693,50.26469],[2.48829,50.26668],[2.48858,50.26653],[2.48724,50.26451]]]}},{"type":"Feature","properties":{"k":"BTH","s":3.444},"geometry":{"type":"MultiPolygon","coordinates":[[[[2.48439,50.26631],[2.48661,50.26486],[2.48496,50.2637],[2.4833,50.26472],[2.48439,50.26631]]],[[[2.48919,50.26325],[2.48821,50.26387],[2.48914,50.26333],[2.48919,50.26325]]]]}},{"type":"Feature","properties":{"k":"BTH","s":0.317},"geometry":{"type":"Polygon","coordinates":[[[2.48496,50.2637],[2.48483,50.26361],[2.48315,50.2645],[2.48326,50.26466],[2.48496,50.2637]]]}},{"type":"Feature","properties":{"k":"BTH","s":0.21},"geometry":{"type":"Polygon","coordinates":[[[2.4858,50.28677],[2.48503,50.28651],[2.48493,50.2866],[2.48559,50.28673],[2.48628,50.28754],[2.48634,50.2873],[2.4858,50.28677]]]}}]}