{"type":"FeatureCollection","features":[{"type":"Feature","properties":{"k":"PTC","s":0.121},"geometry":{"type":"Polygon","coordinates":[[[2.83687,50.15169],[2.83804,50.15106],[2.8379,50.15098],[2.83687,50.15169]]]}},{"type":"Feature","properties":{"k":"PTC","s":17.157},"geometry":{"type":"Polygon","coordinates":[[[2.81529,50.14106],[2.82459,50.14667],[2.82523,50.14443],[2.81751,50.13992],[2.81529,50.14106]]]}},{"type":"Feature","properties":{"k":"PTC","s":0.004},"geometry":{"type":"MultiPolygon","coordinates":[[[[2.8231,50.14836],[2.82304,50.14836],[2.82328,50.14843],[2.8231,50.14836]]],[[[2.81972,50.14727],[2.82021,50.14743],[2.81992,50.14732],[2.81972,50.14727]]]]}},{"type":"Feature","properties":{"k":"BTH","s":0.0},"geometry":{"type":"Polygon","coordinates":[[[2.81549,50.1444],[2.81553,50.14447],[2.81552,50.14443],[2.81549,50.1444]]]}},{"type":"Feature","properties":{"k":"PTC","s":16.149},"geometry":{"type":"Polygon","coordinates":[[[2.82337,50.148],[2.82349,50.14787],[2.82364,50.14794],[2.82457,50.14666],[2.81529,50.14106],[2.81387,50.1418],[2.81491,50.14276],[2.81467,50.14287],[2.82337,50.148]]]}},{"type":"Feature","properties":{"k":"PTC","s":8.613},"geometry":{"type":"Polygon","coordinates":[[[2.81587,50.14493],[2.81701,50.14593],[2.81949,50.14714],[2.8231,50.14836],[2.82338,50.148],[2.81467,50.14287],[2.81409,50.14347],[2.8155,50.14436],[2.81587,50.14493]]]}},{"type":"Feature","properties":{"k":"BTN","s":14.638},"geometry":{"type":"Polygon","coordinates":[[[2.82458,50.14683],[2.83033,50.14829],[2.83145,50.14544],[2.82542,50.14388],[2.82458,50.14683]]]}},{"type":"Feature","properties":{"k":"BTH","s":19.167},"geometry":{"type":"Polygon","coordinates":[[[2.81939,50.1389],[2.82041,50.13827],[2.82177,50.13703],[2.81325,50.13234],[2.81301,50.13267],[2.81423,50.13332],[2.81354,50.13386],[2.81253,50.13327],[2.81181,50.13433],[2.81495,50.13625],[2.81474,50.13639],[2.81939,50.1389]]]}},{"type":"Feature","properties":{"k":"CZH","s":4.379},"geometry":{"type":"Polygon","coordinates":[[[2.81896,50.13182],[2.8169,50.13142],[2.81538,50.13356],[2.81699,50.13443],[2.81896,50.13182]]]}},{"type":"Feature","properties":{"k":"BTH","s":5.252},"geometry":{"type":"Polygon","coordinates":[[[2.81896,50.13182],[2.81699,50.13443],[2.81874,50.13532],[2.82082,50.13256],[2.81896,50.13182]]]}},{"type":"Feature","properties":{"k":"MIS","s":0.002},"geometry":{"type":"Polygon","coordinates":[[[2.83478,50.13653],[2.83471,50.13652],[2.8347,50.13654],[2.83478,50.13653]]]}},{"type":"Feature","properties":{"k":"PPH","s":0.01},"geometry":{"type":"Polygon","coordinates":[[[2.83473,50.13658],[2.83469,50.13656],[2.83451,50.13687],[2.83473,50.13658]]]}},{"type":"Feature","properties":{"k":"PPH","s":0.268},"geometry":{"type":"Polygon","coordinates":[[[2.82399,50.13434],[2.82337,50.13396],[2.82312,50.13431],[2.82343,50.1342],[2.82375,50.13429],[2.82382,50.13472],[2.82425,50.13485],[2.82444,50.13457],[2.82399,50.13434]]]}},{"type":"Feature","properties":{"k":"PTC","s":1.72},"geometry":{"type":"Polygon","coordinates":[[[2.83408,50.15236],[2.83438,50.15266],[2.83643,50.15139],[2.83678,50.15164],[2.8379,50.15098],[2.83728,50.15058],[2.83947,50.14936],[2.83937,50.14926],[2.83408,50.15236]]]}},{"type":"Feature","properties":{"k":"BTN","s":7.224},"geometry":{"type":"Polygon","coordinates":[[[2.82903,50.14204],[2.82704,50.14026],[2.82197,50.13722],[2.82129,50.13786],[2.82112,50.1378],[2.82099,50.13792],[2.8281,50.14224],[2.82893,50.14217],[2.82903,50.14204]]]}},{"type":"Feature","properties":{"k":"PPH","s":1.542},"geometry":{"type":"Polygon","coordinates":[[[2.82747,50.13746],[2.82687,50.13773],[2.82719,50.13802],[2.82743,50.13792],[2.8279,50.13824],[2.82817,50.13807],[2.82904,50.13856],[2.83009,50.13954],[2.82982,50.13997],[2.83012,50.13983],[2.83002,50.1397],[2.8309,50.13943],[2.82977,50.13813],[2.8291,50.13848],[2.82747,50.13746]]]}},{"type":"Feature","properties":{"k":"BTN","s":3.325},"geometry":{"type":"Polygon","coordinates":[[[2.82668,50.13697],[2.82908,50.13847],[2.83043,50.13779],[2.8274,50.13588],[2.82668,50.13697]]]}},{"type":"Feature","properties":{"k":"BTN","s":1.176},"geometry":{"type":"Polygon","coordinates":[[[2.8274,50.13587],[2.83043,50.13779],[2.83072,50.13765],[2.83001,50.13689],[2.82752,50.13561],[2.8274,50.13587]]]}},{"type":"Feature","properties":{"k":"BTN","s":4.824},"geometry":{"type":"Polygon","coordinates":[[[2.8169,50.13142],[2.81479,50.1304],[2.81327,50.13235],[2.81538,50.13356],[2.8169,50.13142]]]}},{"type":"Feature","properties":{"k":"BTN","s":2.081},"geometry":{"type":"Polygon","coordinates":[[[2.81465,50.13033],[2.81332,50.12984],[2.81259,50.13043],[2.81277,50.13051],[2.81198,50.13124],[2.81372,50.13162],[2.81465,50.13033]]]}},{"type":"Feature","properties":{"k":"BTH","s":1.248},"geometry":{"type":"Polygon","coordinates":[[[2.81371,50.13162],[2.81198,50.13124],[2.81339,50.13199],[2.81107,50.13361],[2.81199,50.13392],[2.81371,50.13162]]]}},{"type":"Feature","properties":{"k":"PTC","s":0.252},"geometry":{"type":"Polygon","coordinates":[[[2.81199,50.13392],[2.81107,50.13361],[2.81087,50.13375],[2.81174,50.13426],[2.81199,50.13392]]]}},{"type":"Feature","properties":{"k":"OIG","s":10.689},"geometry":{"type":"Polygon","coordinates":[[[2.83251,50.15078],[2.83408,50.15236],[2.83937,50.14925],[2.83819,50.14784],[2.83781,50.14763],[2.83251,50.15078]]]}},{"type":"Feature","properties":{"k":"PTC","s":0.004},"geometry":{"type":"Polygon","coordinates":[]}},{"type":"Feature","properties":{"k":"BTN","s":8.42},"geometry":{"type":"Polygon","coordinates":[[[2.83718,50.14639],[2.84451,50.14437],[2.84392,50.14313],[2.83636,50.14521],[2.83718,50.14639]]]}},{"type":"Feature","properties":{"k":"PTC","s":8.242},"geometry":{"type":"Polygon","coordinates":[[[2.83781,50.14763],[2.8376,50.1474],[2.8378,50.14731],[2.83698,50.14631],[2.83095,50.14993],[2.83246,50.15076],[2.83781,50.14763]]]}},{"type":"Feature","properties":{"k":"PPH","s":1.181},"geometry":{"type":"Polygon","coordinates":[[[2.83516,50.14353],[2.83316,50.14278],[2.83301,50.14297],[2.83403,50.14338],[2.83389,50.14384],[2.83597,50.14461],[2.83516,50.14353]]]}},{"type":"Feature","properties":{"k":"PTC","s":0.383},"geometry":{"type":"Polygon","coordinates":[[[2.83843,50.148],[2.83846,50.14805],[2.8454,50.14613],[2.83843,50.148]]]}},{"type":"Feature","properties":{"k":"LBF","s":4.48},"geometry":{"type":"Polygon","coordinates":[[[2.833,50.14633],[2.83155,50.14579],[2.83012,50.14952],[2.83095,50.14993],[2.83148,50.14961],[2.833,50.14633]]]}},{"type":"Feature","properties":{"k":"LIF","s":2.117},"geometry":{"type":"Polygon","coordinates":[[[2.82335,50.14851],[2.82606,50.14925],[2.82597,50.14946],[2.82956,50.15037],[2.82975,50.1499],[2.8235,50.14829],[2.82335,50.14851]]]}},{"type":"Feature","properties":{"k":"PTC","s":3.666},"geometry":{"type":"Polygon","coordinates":[[[2.8354,50.14724],[2.833,50.14633],[2.83148,50.14961],[2.8354,50.14724]]]}},{"type":"Feature","properties":{"k":"BTH","s":9.464},"geometry":{"type":"Polygon","coordinates":[[[2.83686,50.14616],[2.836,50.14464],[2.83256,50.14339],[2.83155,50.14579],[2.8354,50.14724],[2.83682,50.1464],[2.83686,50.14616]]]}},{"type":"Feature","properties":{"k":"MIS","s":4.184},"geometry":{"type":"Polygon","coordinates":[[[2.83072,50.13765],[2.82979,50.13809],[2.83099,50.13947],[2.83121,50.13946],[2.83138,50.13967],[2.83217,50.13936],[2.8329,50.14037],[2.83334,50.14013],[2.83354,50.13922],[2.83307,50.13799],[2.83111,50.13806],[2.83072,50.13765]]]}},{"type":"Feature","properties":{"k":"PPH","s":0.0},"geometry":{"type":"Polygon","coordinates":[]}},{"type":"Feature","properties":{"k":"PPH","s":0.536},"geometry":{"type":"Polygon","coordinates":[[[2.83133,50.14092],[2.8321,50.14063],[2.83117,50.14003],[2.83053,50.14031],[2.83133,50.14092]]]}},{"type":"Feature","properties":{"k":"PPH","s":0.187},"geometry":{"type":"Polygon","coordinates":[[[2.83419,50.14069],[2.83434,50.14076],[2.83396,50.14001],[2.8337,50.1404],[2.83419,50.14069]]]}},{"type":"Feature","properties":{"k":"JAC","s":0.011},"geometry":{"type":"Polygon","coordinates":[[[2.83325,50.14363],[2.83257,50.14338],[2.83256,50.14339],[2.83325,50.14363]]]}},{"type":"Feature","properties":{"k":"BTH","s":1.361},"geometry":{"type":"Polygon","coordinates":[[[2.83177,50.14302],[2.83229,50.1426],[2.83048,50.14139],[2.82976,50.14185],[2.82979,50.14204],[2.83177,50.14302]]]}},{"type":"Feature","properties":{"k":"BTH","s":6.902},"geometry":{"type":"Polygon","coordinates":[[[2.83056,50.14255],[2.83023,50.14238],[2.82984,50.14264],[2.82896,50.14236],[2.82855,50.14279],[2.82811,50.14229],[2.82583,50.14248],[2.82545,50.14389],[2.82919,50.14485],[2.83056,50.14255]]]}},{"type":"Feature","properties":{"k":"BTH","s":8.125},"geometry":{"type":"Polygon","coordinates":[[[2.8281,50.14224],[2.82099,50.13792],[2.81984,50.13876],[2.82249,50.14042],[2.82304,50.14011],[2.82328,50.14025],[2.8234,50.14033],[2.82279,50.14062],[2.82572,50.1424],[2.8281,50.14224]]]}},{"type":"Feature","properties":{"k":"BTH","s":6.513},"geometry":{"type":"Polygon","coordinates":[[[2.84536,50.14607],[2.84474,50.14509],[2.83768,50.14704],[2.83843,50.148],[2.84536,50.14607]]]}},{"type":"Feature","properties":{"k":"BTN","s":12.998},"geometry":{"type":"Polygon","coordinates":[[[2.82572,50.1424],[2.8198,50.13878],[2.81751,50.13992],[2.82523,50.14443],[2.82572,50.1424]]]}},{"type":"Feature","properties":{"k":"BTN","s":0.154},"geometry":{"type":"MultiPolygon","coordinates":[[[[2.81748,50.13984],[2.81767,50.13973],[2.81601,50.13883],[2.81748,50.13984]]],[[[2.81628,50.14048],[2.81681,50.14021],[2.81739,50.1399],[2.81748,50.13984],[2.81628,50.14048]]]]}},{"type":"Feature","properties":{"k":"LBF","s":5.657},"geometry":{"type":"Polygon","coordinates":[[[2.81934,50.13893],[2.81467,50.13644],[2.81359,50.13718],[2.81601,50.13883],[2.81767,50.13973],[2.81934,50.13893]]]}},{"type":"Feature","properties":{"k":"BTH","s":12.507},"geometry":{"type":"Polygon","coordinates":[[[2.83636,50.14521],[2.84392,50.14313],[2.84347,50.14239],[2.84248,50.14144],[2.83518,50.14341],[2.83636,50.14521]]]}},{"type":"Feature","properties":{"k":"BTN","s":13.431},"geometry":{"type":"Polygon","coordinates":[[[2.83517,50.14341],[2.84248,50.14144],[2.84211,50.14042],[2.84122,50.13977],[2.83991,50.13992],[2.83943,50.13984],[2.83459,50.14109],[2.8347,50.14215],[2.83517,50.14341]]]}},{"type":"Feature","properties":{"k":"BTH","s":8.908},"geometry":{"type":"Polygon","coordinates":[[[2.83759,50.13881],[2.83532,50.13687],[2.83476,50.1377],[2.83394,50.13981],[2.83459,50.14109],[2.83943,50.13984],[2.83759,50.13881]]]}},{"type":"Feature","properties":{"k":"CZH","s":8.2},"geometry":{"type":"Polygon","coordinates":[[[2.8235,50.14829],[2.82975,50.1499],[2.82982,50.1497],[2.82888,50.14947],[2.82982,50.14969],[2.83031,50.14829],[2.82461,50.14685],[2.82363,50.1481],[2.82614,50.14876],[2.82361,50.1481],[2.8235,50.14829]]]}},{"type":"Feature","properties":{"k":"PTC","s":2.181},"geometry":{"type":"Polygon","coordinates":[[[2.8257,50.15012],[2.82923,50.15111],[2.82956,50.15038],[2.82597,50.14947],[2.8257,50.15012]]]}},{"type":"Feature","properties":{"k":"CZH","s":4.475},"geometry":{"type":"Polygon","coordinates":[[[2.84474,50.14509],[2.8445,50.14437],[2.83718,50.1464],[2.83768,50.14704],[2.84474,50.14509]]]}},{"type":"Feature","properties":{"k":"BTH","s":7.406},"geometry":{"type":"Polygon","coordinates":[[[2.82337,50.13396],[2.82082,50.13256],[2.81874,50.13532],[2.82125,50.13668],[2.82137,50.13597],[2.82209,50.1349],[2.82253,50.13506],[2.82337,50.13396]]]}},{"type":"Feature","properties":{"k":"BTH","s":7.834},"geometry":{"type":"Polygon","coordinates":[[[2.82286,50.13769],[2.82493,50.13885],[2.82696,50.13643],[2.82731,50.13573],[2.82711,50.13544],[2.82505,50.13484],[2.82412,50.13598],[2.82273,50.13657],[2.82373,50.13714],[2.82286,50.13769]]]}}]}