{"type":"FeatureCollection","features":[{"type":"Feature","properties":{"k":"MIS","s":12.786},"geometry":{"type":"Polygon","coordinates":[[[1.76881,50.73619],[1.77021,50.73593],[1.77128,50.73442],[1.77216,50.73392],[1.77431,50.73313],[1.77347,50.73188],[1.77464,50.73011],[1.77368,50.7298],[1.77321,50.73043],[1.77085,50.73207],[1.76795,50.73524],[1.76764,50.73598],[1.76881,50.73619]]]}},{"type":"Feature","properties":{"k":"PPH","s":0.001},"geometry":{"type":"Polygon","coordinates":[[[1.77696,50.73703],[1.77698,50.73708],[1.77694,50.73689],[1.77696,50.73703]]]}},{"type":"Feature","properties":{"k":"LUZ","s":0.743},"geometry":{"type":"Polygon","coordinates":[[[1.77688,50.73672],[1.77491,50.73737],[1.77717,50.73759],[1.77688,50.73672]]]}},{"type":"Feature","properties":{"k":"PTR","s":1.547},"geometry":{"type":"Polygon","coordinates":[[[1.77402,50.7363],[1.77654,50.73547],[1.77584,50.73482],[1.77438,50.7355],[1.77356,50.73566],[1.77402,50.7363]]]}},{"type":"Feature","properties":{"k":"LUZ","s":3.301},"geometry":{"type":"Polygon","coordinates":[[[1.77299,50.73674],[1.77254,50.73707],[1.77491,50.73737],[1.77688,50.73672],[1.77652,50.73556],[1.77299,50.73674]]]}},{"type":"Feature","properties":{"k":"BTH","s":3.226},"geometry":{"type":"Polygon","coordinates":[[[1.7845,50.75433],[1.78317,50.75593],[1.78406,50.75627],[1.78522,50.75584],[1.7861,50.75478],[1.78652,50.75461],[1.78539,50.75373],[1.7845,50.75433]]]}},{"type":"Feature","properties":{"k":"BTH","s":2.678},"geometry":{"type":"Polygon","coordinates":[[[1.78534,50.75592],[1.78418,50.75632],[1.7837,50.75673],[1.78481,50.75753],[1.78716,50.75581],[1.78596,50.75511],[1.78534,50.75592]]]}},{"type":"Feature","properties":{"k":"MIS","s":2.181},"geometry":{"type":"Polygon","coordinates":[[[1.78252,50.75496],[1.78202,50.75515],[1.7816,50.75556],[1.7814,50.75628],[1.78285,50.75645],[1.78349,50.75676],[1.78406,50.75627],[1.78317,50.75593],[1.7837,50.7552],[1.78252,50.75496]]]}},{"type":"Feature","properties":{"k":"MIS","s":4.31},"geometry":{"type":"Polygon","coordinates":[[[1.77552,50.75624],[1.77777,50.75653],[1.77765,50.75691],[1.7786,50.75706],[1.77949,50.75586],[1.77749,50.75459],[1.7752,50.75586],[1.77552,50.75624]]]}},{"type":"Feature","properties":{"k":"PTR","s":2.206},"geometry":{"type":"Polygon","coordinates":[[[1.77971,50.75595],[1.78096,50.75644],[1.78127,50.75632],[1.78124,50.75607],[1.77751,50.75401],[1.77721,50.75415],[1.77678,50.75386],[1.776,50.75452],[1.77701,50.75433],[1.77971,50.75595]]]}},{"type":"Feature","properties":{"k":"PPH","s":12.222},"geometry":{"type":"Polygon","coordinates":[[[1.77789,50.75215],[1.77723,50.75257],[1.77796,50.75361],[1.77876,50.7542],[1.78146,50.75556],[1.78129,50.75632],[1.78014,50.75701],[1.77887,50.75676],[1.77864,50.75705],[1.78023,50.75751],[1.77925,50.75824],[1.78029,50.75842],[1.78121,50.7579],[1.78047,50.75754],[1.78143,50.75633],[1.78167,50.75546],[1.78252,50.75496],[1.78316,50.75501],[1.78321,50.75464],[1.78359,50.75443],[1.7828,50.75401],[1.78218,50.7544],[1.7817,50.75406],[1.78093,50.75449],[1.78015,50.75383],[1.78096,50.75347],[1.7812,50.75366],[1.78218,50.75306],[1.77852,50.75042],[1.77671,50.75155],[1.77789,50.75215]],[[1.77901,50.75321],[1.77863,50.75288],[1.77959,50.75207],[1.77995,50.75235],[1.77901,50.75321]]]}},{"type":"Feature","properties":{"k":"PPH","s":4.268},"geometry":{"type":"Polygon","coordinates":[[[1.78528,50.75346],[1.78589,50.75258],[1.78374,50.75169],[1.78182,50.75331],[1.7812,50.75368],[1.78095,50.75349],[1.78019,50.75383],[1.78094,50.75447],[1.78276,50.75339],[1.78366,50.75372],[1.78416,50.75306],[1.78528,50.75346]]]}},{"type":"Feature","properties":{"k":"MIS","s":2.904},"geometry":{"type":"Polygon","coordinates":[[[1.78221,50.75307],[1.78382,50.75155],[1.78298,50.75139],[1.77977,50.75132],[1.78221,50.75307]]]}},{"type":"Feature","properties":{"k":"MIS","s":3.208},"geometry":{"type":"Polygon","coordinates":[[[1.7803,50.74941],[1.77855,50.7504],[1.77976,50.75132],[1.78298,50.75139],[1.78375,50.75154],[1.7857,50.75056],[1.78526,50.74999],[1.7833,50.75116],[1.78024,50.75101],[1.77928,50.75051],[1.78181,50.7486],[1.78144,50.74844],[1.7803,50.74941]]]}},{"type":"Feature","properties":{"k":"LIF","s":7.003},"geometry":{"type":"Polygon","coordinates":[[[1.77928,50.75051],[1.78024,50.75101],[1.7833,50.75116],[1.78526,50.74999],[1.7852,50.7499],[1.78468,50.74917],[1.78416,50.7496],[1.78181,50.7486],[1.77928,50.75051]]]}},{"type":"Feature","properties":{"k":"PTR","s":0.66},"geometry":{"type":"Polygon","coordinates":[[[1.77247,50.73687],[1.77386,50.73629],[1.77355,50.73587],[1.77213,50.73637],[1.77247,50.73687]]]}},{"type":"Feature","properties":{"k":"PTR","s":2.032},"geometry":{"type":"Polygon","coordinates":[[[1.78376,50.75153],[1.78373,50.75169],[1.78589,50.75258],[1.78608,50.75121],[1.7857,50.75056],[1.78376,50.75153]]]}},{"type":"Feature","properties":{"k":"BTA","s":0.04},"geometry":{"type":"Polygon","coordinates":[[[1.78876,50.7661],[1.78879,50.76619],[1.78924,50.76613],[1.78926,50.76604],[1.78876,50.7661]]]}},{"type":"Feature","properties":{"k":"PTR","s":0.0},"geometry":{"type":"Polygon","coordinates":[]}},{"type":"Feature","properties":{"k":"JAC","s":0.008},"geometry":{"type":"MultiPolygon","coordinates":[[[[1.78867,50.76615],[1.78853,50.76607],[1.78849,50.76609],[1.78867,50.76615]]],[[[1.789,50.76619],[1.78914,50.76616],[1.78905,50.76613],[1.789,50.76619]]]]}},{"type":"Feature","properties":{"k":"MIS","s":2.361},"geometry":{"type":"Polygon","coordinates":[[[1.78861,50.76552],[1.78514,50.76514],[1.78535,50.76626],[1.78873,50.76604],[1.78861,50.76552]]]}},{"type":"Feature","properties":{"k":"BTA","s":0.114},"geometry":{"type":"Polygon","coordinates":[[[1.78842,50.76603],[1.78751,50.7662],[1.78535,50.76632],[1.78779,50.76622],[1.7885,50.76607],[1.78878,50.76618],[1.7886,50.76605],[1.78842,50.76603]]]}},{"type":"Feature","properties":{"k":"BTH","s":1.912},"geometry":{"type":"Polygon","coordinates":[[[1.78507,50.7662],[1.78482,50.76419],[1.78458,50.7641],[1.7831,50.7657],[1.78382,50.76607],[1.78507,50.7662]]]}},{"type":"Feature","properties":{"k":"ORH","s":1.481},"geometry":{"type":"Polygon","coordinates":[[[1.78291,50.76475],[1.78238,50.76527],[1.7831,50.7657],[1.78458,50.7641],[1.7837,50.76375],[1.78274,50.76459],[1.78291,50.76475]]]}},{"type":"Feature","properties":{"k":"BTA","s":0.047},"geometry":{"type":"Polygon","coordinates":[[[1.78453,50.7662],[1.78375,50.76609],[1.78453,50.76624],[1.785,50.7662],[1.78453,50.7662]]]}},{"type":"Feature","properties":{"k":"JAC","s":0.002},"geometry":{"type":"MultiPolygon","coordinates":[[[[1.78484,50.76631],[1.78512,50.76632],[1.78512,50.7663],[1.78484,50.76631]]],[[[1.78441,50.7663],[1.78428,50.76629],[1.78434,50.7663],[1.78441,50.7663]]]]}},{"type":"Feature","properties":{"k":"BTA","s":0.011},"geometry":{"type":"MultiPolygon","coordinates":[]}},{"type":"Feature","properties":{"k":"BTA","s":0.007},"geometry":{"type":"Polygon","coordinates":[[[1.78205,50.76672],[1.78205,50.76673],[1.7826,50.76668],[1.78205,50.76672]]]}},{"type":"Feature","properties":{"k":"BTA","s":0.121},"geometry":{"type":"Polygon","coordinates":[[[1.78344,50.76646],[1.78211,50.7667],[1.78357,50.76651],[1.78367,50.76604],[1.78344,50.76646]]]}},{"type":"Feature","properties":{"k":"BTH","s":1.071},"geometry":{"type":"Polygon","coordinates":[[[1.78211,50.76663],[1.78344,50.76646],[1.78367,50.76604],[1.78238,50.76527],[1.78217,50.76548],[1.78211,50.76663]]]}},{"type":"Feature","properties":{"k":"PPH","s":8.322},"geometry":{"type":"Polygon","coordinates":[[[1.77783,50.7645],[1.77659,50.7649],[1.77539,50.76607],[1.77625,50.76627],[1.77743,50.76681],[1.78001,50.76661],[1.78042,50.76675],[1.78146,50.76652],[1.78211,50.7667],[1.78217,50.76545],[1.77783,50.7645]]]}},{"type":"Feature","properties":{"k":"MIS","s":0.927},"geometry":{"type":"Polygon","coordinates":[[[1.77862,50.76426],[1.77783,50.7645],[1.78087,50.7652],[1.78126,50.76488],[1.77862,50.76426]]]}},{"type":"Feature","properties":{"k":"PPH","s":0.005},"geometry":{"type":"MultiPolygon","coordinates":[]}},{"type":"Feature","properties":{"k":"PPH","s":0.015},"geometry":{"type":"Polygon","coordinates":[[[1.77377,50.76487],[1.77374,50.76488],[1.77413,50.76516],[1.77377,50.76487]]]}},{"type":"Feature","properties":{"k":"PPH","s":0.724},"geometry":{"type":"Polygon","coordinates":[[[1.7762,50.7642],[1.77783,50.7637],[1.77742,50.76315],[1.77667,50.76357],[1.77581,50.76374],[1.7762,50.7642]]]}},{"type":"Feature","properties":{"k":"BTA","s":0.323},"geometry":{"type":"MultiPolygon","coordinates":[[[[1.77384,50.76143],[1.77353,50.76135],[1.77262,50.76179],[1.77259,50.76213],[1.77361,50.76447],[1.77409,50.76507],[1.77449,50.76535],[1.77368,50.76446],[1.77266,50.76213],[1.77266,50.76181],[1.77354,50.7614],[1.77453,50.76185],[1.77384,50.76143]]],[[[1.77541,50.76602],[1.77466,50.76549],[1.77507,50.7659],[1.77541,50.76602]]]]}},{"type":"Feature","properties":{"k":"BTH","s":7.331},"geometry":{"type":"Polygon","coordinates":[[[1.7766,50.76486],[1.77577,50.76376],[1.77565,50.76306],[1.77456,50.76193],[1.77354,50.7614],[1.77266,50.76181],[1.77266,50.76213],[1.77368,50.76446],[1.77415,50.76505],[1.77541,50.76602],[1.7766,50.76486]]]}},{"type":"Feature","properties":{"k":"PPH","s":0.741},"geometry":{"type":"Polygon","coordinates":[[[1.77554,50.76281],[1.77581,50.76373],[1.77662,50.76357],[1.77716,50.76327],[1.77697,50.76316],[1.7765,50.76343],[1.77586,50.76294],[1.7769,50.76246],[1.77742,50.76274],[1.7776,50.7627],[1.77688,50.76228],[1.77584,50.7629],[1.77459,50.76189],[1.77554,50.76281]]]}},{"type":"Feature","properties":{"k":"PPH","s":2.91},"geometry":{"type":"Polygon","coordinates":[[[1.77371,50.76033],[1.77369,50.76125],[1.77474,50.76183],[1.77656,50.76175],[1.77723,50.76133],[1.77638,50.76083],[1.77537,50.76133],[1.77465,50.76079],[1.77552,50.76014],[1.7747,50.75959],[1.77371,50.76033]]]}},{"type":"Feature","properties":{"k":"PPH","s":0.003},"geometry":{"type":"MultiPolygon","coordinates":[[[[1.77379,50.76473],[1.77374,50.76483],[1.77383,50.76477],[1.77379,50.76473]]],[[[1.77355,50.76418],[1.77356,50.76427],[1.77357,50.76421],[1.77355,50.76418]]],[[[1.77252,50.76215],[1.77254,50.7622],[1.77252,50.76213],[1.77252,50.76215]]]]}},{"type":"Feature","properties":{"k":"PPH","s":0.798},"geometry":{"type":"Polygon","coordinates":[[[1.77057,50.75799],[1.77105,50.7578],[1.77087,50.75763],[1.77113,50.75747],[1.77037,50.75669],[1.76968,50.75717],[1.77057,50.75799]]]}},{"type":"Feature","properties":{"k":"PPH","s":0.262},"geometry":{"type":"Polygon","coordinates":[[[1.7818,50.74439],[1.78165,50.74405],[1.78045,50.74408],[1.78128,50.74444],[1.7818,50.74439]]]}},{"type":"Feature","properties":{"k":"PTR","s":0.011},"geometry":{"type":"Polygon","coordinates":[[[1.78183,50.74456],[1.7819,50.74464],[1.78185,50.74441],[1.78183,50.74456]]]}},{"type":"Feature","properties":{"k":"BTA","s":0.007},"geometry":{"type":"MultiPolygon","coordinates":[[[[1.77029,50.75774],[1.7703,50.75778],[1.77035,50.75781],[1.77029,50.75774]]],[[[1.77008,50.75748],[1.76995,50.75751],[1.76996,50.75752],[1.77008,50.75748]]],[[[1.76938,50.75669],[1.76928,50.75679],[1.76937,50.75675],[1.76938,50.75669]]],[[[1.76851,50.75647],[1.76851,50.75643],[1.76842,50.75649],[1.76851,50.75647]]]]}},{"type":"Feature","properties":{"k":"PPH","s":0.006},"geometry":{"type":"MultiPolygon","coordinates":[[[[1.77057,50.75806],[1.77063,50.7581],[1.77039,50.75784],[1.77057,50.75806]]]]}},{"type":"Feature","properties":{"k":"PPH","s":0.423},"geometry":{"type":"Polygon","coordinates":[[[1.77116,50.75851],[1.77122,50.75898],[1.77173,50.75878],[1.77109,50.75784],[1.77064,50.7581],[1.77116,50.75851]]]}},{"type":"Feature","properties":{"k":"PPH","s":11.642},"geometry":{"type":"Polygon","coordinates":[[[1.77037,50.75664],[1.77111,50.75735],[1.77093,50.75764],[1.77177,50.75879],[1.77116,50.75905],[1.7714,50.76011],[1.77297,50.76142],[1.77352,50.76123],[1.77346,50.7603],[1.77186,50.75884],[1.77217,50.75874],[1.77241,50.75888],[1.77297,50.75949],[1.77382,50.75918],[1.77463,50.75958],[1.77593,50.75831],[1.7752,50.75724],[1.77464,50.75737],[1.77301,50.75676],[1.77362,50.7559],[1.77234,50.75586],[1.77129,50.75615],[1.77037,50.75664]]]}},{"type":"Feature","properties":{"k":"CZH","s":3.452},"geometry":{"type":"Polygon","coordinates":[[[1.77783,50.76101],[1.77847,50.76062],[1.77722,50.75974],[1.77633,50.75886],[1.77491,50.7597],[1.77554,50.76014],[1.77468,50.7608],[1.77538,50.7613],[1.77677,50.76051],[1.77783,50.76101]]]}},{"type":"Feature","properties":{"k":"PPH","s":0.5},"geometry":{"type":"Polygon","coordinates":[[[1.77474,50.75958],[1.77491,50.7597],[1.77631,50.75884],[1.77596,50.75836],[1.77474,50.75958]]]}},{"type":"Feature","properties":{"k":"PPH","s":1.043},"geometry":{"type":"Polygon","coordinates":[[[1.7735,50.75643],[1.77305,50.75676],[1.77465,50.75736],[1.7752,50.75723],[1.7754,50.75663],[1.7735,50.75643]]]}},{"type":"Feature","properties":{"k":"BTA","s":0.364},"geometry":{"type":"Polygon","coordinates":[[[1.78121,50.74443],[1.77997,50.74553],[1.77921,50.74573],[1.77875,50.74609],[1.77836,50.7462],[1.77747,50.74662],[1.77719,50.7466],[1.77674,50.74675],[1.77653,50.74706],[1.77681,50.7473],[1.77643,50.74727],[1.77588,50.74761],[1.77592,50.74779],[1.77533,50.74832],[1.77489,50.74822],[1.77535,50.74838],[1.77599,50.7478],[1.77593,50.74765],[1.77647,50.74731],[1.77692,50.74732],[1.7766,50.74705],[1.7768,50.74678],[1.77748,50.74667],[1.77878,50.74613],[1.77924,50.74577],[1.78002,50.74556],[1.78121,50.74443]]]}},{"type":"Feature","properties":{"k":"BTA","s":0.218},"geometry":{"type":"Polygon","coordinates":[[[1.78014,50.7456],[1.77948,50.74572],[1.77917,50.74587],[1.77899,50.74613],[1.77711,50.74676],[1.77757,50.74674],[1.77904,50.74616],[1.77951,50.74577],[1.78017,50.74564],[1.78175,50.74445],[1.78014,50.7456]]]}},{"type":"Feature","properties":{"k":"PPH","s":1.25},"geometry":{"type":"Polygon","coordinates":[[[1.78145,50.75633],[1.78103,50.75672],[1.78242,50.75744],[1.78349,50.75678],[1.78272,50.75644],[1.78145,50.75633]]]}},{"type":"Feature","properties":{"k":"ORH","s":9.204},"geometry":{"type":"Polygon","coordinates":[[[1.78146,50.74458],[1.78017,50.74564],[1.77951,50.74577],[1.77902,50.74617],[1.77722,50.74679],[1.7794,50.74736],[1.78106,50.74871],[1.78223,50.74793],[1.78402,50.74817],[1.78304,50.74668],[1.78233,50.74602],[1.7818,50.74451],[1.78146,50.74458]]]}},{"type":"Feature","properties":{"k":"PTR","s":3.02},"geometry":{"type":"Polygon","coordinates":[[[1.7805,50.74926],[1.78095,50.7488],[1.77977,50.74775],[1.77768,50.74916],[1.77915,50.75007],[1.7805,50.74926]]]}},{"type":"Feature","properties":{"k":"PPH","s":6.432},"geometry":{"type":"Polygon","coordinates":[[[1.77768,50.74916],[1.77977,50.74775],[1.77892,50.74728],[1.77711,50.74679],[1.77682,50.74682],[1.77669,50.74707],[1.77693,50.74731],[1.7765,50.74734],[1.77598,50.74766],[1.77564,50.74813],[1.77709,50.74904],[1.77613,50.74973],[1.77714,50.75065],[1.77863,50.75032],[1.77915,50.75007],[1.77768,50.74916]]]}},{"type":"Feature","properties":{"k":"ORH","s":6.587},"geometry":{"type":"Polygon","coordinates":[[[1.77199,50.74715],[1.77183,50.74788],[1.77029,50.74773],[1.77001,50.74919],[1.77148,50.74965],[1.7723,50.74965],[1.77305,50.74943],[1.77357,50.74957],[1.77487,50.74901],[1.77531,50.74837],[1.77199,50.74715]]]}},{"type":"Feature","properties":{"k":"BTH","s":13.381},"geometry":{"type":"Polygon","coordinates":[[[1.77188,50.74714],[1.77243,50.74604],[1.77421,50.74633],[1.77493,50.74558],[1.77519,50.74414],[1.77448,50.7441],[1.77451,50.74368],[1.77291,50.7436],[1.77262,50.74304],[1.77174,50.74332],[1.77074,50.74334],[1.76968,50.74548],[1.76917,50.74569],[1.76775,50.74585],[1.76857,50.74677],[1.77188,50.74714]]]}},{"type":"Feature","properties":{"k":"PPH","s":2.511},"geometry":{"type":"Polygon","coordinates":[[[1.77352,50.74708],[1.77564,50.74523],[1.77575,50.74459],[1.77641,50.74404],[1.77464,50.74406],[1.77466,50.7436],[1.77297,50.74353],[1.77262,50.74304],[1.77291,50.7436],[1.77451,50.74368],[1.77448,50.7441],[1.77519,50.74414],[1.77493,50.74558],[1.77421,50.74633],[1.77243,50.74604],[1.77197,50.74714],[1.77352,50.74708]]]}},{"type":"Feature","properties":{"k":"PTR","s":11.719},"geometry":{"type":"MultiPolygon","coordinates":[[[[1.77503,50.74567],[1.77353,50.74709],[1.77255,50.74739],[1.77533,50.74832],[1.77592,50.74779],[1.77588,50.74761],[1.77643,50.74727],[1.77681,50.7473],[1.77653,50.74706],[1.77674,50.74675],[1.77747,50.74662],[1.77875,50.74609],[1.77921,50.74573],[1.77997,50.74553],[1.78123,50.74442],[1.78045,50.74408],[1.77785,50.74405],[1.7779,50.74395],[1.77503,50.74567]]]]}},{"type":"Feature","properties":{"k":"BTH","s":1.933},"geometry":{"type":"Polygon","coordinates":[[[1.77361,50.74264],[1.77275,50.743],[1.77303,50.74348],[1.77472,50.74357],[1.77467,50.74405],[1.77641,50.74402],[1.77577,50.74349],[1.77472,50.74352],[1.77475,50.74251],[1.77361,50.74264]]]}},{"type":"Feature","properties":{"k":"PPH","s":2.589},"geometry":{"type":"Polygon","coordinates":[[[1.77798,50.74355],[1.77785,50.74405],[1.77959,50.74405],[1.77958,50.74279],[1.77803,50.74313],[1.7778,50.74281],[1.77476,50.7433],[1.77485,50.74351],[1.77798,50.74355]],[[1.77738,50.74301],[1.77735,50.74316],[1.77735,50.7431],[1.77738,50.74301]]]}},{"type":"Feature","properties":{"k":"PTR","s":1.762},"geometry":{"type":"Polygon","coordinates":[[[1.7778,50.74281],[1.77731,50.74211],[1.77649,50.74223],[1.77479,50.7425],[1.77476,50.7433],[1.7778,50.74281]]]}},{"type":"Feature","properties":{"k":"BTH","s":2.91},"geometry":{"type":"Polygon","coordinates":[[[1.77383,50.74251],[1.77313,50.74114],[1.77173,50.74118],[1.77118,50.74329],[1.77383,50.74251]]]}},{"type":"Feature","properties":{"k":"MIS","s":4.897},"geometry":{"type":"Polygon","coordinates":[[[1.76784,50.74299],[1.76681,50.74491],[1.76968,50.74548],[1.77074,50.74334],[1.76784,50.74299]]]}},{"type":"Feature","properties":{"k":"ORH","s":2.521},"geometry":{"type":"Polygon","coordinates":[[[1.77089,50.74328],[1.77143,50.74119],[1.76998,50.74102],[1.76939,50.74317],[1.77089,50.74328]]]}},{"type":"Feature","properties":{"k":"BTH","s":0.865},"geometry":{"type":"Polygon","coordinates":[[[1.76888,50.74311],[1.76937,50.74318],[1.76996,50.74102],[1.76947,50.74092],[1.76888,50.74311]]]}},{"type":"Feature","properties":{"k":"MLC","s":4.534},"geometry":{"type":"Polygon","coordinates":[[[1.76695,50.74065],[1.76635,50.74263],[1.76887,50.74311],[1.76947,50.74092],[1.76821,50.74062],[1.76695,50.74065]]]}},{"type":"Feature","properties":{"k":"MIS","s":1.78},"geometry":{"type":"Polygon","coordinates":[[[1.76666,50.74031],[1.76645,50.74045],[1.76496,50.74266],[1.76635,50.74263],[1.76695,50.74065],[1.76774,50.74056],[1.76666,50.74031]]]}},{"type":"Feature","properties":{"k":"PPH","s":1.095},"geometry":{"type":"Polygon","coordinates":[[[1.76606,50.74269],[1.7649,50.74277],[1.76461,50.74322],[1.76464,50.74402],[1.76527,50.74418],[1.76606,50.74269]]]}},{"type":"Feature","properties":{"k":"MIS","s":2.233},"geometry":{"type":"Polygon","coordinates":[[[1.76705,50.7445],[1.76781,50.743],[1.76608,50.7427],[1.76535,50.74416],[1.76705,50.7445]]]}},{"type":"Feature","properties":{"k":"PPH","s":1.003},"geometry":{"type":"Polygon","coordinates":[[[1.76451,50.74481],[1.76569,50.74492],[1.76582,50.7447],[1.76681,50.74491],[1.767,50.74453],[1.76464,50.74402],[1.76451,50.74481]]]}},{"type":"Feature","properties":{"k":"PTC","s":1.716},"geometry":{"type":"Polygon","coordinates":[[[1.76756,50.74583],[1.76917,50.74567],[1.76957,50.7455],[1.76583,50.7447],[1.7656,50.74529],[1.76756,50.74583]]]}},{"type":"Feature","properties":{"k":"PPH","s":1.436},"geometry":{"type":"Polygon","coordinates":[[[1.76882,50.74939],[1.76879,50.74922],[1.76938,50.74918],[1.76929,50.74811],[1.76865,50.74777],[1.76797,50.74819],[1.76782,50.74919],[1.76882,50.74939]]]}},{"type":"Feature","properties":{"k":"PPH","s":12.928},"geometry":{"type":"Polygon","coordinates":[[[1.76817,50.74697],[1.76801,50.74735],[1.7663,50.74724],[1.76611,50.74686],[1.76389,50.74502],[1.76277,50.74537],[1.76242,50.74564],[1.7624,50.74587],[1.76294,50.74632],[1.76215,50.74671],[1.76228,50.74684],[1.76206,50.74675],[1.76163,50.7471],[1.76184,50.74725],[1.76172,50.74779],[1.7638,50.74766],[1.76386,50.74828],[1.76482,50.74848],[1.76501,50.74833],[1.76596,50.7482],[1.76687,50.74827],[1.76705,50.74849],[1.76694,50.74892],[1.7678,50.74915],[1.76796,50.74818],[1.76864,50.74776],[1.76929,50.74811],[1.76939,50.74917],[1.76997,50.74926],[1.77027,50.74772],[1.77182,50.74786],[1.77197,50.74714],[1.7686,50.74683],[1.76817,50.74697]]]}},{"type":"Feature","properties":{"k":"PPH","s":11.705},"geometry":{"type":"Polygon","coordinates":[[[1.76814,50.75103],[1.76916,50.75099],[1.76894,50.74954],[1.7669,50.74893],[1.767,50.74848],[1.76681,50.74831],[1.76609,50.74821],[1.76505,50.74835],[1.76483,50.74851],[1.76387,50.74831],[1.76368,50.74841],[1.76339,50.74864],[1.76367,50.749],[1.76278,50.7505],[1.76709,50.75185],[1.76736,50.75141],[1.76756,50.75149],[1.76797,50.75136],[1.76814,50.75103]]]}},{"type":"Feature","properties":{"k":"BTN","s":2.496},"geometry":{"type":"Polygon","coordinates":[[[1.76428,50.75131],[1.76343,50.75297],[1.76549,50.75312],[1.76613,50.75184],[1.76428,50.75131]]]}},{"type":"Feature","properties":{"k":"PTR","s":2.241},"geometry":{"type":"Polygon","coordinates":[[[1.76566,50.75147],[1.76438,50.75112],[1.76428,50.75131],[1.76613,50.75184],[1.76549,50.75312],[1.76776,50.75319],[1.76761,50.75214],[1.76566,50.75147]]]}},{"type":"Feature","properties":{"k":"BTN","s":0.129},"geometry":{"type":"Polygon","coordinates":[[[1.7689,50.75235],[1.76925,50.75232],[1.76821,50.7523],[1.76761,50.75214],[1.76764,50.75229],[1.76766,50.75242],[1.7689,50.75235]]]}},{"type":"Feature","properties":{"k":"PTC","s":0.118},"geometry":{"type":"Polygon","coordinates":[[[1.76766,50.75242],[1.76767,50.75251],[1.76946,50.7524],[1.76766,50.75242]]]}},{"type":"Feature","properties":{"k":"FLA","s":0.438},"geometry":{"type":"Polygon","coordinates":[[[1.76971,50.75244],[1.77021,50.75292],[1.77115,50.75274],[1.77082,50.75227],[1.76971,50.75244]]]}},{"type":"Feature","properties":{"k":"PPH","s":1.666},"geometry":{"type":"Polygon","coordinates":[[[1.77017,50.74933],[1.77021,50.75019],[1.77245,50.75053],[1.77307,50.75047],[1.77296,50.74964],[1.77155,50.74975],[1.77017,50.74933]]]}},{"type":"Feature","properties":{"k":"PPH","s":0.287},"geometry":{"type":"Polygon","coordinates":[[[1.77449,50.74926],[1.77357,50.74957],[1.77305,50.74943],[1.7723,50.74965],[1.77215,50.74957],[1.77148,50.74965],[1.77068,50.74934],[1.77,50.74925],[1.77141,50.74969],[1.77199,50.74961],[1.77239,50.74971],[1.77301,50.74946],[1.77349,50.74964],[1.77444,50.74937],[1.77492,50.7491],[1.77527,50.74875],[1.77531,50.74837],[1.77449,50.74926]]]}},{"type":"Feature","properties":{"k":"PPH","s":0.037},"geometry":{"type":"Polygon","coordinates":[[[1.77445,50.74942],[1.77371,50.74963],[1.77445,50.74946],[1.77469,50.74947],[1.77445,50.74942]]]}},{"type":"Feature","properties":{"k":"PPH","s":1.879},"geometry":{"type":"Polygon","coordinates":[[[1.77708,50.74904],[1.77565,50.74816],[1.77518,50.74892],[1.77455,50.74936],[1.77542,50.75012],[1.77708,50.74904]]]}},{"type":"Feature","properties":{"k":"PTR","s":2.544},"geometry":{"type":"Polygon","coordinates":[[[1.77413,50.75034],[1.77428,50.75119],[1.77715,50.75066],[1.77613,50.74973],[1.77541,50.75013],[1.7747,50.74948],[1.77374,50.74967],[1.77413,50.75034]]]}},{"type":"Feature","properties":{"k":"BTH","s":0.331},"geometry":{"type":"Polygon","coordinates":[[[1.77457,50.75199],[1.77399,50.75222],[1.77357,50.75212],[1.77347,50.75242],[1.77432,50.75259],[1.77457,50.75199]]]}},{"type":"Feature","properties":{"k":"PPH","s":9.929},"geometry":{"type":"Polygon","coordinates":[[[1.77428,50.75119],[1.77407,50.75035],[1.77243,50.75053],[1.77021,50.7502],[1.77016,50.74933],[1.7689,50.74923],[1.76916,50.75102],[1.77111,50.75117],[1.77064,50.75204],[1.76958,50.75232],[1.76971,50.75244],[1.77082,50.75227],[1.77115,50.75274],[1.77261,50.75247],[1.77315,50.75206],[1.77393,50.75219],[1.77441,50.75198],[1.77666,50.75192],[1.77668,50.75155],[1.77863,50.75032],[1.77428,50.75119]]]}},{"type":"Feature","properties":{"k":"TRE","s":1.788},"geometry":{"type":"Polygon","coordinates":[[[1.77236,50.75525],[1.77425,50.7552],[1.77225,50.75449],[1.771,50.75388],[1.77093,50.75543],[1.77236,50.75525]]]}},{"type":"Feature","properties":{"k":"MIS","s":2.782},"geometry":{"type":"Polygon","coordinates":[[[1.77392,50.75495],[1.77563,50.7538],[1.77463,50.75318],[1.77158,50.75411],[1.77392,50.75495]]]}},{"type":"Feature","properties":{"k":"MIS","s":1.695},"geometry":{"type":"Polygon","coordinates":[[[1.77712,50.75354],[1.77583,50.75279],[1.77464,50.75318],[1.77566,50.75381],[1.77507,50.7542],[1.77587,50.75459],[1.77712,50.75354]]]}},{"type":"Feature","properties":{"k":"BTH","s":8.007},"geometry":{"type":"Polygon","coordinates":[[[1.77257,50.75259],[1.77035,50.75297],[1.77158,50.75411],[1.77583,50.75279],[1.77712,50.75354],[1.77678,50.75386],[1.77721,50.75415],[1.77751,50.75401],[1.78122,50.75606],[1.78143,50.75556],[1.77867,50.75417],[1.77791,50.75362],[1.77719,50.75257],[1.77787,50.75214],[1.77671,50.75155],[1.7767,50.75195],[1.7746,50.752],[1.77428,50.75269],[1.77328,50.75262],[1.77266,50.75274],[1.77257,50.75259]]]}},{"type":"Feature","properties":{"k":"MIS","s":1.212},"geometry":{"type":"Polygon","coordinates":[[[1.7747,50.75539],[1.7761,50.75469],[1.77473,50.75541],[1.7752,50.75586],[1.77749,50.75459],[1.77701,50.75433],[1.77621,50.75455],[1.7747,50.75539]],[[1.77497,50.75536],[1.77491,50.75533],[1.77524,50.75521],[1.77497,50.75536]]]}},{"type":"Feature","properties":{"k":"PPH","s":1.305},"geometry":{"type":"Polygon","coordinates":[[[1.77105,50.75619],[1.77078,50.75583],[1.7691,50.75583],[1.76881,50.75632],[1.76946,50.75656],[1.76921,50.75692],[1.76976,50.75704],[1.77105,50.75619]]]}},{"type":"Feature","properties":{"k":"CPL","s":0.663},"geometry":{"type":"Polygon","coordinates":[[[1.76813,50.75411],[1.76802,50.75573],[1.76853,50.75578],[1.76865,50.75415],[1.76813,50.75411]]]}},{"type":"Feature","properties":{"k":"PTR","s":0.932},"geometry":{"type":"Polygon","coordinates":[[[1.76802,50.75573],[1.76813,50.75399],[1.76746,50.75394],[1.76734,50.75558],[1.76802,50.75573]]]}},{"type":"Feature","properties":{"k":"ORP","s":0.669},"geometry":{"type":"Polygon","coordinates":[[[1.76907,50.7558],[1.76915,50.75419],[1.76865,50.75415],[1.76853,50.75578],[1.76907,50.7558]]]}},{"type":"Feature","properties":{"k":"PTR","s":2.035},"geometry":{"type":"Polygon","coordinates":[[[1.76949,50.75307],[1.76955,50.75365],[1.76958,50.75381],[1.77009,50.75385],[1.77002,50.7558],[1.77055,50.75582],[1.7709,50.7556],[1.77099,50.7539],[1.77015,50.75303],[1.76949,50.75307]]]}},{"type":"Feature","properties":{"k":"MLG","s":1.664},"geometry":{"type":"Polygon","coordinates":[[[1.76958,50.75381],[1.76949,50.75306],[1.76921,50.7531],[1.76907,50.7558],[1.77002,50.75582],[1.77009,50.75385],[1.76958,50.75381]]]}},{"type":"Feature","properties":{"k":"PTR","s":0.031},"geometry":{"type":"Polygon","coordinates":[[[1.76921,50.7531],[1.76916,50.7531],[1.76918,50.75409],[1.76921,50.7531]]]}},{"type":"Feature","properties":{"k":"FLA","s":0.913},"geometry":{"type":"Polygon","coordinates":[[[1.76783,50.75317],[1.76994,50.75295],[1.76946,50.75241],[1.76777,50.75251],[1.76783,50.75317]]]}},{"type":"Feature","properties":{"k":"PTR","s":0.022},"geometry":{"type":"Polygon","coordinates":[[[1.76911,50.7541],[1.76915,50.7541],[1.76813,50.75399],[1.76911,50.7541]]]}},{"type":"Feature","properties":{"k":"FLA","s":0.073},"geometry":{"type":"Polygon","coordinates":[[[1.76901,50.75418],[1.76915,50.75419],[1.76915,50.7541],[1.76813,50.75402],[1.76901,50.75418]]]}},{"type":"Feature","properties":{"k":"MIS","s":6.31},"geometry":{"type":"Polygon","coordinates":[[[1.76449,50.7531],[1.76404,50.7556],[1.7654,50.75577],[1.76543,50.75555],[1.76682,50.7555],[1.76679,50.75389],[1.76909,50.75404],[1.76911,50.7531],[1.76733,50.75325],[1.76449,50.7531]]]}},{"type":"Feature","properties":{"k":"MLG","s":0.678},"geometry":{"type":"Polygon","coordinates":[[[1.76734,50.75558],[1.76746,50.75394],[1.76679,50.75394],[1.7669,50.7555],[1.76734,50.75558]]]}},{"type":"Feature","properties":{"k":"PPH","s":0.566},"geometry":{"type":"MultiPolygon","coordinates":[[[[1.76769,50.75648],[1.76748,50.75648],[1.76756,50.7565],[1.76769,50.75648]]],[[[1.76728,50.75659],[1.7673,50.75656],[1.76724,50.75656],[1.76728,50.75659]]],[[[1.76688,50.75642],[1.76704,50.75641],[1.7669,50.75641],[1.76688,50.75642]]],[[[1.76658,50.75644],[1.76663,50.75645],[1.76656,50.75641],[1.76658,50.75644]]],[[[1.76567,50.75613],[1.76576,50.75626],[1.7657,50.75615],[1.76567,50.75613]]],[[[1.7653,50.75584],[1.76372,50.75563],[1.76364,50.75583],[1.76403,50.75608],[1.76537,50.75625],[1.76567,50.75613],[1.7653,50.75584]]],[[[1.76284,50.7554],[1.76317,50.75551],[1.763,50.75535],[1.76284,50.7554]]]]}},{"type":"Feature","properties":{"k":"BTA","s":0.051},"geometry":{"type":"Polygon","coordinates":[[[1.76403,50.75564],[1.7654,50.75581],[1.7654,50.75577],[1.76403,50.75564]]]}},{"type":"Feature","properties":{"k":"PPH","s":0.189},"geometry":{"type":"Polygon","coordinates":[[[1.7611,50.75532],[1.76201,50.75548],[1.76303,50.75533],[1.76326,50.75552],[1.76403,50.75564],[1.76304,50.75529],[1.76203,50.75544],[1.76109,50.75526],[1.75988,50.75486],[1.7611,50.75532]]]}},{"type":"Feature","properties":{"k":"CPL","s":1.736},"geometry":{"type":"Polygon","coordinates":[[[1.76054,50.75277],[1.75982,50.75483],[1.76066,50.75507],[1.76134,50.75401],[1.76148,50.75292],[1.76054,50.75277]]]}},{"type":"Feature","properties":{"k":"PTR","s":0.419},"geometry":{"type":"Polygon","coordinates":[[[1.75904,50.75362],[1.7578,50.75421],[1.7588,50.75456],[1.75904,50.75362]]]}},{"type":"Feature","properties":{"k":"SOG","s":1.854},"geometry":{"type":"Polygon","coordinates":[[[1.75983,50.75487],[1.7604,50.75344],[1.76054,50.75277],[1.76007,50.75268],[1.75941,50.75299],[1.75904,50.75362],[1.7588,50.75456],[1.75983,50.75487]]]}},{"type":"Feature","properties":{"k":"PPH","s":0.984},"geometry":{"type":"Polygon","coordinates":[[[1.76103,50.75524],[1.76182,50.75439],[1.76204,50.75295],[1.76148,50.75292],[1.76124,50.75433],[1.7607,50.75508],[1.76103,50.75524]]]}},{"type":"Feature","properties":{"k":"TRE","s":0.586},"geometry":{"type":"Polygon","coordinates":[[[1.76258,50.75456],[1.76287,50.753],[1.76254,50.75298],[1.76229,50.75451],[1.76156,50.75533],[1.76186,50.75537],[1.76258,50.75456]]]}},{"type":"Feature","properties":{"k":"CPL","s":0.918},"geometry":{"type":"Polygon","coordinates":[[[1.76292,50.75524],[1.76319,50.75302],[1.76287,50.753],[1.7626,50.75451],[1.76186,50.75537],[1.76292,50.75524]]]}},{"type":"Feature","properties":{"k":"PTR","s":0.993},"geometry":{"type":"Polygon","coordinates":[[[1.76229,50.75451],[1.76254,50.75298],[1.76204,50.75295],[1.76182,50.75439],[1.76103,50.75524],[1.7616,50.75529],[1.76229,50.75451]]]}},{"type":"Feature","properties":{"k":"SOG","s":2.388},"geometry":{"type":"Polygon","coordinates":[[[1.76404,50.75559],[1.76449,50.75311],[1.76319,50.75302],[1.76286,50.75531],[1.76404,50.75559]]]}},{"type":"Feature","properties":{"k":"BTH","s":2.302},"geometry":{"type":"Polygon","coordinates":[[[1.76438,50.75112],[1.76282,50.75062],[1.76258,50.7512],[1.76254,50.75293],[1.76343,50.75297],[1.76438,50.75112]]]}},{"type":"Feature","properties":{"k":"ORH","s":1.998},"geometry":{"type":"Polygon","coordinates":[[[1.76254,50.75293],[1.76258,50.7512],[1.76282,50.75062],[1.76177,50.75028],[1.76142,50.75288],[1.76254,50.75293]]]}},{"type":"Feature","properties":{"k":"PPH","s":1.197},"geometry":{"type":"Polygon","coordinates":[[[1.76338,50.74866],[1.7605,50.7487],[1.7607,50.74914],[1.76352,50.74925],[1.76364,50.74897],[1.76338,50.74866]]]}},{"type":"Feature","properties":{"k":"BTH","s":1.785},"geometry":{"type":"Polygon","coordinates":[[[1.76142,50.75005],[1.76277,50.7505],[1.76352,50.74925],[1.7607,50.74914],[1.76142,50.75005]]]}},{"type":"Feature","properties":{"k":"PPH","s":0.865},"geometry":{"type":"Polygon","coordinates":[[[1.75936,50.74863],[1.75956,50.74945],[1.76105,50.74982],[1.76046,50.74869],[1.75936,50.74863]]]}},{"type":"Feature","properties":{"k":"MIS","s":2.381},"geometry":{"type":"Polygon","coordinates":[[[1.76135,50.75013],[1.76131,50.75046],[1.76088,50.75046],[1.7608,50.75077],[1.76017,50.75111],[1.76018,50.75265],[1.76142,50.75288],[1.76168,50.75025],[1.76135,50.75013]]]}},{"type":"Feature","properties":{"k":"PPH","s":5.524},"geometry":{"type":"Polygon","coordinates":[[[1.76001,50.75037],[1.7596,50.75008],[1.75987,50.74962],[1.75932,50.74949],[1.75916,50.74983],[1.75857,50.74971],[1.7584,50.75013],[1.75805,50.75024],[1.75655,50.75018],[1.75648,50.74999],[1.75578,50.7499],[1.75546,50.75028],[1.7563,50.75072],[1.75588,50.75146],[1.75486,50.75128],[1.75396,50.75247],[1.75742,50.75269],[1.7579,50.75196],[1.75594,50.7515],[1.7564,50.75066],[1.75801,50.75065],[1.76017,50.75111],[1.76035,50.75092],[1.76005,50.7508],[1.76001,50.75037]]]}},{"type":"Feature","properties":{"k":"PPH","s":0.795},"geometry":{"type":"Polygon","coordinates":[[[1.75281,50.74869],[1.75247,50.74904],[1.75475,50.74965],[1.7552,50.74935],[1.75281,50.74869]]]}},{"type":"Feature","properties":{"k":"PPH","s":3.57},"geometry":{"type":"Polygon","coordinates":[[[1.75583,50.74826],[1.75523,50.74825],[1.75502,50.74799],[1.75413,50.74813],[1.75336,50.74807],[1.7532,50.74819],[1.75278,50.74806],[1.75224,50.74812],[1.75055,50.74928],[1.75194,50.7496],[1.75287,50.74862],[1.75528,50.7493],[1.7563,50.74854],[1.75583,50.74826]]]}},{"type":"Feature","properties":{"k":"ORH","s":1.895},"geometry":{"type":"Polygon","coordinates":[[[1.75312,50.75114],[1.75088,50.75045],[1.75102,50.75071],[1.75073,50.75187],[1.75185,50.75221],[1.75312,50.75114]]]}},{"type":"Feature","properties":{"k":"PPH","s":0.527},"geometry":{"type":"Polygon","coordinates":[[[1.75311,50.75333],[1.75335,50.75299],[1.75144,50.75283],[1.75112,50.75323],[1.75311,50.75333]]]}},{"type":"Feature","properties":{"k":"PPH","s":0.02},"geometry":{"type":"MultiPolygon","coordinates":[[[[1.75294,50.75326],[1.75285,50.75325],[1.75324,50.7534],[1.75294,50.75326]]],[[[1.7523,50.75317],[1.75254,50.75328],[1.75274,50.75323],[1.7523,50.75317]]]]}},{"type":"Feature","properties":{"k":"PPH","s":9.29},"geometry":{"type":"Polygon","coordinates":[[[1.7578,50.75421],[1.75906,50.75361],[1.75962,50.75282],[1.75931,50.75236],[1.76014,50.75264],[1.76023,50.75183],[1.75848,50.75158],[1.75828,50.75202],[1.75795,50.752],[1.75744,50.75271],[1.75569,50.7527],[1.7539,50.7525],[1.75315,50.75334],[1.75474,50.75444],[1.75502,50.75438],[1.75514,50.7541],[1.75573,50.7542],[1.75647,50.75467],[1.75677,50.7544],[1.75775,50.75473],[1.75819,50.75457],[1.75843,50.75472],[1.75878,50.7547],[1.7588,50.75491],[1.75938,50.75508],[1.75979,50.75491],[1.7578,50.75421]]]}},{"type":"Feature","properties":{"k":"PPH","s":0.01},"geometry":{"type":"MultiPolygon","coordinates":[[[[1.75756,50.75461],[1.75771,50.75474],[1.7576,50.75461],[1.75756,50.75461]]],[[[1.75616,50.75451],[1.75644,50.75468],[1.75623,50.75454],[1.75616,50.75451]]],[[[1.75567,50.75422],[1.75576,50.75427],[1.75571,50.75423],[1.75567,50.75422]]],[[[1.75518,50.75415],[1.7551,50.75417],[1.75511,50.75422],[1.7554,50.75425],[1.75518,50.75415]]]]}},{"type":"Feature","properties":{"k":"PPH","s":0.246},"geometry":{"type":"Polygon","coordinates":[[[1.75079,50.75368],[1.75218,50.75325],[1.75112,50.75323],[1.75079,50.75368]]]}},{"type":"Feature","properties":{"k":"BTA","s":0.009},"geometry":{"type":"MultiPolygon","coordinates":[[[[1.747,50.75344],[1.74728,50.75346],[1.74713,50.75344],[1.747,50.75344]]],[[[1.74584,50.75372],[1.74589,50.75373],[1.74591,50.75372],[1.74584,50.75372]]],[[[1.74498,50.75386],[1.74509,50.75385],[1.74501,50.75385],[1.74498,50.75386]]]]}},{"type":"Feature","properties":{"k":"PPH","s":0.96},"geometry":{"type":"Polygon","coordinates":[[[1.74525,50.75382],[1.74536,50.75367],[1.74589,50.75369],[1.74511,50.75243],[1.74427,50.75315],[1.74479,50.75386],[1.74525,50.75382]]]}},{"type":"Feature","properties":{"k":"PPH","s":4.258},"geometry":{"type":"Polygon","coordinates":[[[1.74619,50.75149],[1.74585,50.75177],[1.74421,50.75102],[1.74353,50.75169],[1.74343,50.75233],[1.74316,50.75237],[1.74302,50.75259],[1.74324,50.75307],[1.74317,50.7537],[1.74337,50.75373],[1.74424,50.75313],[1.74559,50.752],[1.74628,50.75359],[1.74731,50.75342],[1.74619,50.75149]]]}},{"type":"Feature","properties":{"k":"PPH","s":1.296},"geometry":{"type":"Polygon","coordinates":[[[1.74648,50.75141],[1.74539,50.75039],[1.74429,50.75077],[1.74421,50.75102],[1.74585,50.75177],[1.74648,50.75141]]]}},{"type":"Feature","properties":{"k":"MIS","s":0.003},"geometry":{"type":"MultiPolygon","coordinates":[[[[1.73849,50.75075],[1.73841,50.75079],[1.73847,50.75078],[1.73849,50.75075]]],[[[1.73935,50.74938],[1.73929,50.74939],[1.73932,50.74939],[1.73935,50.74938]]]]}},{"type":"Feature","properties":{"k":"CPL","s":2.378},"geometry":{"type":"Polygon","coordinates":[[[1.73959,50.74902],[1.74314,50.74918],[1.74332,50.74846],[1.73998,50.74807],[1.73959,50.74902]]]}},{"type":"Feature","properties":{"k":"PPH","s":27.899},"geometry":{"type":"Polygon","coordinates":[[[1.74177,50.74905],[1.74168,50.74919],[1.73961,50.74902],[1.73957,50.74934],[1.73882,50.74955],[1.73858,50.75077],[1.73755,50.75109],[1.73701,50.75145],[1.73545,50.75148],[1.73554,50.75191],[1.73597,50.75192],[1.73604,50.75252],[1.73771,50.75259],[1.73806,50.75242],[1.73997,50.75317],[1.73981,50.75365],[1.74312,50.75373],[1.74297,50.75252],[1.74333,50.7523],[1.74352,50.75155],[1.74423,50.75073],[1.7447,50.75043],[1.74629,50.7502],[1.7475,50.74958],[1.74812,50.74953],[1.74899,50.7489],[1.74955,50.74872],[1.74996,50.74804],[1.74998,50.74755],[1.74959,50.74757],[1.74924,50.74726],[1.74856,50.74728],[1.74679,50.74696],[1.74544,50.74799],[1.74565,50.74808],[1.74383,50.74924],[1.74177,50.74905]],[[1.74166,50.75045],[1.74255,50.74957],[1.74314,50.74979],[1.74376,50.74974],[1.74421,50.74995],[1.74369,50.75063],[1.74312,50.75088],[1.74166,50.75045]]]}},{"type":"Feature","properties":{"k":"PPH","s":5.229},"geometry":{"type":"Polygon","coordinates":[[[1.74784,50.75328],[1.74941,50.75364],[1.75019,50.75192],[1.7492,50.75192],[1.74891,50.75091],[1.74618,50.75147],[1.7474,50.7534],[1.74784,50.75328]]]}},{"type":"Feature","properties":{"k":"JAC","s":1.079},"geometry":{"type":"Polygon","coordinates":[[[1.74893,50.75091],[1.74909,50.75146],[1.75083,50.75134],[1.75102,50.75071],[1.75089,50.7505],[1.74893,50.75091]]]}},{"type":"Feature","properties":{"k":"PPH","s":3.575},"geometry":{"type":"Polygon","coordinates":[[[1.75337,50.74999],[1.75071,50.74934],[1.75054,50.74933],[1.75057,50.7499],[1.75,50.74995],[1.74981,50.74926],[1.74902,50.7492],[1.74814,50.74973],[1.74851,50.75027],[1.75061,50.75004],[1.75088,50.75045],[1.75312,50.75114],[1.75362,50.75067],[1.75296,50.75048],[1.75337,50.74999]]]}},{"type":"Feature","properties":{"k":"PPH","s":0.96},"geometry":{"type":"Polygon","coordinates":[[[1.74849,50.75028],[1.74892,50.7509],[1.75088,50.75049],[1.7506,50.75005],[1.74849,50.75028]]]}},{"type":"Feature","properties":{"k":"BTA","s":0.174},"geometry":{"type":"Polygon","coordinates":[[[1.74983,50.74721],[1.75082,50.74455],[1.75074,50.74454],[1.74983,50.74721]]]}},{"type":"Feature","properties":{"k":"ORH","s":7.752},"geometry":{"type":"Polygon","coordinates":[[[1.74533,50.74434],[1.74452,50.74429],[1.74498,50.7449],[1.74597,50.74543],[1.74753,50.74593],[1.74851,50.74593],[1.74863,50.74662],[1.74923,50.7471],[1.74975,50.74719],[1.75074,50.74454],[1.7454,50.74395],[1.74533,50.74434]]]}},{"type":"Feature","properties":{"k":"PPH","s":9.424},"geometry":{"type":"Polygon","coordinates":[[[1.75134,50.7458],[1.75176,50.74465],[1.75082,50.74455],[1.74983,50.74721],[1.74923,50.7471],[1.74863,50.74662],[1.74851,50.74593],[1.74751,50.74592],[1.74699,50.74645],[1.74682,50.74697],[1.74848,50.74724],[1.74922,50.74721],[1.74961,50.74753],[1.75005,50.74751],[1.74967,50.74862],[1.75026,50.74853],[1.74629,50.75026],[1.74542,50.75037],[1.7465,50.7514],[1.74891,50.75091],[1.74809,50.7497],[1.74894,50.7492],[1.74981,50.74926],[1.75,50.74995],[1.75054,50.74989],[1.75049,50.74928],[1.75149,50.74846],[1.75112,50.74846],[1.75082,50.74835],[1.7503,50.74847],[1.75079,50.74828],[1.75113,50.74842],[1.75168,50.74702],[1.75101,50.7469],[1.75114,50.74657],[1.75085,50.7465],[1.75093,50.74599],[1.75134,50.7458]]]}},{"type":"Feature","properties":{"k":"MIS","s":5.245},"geometry":{"type":"Polygon","coordinates":[[[1.74144,50.74465],[1.74361,50.74704],[1.74324,50.74917],[1.74383,50.74924],[1.74565,50.74808],[1.74544,50.74799],[1.74618,50.74743],[1.74453,50.74672],[1.74399,50.74607],[1.74377,50.74616],[1.74227,50.7444],[1.74144,50.74465]]]}},{"type":"Feature","properties":{"k":"MLG","s":4.469},"geometry":{"type":"Polygon","coordinates":[[[1.74081,50.74631],[1.74093,50.7468],[1.73998,50.74807],[1.74332,50.74846],[1.74355,50.74709],[1.74282,50.74629],[1.74081,50.74631]]]}},{"type":"Feature","properties":{"k":"LIF","s":0.124},"geometry":{"type":"MultiPolygon","coordinates":[[[[1.74151,50.74631],[1.74151,50.74627],[1.74079,50.74629],[1.74082,50.74649],[1.74081,50.74631],[1.74151,50.74631]]],[[[1.74151,50.74601],[1.74146,50.74596],[1.74152,50.7462],[1.74151,50.74601]]],[[[1.74034,50.74473],[1.73982,50.7447],[1.74069,50.74513],[1.74034,50.74473]]]]}},{"type":"Feature","properties":{"k":"MLG","s":1.222},"geometry":{"type":"Polygon","coordinates":[[[1.74135,50.74471],[1.74029,50.74468],[1.74069,50.74513],[1.74131,50.74538],[1.74151,50.74631],[1.74282,50.74629],[1.74135,50.74471]]]}},{"type":"Feature","properties":{"k":"CPL","s":2.076},"geometry":{"type":"Polygon","coordinates":[[[1.74227,50.7444],[1.74377,50.74616],[1.7449,50.74574],[1.74354,50.74403],[1.74227,50.7444]]]}},{"type":"Feature","properties":{"k":"MLG","s":1.32},"geometry":{"type":"Polygon","coordinates":[[[1.74453,50.74672],[1.74618,50.74743],[1.74644,50.74723],[1.7449,50.74574],[1.74399,50.74607],[1.74453,50.74672]]]}},{"type":"Feature","properties":{"k":"MLG","s":2.759},"geometry":{"type":"Polygon","coordinates":[[[1.74644,50.74723],[1.74747,50.74596],[1.74518,50.74511],[1.74427,50.74408],[1.74354,50.74403],[1.74485,50.74568],[1.74644,50.74723]]]}},{"type":"Feature","properties":{"k":"BOR","s":0.051},"geometry":{"type":"Polygon","coordinates":[[[1.74533,50.74434],[1.7454,50.74395],[1.74528,50.74431],[1.74459,50.74429],[1.74533,50.74434]]]}},{"type":"Feature","properties":{"k":"MLG","s":0.706},"geometry":{"type":"Polygon","coordinates":[[[1.7411,50.74464],[1.74091,50.74372],[1.74026,50.74373],[1.73979,50.74454],[1.7411,50.74464]]]}},{"type":"Feature","properties":{"k":"MIS","s":0.008},"geometry":{"type":"MultiPolygon","coordinates":[[[[1.73994,50.74358],[1.73982,50.74355],[1.74019,50.74374],[1.73994,50.74358]]],[[[1.73935,50.7435],[1.73967,50.74352],[1.73954,50.7435],[1.73935,50.7435]]]]}},{"type":"Feature","properties":{"k":"PPH","s":3.635},"geometry":{"type":"Polygon","coordinates":[[[1.73934,50.74297],[1.73936,50.74347],[1.74022,50.74371],[1.74093,50.7437],[1.74118,50.74463],[1.74313,50.74406],[1.74309,50.74371],[1.74377,50.74345],[1.74375,50.74332],[1.74285,50.74294],[1.74143,50.74274],[1.73934,50.74297]]]}},{"type":"Feature","properties":{"k":"MLG","s":3.14},"geometry":{"type":"Polygon","coordinates":[[[1.73955,50.74169],[1.73933,50.74293],[1.74132,50.74271],[1.74219,50.74283],[1.74068,50.74084],[1.73925,50.74081],[1.73955,50.74169]]]}},{"type":"Feature","properties":{"k":"PPH","s":2.125},"geometry":{"type":"MultiPolygon","coordinates":[[[[1.74058,50.73955],[1.73963,50.73951],[1.73979,50.73953],[1.74058,50.73955]]],[[[1.74121,50.74019],[1.74115,50.74066],[1.74068,50.74084],[1.74087,50.74118],[1.74219,50.74283],[1.7429,50.74292],[1.74238,50.74249],[1.74243,50.74181],[1.74202,50.74151],[1.74238,50.74107],[1.74188,50.74092],[1.74135,50.74047],[1.74144,50.74016],[1.74212,50.73966],[1.74146,50.73902],[1.74104,50.73959],[1.74079,50.73957],[1.74121,50.74019]]]]}},{"type":"Feature","properties":{"k":"JAC","s":0.054},"geometry":{"type":"Polygon","coordinates":[]}},{"type":"Feature","properties":{"k":"PTR","s":4.048},"geometry":{"type":"Polygon","coordinates":[[[1.74635,50.74304],[1.74659,50.74402],[1.75045,50.74444],[1.74975,50.74264],[1.74635,50.74304]]]}},{"type":"Feature","properties":{"k":"BTA","s":0.211},"geometry":{"type":"Polygon","coordinates":[[[1.75003,50.74263],[1.74989,50.74264],[1.75061,50.74446],[1.75003,50.74263]]]}},{"type":"Feature","properties":{"k":"BTA","s":0.209},"geometry":{"type":"Polygon","coordinates":[[[1.75045,50.74444],[1.75061,50.74446],[1.74989,50.74264],[1.74974,50.74273],[1.75045,50.74444]]]}},{"type":"Feature","properties":{"k":"PPH","s":7.333},"geometry":{"type":"Polygon","coordinates":[[[1.74989,50.74061],[1.74912,50.74014],[1.74879,50.73965],[1.74797,50.73948],[1.7469,50.7413],[1.74854,50.74176],[1.74842,50.74271],[1.75272,50.74244],[1.75301,50.74152],[1.75219,50.74154],[1.75213,50.7412],[1.75039,50.74142],[1.74989,50.74061]]]}},{"type":"Feature","properties":{"k":"BTH","s":2.16},"geometry":{"type":"Polygon","coordinates":[[[1.7516,50.74125],[1.75215,50.74119],[1.75224,50.74152],[1.75304,50.74149],[1.75278,50.74238],[1.75461,50.74232],[1.75325,50.74065],[1.7515,50.74067],[1.7516,50.74125]]]}},{"type":"Feature","properties":{"k":"PTR","s":2.115},"geometry":{"type":"Polygon","coordinates":[[[1.75741,50.74215],[1.75698,50.74037],[1.75511,50.7407],[1.75631,50.74222],[1.75741,50.74215]]]}},{"type":"Feature","properties":{"k":"BTA","s":0.042},"geometry":{"type":"Polygon","coordinates":[[[1.7579,50.74244],[1.75803,50.743],[1.75796,50.74241],[1.75775,50.74236],[1.7579,50.74244]]]}},{"type":"Feature","properties":{"k":"BTH","s":0.662},"geometry":{"type":"Polygon","coordinates":[[[1.75639,50.74238],[1.75697,50.74305],[1.75795,50.743],[1.7579,50.74244],[1.75755,50.7423],[1.75639,50.74238]]]}},{"type":"Feature","properties":{"k":"BTH","s":1.467},"geometry":{"type":"Polygon","coordinates":[[[1.75381,50.7435],[1.75489,50.74344],[1.75517,50.74322],[1.7552,50.74261],[1.75609,50.74257],[1.75652,50.74308],[1.75686,50.74306],[1.75624,50.74233],[1.75388,50.74243],[1.75381,50.7435]]]}},{"type":"Feature","properties":{"k":"ORP","s":2.124},"geometry":{"type":"Polygon","coordinates":[[[1.75517,50.74322],[1.75489,50.74344],[1.75597,50.74505],[1.75654,50.74418],[1.75656,50.7432],[1.75687,50.74307],[1.75652,50.74308],[1.75609,50.74257],[1.7552,50.74261],[1.75517,50.74322]]]}},{"type":"Feature","properties":{"k":"MIS","s":7.463},"geometry":{"type":"Polygon","coordinates":[[[1.75003,50.74263],[1.75075,50.74446],[1.75595,50.74499],[1.75489,50.74344],[1.7538,50.74351],[1.75367,50.74242],[1.75003,50.74263]]]}},{"type":"Feature","properties":{"k":"MIS","s":1.557},"geometry":{"type":"Polygon","coordinates":[[[1.7528,50.74477],[1.75218,50.74624],[1.7536,50.74625],[1.75411,50.74491],[1.7528,50.74477]]]}},{"type":"Feature","properties":{"k":"JAC","s":0.046},"geometry":{"type":"Polygon","coordinates":[[[1.75361,50.74622],[1.7536,50.74625],[1.75416,50.74491],[1.75361,50.74622]]]}},{"type":"Feature","properties":{"k":"PPH","s":5.282},"geometry":{"type":"Polygon","coordinates":[[[1.75187,50.74466],[1.75132,50.74605],[1.75213,50.74617],[1.75117,50.74841],[1.75149,50.74842],[1.75215,50.74804],[1.75428,50.74803],[1.75462,50.74783],[1.7551,50.74793],[1.75532,50.74822],[1.7557,50.74823],[1.75494,50.74727],[1.75388,50.74668],[1.75351,50.74626],[1.75218,50.74624],[1.7528,50.74477],[1.75187,50.74466]]]}},{"type":"Feature","properties":{"k":"PPH","s":0.647},"geometry":{"type":"Polygon","coordinates":[[[1.75856,50.74681],[1.75867,50.74645],[1.75838,50.74641],[1.75843,50.74628],[1.75693,50.74615],[1.75687,50.74653],[1.75856,50.74681]]]}},{"type":"Feature","properties":{"k":"PPH","s":0.8},"geometry":{"type":"Polygon","coordinates":[[[1.75621,50.74604],[1.75571,50.74675],[1.75637,50.74725],[1.75668,50.74715],[1.75685,50.74661],[1.75681,50.74577],[1.75621,50.74604]]]}},{"type":"Feature","properties":{"k":"PPH","s":0.316},"geometry":{"type":"Polygon","coordinates":[[[1.75711,50.74571],[1.75817,50.74563],[1.75829,50.7453],[1.75738,50.74528],[1.75711,50.74571]]]}},{"type":"Feature","properties":{"k":"PTR","s":0.095},"geometry":{"type":"Polygon","coordinates":[[[1.75954,50.74589],[1.76117,50.74613],[1.75959,50.74586],[1.75945,50.74514],[1.75954,50.74589]]]}},{"type":"Feature","properties":{"k":"PPH","s":0.19},"geometry":{"type":"Polygon","coordinates":[[[1.75918,50.74723],[1.75905,50.74761],[1.75982,50.74759],[1.75987,50.74728],[1.75918,50.74723]]]}},{"type":"Feature","properties":{"k":"BTA","s":0.227},"geometry":{"type":"Polygon","coordinates":[[[1.75835,50.74847],[1.75937,50.74861],[1.75939,50.74851],[1.75855,50.74838],[1.75877,50.74775],[1.75852,50.74774],[1.75835,50.74847]]]}},{"type":"Feature","properties":{"k":"BTH","s":3.767},"geometry":{"type":"Polygon","coordinates":[[[1.75939,50.74851],[1.75937,50.74861],[1.7605,50.7487],[1.76338,50.74866],[1.76381,50.74829],[1.76378,50.74768],[1.76138,50.74784],[1.76041,50.74762],[1.75858,50.74762],[1.75852,50.74774],[1.75877,50.74775],[1.75855,50.74838],[1.75939,50.74851]]]}},{"type":"Feature","properties":{"k":"PPH","s":0.631},"geometry":{"type":"Polygon","coordinates":[[[1.7617,50.7478],[1.76184,50.74725],[1.76163,50.7471],[1.76115,50.74731],[1.75991,50.74728],[1.75997,50.74757],[1.7617,50.7478]]]}},{"type":"Feature","properties":{"k":"PTC","s":4.852},"geometry":{"type":"Polygon","coordinates":[[[1.75959,50.74586],[1.76118,50.7461],[1.76169,50.74368],[1.7641,50.74347],[1.76449,50.7433],[1.76472,50.7428],[1.76244,50.74314],[1.76132,50.74308],[1.76134,50.74345],[1.75983,50.74359],[1.7595,50.74528],[1.75959,50.74586]]]}},{"type":"Feature","properties":{"k":"PPH","s":1.893},"geometry":{"type":"Polygon","coordinates":[[[1.76273,50.74525],[1.76302,50.74401],[1.7641,50.74347],[1.76169,50.74368],[1.76137,50.74508],[1.76273,50.74525]]]}},{"type":"Feature","properties":{"k":"PPH","s":0.528},"geometry":{"type":"Polygon","coordinates":[[[1.75811,50.74299],[1.75886,50.74298],[1.75894,50.74216],[1.758,50.74222],[1.75811,50.74299]]]}},{"type":"Feature","properties":{"k":"MIS","s":1.158},"geometry":{"type":"Polygon","coordinates":[[[1.75987,50.74198],[1.76072,50.74151],[1.76021,50.74108],[1.75932,50.74142],[1.75833,50.74149],[1.75798,50.74195],[1.75812,50.74208],[1.75987,50.74198]]]}},{"type":"Feature","properties":{"k":"BTA","s":0.114},"geometry":{"type":"Polygon","coordinates":[[[1.75815,50.74176],[1.7581,50.74161],[1.75833,50.74149],[1.75932,50.74142],[1.75978,50.74128],[1.76017,50.74104],[1.75929,50.74138],[1.7583,50.74145],[1.75802,50.74159],[1.75802,50.74205],[1.75815,50.74176]]]}},{"type":"Feature","properties":{"k":"MIS","s":3.783},"geometry":{"type":"Polygon","coordinates":[[[1.76585,50.74123],[1.76386,50.7415],[1.76158,50.74214],[1.76134,50.74231],[1.76138,50.74303],[1.76262,50.74306],[1.76452,50.74275],[1.76585,50.74123]]]}},{"type":"Feature","properties":{"k":"BTH","s":3.735},"geometry":{"type":"Polygon","coordinates":[[[1.76655,50.73969],[1.76508,50.73959],[1.76328,50.74035],[1.76276,50.74128],[1.76402,50.74134],[1.76399,50.74148],[1.76585,50.74123],[1.76658,50.74029],[1.76655,50.73969]]]}},{"type":"Feature","properties":{"k":"PTR","s":0.398},"geometry":{"type":"Polygon","coordinates":[[[1.76318,50.74031],[1.76253,50.74138],[1.76399,50.74148],[1.76402,50.74134],[1.76276,50.74128],[1.76328,50.74035],[1.76508,50.73959],[1.76481,50.73957],[1.76318,50.74031]]]}},{"type":"Feature","properties":{"k":"BTA","s":0.375},"geometry":{"type":"Polygon","coordinates":[[[1.76514,50.73788],[1.76278,50.73868],[1.76269,50.73895],[1.76186,50.73921],[1.76271,50.73904],[1.7629,50.73872],[1.76509,50.73804],[1.76551,50.73758],[1.76573,50.73701],[1.76557,50.73698],[1.76514,50.73788]]]}},{"type":"Feature","properties":{"k":"MLC","s":6.284},"geometry":{"type":"Polygon","coordinates":[[[1.76107,50.73748],[1.76153,50.73833],[1.7619,50.73847],[1.76187,50.73914],[1.76244,50.73906],[1.76278,50.73868],[1.76487,50.73801],[1.76525,50.73776],[1.76557,50.73698],[1.76501,50.73675],[1.76088,50.73633],[1.76107,50.73748]]]}},{"type":"Feature","properties":{"k":"MIS","s":3.307},"geometry":{"type":"Polygon","coordinates":[[[1.76096,50.74006],[1.75775,50.73935],[1.75833,50.74134],[1.7597,50.74117],[1.76016,50.74085],[1.76095,50.74066],[1.76125,50.7403],[1.76096,50.74006]]]}},{"type":"Feature","properties":{"k":"BTA","s":0.317},"geometry":{"type":"Polygon","coordinates":[[[1.75752,50.73895],[1.75744,50.73931],[1.75796,50.73991],[1.75827,50.74138],[1.75928,50.74134],[1.75974,50.74121],[1.76034,50.74085],[1.76089,50.74081],[1.76157,50.74028],[1.76125,50.7403],[1.76095,50.74066],[1.76016,50.74085],[1.7597,50.74117],[1.75833,50.74134],[1.75803,50.73989],[1.75775,50.73935],[1.75751,50.7393],[1.75752,50.73895]]]}},{"type":"Feature","properties":{"k":"BTA","s":0.167},"geometry":{"type":"Polygon","coordinates":[[[1.75779,50.73993],[1.75791,50.74082],[1.75814,50.74139],[1.75787,50.74157],[1.75774,50.74194],[1.75786,50.74214],[1.75794,50.74158],[1.75822,50.7414],[1.75786,50.73992],[1.75734,50.73938],[1.75779,50.73993]]]}},{"type":"Feature","properties":{"k":"JAC","s":0.08},"geometry":{"type":"Polygon","coordinates":[[[1.75797,50.73931],[1.75753,50.73896],[1.75751,50.7393],[1.75797,50.73931]]]}},{"type":"Feature","properties":{"k":"AVP","s":2.642},"geometry":{"type":"Polygon","coordinates":[[[1.75693,50.73913],[1.75637,50.73918],[1.7553,50.73848],[1.75372,50.73895],[1.75485,50.74023],[1.75694,50.73983],[1.75693,50.73913]]]}},{"type":"Feature","properties":{"k":"BTH","s":2.317},"geometry":{"type":"Polygon","coordinates":[[[1.75688,50.73987],[1.75486,50.74024],[1.75511,50.7407],[1.75701,50.74036],[1.75743,50.74216],[1.75777,50.74214],[1.75787,50.74156],[1.75814,50.74139],[1.75779,50.73993],[1.75734,50.73938],[1.75706,50.7394],[1.75688,50.73987]]]}},{"type":"Feature","properties":{"k":"PTR","s":1.72},"geometry":{"type":"Polygon","coordinates":[[[1.75352,50.74035],[1.75391,50.74116],[1.75464,50.74195],[1.75571,50.74169],[1.75463,50.74003],[1.75352,50.74035]]]}},{"type":"Feature","properties":{"k":"ORH","s":6.332},"geometry":{"type":"Polygon","coordinates":[[[1.75621,50.74226],[1.75573,50.74169],[1.75464,50.74195],[1.75341,50.74037],[1.7546,50.73997],[1.75344,50.73867],[1.75265,50.73837],[1.75219,50.73798],[1.7513,50.73847],[1.75179,50.73994],[1.74896,50.73979],[1.74906,50.73998],[1.74997,50.74062],[1.75325,50.74065],[1.75461,50.74232],[1.75621,50.74226]]]}},{"type":"Feature","properties":{"k":"MLG","s":1.855},"geometry":{"type":"Polygon","coordinates":[[[1.75294,50.73842],[1.75463,50.73772],[1.75389,50.73705],[1.75319,50.73729],[1.75301,50.73705],[1.75159,50.73743],[1.75294,50.73842]]]}},{"type":"Feature","properties":{"k":"PPH","s":5.907},"geometry":{"type":"Polygon","coordinates":[[[1.75401,50.73627],[1.75165,50.73656],[1.75159,50.73741],[1.75302,50.73703],[1.75319,50.73727],[1.75389,50.73704],[1.75466,50.73771],[1.75559,50.73727],[1.75591,50.73764],[1.75591,50.73808],[1.75541,50.73806],[1.7553,50.73846],[1.75638,50.73918],[1.75694,50.73911],[1.75694,50.73933],[1.75743,50.73929],[1.75721,50.73822],[1.75748,50.73814],[1.75709,50.73735],[1.75605,50.73651],[1.75575,50.73668],[1.75447,50.736],[1.75393,50.73591],[1.75401,50.73627]]]}},{"type":"Feature","properties":{"k":"MIS","s":1.668},"geometry":{"type":"Polygon","coordinates":[[[1.75296,50.73843],[1.75373,50.73889],[1.7553,50.73846],[1.75543,50.73804],[1.75591,50.73808],[1.75592,50.73782],[1.75554,50.738],[1.75593,50.73778],[1.75559,50.73727],[1.75296,50.73843]]]}},{"type":"Feature","properties":{"k":"MIS","s":1.285},"geometry":{"type":"Polygon","coordinates":[[[1.75714,50.7374],[1.75839,50.73697],[1.75718,50.73603],[1.75605,50.73651],[1.75714,50.7374]]]}},{"type":"Feature","properties":{"k":"JAC","s":0.337},"geometry":{"type":"Polygon","coordinates":[[[1.75808,50.73605],[1.75732,50.73604],[1.75854,50.73694],[1.75808,50.73605]]]}},{"type":"Feature","properties":{"k":"JAC","s":0.598},"geometry":{"type":"Polygon","coordinates":[[[1.75574,50.73664],[1.75683,50.73606],[1.75478,50.7359],[1.75475,50.73603],[1.75574,50.73664]]]}},{"type":"Feature","properties":{"k":"MIS","s":1.293},"geometry":{"type":"Polygon","coordinates":[[[1.75165,50.73656],[1.75401,50.73627],[1.75371,50.73572],[1.75182,50.73558],[1.75165,50.73656]]]}},{"type":"Feature","properties":{"k":"JAC","s":0.623},"geometry":{"type":"Polygon","coordinates":[[[1.75248,50.73223],[1.7521,50.73262],[1.75211,50.73287],[1.75247,50.7331],[1.75285,50.73405],[1.75354,50.73484],[1.75341,50.73516],[1.75368,50.73518],[1.75376,50.7348],[1.75305,50.73399],[1.75266,50.73304],[1.75222,50.73274],[1.75273,50.73223],[1.75263,50.73187],[1.75228,50.73189],[1.75248,50.73223]]]}},{"type":"Feature","properties":{"k":"MIS","s":2.34},"geometry":{"type":"Polygon","coordinates":[[[1.75162,50.73498],[1.75341,50.73516],[1.75354,50.73484],[1.75285,50.73405],[1.75247,50.7331],[1.75211,50.73287],[1.7521,50.73262],[1.75248,50.73223],[1.75228,50.73189],[1.75202,50.7319],[1.75162,50.73498]]]}},{"type":"Feature","properties":{"k":"PPH","s":1.284},"geometry":{"type":"Polygon","coordinates":[[[1.75632,50.73501],[1.75539,50.73438],[1.75437,50.73487],[1.75499,50.73549],[1.75681,50.73567],[1.75632,50.73501]]]}},{"type":"Feature","properties":{"k":"TRE","s":2.11},"geometry":{"type":"Polygon","coordinates":[[[1.75854,50.73694],[1.75948,50.73744],[1.76098,50.7371],[1.76088,50.73633],[1.75808,50.73605],[1.75854,50.73694]]]}},{"type":"Feature","properties":{"k":"MIS","s":7.361},"geometry":{"type":"Polygon","coordinates":[[[1.76387,50.73172],[1.76237,50.73178],[1.76138,50.73166],[1.76131,50.73288],[1.76219,50.735],[1.7621,50.73556],[1.76267,50.73614],[1.76456,50.73566],[1.76354,50.73293],[1.76387,50.73172]]]}},{"type":"Feature","properties":{"k":"PPH","s":3.052},"geometry":{"type":"MultiPolygon","coordinates":[[[[1.76456,50.73566],[1.76581,50.73572],[1.76564,50.73502],[1.76469,50.73373],[1.76424,50.73251],[1.7645,50.73178],[1.76387,50.73172],[1.76354,50.73293],[1.76456,50.73566]]],[[[1.76452,50.73149],[1.76452,50.73163],[1.76453,50.73148],[1.76452,50.73149]]],[[[1.76613,50.72999],[1.76598,50.73022],[1.76623,50.73003],[1.76613,50.72999]]]]}},{"type":"Feature","properties":{"k":"BTH","s":2.369},"geometry":{"type":"Polygon","coordinates":[[[1.78481,50.75755],[1.78368,50.75674],[1.78163,50.75781],[1.78274,50.75842],[1.78364,50.75856],[1.78481,50.75755]]]}},{"type":"Feature","properties":{"k":"BTH","s":3.349},"geometry":{"type":"Polygon","coordinates":[[[1.77854,50.76048],[1.78004,50.75921],[1.77991,50.75835],[1.77925,50.75824],[1.77672,50.75912],[1.77854,50.76048]]]}},{"type":"Feature","properties":{"k":"BTH","s":4.227},"geometry":{"type":"Polygon","coordinates":[[[1.78065,50.76195],[1.77845,50.76085],[1.77656,50.76185],[1.77478,50.76192],[1.77584,50.7629],[1.77688,50.76228],[1.7776,50.7627],[1.78065,50.76195]]]}},{"type":"Feature","properties":{"k":"BTH","s":5.775},"geometry":{"type":"Polygon","coordinates":[[[1.7762,50.7642],[1.77663,50.76485],[1.78237,50.76302],[1.78081,50.76202],[1.77732,50.76289],[1.77783,50.7637],[1.7762,50.7642]]]}},{"type":"Feature","properties":{"k":"PTR","s":1.403},"geometry":{"type":"Polygon","coordinates":[[[1.77862,50.76426],[1.78126,50.76488],[1.78187,50.76436],[1.78009,50.76378],[1.77862,50.76426]]]}},{"type":"Feature","properties":{"k":"PPH","s":1.808},"geometry":{"type":"Polygon","coordinates":[[[1.78363,50.76367],[1.78315,50.76343],[1.78272,50.76397],[1.78229,50.7638],[1.78278,50.76323],[1.78241,50.76304],[1.78009,50.76378],[1.78187,50.76436],[1.78204,50.76421],[1.78263,50.76449],[1.78363,50.76367]]]}},{"type":"Feature","properties":{"k":"BTH","s":5.091},"geometry":{"type":"Polygon","coordinates":[[[1.78134,50.76223],[1.78333,50.76067],[1.78185,50.75953],[1.78127,50.7603],[1.77969,50.75973],[1.77866,50.76054],[1.77924,50.76085],[1.77916,50.76104],[1.78134,50.76223]]]}},{"type":"Feature","properties":{"k":"CZH","s":10.145},"geometry":{"type":"Polygon","coordinates":[[[1.78274,50.75842],[1.78185,50.75953],[1.78333,50.76067],[1.78136,50.76225],[1.78229,50.76287],[1.78477,50.76404],[1.78624,50.76158],[1.78689,50.76101],[1.78579,50.76036],[1.7849,50.761],[1.78286,50.75947],[1.78358,50.7586],[1.78274,50.75842]]]}},{"type":"Feature","properties":{"k":"MIS","s":3.898},"geometry":{"type":"Polygon","coordinates":[[[1.75278,50.73172],[1.75503,50.7316],[1.7546,50.73047],[1.75496,50.73033],[1.75421,50.72957],[1.75236,50.72924],[1.75184,50.7296],[1.75297,50.73042],[1.75261,50.73071],[1.75242,50.73126],[1.75278,50.73172]]]}},{"type":"Feature","properties":{"k":"JAC","s":1.022},"geometry":{"type":"MultiPolygon","coordinates":[[[[1.75261,50.73071],[1.75297,50.73042],[1.75184,50.7296],[1.75236,50.72924],[1.75421,50.72957],[1.75231,50.72912],[1.75161,50.7296],[1.75281,50.73046],[1.75236,50.73058],[1.75242,50.73111],[1.75261,50.73071]]],[[[1.75496,50.73033],[1.7546,50.73047],[1.75503,50.7316],[1.75278,50.73172],[1.75263,50.73138],[1.75247,50.73144],[1.75267,50.73185],[1.75525,50.73169],[1.75476,50.73048],[1.75513,50.7303],[1.75444,50.72962],[1.75421,50.72957],[1.75496,50.73033]]]]}},{"type":"Feature","properties":{"k":"PPH","s":3.049},"geometry":{"type":"Polygon","coordinates":[[[1.78746,50.7629],[1.78875,50.76346],[1.79085,50.76222],[1.7901,50.76101],[1.78746,50.7629]]]}},{"type":"Feature","properties":{"k":"BTH","s":13.851},"geometry":{"type":"Polygon","coordinates":[[[1.76097,50.73451],[1.76051,50.73412],[1.75874,50.73433],[1.7581,50.73364],[1.75689,50.73169],[1.75771,50.73135],[1.75686,50.73026],[1.75648,50.73043],[1.75476,50.73048],[1.75525,50.73169],[1.75405,50.73177],[1.75499,50.73301],[1.75576,50.73362],[1.75492,50.73381],[1.75557,50.7345],[1.75651,50.73508],[1.75693,50.73566],[1.76008,50.73595],[1.76123,50.7355],[1.76097,50.73451]]]}},{"type":"Feature","properties":{"k":"PPH","s":3.331},"geometry":{"type":"Polygon","coordinates":[[[1.75281,50.73227],[1.75247,50.73278],[1.75297,50.73326],[1.75321,50.73408],[1.7536,50.73455],[1.75392,50.73425],[1.75476,50.73388],[1.75442,50.73362],[1.75481,50.73342],[1.75474,50.73311],[1.75499,50.73301],[1.75405,50.73177],[1.75273,50.73182],[1.75281,50.73227]]]}},{"type":"Feature","properties":{"k":"BTA","s":0.054},"geometry":{"type":"MultiPolygon","coordinates":[[[[1.75119,50.7319],[1.7498,50.73189],[1.74916,50.73194],[1.75119,50.7319]]]]}},{"type":"Feature","properties":{"k":"JAC","s":1.334},"geometry":{"type":"MultiPolygon","coordinates":[[[[1.74815,50.73174],[1.7477,50.73164],[1.74772,50.73127],[1.74755,50.73125],[1.74753,50.73172],[1.74804,50.73183],[1.75063,50.7319],[1.75042,50.73179],[1.74815,50.73174]]],[[[1.74851,50.73097],[1.7481,50.73011],[1.74728,50.7295],[1.74773,50.72912],[1.74751,50.72883],[1.74807,50.72783],[1.74953,50.72865],[1.75182,50.73029],[1.75229,50.73079],[1.75225,50.73128],[1.75247,50.73142],[1.75247,50.73077],[1.75196,50.73022],[1.74965,50.72857],[1.74803,50.72774],[1.74802,50.72773],[1.74738,50.72875],[1.74756,50.7291],[1.74713,50.72945],[1.74808,50.73014],[1.74844,50.73103],[1.74851,50.73097]]]]}},{"type":"Feature","properties":{"k":"MIS","s":9.51},"geometry":{"type":"Polygon","coordinates":[[[1.7512,50.73197],[1.75064,50.73196],[1.75169,50.73345],[1.75189,50.73194],[1.75126,50.73195],[1.75063,50.73118],[1.75143,50.73095],[1.75163,50.731],[1.7522,50.73151],[1.75202,50.7319],[1.75263,50.73187],[1.75228,50.73137],[1.75223,50.73067],[1.74953,50.72865],[1.74807,50.72783],[1.74751,50.72883],[1.74773,50.72912],[1.74728,50.7295],[1.74806,50.73007],[1.74851,50.73097],[1.74832,50.73123],[1.74772,50.73127],[1.7477,50.73164],[1.7512,50.73197]]]}},{"type":"Feature","properties":{"k":"PPH","s":0.028},"geometry":{"type":"Polygon","coordinates":[[[1.75088,50.72924],[1.75115,50.72951],[1.75085,50.72918],[1.75045,50.7291],[1.75088,50.72924]]]}},{"type":"Feature","properties":{"k":"BTH","s":12.005},"geometry":{"type":"Polygon","coordinates":[[[1.78513,50.76375],[1.78515,50.76514],[1.78857,50.76551],[1.78841,50.76475],[1.78874,50.76347],[1.78744,50.7629],[1.78881,50.76182],[1.79105,50.76054],[1.78988,50.75949],[1.78672,50.76133],[1.78513,50.76375]]]}},{"type":"Feature","properties":{"k":"CZH","s":1.154},"geometry":{"type":"Polygon","coordinates":[[[1.78593,50.76044],[1.78786,50.75919],[1.78717,50.75869],[1.78577,50.75949],[1.78635,50.75995],[1.78579,50.76036],[1.78593,50.76044]]]}},{"type":"Feature","properties":{"k":"MIS","s":2.504},"geometry":{"type":"Polygon","coordinates":[[[1.78593,50.76044],[1.78687,50.761],[1.78949,50.75948],[1.78852,50.75877],[1.78593,50.76044]]]}},{"type":"Feature","properties":{"k":"PPH","s":2.707},"geometry":{"type":"Polygon","coordinates":[[[1.78511,50.75987],[1.78363,50.75856],[1.78286,50.75947],[1.7849,50.761],[1.78635,50.75995],[1.78573,50.75951],[1.78511,50.75987]]]}},{"type":"Feature","properties":{"k":"BTH","s":12.083},"geometry":{"type":"Polygon","coordinates":[[[1.78511,50.75986],[1.78863,50.75788],[1.79019,50.75908],[1.79095,50.75856],[1.78975,50.75783],[1.79086,50.75704],[1.79016,50.75681],[1.79045,50.75656],[1.78754,50.75556],[1.78481,50.75753],[1.78365,50.75857],[1.78511,50.75986]]]}},{"type":"Feature","properties":{"k":"MIS","s":2.219},"geometry":{"type":"Polygon","coordinates":[[[1.75009,50.73203],[1.75017,50.73298],[1.7507,50.73468],[1.75151,50.7347],[1.75169,50.73345],[1.75061,50.73192],[1.75009,50.73203]]]}},{"type":"Feature","properties":{"k":"JAC","s":0.475},"geometry":{"type":"Polygon","coordinates":[[[1.7507,50.73468],[1.75017,50.73298],[1.75009,50.73203],[1.75047,50.73203],[1.75044,50.73192],[1.74989,50.73192],[1.75053,50.73473],[1.75101,50.73481],[1.75149,50.73483],[1.75151,50.7347],[1.7507,50.73468]]]}},{"type":"Feature","properties":{"k":"PPH","s":3.935},"geometry":{"type":"Polygon","coordinates":[[[1.74634,50.73922],[1.74725,50.73776],[1.74797,50.73758],[1.74656,50.73588],[1.74517,50.7351],[1.74498,50.73527],[1.74504,50.73571],[1.7462,50.73648],[1.74674,50.73787],[1.74655,50.73806],[1.74543,50.73818],[1.74474,50.7385],[1.74453,50.73864],[1.74472,50.73921],[1.74634,50.73922]]]}},{"type":"Feature","properties":{"k":"PPH","s":1.95},"geometry":{"type":"Polygon","coordinates":[[[1.7513,50.73847],[1.7501,50.7387],[1.74953,50.73944],[1.74891,50.7397],[1.75179,50.73993],[1.7513,50.73847]]]}},{"type":"Feature","properties":{"k":"PPH","s":0.824},"geometry":{"type":"Polygon","coordinates":[[[1.75041,50.7414],[1.7516,50.74125],[1.7515,50.74064],[1.74997,50.74062],[1.75041,50.7414]]]}},{"type":"Feature","properties":{"k":"MIS","s":3.503},"geometry":{"type":"Polygon","coordinates":[[[1.7422,50.73966],[1.74151,50.74015],[1.7415,50.74063],[1.7424,50.74103],[1.74521,50.74151],[1.74552,50.74064],[1.7422,50.73966]]]}},{"type":"Feature","properties":{"k":"MIS","s":2.861},"geometry":{"type":"Polygon","coordinates":[[[1.74212,50.73966],[1.74392,50.74011],[1.74472,50.73921],[1.74454,50.73867],[1.74296,50.73841],[1.7422,50.73848],[1.74146,50.73902],[1.74212,50.73966]]]}},{"type":"Feature","properties":{"k":"MLG","s":0.018},"geometry":{"type":"Polygon","coordinates":[[[1.74312,50.73833],[1.74299,50.7384],[1.74349,50.73847],[1.74312,50.73833]]]}},{"type":"Feature","properties":{"k":"BTA","s":0.005},"geometry":{"type":"MultiPolygon","coordinates":[[[[1.73533,50.75192],[1.73538,50.75192],[1.73535,50.75177],[1.73533,50.75192]]],[[[1.73531,50.75148],[1.73535,50.7515],[1.73534,50.75147],[1.73531,50.75148]]]]}},{"type":"Feature","properties":{"k":"PPH","s":0.0},"geometry":{"type":"Polygon","coordinates":[]}},{"type":"Feature","properties":{"k":"BTA","s":0.007},"geometry":{"type":"MultiPolygon","coordinates":[[[[1.73786,50.75255],[1.73821,50.75256],[1.73807,50.75246],[1.73786,50.75255]]]]}},{"type":"Feature","properties":{"k":"BTA","s":0.0},"geometry":{"type":"Polygon","coordinates":[]}},{"type":"Feature","properties":{"k":"PTR","s":2.752},"geometry":{"type":"Polygon","coordinates":[[[1.77277,50.73461],[1.77338,50.73552],[1.77414,50.73542],[1.77588,50.73454],[1.7755,50.73383],[1.77507,50.73358],[1.77246,50.73464],[1.77277,50.73461]]]}},{"type":"Feature","properties":{"k":"PPH","s":1.471},"geometry":{"type":"Polygon","coordinates":[[[1.77188,50.7346],[1.77132,50.73443],[1.77017,50.73608],[1.7718,50.73587],[1.77163,50.73524],[1.77233,50.73501],[1.77252,50.73469],[1.77182,50.73415],[1.77188,50.7346]]]}},{"type":"Feature","properties":{"k":"PTR","s":1.568},"geometry":{"type":"Polygon","coordinates":[[[1.77182,50.73415],[1.77246,50.73464],[1.77507,50.73358],[1.77433,50.73314],[1.77182,50.73415]]]}},{"type":"Feature","properties":{"k":"MIS","s":1.657},"geometry":{"type":"Polygon","coordinates":[[[1.78863,50.75788],[1.78717,50.75869],[1.78786,50.75919],[1.78852,50.75877],[1.78949,50.75948],[1.79019,50.75909],[1.78863,50.75788]]]}},{"type":"Feature","properties":{"k":"PTR","s":0.015},"geometry":{"type":"Polygon","coordinates":[[[1.79253,50.75737],[1.79256,50.75735],[1.79145,50.75716],[1.79253,50.75737]]]}},{"type":"Feature","properties":{"k":"BTH","s":1.594},"geometry":{"type":"Polygon","coordinates":[[[1.7908,50.7571],[1.78975,50.75783],[1.79095,50.75856],[1.79246,50.75742],[1.7908,50.7571]]]}},{"type":"Feature","properties":{"k":"BTN","s":5.797},"geometry":{"type":"Polygon","coordinates":[[[1.7916,50.76107],[1.79194,50.76158],[1.79194,50.76159],[1.79445,50.76032],[1.79186,50.75816],[1.78996,50.75945],[1.7916,50.76107]]]}},{"type":"Feature","properties":{"k":"ORH","s":4.469},"geometry":{"type":"Polygon","coordinates":[[[1.79476,50.75791],[1.79285,50.7574],[1.79186,50.75816],[1.79442,50.76037],[1.79555,50.75856],[1.79476,50.75791]]]}},{"type":"Feature","properties":{"k":"BOR","s":0.035},"geometry":{"type":"Polygon","coordinates":[[[1.7945,50.76037],[1.79445,50.76032],[1.79488,50.7609],[1.7945,50.76037]]]}},{"type":"Feature","properties":{"k":"MLC","s":10.025},"geometry":{"type":"Polygon","coordinates":[[[1.76659,50.73575],[1.76771,50.73518],[1.77046,50.73244],[1.77,50.73223],[1.76918,50.73148],[1.76744,50.73082],[1.76652,50.73087],[1.76609,50.73343],[1.76659,50.73575]]]}},{"type":"Feature","properties":{"k":"MIS","s":3.364},"geometry":{"type":"Polygon","coordinates":[[[1.77105,50.73174],[1.77278,50.73064],[1.77344,50.72999],[1.77214,50.72955],[1.76918,50.73148],[1.76992,50.73217],[1.76995,50.73182],[1.77041,50.73144],[1.77105,50.73174]]]}},{"type":"Feature","properties":{"k":"LUZ","s":6.877},"geometry":{"type":"Polygon","coordinates":[[[1.76918,50.73148],[1.77214,50.72955],[1.77255,50.72969],[1.77337,50.7286],[1.77215,50.72825],[1.7705,50.72888],[1.76981,50.72941],[1.76955,50.72923],[1.76595,50.73091],[1.76744,50.73082],[1.76918,50.73148]]]}},{"type":"Feature","properties":{"k":"ORH","s":0.001},"geometry":{"type":"Polygon","coordinates":[[[1.7661,50.72998],[1.76608,50.73003],[1.76613,50.72999],[1.7661,50.72998]]]}},{"type":"Feature","properties":{"k":"PPH","s":4.855},"geometry":{"type":"Polygon","coordinates":[[[1.77162,50.72828],[1.76915,50.72904],[1.76717,50.72994],[1.76637,50.73007],[1.76457,50.73148],[1.7643,50.73251],[1.76477,50.73372],[1.76576,50.73503],[1.76588,50.73573],[1.76607,50.73573],[1.76554,50.73346],[1.76595,50.73091],[1.76955,50.72923],[1.76981,50.72941],[1.7705,50.72888],[1.77215,50.72825],[1.77162,50.72828]]]}},{"type":"Feature","properties":{"k":"MIS","s":2.157},"geometry":{"type":"Polygon","coordinates":[[[1.76554,50.73346],[1.76607,50.73573],[1.76657,50.73575],[1.76609,50.73343],[1.76652,50.73087],[1.76595,50.73091],[1.76554,50.73346]]]}},{"type":"Feature","properties":{"k":"BTA","s":0.096},"geometry":{"type":"Polygon","coordinates":[[[1.76881,50.73619],[1.76835,50.73609],[1.76877,50.73626],[1.77015,50.73595],[1.76881,50.73619]]]}},{"type":"Feature","properties":{"k":"BTA","s":0.101},"geometry":{"type":"Polygon","coordinates":[[[1.77091,50.73618],[1.77185,50.73602],[1.77022,50.73611],[1.76906,50.73627],[1.77091,50.73618]]]}},{"type":"Feature","properties":{"k":"MLC","s":2.014},"geometry":{"type":"Polygon","coordinates":[[[1.772,50.73707],[1.77248,50.73687],[1.77185,50.73602],[1.76906,50.73627],[1.76926,50.73685],[1.772,50.73707]]]}},{"type":"Feature","properties":{"k":"PTR","s":1.469},"geometry":{"type":"Polygon","coordinates":[[[1.76919,50.73881],[1.76798,50.73795],[1.76741,50.7383],[1.76819,50.73876],[1.76657,50.73968],[1.76659,50.74027],[1.76919,50.73881]]]}},{"type":"Feature","properties":{"k":"MIS","s":3.463},"geometry":{"type":"Polygon","coordinates":[[[1.76657,50.73968],[1.76819,50.73876],[1.76734,50.73826],[1.76776,50.73754],[1.76643,50.73787],[1.76425,50.73911],[1.76479,50.73916],[1.76436,50.73953],[1.76657,50.73968]]]}},{"type":"Feature","properties":{"k":"PPH","s":1.111},"geometry":{"type":"Polygon","coordinates":[[[1.77,50.73857],[1.76942,50.73878],[1.77042,50.73903],[1.77237,50.73861],[1.77194,50.738],[1.77,50.73857]]]}},{"type":"Feature","properties":{"k":"MIS","s":0.068},"geometry":{"type":"Polygon","coordinates":[[[1.77454,50.73817],[1.7746,50.73806],[1.77376,50.73796],[1.77454,50.73817]]]}},{"type":"Feature","properties":{"k":"PTR","s":2.223},"geometry":{"type":"Polygon","coordinates":[[[1.77359,50.73807],[1.77418,50.73935],[1.77528,50.73917],[1.77469,50.73761],[1.77199,50.73744],[1.77155,50.73757],[1.77189,50.73789],[1.77359,50.73807]],[[1.77454,50.73817],[1.77376,50.73796],[1.7746,50.73806],[1.77454,50.73817]]]}},{"type":"Feature","properties":{"k":"RDI","s":1.768},"geometry":{"type":"Polygon","coordinates":[[[1.77188,50.74117],[1.7735,50.74106],[1.77282,50.73955],[1.77143,50.73991],[1.77188,50.74117]]]}},{"type":"Feature","properties":{"k":"BTH","s":4.055},"geometry":{"type":"Polygon","coordinates":[[[1.77389,50.7425],[1.77633,50.74215],[1.77523,50.74077],[1.7744,50.74093],[1.77382,50.73927],[1.7728,50.73943],[1.77352,50.74107],[1.77318,50.74111],[1.77389,50.7425]]]}},{"type":"Feature","properties":{"k":"MIS","s":5.098},"geometry":{"type":"Polygon","coordinates":[[[1.77573,50.74144],[1.77811,50.74104],[1.77729,50.73971],[1.77744,50.73921],[1.77692,50.73895],[1.77418,50.73935],[1.77469,50.74087],[1.77523,50.74077],[1.77573,50.74144]]]}},{"type":"Feature","properties":{"k":"BOR","s":0.086},"geometry":{"type":"Polygon","coordinates":[[[1.79491,50.76084],[1.79595,50.76056],[1.7968,50.7599],[1.79591,50.76052],[1.79491,50.76084]]]}},{"type":"Feature","properties":{"k":"PTR","s":0.01},"geometry":{"type":"Polygon","coordinates":[[[1.77731,50.73966],[1.77735,50.73973],[1.77743,50.73926],[1.77731,50.73966]]]}},{"type":"Feature","properties":{"k":"BTH","s":2.134},"geometry":{"type":"Polygon","coordinates":[[[1.79445,50.76032],[1.79491,50.76084],[1.79591,50.76052],[1.7968,50.7599],[1.79555,50.75856],[1.79445,50.76032]]]}},{"type":"Feature","properties":{"k":"BTH","s":0.575},"geometry":{"type":"Polygon","coordinates":[[[1.7761,50.73836],[1.77502,50.73855],[1.7753,50.73919],[1.77637,50.73898],[1.7761,50.73836]]]}},{"type":"Feature","properties":{"k":"MIS","s":0.047},"geometry":{"type":"Polygon","coordinates":[[[1.79386,50.75757],[1.79337,50.75748],[1.79472,50.75789],[1.79386,50.75757]]]}},{"type":"Feature","properties":{"k":"BTA","s":0.102},"geometry":{"type":"Polygon","coordinates":[[[1.77414,50.73542],[1.77339,50.73554],[1.77389,50.73552],[1.7744,50.73537],[1.77586,50.73455],[1.77414,50.73542]]]}},{"type":"Feature","properties":{"k":"LIF","s":4.156},"geometry":{"type":"Polygon","coordinates":[[[1.79686,50.75997],[1.79596,50.76057],[1.79491,50.76091],[1.79732,50.76275],[1.79884,50.76224],[1.79686,50.75997]]]}},{"type":"Feature","properties":{"k":"BTA","s":0.111},"geometry":{"type":"Polygon","coordinates":[[[1.79884,50.76224],[1.79738,50.7628],[1.79891,50.76231],[1.79877,50.762],[1.79884,50.76224]]]}},{"type":"Feature","properties":{"k":"BTA","s":0.164},"geometry":{"type":"Polygon","coordinates":[[[1.79702,50.76283],[1.79591,50.76333],[1.79442,50.76424],[1.79411,50.76477],[1.79446,50.76427],[1.79595,50.76336],[1.79734,50.76278],[1.79702,50.76283]]]}},{"type":"Feature","properties":{"k":"BTA","s":0.008},"geometry":{"type":"MultiPolygon","coordinates":[[[[1.79462,50.76428],[1.79448,50.76437],[1.79446,50.76446],[1.79511,50.76405],[1.79462,50.76428]]],[[[1.79415,50.76481],[1.79419,50.76477],[1.79414,50.76479],[1.79415,50.76481]]]]}},{"type":"Feature","properties":{"k":"PPH","s":5.567},"geometry":{"type":"Polygon","coordinates":[[[1.7935,50.76356],[1.79319,50.76417],[1.79407,50.76473],[1.79442,50.76424],[1.79591,50.76333],[1.79729,50.76274],[1.79527,50.76131],[1.79285,50.76287],[1.7935,50.76356]]]}},{"type":"Feature","properties":{"k":"BOR","s":0.112},"geometry":{"type":"Polygon","coordinates":[[[1.7936,50.76086],[1.79445,50.76032],[1.79194,50.76159],[1.7936,50.76086]]]}},{"type":"Feature","properties":{"k":"BTH","s":2.968},"geometry":{"type":"Polygon","coordinates":[[[1.79442,50.76037],[1.79197,50.76163],[1.79285,50.76287],[1.79527,50.76131],[1.79442,50.76037]]]}},{"type":"Feature","properties":{"k":"BTH","s":2.796},"geometry":{"type":"Polygon","coordinates":[[[1.79107,50.76053],[1.7901,50.76101],[1.79168,50.76356],[1.79277,50.76286],[1.79107,50.76053]]]}},{"type":"Feature","properties":{"k":"BOR","s":0.055},"geometry":{"type":"Polygon","coordinates":[[[1.79168,50.76356],[1.79171,50.7636],[1.79281,50.7629],[1.79168,50.76356]]]}},{"type":"Feature","properties":{"k":"PPH","s":8.981},"geometry":{"type":"Polygon","coordinates":[[[1.78843,50.76482],[1.78876,50.7661],[1.78934,50.76607],[1.78982,50.76576],[1.79088,50.76573],[1.79287,50.76517],[1.79195,50.76456],[1.79267,50.76429],[1.79294,50.76397],[1.79315,50.76403],[1.79339,50.76351],[1.79281,50.7629],[1.79171,50.7636],[1.79085,50.76222],[1.78875,50.76346],[1.78843,50.76482]],[[1.792,50.76505],[1.79223,50.76497],[1.79234,50.7652],[1.79208,50.76526],[1.792,50.76505]]]}},{"type":"Feature","properties":{"k":"BTA","s":0.075},"geometry":{"type":"Polygon","coordinates":[[[1.79237,50.76512],[1.79218,50.76496],[1.79198,50.76512],[1.79222,50.76527],[1.79237,50.76512]]]}}]}