{"type":"FeatureCollection","features":[{"type":"Feature","properties":{"k":"LBF","s":7.801},"geometry":{"type":"Polygon","coordinates":[[[2.65749,50.26987],[2.65528,50.27263],[2.65781,50.27248],[2.65918,50.27276],[2.6611,50.27038],[2.65749,50.26987]]]}},{"type":"Feature","properties":{"k":"BTH","s":0.054},"geometry":{"type":"Polygon","coordinates":[[[2.65327,50.26904],[2.65324,50.26902],[2.651,50.27181],[2.65327,50.26904]]]}},{"type":"Feature","properties":{"k":"BTN","s":0.056},"geometry":{"type":"MultiPolygon","coordinates":[[[[2.65216,50.26826],[2.65184,50.26808],[2.65275,50.26872],[2.65216,50.26826]]],[[[2.65142,50.26781],[2.65134,50.26779],[2.65149,50.26785],[2.65142,50.26781]]]]}},{"type":"Feature","properties":{"k":"BTH","s":2.33},"geometry":{"type":"Polygon","coordinates":[[[2.65257,50.26845],[2.65329,50.26895],[2.65544,50.26633],[2.65449,50.26601],[2.65257,50.26845]]]}},{"type":"Feature","properties":{"k":"BTH","s":5.229},"geometry":{"type":"Polygon","coordinates":[[[2.6533,50.26897],[2.65403,50.26936],[2.65522,50.26952],[2.65737,50.26697],[2.65544,50.26633],[2.6533,50.26897]]]}},{"type":"Feature","properties":{"k":"BTH","s":11.121},"geometry":{"type":"Polygon","coordinates":[[[2.65304,50.27256],[2.65528,50.27263],[2.65749,50.26987],[2.65407,50.26942],[2.65327,50.26904],[2.651,50.27181],[2.65304,50.27256]]]}},{"type":"Feature","properties":{"k":"MIS","s":4.738},"geometry":{"type":"Polygon","coordinates":[[[2.65847,50.27001],[2.66116,50.26665],[2.66212,50.26542],[2.66159,50.26525],[2.66174,50.26504],[2.6613,50.26488],[2.65736,50.26985],[2.65847,50.27001]]]}},{"type":"Feature","properties":{"k":"BTH","s":23.554},"geometry":{"type":"Polygon","coordinates":[[[2.66642,50.27099],[2.66717,50.26822],[2.66549,50.2667],[2.66214,50.26544],[2.65849,50.27001],[2.66642,50.27099]]]}},{"type":"Feature","properties":{"k":"BTH","s":1.456},"geometry":{"type":"Polygon","coordinates":[[[2.65975,50.27301],[2.66165,50.27063],[2.66321,50.27116],[2.6611,50.27038],[2.65918,50.27276],[2.65975,50.27301]]]}},{"type":"Feature","properties":{"k":"CZH","s":0.001},"geometry":{"type":"Polygon","coordinates":[[[2.65906,50.27278],[2.65928,50.27287],[2.65919,50.27282],[2.65906,50.27278]]]}},{"type":"Feature","properties":{"k":"BTH","s":1.96},"geometry":{"type":"Polygon","coordinates":[[[2.66321,50.27116],[2.66344,50.27101],[2.66497,50.27157],[2.66593,50.27154],[2.66635,50.27167],[2.66644,50.271],[2.6611,50.27039],[2.66321,50.27116]]]}},{"type":"Feature","properties":{"k":"BTN","s":0.01},"geometry":{"type":"MultiPolygon","coordinates":[[[[2.66629,50.27169],[2.6663,50.27166],[2.66587,50.27154],[2.66629,50.27169]]],[[[2.66472,50.27149],[2.66497,50.27157],[2.66556,50.27155],[2.66472,50.27149]]]]}},{"type":"Feature","properties":{"k":"BTH","s":0.29},"geometry":{"type":"Polygon","coordinates":[[[2.66686,50.27181],[2.66715,50.27132],[2.66653,50.27103],[2.66643,50.27169],[2.66686,50.27181]]]}},{"type":"Feature","properties":{"k":"BOR","s":0.015},"geometry":{"type":"Polygon","coordinates":[[[2.6681,50.27149],[2.66811,50.27147],[2.66711,50.27153],[2.6681,50.27149]]]}},{"type":"Feature","properties":{"k":"PPH","s":0.012},"geometry":{"type":"Polygon","coordinates":[[[2.66985,50.27182],[2.66989,50.2718],[2.66938,50.27148],[2.66985,50.27182]]]}},{"type":"Feature","properties":{"k":"BOR","s":0.088},"geometry":{"type":"Polygon","coordinates":[[[2.66975,50.27107],[2.66939,50.27085],[2.66827,50.27145],[2.66895,50.27125],[2.66941,50.27092],[2.66971,50.27111],[2.67082,50.27104],[2.66975,50.27107]]]}},{"type":"Feature","properties":{"k":"PPH","s":0.008},"geometry":{"type":"MultiPolygon","coordinates":[[[[2.67072,50.27148],[2.67129,50.27142],[2.67102,50.27142],[2.67072,50.27148]]]]}},{"type":"Feature","properties":{"k":"BTH","s":3.471},"geometry":{"type":"Polygon","coordinates":[[[2.66947,50.26988],[2.67086,50.27099],[2.67124,50.27095],[2.67171,50.2707],[2.67132,50.2704],[2.67182,50.26991],[2.6716,50.26966],[2.67199,50.26917],[2.67017,50.26847],[2.66969,50.26925],[2.66901,50.26906],[2.66882,50.26977],[2.66947,50.26988]]]}},{"type":"Feature","properties":{"k":"BTH","s":1.4},"geometry":{"type":"Polygon","coordinates":[[[2.6694,50.26992],[2.66865,50.27023],[2.66828,50.27142],[2.66892,50.27122],[2.66939,50.27085],[2.66975,50.27107],[2.67076,50.271],[2.6694,50.26992]]]}},{"type":"Feature","properties":{"k":"BTH","s":3.395},"geometry":{"type":"Polygon","coordinates":[[[2.66883,50.26916],[2.66702,50.26893],[2.66654,50.27103],[2.66715,50.27131],[2.66711,50.27153],[2.66811,50.27147],[2.66883,50.26916]]]}},{"type":"Feature","properties":{"k":"BOR","s":0.067},"geometry":{"type":"Polygon","coordinates":[[[2.66703,50.26889],[2.66702,50.26893],[2.66883,50.26916],[2.66703,50.26889]]]}},{"type":"Feature","properties":{"k":"JAC","s":0.028},"geometry":{"type":"Polygon","coordinates":[[[2.66988,50.26881],[2.67013,50.26845],[2.66984,50.2688],[2.66969,50.26924],[2.66988,50.26881]]]}},{"type":"Feature","properties":{"k":"MLG","s":0.056},"geometry":{"type":"Polygon","coordinates":[[[2.67123,50.26755],[2.67154,50.26732],[2.6712,50.26753],[2.67012,50.26844],[2.67123,50.26755]]]}},{"type":"Feature","properties":{"k":"BTH","s":8.07},"geometry":{"type":"Polygon","coordinates":[[[2.67201,50.26918],[2.67176,50.26944],[2.67545,50.27052],[2.67631,50.26855],[2.67154,50.26732],[2.67017,50.26846],[2.67201,50.26918]]]}},{"type":"Feature","properties":{"k":"PPH","s":2.172},"geometry":{"type":"Polygon","coordinates":[[[2.673,50.2713],[2.67491,50.27185],[2.67545,50.27052],[2.67358,50.26997],[2.673,50.2713]],[[2.67475,50.271],[2.6748,50.27093],[2.67502,50.271],[2.67475,50.271]]]}},{"type":"Feature","properties":{"k":"LIF","s":1.098},"geometry":{"type":"Polygon","coordinates":[[[2.67606,50.27073],[2.67717,50.26877],[2.67641,50.2686],[2.67557,50.27067],[2.67606,50.27073]]]}},{"type":"Feature","properties":{"k":"LIF","s":0.885},"geometry":{"type":"Polygon","coordinates":[[[2.6762,50.27051],[2.67606,50.27073],[2.67648,50.27078],[2.67797,50.26808],[2.67763,50.26798],[2.6762,50.27051]]]}},{"type":"Feature","properties":{"k":"PPH","s":1.482},"geometry":{"type":"Polygon","coordinates":[[[2.67586,50.26697],[2.67535,50.26774],[2.67479,50.26756],[2.67451,50.2681],[2.67631,50.26855],[2.67679,50.26769],[2.67586,50.26697]]]}},{"type":"Feature","properties":{"k":"PPH","s":4.984},"geometry":{"type":"Polygon","coordinates":[[[2.67938,50.26839],[2.68079,50.26912],[2.68188,50.2694],[2.68295,50.26781],[2.68021,50.26723],[2.67867,50.26707],[2.67798,50.268],[2.67938,50.26839]]]}},{"type":"Feature","properties":{"k":"PTC","s":3.461},"geometry":{"type":"Polygon","coordinates":[[[2.68249,50.26959],[2.68083,50.2692],[2.67959,50.26854],[2.67871,50.27009],[2.68185,50.27072],[2.68249,50.26959]]]}},{"type":"Feature","properties":{"k":"CZH","s":3.702},"geometry":{"type":"Polygon","coordinates":[[[2.67955,50.26851],[2.67801,50.26806],[2.6765,50.27079],[2.67821,50.27099],[2.67955,50.26851]]]}},{"type":"Feature","properties":{"k":"LIF","s":8.562},"geometry":{"type":"Polygon","coordinates":[[[2.67821,50.27098],[2.67872,50.27104],[2.67806,50.27217],[2.67502,50.2718],[2.67478,50.27263],[2.68035,50.27327],[2.68185,50.27072],[2.67871,50.27009],[2.67821,50.27098]]]}},{"type":"Feature","properties":{"k":"BTH","s":5.214},"geometry":{"type":"Polygon","coordinates":[[[2.68409,50.27003],[2.68249,50.26959],[2.68035,50.27327],[2.68211,50.27348],[2.68409,50.27003]]]}},{"type":"Feature","properties":{"k":"MIS","s":0.885},"geometry":{"type":"Polygon","coordinates":[[[2.68495,50.27048],[2.68464,50.27041],[2.68285,50.27356],[2.68317,50.2736],[2.68495,50.27048]]]}},{"type":"Feature","properties":{"k":"BTH","s":2.163},"geometry":{"type":"MultiPolygon","coordinates":[[[[2.68495,50.27048],[2.68318,50.2736],[2.68319,50.2736],[2.68495,50.27048]]],[[[2.68499,50.27042],[2.68501,50.27029],[2.68471,50.2702],[2.68459,50.27029],[2.68409,50.27003],[2.6821,50.27347],[2.68285,50.27356],[2.68464,50.27041],[2.68495,50.27048],[2.68499,50.27042]]]]}},{"type":"Feature","properties":{"k":"BTN","s":0.741},"geometry":{"type":"MultiPolygon","coordinates":[[[[2.67854,50.27477],[2.67832,50.27519],[2.67875,50.27524],[2.67989,50.27322],[2.67948,50.27317],[2.67854,50.27477]]]]}},{"type":"Feature","properties":{"k":"CZH","s":3.266},"geometry":{"type":"Polygon","coordinates":[[[2.67948,50.27317],[2.67752,50.27294],[2.67643,50.27496],[2.67832,50.27519],[2.67948,50.27317]]]}},{"type":"Feature","properties":{"k":"PTC","s":4.744},"geometry":{"type":"Polygon","coordinates":[[[2.67478,50.27263],[2.67417,50.27377],[2.67337,50.27458],[2.67643,50.27496],[2.67752,50.27294],[2.67478,50.27263]]]}},{"type":"Feature","properties":{"k":"CZH","s":3.005},"geometry":{"type":"Polygon","coordinates":[[[2.67806,50.27217],[2.67872,50.27104],[2.67548,50.27066],[2.67502,50.2718],[2.67806,50.27217]]]}},{"type":"Feature","properties":{"k":"PPH","s":1.597},"geometry":{"type":"Polygon","coordinates":[[[2.67303,50.27131],[2.67313,50.27109],[2.67281,50.27099],[2.67207,50.27179],[2.6747,50.27256],[2.6749,50.27186],[2.67303,50.27131]]]}},{"type":"Feature","properties":{"k":"PPH","s":0.741},"geometry":{"type":"Polygon","coordinates":[[[2.67175,50.27065],[2.67128,50.27096],[2.67178,50.27185],[2.67206,50.27179],[2.67276,50.27103],[2.67202,50.27089],[2.67175,50.27065]]]}},{"type":"Feature","properties":{"k":"MIS","s":0.679},"geometry":{"type":"Polygon","coordinates":[[[2.69087,50.27213],[2.69232,50.27015],[2.69194,50.27009],[2.69051,50.27201],[2.69087,50.27213]]]}},{"type":"Feature","properties":{"k":"PHF","s":0.022},"geometry":{"type":"Polygon","coordinates":[[[2.68451,50.27376],[2.6827,50.27355],[2.68596,50.27394],[2.68451,50.27376]]]}},{"type":"Feature","properties":{"k":"CZH","s":6.863},"geometry":{"type":"Polygon","coordinates":[[[2.68507,50.27033],[2.68318,50.2736],[2.68585,50.27391],[2.68745,50.27108],[2.68507,50.27033]]]}},{"type":"Feature","properties":{"k":"LIF","s":0.813},"geometry":{"type":"MultiPolygon","coordinates":[[[[2.68585,50.27391],[2.68596,50.27394],[2.68619,50.27396],[2.68776,50.27117],[2.68745,50.27108],[2.68585,50.27391]]]]}},{"type":"Feature","properties":{"k":"BTN","s":4.139},"geometry":{"type":"Polygon","coordinates":[[[2.68958,50.26942],[2.68827,50.27126],[2.69051,50.27201],[2.69193,50.27007],[2.68958,50.26942]]]}},{"type":"Feature","properties":{"k":"BTH","s":1.927},"geometry":{"type":"Polygon","coordinates":[[[2.68876,50.26918],[2.68768,50.26884],[2.68639,50.27067],[2.68748,50.27102],[2.68876,50.26918]]]}},{"type":"Feature","properties":{"k":"BTH","s":1.412},"geometry":{"type":"Polygon","coordinates":[[[2.68958,50.26942],[2.68876,50.26919],[2.68748,50.27102],[2.68826,50.27126],[2.68958,50.26942]]]}},{"type":"Feature","properties":{"k":"LUZ","s":1.461},"geometry":{"type":"Polygon","coordinates":[[[2.68523,50.2703],[2.68647,50.26852],[2.68555,50.26831],[2.68438,50.27002],[2.68523,50.2703]]]}},{"type":"Feature","properties":{"k":"AVP","s":1.401},"geometry":{"type":"Polygon","coordinates":[[[2.68436,50.27003],[2.68556,50.26831],[2.68461,50.26814],[2.6835,50.26977],[2.68436,50.27003]]]}},{"type":"Feature","properties":{"k":"PPH","s":0.405},"geometry":{"type":"Polygon","coordinates":[[[2.68597,50.26743],[2.68546,50.26725],[2.68486,50.26809],[2.68539,50.2682],[2.68597,50.26743]]]}},{"type":"Feature","properties":{"k":"PPH","s":0.448},"geometry":{"type":"Polygon","coordinates":[[[2.68655,50.26761],[2.68603,50.26833],[2.68673,50.26848],[2.68717,50.26777],[2.68655,50.26761]]]}},{"type":"Feature","properties":{"k":"BTH","s":1.877},"geometry":{"type":"Polygon","coordinates":[[[2.6965,50.27084],[2.69687,50.26937],[2.69585,50.26909],[2.6946,50.27052],[2.6965,50.27084]]]}},{"type":"Feature","properties":{"k":"BTH","s":7.838},"geometry":{"type":"Polygon","coordinates":[[[2.65068,50.26298],[2.64771,50.26648],[2.65017,50.26737],[2.65202,50.26506],[2.65112,50.26477],[2.65247,50.26315],[2.65068,50.26298]]]}},{"type":"Feature","properties":{"k":"BTN","s":0.021},"geometry":{"type":"MultiPolygon","coordinates":[[[[2.64807,50.26605],[2.64871,50.26527],[2.64768,50.26648],[2.64807,50.26605]]],[[[2.64909,50.26487],[2.64948,50.26438],[2.64893,50.26502],[2.64909,50.26487]]]]}},{"type":"Feature","properties":{"k":"MIS","s":2.904},"geometry":{"type":"Polygon","coordinates":[[[2.65468,50.26278],[2.65395,50.26275],[2.65202,50.26506],[2.65017,50.26737],[2.65077,50.26759],[2.65468,50.26278]]]}},{"type":"Feature","properties":{"k":"LIF","s":1.876},"geometry":{"type":"Polygon","coordinates":[[[2.65206,50.26507],[2.65391,50.26279],[2.65261,50.26298],[2.65113,50.26476],[2.65206,50.26507]]]}},{"type":"Feature","properties":{"k":"AVP","s":0.221},"geometry":{"type":"Polygon","coordinates":[[[2.65079,50.26285],[2.65068,50.26298],[2.65179,50.26316],[2.65247,50.26315],[2.65261,50.26298],[2.65079,50.26285]]]}},{"type":"Feature","properties":{"k":"JAC","s":0.021},"geometry":{"type":"Polygon","coordinates":[[[2.65093,50.26245],[2.65067,50.26271],[2.6511,50.26236],[2.65093,50.26245]]]}},{"type":"Feature","properties":{"k":"BTH","s":3.375},"geometry":{"type":"Polygon","coordinates":[[[2.65503,50.26267],[2.65756,50.26022],[2.65629,50.25987],[2.65336,50.26272],[2.65503,50.26267]]]}},{"type":"Feature","properties":{"k":"MIS","s":1.575},"geometry":{"type":"Polygon","coordinates":[[[2.65331,50.26275],[2.65628,50.25985],[2.65575,50.25974],[2.65253,50.26286],[2.65331,50.26275]]]}},{"type":"Feature","properties":{"k":"MIS","s":0.002},"geometry":{"type":"Polygon","coordinates":[[[2.65263,50.26076],[2.65261,50.26077],[2.65286,50.26087],[2.65263,50.26076]]]}},{"type":"Feature","properties":{"k":"CZH","s":2.815},"geometry":{"type":"Polygon","coordinates":[[[2.65073,50.26272],[2.65189,50.26291],[2.65253,50.26286],[2.65573,50.25975],[2.654,50.26142],[2.65261,50.26077],[2.65073,50.26272]]]}},{"type":"Feature","properties":{"k":"BOR","s":0.03},"geometry":{"type":"Polygon","coordinates":[[[2.694,50.26531],[2.69482,50.266],[2.69485,50.26596],[2.694,50.26531]]]}},{"type":"Feature","properties":{"k":"JAC","s":0.001},"geometry":{"type":"Polygon","coordinates":[[[2.69408,50.26524],[2.69419,50.26504],[2.69408,50.26522],[2.69408,50.26524]]]}},{"type":"Feature","properties":{"k":"BTH","s":2.171},"geometry":{"type":"Polygon","coordinates":[[[2.68992,50.26588],[2.6923,50.2631],[2.69151,50.26287],[2.68911,50.26562],[2.68992,50.26588]]]}},{"type":"Feature","properties":{"k":"BTH","s":18.287},"geometry":{"type":"Polygon","coordinates":[[[2.69473,50.2638],[2.6923,50.2631],[2.68993,50.26586],[2.69224,50.26653],[2.68978,50.26941],[2.69139,50.26988],[2.6946,50.27052],[2.69585,50.26909],[2.69282,50.26826],[2.69482,50.266],[2.69398,50.26532],[2.69473,50.2638]]]}},{"type":"Feature","properties":{"k":"BTH","s":31.788},"geometry":{"type":"Polygon","coordinates":[[[2.67908,50.26541],[2.68061,50.26575],[2.68018,50.26649],[2.68192,50.26681],[2.68137,50.26738],[2.68483,50.26809],[2.68542,50.26726],[2.6837,50.26715],[2.68195,50.26681],[2.6855,50.26719],[2.68695,50.26769],[2.68885,50.26798],[2.68724,50.2678],[2.68673,50.26848],[2.68978,50.26941],[2.69224,50.26653],[2.68911,50.26562],[2.6894,50.26528],[2.68212,50.26321],[2.68064,50.26398],[2.67908,50.26541]]]}},{"type":"Feature","properties":{"k":"BTH","s":14.568},"geometry":{"type":"Polygon","coordinates":[[[2.68525,50.26177],[2.68403,50.26261],[2.68214,50.2632],[2.68939,50.26527],[2.69151,50.26287],[2.68599,50.26131],[2.68548,50.26185],[2.68525,50.26177]]]}},{"type":"Feature","properties":{"k":"BOR","s":0.391},"geometry":{"type":"Polygon","coordinates":[[[2.68656,50.26047],[2.68583,50.26118],[2.69108,50.26269],[2.6859,50.26117],[2.68852,50.25916],[2.689,50.25853],[2.68656,50.26047]]]}},{"type":"Feature","properties":{"k":"PTC","s":12.023},"geometry":{"type":"Polygon","coordinates":[[[2.6859,50.26117],[2.69111,50.26265],[2.69337,50.25978],[2.69289,50.25953],[2.69224,50.26027],[2.68906,50.25856],[2.6859,50.26117]]]}},{"type":"Feature","properties":{"k":"BTN","s":1.222},"geometry":{"type":"Polygon","coordinates":[[[2.68937,50.25812],[2.69261,50.25983],[2.69288,50.25953],[2.68983,50.25785],[2.68937,50.25812]]]}},{"type":"Feature","properties":{"k":"BTN","s":1.093},"geometry":{"type":"Polygon","coordinates":[[[2.68913,50.25841],[2.69234,50.26014],[2.69261,50.25983],[2.68937,50.25812],[2.68913,50.25841]]]}},{"type":"Feature","properties":{"k":"MIS","s":0.43},"geometry":{"type":"Polygon","coordinates":[[[2.68899,50.25851],[2.69224,50.26027],[2.69233,50.26017],[2.6891,50.25838],[2.68899,50.25851]]]}},{"type":"Feature","properties":{"k":"BTH","s":5.418},"geometry":{"type":"Polygon","coordinates":[[[2.68759,50.25962],[2.68191,50.2559],[2.68108,50.25659],[2.68671,50.26024],[2.68759,50.25962]]]}},{"type":"Feature","properties":{"k":"PPH","s":2.502},"geometry":{"type":"Polygon","coordinates":[[[2.67625,50.26497],[2.6771,50.26413],[2.67379,50.26354],[2.673,50.26431],[2.67625,50.26497]]]}},{"type":"Feature","properties":{"k":"JAC","s":0.089},"geometry":{"type":"Polygon","coordinates":[[[2.66475,50.26422],[2.6677,50.26512],[2.66478,50.2642],[2.66475,50.26422]]]}},{"type":"Feature","properties":{"k":"JAC","s":0.041},"geometry":{"type":"Polygon","coordinates":[[[2.666,50.26329],[2.66556,50.26371],[2.66602,50.26331],[2.66712,50.26356],[2.666,50.26329]]]}},{"type":"Feature","properties":{"k":"JAC","s":0.223},"geometry":{"type":"Polygon","coordinates":[[[2.66998,50.26167],[2.66847,50.2627],[2.66856,50.26277],[2.67004,50.26175],[2.6708,50.262],[2.66998,50.26167]]]}},{"type":"Feature","properties":{"k":"BTN","s":14.438},"geometry":{"type":"Polygon","coordinates":[[[2.66794,50.26214],[2.67308,50.2585],[2.67172,50.258],[2.66987,50.25682],[2.66568,50.25973],[2.66794,50.26214]]]}},{"type":"Feature","properties":{"k":"JAC","s":0.013},"geometry":{"type":"Polygon","coordinates":[[[2.66319,50.26316],[2.66319,50.26315],[2.66291,50.26306],[2.66287,50.26315],[2.66319,50.26316]]]}},{"type":"Feature","properties":{"k":"PHF","s":12.484},"geometry":{"type":"Polygon","coordinates":[[[2.68908,50.25826],[2.68934,50.25763],[2.68359,50.25457],[2.68191,50.2559],[2.68759,50.25962],[2.68908,50.25826]]]}},{"type":"Feature","properties":{"k":"BTH","s":0.726},"geometry":{"type":"Polygon","coordinates":[[[2.6637,50.26056],[2.66339,50.26041],[2.66141,50.26232],[2.6617,50.26251],[2.6637,50.26056]]]}},{"type":"Feature","properties":{"k":"BTH","s":2.126},"geometry":{"type":"Polygon","coordinates":[[[2.66462,50.26103],[2.66369,50.26056],[2.6617,50.26252],[2.66265,50.26291],[2.66462,50.26103]]]}},{"type":"Feature","properties":{"k":"BTH","s":1.404},"geometry":{"type":"Polygon","coordinates":[[[2.66341,50.26317],[2.66521,50.26136],[2.6646,50.26105],[2.66266,50.2629],[2.66341,50.26317]]]}},{"type":"Feature","properties":{"k":"BTH","s":15.564},"geometry":{"type":"Polygon","coordinates":[[[2.66519,50.25938],[2.66472,50.25854],[2.66318,50.26002],[2.6606,50.25876],[2.65876,50.26056],[2.65995,50.26121],[2.66113,50.2621],[2.66305,50.26021],[2.66527,50.26132],[2.66342,50.26317],[2.66556,50.26371],[2.66602,50.26329],[2.66712,50.26356],[2.66823,50.26266],[2.66519,50.25938]]]}},{"type":"Feature","properties":{"k":"BTH","s":0.799},"geometry":{"type":"Polygon","coordinates":[[[2.66113,50.2621],[2.6614,50.26232],[2.66339,50.26041],[2.66304,50.26022],[2.66113,50.2621]]]}},{"type":"Feature","properties":{"k":"BTH","s":0.359},"geometry":{"type":"Polygon","coordinates":[[[2.65876,50.26057],[2.66059,50.25877],[2.66044,50.2587],[2.65855,50.2605],[2.65876,50.26057]]]}},{"type":"Feature","properties":{"k":"BTH","s":0.887},"geometry":{"type":"Polygon","coordinates":[[[2.66008,50.25843],[2.65813,50.26034],[2.65855,50.2605],[2.66044,50.25869],[2.66008,50.25843]]]}},{"type":"Feature","properties":{"k":"CZH","s":7.861},"geometry":{"type":"Polygon","coordinates":[[[2.66022,50.2615],[2.65887,50.26074],[2.65757,50.26023],[2.65504,50.26268],[2.6588,50.26263],[2.66166,50.26316],[2.66287,50.26315],[2.66291,50.26306],[2.66166,50.26261],[2.66022,50.2615]]]}},{"type":"Feature","properties":{"k":"JAC","s":0.204},"geometry":{"type":"Polygon","coordinates":[[[2.66117,50.26483],[2.66174,50.26504],[2.66201,50.26469],[2.66145,50.26448],[2.66117,50.26483]]]}},{"type":"Feature","properties":{"k":"PTC","s":2.328},"geometry":{"type":"Polygon","coordinates":[[[2.66201,50.26469],[2.66315,50.26324],[2.66069,50.26309],[2.65993,50.26393],[2.66201,50.26469]]]}},{"type":"Feature","properties":{"k":"ORH","s":8.116},"geometry":{"type":"Polygon","coordinates":[[[2.66167,50.26519],[2.66531,50.26652],[2.66556,50.26657],[2.66768,50.26513],[2.66475,50.26422],[2.66532,50.26376],[2.6634,50.26328],[2.66323,50.26341],[2.66321,50.26341],[2.66334,50.26327],[2.66303,50.2634],[2.66167,50.26519]]]}},{"type":"Feature","properties":{"k":"MSW","s":0.021},"geometry":{"type":"Polygon","coordinates":[[[2.6648,50.26639],[2.66454,50.26633],[2.66549,50.2667],[2.6648,50.26639]]]}},{"type":"Feature","properties":{"k":"CZH","s":8.997},"geometry":{"type":"Polygon","coordinates":[[[2.65619,50.2685],[2.65534,50.26956],[2.65736,50.26985],[2.6613,50.26488],[2.65958,50.26434],[2.65619,50.2685]]]}},{"type":"Feature","properties":{"k":"BTH","s":13.868},"geometry":{"type":"Polygon","coordinates":[[[2.65549,50.26285],[2.65328,50.26555],[2.6574,50.26692],[2.65954,50.26429],[2.65936,50.26423],[2.66031,50.26302],[2.65864,50.26274],[2.65549,50.26285]]]}},{"type":"Feature","properties":{"k":"BTH","s":3.264},"geometry":{"type":"Polygon","coordinates":[[[2.65144,50.26778],[2.65549,50.26282],[2.65468,50.26278],[2.65087,50.26762],[2.65144,50.26778]]]}},{"type":"Feature","properties":{"k":"BTN","s":2.903},"geometry":{"type":"Polygon","coordinates":[[[2.65323,50.26562],[2.65146,50.26778],[2.65257,50.26845],[2.65448,50.26603],[2.65323,50.26562]]]}},{"type":"Feature","properties":{"k":"BTN","s":2.079},"geometry":{"type":"Polygon","coordinates":[[[2.66072,50.25622],[2.66258,50.25693],[2.66342,50.25644],[2.66292,50.25501],[2.66072,50.25622]]]}},{"type":"Feature","properties":{"k":"BTH","s":0.005},"geometry":{"type":"MultiPolygon","coordinates":[]}},{"type":"Feature","properties":{"k":"BTH","s":6.338},"geometry":{"type":"Polygon","coordinates":[[[2.66347,50.25656],[2.66006,50.25835],[2.66297,50.25993],[2.66463,50.25836],[2.66347,50.25656]]]}},{"type":"Feature","properties":{"k":"BTH","s":12.881},"geometry":{"type":"MultiPolygon","coordinates":[[[[2.6835,50.2545],[2.67888,50.25207],[2.67613,50.25409],[2.68093,50.2566],[2.6835,50.2545]]]]}},{"type":"Feature","properties":{"k":"MIS","s":3.761},"geometry":{"type":"Polygon","coordinates":[[[2.67826,50.25596],[2.67793,50.2568],[2.67684,50.25805],[2.6781,50.25887],[2.68034,50.25708],[2.67826,50.25596]]]}},{"type":"Feature","properties":{"k":"BTH","s":1.457},"geometry":{"type":"Polygon","coordinates":[[[2.68093,50.2566],[2.67823,50.25517],[2.67826,50.25596],[2.68037,50.25707],[2.68093,50.2566]]]}},{"type":"Feature","properties":{"k":"PTC","s":4.205},"geometry":{"type":"Polygon","coordinates":[[[2.68427,50.25972],[2.68587,50.26092],[2.68671,50.26024],[2.68108,50.25659],[2.68064,50.25695],[2.68427,50.25972]]]}},{"type":"Feature","properties":{"k":"LIF","s":13.508},"geometry":{"type":"Polygon","coordinates":[[[2.67165,50.25561],[2.67665,50.25821],[2.67805,50.25639],[2.67815,50.25515],[2.6748,50.25339],[2.67165,50.25561]]]}},{"type":"Feature","properties":{"k":"PHF","s":25.273},"geometry":{"type":"Polygon","coordinates":[[[2.67313,50.26326],[2.67479,50.26161],[2.67747,50.25945],[2.67687,50.25899],[2.67704,50.25876],[2.67679,50.25836],[2.6716,50.25562],[2.66987,50.25682],[2.67172,50.258],[2.67308,50.2585],[2.66794,50.26214],[2.66847,50.2627],[2.67008,50.26166],[2.67313,50.26326]]]}},{"type":"Feature","properties":{"k":"PPH","s":3.033},"geometry":{"type":"Polygon","coordinates":[[[2.6707,50.26207],[2.67047,50.26364],[2.67014,50.26422],[2.67087,50.26435],[2.67098,50.2642],[2.67196,50.26437],[2.6731,50.26324],[2.6707,50.26207]]]}},{"type":"Feature","properties":{"k":"LIF","s":10.741},"geometry":{"type":"Polygon","coordinates":[[[2.68062,50.26385],[2.68207,50.26311],[2.67994,50.26121],[2.67795,50.26323],[2.67396,50.26251],[2.67249,50.26396],[2.6731,50.2642],[2.67378,50.26353],[2.67712,50.26411],[2.67931,50.26494],[2.68062,50.26385]]]}},{"type":"Feature","properties":{"k":"BTH","s":5.432},"geometry":{"type":"Polygon","coordinates":[[[2.67795,50.26323],[2.67897,50.26218],[2.67619,50.26064],[2.67396,50.26251],[2.67795,50.26323]]]}},{"type":"Feature","properties":{"k":"PTC","s":2.499},"geometry":{"type":"Polygon","coordinates":[[[2.67619,50.26064],[2.67897,50.26218],[2.67948,50.26168],[2.67726,50.25975],[2.67619,50.26064]]]}},{"type":"Feature","properties":{"k":"PTC","s":1.579},"geometry":{"type":"Polygon","coordinates":[[[2.67866,50.26001],[2.67778,50.2593],[2.67726,50.25975],[2.67948,50.26167],[2.67995,50.26121],[2.67866,50.26001]]]}},{"type":"Feature","properties":{"k":"MIS","s":0.9},"geometry":{"type":"Polygon","coordinates":[[[2.68096,50.2619],[2.68213,50.26308],[2.68244,50.26299],[2.67795,50.25917],[2.6778,50.2593],[2.68096,50.2619]]]}},{"type":"Feature","properties":{"k":"BTH","s":4.822},"geometry":{"type":"Polygon","coordinates":[[[2.6836,50.26262],[2.67871,50.25857],[2.67795,50.25917],[2.68244,50.26299],[2.6836,50.26262]]]}},{"type":"Feature","properties":{"k":"BTN","s":6.101},"geometry":{"type":"Polygon","coordinates":[[[2.68474,50.26203],[2.67964,50.25777],[2.67871,50.25857],[2.6836,50.26262],[2.68474,50.26203]]]}},{"type":"Feature","properties":{"k":"BTH","s":7.569},"geometry":{"type":"Polygon","coordinates":[[[2.67964,50.25777],[2.68474,50.26203],[2.68587,50.26092],[2.68065,50.25696],[2.67964,50.25777]]]}},{"type":"Feature","properties":{"k":"BTH","s":0.371},"geometry":{"type":"Polygon","coordinates":[[[2.66463,50.25836],[2.66296,50.25994],[2.66318,50.26002],[2.66472,50.25854],[2.66463,50.25836]]]}},{"type":"Feature","properties":{"k":"JAC","s":0.055},"geometry":{"type":"Polygon","coordinates":[[[2.67712,50.26411],[2.6771,50.26413],[2.67928,50.26497],[2.67712,50.26411]]]}},{"type":"Feature","properties":{"k":"EPI","s":1.851},"geometry":{"type":"Polygon","coordinates":[[[2.67058,50.25114],[2.66797,50.25296],[2.66812,50.25311],[2.66913,50.25241],[2.66992,50.25285],[2.67158,50.25169],[2.67058,50.25114]]]}},{"type":"Feature","properties":{"k":"SOG","s":0.5},"geometry":{"type":"Polygon","coordinates":[[[2.66812,50.25311],[2.66829,50.25323],[2.66911,50.25263],[2.66947,50.25284],[2.66863,50.25347],[2.66884,50.2536],[2.66992,50.25285],[2.66913,50.25241],[2.66812,50.25311]]]}},{"type":"Feature","properties":{"k":"PHF","s":4.636},"geometry":{"type":"Polygon","coordinates":[[[2.6734,50.25264],[2.67158,50.25169],[2.66902,50.25348],[2.67076,50.25451],[2.6734,50.25264]]]}},{"type":"Feature","properties":{"k":"CZH","s":0.001},"geometry":{"type":"Polygon","coordinates":[]}},{"type":"Feature","properties":{"k":"BTH","s":1.523},"geometry":{"type":"Polygon","coordinates":[[[2.65968,50.25687],[2.66139,50.25755],[2.66255,50.25692],[2.66061,50.25628],[2.65968,50.25687]]]}},{"type":"Feature","properties":{"k":"LIF","s":3.654},"geometry":{"type":"Polygon","coordinates":[[[2.66488,50.25856],[2.66858,50.25591],[2.66762,50.25532],[2.66435,50.25761],[2.66488,50.25856]]]}},{"type":"Feature","properties":{"k":"BTN","s":11.933},"geometry":{"type":"Polygon","coordinates":[[[2.66568,50.25973],[2.67479,50.25338],[2.6734,50.25264],[2.66496,50.25859],[2.66568,50.25973]]]}},{"type":"Feature","properties":{"k":"ORH","s":4.677},"geometry":{"type":"Polygon","coordinates":[[[2.66393,50.25698],[2.66884,50.2536],[2.66797,50.25296],[2.66344,50.25617],[2.66393,50.25698]]]}},{"type":"Feature","properties":{"k":"BTH","s":0.001},"geometry":{"type":"Polygon","coordinates":[[[2.67371,50.25281],[2.6734,50.25264],[2.6734,50.25265],[2.67371,50.25281]]]}},{"type":"Feature","properties":{"k":"BTN","s":3.526},"geometry":{"type":"Polygon","coordinates":[[[2.66862,50.25591],[2.6707,50.25447],[2.669,50.2535],[2.66696,50.25492],[2.66862,50.25591]]]}},{"type":"Feature","properties":{"k":"BTH","s":2.161},"geometry":{"type":"Polygon","coordinates":[[[2.66437,50.2576],[2.66762,50.25531],[2.66696,50.25492],[2.66394,50.25699],[2.66437,50.2576]]]}},{"type":"Feature","properties":{"k":"BTH","s":0.0},"geometry":{"type":"Polygon","coordinates":[]}},{"type":"Feature","properties":{"k":"MIS","s":1.595},"geometry":{"type":"Polygon","coordinates":[[[2.66139,50.25755],[2.65968,50.25687],[2.65862,50.25774],[2.65997,50.25827],[2.66139,50.25755]]]}}]}