{"type":"FeatureCollection","features":[{"type":"Feature","properties":{"k":"BTH","s":4.853},"geometry":{"type":"Polygon","coordinates":[[[2.25393,50.72661],[2.25557,50.72721],[2.25539,50.72769],[2.25656,50.7283],[2.25769,50.72712],[2.25818,50.72629],[2.25454,50.72553],[2.25393,50.72661]]]}},{"type":"Feature","properties":{"k":"BTH","s":5.879},"geometry":{"type":"Polygon","coordinates":[[[2.26151,50.72704],[2.25959,50.7264],[2.25927,50.72687],[2.25817,50.72663],[2.25752,50.72746],[2.25895,50.72806],[2.26417,50.72759],[2.26355,50.72624],[2.26169,50.72651],[2.26151,50.72704]]]}},{"type":"Feature","properties":{"k":"LIF","s":2.826},"geometry":{"type":"Polygon","coordinates":[[[2.2589,50.72543],[2.25817,50.72663],[2.25927,50.72687],[2.25985,50.7259],[2.26155,50.72517],[2.26112,50.72416],[2.2589,50.72543]]]}},{"type":"Feature","properties":{"k":"BTN","s":7.212},"geometry":{"type":"Polygon","coordinates":[[[2.25564,50.72266],[2.26161,50.72391],[2.26338,50.7237],[2.26344,50.7236],[2.26026,50.72292],[2.26097,50.72204],[2.2567,50.72115],[2.25564,50.72266]]]}},{"type":"Feature","properties":{"k":"BTH","s":15.36},"geometry":{"type":"Polygon","coordinates":[[[2.25205,50.72517],[2.2543,50.72575],[2.25553,50.72265],[2.25678,50.72088],[2.25046,50.71943],[2.25006,50.72121],[2.25038,50.72143],[2.25346,50.7221],[2.25205,50.72517]]]}},{"type":"Feature","properties":{"k":"MIS","s":6.665},"geometry":{"type":"Polygon","coordinates":[[[2.25209,50.72503],[2.25346,50.72211],[2.25012,50.72145],[2.24994,50.72431],[2.25209,50.72503]]]}},{"type":"Feature","properties":{"k":"BTN","s":2.195},"geometry":{"type":"Polygon","coordinates":[[[2.28637,50.72234],[2.28634,50.72298],[2.28743,50.72402],[2.28752,50.72435],[2.28807,50.72408],[2.28786,50.72307],[2.28819,50.72253],[2.28679,50.72176],[2.28637,50.72234]]]}},{"type":"Feature","properties":{"k":"ORH","s":2.363},"geometry":{"type":"Polygon","coordinates":[[[2.26519,50.72938],[2.26436,50.72786],[2.26319,50.72785],[2.26384,50.72989],[2.26581,50.72996],[2.26519,50.72938]]]}},{"type":"Feature","properties":{"k":"MIS","s":5.236},"geometry":{"type":"Polygon","coordinates":[[[2.25924,50.72818],[2.26001,50.7291],[2.26155,50.72961],[2.26382,50.73011],[2.26594,50.73006],[2.26381,50.72995],[2.26306,50.72785],[2.26233,50.72782],[2.25924,50.72818]]]}},{"type":"Feature","properties":{"k":"JAC","s":0.06},"geometry":{"type":"Polygon","coordinates":[[[2.27914,50.72609],[2.27824,50.7258],[2.27917,50.72615],[2.27945,50.72578],[2.27914,50.72609]]]}},{"type":"Feature","properties":{"k":"MIS","s":0.873},"geometry":{"type":"Polygon","coordinates":[[[2.27761,50.72705],[2.27784,50.72715],[2.2776,50.72715],[2.27732,50.72774],[2.27762,50.72787],[2.27794,50.72759],[2.2793,50.72709],[2.27781,50.72657],[2.27761,50.72705]]]}},{"type":"Feature","properties":{"k":"JAC","s":0.033},"geometry":{"type":"Polygon","coordinates":[[[2.27985,50.72734],[2.27992,50.7273],[2.2793,50.72709],[2.27922,50.72717],[2.27985,50.72734]]]}},{"type":"Feature","properties":{"k":"PTC","s":1.067},"geometry":{"type":"Polygon","coordinates":[[[2.27929,50.72428],[2.28048,50.72472],[2.28136,50.72383],[2.27997,50.72348],[2.27929,50.72428]]]}},{"type":"Feature","properties":{"k":"JAC","s":0.207},"geometry":{"type":"Polygon","coordinates":[[[2.27814,50.72562],[2.27847,50.72513],[2.27813,50.725],[2.27768,50.72547],[2.27814,50.72562]]]}},{"type":"Feature","properties":{"k":"BTH","s":5.136},"geometry":{"type":"Polygon","coordinates":[[[2.27696,50.72434],[2.27363,50.72325],[2.27233,50.7232],[2.2726,50.72408],[2.27447,50.72446],[2.27391,50.72534],[2.27506,50.72647],[2.27696,50.72434]]]}},{"type":"Feature","properties":{"k":"BTH","s":5.487},"geometry":{"type":"Polygon","coordinates":[[[2.27689,50.72425],[2.27785,50.72287],[2.27624,50.72257],[2.27376,50.72172],[2.27339,50.72195],[2.27279,50.72188],[2.27259,50.72228],[2.27219,50.72218],[2.27228,50.72289],[2.2737,50.72307],[2.27376,50.72325],[2.27689,50.72425]]]}},{"type":"Feature","properties":{"k":"PPH","s":1.127},"geometry":{"type":"Polygon","coordinates":[[[2.27696,50.7227],[2.27724,50.72191],[2.27754,50.72183],[2.27671,50.72174],[2.27659,50.7219],[2.2755,50.72159],[2.27507,50.72213],[2.27696,50.7227]]]}},{"type":"Feature","properties":{"k":"PTC","s":3.656},"geometry":{"type":"Polygon","coordinates":[[[2.28116,50.7264],[2.28333,50.7246],[2.28133,50.72398],[2.27945,50.72578],[2.28116,50.7264]]]}},{"type":"Feature","properties":{"k":"PPH","s":0.358},"geometry":{"type":"Polygon","coordinates":[[[2.28716,50.72062],[2.28603,50.72032],[2.28595,50.72045],[2.28628,50.72067],[2.28726,50.72118],[2.28737,50.72107],[2.28734,50.72106],[2.28725,50.72102],[2.28713,50.72097],[2.28729,50.72079],[2.28716,50.72062]]]}},{"type":"Feature","properties":{"k":"PPH","s":0.386},"geometry":{"type":"Polygon","coordinates":[[[2.2769,50.72091],[2.27603,50.72065],[2.27571,50.72098],[2.27668,50.72146],[2.2769,50.72091]]]}},{"type":"Feature","properties":{"k":"PPH","s":1.007},"geometry":{"type":"Polygon","coordinates":[[[2.27582,50.72103],[2.27544,50.72141],[2.27478,50.72098],[2.27462,50.72126],[2.27407,50.7211],[2.27374,50.7217],[2.27505,50.72214],[2.27594,50.72109],[2.27582,50.72103]]]}},{"type":"Feature","properties":{"k":"PTR","s":0.539},"geometry":{"type":"Polygon","coordinates":[[[2.29173,50.71498],[2.29233,50.71497],[2.29353,50.71422],[2.29149,50.71456],[2.29173,50.71498]]]}},{"type":"Feature","properties":{"k":"JAC","s":0.397},"geometry":{"type":"Polygon","coordinates":[[[2.29142,50.71771],[2.29105,50.7176],[2.29254,50.71873],[2.29272,50.71846],[2.29219,50.71828],[2.29237,50.71804],[2.29142,50.71771]]]}},{"type":"Feature","properties":{"k":"PPH","s":1.656},"geometry":{"type":"Polygon","coordinates":[[[2.29744,50.71816],[2.29706,50.72034],[2.2992,50.71918],[2.29744,50.71816]]]}},{"type":"Feature","properties":{"k":"LIF","s":3.348},"geometry":{"type":"Polygon","coordinates":[[[2.29444,50.71622],[2.29488,50.71644],[2.29505,50.71609],[2.29584,50.71641],[2.29711,50.71512],[2.2952,50.71466],[2.29453,50.71464],[2.29334,50.71525],[2.29355,50.7155],[2.29302,50.71574],[2.29456,50.71564],[2.29444,50.71622]]]}},{"type":"Feature","properties":{"k":"BTH","s":2.161},"geometry":{"type":"Polygon","coordinates":[[[2.29816,50.71439],[2.29665,50.71395],[2.29526,50.71393],[2.29458,50.71445],[2.29713,50.71499],[2.29734,50.71517],[2.29801,50.7149],[2.29816,50.71439]]]}},{"type":"Feature","properties":{"k":"LIF","s":2.145},"geometry":{"type":"Polygon","coordinates":[[[2.29568,50.71672],[2.29654,50.7173],[2.29854,50.71514],[2.29835,50.71492],[2.29805,50.71491],[2.29734,50.71517],[2.29568,50.71672]]]}},{"type":"Feature","properties":{"k":"LIF","s":2.472},"geometry":{"type":"Polygon","coordinates":[[[2.29625,50.71326],[2.29658,50.71376],[2.2984,50.71428],[2.29921,50.71419],[2.29809,50.71233],[2.29625,50.71326]]]}},{"type":"Feature","properties":{"k":"LIF","s":4.247},"geometry":{"type":"Polygon","coordinates":[[[2.29083,50.71301],[2.29195,50.71362],[2.29324,50.71393],[2.29381,50.71394],[2.29593,50.71303],[2.29494,50.71205],[2.29083,50.71301]]]}},{"type":"Feature","properties":{"k":"MIS","s":1.888},"geometry":{"type":"Polygon","coordinates":[[[2.2957,50.71049],[2.29343,50.71059],[2.29382,50.71113],[2.29513,50.71208],[2.29582,50.71168],[2.2957,50.71049]]]}},{"type":"Feature","properties":{"k":"MIS","s":1.69},"geometry":{"type":"Polygon","coordinates":[[[2.27289,50.72716],[2.27279,50.72689],[2.27309,50.72684],[2.27338,50.72648],[2.27075,50.72561],[2.2703,50.7263],[2.27289,50.72716]]]}},{"type":"Feature","properties":{"k":"PTC","s":2.397},"geometry":{"type":"Polygon","coordinates":[[[2.27453,50.72645],[2.27362,50.7262],[2.27199,50.72869],[2.27305,50.72902],[2.27453,50.72645]]]}},{"type":"Feature","properties":{"k":"PPH","s":2.709},"geometry":{"type":"Polygon","coordinates":[[[2.26835,50.72644],[2.26657,50.72573],[2.26582,50.72662],[2.26652,50.72714],[2.26625,50.72767],[2.26734,50.72823],[2.26835,50.72644]]]}},{"type":"Feature","properties":{"k":"ORP","s":8.5},"geometry":{"type":"Polygon","coordinates":[[[2.25483,50.72476],[2.25865,50.72557],[2.25913,50.72515],[2.26152,50.72391],[2.25566,50.72267],[2.25483,50.72476]]]}},{"type":"Feature","properties":{"k":"BTH","s":2.459},"geometry":{"type":"Polygon","coordinates":[[[2.25483,50.72476],[2.25454,50.72553],[2.25818,50.72629],[2.25861,50.72564],[2.25483,50.72476]]]}},{"type":"Feature","properties":{"k":"BTH","s":2.204},"geometry":{"type":"Polygon","coordinates":[[[2.27075,50.72561],[2.27339,50.72648],[2.27372,50.72551],[2.27298,50.72489],[2.27268,50.72507],[2.27086,50.72512],[2.27075,50.72561]]]}},{"type":"Feature","properties":{"k":"MIS","s":0.326},"geometry":{"type":"Polygon","coordinates":[[[2.26417,50.72759],[2.25895,50.72806],[2.26428,50.72765],[2.26358,50.72629],[2.26417,50.72759]]]}},{"type":"Feature","properties":{"k":"MIS","s":2.553},"geometry":{"type":"Polygon","coordinates":[[[2.27085,50.72512],[2.2694,50.72518],[2.26927,50.7256],[2.2681,50.72535],[2.26765,50.72603],[2.2699,50.72681],[2.27085,50.72512]]]}},{"type":"Feature","properties":{"k":"JAC","s":0.036},"geometry":{"type":"Polygon","coordinates":[[[2.27745,50.7266],[2.27749,50.72658],[2.27606,50.72604],[2.27745,50.7266]]]}},{"type":"Feature","properties":{"k":"MIS","s":3.356},"geometry":{"type":"Polygon","coordinates":[[[2.27011,50.72512],[2.27268,50.72507],[2.27272,50.72483],[2.27217,50.72481],[2.27218,50.72471],[2.27258,50.72467],[2.27013,50.72292],[2.26921,50.72473],[2.27011,50.72512]]]}},{"type":"Feature","properties":{"k":"JAC","s":1.104},"geometry":{"type":"Polygon","coordinates":[[[2.2589,50.71715],[2.25776,50.71664],[2.25624,50.71622],[2.25587,50.7167],[2.25873,50.71746],[2.2589,50.71715]]]}},{"type":"Feature","properties":{"k":"ORH","s":1.354},"geometry":{"type":"Polygon","coordinates":[[[2.25727,50.71588],[2.25951,50.71673],[2.26005,50.71639],[2.25772,50.71541],[2.25872,50.71443],[2.25857,50.71437],[2.25727,50.71588]]]}},{"type":"Feature","properties":{"k":"MIS","s":2.29},"geometry":{"type":"Polygon","coordinates":[[[2.26005,50.71639],[2.26089,50.71593],[2.25991,50.71549],[2.26023,50.71504],[2.25872,50.71443],[2.25772,50.71541],[2.26005,50.71639]]]}},{"type":"Feature","properties":{"k":"PPH","s":1.69},"geometry":{"type":"Polygon","coordinates":[[[2.26142,50.7159],[2.26166,50.71608],[2.26104,50.71633],[2.26036,50.71698],[2.26186,50.71748],[2.26205,50.71722],[2.26251,50.71736],[2.26308,50.71662],[2.26142,50.7159]]]}},{"type":"Feature","properties":{"k":"BTH","s":2.679},"geometry":{"type":"Polygon","coordinates":[[[2.26445,50.71718],[2.26515,50.71651],[2.26437,50.71587],[2.26323,50.71553],[2.26233,50.71542],[2.2616,50.71567],[2.26142,50.7159],[2.26445,50.71718]]]}},{"type":"Feature","properties":{"k":"PPH","s":1.132},"geometry":{"type":"Polygon","coordinates":[[[2.26493,50.71836],[2.26371,50.71796],[2.26353,50.71818],[2.26422,50.71839],[2.26468,50.71892],[2.26522,50.71899],[2.26604,50.7187],[2.26618,50.71834],[2.26525,50.71794],[2.26493,50.71836]]]}},{"type":"Feature","properties":{"k":"PPH","s":0.366},"geometry":{"type":"Polygon","coordinates":[[[2.26452,50.71972],[2.26555,50.71924],[2.26569,50.71931],[2.26588,50.71902],[2.26532,50.71916],[2.26485,50.71907],[2.26415,50.71954],[2.26452,50.71972]]]}},{"type":"Feature","properties":{"k":"MIS","s":0.742},"geometry":{"type":"Polygon","coordinates":[[[2.261,50.71999],[2.26163,50.7202],[2.26252,50.71896],[2.26184,50.71882],[2.261,50.71999]]]}},{"type":"Feature","properties":{"k":"BTN","s":5.835},"geometry":{"type":"Polygon","coordinates":[[[2.26451,50.72155],[2.26347,50.72132],[2.26365,50.72098],[2.26284,50.72081],[2.26295,50.72048],[2.26175,50.721],[2.26026,50.72292],[2.26344,50.7236],[2.26451,50.72155]]]}},{"type":"Feature","properties":{"k":"LIF","s":1.536},"geometry":{"type":"Polygon","coordinates":[[[2.2635,50.72441],[2.26336,50.72391],[2.26222,50.72386],[2.26128,50.72409],[2.26155,50.72517],[2.2635,50.72441]]]}},{"type":"Feature","properties":{"k":"MIS","s":1.711},"geometry":{"type":"Polygon","coordinates":[[[2.26765,50.72523],[2.26785,50.72472],[2.26351,50.72402],[2.26364,50.72449],[2.26765,50.72523]]]}},{"type":"Feature","properties":{"k":"PHF","s":11.179},"geometry":{"type":"Polygon","coordinates":[[[2.26778,50.72209],[2.26654,50.72186],[2.26638,50.72222],[2.26507,50.72196],[2.26495,50.72219],[2.2644,50.72207],[2.2635,50.72372],[2.26351,50.72402],[2.26823,50.72478],[2.26922,50.72473],[2.27013,50.72292],[2.26797,50.72166],[2.26778,50.72209]]]}},{"type":"Feature","properties":{"k":"MIS","s":1.753},"geometry":{"type":"Polygon","coordinates":[[[2.26844,50.72166],[2.27018,50.72265],[2.27045,50.72211],[2.27205,50.72232],[2.27202,50.72137],[2.27086,50.72181],[2.26859,50.72136],[2.26844,50.72166]]]}},{"type":"Feature","properties":{"k":"PPH","s":0.206},"geometry":{"type":"Polygon","coordinates":[[[2.27159,50.72293],[2.27159,50.72267],[2.27064,50.7227],[2.27071,50.72297],[2.27159,50.72293]]]}},{"type":"Feature","properties":{"k":"PPH","s":0.266},"geometry":{"type":"Polygon","coordinates":[[[2.27196,50.72381],[2.27248,50.72416],[2.27224,50.7234],[2.27138,50.7234],[2.27196,50.72381]]]}},{"type":"Feature","properties":{"k":"ORH","s":2.154},"geometry":{"type":"Polygon","coordinates":[[[2.24916,50.71096],[2.2498,50.71106],[2.24822,50.71046],[2.24691,50.71251],[2.24801,50.71286],[2.24916,50.71096]]]}},{"type":"Feature","properties":{"k":"BTH","s":3.389},"geometry":{"type":"Polygon","coordinates":[[[2.27124,50.70893],[2.27383,50.7093],[2.27474,50.70834],[2.27412,50.70788],[2.27283,50.70777],[2.27078,50.7079],[2.27124,50.70893]]]}},{"type":"Feature","properties":{"k":"PPH","s":1.679},"geometry":{"type":"Polygon","coordinates":[[[2.27096,50.70923],[2.27095,50.70947],[2.27209,50.7097],[2.27192,50.71018],[2.27344,50.71056],[2.27383,50.70932],[2.27232,50.70915],[2.27218,50.70944],[2.27096,50.70923]]]}},{"type":"Feature","properties":{"k":"PPH","s":1.269},"geometry":{"type":"Polygon","coordinates":[[[2.27024,50.70744],[2.26996,50.7075],[2.26994,50.70785],[2.26976,50.70787],[2.2705,50.70857],[2.27041,50.70916],[2.27217,50.70943],[2.27217,50.7091],[2.27124,50.70893],[2.27073,50.7079],[2.27024,50.70744]]]}},{"type":"Feature","properties":{"k":"BTH","s":1.453},"geometry":{"type":"Polygon","coordinates":[[[2.26955,50.70796],[2.26793,50.70807],[2.26795,50.70883],[2.27036,50.7089],[2.26955,50.70796]]]}},{"type":"Feature","properties":{"k":"PPH","s":2.736},"geometry":{"type":"Polygon","coordinates":[[[2.26778,50.70881],[2.26758,50.70892],[2.26743,50.70977],[2.27031,50.71043],[2.27036,50.7089],[2.26778,50.70881]]]}},{"type":"Feature","properties":{"k":"PPH","s":2.715},"geometry":{"type":"Polygon","coordinates":[[[2.2678,50.71067],[2.26759,50.71117],[2.26843,50.71152],[2.26866,50.71139],[2.26899,50.71169],[2.26946,50.7118],[2.27019,50.71048],[2.26727,50.70981],[2.26696,50.71052],[2.2678,50.71067]]]}},{"type":"Feature","properties":{"k":"PPH","s":0.449},"geometry":{"type":"Polygon","coordinates":[[[2.26918,50.71227],[2.2693,50.71211],[2.26726,50.7114],[2.26707,50.71138],[2.267,50.71165],[2.26918,50.71227]]]}},{"type":"Feature","properties":{"k":"MIS","s":1.755},"geometry":{"type":"Polygon","coordinates":[[[2.26547,50.71329],[2.26633,50.71235],[2.26573,50.71219],[2.26598,50.71155],[2.26525,50.71139],[2.26401,50.71304],[2.26547,50.71329]]]}},{"type":"Feature","properties":{"k":"PPH","s":3.379},"geometry":{"type":"Polygon","coordinates":[[[2.26331,50.71411],[2.2632,50.7138],[2.26346,50.71343],[2.26512,50.71374],[2.26546,50.71333],[2.26388,50.71302],[2.26371,50.71271],[2.26255,50.71231],[2.26069,50.71333],[2.26212,50.71416],[2.26331,50.71411]]]}},{"type":"Feature","properties":{"k":"BTA","s":0.271},"geometry":{"type":"Polygon","coordinates":[[[2.25869,50.71282],[2.25874,50.71319],[2.25895,50.71338],[2.25989,50.71357],[2.26182,50.71459],[2.26308,50.71505],[2.25993,50.71352],[2.259,50.71333],[2.25877,50.71279],[2.25839,50.71269],[2.25869,50.71282]]]}},{"type":"Feature","properties":{"k":"PPH","s":1.325},"geometry":{"type":"Polygon","coordinates":[[[2.25849,50.71254],[2.25893,50.71273],[2.2592,50.71327],[2.26019,50.71345],[2.26218,50.71451],[2.26153,50.71387],[2.26081,50.71364],[2.26056,50.7133],[2.25896,50.71243],[2.2584,50.71173],[2.25783,50.71168],[2.25849,50.71254]]]}},{"type":"Feature","properties":{"k":"BTH","s":7.913},"geometry":{"type":"Polygon","coordinates":[[[2.25989,50.71357],[2.25895,50.71338],[2.25869,50.71282],[2.25831,50.71266],[2.25709,50.71368],[2.2564,50.71327],[2.25562,50.71398],[2.25516,50.7138],[2.25466,50.71438],[2.25522,50.71444],[2.25596,50.7148],[2.2567,50.71549],[2.25708,50.71516],[2.25757,50.71536],[2.25858,50.71436],[2.2616,50.71553],[2.26293,50.71503],[2.25989,50.71357]]]}},{"type":"Feature","properties":{"k":"MIS","s":1.368},"geometry":{"type":"Polygon","coordinates":[[[2.25785,50.71202],[2.25742,50.71199],[2.25593,50.71292],[2.25675,50.71337],[2.25722,50.713],[2.25761,50.71321],[2.25825,50.71268],[2.25785,50.71202]]]}},{"type":"Feature","properties":{"k":"BTA","s":0.082},"geometry":{"type":"Polygon","coordinates":[[[2.25805,50.71225],[2.25825,50.71268],[2.25812,50.71215],[2.25795,50.71195],[2.25763,50.71193],[2.25805,50.71225]]]}},{"type":"Feature","properties":{"k":"BTA","s":0.171},"geometry":{"type":"Polygon","coordinates":[[[2.25421,50.7096],[2.25677,50.71006],[2.25423,50.70956],[2.25355,50.70905],[2.25242,50.70887],[2.2532,50.70903],[2.25421,50.7096]]]}},{"type":"Feature","properties":{"k":"MIS","s":9.052},"geometry":{"type":"Polygon","coordinates":[[[2.25421,50.7096],[2.2535,50.70909],[2.25242,50.70887],[2.25185,50.70925],[2.25062,50.70851],[2.24973,50.70881],[2.24949,50.70916],[2.24999,50.70939],[2.25014,50.70967],[2.25127,50.71023],[2.25164,50.71027],[2.25353,50.71153],[2.25432,50.71181],[2.25543,50.71183],[2.25645,50.7109],[2.25677,50.71006],[2.25421,50.7096]]]}},{"type":"Feature","properties":{"k":"PPH","s":1.003},"geometry":{"type":"Polygon","coordinates":[[[2.25036,50.71012],[2.24911,50.70989],[2.24864,50.71002],[2.24834,50.71037],[2.2498,50.71097],[2.25036,50.71012]]]}},{"type":"Feature","properties":{"k":"BTH","s":1.011},"geometry":{"type":"Polygon","coordinates":[[[2.24974,50.71112],[2.24916,50.71096],[2.24801,50.71286],[2.24859,50.71302],[2.24974,50.71112]]]}},{"type":"Feature","properties":{"k":"BTA","s":0.278},"geometry":{"type":"Polygon","coordinates":[[[2.254,50.71182],[2.25499,50.7119],[2.25543,50.71183],[2.25405,50.71176],[2.25164,50.71027],[2.25216,50.71082],[2.254,50.71182]]]}},{"type":"Feature","properties":{"k":"JAC","s":0.266},"geometry":{"type":"Polygon","coordinates":[[[2.25423,50.71425],[2.25466,50.71437],[2.25516,50.7138],[2.25471,50.71363],[2.25423,50.71425]]]}},{"type":"Feature","properties":{"k":"LIF","s":6.953},"geometry":{"type":"Polygon","coordinates":[[[2.25326,50.72007],[2.25519,50.71757],[2.25235,50.7169],[2.25105,50.71813],[2.25046,50.71943],[2.25326,50.72007]]]}},{"type":"Feature","properties":{"k":"PTC","s":5.703},"geometry":{"type":"Polygon","coordinates":[[[2.25435,50.71868],[2.25756,50.71943],[2.25869,50.71782],[2.25873,50.71746],[2.25587,50.7167],[2.25435,50.71868]]]}},{"type":"Feature","properties":{"k":"BTH","s":4.301},"geometry":{"type":"Polygon","coordinates":[[[2.25435,50.71868],[2.25326,50.72007],[2.25678,50.72088],[2.25755,50.71946],[2.25435,50.71868]]]}},{"type":"Feature","properties":{"k":"BTH","s":11.433},"geometry":{"type":"Polygon","coordinates":[[[2.26082,50.71856],[2.26047,50.719],[2.25849,50.71842],[2.2567,50.72115],[2.26097,50.72204],[2.26176,50.72092],[2.26402,50.71998],[2.26419,50.71977],[2.2634,50.71932],[2.26321,50.71951],[2.26272,50.71936],[2.26284,50.71914],[2.26247,50.71904],[2.26162,50.72022],[2.26095,50.72],[2.26177,50.71884],[2.26082,50.71856]]]}},{"type":"Feature","properties":{"k":"MIS","s":1.588},"geometry":{"type":"Polygon","coordinates":[[[2.26047,50.719],[2.26122,50.71804],[2.2607,50.71776],[2.2603,50.71816],[2.26038,50.718],[2.25917,50.71762],[2.25864,50.71828],[2.25903,50.71838],[2.25894,50.7185],[2.25849,50.71842],[2.26047,50.719]]]}},{"type":"Feature","properties":{"k":"PTR","s":0.373},"geometry":{"type":"Polygon","coordinates":[[[2.26041,50.7179],[2.26064,50.71763],[2.25974,50.71711],[2.25938,50.71741],[2.26041,50.7179]]]}},{"type":"Feature","properties":{"k":"LIF","s":7.123},"geometry":{"type":"Polygon","coordinates":[[[2.29796,50.71224],[2.29768,50.70938],[2.29859,50.709],[2.2955,50.70867],[2.29582,50.71168],[2.29513,50.71208],[2.2962,50.71318],[2.29796,50.71224]]]}},{"type":"Feature","properties":{"k":"BTH","s":4.96},"geometry":{"type":"Polygon","coordinates":[[[2.29231,50.70796],[2.29223,50.70807],[2.29278,50.70957],[2.29342,50.71059],[2.29569,50.71048],[2.2955,50.70867],[2.29231,50.70796]]]}},{"type":"Feature","properties":{"k":"BTN","s":2.865},"geometry":{"type":"Polygon","coordinates":[[[2.29017,50.71057],[2.29,50.71078],[2.29109,50.71062],[2.29294,50.70991],[2.29212,50.70819],[2.29174,50.7081],[2.29017,50.71057]]]}},{"type":"Feature","properties":{"k":"PTR","s":0.099},"geometry":{"type":"Polygon","coordinates":[[[2.29218,50.70783],[2.29199,50.70775],[2.29174,50.7081],[2.29212,50.70819],[2.29218,50.70783]]]}},{"type":"Feature","properties":{"k":"BTH","s":9.006},"geometry":{"type":"Polygon","coordinates":[[[2.28616,50.70658],[2.28702,50.708],[2.2883,50.70879],[2.29001,50.7106],[2.29179,50.70768],[2.28582,50.70586],[2.28636,50.70652],[2.28616,50.70658]]]}},{"type":"Feature","properties":{"k":"LIF","s":5.42},"geometry":{"type":"Polygon","coordinates":[[[2.28751,50.71132],[2.28793,50.71154],[2.28901,50.71127],[2.28991,50.71074],[2.2891,50.70966],[2.28826,50.70883],[2.28765,50.70847],[2.28591,50.70899],[2.28751,50.71132]]]}},{"type":"Feature","properties":{"k":"BTH","s":7.885},"geometry":{"type":"Polygon","coordinates":[[[2.29494,50.71205],[2.29362,50.71107],[2.29297,50.71003],[2.29101,50.7107],[2.28989,50.71088],[2.28861,50.71184],[2.29083,50.71301],[2.29494,50.71205]]]}},{"type":"Feature","properties":{"k":"PPH","s":0.69},"geometry":{"type":"Polygon","coordinates":[[[2.29199,50.71387],[2.29136,50.71359],[2.29155,50.71453],[2.29387,50.71416],[2.29199,50.71387]]]}},{"type":"Feature","properties":{"k":"MIS","s":4.499},"geometry":{"type":"Polygon","coordinates":[[[2.29067,50.71466],[2.29148,50.71455],[2.29122,50.71348],[2.28853,50.71203],[2.2872,50.71352],[2.28815,50.71384],[2.28905,50.71393],[2.29067,50.71466]]]}},{"type":"Feature","properties":{"k":"PPH","s":1.728},"geometry":{"type":"Polygon","coordinates":[[[2.28422,50.7135],[2.28409,50.71385],[2.28466,50.71484],[2.28534,50.71452],[2.2849,50.71372],[2.28556,50.7129],[2.28453,50.71254],[2.2835,50.71318],[2.28422,50.7135]]]}},{"type":"Feature","properties":{"k":"PTC","s":0.017},"geometry":{"type":"MultiPolygon","coordinates":[[[[2.30878,50.7063],[2.30849,50.7063],[2.30702,50.70643],[2.30878,50.7063]]],[[[2.30632,50.70654],[2.30643,50.70651],[2.30632,50.70653],[2.30632,50.70654]]]]}},{"type":"Feature","properties":{"k":"ORP","s":2.063},"geometry":{"type":"Polygon","coordinates":[[[2.3035,50.70675],[2.30124,50.70742],[2.30124,50.70798],[2.3008,50.70811],[2.3008,50.70841],[2.30409,50.70757],[2.3035,50.70675]]]}},{"type":"Feature","properties":{"k":"PPH","s":1.045},"geometry":{"type":"MultiPolygon","coordinates":[[[[2.30407,50.70745],[2.30476,50.70708],[2.30478,50.70685],[2.30569,50.70669],[2.30581,50.70615],[2.30353,50.70672],[2.30407,50.70745]]],[[[2.30583,50.70641],[2.30583,50.70665],[2.30623,50.70656],[2.30595,50.70619],[2.30583,50.70641]]]]}},{"type":"Feature","properties":{"k":"OIG","s":3.568},"geometry":{"type":"Polygon","coordinates":[[[2.30194,50.7082],[2.30357,50.71086],[2.30501,50.71048],[2.30336,50.70781],[2.30194,50.7082]]]}},{"type":"Feature","properties":{"k":"BTH","s":0.537},"geometry":{"type":"Polygon","coordinates":[[[2.30285,50.70979],[2.30231,50.70993],[2.30297,50.711],[2.30347,50.71088],[2.30285,50.70979]]]}},{"type":"Feature","properties":{"k":"PPH","s":0.472},"geometry":{"type":"Polygon","coordinates":[[[2.26772,50.73381],[2.267,50.73336],[2.26628,50.73408],[2.26646,50.73421],[2.26772,50.73381]]]}},{"type":"Feature","properties":{"k":"BTA","s":0.282},"geometry":{"type":"Polygon","coordinates":[[[2.28788,50.72296],[2.28786,50.72327],[2.28807,50.72408],[2.28752,50.72435],[2.28743,50.72402],[2.28634,50.72298],[2.28637,50.72234],[2.28665,50.72206],[2.28673,50.72173],[2.2863,50.72233],[2.28627,50.72299],[2.28645,50.72333],[2.28737,50.72405],[2.28744,50.72445],[2.28815,50.7241],[2.28793,50.72307],[2.28819,50.72253],[2.28788,50.72296]]]}},{"type":"Feature","properties":{"k":"BTH","s":6.028},"geometry":{"type":"Polygon","coordinates":[[[2.28095,50.72657],[2.28221,50.72701],[2.28541,50.72533],[2.28473,50.72465],[2.28408,50.72495],[2.28333,50.7246],[2.28116,50.7264],[2.27948,50.72579],[2.27917,50.72615],[2.27824,50.7258],[2.27781,50.72656],[2.27992,50.72726],[2.28095,50.72657]]]}},{"type":"Feature","properties":{"k":"JAC","s":0.268},"geometry":{"type":"Polygon","coordinates":[[[2.28078,50.72673],[2.28181,50.72724],[2.28221,50.72701],[2.28095,50.72657],[2.27992,50.72726],[2.28078,50.72673]]]}},{"type":"Feature","properties":{"k":"JAC","s":0.027},"geometry":{"type":"MultiPolygon","coordinates":[[[[2.25209,50.72503],[2.25055,50.72452],[2.25206,50.72503],[2.25202,50.72516],[2.25209,50.72503]]]]}},{"type":"Feature","properties":{"k":"BTH","s":1.027},"geometry":{"type":"Polygon","coordinates":[[[2.25386,50.72625],[2.25411,50.72619],[2.2543,50.72575],[2.25198,50.72514],[2.25175,50.72554],[2.25386,50.72625]]]}},{"type":"Feature","properties":{"k":"MIS","s":2.194},"geometry":{"type":"Polygon","coordinates":[[[2.28553,50.71191],[2.28764,50.7116],[2.2844,50.71011],[2.28387,50.71013],[2.28426,50.71086],[2.28359,50.71108],[2.28349,50.71137],[2.28489,50.71091],[2.28553,50.71191]]]}},{"type":"Feature","properties":{"k":"PTR","s":0.715},"geometry":{"type":"Polygon","coordinates":[[[2.28251,50.71013],[2.28161,50.71009],[2.2816,50.71109],[2.28254,50.71108],[2.28251,50.71013]]]}},{"type":"Feature","properties":{"k":"LIF","s":4.793},"geometry":{"type":"Polygon","coordinates":[[[2.28208,50.71292],[2.28253,50.71108],[2.28159,50.71109],[2.28161,50.71009],[2.27968,50.7101],[2.27977,50.71221],[2.27998,50.71246],[2.28208,50.71292]]]}},{"type":"Feature","properties":{"k":"PPH","s":2.749},"geometry":{"type":"Polygon","coordinates":[[[2.28007,50.71263],[2.27892,50.7143],[2.28068,50.71453],[2.28117,50.71374],[2.28173,50.71382],[2.28215,50.7131],[2.28221,50.713],[2.28007,50.71263]]]}},{"type":"Feature","properties":{"k":"BTH","s":2.696},"geometry":{"type":"Polygon","coordinates":[[[2.27221,50.72824],[2.27291,50.72719],[2.27028,50.72632],[2.26954,50.72737],[2.27221,50.72824]]]}},{"type":"Feature","properties":{"k":"BTH","s":1.022},"geometry":{"type":"Polygon","coordinates":[[[2.27038,50.72868],[2.2702,50.72894],[2.27148,50.72934],[2.27195,50.72868],[2.27021,50.7281],[2.26991,50.72853],[2.27038,50.72868]]]}},{"type":"Feature","properties":{"k":"MIS","s":1.023},"geometry":{"type":"Polygon","coordinates":[[[2.27193,50.72864],[2.27219,50.72823],[2.26954,50.72738],[2.26928,50.72775],[2.27193,50.72864]]]}},{"type":"Feature","properties":{"k":"MIS","s":3.443},"geometry":{"type":"Polygon","coordinates":[[[2.27006,50.72915],[2.27038,50.72868],[2.26991,50.72853],[2.27021,50.7281],[2.26928,50.72775],[2.26991,50.72683],[2.26837,50.72643],[2.26736,50.72821],[2.27006,50.72915]]]}},{"type":"Feature","properties":{"k":"PPH","s":1.825},"geometry":{"type":"Polygon","coordinates":[[[2.28477,50.70708],[2.28425,50.70658],[2.28401,50.70663],[2.28427,50.70833],[2.28474,50.70929],[2.28586,50.70896],[2.28477,50.70708]]]}},{"type":"Feature","properties":{"k":"JAC","s":0.197},"geometry":{"type":"Polygon","coordinates":[[[2.28436,50.70609],[2.28614,50.70636],[2.28591,50.70618],[2.28427,50.70594],[2.28436,50.70609]]]}},{"type":"Feature","properties":{"k":"MIS","s":0.456},"geometry":{"type":"Polygon","coordinates":[[[2.28553,50.70576],[2.28413,50.70553],[2.28421,50.70593],[2.28591,50.70618],[2.28553,50.70576]]]}},{"type":"Feature","properties":{"k":"PPH","s":2.243},"geometry":{"type":"Polygon","coordinates":[[[2.27354,50.70498],[2.27392,50.70527],[2.27481,50.70547],[2.27513,50.70599],[2.27557,50.70616],[2.27564,50.7065],[2.27637,50.70687],[2.27644,50.70734],[2.27688,50.70737],[2.27754,50.70711],[2.27717,50.70686],[2.2767,50.70693],[2.27646,50.70654],[2.27712,50.70632],[2.27701,50.70581],[2.27453,50.70522],[2.2741,50.70487],[2.27254,50.70467],[2.27354,50.70498]]]}},{"type":"Feature","properties":{"k":"ORH","s":1.639},"geometry":{"type":"Polygon","coordinates":[[[2.31096,50.70403],[2.30888,50.70449],[2.30937,50.70536],[2.31156,50.70486],[2.31096,50.70403]]]}},{"type":"Feature","properties":{"k":"PTC","s":1.659},"geometry":{"type":"MultiPolygon","coordinates":[[[[2.31184,50.70626],[2.3115,50.7058],[2.31243,50.70725],[2.31184,50.70626]]],[[[2.31084,50.70503],[2.30931,50.70541],[2.30943,50.70578],[2.30857,50.70589],[2.30885,50.70629],[2.31148,50.70578],[2.31084,50.70503]]]]}},{"type":"Feature","properties":{"k":"MIS","s":2.589},"geometry":{"type":"Polygon","coordinates":[[[2.30645,50.70547],[2.30626,50.70572],[2.30679,50.70643],[2.30866,50.70627],[2.30809,50.70465],[2.30769,50.70474],[2.30752,50.70456],[2.3062,50.70494],[2.30645,50.70547]]]}},{"type":"Feature","properties":{"k":"JAC","s":0.031},"geometry":{"type":"Polygon","coordinates":[]}},{"type":"Feature","properties":{"k":"JAC","s":0.026},"geometry":{"type":"Polygon","coordinates":[[[2.30628,50.70575],[2.30626,50.70572],[2.30624,50.70575],[2.30675,50.70643],[2.30628,50.70575]]]}},{"type":"Feature","properties":{"k":"BTH","s":2.692},"geometry":{"type":"Polygon","coordinates":[[[2.27643,50.72496],[2.27508,50.72649],[2.27615,50.72738],[2.27689,50.72714],[2.27749,50.72658],[2.27601,50.72605],[2.27651,50.72558],[2.27727,50.72587],[2.27813,50.725],[2.27749,50.72474],[2.27706,50.72518],[2.27643,50.72496]]]}},{"type":"Feature","properties":{"k":"MIS","s":0.242},"geometry":{"type":"Polygon","coordinates":[[[2.27462,50.72647],[2.27381,50.72567],[2.27362,50.7262],[2.27462,50.72647]]]}},{"type":"Feature","properties":{"k":"PTC","s":3.996},"geometry":{"type":"Polygon","coordinates":[[[2.31358,50.70665],[2.31453,50.70646],[2.31305,50.70448],[2.31089,50.70504],[2.31256,50.70711],[2.31358,50.70665]]]}},{"type":"Feature","properties":{"k":"BTH","s":1.417},"geometry":{"type":"Polygon","coordinates":[[[2.31453,50.70646],[2.31494,50.70641],[2.31281,50.70353],[2.31176,50.70382],[2.31255,50.70455],[2.31305,50.70448],[2.31453,50.70646]]]}},{"type":"Feature","properties":{"k":"BTH","s":2.781},"geometry":{"type":"Polygon","coordinates":[[[2.25747,50.73031],[2.25983,50.72907],[2.2592,50.72827],[2.25769,50.72935],[2.25606,50.72876],[2.25648,50.72896],[2.25597,50.72927],[2.25579,50.72918],[2.25558,50.7294],[2.25747,50.73031]]]}},{"type":"Feature","properties":{"k":"PPH","s":0.552},"geometry":{"type":"Polygon","coordinates":[[[2.2579,50.72844],[2.25752,50.72879],[2.25806,50.72907],[2.25831,50.72889],[2.25811,50.72876],[2.2588,50.72856],[2.25719,50.72786],[2.257,50.72807],[2.2579,50.72844]]]}},{"type":"Feature","properties":{"k":"OIG","s":3.085},"geometry":{"type":"Polygon","coordinates":[[[2.31596,50.70634],[2.31666,50.70609],[2.31514,50.70417],[2.3134,50.70439],[2.31496,50.70641],[2.31596,50.70634]]]}},{"type":"Feature","properties":{"k":"BTH","s":1.331},"geometry":{"type":"Polygon","coordinates":[[[2.31348,50.70436],[2.31512,50.70415],[2.3143,50.70314],[2.31281,50.70353],[2.31348,50.70436]]]}},{"type":"Feature","properties":{"k":"BTN","s":2.374},"geometry":{"type":"Polygon","coordinates":[[[2.26758,50.73035],[2.26893,50.731],[2.2702,50.72931],[2.2687,50.72883],[2.26758,50.73035]]]}},{"type":"Feature","properties":{"k":"TTH","s":2.153},"geometry":{"type":"Polygon","coordinates":[[[2.27033,50.72927],[2.26905,50.73102],[2.2701,50.73146],[2.27148,50.72934],[2.2702,50.72894],[2.27004,50.72917],[2.27033,50.72927]]]}},{"type":"Feature","properties":{"k":"BTN","s":3.678},"geometry":{"type":"Polygon","coordinates":[[[2.27377,50.72873],[2.27335,50.72859],[2.27305,50.72902],[2.27195,50.72868],[2.27019,50.73135],[2.27144,50.73172],[2.27377,50.72873]]]}},{"type":"Feature","properties":{"k":"BTN","s":3.079},"geometry":{"type":"Polygon","coordinates":[[[2.27259,50.73157],[2.27325,50.73126],[2.27496,50.7291],[2.27379,50.72873],[2.27141,50.73181],[2.27259,50.73157]]]}},{"type":"Feature","properties":{"k":"BTA","s":0.115},"geometry":{"type":"Polygon","coordinates":[[[2.26861,50.72865],[2.26736,50.72821],[2.27003,50.72919],[2.26861,50.72865]]]}},{"type":"Feature","properties":{"k":"PPH","s":0.958},"geometry":{"type":"Polygon","coordinates":[[[2.26762,50.72875],[2.2679,50.72886],[2.26711,50.73025],[2.26752,50.73043],[2.26874,50.72878],[2.26781,50.72849],[2.26762,50.72875]]]}},{"type":"Feature","properties":{"k":"BTH","s":11.221},"geometry":{"type":"Polygon","coordinates":[[[2.30285,50.70979],[2.30188,50.7082],[2.2996,50.70858],[2.29769,50.70939],[2.29807,50.71218],[2.30297,50.711],[2.30231,50.70993],[2.30285,50.70979]]]}},{"type":"Feature","properties":{"k":"BTH","s":9.724},"geometry":{"type":"Polygon","coordinates":[[[2.30272,50.71112],[2.3007,50.71152],[2.29809,50.71232],[2.29921,50.7142],[2.29997,50.71422],[2.30182,50.71362],[2.2999,50.71434],[2.30012,50.71437],[2.30217,50.71388],[2.30428,50.71371],[2.30272,50.71112]]]}},{"type":"Feature","properties":{"k":"BTH","s":1.369},"geometry":{"type":"Polygon","coordinates":[[[2.30496,50.71368],[2.30331,50.71099],[2.30277,50.71114],[2.30434,50.71378],[2.30496,50.71368]]]}},{"type":"Feature","properties":{"k":"BTH","s":0.006},"geometry":{"type":"Polygon","coordinates":[[[2.31267,50.70716],[2.3126,50.70722],[2.31303,50.70697],[2.31267,50.70716]]]}},{"type":"Feature","properties":{"k":"LBF","s":0.012},"geometry":{"type":"Polygon","coordinates":[[[2.31606,50.7053],[2.31667,50.70609],[2.31669,50.70608],[2.31606,50.7053]]]}},{"type":"Feature","properties":{"k":"PPH","s":0.593},"geometry":{"type":"Polygon","coordinates":[[[2.27852,50.71271],[2.27953,50.71335],[2.2798,50.71293],[2.27857,50.71246],[2.27841,50.71262],[2.27783,50.71247],[2.27751,50.71293],[2.27788,50.71305],[2.27805,50.71283],[2.27852,50.71271]]]}},{"type":"Feature","properties":{"k":"PPH","s":0.216},"geometry":{"type":"Polygon","coordinates":[[[2.2776,50.71242],[2.27744,50.71239],[2.2764,50.71367],[2.27661,50.7137],[2.2776,50.71242]]]}},{"type":"Feature","properties":{"k":"PTR","s":1.002},"geometry":{"type":"Polygon","coordinates":[[[2.2757,50.71158],[2.27617,50.71177],[2.2765,50.71134],[2.27495,50.71098],[2.27424,50.71173],[2.27537,50.71208],[2.27565,50.71192],[2.27533,50.71183],[2.2757,50.71158]]]}},{"type":"Feature","properties":{"k":"MIS","s":0.69},"geometry":{"type":"Polygon","coordinates":[[[2.27963,50.71087],[2.27817,50.71061],[2.27789,50.71109],[2.27965,50.71143],[2.27963,50.71087]]]}},{"type":"Feature","properties":{"k":"BTH","s":0.55},"geometry":{"type":"Polygon","coordinates":[[[2.2785,50.71162],[2.27965,50.71182],[2.27964,50.71143],[2.27789,50.71109],[2.27783,50.71137],[2.2785,50.71162]]]}},{"type":"Feature","properties":{"k":"BTN","s":1.101},"geometry":{"type":"Polygon","coordinates":[[[2.28127,50.70918],[2.27971,50.70913],[2.27973,50.71001],[2.2815,50.71004],[2.28127,50.70918]]]}},{"type":"Feature","properties":{"k":"BTH","s":0.656},"geometry":{"type":"Polygon","coordinates":[[[2.28751,50.71132],[2.28667,50.7101],[2.28559,50.71039],[2.28751,50.71132]]]}},{"type":"Feature","properties":{"k":"MIS","s":0.767},"geometry":{"type":"Polygon","coordinates":[[[2.27971,50.70913],[2.27873,50.70904],[2.27831,50.70969],[2.27959,50.71001],[2.27971,50.70913]]]}},{"type":"Feature","properties":{"k":"PTR","s":1.028},"geometry":{"type":"Polygon","coordinates":[[[2.27832,50.70969],[2.27808,50.70997],[2.27818,50.71061],[2.27964,50.71086],[2.27959,50.71001],[2.27832,50.70969]]]}},{"type":"Feature","properties":{"k":"ORH","s":1.195},"geometry":{"type":"Polygon","coordinates":[[[2.28559,50.71039],[2.28667,50.7101],[2.28589,50.70896],[2.28475,50.70929],[2.28559,50.71039]]]}},{"type":"Feature","properties":{"k":"BTP","s":1.315},"geometry":{"type":"Polygon","coordinates":[[[2.28076,50.70919],[2.28209,50.7091],[2.28211,50.70898],[2.27877,50.70828],[2.27903,50.70906],[2.28076,50.70919]]]}},{"type":"Feature","properties":{"k":"ORH","s":3.391},"geometry":{"type":"Polygon","coordinates":[[[2.28606,50.70656],[2.28623,50.70647],[2.28612,50.70636],[2.28426,50.70608],[2.28432,50.70665],[2.28484,50.70711],[2.28591,50.70899],[2.28765,50.70847],[2.28697,50.70809],[2.28606,50.70656]]]}},{"type":"Feature","properties":{"k":"PTC","s":0.72},"geometry":{"type":"Polygon","coordinates":[[[2.2588,50.72856],[2.25915,50.7283],[2.25906,50.72811],[2.25752,50.72746],[2.25719,50.72786],[2.2588,50.72856]]]}},{"type":"Feature","properties":{"k":"PPH","s":0.928},"geometry":{"type":"Polygon","coordinates":[[[2.2846,50.71247],[2.2862,50.71312],[2.2867,50.71252],[2.2851,50.71205],[2.2846,50.71247]]]}},{"type":"Feature","properties":{"k":"LIF","s":2.132},"geometry":{"type":"Polygon","coordinates":[[[2.2862,50.71312],[2.28714,50.71351],[2.28843,50.71203],[2.28759,50.71167],[2.28526,50.71201],[2.2867,50.71252],[2.2862,50.71312]]]}},{"type":"Feature","properties":{"k":"LIF","s":2.767},"geometry":{"type":"Polygon","coordinates":[[[2.27496,50.7291],[2.27568,50.72815],[2.27546,50.72728],[2.27453,50.72645],[2.27335,50.72859],[2.27496,50.7291]]]}},{"type":"Feature","properties":{"k":"PPH","s":6.23},"geometry":{"type":"Polygon","coordinates":[[[2.27837,50.7066],[2.27813,50.70676],[2.27802,50.70701],[2.2786,50.70738],[2.27878,50.70805],[2.28062,50.7083],[2.28357,50.70918],[2.28316,50.70823],[2.28206,50.70733],[2.28152,50.70632],[2.27967,50.70636],[2.27837,50.7066]]]}}]}