{"type":"FeatureCollection","features":[{"type":"Feature","properties":{"k":"BTH","s":3.91},"geometry":{"type":"Polygon","coordinates":[[[3.1427,50.1912],[3.14273,50.1908],[3.14071,50.1878],[3.13975,50.18803],[3.14274,50.19253],[3.14377,50.19225],[3.1427,50.1912]]]}},{"type":"Feature","properties":{"k":"BTH","s":0.267},"geometry":{"type":"MultiPolygon","coordinates":[[[[3.14259,50.19086],[3.14283,50.19115],[3.14372,50.1908],[3.14348,50.19058],[3.14259,50.19086]]],[[[3.1442,50.19273],[3.14427,50.1927],[3.14362,50.19208],[3.1442,50.19273]]]]}},{"type":"Feature","properties":{"k":"BTN","s":17.983},"geometry":{"type":"Polygon","coordinates":[[[3.14508,50.1935],[3.14377,50.19226],[3.13839,50.19365],[3.13677,50.19119],[3.13442,50.19177],[3.13604,50.19422],[3.13386,50.19478],[3.13477,50.19613],[3.14508,50.1935]]]}},{"type":"Feature","properties":{"k":"PTC","s":6.034},"geometry":{"type":"Polygon","coordinates":[[[3.13477,50.19614],[3.13512,50.19671],[3.13793,50.196],[3.13912,50.19747],[3.14131,50.1969],[3.14003,50.1948],[3.13477,50.19614]]]}},{"type":"Feature","properties":{"k":"LBF","s":1.642},"geometry":{"type":"Polygon","coordinates":[[[3.1448,50.19601],[3.14347,50.19392],[3.14264,50.19414],[3.14395,50.19624],[3.1448,50.19601]]]}},{"type":"Feature","properties":{"k":"LBF","s":1.809},"geometry":{"type":"Polygon","coordinates":[[[3.14098,50.19457],[3.14003,50.1948],[3.14133,50.19691],[3.14225,50.19667],[3.14098,50.19457]]]}},{"type":"Feature","properties":{"k":"BTH","s":3.256},"geometry":{"type":"Polygon","coordinates":[[[3.14395,50.19624],[3.14264,50.19414],[3.14098,50.19457],[3.14225,50.19667],[3.14395,50.19624]]]}},{"type":"Feature","properties":{"k":"BTN","s":3.71},"geometry":{"type":"Polygon","coordinates":[[[3.14511,50.19596],[3.14705,50.19545],[3.14511,50.19351],[3.14348,50.19392],[3.14469,50.19585],[3.145,50.19577],[3.14511,50.19596]]]}},{"type":"Feature","properties":{"k":"BTH","s":0.099},"geometry":{"type":"MultiPolygon","coordinates":[[[[3.14527,50.19367],[3.14704,50.19545],[3.14711,50.19543],[3.14527,50.19367]]],[[[3.14506,50.19346],[3.1443,50.19273],[3.14423,50.19276],[3.14506,50.19346]]]]}},{"type":"Feature","properties":{"k":"PTR","s":0.054},"geometry":{"type":"Polygon","coordinates":[[[3.14511,50.19596],[3.145,50.19577],[3.14469,50.19585],[3.14481,50.19604],[3.14511,50.19596]]]}},{"type":"Feature","properties":{"k":"BTH","s":5.961},"geometry":{"type":"Polygon","coordinates":[[[3.13221,50.19926],[3.13122,50.1977],[3.13013,50.19799],[3.12942,50.19695],[3.12267,50.19877],[3.12267,50.19903],[3.1232,50.199],[3.1287,50.19766],[3.13,50.19982],[3.13221,50.19926]]]}},{"type":"Feature","properties":{"k":"LEC","s":5.384},"geometry":{"type":"Polygon","coordinates":[[[3.13497,50.19672],[3.13123,50.19772],[3.13221,50.19925],[3.13594,50.19824],[3.13497,50.19672]]]}},{"type":"Feature","properties":{"k":"BTH","s":1.484},"geometry":{"type":"Polygon","coordinates":[[[3.1362,50.19822],[3.13768,50.19782],[3.137,50.19682],[3.13549,50.19719],[3.1362,50.19822]]]}},{"type":"Feature","properties":{"k":"LEC","s":4.948},"geometry":{"type":"Polygon","coordinates":[[[3.13507,50.1886],[3.13839,50.19365],[3.13941,50.19339],[3.13628,50.1885],[3.13507,50.1886]]]}},{"type":"Feature","properties":{"k":"MIS","s":3.289},"geometry":{"type":"Polygon","coordinates":[[[3.13136,50.19096],[3.1336,50.19044],[3.13443,50.19177],[3.13677,50.19119],[3.13584,50.18978],[3.13129,50.19085],[3.13136,50.19096]]]}},{"type":"Feature","properties":{"k":"PHF","s":7.722},"geometry":{"type":"Polygon","coordinates":[[[3.13387,50.19478],[3.13604,50.19422],[3.1336,50.19044],[3.13136,50.19096],[3.13387,50.19478]]]}},{"type":"Feature","properties":{"k":"BTH","s":3.021},"geometry":{"type":"Polygon","coordinates":[[[3.13073,50.19031],[3.12711,50.19128],[3.12764,50.19217],[3.13133,50.19118],[3.13073,50.19031]]]}},{"type":"Feature","properties":{"k":"PHF","s":7.274},"geometry":{"type":"Polygon","coordinates":[[[3.12868,50.1919],[3.12764,50.19217],[3.12674,50.19079],[3.12314,50.19171],[3.12262,50.19391],[3.12888,50.19219],[3.12868,50.1919]]]}},{"type":"Feature","properties":{"k":"BTN","s":5.523},"geometry":{"type":"Polygon","coordinates":[[[3.12274,50.19533],[3.12747,50.19401],[3.12701,50.19331],[3.13186,50.19198],[3.13168,50.19171],[3.12251,50.19426],[3.12274,50.19533]]]}},{"type":"Feature","properties":{"k":"BTH","s":1.376},"geometry":{"type":"Polygon","coordinates":[[[3.12888,50.19219],[3.12262,50.19391],[3.12253,50.1942],[3.12895,50.19245],[3.12888,50.19219]]]}},{"type":"Feature","properties":{"k":"BTH","s":9.152},"geometry":{"type":"Polygon","coordinates":[[[3.12871,50.19584],[3.12746,50.19402],[3.12274,50.19534],[3.12272,50.19748],[3.12871,50.19584]]]}},{"type":"Feature","properties":{"k":"BTH","s":23.745},"geometry":{"type":"Polygon","coordinates":[[[3.13013,50.19799],[3.135,50.19672],[3.13188,50.19198],[3.12701,50.19331],[3.12923,50.1966],[3.12267,50.19835],[3.12265,50.19878],[3.12942,50.19695],[3.13013,50.19799]]]}},{"type":"Feature","properties":{"k":"BTN","s":4.328},"geometry":{"type":"Polygon","coordinates":[[[3.1227,50.19834],[3.12923,50.1966],[3.12872,50.19584],[3.12272,50.19749],[3.1227,50.19834]]]}},{"type":"Feature","properties":{"k":"BTN","s":0.003},"geometry":{"type":"Polygon","coordinates":[]}},{"type":"Feature","properties":{"k":"BTH","s":0.001},"geometry":{"type":"Polygon","coordinates":[[[3.12264,50.19763],[3.12263,50.19797],[3.12264,50.19797],[3.12264,50.19763]]]}},{"type":"Feature","properties":{"k":"BTN","s":3.654},"geometry":{"type":"Polygon","coordinates":[[[3.12258,50.19372],[3.11815,50.19546],[3.11887,50.19626],[3.12254,50.19498],[3.12258,50.19372]]]}},{"type":"Feature","properties":{"k":"BTH","s":0.0},"geometry":{"type":"Polygon","coordinates":[]}},{"type":"Feature","properties":{"k":"BTH","s":13.537},"geometry":{"type":"Polygon","coordinates":[[[3.11767,50.19052],[3.1166,50.19108],[3.11888,50.19359],[3.12306,50.1919],[3.12307,50.19167],[3.12279,50.19175],[3.12308,50.19156],[3.12309,50.19128],[3.12283,50.18999],[3.12221,50.1891],[3.11767,50.19052]]]}},{"type":"Feature","properties":{"k":"BTH","s":7.781},"geometry":{"type":"Polygon","coordinates":[[[3.12258,50.19372],[3.12304,50.19191],[3.11622,50.19465],[3.11723,50.19582],[3.12258,50.19372]]]}},{"type":"Feature","properties":{"k":"PTC","s":5.676},"geometry":{"type":"Polygon","coordinates":[[[3.11661,50.1911],[3.11656,50.19111],[3.11482,50.19302],[3.11622,50.19465],[3.11876,50.19364],[3.11661,50.1911]]]}},{"type":"Feature","properties":{"k":"BTH","s":0.049},"geometry":{"type":"Polygon","coordinates":[[[3.11705,50.19045],[3.11653,50.1904],[3.11703,50.19052],[3.11754,50.19045],[3.11705,50.19045]]]}},{"type":"Feature","properties":{"k":"BTH","s":5.891},"geometry":{"type":"Polygon","coordinates":[[[3.11393,50.19391],[3.11641,50.1912],[3.11746,50.19056],[3.11591,50.19055],[3.11374,50.19095],[3.11234,50.19097],[3.11257,50.19173],[3.11379,50.19336],[3.11393,50.19391]],[[3.11386,50.19347],[3.1139,50.19342],[3.11386,50.19349],[3.11386,50.19347]]]}},{"type":"Feature","properties":{"k":"JAC","s":0.629},"geometry":{"type":"Polygon","coordinates":[[[3.1141,50.19375],[3.11408,50.1943],[3.11461,50.1954],[3.11528,50.19513],[3.1141,50.19375]]]}},{"type":"Feature","properties":{"k":"BTH","s":1.659},"geometry":{"type":"Polygon","coordinates":[[[3.11622,50.19465],[3.11482,50.19302],[3.1141,50.19375],[3.11528,50.19513],[3.11622,50.19465]]]}},{"type":"Feature","properties":{"k":"PTC","s":2.149},"geometry":{"type":"Polygon","coordinates":[[[3.11628,50.19472],[3.11461,50.1954],[3.11521,50.19661],[3.11723,50.19582],[3.11628,50.19472]]]}},{"type":"Feature","properties":{"k":"BTN","s":2.477},"geometry":{"type":"Polygon","coordinates":[[[3.11887,50.19626],[3.11815,50.19546],[3.11521,50.19661],[3.11565,50.19739],[3.11887,50.19626]]]}},{"type":"Feature","properties":{"k":"BTH","s":0.001},"geometry":{"type":"Polygon","coordinates":[]}},{"type":"Feature","properties":{"k":"BTH","s":0.018},"geometry":{"type":"Polygon","coordinates":[[[3.09936,50.19026],[3.09978,50.1903],[3.09978,50.19024],[3.09936,50.19026]]]}},{"type":"Feature","properties":{"k":"JAC","s":0.447},"geometry":{"type":"Polygon","coordinates":[[[3.10078,50.19018],[3.09978,50.19008],[3.09978,50.1903],[3.10236,50.19059],[3.10224,50.19035],[3.10078,50.19018]]]}},{"type":"Feature","properties":{"k":"BTH","s":1.88},"geometry":{"type":"Polygon","coordinates":[[[3.10337,50.19077],[3.10127,50.19052],[3.10253,50.19195],[3.1032,50.19236],[3.10376,50.19201],[3.10337,50.19077]]]}},{"type":"Feature","properties":{"k":"BTH","s":0.175},"geometry":{"type":"Polygon","coordinates":[[[3.10379,50.19215],[3.10377,50.192],[3.1032,50.19236],[3.10382,50.19273],[3.10379,50.19215]]]}},{"type":"Feature","properties":{"k":"BTH","s":4.0},"geometry":{"type":"Polygon","coordinates":[[[3.11202,50.19102],[3.10871,50.19103],[3.11385,50.19398],[3.11387,50.19372],[3.11202,50.19102]]]}},{"type":"Feature","properties":{"k":"BTH","s":10.999},"geometry":{"type":"Polygon","coordinates":[[[3.10853,50.19103],[3.10803,50.19215],[3.10735,50.1929],[3.11137,50.19565],[3.11316,50.19468],[3.11385,50.19398],[3.10853,50.19103]]]}},{"type":"Feature","properties":{"k":"ORP","s":5.575},"geometry":{"type":"Polygon","coordinates":[[[3.10509,50.19256],[3.10658,50.19364],[3.10721,50.19294],[3.10764,50.19255],[3.10846,50.19093],[3.10426,50.19118],[3.10455,50.19274],[3.10509,50.19256]]]}},{"type":"Feature","properties":{"k":"BTH","s":5.896},"geometry":{"type":"Polygon","coordinates":[[[3.10859,50.19097],[3.11218,50.19096],[3.11245,50.19012],[3.11377,50.1891],[3.10903,50.18909],[3.10859,50.19097]]]}},{"type":"Feature","properties":{"k":"MIS","s":2.519},"geometry":{"type":"Polygon","coordinates":[[[3.11507,50.18849],[3.10922,50.1885],[3.10903,50.18909],[3.11377,50.1891],[3.11507,50.18849]]]}},{"type":"Feature","properties":{"k":"BTN","s":7.002},"geometry":{"type":"Polygon","coordinates":[[[3.10877,50.18894],[3.10391,50.18931],[3.10426,50.19118],[3.10846,50.19093],[3.10877,50.18894]]]}},{"type":"Feature","properties":{"k":"BTH","s":3.486},"geometry":{"type":"Polygon","coordinates":[[[3.10375,50.18848],[3.10391,50.18931],[3.109,50.18892],[3.10913,50.1881],[3.10375,50.18848]]]}},{"type":"Feature","properties":{"k":"BTH","s":6.189},"geometry":{"type":"Polygon","coordinates":[[[3.10913,50.1881],[3.10936,50.18666],[3.1034,50.18715],[3.10375,50.18848],[3.10913,50.1881]]]}},{"type":"Feature","properties":{"k":"BTN","s":0.192},"geometry":{"type":"Polygon","coordinates":[[[3.10956,50.18621],[3.10942,50.18678],[3.10961,50.18678],[3.11017,50.18617],[3.10956,50.18621]]]}},{"type":"Feature","properties":{"k":"BTH","s":2.556},"geometry":{"type":"Polygon","coordinates":[[[3.11445,50.18792],[3.10923,50.18791],[3.10922,50.1885],[3.1151,50.18848],[3.11445,50.18792]]]}},{"type":"Feature","properties":{"k":"BTN","s":2.622},"geometry":{"type":"Polygon","coordinates":[[[3.11371,50.18724],[3.10929,50.18723],[3.1092,50.18761],[3.1092,50.18791],[3.11445,50.18792],[3.11371,50.18724]]]}},{"type":"Feature","properties":{"k":"PTC","s":1.46},"geometry":{"type":"Polygon","coordinates":[[[3.11322,50.18679],[3.10944,50.18679],[3.1093,50.18723],[3.11368,50.18723],[3.11322,50.18679]]]}},{"type":"Feature","properties":{"k":"BTN","s":1.328},"geometry":{"type":"Polygon","coordinates":[[[3.11322,50.18679],[3.11249,50.18617],[3.11025,50.18617],[3.11006,50.18678],[3.11322,50.18679]]]}},{"type":"Feature","properties":{"k":"JAC","s":0.44},"geometry":{"type":"Polygon","coordinates":[[[3.11244,50.1855],[3.11277,50.18532],[3.1098,50.18511],[3.10976,50.1853],[3.11244,50.1855]]]}},{"type":"Feature","properties":{"k":"MIS","s":0.814},"geometry":{"type":"Polygon","coordinates":[[[3.11071,50.18398],[3.11018,50.18432],[3.1098,50.18511],[3.11277,50.18532],[3.11125,50.18613],[3.11182,50.18613],[3.1135,50.1852],[3.10992,50.18502],[3.11071,50.18398]]]}},{"type":"Feature","properties":{"k":"PTC","s":0.733},"geometry":{"type":"Polygon","coordinates":[[[3.15314,50.18448],[3.15479,50.18515],[3.15519,50.18476],[3.15351,50.18407],[3.15314,50.18448]]]}},{"type":"Feature","properties":{"k":"ORH","s":0.086},"geometry":{"type":"Polygon","coordinates":[[[3.15204,50.1853],[3.15197,50.18523],[3.1507,50.18597],[3.15044,50.18611],[3.15204,50.1853]]]}},{"type":"Feature","properties":{"k":"LBF","s":2.752},"geometry":{"type":"Polygon","coordinates":[[[3.15231,50.18503],[3.15204,50.1853],[3.15246,50.18508],[3.15422,50.1857],[3.15476,50.18518],[3.15033,50.18337],[3.1497,50.18368],[3.15231,50.18503]]]}},{"type":"Feature","properties":{"k":"BTN","s":1.06},"geometry":{"type":"Polygon","coordinates":[[[3.15039,50.18336],[3.15314,50.18448],[3.15348,50.1841],[3.15083,50.18305],[3.15039,50.18336]]]}},{"type":"Feature","properties":{"k":"PHF","s":3.113},"geometry":{"type":"Polygon","coordinates":[[[3.15543,50.1814],[3.15314,50.1839],[3.15455,50.18448],[3.15541,50.18353],[3.15503,50.18343],[3.15636,50.18158],[3.15543,50.1814]]]}},{"type":"Feature","properties":{"k":"PTC","s":1.393},"geometry":{"type":"Polygon","coordinates":[[[3.15583,50.18492],[3.15701,50.18362],[3.15619,50.18374],[3.15541,50.18353],[3.15455,50.18448],[3.15583,50.18492]]]}},{"type":"Feature","properties":{"k":"BTH","s":1.29},"geometry":{"type":"Polygon","coordinates":[[[3.15723,50.18359],[3.15701,50.18362],[3.15583,50.18492],[3.15694,50.18515],[3.15791,50.18405],[3.15723,50.18359]]]}},{"type":"Feature","properties":{"k":"BTH","s":0.178},"geometry":{"type":"Polygon","coordinates":[[[3.15719,50.18523],[3.15791,50.18405],[3.15694,50.18515],[3.15719,50.18523]]]}},{"type":"Feature","properties":{"k":"LBF","s":5.871},"geometry":{"type":"Polygon","coordinates":[[[3.15314,50.1839],[3.15543,50.1814],[3.15289,50.18076],[3.15084,50.18304],[3.15314,50.1839]]]}},{"type":"Feature","properties":{"k":"BTH","s":3.958},"geometry":{"type":"Polygon","coordinates":[[[3.15277,50.18074],[3.15128,50.18022],[3.14923,50.18243],[3.15033,50.18333],[3.15277,50.18074]]]}},{"type":"Feature","properties":{"k":"BTH","s":3.05},"geometry":{"type":"Polygon","coordinates":[[[3.14919,50.18242],[3.15126,50.18022],[3.14975,50.17978],[3.14814,50.1816],[3.14919,50.18242]]]}},{"type":"Feature","properties":{"k":"BTH","s":1.305},"geometry":{"type":"Polygon","coordinates":[[[3.14811,50.18159],[3.14975,50.17978],[3.14891,50.17965],[3.14752,50.1811],[3.14811,50.18159]]]}},{"type":"Feature","properties":{"k":"PTC","s":4.902},"geometry":{"type":"Polygon","coordinates":[[[3.14911,50.18393],[3.15032,50.18335],[3.14691,50.18068],[3.14604,50.18019],[3.14506,50.18078],[3.14911,50.18393]]]}},{"type":"Feature","properties":{"k":"TRN","s":0.597},"geometry":{"type":"Polygon","coordinates":[[[3.14729,50.18012],[3.14792,50.17952],[3.14653,50.17928],[3.14635,50.17972],[3.14729,50.18012]]]}},{"type":"Feature","properties":{"k":"JAC","s":0.199},"geometry":{"type":"Polygon","coordinates":[[[3.14328,50.17948],[3.144,50.17959],[3.14525,50.17905],[3.14392,50.17946],[3.14317,50.17934],[3.14328,50.17948]]]}},{"type":"Feature","properties":{"k":"BTN","s":1.146},"geometry":{"type":"Polygon","coordinates":[[[3.14887,50.17965],[3.14794,50.1795],[3.14689,50.1805],[3.1475,50.18111],[3.14887,50.17965]]]}},{"type":"Feature","properties":{"k":"MIS","s":0.404},"geometry":{"type":"Polygon","coordinates":[[[3.14625,50.17799],[3.14635,50.17805],[3.14387,50.17625],[3.14363,50.17634],[3.14625,50.17799]]]}},{"type":"Feature","properties":{"k":"MIS","s":1.042},"geometry":{"type":"Polygon","coordinates":[[[3.1456,50.17903],[3.14631,50.17821],[3.14635,50.17806],[3.14559,50.17757],[3.1446,50.17886],[3.1456,50.17903]]]}},{"type":"Feature","properties":{"k":"CZH","s":4.223},"geometry":{"type":"Polygon","coordinates":[[[3.14335,50.17864],[3.14461,50.17884],[3.14559,50.17757],[3.14359,50.17634],[3.14188,50.17696],[3.14335,50.17864]]]}},{"type":"Feature","properties":{"k":"MIS","s":1.763},"geometry":{"type":"Polygon","coordinates":[[[3.14098,50.1759],[3.14054,50.17601],[3.1406,50.17661],[3.14179,50.17792],[3.14244,50.1785],[3.14335,50.17864],[3.14098,50.1759]]]}},{"type":"Feature","properties":{"k":"BTN","s":0.041},"geometry":{"type":"Polygon","coordinates":[[[3.14315,50.17551],[3.14287,50.17516],[3.14263,50.17524],[3.14315,50.17551]]]}},{"type":"Feature","properties":{"k":"ORH","s":2.135},"geometry":{"type":"Polygon","coordinates":[[[3.14315,50.17551],[3.14263,50.17524],[3.14097,50.17583],[3.14188,50.17696],[3.14386,50.17625],[3.14315,50.17551]]]}},{"type":"Feature","properties":{"k":"BFS","s":0.047},"geometry":{"type":"Polygon","coordinates":[[[3.13971,50.17626],[3.14042,50.17603],[3.13973,50.17623],[3.13903,50.1755],[3.13971,50.17626]]]}},{"type":"Feature","properties":{"k":"CZH","s":5.137},"geometry":{"type":"Polygon","coordinates":[[[3.13971,50.17626],[3.13894,50.17547],[3.13762,50.17588],[3.13835,50.17661],[3.13791,50.17675],[3.13868,50.17788],[3.14241,50.17851],[3.14053,50.17659],[3.14042,50.17603],[3.13971,50.17626]]]}},{"type":"Feature","properties":{"k":"BTN","s":6.798},"geometry":{"type":"Polygon","coordinates":[[[3.13998,50.1795],[3.14239,50.18222],[3.1427,50.18207],[3.1391,50.17802],[3.13524,50.17751],[3.13756,50.18032],[3.13998,50.1795]]]}},{"type":"Feature","properties":{"k":"BTH","s":0.764},"geometry":{"type":"Polygon","coordinates":[[[3.14392,50.17946],[3.14512,50.17904],[3.14273,50.17865],[3.14317,50.17934],[3.14392,50.17946]]]}},{"type":"Feature","properties":{"k":"ORH","s":2.921},"geometry":{"type":"Polygon","coordinates":[[[3.14083,50.17834],[3.13912,50.17804],[3.14177,50.18099],[3.14275,50.18049],[3.14083,50.17834]]]}},{"type":"Feature","properties":{"k":"BTH","s":4.38},"geometry":{"type":"Polygon","coordinates":[[[3.14134,50.18251],[3.14239,50.18222],[3.13998,50.1795],[3.13838,50.18004],[3.14063,50.18255],[3.14134,50.18251]]]}},{"type":"Feature","properties":{"k":"ORH","s":2.749},"geometry":{"type":"Polygon","coordinates":[[[3.13838,50.18004],[3.13728,50.18042],[3.13913,50.18258],[3.14063,50.18255],[3.13838,50.18004]]]}},{"type":"Feature","properties":{"k":"BTH","s":1.6},"geometry":{"type":"Polygon","coordinates":[[[3.13914,50.18258],[3.13728,50.18042],[3.13655,50.18077],[3.13811,50.18254],[3.13914,50.18258]]]}},{"type":"Feature","properties":{"k":"PHF","s":6.817},"geometry":{"type":"Polygon","coordinates":[[[3.14122,50.1876],[3.1436,50.18686],[3.14573,50.18576],[3.1413,50.18481],[3.1401,50.18495],[3.14122,50.1876]]]}},{"type":"Feature","properties":{"k":"MIS","s":1.993},"geometry":{"type":"Polygon","coordinates":[[[3.09694,50.17513],[3.09709,50.17578],[3.10058,50.17455],[3.10059,50.17384],[3.09694,50.17513]]]}},{"type":"Feature","properties":{"k":"ORH","s":5.358},"geometry":{"type":"Polygon","coordinates":[[[3.10469,50.17375],[3.10123,50.17497],[3.10122,50.17649],[3.10657,50.17463],[3.10469,50.17375]]]}},{"type":"Feature","properties":{"k":"BTN","s":3.345},"geometry":{"type":"Polygon","coordinates":[[[3.10128,50.17721],[3.10745,50.175],[3.10657,50.17463],[3.10122,50.17649],[3.10128,50.17721]]]}},{"type":"Feature","properties":{"k":"LBF","s":3.225},"geometry":{"type":"Polygon","coordinates":[[[3.1062,50.17724],[3.10438,50.17788],[3.10541,50.1797],[3.10727,50.17915],[3.1062,50.17724]]]}},{"type":"Feature","properties":{"k":"PHF","s":5.595},"geometry":{"type":"Polygon","coordinates":[[[3.10351,50.17645],[3.10172,50.17705],[3.10354,50.18025],[3.10541,50.1797],[3.10351,50.17645]],[[3.10404,50.18003],[3.10398,50.18004],[3.10403,50.18002],[3.10404,50.18003]]]}},{"type":"Feature","properties":{"k":"BTH","s":2.315},"geometry":{"type":"Polygon","coordinates":[[[3.10161,50.17941],[3.1022,50.17924],[3.10288,50.18042],[3.10354,50.18025],[3.10172,50.17705],[3.10128,50.17721],[3.10161,50.17941]]]}},{"type":"Feature","properties":{"k":"JAC","s":0.391},"geometry":{"type":"Polygon","coordinates":[[[3.10253,50.17986],[3.10223,50.1793],[3.10155,50.17942],[3.10173,50.18009],[3.10253,50.17986]]]}},{"type":"Feature","properties":{"k":"PPH","s":0.181},"geometry":{"type":"Polygon","coordinates":[[[3.10193,50.18032],[3.10195,50.18062],[3.10279,50.18041],[3.10264,50.18016],[3.10193,50.18032]]]}},{"type":"Feature","properties":{"k":"MIS","s":0.694},"geometry":{"type":"Polygon","coordinates":[[[3.10097,50.18034],[3.09917,50.18083],[3.09944,50.18124],[3.10107,50.18085],[3.10097,50.18034]]]}},{"type":"Feature","properties":{"k":"BTH","s":4.189},"geometry":{"type":"Polygon","coordinates":[[[3.10357,50.18104],[3.10328,50.18081],[3.1029,50.18087],[3.10201,50.18146],[3.10218,50.18249],[3.1058,50.18222],[3.10503,50.18052],[3.10449,50.1807],[3.10413,50.18026],[3.10394,50.18028],[3.10374,50.18034],[3.1042,50.18071],[3.10357,50.18104]]]}},{"type":"Feature","properties":{"k":"BTH","s":1.027},"geometry":{"type":"Polygon","coordinates":[[[3.10582,50.18091],[3.10533,50.17984],[3.10487,50.18],[3.10599,50.1824],[3.10646,50.18237],[3.10582,50.18091]]]}},{"type":"Feature","properties":{"k":"JAC","s":0.046},"geometry":{"type":"Polygon","coordinates":[[[3.10727,50.17914],[3.10738,50.17911],[3.10712,50.17865],[3.10727,50.17914]]]}},{"type":"Feature","properties":{"k":"CZH","s":2.759},"geometry":{"type":"Polygon","coordinates":[[[3.10736,50.18078],[3.10826,50.18071],[3.10744,50.17921],[3.10604,50.17963],[3.10727,50.18233],[3.10803,50.18227],[3.10736,50.18078]]]}},{"type":"Feature","properties":{"k":"BTH","s":1.636},"geometry":{"type":"Polygon","coordinates":[[[3.10645,50.18237],[3.10723,50.18232],[3.10602,50.17961],[3.10533,50.17985],[3.10645,50.18237]]]}},{"type":"Feature","properties":{"k":"CZH","s":6.188},"geometry":{"type":"Polygon","coordinates":[[[3.10736,50.18078],[3.10803,50.18227],[3.10598,50.18243],[3.10616,50.18291],[3.11116,50.18254],[3.11141,50.18098],[3.1106,50.18095],[3.1103,50.18057],[3.10736,50.18078]]]}},{"type":"Feature","properties":{"k":"PPH","s":0.364},"geometry":{"type":"Polygon","coordinates":[[[3.11022,50.17819],[3.10949,50.17723],[3.10915,50.17737],[3.10985,50.17836],[3.11022,50.17819]]]}},{"type":"Feature","properties":{"k":"BTH","s":1.133},"geometry":{"type":"Polygon","coordinates":[[[3.10621,50.17724],[3.10701,50.17867],[3.10789,50.17848],[3.10698,50.17696],[3.10621,50.17724]]]}},{"type":"Feature","properties":{"k":"BTH","s":0.754},"geometry":{"type":"Polygon","coordinates":[[[3.10842,50.17836],[3.10749,50.17678],[3.10698,50.17696],[3.10789,50.17848],[3.10842,50.17836]]]}},{"type":"Feature","properties":{"k":"MIS","s":0.529},"geometry":{"type":"Polygon","coordinates":[[[3.10921,50.17617],[3.10749,50.17677],[3.10769,50.1771],[3.10946,50.17644],[3.10921,50.17617]]]}},{"type":"Feature","properties":{"k":"MIS","s":6.351},"geometry":{"type":"Polygon","coordinates":[[[3.10745,50.175],[3.10351,50.17644],[3.10437,50.17788],[3.10924,50.17615],[3.10807,50.17526],[3.10745,50.175]]]}},{"type":"Feature","properties":{"k":"PPH","s":1.338},"geometry":{"type":"Polygon","coordinates":[[[3.10869,50.17555],[3.11075,50.17523],[3.11048,50.17479],[3.10985,50.1749],[3.10969,50.17457],[3.10757,50.17499],[3.10869,50.17555]]]}},{"type":"Feature","properties":{"k":"PPH","s":0.435},"geometry":{"type":"Polygon","coordinates":[[[3.11055,50.17558],[3.10904,50.17584],[3.10935,50.17621],[3.11081,50.17583],[3.11055,50.17558]]]}},{"type":"Feature","properties":{"k":"PPH","s":2.126},"geometry":{"type":"Polygon","coordinates":[[[3.11876,50.1759],[3.11828,50.17615],[3.11925,50.17655],[3.12047,50.17671],[3.12061,50.1764],[3.11936,50.17612],[3.11924,50.17596],[3.11946,50.17584],[3.11971,50.17593],[3.1199,50.1756],[3.12037,50.17572],[3.12058,50.17504],[3.11957,50.1746],[3.11941,50.17567],[3.11934,50.17462],[3.119,50.17464],[3.119,50.17435],[3.11834,50.17426],[3.11833,50.17452],[3.11894,50.1746],[3.11876,50.1759]]]}},{"type":"Feature","properties":{"k":"PPH","s":2.636},"geometry":{"type":"Polygon","coordinates":[[[3.12181,50.17634],[3.12208,50.17631],[3.12209,50.17723],[3.12266,50.17717],[3.12264,50.17784],[3.12385,50.17775],[3.12441,50.17757],[3.12366,50.17615],[3.12186,50.1757],[3.12181,50.17634]]]}},{"type":"Feature","properties":{"k":"LUZ","s":1.38},"geometry":{"type":"Polygon","coordinates":[[[3.12217,50.18301],[3.12186,50.18211],[3.12305,50.182],[3.12291,50.18154],[3.12169,50.18166],[3.12167,50.18111],[3.12096,50.18114],[3.12165,50.18316],[3.12217,50.18301]]]}},{"type":"Feature","properties":{"k":"PPH","s":7.734},"geometry":{"type":"Polygon","coordinates":[[[3.11835,50.18323],[3.11739,50.1835],[3.11786,50.18425],[3.12126,50.18326],[3.12057,50.18137],[3.11933,50.18149],[3.11911,50.18021],[3.11722,50.18026],[3.11725,50.18103],[3.11773,50.18159],[3.118,50.18156],[3.11815,50.18201],[3.11723,50.18216],[3.11725,50.18232],[3.11682,50.1824],[3.11694,50.18259],[3.11784,50.18234],[3.11835,50.18323]]]}},{"type":"Feature","properties":{"k":"PPH","s":1.097},"geometry":{"type":"Polygon","coordinates":[[[3.11418,50.17952],[3.11376,50.1791],[3.11354,50.17918],[3.11357,50.17887],[3.11323,50.17904],[3.11319,50.17857],[3.11284,50.17811],[3.11269,50.17817],[3.11342,50.18014],[3.11428,50.18019],[3.1147,50.17967],[3.11418,50.17952]]]}},{"type":"Feature","properties":{"k":"PPH","s":1.45},"geometry":{"type":"Polygon","coordinates":[[[3.11165,50.18049],[3.1115,50.18106],[3.115,50.18091],[3.11517,50.18049],[3.11165,50.18049]]]}},{"type":"Feature","properties":{"k":"CZH","s":1.611},"geometry":{"type":"Polygon","coordinates":[[[3.11477,50.18238],[3.11131,50.18235],[3.11117,50.18292],[3.11471,50.18297],[3.11477,50.18238]]]}},{"type":"Feature","properties":{"k":"MIS","s":2.334},"geometry":{"type":"Polygon","coordinates":[[[3.11351,50.18353],[3.11469,50.1835],[3.11472,50.18297],[3.11113,50.183],[3.11116,50.18387],[3.11345,50.18407],[3.11351,50.18353]]]}},{"type":"Feature","properties":{"k":"BTH","s":1.027},"geometry":{"type":"Polygon","coordinates":[[[3.11345,50.18407],[3.11116,50.18387],[3.1112,50.18341],[3.11101,50.1834],[3.11062,50.1839],[3.11465,50.18429],[3.11469,50.1835],[3.11351,50.18353],[3.11345,50.18407]]]}},{"type":"Feature","properties":{"k":"PPH","s":0.336},"geometry":{"type":"Polygon","coordinates":[[[3.11675,50.18259],[3.11482,50.18278],[3.11482,50.183],[3.11688,50.18279],[3.11675,50.18259]]]}},{"type":"Feature","properties":{"k":"PPH","s":1.547},"geometry":{"type":"Polygon","coordinates":[[[3.1172,50.18339],[3.11473,50.18354],[3.11474,50.18427],[3.11758,50.18405],[3.1172,50.18339]]]}},{"type":"Feature","properties":{"k":"MIS","s":0.585},"geometry":{"type":"Polygon","coordinates":[[[3.11706,50.18532],[3.11825,50.18502],[3.1179,50.18457],[3.11632,50.18499],[3.11706,50.18532]]]}},{"type":"Feature","properties":{"k":"BTH","s":2.897},"geometry":{"type":"Polygon","coordinates":[[[3.11568,50.18474],[3.1128,50.18631],[3.11362,50.18707],[3.11684,50.18529],[3.11568,50.18474]]]}},{"type":"Feature","properties":{"k":"ORH","s":1.653},"geometry":{"type":"Polygon","coordinates":[[[3.11349,50.18593],[3.11564,50.18476],[3.11491,50.18443],[3.11182,50.18613],[3.1126,50.18613],[3.1128,50.18631],[3.11349,50.18593]]]}},{"type":"Feature","properties":{"k":"CZH","s":3.892},"geometry":{"type":"Polygon","coordinates":[[[3.11287,50.1898],[3.11251,50.19028],[3.11246,50.19092],[3.11371,50.19088],[3.11563,50.19051],[3.11661,50.19047],[3.11459,50.18884],[3.11287,50.1898]]]}},{"type":"Feature","properties":{"k":"BTH","s":0.041},"geometry":{"type":"Polygon","coordinates":[[[3.11549,50.18859],[3.11544,50.18854],[3.11464,50.18888],[3.11549,50.18859]]]}},{"type":"Feature","properties":{"k":"OIG","s":1.467},"geometry":{"type":"Polygon","coordinates":[[[3.11754,50.19045],[3.11549,50.18859],[3.11464,50.18888],[3.11653,50.1904],[3.11754,50.19045]]]}},{"type":"Feature","properties":{"k":"PTC","s":5.494},"geometry":{"type":"Polygon","coordinates":[[[3.12032,50.18974],[3.11789,50.18779],[3.11663,50.18806],[3.11544,50.18854],[3.11758,50.19049],[3.12032,50.18974]]]}},{"type":"Feature","properties":{"k":"TRN","s":0.159},"geometry":{"type":"Polygon","coordinates":[[[3.11635,50.18798],[3.1151,50.18841],[3.11915,50.18741],[3.11635,50.18798]]]}},{"type":"Feature","properties":{"k":"BTH","s":6.811},"geometry":{"type":"Polygon","coordinates":[[[3.1151,50.18841],[3.11635,50.18798],[3.11995,50.18719],[3.11975,50.18656],[3.11847,50.18523],[3.11418,50.18759],[3.1151,50.18841]]]}},{"type":"Feature","properties":{"k":"BTN","s":7.34},"geometry":{"type":"Polygon","coordinates":[[[3.11958,50.18625],[3.12015,50.18735],[3.12219,50.18896],[3.12282,50.18874],[3.12435,50.18856],[3.12245,50.18543],[3.11958,50.18625]]]}},{"type":"Feature","properties":{"k":"PHF","s":3.788},"geometry":{"type":"Polygon","coordinates":[[[3.12213,50.18905],[3.12144,50.18842],[3.12008,50.18738],[3.11803,50.18778],[3.12036,50.18972],[3.12213,50.18905]]]}},{"type":"Feature","properties":{"k":"MID","s":6.647},"geometry":{"type":"Polygon","coordinates":[[[3.12479,50.18499],[3.12324,50.18529],[3.12315,50.18552],[3.12263,50.18579],[3.12436,50.18856],[3.12694,50.18841],[3.12479,50.18499]]]}},{"type":"Feature","properties":{"k":"PPH","s":0.977},"geometry":{"type":"Polygon","coordinates":[[[3.12427,50.18423],[3.12396,50.18365],[3.12324,50.18529],[3.12479,50.18499],[3.12427,50.18423]]]}},{"type":"Feature","properties":{"k":"TRN","s":0.133},"geometry":{"type":"Polygon","coordinates":[[[3.12303,50.18561],[3.12296,50.1853],[3.12245,50.18543],[3.12265,50.18578],[3.12303,50.18561]]]}},{"type":"Feature","properties":{"k":"MIS","s":1.948},"geometry":{"type":"Polygon","coordinates":[[[3.12064,50.1848],[3.11873,50.18534],[3.11958,50.18625],[3.12181,50.18554],[3.12064,50.1848]]]}},{"type":"Feature","properties":{"k":"PTC","s":4.98},"geometry":{"type":"Polygon","coordinates":[[[3.11825,50.18483],[3.11988,50.18437],[3.11999,50.18452],[3.11836,50.18499],[3.1187,50.18534],[3.12294,50.18413],[3.12336,50.18268],[3.11794,50.18422],[3.11825,50.18483]]]}},{"type":"Feature","properties":{"k":"PPH","s":0.734},"geometry":{"type":"Polygon","coordinates":[[[3.12276,50.18212],[3.12274,50.18203],[3.12186,50.18211],[3.1223,50.18296],[3.12332,50.18267],[3.12305,50.182],[3.12276,50.18212]]]}},{"type":"Feature","properties":{"k":"JAC","s":0.07},"geometry":{"type":"Polygon","coordinates":[[[3.12513,50.18365],[3.12412,50.18384],[3.12417,50.18392],[3.12513,50.18365]]]}},{"type":"Feature","properties":{"k":"PPH","s":0.526},"geometry":{"type":"Polygon","coordinates":[[[3.12431,50.18423],[3.12456,50.18461],[3.12584,50.18438],[3.12576,50.18419],[3.12616,50.18413],[3.12606,50.1839],[3.12431,50.18423]]]}},{"type":"Feature","properties":{"k":"LUZ","s":1.076},"geometry":{"type":"Polygon","coordinates":[[[3.12676,50.18395],[3.1293,50.18348],[3.12905,50.183],[3.12647,50.18347],[3.12676,50.18395]]]}},{"type":"Feature","properties":{"k":"BTH","s":2.031},"geometry":{"type":"Polygon","coordinates":[[[3.13185,50.18486],[3.13155,50.1843],[3.12747,50.18505],[3.12786,50.18563],[3.13185,50.18486]]]}},{"type":"Feature","properties":{"k":"BTH","s":2.17},"geometry":{"type":"Polygon","coordinates":[[[3.12823,50.18623],[3.1322,50.1855],[3.13188,50.18486],[3.12785,50.18563],[3.12823,50.18623]]]}},{"type":"Feature","properties":{"k":"PTC","s":2.788},"geometry":{"type":"Polygon","coordinates":[[[3.12874,50.18702],[3.13265,50.18632],[3.1322,50.1855],[3.12823,50.18623],[3.12874,50.18702]]]}},{"type":"Feature","properties":{"k":"LBF","s":1.501},"geometry":{"type":"Polygon","coordinates":[[[3.12456,50.18461],[3.12504,50.18538],[3.12727,50.18494],[3.12676,50.1842],[3.12456,50.18461]]]}},{"type":"Feature","properties":{"k":"BTH","s":2.822},"geometry":{"type":"Polygon","coordinates":[[[3.12589,50.18678],[3.12817,50.18638],[3.12728,50.18496],[3.12502,50.18537],[3.12589,50.18678]]]}},{"type":"Feature","properties":{"k":"PHF","s":3.668},"geometry":{"type":"Polygon","coordinates":[[[3.12694,50.18841],[3.12833,50.18834],[3.12954,50.18847],[3.12816,50.18638],[3.12589,50.18678],[3.12694,50.18841]]]}},{"type":"Feature","properties":{"k":"BTH","s":10.095},"geometry":{"type":"Polygon","coordinates":[[[3.12479,50.18856],[3.12286,50.18891],[3.12294,50.18903],[3.12239,50.18917],[3.1231,50.19052],[3.12314,50.19171],[3.1285,50.19031],[3.12727,50.18846],[3.12479,50.18856]]]}},{"type":"Feature","properties":{"k":"BTH","s":4.618},"geometry":{"type":"Polygon","coordinates":[[[3.12893,50.18845],[3.12727,50.18846],[3.1285,50.19031],[3.12674,50.19079],[3.12706,50.19129],[3.13075,50.19029],[3.12969,50.18869],[3.12893,50.18845]]]}},{"type":"Feature","properties":{"k":"MIS","s":1.264},"geometry":{"type":"Polygon","coordinates":[[[3.13264,50.18698],[3.12915,50.18766],[3.12949,50.18816],[3.13066,50.18797],[3.13259,50.1872],[3.13264,50.18698]]]}},{"type":"Feature","properties":{"k":"MIS","s":0.649},"geometry":{"type":"Polygon","coordinates":[[[3.13264,50.18698],[3.13273,50.18674],[3.12902,50.18745],[3.12915,50.18766],[3.13264,50.18698]]]}},{"type":"Feature","properties":{"k":"MIS","s":2.015},"geometry":{"type":"Polygon","coordinates":[[[3.13384,50.18867],[3.13521,50.18853],[3.13427,50.18641],[3.13332,50.18659],[3.13384,50.18867]]]}},{"type":"Feature","properties":{"k":"BTH","s":3.053},"geometry":{"type":"Polygon","coordinates":[[[3.1308,50.18795],[3.13133,50.18897],[3.13384,50.18867],[3.13337,50.18703],[3.1308,50.18795]]]}},{"type":"Feature","properties":{"k":"BTN","s":6.04},"geometry":{"type":"Polygon","coordinates":[[[3.13127,50.19085],[3.13584,50.18978],[3.13504,50.18857],[3.13136,50.189],[3.13025,50.18938],[3.13127,50.19085]]]}},{"type":"Feature","properties":{"k":"BTH","s":4.536},"geometry":{"type":"Polygon","coordinates":[[[3.13509,50.18634],[3.13429,50.18645],[3.13521,50.18853],[3.13731,50.18835],[3.13642,50.18629],[3.1368,50.18623],[3.13633,50.18521],[3.13509,50.18561],[3.13573,50.18639],[3.13532,50.18651],[3.13509,50.18634]]]}},{"type":"Feature","properties":{"k":"BFS","s":0.034},"geometry":{"type":"Polygon","coordinates":[[[3.13436,50.1864],[3.13427,50.18641],[3.13509,50.18634],[3.13537,50.1865],[3.13512,50.18631],[3.13436,50.1864]]]}},{"type":"Feature","properties":{"k":"CZH","s":2.345},"geometry":{"type":"Polygon","coordinates":[[[3.13642,50.18629],[3.13731,50.18835],[3.13865,50.18817],[3.13776,50.18611],[3.13642,50.18629]]]}},{"type":"Feature","properties":{"k":"BTH","s":3.475},"geometry":{"type":"Polygon","coordinates":[[[3.13609,50.18436],[3.13369,50.18368],[3.13442,50.18506],[3.13511,50.18559],[3.13633,50.18521],[3.1368,50.18623],[3.13775,50.18605],[3.13712,50.18462],[3.13609,50.18436]]]}},{"type":"Feature","properties":{"k":"PTC","s":3.277},"geometry":{"type":"Polygon","coordinates":[[[3.13219,50.18536],[3.13437,50.18504],[3.13361,50.18368],[3.13106,50.18319],[3.13219,50.18536]]]}},{"type":"Feature","properties":{"k":"BTH","s":0.766},"geometry":{"type":"Polygon","coordinates":[[[3.13307,50.18223],[3.13379,50.18365],[3.13452,50.18386],[3.13355,50.1821],[3.13307,50.18223]]]}},{"type":"Feature","properties":{"k":"BTH","s":8.911},"geometry":{"type":"Polygon","coordinates":[[[3.13366,50.18222],[3.13452,50.18386],[3.13731,50.1846],[3.14005,50.18475],[3.13905,50.18271],[3.13731,50.18255],[3.13481,50.18178],[3.13476,50.18194],[3.13366,50.18222]]]}},{"type":"Feature","properties":{"k":"BTH","s":0.815},"geometry":{"type":"Polygon","coordinates":[[[3.1373,50.18244],[3.13811,50.18254],[3.13655,50.18088],[3.13613,50.18111],[3.1373,50.18244]]]}},{"type":"Feature","properties":{"k":"MIS","s":0.853},"geometry":{"type":"Polygon","coordinates":[[[3.13552,50.18151],[3.1359,50.18208],[3.1373,50.18244],[3.13598,50.18106],[3.13552,50.18151]]]}},{"type":"Feature","properties":{"k":"JAC","s":0.038},"geometry":{"type":"Polygon","coordinates":[[[3.13606,50.18104],[3.13613,50.18111],[3.13655,50.18088],[3.13606,50.18104]]]}},{"type":"Feature","properties":{"k":"MIS","s":4.001},"geometry":{"type":"Polygon","coordinates":[[[3.13481,50.17869],[3.13605,50.18093],[3.13756,50.18032],[3.13524,50.17751],[3.13371,50.1775],[3.13481,50.17869]]]}},{"type":"Feature","properties":{"k":"PPH","s":1.921},"geometry":{"type":"Polygon","coordinates":[[[3.13225,50.17769],[3.1325,50.1784],[3.13178,50.17859],[3.1321,50.17944],[3.13145,50.17956],[3.13179,50.18066],[3.13313,50.1801],[3.13261,50.17884],[3.13261,50.1786],[3.13286,50.17848],[3.13256,50.17764],[3.13225,50.17769]]]}},{"type":"Feature","properties":{"k":"BFS","s":0.058},"geometry":{"type":"Polygon","coordinates":[[[3.13175,50.18095],[3.13234,50.18196],[3.13179,50.18093],[3.13086,50.18074],[3.13175,50.18095]]]}},{"type":"Feature","properties":{"k":"JAC","s":0.136},"geometry":{"type":"Polygon","coordinates":[[[3.13366,50.18222],[3.13476,50.18194],[3.1348,50.18178],[3.1336,50.18209],[3.13366,50.18222]]]}},{"type":"Feature","properties":{"k":"MIS","s":1.688},"geometry":{"type":"Polygon","coordinates":[[[3.13175,50.18095],[3.13088,50.18077],[3.13216,50.18332],[3.13314,50.18351],[3.13175,50.18095]]]}},{"type":"Feature","properties":{"k":"LBF","s":2.215},"geometry":{"type":"Polygon","coordinates":[[[3.12965,50.18057],[3.13101,50.18308],[3.13216,50.18332],[3.13086,50.18074],[3.12965,50.18057]]]}},{"type":"Feature","properties":{"k":"BTH","s":5.827},"geometry":{"type":"Polygon","coordinates":[[[3.12585,50.18157],[3.12536,50.18198],[3.13093,50.18308],[3.12959,50.18058],[3.12814,50.18078],[3.12585,50.18157]]]}},{"type":"Feature","properties":{"k":"PPH","s":2.713},"geometry":{"type":"Polygon","coordinates":[[[3.12855,50.17917],[3.12807,50.17921],[3.12795,50.17903],[3.12699,50.17936],[3.1267,50.17906],[3.12798,50.18043],[3.12648,50.18101],[3.12574,50.18043],[3.12608,50.18028],[3.12576,50.17994],[3.12533,50.18015],[3.12564,50.18045],[3.12524,50.18058],[3.12612,50.18126],[3.128,50.18048],[3.12814,50.18078],[3.12959,50.18058],[3.12934,50.17978],[3.12911,50.17979],[3.12855,50.17917]]]}},{"type":"Feature","properties":{"k":"PPH","s":0.601},"geometry":{"type":"Polygon","coordinates":[[[3.13034,50.17681],[3.1305,50.17751],[3.13102,50.17775],[3.1307,50.17602],[3.13034,50.17681]]]}},{"type":"Feature","properties":{"k":"PTR","s":0.612},"geometry":{"type":"Polygon","coordinates":[[[3.13145,50.17679],[3.13151,50.17771],[3.13199,50.17764],[3.13185,50.17611],[3.13136,50.17609],[3.13145,50.17679]]]}},{"type":"Feature","properties":{"k":"PPH","s":0.991},"geometry":{"type":"Polygon","coordinates":[[[3.13179,50.17587],[3.13083,50.17604],[3.13102,50.17776],[3.13151,50.17771],[3.13136,50.17609],[3.133,50.17613],[3.13351,50.17598],[3.13179,50.17587]]]}},{"type":"Feature","properties":{"k":"BTH","s":1.843},"geometry":{"type":"Polygon","coordinates":[[[3.13199,50.17764],[3.13363,50.17741],[3.13352,50.17606],[3.13185,50.17611],[3.13199,50.17764]]]}},{"type":"Feature","properties":{"k":"PPH","s":0.41},"geometry":{"type":"Polygon","coordinates":[[[3.13409,50.17873],[3.13481,50.1787],[3.13358,50.1775],[3.13409,50.17873]]]}},{"type":"Feature","properties":{"k":"BTH","s":0.246},"geometry":{"type":"Polygon","coordinates":[[[3.11644,50.16806],[3.11654,50.16735],[3.11592,50.16796],[3.11644,50.16806]]]}},{"type":"Feature","properties":{"k":"PTC","s":5.136},"geometry":{"type":"Polygon","coordinates":[[[3.11642,50.16808],[3.11317,50.16749],[3.1131,50.16863],[3.11279,50.16949],[3.11598,50.17006],[3.11642,50.16808]]]}},{"type":"Feature","properties":{"k":"BTH","s":4.703},"geometry":{"type":"Polygon","coordinates":[[[3.11122,50.17109],[3.11365,50.17154],[3.11392,50.17099],[3.11566,50.17122],[3.11598,50.17006],[3.11279,50.16949],[3.11122,50.17109]]]}},{"type":"Feature","properties":{"k":"BTH","s":1.703},"geometry":{"type":"Polygon","coordinates":[[[3.11618,50.16993],[3.11699,50.17066],[3.11727,50.17054],[3.11739,50.17071],[3.11859,50.17007],[3.11637,50.16901],[3.11618,50.16993]]]}},{"type":"Feature","properties":{"k":"BFS","s":0.046},"geometry":{"type":"Polygon","coordinates":[[[3.11739,50.17071],[3.11724,50.17055],[3.11737,50.17075],[3.11867,50.17007],[3.11847,50.16998],[3.11859,50.17007],[3.11739,50.17071]]]}},{"type":"Feature","properties":{"k":"PPH","s":0.17},"geometry":{"type":"Polygon","coordinates":[[[3.11908,50.16982],[3.11827,50.16892],[3.11886,50.16976],[3.11858,50.17003],[3.11908,50.16982]]]}},{"type":"Feature","properties":{"k":"ORH","s":1.56},"geometry":{"type":"Polygon","coordinates":[[[3.11661,50.16823],[3.11637,50.16901],[3.1185,50.17],[3.11886,50.16976],[3.11805,50.16881],[3.11661,50.16823]]]}},{"type":"Feature","properties":{"k":"BFS","s":0.006},"geometry":{"type":"Polygon","coordinates":[[[3.11783,50.16826],[3.11785,50.16826],[3.11787,50.16774],[3.11783,50.16826]]]}},{"type":"Feature","properties":{"k":"MIS","s":0.556},"geometry":{"type":"Polygon","coordinates":[[[3.11785,50.16826],[3.11668,50.16779],[3.11661,50.16823],[3.11834,50.16895],[3.11785,50.16826]]]}},{"type":"Feature","properties":{"k":"JAC","s":0.478},"geometry":{"type":"Polygon","coordinates":[[[3.11709,50.16689],[3.11673,50.16729],[3.11787,50.16774],[3.118,50.16716],[3.11709,50.16689]]]}},{"type":"Feature","properties":{"k":"MIS","s":0.472},"geometry":{"type":"Polygon","coordinates":[[[3.11673,50.16729],[3.11668,50.16779],[3.11783,50.16826],[3.11785,50.16774],[3.11673,50.16729]]]}},{"type":"Feature","properties":{"k":"PTR","s":2.198},"geometry":{"type":"Polygon","coordinates":[[[3.116,50.17371],[3.11711,50.17404],[3.11761,50.17368],[3.11694,50.17341],[3.11887,50.17214],[3.11838,50.17202],[3.11747,50.17241],[3.11723,50.17231],[3.11707,50.17248],[3.11665,50.1725],[3.11661,50.17239],[3.11608,50.17251],[3.11604,50.17283],[3.11552,50.1733],[3.116,50.17371]]]}},{"type":"Feature","properties":{"k":"PPH","s":1.029},"geometry":{"type":"Polygon","coordinates":[[[3.11585,50.17119],[3.1157,50.17175],[3.11694,50.172],[3.1172,50.17057],[3.11585,50.17119]]]}},{"type":"Feature","properties":{"k":"PPH","s":0.928},"geometry":{"type":"Polygon","coordinates":[[[3.11501,50.17335],[3.11564,50.17298],[3.11619,50.17209],[3.11566,50.1718],[3.11436,50.17323],[3.11501,50.17335]]]}},{"type":"Feature","properties":{"k":"BTH","s":0.873},"geometry":{"type":"Polygon","coordinates":[[[3.11342,50.17318],[3.11414,50.17331],[3.1135,50.17313],[3.11428,50.17211],[3.11349,50.17187],[3.1127,50.17328],[3.11326,50.17338],[3.11342,50.17318]]]}},{"type":"Feature","properties":{"k":"BTH","s":0.949},"geometry":{"type":"Polygon","coordinates":[[[3.11297,50.17478],[3.11322,50.17446],[3.11315,50.17406],[3.11152,50.17378],[3.11232,50.175],[3.11297,50.17478]]]}},{"type":"Feature","properties":{"k":"PPH","s":1.041},"geometry":{"type":"Polygon","coordinates":[[[3.11005,50.17361],[3.11026,50.17396],[3.11089,50.17393],[3.1122,50.17553],[3.11252,50.17569],[3.11269,50.17562],[3.11148,50.17378],[3.11005,50.17361]]]}},{"type":"Feature","properties":{"k":"BTN","s":5.763},"geometry":{"type":"Polygon","coordinates":[[[3.10757,50.17499],[3.11035,50.17445],[3.10944,50.17316],[3.10792,50.17274],[3.10483,50.17374],[3.10757,50.17499]]]}},{"type":"Feature","properties":{"k":"PTR","s":2.296},"geometry":{"type":"Polygon","coordinates":[[[3.10793,50.17262],[3.10881,50.17154],[3.10647,50.17076],[3.10613,50.17163],[3.10661,50.17226],[3.10793,50.17262]]]}},{"type":"Feature","properties":{"k":"MIS","s":3.875},"geometry":{"type":"Polygon","coordinates":[[[3.10881,50.17154],[3.10793,50.17262],[3.10934,50.17295],[3.11081,50.17134],[3.10716,50.17018],[3.10701,50.17045],[3.10663,50.17035],[3.10649,50.17072],[3.10881,50.17154]]]}},{"type":"Feature","properties":{"k":"PHF","s":5.772},"geometry":{"type":"Polygon","coordinates":[[[3.11,50.17339],[3.1104,50.17357],[3.11234,50.17392],[3.11365,50.17154],[3.11122,50.17109],[3.10968,50.17276],[3.11,50.17339]]]}},{"type":"Feature","properties":{"k":"BTN","s":6.651},"geometry":{"type":"Polygon","coordinates":[[[3.11162,50.1706],[3.1128,50.16925],[3.10771,50.16755],[3.10713,50.16907],[3.11162,50.1706]]]}},{"type":"Feature","properties":{"k":"PHF","s":5.472},"geometry":{"type":"Polygon","coordinates":[[[3.1128,50.16925],[3.11284,50.16921],[3.113,50.16796],[3.10819,50.16633],[3.10771,50.16755],[3.1128,50.16925]]]}},{"type":"Feature","properties":{"k":"BTN","s":0.57},"geometry":{"type":"Polygon","coordinates":[[[3.10713,50.16907],[3.10708,50.1692],[3.11145,50.17072],[3.11158,50.17059],[3.10713,50.16907]]]}},{"type":"Feature","properties":{"k":"BTN","s":3.001},"geometry":{"type":"Polygon","coordinates":[[[3.10675,50.17005],[3.11081,50.17134],[3.11145,50.17072],[3.10708,50.1692],[3.10675,50.17005]]]}},{"type":"Feature","properties":{"k":"BTH","s":7.789},"geometry":{"type":"Polygon","coordinates":[[[3.10437,50.17159],[3.10582,50.17202],[3.1068,50.16967],[3.10199,50.1693],[3.10155,50.17122],[3.10437,50.17159]]]}},{"type":"Feature","properties":{"k":"MIS","s":3.502},"geometry":{"type":"Polygon","coordinates":[[[3.10229,50.16846],[3.10713,50.16878],[3.10749,50.16789],[3.10253,50.1676],[3.10229,50.16846]]]}},{"type":"Feature","properties":{"k":"BTN","s":5.496},"geometry":{"type":"Polygon","coordinates":[[[3.10253,50.1676],[3.10749,50.16789],[3.10804,50.16652],[3.10306,50.16626],[3.10253,50.1676]]]}},{"type":"Feature","properties":{"k":"BTH","s":0.992},"geometry":{"type":"Polygon","coordinates":[[[3.10131,50.17254],[3.10383,50.17169],[3.10152,50.17148],[3.10131,50.17254]]]}},{"type":"Feature","properties":{"k":"BTH","s":2.407},"geometry":{"type":"Polygon","coordinates":[[[3.10128,50.1734],[3.10556,50.17202],[3.10384,50.17168],[3.10135,50.17253],[3.10128,50.1734]]]}},{"type":"Feature","properties":{"k":"BTH","s":3.345},"geometry":{"type":"Polygon","coordinates":[[[3.10483,50.17374],[3.10792,50.17274],[3.10568,50.17205],[3.10303,50.17291],[3.10306,50.17306],[3.10483,50.17374]]]}},{"type":"Feature","properties":{"k":"BTH","s":2.908},"geometry":{"type":"Polygon","coordinates":[[[3.10281,50.17293],[3.10128,50.17342],[3.10123,50.17497],[3.10469,50.17375],[3.10281,50.17293]]]}},{"type":"Feature","properties":{"k":"BTH","s":13.593},"geometry":{"type":"Polygon","coordinates":[[[3.09352,50.17632],[3.10059,50.17384],[3.1009,50.17146],[3.09291,50.17431],[3.09328,50.1752],[3.09303,50.17527],[3.09352,50.17632]]]}},{"type":"Feature","properties":{"k":"BTN","s":4.991},"geometry":{"type":"Polygon","coordinates":[[[3.09765,50.17094],[3.09498,50.1719],[3.09572,50.1733],[3.10077,50.17149],[3.09932,50.17133],[3.09765,50.17094]]]}},{"type":"Feature","properties":{"k":"BTH","s":7.303},"geometry":{"type":"Polygon","coordinates":[[[3.09162,50.17305],[3.09742,50.17094],[3.09495,50.17016],[3.09002,50.17197],[3.09162,50.17305]]]}},{"type":"Feature","properties":{"k":"CZH","s":3.056},"geometry":{"type":"Polygon","coordinates":[[[3.0927,50.17272],[3.0934,50.17414],[3.09572,50.1733],[3.09498,50.1719],[3.0927,50.17272]]]}},{"type":"Feature","properties":{"k":"BTN","s":1.046},"geometry":{"type":"Polygon","coordinates":[[[3.0927,50.17272],[3.09175,50.17307],[3.09232,50.17361],[3.09266,50.17441],[3.09335,50.17407],[3.0927,50.17272]]]}},{"type":"Feature","properties":{"k":"BTH","s":0.004},"geometry":{"type":"Polygon","coordinates":[[[3.09197,50.17343],[3.09221,50.17363],[3.09217,50.17357],[3.09197,50.17343]]]}},{"type":"Feature","properties":{"k":"BTN","s":2.066},"geometry":{"type":"Polygon","coordinates":[[[3.09002,50.17196],[3.09495,50.17015],[3.09355,50.16971],[3.09221,50.17019],[3.09251,50.17054],[3.08987,50.17185],[3.09002,50.17196]]]}},{"type":"Feature","properties":{"k":"PHF","s":0.181},"geometry":{"type":"Polygon","coordinates":[[[3.09322,50.16961],[3.09207,50.17001],[3.09221,50.17018],[3.09344,50.16968],[3.09322,50.16961]]]}},{"type":"Feature","properties":{"k":"BTN","s":0.617},"geometry":{"type":"Polygon","coordinates":[[[3.09322,50.16961],[3.0912,50.16897],[3.09207,50.17001],[3.09322,50.16961]]]}},{"type":"Feature","properties":{"k":"ORH","s":0.334},"geometry":{"type":"Polygon","coordinates":[[[3.09104,50.16771],[3.09063,50.16775],[3.09101,50.16858],[3.09156,50.16881],[3.09104,50.16771]]]}},{"type":"Feature","properties":{"k":"BTH","s":4.125},"geometry":{"type":"Polygon","coordinates":[[[3.09169,50.16906],[3.09479,50.17003],[3.09357,50.16747],[3.09104,50.16771],[3.09169,50.16906]]]}},{"type":"Feature","properties":{"k":"JAC","s":1.174},"geometry":{"type":"Polygon","coordinates":[[[3.09643,50.17051],[3.09682,50.17061],[3.0947,50.16611],[3.09441,50.16616],[3.09643,50.17051]]]}},{"type":"Feature","properties":{"k":"CZH","s":2.128},"geometry":{"type":"Polygon","coordinates":[[[3.0947,50.16611],[3.09682,50.1706],[3.09728,50.17073],[3.09739,50.17063],[3.09525,50.166],[3.0947,50.16611]]]}},{"type":"Feature","properties":{"k":"CZH","s":3.443},"geometry":{"type":"Polygon","coordinates":[[[3.09643,50.1705],[3.09441,50.16616],[3.09343,50.16633],[3.0952,50.17015],[3.09643,50.1705]]]}},{"type":"Feature","properties":{"k":"CZH","s":0.89},"geometry":{"type":"Polygon","coordinates":[[[3.09323,50.16635],[3.09337,50.16634],[3.0936,50.16747],[3.0948,50.17004],[3.09521,50.17017],[3.09343,50.16633],[3.09323,50.16635]]]}},{"type":"Feature","properties":{"k":"CZH","s":7.787},"geometry":{"type":"Polygon","coordinates":[[[3.09891,50.17094],[3.10081,50.17102],[3.10165,50.1678],[3.09744,50.16777],[3.09891,50.17094]]]}},{"type":"Feature","properties":{"k":"PTC","s":5.265},"geometry":{"type":"Polygon","coordinates":[[[3.09891,50.17094],[3.0965,50.16574],[3.09525,50.166],[3.09746,50.17056],[3.09737,50.17071],[3.09766,50.17054],[3.09805,50.17054],[3.09847,50.17087],[3.09891,50.17094]]]}},{"type":"Feature","properties":{"k":"ORP","s":3.208},"geometry":{"type":"Polygon","coordinates":[[[3.10041,50.16663],[3.09925,50.16691],[3.09928,50.16711],[3.09714,50.16712],[3.09744,50.16777],[3.10142,50.1678],[3.10179,50.16651],[3.10043,50.16651],[3.10041,50.16663]]]}},{"type":"Feature","properties":{"k":"MIS","s":4.419},"geometry":{"type":"Polygon","coordinates":[[[3.09713,50.16652],[3.10179,50.16651],[3.10142,50.1678],[3.10168,50.1678],[3.10248,50.16559],[3.09913,50.16545],[3.09768,50.16559],[3.0968,50.16583],[3.09713,50.16652]]]}},{"type":"Feature","properties":{"k":"JAC","s":1.948},"geometry":{"type":"Polygon","coordinates":[[[3.09714,50.16712],[3.09928,50.16711],[3.09925,50.16691],[3.10041,50.16663],[3.10043,50.16651],[3.09713,50.16652],[3.09678,50.16578],[3.09913,50.16545],[3.10248,50.16559],[3.10255,50.16545],[3.09912,50.16534],[3.09649,50.16573],[3.09714,50.16712]]]}},{"type":"Feature","properties":{"k":"BTH","s":1.961},"geometry":{"type":"Polygon","coordinates":[[[3.09852,50.16532],[3.10034,50.16535],[3.09921,50.16382],[3.09759,50.16407],[3.09852,50.16532]]]}},{"type":"Feature","properties":{"k":"MIS","s":0.406},"geometry":{"type":"Polygon","coordinates":[[[3.09759,50.16407],[3.09706,50.16417],[3.09778,50.16505],[3.09824,50.16493],[3.09759,50.16407]]]}},{"type":"Feature","properties":{"k":"BFS","s":0.033},"geometry":{"type":"Polygon","coordinates":[[[3.09706,50.16417],[3.09702,50.16418],[3.09774,50.16507],[3.09706,50.16417]]]}},{"type":"Feature","properties":{"k":"BTH","s":9.574},"geometry":{"type":"MultiPolygon","coordinates":[[[[3.09728,50.16548],[3.09628,50.16422],[3.09653,50.16418],[3.09588,50.16313],[3.09447,50.16365],[3.09455,50.16377],[3.09373,50.16392],[3.09289,50.16439],[3.09224,50.1637],[3.09079,50.16448],[3.09221,50.16595],[3.09276,50.16596],[3.09284,50.16635],[3.09728,50.16548]]],[[[3.1003,50.16366],[3.09948,50.16292],[3.09921,50.16308],[3.10014,50.16361],[3.09829,50.16395],[3.1003,50.16366]]]]}},{"type":"Feature","properties":{"k":"BTH","s":3.508},"geometry":{"type":"Polygon","coordinates":[[[3.10126,50.16353],[3.10289,50.16505],[3.10354,50.16368],[3.10296,50.16325],[3.10228,50.16349],[3.10093,50.16202],[3.09948,50.16292],[3.1003,50.16366],[3.10126,50.16353]]]}},{"type":"Feature","properties":{"k":"BTH","s":3.338},"geometry":{"type":"Polygon","coordinates":[[[3.10225,50.16543],[3.10224,50.16527],[3.10284,50.16503],[3.10126,50.16353],[3.09921,50.16382],[3.10035,50.16535],[3.10225,50.16543]]]}},{"type":"Feature","properties":{"k":"LBF","s":3.017},"geometry":{"type":"Polygon","coordinates":[[[3.10835,50.16554],[3.10326,50.16574],[3.10306,50.16626],[3.10804,50.16652],[3.10835,50.16554]]]}},{"type":"Feature","properties":{"k":"BTH","s":2.752},"geometry":{"type":"Polygon","coordinates":[[[3.10527,50.16452],[3.10361,50.16496],[3.10327,50.16571],[3.10837,50.16553],[3.10527,50.16452]]]}},{"type":"Feature","properties":{"k":"PTC","s":0.275},"geometry":{"type":"Polygon","coordinates":[[[3.1039,50.16435],[3.10365,50.16491],[3.10461,50.16462],[3.10396,50.16411],[3.1039,50.16435]]]}},{"type":"Feature","properties":{"k":"BTN","s":0.029},"geometry":{"type":"Polygon","coordinates":[[[3.10305,50.16321],[3.10296,50.16325],[3.10354,50.16368],[3.10305,50.16321]]]}},{"type":"Feature","properties":{"k":"PTC","s":3.307},"geometry":{"type":"Polygon","coordinates":[[[3.10821,50.16634],[3.11088,50.16724],[3.11123,50.1654],[3.11079,50.1653],[3.11049,50.16556],[3.10891,50.16505],[3.10843,50.16544],[3.10821,50.16634]]]}},{"type":"Feature","properties":{"k":"BTN","s":4.774},"geometry":{"type":"Polygon","coordinates":[[[3.113,50.16796],[3.11374,50.1652],[3.11168,50.16482],[3.11124,50.16541],[3.11093,50.16726],[3.113,50.16796]]]}},{"type":"Feature","properties":{"k":"OIG","s":1.306},"geometry":{"type":"Polygon","coordinates":[[[3.1135,50.1852],[3.11491,50.18443],[3.11397,50.18486],[3.11017,50.18457],[3.10992,50.18502],[3.1135,50.1852]]]}},{"type":"Feature","properties":{"k":"BTH","s":1.957},"geometry":{"type":"Polygon","coordinates":[[[3.11071,50.18398],[3.11017,50.18457],[3.11397,50.18486],[3.11483,50.18439],[3.11071,50.18398]]]}},{"type":"Feature","properties":{"k":"CZH","s":6.495},"geometry":{"type":"Polygon","coordinates":[[[3.10616,50.18291],[3.10595,50.18247],[3.1021,50.18278],[3.10238,50.18393],[3.11097,50.18328],[3.11116,50.18254],[3.10616,50.18291]]]}},{"type":"Feature","properties":{"k":"BTH","s":3.853},"geometry":{"type":"Polygon","coordinates":[[[3.10253,50.18392],[3.10268,50.1845],[3.11041,50.18391],[3.11096,50.18328],[3.10253,50.18392]]]}},{"type":"Feature","properties":{"k":"BTN","s":5.2},"geometry":{"type":"Polygon","coordinates":[[[3.11041,50.18391],[3.10273,50.1845],[3.10297,50.18538],[3.10967,50.18489],[3.11041,50.18391]]]}},{"type":"Feature","properties":{"k":"LBF","s":7.886},"geometry":{"type":"Polygon","coordinates":[[[3.10934,50.18666],[3.10944,50.18621],[3.10816,50.18632],[3.10809,50.18541],[3.10956,50.18529],[3.10967,50.18489],[3.10297,50.18538],[3.10344,50.18715],[3.10934,50.18666]]]}},{"type":"Feature","properties":{"k":"MIS","s":2.698},"geometry":{"type":"Polygon","coordinates":[[[3.09965,50.18147],[3.10065,50.18397],[3.10187,50.18396],[3.10124,50.18158],[3.09965,50.18147]]]}},{"type":"Feature","properties":{"k":"BTH","s":1.597},"geometry":{"type":"Polygon","coordinates":[[[3.10146,50.18598],[3.10223,50.18595],[3.10187,50.18396],[3.10065,50.18397],[3.10146,50.18598]]]}},{"type":"Feature","properties":{"k":"BTN","s":3.958},"geometry":{"type":"Polygon","coordinates":[[[3.0986,50.17989],[3.1008,50.17928],[3.10065,50.17716],[3.09815,50.17799],[3.0986,50.17989]]]}},{"type":"Feature","properties":{"k":"MID","s":0.506},"geometry":{"type":"Polygon","coordinates":[[[3.10065,50.17716],[3.10063,50.17691],[3.0981,50.17776],[3.09814,50.17794],[3.10065,50.17716]]]}},{"type":"Feature","properties":{"k":"BTH","s":1.876},"geometry":{"type":"Polygon","coordinates":[[[3.09812,50.17776],[3.10063,50.17691],[3.10058,50.17601],[3.09787,50.17694],[3.09812,50.17776]]]}},{"type":"Feature","properties":{"k":"PTC","s":3.499},"geometry":{"type":"Polygon","coordinates":[[[3.10052,50.17602],[3.10056,50.17457],[3.09708,50.1758],[3.09785,50.17694],[3.10052,50.17602]]]}},{"type":"Feature","properties":{"k":"BTH","s":3.89},"geometry":{"type":"Polygon","coordinates":[[[3.10223,50.18599],[3.10117,50.18606],[3.10236,50.19059],[3.10347,50.19074],[3.10223,50.18599]]]}},{"type":"Feature","properties":{"k":"AIL","s":0.956},"geometry":{"type":"Polygon","coordinates":[[[3.09978,50.19024],[3.0998,50.1862],[3.09962,50.18622],[3.09937,50.19021],[3.09978,50.19024]]]}},{"type":"Feature","properties":{"k":"BTH","s":0.008},"geometry":{"type":"Polygon","coordinates":[[[3.0998,50.1862],[3.0998,50.18615],[3.09962,50.18616],[3.0998,50.1862]]]}},{"type":"Feature","properties":{"k":"ORH","s":7.014},"geometry":{"type":"Polygon","coordinates":[[[3.09739,50.18217],[3.0972,50.18183],[3.09945,50.18612],[3.10146,50.18598],[3.10006,50.18249],[3.0981,50.18208],[3.09739,50.18217]]]}},{"type":"Feature","properties":{"k":"BTH","s":6.917},"geometry":{"type":"Polygon","coordinates":[[[3.09529,50.18222],[3.09746,50.1862],[3.09945,50.18612],[3.0972,50.18183],[3.09529,50.18222]]]}},{"type":"Feature","properties":{"k":"JAC","s":0.04},"geometry":{"type":"Polygon","coordinates":[]}},{"type":"Feature","properties":{"k":"BTH","s":6.284},"geometry":{"type":"Polygon","coordinates":[[[3.1023,50.19035],[3.10118,50.1861],[3.0998,50.18618],[3.09978,50.19008],[3.1023,50.19035]]]}},{"type":"Feature","properties":{"k":"ORP","s":0.917},"geometry":{"type":"Polygon","coordinates":[[[3.0939,50.1771],[3.09448,50.17838],[3.09589,50.1779],[3.0939,50.1771]]]}},{"type":"Feature","properties":{"k":"PTC","s":2.392},"geometry":{"type":"Polygon","coordinates":[[[3.09448,50.17838],[3.0948,50.17917],[3.09809,50.17803],[3.09791,50.17721],[3.09448,50.17838]]]}},{"type":"Feature","properties":{"k":"CZH","s":3.051},"geometry":{"type":"Polygon","coordinates":[[[3.09404,50.17705],[3.09589,50.1779],[3.09791,50.17721],[3.09706,50.17602],[3.09404,50.17705]]]}},{"type":"Feature","properties":{"k":"MIS","s":0.002},"geometry":{"type":"Polygon","coordinates":[[[3.09397,50.17744],[3.09383,50.17715],[3.09398,50.17749],[3.09397,50.17744]]]}},{"type":"Feature","properties":{"k":"BTH","s":0.016},"geometry":{"type":"Polygon","coordinates":[[[3.09398,50.17749],[3.09444,50.17852],[3.09446,50.17851],[3.09398,50.17749]]]}},{"type":"Feature","properties":{"k":"PTC","s":1.283},"geometry":{"type":"Polygon","coordinates":[[[3.09819,50.17851],[3.09809,50.17803],[3.09486,50.17916],[3.09503,50.17959],[3.09819,50.17851]]]}},{"type":"Feature","properties":{"k":"MIS","s":0.012},"geometry":{"type":"Polygon","coordinates":[[[3.0947,50.17902],[3.09447,50.17852],[3.09445,50.17853],[3.0947,50.17902]]]}},{"type":"Feature","properties":{"k":"BFS","s":0.009},"geometry":{"type":"Polygon","coordinates":[[[3.09705,50.17599],[3.09653,50.1762],[3.09703,50.17602],[3.09705,50.17599]]]}},{"type":"Feature","properties":{"k":"LBF","s":2.003},"geometry":{"type":"Polygon","coordinates":[[[3.09642,50.17621],[3.09643,50.17554],[3.09691,50.17537],[3.09684,50.17517],[3.09355,50.17632],[3.09389,50.17708],[3.09642,50.17621]]]}},{"type":"Feature","properties":{"k":"BTN","s":0.0},"geometry":{"type":"Polygon","coordinates":[]}},{"type":"Feature","properties":{"k":"JAC","s":0.205},"geometry":{"type":"Polygon","coordinates":[[[3.09291,50.17431],[3.09265,50.17441],[3.09303,50.17527],[3.09328,50.1752],[3.09291,50.17431]]]}},{"type":"Feature","properties":{"k":"PTC","s":0.003},"geometry":{"type":"Polygon","coordinates":[[[3.09468,50.17905],[3.0948,50.17933],[3.0947,50.17904],[3.09468,50.17905]]]}},{"type":"Feature","properties":{"k":"BTH","s":1.706},"geometry":{"type":"Polygon","coordinates":[[[3.10077,50.1793],[3.09862,50.17991],[3.09917,50.18083],[3.10097,50.18034],[3.10077,50.1793]]]}},{"type":"Feature","properties":{"k":"JAC","s":1.223},"geometry":{"type":"Polygon","coordinates":[[[3.09721,50.18183],[3.09739,50.18217],[3.0981,50.18208],[3.10006,50.18249],[3.09965,50.18147],[3.09721,50.18183]]]}},{"type":"Feature","properties":{"k":"ORP","s":7.252},"geometry":{"type":"Polygon","coordinates":[[[3.09931,50.18127],[3.0985,50.17987],[3.09819,50.17851],[3.09503,50.17959],[3.09585,50.18192],[3.09931,50.18127]]]}},{"type":"Feature","properties":{"k":"BTH","s":6.305},"geometry":{"type":"Polygon","coordinates":[[[3.14201,50.18243],[3.1431,50.18376],[3.14117,50.18476],[3.14334,50.1852],[3.14609,50.18379],[3.14348,50.18173],[3.14201,50.18243]]]}},{"type":"Feature","properties":{"k":"CZH","s":4.682},"geometry":{"type":"Polygon","coordinates":[[[3.14117,50.18476],[3.1431,50.18376],[3.14201,50.18243],[3.14112,50.18263],[3.13913,50.18272],[3.14021,50.18477],[3.14117,50.18476]]]}},{"type":"Feature","properties":{"k":"BTN","s":10.012},"geometry":{"type":"Polygon","coordinates":[[[3.14583,50.18571],[3.14911,50.18394],[3.14505,50.18078],[3.14346,50.18171],[3.1461,50.18379],[3.14334,50.1852],[3.14583,50.18571]]]}},{"type":"Feature","properties":{"k":"PTC","s":4.336},"geometry":{"type":"Polygon","coordinates":[[[3.15044,50.18611],[3.15231,50.18503],[3.1497,50.18368],[3.14775,50.18473],[3.15044,50.18611]]]}},{"type":"Feature","properties":{"k":"PTC","s":2.674},"geometry":{"type":"Polygon","coordinates":[[[3.15044,50.18611],[3.14775,50.18473],[3.14661,50.18537],[3.14926,50.18677],[3.15044,50.18611]]]}},{"type":"Feature","properties":{"k":"LBF","s":2.633},"geometry":{"type":"Polygon","coordinates":[[[3.14641,50.18873],[3.14383,50.18683],[3.14291,50.18716],[3.14505,50.18927],[3.14641,50.18873]]]}},{"type":"Feature","properties":{"k":"LBF","s":2.286},"geometry":{"type":"Polygon","coordinates":[[[3.14467,50.18642],[3.14383,50.18683],[3.14641,50.18873],[3.14739,50.1883],[3.14467,50.18642]]]}},{"type":"Feature","properties":{"k":"BTH","s":1.926},"geometry":{"type":"Polygon","coordinates":[[[3.1482,50.18785],[3.14535,50.18603],[3.14469,50.18637],[3.14742,50.18828],[3.1482,50.18785]]]}},{"type":"Feature","properties":{"k":"PHF","s":3.697},"geometry":{"type":"Polygon","coordinates":[[[3.14977,50.18703],[3.14659,50.18538],[3.14537,50.18604],[3.14825,50.18785],[3.14977,50.18703]]]}},{"type":"Feature","properties":{"k":"BTN","s":0.022},"geometry":{"type":"MultiPolygon","coordinates":[[[[3.15021,50.18624],[3.14954,50.18662],[3.1504,50.18616],[3.15021,50.18624]]],[[[3.14977,50.18703],[3.14956,50.1872],[3.14984,50.18705],[3.14926,50.18678],[3.14977,50.18703]]]]}},{"type":"Feature","properties":{"k":"BTH","s":0.018},"geometry":{"type":"Polygon","coordinates":[[[3.1495,50.18723],[3.14947,50.18721],[3.149,50.18745],[3.1495,50.18723]]]}},{"type":"Feature","properties":{"k":"LBF","s":0.054},"geometry":{"type":"MultiPolygon","coordinates":[[[[3.14825,50.18785],[3.14714,50.18843],[3.149,50.18749],[3.14825,50.18785]]],[[[3.145,50.1893],[3.145,50.18931],[3.1451,50.18927],[3.145,50.1893]]]]}},{"type":"Feature","properties":{"k":"CZH","s":0.259},"geometry":{"type":"Polygon","coordinates":[[[3.14341,50.1898],[3.14426,50.19059],[3.14442,50.19053],[3.1438,50.1898],[3.14499,50.1893],[3.14341,50.1898]]]}},{"type":"Feature","properties":{"k":"MIS","s":1.676},"geometry":{"type":"Polygon","coordinates":[[[3.1413,50.18763],[3.1407,50.1878],[3.14273,50.1908],[3.14331,50.19063],[3.1413,50.18763]]]}},{"type":"Feature","properties":{"k":"CZH","s":4.761},"geometry":{"type":"Polygon","coordinates":[[[3.14341,50.1898],[3.14505,50.18927],[3.14291,50.18716],[3.1413,50.18764],[3.14332,50.19063],[3.14346,50.19056],[3.14372,50.1908],[3.14426,50.19059],[3.14341,50.1898]]]}},{"type":"Feature","properties":{"k":"BTN","s":2.993},"geometry":{"type":"Polygon","coordinates":[[[3.14122,50.18761],[3.14005,50.18485],[3.13874,50.18477],[3.14009,50.18793],[3.14122,50.18761]]]}},{"type":"Feature","properties":{"k":"LBF","s":2.748},"geometry":{"type":"Polygon","coordinates":[[[3.13868,50.18816],[3.1396,50.18798],[3.13824,50.18475],[3.13716,50.18463],[3.13868,50.18816]]]}},{"type":"Feature","properties":{"k":"BTN","s":8.195},"geometry":{"type":"Polygon","coordinates":[[[3.1413,50.1929],[3.13829,50.18827],[3.13631,50.18849],[3.13941,50.19339],[3.1413,50.1929]]]}},{"type":"Feature","properties":{"k":"BTH","s":5.921},"geometry":{"type":"Polygon","coordinates":[[[3.13975,50.18803],[3.13829,50.18827],[3.1413,50.1929],[3.14271,50.19254],[3.13975,50.18803]]]}}]}