{"type":"FeatureCollection","features":[{"type":"Feature","properties":{"k":"BTH","s":1.983},"geometry":{"type":"Polygon","coordinates":[[[1.94872,50.84345],[1.9497,50.84304],[1.94873,50.8415],[1.94711,50.84173],[1.94872,50.84345]]]}},{"type":"Feature","properties":{"k":"BTH","s":2.945},"geometry":{"type":"Polygon","coordinates":[[[1.9471,50.84204],[1.9464,50.84181],[1.94368,50.84227],[1.94432,50.84312],[1.94358,50.84338],[1.9439,50.84377],[1.94749,50.84235],[1.9471,50.84204]]]}},{"type":"Feature","properties":{"k":"BTH","s":0.187},"geometry":{"type":"Polygon","coordinates":[[[1.94387,50.84128],[1.94418,50.84125],[1.94144,50.83724],[1.9441,50.84124],[1.94381,50.84128],[1.94433,50.8421],[1.94387,50.84128]]]}},{"type":"Feature","properties":{"k":"PTC","s":4.428},"geometry":{"type":"Polygon","coordinates":[[[1.94389,50.84129],[1.94434,50.84209],[1.94677,50.84166],[1.94565,50.83945],[1.94332,50.83998],[1.9442,50.84125],[1.94389,50.84129]]]}},{"type":"Feature","properties":{"k":"PTC","s":11.852},"geometry":{"type":"Polygon","coordinates":[[[1.94636,50.84068],[1.94893,50.83989],[1.94921,50.83849],[1.94888,50.83852],[1.94855,50.83811],[1.94932,50.83796],[1.94937,50.83732],[1.9484,50.83622],[1.9479,50.83618],[1.94414,50.8369],[1.94636,50.84068]]]}},{"type":"Feature","properties":{"k":"MDI","s":0.005},"geometry":{"type":"Polygon","coordinates":[[[1.96104,50.87372],[1.96106,50.8737],[1.9608,50.87361],[1.96104,50.87372]]]}},{"type":"Feature","properties":{"k":"PTR","s":0.005},"geometry":{"type":"Polygon","coordinates":[[[1.96104,50.87372],[1.96142,50.87382],[1.96106,50.8737],[1.96104,50.87372]]]}},{"type":"Feature","properties":{"k":"PTR","s":0.022},"geometry":{"type":"MultiPolygon","coordinates":[[[[1.96001,50.87336],[1.95981,50.87333],[1.96044,50.87353],[1.96001,50.87336]]],[[[1.95929,50.87337],[1.95976,50.87333],[1.9594,50.87332],[1.95929,50.87337]]]]}},{"type":"Feature","properties":{"k":"PPH","s":1.751},"geometry":{"type":"Polygon","coordinates":[[[1.96282,50.87425],[1.96329,50.87233],[1.963,50.87217],[1.96108,50.87364],[1.96282,50.87425]]]}},{"type":"Feature","properties":{"k":"PPH","s":0.629},"geometry":{"type":"Polygon","coordinates":[[[1.96368,50.87055],[1.96379,50.87003],[1.96178,50.87143],[1.96212,50.87165],[1.96368,50.87055]]]}},{"type":"Feature","properties":{"k":"PPH","s":0.434},"geometry":{"type":"Polygon","coordinates":[[[1.96246,50.87182],[1.96331,50.87222],[1.96339,50.87187],[1.96311,50.87204],[1.9634,50.87183],[1.96349,50.87141],[1.96281,50.87187],[1.9635,50.87137],[1.96358,50.87101],[1.96246,50.87182]]]}},{"type":"Feature","properties":{"k":"PPH","s":1.435},"geometry":{"type":"Polygon","coordinates":[[[1.96702,50.86767],[1.96629,50.86742],[1.96571,50.86765],[1.96487,50.86766],[1.96426,50.8681],[1.96384,50.86819],[1.96443,50.86883],[1.9647,50.86851],[1.96521,50.86829],[1.96642,50.86811],[1.96702,50.86767]]]}},{"type":"Feature","properties":{"k":"BTH","s":7.588},"geometry":{"type":"Polygon","coordinates":[[[1.94458,50.85212],[1.94502,50.85311],[1.94603,50.85447],[1.94712,50.85508],[1.94853,50.85399],[1.94505,50.84979],[1.94458,50.85212]]]}},{"type":"Feature","properties":{"k":"BTN","s":7.101},"geometry":{"type":"Polygon","coordinates":[[[1.95017,50.85307],[1.94712,50.84955],[1.94505,50.84979],[1.94853,50.85399],[1.95017,50.85307]]]}},{"type":"Feature","properties":{"k":"PTC","s":8.903},"geometry":{"type":"Polygon","coordinates":[[[1.95176,50.85217],[1.95225,50.85169],[1.95187,50.85123],[1.95088,50.85118],[1.95255,50.85072],[1.95097,50.84934],[1.94931,50.84929],[1.94712,50.84955],[1.95017,50.85307],[1.95176,50.85217]]]}},{"type":"Feature","properties":{"k":"PTC","s":1.495},"geometry":{"type":"Polygon","coordinates":[[[1.95308,50.85455],[1.95372,50.85416],[1.95103,50.85272],[1.95039,50.85306],[1.95308,50.85455]]]}},{"type":"Feature","properties":{"k":"PTC","s":5.661},"geometry":{"type":"Polygon","coordinates":[[[1.9504,50.85306],[1.94794,50.85455],[1.9512,50.85576],[1.95308,50.85455],[1.9504,50.85306]]]}},{"type":"Feature","properties":{"k":"PPH","s":2.298},"geometry":{"type":"Polygon","coordinates":[[[1.94746,50.85521],[1.94784,50.85496],[1.94812,50.85508],[1.94838,50.8549],[1.94864,50.85505],[1.94846,50.85521],[1.94895,50.85555],[1.94851,50.85589],[1.94895,50.85615],[1.94878,50.85627],[1.94747,50.85563],[1.94767,50.85552],[1.94715,50.8552],[1.94625,50.85574],[1.94842,50.85658],[1.95015,50.85537],[1.94794,50.85455],[1.94729,50.85508],[1.94746,50.85521]]]}},{"type":"Feature","properties":{"k":"LIF","s":2.645},"geometry":{"type":"Polygon","coordinates":[[[1.95022,50.8554],[1.94853,50.85658],[1.94954,50.85677],[1.94972,50.85662],[1.95078,50.85696],[1.95143,50.85651],[1.95204,50.85686],[1.95278,50.85637],[1.95022,50.8554]]]}},{"type":"Feature","properties":{"k":"BOR","s":0.032},"geometry":{"type":"Polygon","coordinates":[[[1.95209,50.85683],[1.95204,50.85686],[1.9527,50.85725],[1.95209,50.85683]]]}},{"type":"Feature","properties":{"k":"JAC","s":0.496},"geometry":{"type":"Polygon","coordinates":[[[1.95159,50.86387],[1.95217,50.86434],[1.95303,50.86392],[1.95244,50.86347],[1.95159,50.86387]]]}},{"type":"Feature","properties":{"k":"BTH","s":1.838},"geometry":{"type":"Polygon","coordinates":[[[1.95208,50.86305],[1.95402,50.8621],[1.95283,50.86129],[1.95174,50.8618],[1.95182,50.86197],[1.95142,50.86253],[1.95208,50.86305]]]}},{"type":"Feature","properties":{"k":"PPH","s":0.701},"geometry":{"type":"Polygon","coordinates":[[[1.9514,50.86117],[1.95295,50.86042],[1.95253,50.86001],[1.9512,50.86068],[1.9514,50.86117]]]}},{"type":"Feature","properties":{"k":"JAC","s":0.244},"geometry":{"type":"Polygon","coordinates":[[[1.95702,50.85901],[1.9567,50.85885],[1.95633,50.85914],[1.95697,50.85952],[1.95713,50.85941],[1.95702,50.85901]]]}},{"type":"Feature","properties":{"k":"JAC","s":0.359},"geometry":{"type":"Polygon","coordinates":[[[1.95749,50.85966],[1.95782,50.85978],[1.9583,50.85943],[1.95739,50.85887],[1.95749,50.85966]]]}},{"type":"Feature","properties":{"k":"PPH","s":1.25},"geometry":{"type":"Polygon","coordinates":[[[1.95465,50.86524],[1.95384,50.86463],[1.95241,50.86537],[1.95296,50.86614],[1.95465,50.86524]]]}},{"type":"Feature","properties":{"k":"BOR","s":0.145},"geometry":{"type":"Polygon","coordinates":[[[1.96539,50.86094],[1.96538,50.86146],[1.96496,50.86136],[1.96409,50.86238],[1.96501,50.8614],[1.96545,50.86154],[1.96546,50.86091],[1.96473,50.86062],[1.96539,50.86094]]]}},{"type":"Feature","properties":{"k":"PPH","s":1.049},"geometry":{"type":"Polygon","coordinates":[[[1.96697,50.84862],[1.9683,50.84819],[1.96803,50.84769],[1.96644,50.84731],[1.96576,50.84632],[1.96651,50.84747],[1.96697,50.84862]]]}},{"type":"Feature","properties":{"k":"PPH","s":1.257},"geometry":{"type":"Polygon","coordinates":[[[1.96687,50.85013],[1.96726,50.84994],[1.9677,50.85025],[1.96838,50.84998],[1.96934,50.85093],[1.96894,50.85036],[1.96729,50.84907],[1.96586,50.84949],[1.96687,50.85013]]]}},{"type":"Feature","properties":{"k":"BTH","s":1.134},"geometry":{"type":"Polygon","coordinates":[[[1.96798,50.85196],[1.96652,50.8526],[1.96743,50.85307],[1.9685,50.85334],[1.96798,50.85196]]]}},{"type":"Feature","properties":{"k":"BOR","s":0.052},"geometry":{"type":"Polygon","coordinates":[[[1.96712,50.85312],[1.9652,50.854],[1.96524,50.85401],[1.96712,50.85312]]]}},{"type":"Feature","properties":{"k":"PPH","s":0.382},"geometry":{"type":"Polygon","coordinates":[[[1.97378,50.85775],[1.97276,50.85762],[1.97257,50.85799],[1.97378,50.8582],[1.97378,50.85775]]]}},{"type":"Feature","properties":{"k":"PPH","s":2.668},"geometry":{"type":"Polygon","coordinates":[[[1.97243,50.8589],[1.97262,50.85875],[1.97321,50.85902],[1.97383,50.85821],[1.97257,50.85799],[1.97265,50.85787],[1.97088,50.85745],[1.97096,50.85785],[1.97038,50.85835],[1.97265,50.8595],[1.97302,50.85918],[1.97243,50.8589]]]}},{"type":"Feature","properties":{"k":"BTA","s":0.036},"geometry":{"type":"Polygon","coordinates":[[[1.96661,50.85767],[1.96655,50.8577],[1.96719,50.85819],[1.96661,50.85767]]]}},{"type":"Feature","properties":{"k":"PTC","s":2.536},"geometry":{"type":"Polygon","coordinates":[[[1.96724,50.85817],[1.97002,50.85679],[1.96945,50.85663],[1.96868,50.85605],[1.96697,50.85675],[1.96748,50.85724],[1.96665,50.8577],[1.96724,50.85817]]]}},{"type":"Feature","properties":{"k":"ORP","s":1.66},"geometry":{"type":"Polygon","coordinates":[[[1.96293,50.86142],[1.96404,50.86234],[1.96496,50.86136],[1.96538,50.86146],[1.96539,50.86094],[1.96468,50.86059],[1.96293,50.86142]]]}},{"type":"Feature","properties":{"k":"BOR","s":0.088},"geometry":{"type":"Polygon","coordinates":[[[1.96196,50.8617],[1.96298,50.86249],[1.96166,50.86124],[1.96196,50.8617]]]}},{"type":"Feature","properties":{"k":"BTH","s":4.366},"geometry":{"type":"Polygon","coordinates":[[[1.96237,50.86094],[1.96284,50.86131],[1.96352,50.86104],[1.96197,50.85989],[1.96081,50.86065],[1.96132,50.86115],[1.95975,50.86179],[1.96141,50.86337],[1.96298,50.86249],[1.96196,50.8617],[1.96172,50.86122],[1.96237,50.86094]]]}},{"type":"Feature","properties":{"k":"FLA","s":0.587},"geometry":{"type":"Polygon","coordinates":[[[1.95989,50.85804],[1.96009,50.85824],[1.96219,50.85744],[1.96199,50.85722],[1.95989,50.85804]]]}},{"type":"Feature","properties":{"k":"FLA","s":2.964},"geometry":{"type":"Polygon","coordinates":[[[1.95955,50.8587],[1.95947,50.85955],[1.96104,50.85925],[1.96326,50.85832],[1.96222,50.85746],[1.95955,50.8587]]]}},{"type":"Feature","properties":{"k":"BTN","s":8.448},"geometry":{"type":"Polygon","coordinates":[[[1.95839,50.85944],[1.96004,50.85834],[1.95982,50.85802],[1.96073,50.85765],[1.95965,50.85673],[1.95521,50.85661],[1.95467,50.85693],[1.95516,50.85658],[1.95426,50.85643],[1.95283,50.85732],[1.95344,50.8577],[1.95463,50.85693],[1.95839,50.85944]]]}},{"type":"Feature","properties":{"k":"PTC","s":7.573},"geometry":{"type":"Polygon","coordinates":[[[1.9538,50.85421],[1.95121,50.85576],[1.95283,50.85635],[1.95209,50.85683],[1.95275,50.85722],[1.95408,50.8564],[1.95396,50.8563],[1.95516,50.85656],[1.95794,50.85661],[1.95847,50.85646],[1.95768,50.85575],[1.95458,50.85519],[1.95366,50.85636],[1.95286,50.85622],[1.95456,50.8551],[1.95644,50.85545],[1.95651,50.85524],[1.95544,50.85444],[1.95482,50.85474],[1.9538,50.85421]]]}},{"type":"Feature","properties":{"k":"BOR","s":0.047},"geometry":{"type":"Polygon","coordinates":[[[1.95847,50.85646],[1.95768,50.85575],[1.95774,50.85582],[1.95847,50.85646]]]}},{"type":"Feature","properties":{"k":"PPH","s":1.95},"geometry":{"type":"Polygon","coordinates":[[[1.95877,50.8545],[1.9596,50.85399],[1.95838,50.85303],[1.95908,50.85285],[1.95861,50.85247],[1.95704,50.85289],[1.95717,50.85323],[1.95877,50.8545]]]}},{"type":"Feature","properties":{"k":"BOR","s":0.072},"geometry":{"type":"Polygon","coordinates":[[[1.95651,50.85524],[1.95651,50.85546],[1.95659,50.85522],[1.95548,50.85448],[1.95651,50.85524]]]}},{"type":"Feature","properties":{"k":"JAC","s":0.045},"geometry":{"type":"Polygon","coordinates":[[[1.95372,50.85416],[1.95309,50.85454],[1.95316,50.85459],[1.95372,50.85416]]]}},{"type":"Feature","properties":{"k":"LIF","s":5.863},"geometry":{"type":"Polygon","coordinates":[[[1.95569,50.8543],[1.95508,50.85388],[1.95473,50.85404],[1.95413,50.85356],[1.95539,50.85298],[1.95387,50.85147],[1.95348,50.85167],[1.95283,50.85107],[1.95229,50.85182],[1.95109,50.85273],[1.95481,50.85473],[1.95569,50.8543]]]}},{"type":"Feature","properties":{"k":"BOR","s":0.09},"geometry":{"type":"MultiPolygon","coordinates":[[[[1.95174,50.8523],[1.95229,50.85182],[1.95283,50.85107],[1.95348,50.85167],[1.95349,50.85167],[1.95283,50.85105],[1.95228,50.85181],[1.95109,50.85273],[1.95174,50.8523]]],[[[1.95387,50.85147],[1.95387,50.85146],[1.95349,50.85167],[1.95387,50.85147]]],[[[1.95539,50.85298],[1.95413,50.85356],[1.95414,50.85356],[1.95541,50.85298],[1.95387,50.85147],[1.95539,50.85298]]],[[[1.95473,50.85404],[1.95474,50.85404],[1.95414,50.85356],[1.95473,50.85404]]],[[[1.95508,50.85388],[1.95508,50.85387],[1.95474,50.85404],[1.95508,50.85388]]],[[[1.95569,50.8543],[1.95482,50.85474],[1.95571,50.8543],[1.95508,50.85388],[1.95569,50.8543]]]]}},{"type":"Feature","properties":{"k":"PPH","s":0.96},"geometry":{"type":"Polygon","coordinates":[[[1.95703,50.85286],[1.95862,50.85244],[1.958,50.85177],[1.95653,50.85219],[1.95703,50.85286]]]}},{"type":"Feature","properties":{"k":"BTH","s":6.666},"geometry":{"type":"Polygon","coordinates":[[[1.96441,50.85358],[1.96053,50.85139],[1.95874,50.85223],[1.96196,50.85466],[1.96441,50.85358]]]}},{"type":"Feature","properties":{"k":"JAC","s":0.107},"geometry":{"type":"Polygon","coordinates":[[[1.9617,50.85476],[1.96196,50.85466],[1.96139,50.85427],[1.96131,50.85451],[1.9617,50.85476]]]}},{"type":"Feature","properties":{"k":"PTC","s":4.435},"geometry":{"type":"Polygon","coordinates":[[[1.96587,50.85441],[1.96442,50.85363],[1.96181,50.85485],[1.96359,50.85595],[1.96385,50.85587],[1.96444,50.85605],[1.96607,50.85501],[1.96543,50.85466],[1.96587,50.85441]]]}},{"type":"Feature","properties":{"k":"BTH","s":1.078},"geometry":{"type":"Polygon","coordinates":[[[1.96641,50.85272],[1.96455,50.85365],[1.9652,50.854],[1.96712,50.85312],[1.96641,50.85272]]]}},{"type":"Feature","properties":{"k":"BTN","s":5.998},"geometry":{"type":"Polygon","coordinates":[[[1.96636,50.85268],[1.96238,50.85051],[1.96053,50.85139],[1.96441,50.85358],[1.96636,50.85268]]]}},{"type":"Feature","properties":{"k":"BTH","s":7.412},"geometry":{"type":"Polygon","coordinates":[[[1.9671,50.85213],[1.96726,50.85074],[1.9669,50.85024],[1.9654,50.84925],[1.96467,50.84954],[1.96448,50.84935],[1.96386,50.84958],[1.96371,50.84946],[1.962,50.85015],[1.96636,50.85253],[1.9671,50.85213]]]}},{"type":"Feature","properties":{"k":"NVT","s":2.677},"geometry":{"type":"Polygon","coordinates":[[[1.96145,50.85002],[1.95804,50.85158],[1.95823,50.85186],[1.95865,50.85227],[1.96238,50.85051],[1.96145,50.85002]]]}},{"type":"Feature","properties":{"k":"FLA","s":4.928},"geometry":{"type":"Polygon","coordinates":[[[1.9604,50.84943],[1.962,50.85015],[1.96491,50.84892],[1.96271,50.84774],[1.95983,50.84898],[1.9604,50.84943]]]}},{"type":"Feature","properties":{"k":"BTH","s":1.62},"geometry":{"type":"Polygon","coordinates":[[[1.96404,50.84696],[1.96225,50.8474],[1.9645,50.84859],[1.9647,50.84784],[1.96404,50.84696]]]}},{"type":"Feature","properties":{"k":"PPH","s":1.006},"geometry":{"type":"Polygon","coordinates":[[[1.96655,50.84775],[1.96625,50.84775],[1.96555,50.84608],[1.96499,50.84595],[1.96582,50.84812],[1.96672,50.84809],[1.96655,50.84775]]]}},{"type":"Feature","properties":{"k":"NVT","s":2.114},"geometry":{"type":"Polygon","coordinates":[[[1.96362,50.84578],[1.96385,50.84657],[1.9648,50.84781],[1.9648,50.8481],[1.96582,50.84812],[1.96489,50.84595],[1.96362,50.84578]]]}},{"type":"Feature","properties":{"k":"ORH","s":8.758},"geometry":{"type":"Polygon","coordinates":[[[1.95998,50.84546],[1.96131,50.84661],[1.96358,50.84605],[1.96305,50.84374],[1.96253,50.84285],[1.95872,50.84381],[1.95998,50.84546]]]}},{"type":"Feature","properties":{"k":"LIF","s":1.548},"geometry":{"type":"Polygon","coordinates":[[[1.96133,50.84662],[1.96225,50.8474],[1.96404,50.84696],[1.96358,50.84608],[1.96133,50.84662]]]}},{"type":"Feature","properties":{"k":"PTC","s":8.569},"geometry":{"type":"Polygon","coordinates":[[[1.95983,50.84898],[1.96271,50.84774],[1.95993,50.84548],[1.95945,50.84487],[1.95702,50.84588],[1.95983,50.84898]]]}},{"type":"Feature","properties":{"k":"LIF","s":7.6},"geometry":{"type":"Polygon","coordinates":[[[1.95531,50.84484],[1.95699,50.84588],[1.95948,50.84486],[1.9579,50.84241],[1.95428,50.8439],[1.95531,50.84484]]]}},{"type":"Feature","properties":{"k":"NVT","s":10.203},"geometry":{"type":"Polygon","coordinates":[[[1.95594,50.84939],[1.96028,50.84951],[1.95702,50.84599],[1.95611,50.84643],[1.95578,50.84614],[1.95351,50.84712],[1.95594,50.84939]]]}},{"type":"Feature","properties":{"k":"NVT","s":4.485},"geometry":{"type":"Polygon","coordinates":[[[1.95804,50.85158],[1.96148,50.85001],[1.96025,50.84961],[1.95618,50.84951],[1.95804,50.85158]]]}},{"type":"Feature","properties":{"k":"PPH","s":0.8},"geometry":{"type":"Polygon","coordinates":[[[1.95503,50.85044],[1.95564,50.85134],[1.9567,50.85095],[1.95614,50.85036],[1.95574,50.85027],[1.95503,50.85044]]]}},{"type":"Feature","properties":{"k":"BTH","s":5.888},"geometry":{"type":"Polygon","coordinates":[[[1.94144,50.83724],[1.9433,50.83998],[1.94563,50.83944],[1.94413,50.8369],[1.94144,50.83724]]]}},{"type":"Feature","properties":{"k":"NVT","s":0.003},"geometry":{"type":"Polygon","coordinates":[[[1.94138,50.83651],[1.94136,50.83649],[1.94129,50.83657],[1.94138,50.83651]]]}},{"type":"Feature","properties":{"k":"BTH","s":0.005},"geometry":{"type":"Polygon","coordinates":[[[1.94156,50.8363],[1.94163,50.83621],[1.94136,50.83649],[1.94156,50.8363]]]}},{"type":"Feature","properties":{"k":"PPH","s":3.677},"geometry":{"type":"Polygon","coordinates":[[[1.95201,50.83665],[1.95097,50.83645],[1.95146,50.8368],[1.95121,50.83697],[1.95147,50.83718],[1.95099,50.83743],[1.95025,50.83695],[1.94953,50.83729],[1.94912,50.83901],[1.95061,50.83913],[1.95078,50.83843],[1.95112,50.83815],[1.95204,50.83748],[1.95254,50.83769],[1.95306,50.83724],[1.95201,50.83665]]]}},{"type":"Feature","properties":{"k":"BTH","s":6.804},"geometry":{"type":"Polygon","coordinates":[[[1.95058,50.8399],[1.95154,50.83967],[1.95229,50.84052],[1.95353,50.84021],[1.95504,50.83842],[1.95344,50.8375],[1.9529,50.83785],[1.95204,50.83748],[1.95078,50.83843],[1.95058,50.8399]]]}},{"type":"Feature","properties":{"k":"PPH","s":0.792},"geometry":{"type":"Polygon","coordinates":[[[1.95135,50.83554],[1.95115,50.83581],[1.9514,50.8359],[1.95119,50.83636],[1.9525,50.83683],[1.95295,50.83643],[1.95135,50.83554]]]}},{"type":"Feature","properties":{"k":"PPH","s":0.554},"geometry":{"type":"Polygon","coordinates":[[[1.95365,50.83505],[1.95256,50.8362],[1.95301,50.83643],[1.95402,50.83526],[1.95365,50.83505]]]}},{"type":"Feature","properties":{"k":"JAC","s":0.715},"geometry":{"type":"Polygon","coordinates":[[[1.95222,50.84982],[1.95272,50.8496],[1.95272,50.84939],[1.95097,50.84934],[1.95214,50.85036],[1.95259,50.85015],[1.95222,50.84982]]]}},{"type":"Feature","properties":{"k":"PPH","s":2.102},"geometry":{"type":"Polygon","coordinates":[[[1.95559,50.83694],[1.95364,50.83572],[1.95257,50.83686],[1.95331,50.83728],[1.95401,50.83685],[1.95451,50.8371],[1.9543,50.83733],[1.9552,50.83773],[1.95557,50.83729],[1.95529,50.83715],[1.95559,50.83694]]]}},{"type":"Feature","properties":{"k":"PHF","s":9.55},"geometry":{"type":"Polygon","coordinates":[[[1.95053,50.84854],[1.94994,50.84879],[1.95088,50.84921],[1.95579,50.84935],[1.95244,50.84619],[1.94838,50.84791],[1.94953,50.84855],[1.9502,50.84824],[1.95053,50.84854]]]}},{"type":"Feature","properties":{"k":"BOR","s":0.033},"geometry":{"type":"Polygon","coordinates":[[[1.94775,50.84768],[1.94837,50.84802],[1.94767,50.84823],[1.94845,50.84929],[1.94769,50.84823],[1.9484,50.84802],[1.94702,50.84715],[1.94775,50.84768]]]}},{"type":"Feature","properties":{"k":"BTP","s":0.648},"geometry":{"type":"MultiPolygon","coordinates":[[[[1.95961,50.83598],[1.95884,50.83553],[1.95906,50.83632],[1.95961,50.83598]]],[[[1.9605,50.83649],[1.96026,50.83615],[1.95919,50.83676],[1.95929,50.83713],[1.9605,50.83649]]],[[[1.96002,50.83926],[1.95969,50.83855],[1.9599,50.83927],[1.96002,50.83926]]]]}},{"type":"Feature","properties":{"k":"BTH","s":3.982},"geometry":{"type":"Polygon","coordinates":[[[1.95676,50.83692],[1.95842,50.83868],[1.95946,50.83928],[1.9599,50.83927],[1.95931,50.83771],[1.95885,50.83736],[1.95929,50.83713],[1.95919,50.83676],[1.95856,50.83711],[1.95824,50.83683],[1.95906,50.83632],[1.95884,50.83553],[1.95862,50.83541],[1.95676,50.83692]]]}},{"type":"Feature","properties":{"k":"BTN","s":6.5},"geometry":{"type":"Polygon","coordinates":[[[1.9583,50.83869],[1.95676,50.83707],[1.95653,50.83705],[1.95606,50.83738],[1.95369,50.8402],[1.95603,50.8394],[1.95661,50.8402],[1.9595,50.83951],[1.9583,50.83869]]]}},{"type":"Feature","properties":{"k":"PTC","s":6.179},"geometry":{"type":"Polygon","coordinates":[[[1.95369,50.8402],[1.95258,50.84167],[1.9526,50.84225],[1.95299,50.8427],[1.95708,50.841],[1.95599,50.83942],[1.95369,50.8402]]]}},{"type":"Feature","properties":{"k":"BTP","s":1.155},"geometry":{"type":"Polygon","coordinates":[[[1.95786,50.8424],[1.95773,50.84206],[1.95398,50.8436],[1.95429,50.84387],[1.95786,50.8424]]]}},{"type":"Feature","properties":{"k":"BTN","s":4.039},"geometry":{"type":"Polygon","coordinates":[[[1.95398,50.8436],[1.95771,50.84204],[1.95708,50.84101],[1.9549,50.84191],[1.95299,50.8427],[1.95398,50.8436]]]}},{"type":"Feature","properties":{"k":"EPI","s":0.005},"geometry":{"type":"Polygon","coordinates":[[[1.94488,50.84992],[1.94481,50.85048],[1.94489,50.85024],[1.94488,50.84992]]]}},{"type":"Feature","properties":{"k":"BTH","s":3.426},"geometry":{"type":"Polygon","coordinates":[[[1.95751,50.84156],[1.96015,50.84092],[1.95985,50.84058],[1.96012,50.84052],[1.9595,50.83952],[1.95661,50.8402],[1.95751,50.84156]]]}},{"type":"Feature","properties":{"k":"BTH","s":7.004},"geometry":{"type":"Polygon","coordinates":[[[1.96195,50.84185],[1.96054,50.84099],[1.96028,50.84109],[1.96015,50.84092],[1.95751,50.84156],[1.95872,50.84381],[1.96253,50.84285],[1.96195,50.84185]]]}},{"type":"Feature","properties":{"k":"MIS","s":0.015},"geometry":{"type":"Polygon","coordinates":[[[1.96065,50.83641],[1.96044,50.83627],[1.9605,50.83649],[1.96065,50.83641]]]}},{"type":"Feature","properties":{"k":"LIF","s":5.245},"geometry":{"type":"Polygon","coordinates":[[[1.94767,50.84823],[1.94837,50.84802],[1.94702,50.84715],[1.94465,50.84783],[1.94495,50.84967],[1.94839,50.84928],[1.94767,50.84823]]]}},{"type":"Feature","properties":{"k":"PHF","s":0.002},"geometry":{"type":"Polygon","coordinates":[[[1.95911,50.83486],[1.95899,50.83499],[1.95931,50.83468],[1.95911,50.83486]]]}},{"type":"Feature","properties":{"k":"BTH","s":3.148},"geometry":{"type":"Polygon","coordinates":[[[1.957,50.83365],[1.95886,50.835],[1.96031,50.83364],[1.9589,50.8326],[1.957,50.83365]]]}},{"type":"Feature","properties":{"k":"BTH","s":4.666},"geometry":{"type":"Polygon","coordinates":[[[1.95669,50.83687],[1.95775,50.83622],[1.95879,50.83507],[1.95724,50.83392],[1.95501,50.83511],[1.95669,50.83687]]]}},{"type":"Feature","properties":{"k":"BTN","s":3.141},"geometry":{"type":"Polygon","coordinates":[[[1.95661,50.83093],[1.96034,50.83365],[1.96119,50.83317],[1.95742,50.83049],[1.95661,50.83093]]]}},{"type":"Feature","properties":{"k":"MIS","s":2.313},"geometry":{"type":"Polygon","coordinates":[[[1.95746,50.83048],[1.96102,50.83304],[1.9591,50.83156],[1.96041,50.83087],[1.95899,50.82969],[1.95746,50.83048]]]}},{"type":"Feature","properties":{"k":"ORH","s":5.836},"geometry":{"type":"Polygon","coordinates":[[[1.95397,50.8305],[1.95544,50.83156],[1.95466,50.83197],[1.95698,50.83365],[1.9589,50.8326],[1.95661,50.83093],[1.95637,50.83104],[1.95497,50.82998],[1.95397,50.8305]]]}},{"type":"Feature","properties":{"k":"BTP","s":2.473},"geometry":{"type":"Polygon","coordinates":[[[1.95543,50.83155],[1.95351,50.83018],[1.95221,50.8309],[1.9541,50.83225],[1.95543,50.83155]]]}},{"type":"Feature","properties":{"k":"BTH","s":9.089},"geometry":{"type":"Polygon","coordinates":[[[1.95637,50.83104],[1.96091,50.82864],[1.96021,50.829],[1.95892,50.82778],[1.95695,50.82882],[1.95642,50.82846],[1.95579,50.82878],[1.95444,50.82779],[1.95289,50.82847],[1.95637,50.83104]]]}},{"type":"Feature","properties":{"k":"PTR","s":0.079},"geometry":{"type":"Polygon","coordinates":[[[1.95739,50.8286],[1.95702,50.82874],[1.95659,50.82838],[1.95643,50.82846],[1.95694,50.82883],[1.95739,50.8286]]]}},{"type":"Feature","properties":{"k":"LIF","s":1.165},"geometry":{"type":"Polygon","coordinates":[[[1.96137,50.82926],[1.96071,50.82876],[1.95899,50.82969],[1.95968,50.83019],[1.96137,50.82926]]]}},{"type":"Feature","properties":{"k":"ORH","s":0.408},"geometry":{"type":"Polygon","coordinates":[[[1.96137,50.82925],[1.96194,50.82894],[1.96135,50.82842],[1.96071,50.82877],[1.96137,50.82925]]]}},{"type":"Feature","properties":{"k":"BTH","s":5.6},"geometry":{"type":"Polygon","coordinates":[[[1.94712,50.82781],[1.95199,50.82664],[1.95126,50.82537],[1.9462,50.82663],[1.94712,50.82781]]]}},{"type":"Feature","properties":{"k":"LIF","s":7.496},"geometry":{"type":"Polygon","coordinates":[[[1.94614,50.82658],[1.95128,50.82537],[1.95084,50.82374],[1.94499,50.82512],[1.94614,50.82658]]]}},{"type":"Feature","properties":{"k":"MIS","s":0.001},"geometry":{"type":"Polygon","coordinates":[[[1.9515,50.82578],[1.95163,50.82597],[1.95146,50.82569],[1.9515,50.82578]]]}},{"type":"Feature","properties":{"k":"BTH","s":11.415},"geometry":{"type":"Polygon","coordinates":[[[1.95082,50.82375],[1.95065,50.82172],[1.94793,50.82211],[1.94352,50.8232],[1.945,50.82511],[1.95082,50.82375]]]}},{"type":"Feature","properties":{"k":"PTC","s":13.043},"geometry":{"type":"Polygon","coordinates":[[[1.94438,50.82257],[1.95033,50.82111],[1.94996,50.81954],[1.94539,50.82065],[1.94069,50.82108],[1.94129,50.82308],[1.94438,50.82257]]]}},{"type":"Feature","properties":{"k":"LIF","s":3.196},"geometry":{"type":"Polygon","coordinates":[[[1.94377,50.82594],[1.94519,50.82545],[1.94349,50.82322],[1.94201,50.82366],[1.94377,50.82594]]]}},{"type":"Feature","properties":{"k":"BTH","s":8.91},"geometry":{"type":"Polygon","coordinates":[[[1.94469,50.82958],[1.9476,50.82854],[1.94568,50.82609],[1.94148,50.82755],[1.94469,50.82958]]]}},{"type":"Feature","properties":{"k":"MIS","s":5.147},"geometry":{"type":"Polygon","coordinates":[[[1.94319,50.82517],[1.93996,50.82632],[1.94148,50.82755],[1.94568,50.82609],[1.94519,50.82545],[1.94377,50.82594],[1.94319,50.82517]]]}},{"type":"Feature","properties":{"k":"ORP","s":2.21},"geometry":{"type":"Polygon","coordinates":[[[1.94411,50.84452],[1.94269,50.84502],[1.94399,50.84645],[1.94555,50.84598],[1.94411,50.84452]]]}},{"type":"Feature","properties":{"k":"BTH","s":2.306},"geometry":{"type":"Polygon","coordinates":[[[1.94555,50.84598],[1.94401,50.84646],[1.9447,50.84781],[1.94701,50.84712],[1.94555,50.84598]]]}},{"type":"Feature","properties":{"k":"NVT","s":4.297},"geometry":{"type":"Polygon","coordinates":[[[1.94696,50.83106],[1.94879,50.83004],[1.9476,50.82854],[1.94469,50.82958],[1.94696,50.83106]]]}},{"type":"Feature","properties":{"k":"NVT","s":1.105},"geometry":{"type":"Polygon","coordinates":[[[1.94711,50.82781],[1.94896,50.83003],[1.9494,50.82987],[1.9476,50.82769],[1.94711,50.82781]]]}},{"type":"Feature","properties":{"k":"PHF","s":0.001},"geometry":{"type":"Polygon","coordinates":[[[1.94436,50.84707],[1.94435,50.84707],[1.94439,50.84714],[1.94436,50.84707]]]}},{"type":"Feature","properties":{"k":"BTN","s":4.395},"geometry":{"type":"Polygon","coordinates":[[[1.94939,50.82986],[1.95139,50.82921],[1.94995,50.82711],[1.9476,50.82769],[1.94939,50.82986]]]}},{"type":"Feature","properties":{"k":"BTH","s":3.361},"geometry":{"type":"Polygon","coordinates":[[[1.95313,50.82824],[1.95197,50.82666],[1.94995,50.82711],[1.95139,50.82921],[1.95199,50.8289],[1.95209,50.82861],[1.9525,50.8284],[1.95268,50.82851],[1.95286,50.8284],[1.95313,50.82824]]]}},{"type":"Feature","properties":{"k":"MIS","s":0.11},"geometry":{"type":"Polygon","coordinates":[[[1.95268,50.82851],[1.9525,50.8284],[1.95192,50.82886],[1.95268,50.82851]]]}},{"type":"Feature","properties":{"k":"MIS","s":3.458},"geometry":{"type":"Polygon","coordinates":[[[1.95351,50.83018],[1.95395,50.8305],[1.95494,50.82999],[1.95289,50.82847],[1.95177,50.82911],[1.95145,50.82926],[1.95092,50.82943],[1.95092,50.82944],[1.95261,50.83066],[1.95351,50.83018]]]}},{"type":"Feature","properties":{"k":"BTN","s":5.164},"geometry":{"type":"Polygon","coordinates":[[[1.94858,50.83172],[1.94992,50.83211],[1.9526,50.83066],[1.9509,50.82944],[1.94872,50.8302],[1.94857,50.83046],[1.94858,50.83172]]]}},{"type":"Feature","properties":{"k":"PPH","s":0.193},"geometry":{"type":"Polygon","coordinates":[[[1.95059,50.83256],[1.94961,50.83294],[1.94997,50.83314],[1.95079,50.83263],[1.95059,50.83256]]]}},{"type":"Feature","properties":{"k":"PPH","s":0.361},"geometry":{"type":"Polygon","coordinates":[[[1.94877,50.83269],[1.94974,50.83217],[1.94862,50.83186],[1.94877,50.83269]]]}},{"type":"Feature","properties":{"k":"BTN","s":0.082},"geometry":{"type":"MultiPolygon","coordinates":[[[[1.9441,50.84666],[1.94399,50.84654],[1.94435,50.84707],[1.9441,50.84666]]],[[[1.9435,50.84592],[1.9416,50.84385],[1.9439,50.84643],[1.9435,50.84592]]],[[[1.94147,50.8435],[1.94138,50.84265],[1.94143,50.8433],[1.94147,50.8435]]]]}},{"type":"Feature","properties":{"k":"BTH","s":9.405},"geometry":{"type":"Polygon","coordinates":[[[1.95342,50.83374],[1.95493,50.83515],[1.95725,50.83391],[1.95461,50.832],[1.9541,50.83226],[1.95221,50.8309],[1.94992,50.83212],[1.95342,50.83374]]]}},{"type":"Feature","properties":{"k":"JAC","s":0.198},"geometry":{"type":"Polygon","coordinates":[[[1.94327,50.84348],[1.94351,50.84374],[1.94292,50.84396],[1.9431,50.84408],[1.9439,50.84377],[1.94358,50.84338],[1.94327,50.84348]]]}},{"type":"Feature","properties":{"k":"PTC","s":0.814},"geometry":{"type":"Polygon","coordinates":[[[1.94452,50.8448],[1.94469,50.845],[1.94856,50.84343],[1.94835,50.84326],[1.94452,50.8448]]]}},{"type":"Feature","properties":{"k":"PPH","s":0.937},"geometry":{"type":"Polygon","coordinates":[[[1.95047,50.83361],[1.95125,50.83408],[1.95269,50.83348],[1.95198,50.83305],[1.95119,50.83323],[1.95047,50.83361]]]}},{"type":"Feature","properties":{"k":"LIF","s":3.743},"geometry":{"type":"Polygon","coordinates":[[[1.95254,50.83621],[1.95364,50.83503],[1.95441,50.83548],[1.95491,50.83518],[1.95348,50.83387],[1.95228,50.8348],[1.95142,50.83426],[1.95019,50.83494],[1.95015,50.83505],[1.95254,50.83621]]]}},{"type":"Feature","properties":{"k":"BTH","s":3.754},"geometry":{"type":"Polygon","coordinates":[[[1.94404,50.84438],[1.9445,50.84479],[1.94833,50.84327],[1.94738,50.84242],[1.94316,50.84412],[1.94404,50.84438]]]}},{"type":"Feature","properties":{"k":"BTH","s":3.983},"geometry":{"type":"Polygon","coordinates":[[[1.94558,50.84588],[1.94993,50.84413],[1.94862,50.84346],[1.94469,50.845],[1.94558,50.84588]]]}},{"type":"Feature","properties":{"k":"BTH","s":4.868},"geometry":{"type":"Polygon","coordinates":[[[1.94673,50.84684],[1.95118,50.84499],[1.94993,50.84413],[1.94558,50.84588],[1.94673,50.84684]]]}},{"type":"Feature","properties":{"k":"BTH","s":5.742},"geometry":{"type":"Polygon","coordinates":[[[1.95119,50.84503],[1.94681,50.84687],[1.94838,50.84791],[1.95244,50.84619],[1.95119,50.84503]]]}},{"type":"Feature","properties":{"k":"BTH","s":11.135},"geometry":{"type":"Polygon","coordinates":[[[1.95346,50.84699],[1.95659,50.84572],[1.9552,50.84485],[1.95272,50.84261],[1.95241,50.84197],[1.95085,50.84254],[1.95173,50.8433],[1.94997,50.84403],[1.95119,50.8449],[1.95346,50.84699]]]}},{"type":"Feature","properties":{"k":"BTN","s":1.626},"geometry":{"type":"Polygon","coordinates":[[[1.95125,50.84151],[1.95164,50.8419],[1.95248,50.84161],[1.95344,50.84034],[1.95018,50.84122],[1.9507,50.8417],[1.95125,50.84151]]]}},{"type":"Feature","properties":{"k":"PPH","s":0.325},"geometry":{"type":"Polygon","coordinates":[[[1.95004,50.83429],[1.94951,50.83396],[1.94898,50.83425],[1.94964,50.83468],[1.95002,50.8345],[1.95004,50.83429]]]}},{"type":"Feature","properties":{"k":"BTH","s":10.194},"geometry":{"type":"Polygon","coordinates":[[[1.94142,50.83678],[1.94164,50.83711],[1.94489,50.83679],[1.94809,50.8361],[1.94853,50.83611],[1.9461,50.83379],[1.94464,50.83444],[1.94425,50.83407],[1.94211,50.83574],[1.94142,50.83678]]]}},{"type":"Feature","properties":{"k":"CZH","s":8.122},"geometry":{"type":"Polygon","coordinates":[[[1.94935,50.83546],[1.94937,50.83503],[1.94817,50.83425],[1.94786,50.83378],[1.94842,50.83228],[1.94763,50.83151],[1.94687,50.83112],[1.94438,50.83212],[1.94853,50.83609],[1.94935,50.83546]]]}},{"type":"Feature","properties":{"k":"PTC","s":0.002},"geometry":{"type":"Polygon","coordinates":[[[1.94437,50.83211],[1.94438,50.83212],[1.94479,50.83194],[1.94437,50.83211]]]}},{"type":"Feature","properties":{"k":"MIS","s":4.914},"geometry":{"type":"Polygon","coordinates":[[[1.94007,50.82422],[1.93873,50.82439],[1.93967,50.8256],[1.93993,50.82628],[1.94317,50.82515],[1.94201,50.82367],[1.94007,50.82422]]]}},{"type":"Feature","properties":{"k":"BOR","s":0.0},"geometry":{"type":"MultiPolygon","coordinates":[]}},{"type":"Feature","properties":{"k":"BTH","s":1.345},"geometry":{"type":"Polygon","coordinates":[[[1.93983,50.82278],[1.93941,50.82145],[1.93774,50.82248],[1.93878,50.82295],[1.93983,50.82278]]]}},{"type":"Feature","properties":{"k":"BTN","s":0.659},"geometry":{"type":"Polygon","coordinates":[[[1.93998,50.82125],[1.93941,50.82145],[1.93983,50.82278],[1.94038,50.82268],[1.93998,50.82125]]]}},{"type":"Feature","properties":{"k":"BTH","s":2.075},"geometry":{"type":"Polygon","coordinates":[[[1.93872,50.82368],[1.94129,50.82308],[1.94069,50.82108],[1.93998,50.82125],[1.94038,50.82268],[1.93867,50.82297],[1.93854,50.8231],[1.93872,50.82368]]]}},{"type":"Feature","properties":{"k":"PPH","s":1.481},"geometry":{"type":"Polygon","coordinates":[[[1.94906,50.84017],[1.94926,50.84072],[1.95005,50.84053],[1.94978,50.84005],[1.95056,50.8399],[1.95061,50.83916],[1.94913,50.83903],[1.94906,50.84017]]]}},{"type":"Feature","properties":{"k":"BTH","s":2.553},"geometry":{"type":"Polygon","coordinates":[[[1.94893,50.83989],[1.94638,50.84069],[1.94694,50.8417],[1.9495,50.84123],[1.9492,50.84107],[1.94893,50.83989]]]}},{"type":"Feature","properties":{"k":"PPH","s":3.541},"geometry":{"type":"Polygon","coordinates":[[[1.9506,50.84222],[1.95102,50.84197],[1.95018,50.84122],[1.94875,50.8415],[1.94977,50.84304],[1.94879,50.84345],[1.94997,50.84403],[1.95173,50.8433],[1.9506,50.84222]]]}}]}