{"type":"FeatureCollection","features":[{"type":"Feature","properties":{"k":"PTC","s":0.158},"geometry":{"type":"MultiPolygon","coordinates":[[[[1.82526,50.42286],[1.82533,50.42292],[1.8264,50.42194],[1.82526,50.42286]]],[[[1.83172,50.42399],[1.83171,50.42391],[1.8293,50.42503],[1.82872,50.42535],[1.83172,50.42399]]]]}},{"type":"Feature","properties":{"k":"ORP","s":2.459},"geometry":{"type":"Polygon","coordinates":[[[1.81475,50.44116],[1.81587,50.44136],[1.81786,50.44216],[1.8183,50.4422],[1.81749,50.44082],[1.81528,50.44035],[1.81486,50.44036],[1.81475,50.44116]]]}},{"type":"Feature","properties":{"k":"PPH","s":3.688},"geometry":{"type":"Polygon","coordinates":[[[1.81613,50.44227],[1.81648,50.44269],[1.81674,50.4427],[1.81688,50.4434],[1.81774,50.44332],[1.81811,50.44396],[1.81863,50.44381],[1.81871,50.44271],[1.81852,50.44226],[1.81792,50.44223],[1.81588,50.44143],[1.81443,50.44123],[1.81432,50.4418],[1.81613,50.44227]]]}},{"type":"Feature","properties":{"k":"BTH","s":4.023},"geometry":{"type":"Polygon","coordinates":[[[1.82265,50.44232],[1.8211,50.44236],[1.82097,50.4433],[1.82121,50.44405],[1.82167,50.44442],[1.82283,50.44439],[1.82425,50.44461],[1.82332,50.44279],[1.82278,50.44276],[1.82265,50.44232]]]}},{"type":"Feature","properties":{"k":"ORH","s":3.202},"geometry":{"type":"Polygon","coordinates":[[[1.82054,50.44078],[1.82039,50.44178],[1.82115,50.44187],[1.82112,50.44236],[1.82264,50.44229],[1.82231,50.43993],[1.82134,50.43996],[1.82054,50.44078]]]}},{"type":"Feature","properties":{"k":"PPH","s":6.013},"geometry":{"type":"Polygon","coordinates":[[[1.82047,50.44238],[1.82112,50.44236],[1.82115,50.44187],[1.82039,50.44178],[1.82054,50.44078],[1.82134,50.43996],[1.82231,50.43993],[1.82217,50.43891],[1.82062,50.43897],[1.81941,50.4417],[1.81799,50.4416],[1.81871,50.44233],[1.81868,50.44361],[1.81905,50.44412],[1.82012,50.4438],[1.82047,50.44238]]]}},{"type":"Feature","properties":{"k":"BTH","s":1.489},"geometry":{"type":"Polygon","coordinates":[[[1.81939,50.44169],[1.8197,50.44121],[1.82053,50.43934],[1.82058,50.43851],[1.82009,50.43852],[1.81896,50.44165],[1.81939,50.44169]]]}},{"type":"Feature","properties":{"k":"MIS","s":1.046},"geometry":{"type":"Polygon","coordinates":[[[1.82217,50.43891],[1.82197,50.43748],[1.82105,50.43752],[1.82124,50.43892],[1.82217,50.43891]]]}},{"type":"Feature","properties":{"k":"BTH","s":4.741},"geometry":{"type":"Polygon","coordinates":[[[1.81886,50.43807],[1.81699,50.43792],[1.81776,50.43885],[1.81808,50.44142],[1.81788,50.44146],[1.81795,50.44158],[1.81896,50.44165],[1.82009,50.43852],[1.81897,50.43854],[1.81886,50.43807]]]}},{"type":"Feature","properties":{"k":"BTH","s":0.997},"geometry":{"type":"Polygon","coordinates":[[[1.81699,50.43791],[1.81884,50.43807],[1.81857,50.43762],[1.81663,50.43704],[1.81655,50.43724],[1.81699,50.43791]]]}},{"type":"Feature","properties":{"k":"BTH","s":2.125},"geometry":{"type":"Polygon","coordinates":[[[1.81763,50.4357],[1.81681,50.43628],[1.81657,50.43698],[1.81858,50.43762],[1.81851,50.43674],[1.81879,50.43609],[1.81763,50.4357]]]}},{"type":"Feature","properties":{"k":"PPH","s":2.358},"geometry":{"type":"Polygon","coordinates":[[[1.82062,50.43712],[1.82066,50.4375],[1.82192,50.43745],[1.82108,50.43532],[1.82034,50.43511],[1.81999,50.43702],[1.82062,50.43712]]]}},{"type":"Feature","properties":{"k":"PPH","s":2.132},"geometry":{"type":"Polygon","coordinates":[[[1.81898,50.43855],[1.82058,50.4385],[1.82063,50.43712],[1.81874,50.43691],[1.81898,50.43855]]]}},{"type":"Feature","properties":{"k":"PPH","s":4.67},"geometry":{"type":"Polygon","coordinates":[[[1.82025,50.4352],[1.82098,50.43381],[1.82177,50.4339],[1.82164,50.43332],[1.82227,50.43173],[1.8217,50.43144],[1.8185,50.43438],[1.81949,50.43504],[1.82025,50.4352]]]}},{"type":"Feature","properties":{"k":"PTR","s":1.024},"geometry":{"type":"Polygon","coordinates":[[[1.81891,50.43469],[1.81759,50.43569],[1.8188,50.43611],[1.81946,50.43507],[1.81891,50.43469]]]}},{"type":"Feature","properties":{"k":"PPH","s":1.651},"geometry":{"type":"Polygon","coordinates":[[[1.81874,50.43691],[1.81997,50.43703],[1.82026,50.4352],[1.8195,50.43504],[1.81881,50.43614],[1.81874,50.43691]]]}},{"type":"Feature","properties":{"k":"ORH","s":9.571},"geometry":{"type":"Polygon","coordinates":[[[1.81674,50.43626],[1.81886,50.43469],[1.81771,50.43401],[1.81447,50.43336],[1.81376,50.43725],[1.81614,50.43715],[1.81674,50.43626]]]}},{"type":"Feature","properties":{"k":"PPH","s":0.004},"geometry":{"type":"Polygon","coordinates":[[[1.82561,50.45609],[1.82592,50.45618],[1.82593,50.45615],[1.82561,50.45609]]]}},{"type":"Feature","properties":{"k":"PPH","s":0.0},"geometry":{"type":"Polygon","coordinates":[]}},{"type":"Feature","properties":{"k":"PPH","s":0.661},"geometry":{"type":"Polygon","coordinates":[[[1.85826,50.44493],[1.85894,50.44505],[1.85906,50.44401],[1.85808,50.4437],[1.85826,50.44493]]]}},{"type":"Feature","properties":{"k":"PPH","s":0.776},"geometry":{"type":"Polygon","coordinates":[[[1.85814,50.43618],[1.85841,50.43728],[1.85887,50.43723],[1.85873,50.43683],[1.85935,50.43681],[1.85905,50.43591],[1.85814,50.43618]]]}},{"type":"Feature","properties":{"k":"PPH","s":0.292},"geometry":{"type":"Polygon","coordinates":[[[1.85751,50.43711],[1.85742,50.4364],[1.85682,50.43656],[1.85694,50.43708],[1.85751,50.43711]]]}},{"type":"Feature","properties":{"k":"LUZ","s":0.153},"geometry":{"type":"Polygon","coordinates":[[[1.85478,50.43697],[1.85503,50.43689],[1.85463,50.43627],[1.85437,50.43636],[1.85478,50.43697]]]}},{"type":"Feature","properties":{"k":"PPH","s":2.276},"geometry":{"type":"Polygon","coordinates":[[[1.85391,50.4372],[1.85367,50.43687],[1.85272,50.43718],[1.85258,50.43697],[1.84806,50.43847],[1.84817,50.43892],[1.85391,50.4372]]]}},{"type":"Feature","properties":{"k":"MIS","s":5.631},"geometry":{"type":"Polygon","coordinates":[[[1.84753,50.43852],[1.85122,50.43728],[1.85022,50.43609],[1.84721,50.43647],[1.84633,50.43671],[1.84683,50.43729],[1.84641,50.43757],[1.84753,50.43852]]]}},{"type":"Feature","properties":{"k":"JAC","s":0.207},"geometry":{"type":"Polygon","coordinates":[[[1.85226,50.43692],[1.85149,50.43579],[1.85131,50.43585],[1.85207,50.43699],[1.85226,50.43692]]]}},{"type":"Feature","properties":{"k":"JAC","s":0.508},"geometry":{"type":"Polygon","coordinates":[[[1.85312,50.43535],[1.85331,50.43563],[1.85566,50.43499],[1.85504,50.4349],[1.85312,50.43535]]]}},{"type":"Feature","properties":{"k":"BTH","s":1.592},"geometry":{"type":"Polygon","coordinates":[[[1.85147,50.43575],[1.85226,50.43692],[1.85374,50.43642],[1.85299,50.43537],[1.85147,50.43575]]]}},{"type":"Feature","properties":{"k":"PPH","s":5.257},"geometry":{"type":"Polygon","coordinates":[[[1.85013,50.43599],[1.85122,50.43728],[1.85201,50.43695],[1.85128,50.4358],[1.855,50.43487],[1.85271,50.43457],[1.84823,50.43543],[1.84833,50.43563],[1.84791,50.43571],[1.84792,50.43621],[1.85013,50.43599]]]}},{"type":"Feature","properties":{"k":"CZH","s":0.752},"geometry":{"type":"Polygon","coordinates":[[[1.85638,50.43277],[1.85434,50.4329],[1.85478,50.43329],[1.85651,50.43331],[1.85654,50.43279],[1.85638,50.43277]]]}},{"type":"Feature","properties":{"k":"BTN","s":0.875},"geometry":{"type":"Polygon","coordinates":[[[1.85756,50.4349],[1.85685,50.43388],[1.85674,50.4333],[1.85596,50.43333],[1.85675,50.43489],[1.85756,50.4349]]]}},{"type":"Feature","properties":{"k":"MIS","s":2.006},"geometry":{"type":"Polygon","coordinates":[[[1.85443,50.4334],[1.85515,50.43483],[1.85764,50.43502],[1.85756,50.4349],[1.85675,50.43489],[1.85596,50.43333],[1.85443,50.4334]]]}},{"type":"Feature","properties":{"k":"BTN","s":2.011},"geometry":{"type":"Polygon","coordinates":[[[1.85383,50.4364],[1.85695,50.43551],[1.85671,50.43508],[1.85566,50.43499],[1.85331,50.43563],[1.85383,50.4364]]]}},{"type":"Feature","properties":{"k":"BTH","s":1.572},"geometry":{"type":"Polygon","coordinates":[[[1.85777,50.43604],[1.85743,50.43553],[1.85463,50.43627],[1.85503,50.43689],[1.85777,50.43604]]]}},{"type":"Feature","properties":{"k":"MIS","s":0.715},"geometry":{"type":"Polygon","coordinates":[[[1.85938,50.43562],[1.85912,50.4352],[1.85743,50.43553],[1.85777,50.43604],[1.85938,50.43562]]]}},{"type":"Feature","properties":{"k":"LIF","s":7.323},"geometry":{"type":"Polygon","coordinates":[[[1.82352,50.41941],[1.82618,50.42204],[1.82757,50.42089],[1.82396,50.41737],[1.82242,50.41831],[1.82352,50.41941]]]}},{"type":"Feature","properties":{"k":"PPH","s":6.491},"geometry":{"type":"Polygon","coordinates":[[[1.84346,50.43528],[1.84302,50.43535],[1.84303,50.43547],[1.84529,50.43697],[1.84596,50.4376],[1.84559,50.43776],[1.8465,50.43852],[1.84667,50.43846],[1.84696,50.43869],[1.84725,50.43861],[1.84702,50.43843],[1.84728,50.43833],[1.84641,50.43757],[1.84683,50.43729],[1.84633,50.43671],[1.84721,50.43647],[1.85022,50.43609],[1.85015,50.436],[1.84795,50.43624],[1.84789,50.43572],[1.84833,50.43563],[1.84823,50.43543],[1.85272,50.43456],[1.85039,50.43417],[1.84767,50.43522],[1.84802,50.43547],[1.84615,50.43588],[1.8454,50.43624],[1.84509,50.43609],[1.84414,50.43551],[1.84377,50.43525],[1.84375,50.43525],[1.84371,50.43537],[1.84346,50.43528]]]}},{"type":"Feature","properties":{"k":"PPH","s":0.755},"geometry":{"type":"Polygon","coordinates":[[[1.8445,50.43801],[1.84309,50.43888],[1.84297,50.43901],[1.84441,50.43855],[1.84543,50.43802],[1.84504,50.43764],[1.8445,50.43783],[1.8445,50.43801]]]}},{"type":"Feature","properties":{"k":"BTH","s":0.015},"geometry":{"type":"Polygon","coordinates":[[[1.81826,50.44671],[1.81822,50.44667],[1.81831,50.44706],[1.81826,50.44671]]]}},{"type":"Feature","properties":{"k":"PPH","s":4.175},"geometry":{"type":"Polygon","coordinates":[[[1.84091,50.4388],[1.84179,50.43959],[1.8445,50.43801],[1.84443,50.4376],[1.84368,50.43724],[1.83989,50.43849],[1.84019,50.43948],[1.84091,50.4388]]]}},{"type":"Feature","properties":{"k":"PPH","s":0.289},"geometry":{"type":"Polygon","coordinates":[[[1.84274,50.43964],[1.8433,50.43943],[1.84292,50.43902],[1.84222,50.43927],[1.84274,50.43964]]]}},{"type":"Feature","properties":{"k":"PTR","s":1.958},"geometry":{"type":"Polygon","coordinates":[[[1.83694,50.43954],[1.84367,50.43724],[1.84336,50.4371],[1.83682,50.43904],[1.83694,50.43954]]]}},{"type":"Feature","properties":{"k":"ORH","s":4.403},"geometry":{"type":"Polygon","coordinates":[[[1.83682,50.43904],[1.84336,50.4371],[1.84262,50.43645],[1.83667,50.43817],[1.83682,50.43904]]]}},{"type":"Feature","properties":{"k":"AVP","s":1.997},"geometry":{"type":"Polygon","coordinates":[[[1.8366,50.43775],[1.83667,50.43817],[1.84262,50.43645],[1.84231,50.43611],[1.8366,50.43775]]]}},{"type":"Feature","properties":{"k":"PPH","s":1.149},"geometry":{"type":"Polygon","coordinates":[[[1.83632,50.43841],[1.83595,50.43989],[1.83615,50.43995],[1.83686,50.43951],[1.83627,50.43675],[1.836,50.43832],[1.83632,50.43841]]]}},{"type":"Feature","properties":{"k":"PPH","s":1.242},"geometry":{"type":"Polygon","coordinates":[[[1.81257,50.44031],[1.8132,50.44027],[1.81343,50.43884],[1.81178,50.43902],[1.81257,50.44031]]]}},{"type":"Feature","properties":{"k":"BTN","s":29.423},"geometry":{"type":"Polygon","coordinates":[[[1.82498,50.42263],[1.8198,50.42637],[1.82209,50.42774],[1.82219,50.42986],[1.82256,50.4312],[1.82927,50.42636],[1.82498,50.42263]]]}},{"type":"Feature","properties":{"k":"BTH","s":10.187},"geometry":{"type":"Polygon","coordinates":[[[1.83855,50.4268],[1.83958,50.42503],[1.83303,50.42347],[1.83081,50.42437],[1.83855,50.4268]]]}},{"type":"Feature","properties":{"k":"CZH","s":17.894},"geometry":{"type":"Polygon","coordinates":[[[1.83001,50.4266],[1.8358,50.429],[1.83649,50.42866],[1.83777,50.42835],[1.83809,50.42812],[1.83855,50.4268],[1.83077,50.42442],[1.82844,50.42554],[1.82885,50.42591],[1.83001,50.4266]]]}},{"type":"Feature","properties":{"k":"AVP","s":0.218},"geometry":{"type":"Polygon","coordinates":[[[1.83503,50.4289],[1.83516,50.42881],[1.83348,50.42812],[1.83335,50.42822],[1.83503,50.4289]]]}},{"type":"Feature","properties":{"k":"PPH","s":1.154},"geometry":{"type":"Polygon","coordinates":[[[1.83508,50.43051],[1.83347,50.43251],[1.83336,50.43295],[1.83587,50.43073],[1.83508,50.43051]]]}},{"type":"Feature","properties":{"k":"BTH","s":5.572},"geometry":{"type":"Polygon","coordinates":[[[1.83505,50.42896],[1.82855,50.43356],[1.82998,50.43415],[1.83099,50.43273],[1.83355,50.43077],[1.8343,50.43134],[1.83526,50.43008],[1.83575,50.42907],[1.83536,50.42888],[1.83505,50.42896]]]}},{"type":"Feature","properties":{"k":"BTH","s":13.995},"geometry":{"type":"Polygon","coordinates":[[[1.81337,50.41791],[1.81533,50.41953],[1.82075,50.41856],[1.82123,50.41889],[1.82382,50.41728],[1.82275,50.41624],[1.81337,50.41791]]]}},{"type":"Feature","properties":{"k":"BTH","s":5.496},"geometry":{"type":"Polygon","coordinates":[[[1.82123,50.41889],[1.82075,50.41856],[1.81537,50.41956],[1.81702,50.42085],[1.81968,50.4204],[1.81998,50.41993],[1.82123,50.41889]]]}},{"type":"Feature","properties":{"k":"BTN","s":0.474},"geometry":{"type":"Polygon","coordinates":[[[1.85997,50.43682],[1.85958,50.43575],[1.85905,50.43591],[1.8594,50.43684],[1.85997,50.43682]]]}},{"type":"Feature","properties":{"k":"PPH","s":1.116},"geometry":{"type":"Polygon","coordinates":[[[1.85995,50.43683],[1.86028,50.43678],[1.86051,50.43719],[1.86123,50.4371],[1.86125,50.43661],[1.86063,50.43661],[1.86062,50.43636],[1.86034,50.43639],[1.86018,50.43598],[1.86105,50.43572],[1.86098,50.43539],[1.85959,50.43574],[1.85995,50.43683]]]}},{"type":"Feature","properties":{"k":"ORH","s":0.485},"geometry":{"type":"Polygon","coordinates":[[[1.86098,50.43517],[1.86089,50.43489],[1.8593,50.43518],[1.85957,50.43558],[1.86098,50.43517]]]}},{"type":"Feature","properties":{"k":"BTH","s":5.129},"geometry":{"type":"Polygon","coordinates":[[[1.85792,50.4353],[1.86085,50.43472],[1.86046,50.43425],[1.86004,50.43442],[1.85969,50.43408],[1.86012,50.4339],[1.85903,50.43246],[1.85686,50.43313],[1.85687,50.43355],[1.85792,50.4353]]]}},{"type":"Feature","properties":{"k":"PPH","s":0.026},"geometry":{"type":"MultiPolygon","coordinates":[[[[1.86022,50.43223],[1.8598,50.43258],[1.86085,50.43184],[1.86022,50.43223]]],[[[1.85961,50.43302],[1.85971,50.43272],[1.85964,50.43284],[1.85961,50.43302]]]]}},{"type":"Feature","properties":{"k":"PPH","s":0.783},"geometry":{"type":"Polygon","coordinates":[[[1.86208,50.43591],[1.86128,50.43598],[1.86135,50.43716],[1.86213,50.43714],[1.86208,50.43591]]]}},{"type":"Feature","properties":{"k":"PTC","s":3.999},"geometry":{"type":"Polygon","coordinates":[[[1.81673,50.41533],[1.81633,50.41541],[1.8171,50.41637],[1.82181,50.41553],[1.82086,50.41461],[1.81673,50.41533]]]}},{"type":"Feature","properties":{"k":"PTC","s":11.919},"geometry":{"type":"Polygon","coordinates":[[[1.81916,50.41689],[1.82275,50.41619],[1.82092,50.41448],[1.81119,50.41619],[1.81331,50.41786],[1.81916,50.41689]],[[1.81673,50.41533],[1.82086,50.41461],[1.82181,50.41553],[1.8171,50.41637],[1.81633,50.41541],[1.81673,50.41533]]]}},{"type":"Feature","properties":{"k":"BTH","s":0.113},"geometry":{"type":"Polygon","coordinates":[[[1.8146,50.4156],[1.82098,50.41447],[1.81138,50.41615],[1.8146,50.4156]]]}},{"type":"Feature","properties":{"k":"AVP","s":0.002},"geometry":{"type":"Polygon","coordinates":[[[1.81135,50.41616],[1.8114,50.41616],[1.81138,50.41615],[1.81118,50.41619],[1.81135,50.41616]]]}},{"type":"Feature","properties":{"k":"BTH","s":25.601},"geometry":{"type":"Polygon","coordinates":[[[1.82441,50.43402],[1.83287,50.42787],[1.82928,50.42636],[1.82252,50.43121],[1.82312,50.43268],[1.82441,50.43402]]]}},{"type":"Feature","properties":{"k":"ORH","s":2.895},"geometry":{"type":"Polygon","coordinates":[[[1.8226,50.43193],[1.82227,50.43193],[1.82171,50.43334],[1.82202,50.4345],[1.82442,50.43417],[1.82347,50.43321],[1.8226,50.43193]]]}},{"type":"Feature","properties":{"k":"PPH","s":0.571},"geometry":{"type":"Polygon","coordinates":[[[1.83852,50.44092],[1.83969,50.44037],[1.83942,50.44011],[1.83791,50.44055],[1.83852,50.44092]]]}},{"type":"Feature","properties":{"k":"LIF","s":5.678},"geometry":{"type":"Polygon","coordinates":[[[1.82308,50.43917],[1.82357,50.44263],[1.82563,50.44234],[1.82509,50.4389],[1.82308,50.43917]]]}},{"type":"Feature","properties":{"k":"BTH","s":2.211},"geometry":{"type":"Polygon","coordinates":[[[1.82249,50.4409],[1.82286,50.44272],[1.82357,50.44263],[1.82308,50.43917],[1.82233,50.43927],[1.82249,50.4409]]]}},{"type":"Feature","properties":{"k":"PPH","s":2.987},"geometry":{"type":"Polygon","coordinates":[[[1.82864,50.44397],[1.82772,50.44455],[1.82721,50.44441],[1.82435,50.44515],[1.82371,50.44589],[1.82669,50.44496],[1.82699,50.44547],[1.82927,50.44506],[1.82969,50.44486],[1.82864,50.44397]]]}},{"type":"Feature","properties":{"k":"BTH","s":2.749},"geometry":{"type":"Polygon","coordinates":[[[1.83014,50.44695],[1.83072,50.44652],[1.83042,50.44577],[1.82881,50.44608],[1.82684,50.44622],[1.82731,50.44715],[1.83014,50.44695]]]}},{"type":"Feature","properties":{"k":"PPH","s":1.223},"geometry":{"type":"Polygon","coordinates":[[[1.82142,50.44792],[1.82141,50.4481],[1.82544,50.44729],[1.82472,50.44672],[1.82142,50.44792]]]}},{"type":"Feature","properties":{"k":"JAC","s":0.033},"geometry":{"type":"Polygon","coordinates":[[[1.8211,50.44664],[1.82104,50.44664],[1.8218,50.44757],[1.8211,50.44664]]]}},{"type":"Feature","properties":{"k":"BTH","s":0.739},"geometry":{"type":"Polygon","coordinates":[[[1.82104,50.44664],[1.82076,50.44669],[1.82062,50.44681],[1.82087,50.44797],[1.8218,50.44763],[1.82104,50.44664]]]}},{"type":"Feature","properties":{"k":"JAC","s":0.169},"geometry":{"type":"Polygon","coordinates":[[[1.82062,50.44681],[1.82076,50.44669],[1.82037,50.44676],[1.82063,50.4479],[1.8207,50.44802],[1.82087,50.44797],[1.82062,50.44681]]]}},{"type":"Feature","properties":{"k":"BTH","s":0.09},"geometry":{"type":"Polygon","coordinates":[[[1.81894,50.44855],[1.81835,50.44707],[1.81849,50.44771],[1.81894,50.44855]]]}},{"type":"Feature","properties":{"k":"PPH","s":0.003},"geometry":{"type":"Polygon","coordinates":[[[1.81932,50.44886],[1.81928,50.44893],[1.81943,50.44885],[1.81932,50.44886]]]}},{"type":"Feature","properties":{"k":"PPH","s":0.596},"geometry":{"type":"Polygon","coordinates":[[[1.81849,50.45029],[1.8185,50.4503],[1.8194,50.45015],[1.81971,50.44898],[1.8191,50.44925],[1.81849,50.45029]]]}},{"type":"Feature","properties":{"k":"AFG","s":0.654},"geometry":{"type":"Polygon","coordinates":[[[1.82671,50.44807],[1.8266,50.44743],[1.82502,50.44757],[1.825,50.44788],[1.8265,50.44818],[1.82659,50.44784],[1.82671,50.44807]]]}},{"type":"Feature","properties":{"k":"AFG","s":0.05},"geometry":{"type":"Polygon","coordinates":[[[1.82659,50.44784],[1.8265,50.44818],[1.82676,50.44836],[1.82659,50.44784]]]}},{"type":"Feature","properties":{"k":"PPH","s":5.634},"geometry":{"type":"Polygon","coordinates":[[[1.8288,50.44834],[1.82738,50.44867],[1.82614,50.44832],[1.82666,50.45121],[1.82945,50.45108],[1.8288,50.44834]]]}},{"type":"Feature","properties":{"k":"MIS","s":1.321},"geometry":{"type":"Polygon","coordinates":[[[1.82477,50.45582],[1.82614,50.45609],[1.82636,50.45597],[1.82401,50.4545],[1.82335,50.45489],[1.82477,50.45582]]]}},{"type":"Feature","properties":{"k":"PPH","s":6.923},"geometry":{"type":"Polygon","coordinates":[[[1.82896,50.45409],[1.82896,50.45309],[1.82571,50.45318],[1.82263,50.45352],[1.82199,50.45396],[1.82221,50.45409],[1.82284,50.45373],[1.82534,50.45528],[1.82896,50.45409]]]}},{"type":"Feature","properties":{"k":"PPH","s":0.122},"geometry":{"type":"MultiPolygon","coordinates":[[[[1.83401,50.45026],[1.83397,50.4503],[1.83568,50.45021],[1.83401,50.45026]]],[[[1.8329,50.45191],[1.83261,50.45308],[1.83332,50.45096],[1.8329,50.45191]]]]}},{"type":"Feature","properties":{"k":"PPH","s":1.214},"geometry":{"type":"Polygon","coordinates":[[[1.83348,50.45078],[1.83395,50.44981],[1.83456,50.44923],[1.83448,50.44878],[1.83346,50.44896],[1.83341,50.44932],[1.83365,50.44934],[1.83347,50.45],[1.83326,50.44999],[1.8331,50.4505],[1.83219,50.45081],[1.83271,50.45094],[1.83348,50.45078]]]}},{"type":"Feature","properties":{"k":"PPH","s":1.171},"geometry":{"type":"Polygon","coordinates":[[[1.83266,50.44939],[1.83258,50.45012],[1.83217,50.45075],[1.83306,50.4504],[1.83341,50.44869],[1.83223,50.44851],[1.83266,50.44939]]]}},{"type":"Feature","properties":{"k":"PPH","s":7.748},"geometry":{"type":"Polygon","coordinates":[[[1.83531,50.44862],[1.83466,50.4492],[1.83478,50.44945],[1.83461,50.44955],[1.83489,50.44977],[1.83742,50.44968],[1.83713,50.44885],[1.84135,50.44855],[1.84007,50.44776],[1.83737,50.44732],[1.83621,50.44724],[1.83497,50.44774],[1.83492,50.4481],[1.83531,50.44862]]]}},{"type":"Feature","properties":{"k":"ORP","s":8.301},"geometry":{"type":"Polygon","coordinates":[[[1.82232,50.43082],[1.82206,50.42897],[1.82188,50.42896],[1.82181,50.42856],[1.82143,50.42844],[1.82122,50.4287],[1.82181,50.42897],[1.82171,50.4292],[1.81644,50.43377],[1.81837,50.43418],[1.81869,50.4339],[1.81904,50.43384],[1.82232,50.43082]]]}},{"type":"Feature","properties":{"k":"BTH","s":3.22},"geometry":{"type":"Polygon","coordinates":[[[1.81964,50.42653],[1.81889,50.42613],[1.81868,50.42628],[1.81824,50.42588],[1.8163,50.42747],[1.81813,50.42847],[1.81873,50.42804],[1.81832,50.42782],[1.81964,50.42653]]]}},{"type":"Feature","properties":{"k":"BTN","s":2.938},"geometry":{"type":"Polygon","coordinates":[[[1.8198,50.42637],[1.82498,50.42263],[1.82457,50.42223],[1.81926,50.42605],[1.8198,50.42637]]]}},{"type":"Feature","properties":{"k":"LIF","s":7.624},"geometry":{"type":"Polygon","coordinates":[[[1.81926,50.42605],[1.82457,50.42223],[1.82354,50.42121],[1.81804,50.42515],[1.81926,50.42605]]]}},{"type":"Feature","properties":{"k":"PTC","s":17.545},"geometry":{"type":"Polygon","coordinates":[[[1.81802,50.42516],[1.82352,50.42119],[1.82526,50.42287],[1.82618,50.42204],[1.82242,50.4183],[1.82024,50.41983],[1.8188,50.42248],[1.81711,50.42368],[1.81697,50.42427],[1.81802,50.42516]]]}},{"type":"Feature","properties":{"k":"PPH","s":0.182},"geometry":{"type":"Polygon","coordinates":[[[1.8508,50.42407],[1.84969,50.42371],[1.8505,50.42434],[1.8508,50.42407]]]}},{"type":"Feature","properties":{"k":"PPH","s":0.024},"geometry":{"type":"Polygon","coordinates":[[[1.84952,50.42349],[1.84936,50.42301],[1.84937,50.42343],[1.84952,50.42349]]]}},{"type":"Feature","properties":{"k":"ORH","s":1.521},"geometry":{"type":"Polygon","coordinates":[[[1.8477,50.42319],[1.84731,50.42364],[1.85014,50.42461],[1.85067,50.4244],[1.84954,50.42362],[1.8477,50.42319]]]}},{"type":"Feature","properties":{"k":"PHF","s":5.103},"geometry":{"type":"Polygon","coordinates":[[[1.85513,50.42814],[1.85752,50.42936],[1.85769,50.42867],[1.85014,50.42462],[1.84948,50.42508],[1.85513,50.42814]]]}},{"type":"Feature","properties":{"k":"BTH","s":7.241},"geometry":{"type":"Polygon","coordinates":[[[1.85014,50.42462],[1.85769,50.42867],[1.85783,50.42811],[1.85554,50.4258],[1.8518,50.42435],[1.85067,50.4244],[1.85014,50.42462]]]}},{"type":"Feature","properties":{"k":"PPH","s":4.729},"geometry":{"type":"Polygon","coordinates":[[[1.85582,50.42521],[1.85554,50.4258],[1.85783,50.42811],[1.85824,50.42834],[1.85823,50.42795],[1.86054,50.42787],[1.858,50.42612],[1.85582,50.42521]]]}},{"type":"Feature","properties":{"k":"MIS","s":0.623},"geometry":{"type":"Polygon","coordinates":[[[1.85824,50.42834],[1.85783,50.42811],[1.85752,50.42936],[1.85815,50.42961],[1.85824,50.42834]]]}},{"type":"Feature","properties":{"k":"BTH","s":12.504},"geometry":{"type":"Polygon","coordinates":[[[1.85785,50.43004],[1.85663,50.43078],[1.85734,50.43197],[1.85692,50.4322],[1.85686,50.43313],[1.85907,50.43254],[1.86082,50.4312],[1.86137,50.43058],[1.86159,50.42991],[1.86145,50.42878],[1.86054,50.42787],[1.85823,50.42795],[1.85829,50.42944],[1.85785,50.43004]]]}},{"type":"Feature","properties":{"k":"PPH","s":2.372},"geometry":{"type":"Polygon","coordinates":[[[1.85952,50.43314],[1.85985,50.43246],[1.86208,50.43093],[1.86233,50.43016],[1.8619,50.42872],[1.86145,50.42878],[1.86159,50.42991],[1.86115,50.43088],[1.85903,50.43256],[1.85952,50.43314]]]}},{"type":"Feature","properties":{"k":"JAC","s":0.053},"geometry":{"type":"Polygon","coordinates":[[[1.85651,50.43259],[1.85693,50.43258],[1.85686,50.4323],[1.85651,50.43259]]]}},{"type":"Feature","properties":{"k":"PPH","s":3.331},"geometry":{"type":"Polygon","coordinates":[[[1.85363,50.43273],[1.8552,50.43263],[1.85117,50.4306],[1.84999,50.43163],[1.85363,50.43273]]]}},{"type":"Feature","properties":{"k":"BTH","s":10.201},"geometry":{"type":"Polygon","coordinates":[[[1.85117,50.4306],[1.8552,50.43263],[1.85627,50.43254],[1.85677,50.43222],[1.857,50.43175],[1.85683,50.4314],[1.85517,50.43045],[1.85416,50.43111],[1.85029,50.42897],[1.84765,50.43087],[1.84999,50.43163],[1.85117,50.4306]]]}},{"type":"Feature","properties":{"k":"ORH","s":10.983},"geometry":{"type":"Polygon","coordinates":[[[1.85416,50.43111],[1.85517,50.43045],[1.85682,50.4314],[1.8565,50.43088],[1.8566,50.43069],[1.84808,50.42604],[1.84654,50.42696],[1.85416,50.43111]]]}},{"type":"Feature","properties":{"k":"BTH","s":23.289},"geometry":{"type":"Polygon","coordinates":[[[1.8415,50.43195],[1.8419,50.43215],[1.8458,50.43331],[1.8472,50.43343],[1.85113,50.43427],[1.85247,50.43245],[1.84715,50.43077],[1.84526,50.42972],[1.84353,50.42923],[1.84297,50.42922],[1.84064,50.43077],[1.8415,50.43195]]]}},{"type":"Feature","properties":{"k":"ORH","s":10.655},"geometry":{"type":"Polygon","coordinates":[[[1.84327,50.42913],[1.84523,50.42964],[1.84683,50.43057],[1.84765,50.43087],[1.85029,50.42897],[1.84654,50.42696],[1.84327,50.42913]]]}},{"type":"Feature","properties":{"k":"ORP","s":0.101},"geometry":{"type":"Polygon","coordinates":[[[1.8424,50.42928],[1.8426,50.42937],[1.84322,50.42897],[1.84302,50.4289],[1.8424,50.42928]]]}},{"type":"Feature","properties":{"k":"BTH","s":39.755},"geometry":{"type":"Polygon","coordinates":[[[1.82068,50.42881],[1.81965,50.4295],[1.81591,50.42745],[1.81831,50.42562],[1.81677,50.42427],[1.81597,50.4244],[1.81117,50.42831],[1.81333,50.42934],[1.81058,50.43133],[1.81411,50.4333],[1.81644,50.43377],[1.82171,50.4292],[1.82181,50.42897],[1.82122,50.4287],[1.82068,50.42881]]]}},{"type":"Feature","properties":{"k":"PPH","s":1.905},"geometry":{"type":"Polygon","coordinates":[[[1.82099,50.42808],[1.82044,50.4283],[1.82031,50.42796],[1.81976,50.42804],[1.81924,50.4277],[1.81814,50.42847],[1.81967,50.42933],[1.82126,50.42822],[1.82099,50.42808]]]}},{"type":"Feature","properties":{"k":"BTN","s":7.096},"geometry":{"type":"Polygon","coordinates":[[[1.82599,50.4354],[1.8288,50.43705],[1.83025,50.43552],[1.8308,50.43452],[1.82855,50.43356],[1.82599,50.4354]]]}},{"type":"Feature","properties":{"k":"AVP","s":0.245},"geometry":{"type":"Polygon","coordinates":[[[1.82488,50.43425],[1.8246,50.43395],[1.82447,50.43406],[1.8249,50.4345],[1.82578,50.43522],[1.82596,50.43515],[1.82488,50.43425]]]}},{"type":"Feature","properties":{"k":"LIF","s":3.675},"geometry":{"type":"Polygon","coordinates":[[[1.82128,50.43486],[1.82118,50.43532],[1.82137,50.43587],[1.82561,50.43522],[1.82442,50.43417],[1.82202,50.4345],[1.82128,50.43486]]]}},{"type":"Feature","properties":{"k":"BTH","s":5.504},"geometry":{"type":"Polygon","coordinates":[[[1.82561,50.43522],[1.82137,50.43587],[1.82198,50.43721],[1.82747,50.43643],[1.82561,50.43522]]]}},{"type":"Feature","properties":{"k":"PPH","s":1.077},"geometry":{"type":"Polygon","coordinates":[[[1.84674,50.44698],[1.84688,50.4474],[1.84629,50.44768],[1.84706,50.44832],[1.84756,50.44847],[1.8482,50.44768],[1.84753,50.44755],[1.84716,50.44697],[1.84674,50.44698]]]}},{"type":"Feature","properties":{"k":"PPH","s":1.017},"geometry":{"type":"Polygon","coordinates":[[[1.84601,50.44795],[1.84594,50.44768],[1.84491,50.44735],[1.844,50.44792],[1.8443,50.44844],[1.84601,50.44795]]]}},{"type":"Feature","properties":{"k":"PPH","s":1.203},"geometry":{"type":"Polygon","coordinates":[[[1.84022,50.44412],[1.84014,50.44388],[1.84071,50.44337],[1.84073,50.44316],[1.84049,50.44306],[1.8382,50.445],[1.83873,50.44521],[1.84022,50.44412]]]}},{"type":"Feature","properties":{"k":"PPH","s":0.661},"geometry":{"type":"Polygon","coordinates":[[[1.83797,50.44486],[1.83603,50.44521],[1.8366,50.44582],[1.83797,50.44486]]]}},{"type":"Feature","properties":{"k":"LUZ","s":0.308},"geometry":{"type":"Polygon","coordinates":[[[1.83257,50.44074],[1.83322,50.44043],[1.83361,50.44042],[1.83328,50.44006],[1.8322,50.44046],[1.83257,50.44074]]]}},{"type":"Feature","properties":{"k":"BTN","s":6.127},"geometry":{"type":"Polygon","coordinates":[[[1.82747,50.43643],[1.82198,50.43721],[1.8222,50.4384],[1.8291,50.43746],[1.82747,50.43643]]]}},{"type":"Feature","properties":{"k":"BTH","s":5.136},"geometry":{"type":"Polygon","coordinates":[[[1.82997,50.43824],[1.8291,50.43746],[1.82227,50.43839],[1.82233,50.43927],[1.82997,50.43824]]]}},{"type":"Feature","properties":{"k":"PPH","s":1.484},"geometry":{"type":"Polygon","coordinates":[[[1.8288,50.43705],[1.82944,50.43764],[1.8298,50.43743],[1.83006,50.43665],[1.83058,50.43675],[1.8308,50.43563],[1.83025,50.43552],[1.8288,50.43705]]]}},{"type":"Feature","properties":{"k":"PPH","s":3.608},"geometry":{"type":"Polygon","coordinates":[[[1.8323,50.44068],[1.83065,50.43944],[1.82997,50.43824],[1.829,50.43837],[1.82999,50.44134],[1.8323,50.44068]]]}},{"type":"Feature","properties":{"k":"PPH","s":1.017},"geometry":{"type":"Polygon","coordinates":[[[1.83328,50.44004],[1.83262,50.43923],[1.83122,50.4397],[1.83219,50.44044],[1.83328,50.44004]]]}},{"type":"Feature","properties":{"k":"BTH","s":2.699},"geometry":{"type":"Polygon","coordinates":[[[1.83989,50.43849],[1.83691,50.43954],[1.83786,50.44002],[1.83791,50.44055],[1.83942,50.44011],[1.84018,50.43951],[1.83989,50.43849]]]}},{"type":"Feature","properties":{"k":"PPH","s":2.632},"geometry":{"type":"Polygon","coordinates":[[[1.838,50.4407],[1.83786,50.44002],[1.83679,50.4396],[1.83621,50.44004],[1.83531,50.43977],[1.83452,50.44029],[1.83504,50.44007],[1.83459,50.44043],[1.83537,50.4412],[1.83584,50.44139],[1.83621,50.44092],[1.83671,50.44109],[1.83677,50.4406],[1.838,50.4407]]]}},{"type":"Feature","properties":{"k":"PPH","s":2.102},"geometry":{"type":"Polygon","coordinates":[[[1.84059,50.44276],[1.83978,50.44208],[1.83926,50.44219],[1.83963,50.44266],[1.83878,50.44315],[1.839,50.44339],[1.83761,50.44405],[1.83805,50.44489],[1.84059,50.44276]]]}},{"type":"Feature","properties":{"k":"BTN","s":1.875},"geometry":{"type":"Polygon","coordinates":[[[1.81922,50.42157],[1.81968,50.4204],[1.81702,50.42085],[1.81882,50.42226],[1.81922,50.42157]]]}},{"type":"Feature","properties":{"k":"PPH","s":2.829},"geometry":{"type":"Polygon","coordinates":[[[1.8306,50.43919],[1.83116,50.43968],[1.83261,50.43921],[1.83227,50.43841],[1.83153,50.43774],[1.83045,50.43758],[1.82969,50.43771],[1.8306,50.43919]]]}},{"type":"Feature","properties":{"k":"PPH","s":1.491},"geometry":{"type":"Polygon","coordinates":[[[1.83416,50.43972],[1.83457,50.44012],[1.83508,50.43978],[1.83371,50.43861],[1.83262,50.43896],[1.83338,50.43998],[1.83416,50.43972]]]}},{"type":"Feature","properties":{"k":"BTH","s":10.649},"geometry":{"type":"Polygon","coordinates":[[[1.83629,50.43624],[1.83734,50.43154],[1.83534,50.43123],[1.83426,50.43227],[1.83342,50.43522],[1.83349,50.43582],[1.83629,50.43624]]]}},{"type":"Feature","properties":{"k":"CAR","s":2.997},"geometry":{"type":"Polygon","coordinates":[[[1.83654,50.43552],[1.83635,50.43636],[1.84138,50.43503],[1.84079,50.43435],[1.83654,50.43552]]]}},{"type":"Feature","properties":{"k":"BTH","s":16.078},"geometry":{"type":"Polygon","coordinates":[[[1.84138,50.43228],[1.84102,50.43195],[1.84131,50.43181],[1.84098,50.4313],[1.84071,50.43141],[1.84023,50.43076],[1.84051,50.43068],[1.84033,50.43047],[1.83754,50.43107],[1.83654,50.43552],[1.84511,50.43319],[1.84302,50.43271],[1.84314,50.43259],[1.84203,50.43225],[1.84183,50.4324],[1.84138,50.43228]]]}},{"type":"Feature","properties":{"k":"PPH","s":1.137},"geometry":{"type":"Polygon","coordinates":[[[1.83497,50.44716],[1.83568,50.44702],[1.83773,50.4461],[1.83824,50.44581],[1.83808,50.44568],[1.83881,50.44534],[1.83871,50.44524],[1.83625,50.44623],[1.83636,50.4464],[1.83511,50.4468],[1.83497,50.44716]]]}},{"type":"Feature","properties":{"k":"PPH","s":0.303},"geometry":{"type":"Polygon","coordinates":[[[1.83273,50.44548],[1.83279,50.44526],[1.83224,50.44525],[1.83212,50.44498],[1.8315,50.44511],[1.83167,50.44542],[1.83273,50.44548]]]}},{"type":"Feature","properties":{"k":"ORH","s":9.977},"geometry":{"type":"Polygon","coordinates":[[[1.84745,50.43353],[1.84512,50.43319],[1.84269,50.43384],[1.84367,50.43496],[1.84363,50.43518],[1.8454,50.43624],[1.84615,50.43588],[1.84802,50.43547],[1.84767,50.43522],[1.85039,50.43417],[1.84863,50.43378],[1.84846,50.43386],[1.84745,50.43353]]]}},{"type":"Feature","properties":{"k":"PPH","s":7.669},"geometry":{"type":"Polygon","coordinates":[[[1.83227,50.43386],[1.83367,50.43176],[1.83301,50.43119],[1.83099,50.43273],[1.82995,50.43414],[1.8308,50.43452],[1.83027,50.43549],[1.83084,50.43562],[1.8306,50.43679],[1.83014,50.43674],[1.8298,50.43743],[1.83067,50.43742],[1.83183,50.43769],[1.83209,50.43755],[1.83219,50.43646],[1.8314,50.43634],[1.8313,50.4352],[1.83224,50.43518],[1.83202,50.43498],[1.83227,50.43386]]]}},{"type":"Feature","properties":{"k":"MIS","s":0.568},"geometry":{"type":"Polygon","coordinates":[[[1.83226,50.43387],[1.83201,50.43487],[1.83223,50.43506],[1.83246,50.43391],[1.83382,50.43189],[1.83367,50.43176],[1.83226,50.43387]]]}},{"type":"Feature","properties":{"k":"ORP","s":0.399},"geometry":{"type":"Polygon","coordinates":[[[1.84772,50.42617],[1.84845,50.42572],[1.84823,50.42563],[1.84741,50.42612],[1.84693,50.42591],[1.84653,50.42621],[1.84721,50.42648],[1.84772,50.42617]]]}},{"type":"Feature","properties":{"k":"PPH","s":4.743},"geometry":{"type":"Polygon","coordinates":[[[1.8436,50.43497],[1.84271,50.4339],[1.84086,50.43439],[1.8431,50.43691],[1.84411,50.43739],[1.84454,50.43779],[1.84504,50.43764],[1.84544,50.43804],[1.84598,50.43803],[1.84559,50.43776],[1.84596,50.4376],[1.8449,50.43689],[1.84442,50.43681],[1.84303,50.43547],[1.84291,50.4353],[1.8436,50.43497]]]}},{"type":"Feature","properties":{"k":"PPH","s":1.091},"geometry":{"type":"Polygon","coordinates":[[[1.84757,50.42192],[1.84675,50.42284],[1.84759,50.42307],[1.8481,50.4225],[1.84888,50.42269],[1.84882,50.42285],[1.84934,50.42297],[1.84917,50.42241],[1.84757,50.42192]]]}},{"type":"Feature","properties":{"k":"PHF","s":0.004},"geometry":{"type":"MultiPolygon","coordinates":[[[[1.84714,50.42177],[1.84744,50.42186],[1.84651,50.42156],[1.84714,50.42177]]]]}},{"type":"Feature","properties":{"k":"CZH","s":7.889},"geometry":{"type":"Polygon","coordinates":[[[1.82452,50.44505],[1.82724,50.44437],[1.828,50.44407],[1.82848,50.44366],[1.82797,50.44203],[1.82339,50.44273],[1.82452,50.44505]]]}},{"type":"Feature","properties":{"k":"BTN","s":11.298},"geometry":{"type":"Polygon","coordinates":[[[1.82804,50.44197],[1.82999,50.44134],[1.829,50.43837],[1.82509,50.4389],[1.82563,50.44234],[1.82804,50.44197]]]}},{"type":"Feature","properties":{"k":"BTH","s":16.655},"geometry":{"type":"Polygon","coordinates":[[[1.83296,50.42795],[1.8246,50.43395],[1.82596,50.43515],[1.82578,50.43522],[1.82599,50.4354],[1.83503,50.4289],[1.83335,50.42822],[1.83348,50.42812],[1.83296,50.42795]],[[1.82912,50.43123],[1.82877,50.43097],[1.82889,50.43105],[1.82912,50.43123]]]}},{"type":"Feature","properties":{"k":"BTH","s":1.427},"geometry":{"type":"Polygon","coordinates":[[[1.84057,50.42326],[1.84079,50.42288],[1.83678,50.42195],[1.83613,50.42221],[1.84057,50.42326]]]}},{"type":"Feature","properties":{"k":"PTC","s":6.727},"geometry":{"type":"Polygon","coordinates":[[[1.84741,50.42612],[1.84823,50.42563],[1.84104,50.4227],[1.84045,50.42372],[1.84653,50.42621],[1.84693,50.42591],[1.84741,50.42612]]]}},{"type":"Feature","properties":{"k":"PPH","s":1.444},"geometry":{"type":"Polygon","coordinates":[[[1.83322,50.44223],[1.83335,50.4424],[1.83392,50.44238],[1.83378,50.44222],[1.83408,50.44212],[1.8343,50.44222],[1.83377,50.44063],[1.83345,50.44053],[1.83296,50.44064],[1.83268,50.44077],[1.83296,50.44096],[1.83322,50.44223]]]}},{"type":"Feature","properties":{"k":"PPH","s":8.807},"geometry":{"type":"Polygon","coordinates":[[[1.83329,50.44259],[1.83286,50.4417],[1.83287,50.44102],[1.83264,50.44089],[1.8308,50.44116],[1.82797,50.44203],[1.82848,50.44366],[1.82855,50.4434],[1.8288,50.44343],[1.82982,50.44421],[1.83054,50.44392],[1.83043,50.44377],[1.83125,50.44356],[1.83109,50.44373],[1.83191,50.44343],[1.83329,50.44259]]]}},{"type":"Feature","properties":{"k":"CZH","s":1.215},"geometry":{"type":"Polygon","coordinates":[[[1.84146,50.42171],[1.8397,50.42081],[1.83836,50.42125],[1.84133,50.42195],[1.84146,50.42171]]]}},{"type":"Feature","properties":{"k":"LIF","s":2.595},"geometry":{"type":"Polygon","coordinates":[[[1.83823,50.42134],[1.83683,50.42191],[1.8408,50.42288],[1.84124,50.42211],[1.83823,50.42134]]]}},{"type":"Feature","properties":{"k":"LIF","s":3.515},"geometry":{"type":"Polygon","coordinates":[[[1.84054,50.4233],[1.83608,50.42223],[1.83469,50.42282],[1.84011,50.42408],[1.84054,50.4233]]]}},{"type":"Feature","properties":{"k":"BTH","s":6.467},"geometry":{"type":"Polygon","coordinates":[[[1.81336,50.43949],[1.81772,50.43942],[1.81751,50.43863],[1.81614,50.43715],[1.81376,50.43725],[1.81336,50.43949]]]}},{"type":"Feature","properties":{"k":"CZH","s":1.959},"geometry":{"type":"Polygon","coordinates":[[[1.83645,50.43684],[1.84168,50.43538],[1.84138,50.43503],[1.83635,50.43636],[1.83645,50.43684]]]}},{"type":"Feature","properties":{"k":"PPH","s":0.012},"geometry":{"type":"Polygon","coordinates":[[[1.81263,50.4403],[1.81263,50.44052],[1.81264,50.44084],[1.81263,50.4403]]]}},{"type":"Feature","properties":{"k":"BTH","s":1.197},"geometry":{"type":"Polygon","coordinates":[[[1.81272,50.44124],[1.81474,50.44115],[1.81485,50.44037],[1.8139,50.44055],[1.81266,50.44052],[1.81272,50.44124]]]}},{"type":"Feature","properties":{"k":"PPH","s":0.009},"geometry":{"type":"Polygon","coordinates":[[[1.81436,50.44124],[1.81422,50.44178],[1.81431,50.4418],[1.81436,50.44124]]]}},{"type":"Feature","properties":{"k":"ORH","s":3.01},"geometry":{"type":"Polygon","coordinates":[[[1.81324,50.44025],[1.81558,50.44027],[1.81747,50.44076],[1.81739,50.44035],[1.81772,50.43942],[1.81336,50.43949],[1.81324,50.44025]]]}},{"type":"Feature","properties":{"k":"PPH","s":0.181},"geometry":{"type":"Polygon","coordinates":[[[1.81756,50.44007],[1.81749,50.44052],[1.8179,50.44053],[1.81779,50.43965],[1.81756,50.44007]]]}},{"type":"Feature","properties":{"k":"BTH","s":21.342},"geometry":{"type":"Polygon","coordinates":[[[1.84652,50.4269],[1.84011,50.42433],[1.83843,50.42728],[1.83813,50.42842],[1.83941,50.42939],[1.84056,50.43063],[1.8426,50.42937],[1.8424,50.42928],[1.84652,50.4269]]]}},{"type":"Feature","properties":{"k":"BTH","s":0.001},"geometry":{"type":"Polygon","coordinates":[[[1.81188,50.42681],[1.81175,50.4268],[1.81182,50.42683],[1.81188,50.42681]]]}},{"type":"Feature","properties":{"k":"ORP","s":0.919},"geometry":{"type":"Polygon","coordinates":[[[1.81151,50.42695],[1.81021,50.42786],[1.81101,50.42824],[1.81219,50.42712],[1.81183,50.42691],[1.81151,50.42695]]]}},{"type":"Feature","properties":{"k":"PPH","s":7.339},"geometry":{"type":"Polygon","coordinates":[[[1.84731,50.42364],[1.84774,50.42312],[1.84672,50.42284],[1.84755,50.42189],[1.8424,50.42024],[1.8416,50.42167],[1.84731,50.42364]]]}},{"type":"Feature","properties":{"k":"BTH","s":1.806},"geometry":{"type":"Polygon","coordinates":[[[1.82018,50.4451],[1.81863,50.44381],[1.81811,50.44396],[1.81883,50.44449],[1.81779,50.4449],[1.81767,50.44512],[1.81864,50.44573],[1.82018,50.4451]]]}},{"type":"Feature","properties":{"k":"CZH","s":4.018},"geometry":{"type":"Polygon","coordinates":[[[1.84168,50.43538],[1.83631,50.43688],[1.8366,50.43775],[1.84231,50.43611],[1.84168,50.43538]]]}},{"type":"Feature","properties":{"k":"BTH","s":3.64},"geometry":{"type":"Polygon","coordinates":[[[1.84014,50.4243],[1.84652,50.4269],[1.84721,50.42649],[1.84045,50.42372],[1.84014,50.4243]]]}},{"type":"Feature","properties":{"k":"BTH","s":0.832},"geometry":{"type":"Polygon","coordinates":[[[1.82004,50.44824],[1.8207,50.44802],[1.82037,50.44676],[1.81956,50.4469],[1.82004,50.44824]]]}},{"type":"Feature","properties":{"k":"MIS","s":0.016},"geometry":{"type":"Polygon","coordinates":[[[1.82663,50.42174],[1.82684,50.42155],[1.82633,50.42189],[1.82663,50.42174]]]}},{"type":"Feature","properties":{"k":"MIS","s":0.006},"geometry":{"type":"Polygon","coordinates":[[[1.82663,50.42174],[1.82636,50.42191],[1.8264,50.42194],[1.82663,50.42174]]]}},{"type":"Feature","properties":{"k":"BTN","s":4.983},"geometry":{"type":"Polygon","coordinates":[[[1.83312,50.42349],[1.83957,50.42503],[1.84011,50.42408],[1.83469,50.42282],[1.83312,50.42349]]]}},{"type":"Feature","properties":{"k":"PPH","s":2.407},"geometry":{"type":"Polygon","coordinates":[[[1.81853,50.44589],[1.81964,50.44688],[1.82179,50.4465],[1.82021,50.44513],[1.81853,50.44589]]]}},{"type":"Feature","properties":{"k":"BTN","s":4.542},"geometry":{"type":"Polygon","coordinates":[[[1.83591,50.42905],[1.83508,50.43051],[1.83587,50.43073],[1.83543,50.43125],[1.83733,50.43153],[1.838,50.42859],[1.83776,50.42842],[1.83591,50.42905]]]}},{"type":"Feature","properties":{"k":"AVP","s":0.007},"geometry":{"type":"Polygon","coordinates":[[[1.83799,50.42137],[1.83801,50.42141],[1.83822,50.42133],[1.83799,50.42137]]]}},{"type":"Feature","properties":{"k":"LUZ","s":1.155},"geometry":{"type":"Polygon","coordinates":[[[1.82243,50.44662],[1.82355,50.44678],[1.82358,50.44633],[1.82233,50.44608],[1.82139,50.44526],[1.82075,50.44552],[1.82243,50.44662]]]}},{"type":"Feature","properties":{"k":"LUZ","s":0.991},"geometry":{"type":"Polygon","coordinates":[[[1.8203,50.44506],[1.82119,50.44467],[1.82012,50.4438],[1.81906,50.44413],[1.8203,50.44506]]]}},{"type":"Feature","properties":{"k":"BTH","s":9.444},"geometry":{"type":"Polygon","coordinates":[[[1.85015,50.42461],[1.8416,50.42167],[1.84104,50.4227],[1.84845,50.42572],[1.85015,50.42461]]]}},{"type":"Feature","properties":{"k":"BTH","s":1.09},"geometry":{"type":"Polygon","coordinates":[[[1.83589,50.4223],[1.83799,50.42137],[1.834,50.42268],[1.83172,50.42399],[1.83589,50.4223]]]}},{"type":"Feature","properties":{"k":"PTR","s":2.172},"geometry":{"type":"Polygon","coordinates":[[[1.83332,50.43301],[1.83266,50.43427],[1.83262,50.43487],[1.83296,50.43526],[1.83294,50.43579],[1.83627,50.4363],[1.83349,50.43582],[1.83342,50.43522],[1.83426,50.43227],[1.83332,50.43301]]]}},{"type":"Feature","properties":{"k":"PHF","s":2.926},"geometry":{"type":"Polygon","coordinates":[[[1.83833,50.42863],[1.8381,50.42851],[1.83754,50.43107],[1.84033,50.43047],[1.83833,50.42863]]]}}]}