{"type":"FeatureCollection","features":[{"type":"Feature","properties":{"k":"BTN","s":4.06},"geometry":{"type":"Polygon","coordinates":[[[3.03699,50.21289],[3.03613,50.21459],[3.036,50.21568],[3.03819,50.21492],[3.03874,50.21388],[3.03955,50.21339],[3.03699,50.21289]]]}},{"type":"Feature","properties":{"k":"JAC","s":0.557},"geometry":{"type":"Polygon","coordinates":[[[3.04467,50.21025],[3.04479,50.20963],[3.04401,50.20953],[3.04369,50.21033],[3.04425,50.2104],[3.04467,50.21025]]]}},{"type":"Feature","properties":{"k":"BTN","s":0.0},"geometry":{"type":"MultiPolygon","coordinates":[]}},{"type":"Feature","properties":{"k":"BTH","s":2.995},"geometry":{"type":"Polygon","coordinates":[[[3.04056,50.21305],[3.04111,50.21253],[3.03754,50.21183],[3.03702,50.21289],[3.03956,50.21339],[3.04056,50.21305]]]}},{"type":"Feature","properties":{"k":"CZH","s":5.796},"geometry":{"type":"Polygon","coordinates":[[[3.03804,50.21079],[3.03754,50.21183],[3.04111,50.21253],[3.04247,50.21143],[3.04264,50.21108],[3.03789,50.21005],[3.03804,50.21079]]]}},{"type":"Feature","properties":{"k":"BTH","s":3.773},"geometry":{"type":"Polygon","coordinates":[[[3.0425,50.2105],[3.04259,50.21025],[3.04164,50.2101],[3.03704,50.20879],[3.03789,50.21005],[3.04264,50.21108],[3.04284,50.21058],[3.0425,50.2105]]]}},{"type":"Feature","properties":{"k":"BTH","s":3.556},"geometry":{"type":"Polygon","coordinates":[[[3.04401,50.20953],[3.04356,50.20946],[3.04368,50.20912],[3.04418,50.20917],[3.04449,50.20831],[3.04224,50.20802],[3.04143,50.20994],[3.04369,50.21033],[3.04401,50.20953]]]}},{"type":"Feature","properties":{"k":"BTN","s":3.266},"geometry":{"type":"Polygon","coordinates":[[[3.03972,50.20944],[3.04143,50.20994],[3.04227,50.20801],[3.04107,50.20772],[3.04138,50.20712],[3.04066,50.20685],[3.0403,50.20757],[3.0406,50.20765],[3.03972,50.20944]]]}},{"type":"Feature","properties":{"k":"BTN","s":0.501},"geometry":{"type":"Polygon","coordinates":[[[3.03972,50.20944],[3.0406,50.20765],[3.0403,50.20757],[3.0394,50.20933],[3.03972,50.20944]]]}},{"type":"Feature","properties":{"k":"PTC","s":1.772},"geometry":{"type":"MultiPolygon","coordinates":[[[[3.04001,50.20664],[3.03945,50.20735],[3.03857,50.20909],[3.03939,50.20935],[3.04059,50.20689],[3.03998,50.20669],[3.04061,50.20684],[3.04029,50.20672],[3.04001,50.20664]]],[[[3.04062,50.20684],[3.04061,50.20684],[3.04059,50.20689],[3.04062,50.20684]]]]}},{"type":"Feature","properties":{"k":"PPH","s":0.302},"geometry":{"type":"Polygon","coordinates":[[[3.04194,50.20713],[3.04196,50.20667],[3.04116,50.20663],[3.04108,50.207],[3.04194,50.20713]]]}},{"type":"Feature","properties":{"k":"LUZ","s":0.288},"geometry":{"type":"Polygon","coordinates":[[[3.04553,50.20675],[3.04593,50.20682],[3.04632,50.20601],[3.0459,50.20594],[3.04553,50.20675]]]}},{"type":"Feature","properties":{"k":"JAC","s":0.698},"geometry":{"type":"Polygon","coordinates":[[[3.04551,50.20788],[3.04542,50.20809],[3.04812,50.20841],[3.04822,50.20794],[3.04792,50.20775],[3.04745,50.20772],[3.04736,50.2081],[3.04551,50.20788]]]}},{"type":"Feature","properties":{"k":"JAC","s":0.349},"geometry":{"type":"Polygon","coordinates":[[[3.04812,50.20841],[3.04546,50.2081],[3.04538,50.20828],[3.04809,50.20856],[3.04812,50.20841]]]}},{"type":"Feature","properties":{"k":"BTH","s":0.77},"geometry":{"type":"Polygon","coordinates":[[[3.0452,50.20863],[3.0488,50.20898],[3.04801,50.20888],[3.04809,50.20856],[3.04535,50.20828],[3.0452,50.20863]]]}},{"type":"Feature","properties":{"k":"PPH","s":0.013},"geometry":{"type":"Polygon","coordinates":[[[3.04879,50.20897],[3.05009,50.20912],[3.04928,50.20901],[3.04879,50.20897]]]}},{"type":"Feature","properties":{"k":"PPH","s":0.923},"geometry":{"type":"Polygon","coordinates":[[[3.04924,50.20901],[3.04942,50.20807],[3.04822,50.20794],[3.04801,50.20888],[3.04924,50.20901]]]}},{"type":"Feature","properties":{"k":"BTH","s":0.65},"geometry":{"type":"Polygon","coordinates":[[[3.0509,50.20575],[3.04877,50.20553],[3.04866,50.20596],[3.05081,50.20602],[3.0509,50.20575]]]}},{"type":"Feature","properties":{"k":"MIS","s":1.033},"geometry":{"type":"Polygon","coordinates":[[[3.05083,50.20509],[3.04892,50.2049],[3.04877,50.20553],[3.0509,50.20575],[3.05083,50.20509]]]}},{"type":"Feature","properties":{"k":"PHF","s":2.883},"geometry":{"type":"Polygon","coordinates":[[[3.05169,50.20052],[3.05137,50.19937],[3.04828,50.19876],[3.048,50.19976],[3.05169,50.20052]]]}},{"type":"Feature","properties":{"k":"MIS","s":4.828},"geometry":{"type":"Polygon","coordinates":[[[3.04826,50.19874],[3.05137,50.19936],[3.05139,50.19718],[3.04881,50.19667],[3.04826,50.19874]]]}},{"type":"Feature","properties":{"k":"CZH","s":2.209},"geometry":{"type":"Polygon","coordinates":[[[3.05155,50.19301],[3.0489,50.19236],[3.04866,50.19333],[3.05166,50.19393],[3.05155,50.19301]]]}},{"type":"Feature","properties":{"k":"PTC","s":2.511},"geometry":{"type":"Polygon","coordinates":[[[3.0465,50.19621],[3.05139,50.19717],[3.05144,50.19654],[3.04687,50.19559],[3.0465,50.19621]]]}},{"type":"Feature","properties":{"k":"BTH","s":2.511},"geometry":{"type":"Polygon","coordinates":[[[3.04577,50.19737],[3.0485,50.19785],[3.04881,50.19667],[3.0465,50.19621],[3.04577,50.19737]]]}},{"type":"Feature","properties":{"k":"PTR","s":0.524},"geometry":{"type":"Polygon","coordinates":[[[3.04533,50.19795],[3.04556,50.19757],[3.04474,50.19705],[3.04412,50.19751],[3.04533,50.19795]]]}},{"type":"Feature","properties":{"k":"PTR","s":0.203},"geometry":{"type":"Polygon","coordinates":[[[3.04344,50.19724],[3.04376,50.19736],[3.04445,50.19685],[3.04419,50.19669],[3.04344,50.19724]]]}},{"type":"Feature","properties":{"k":"JAC","s":0.197},"geometry":{"type":"Polygon","coordinates":[[[3.04445,50.19687],[3.04377,50.19737],[3.04412,50.1975],[3.04472,50.19704],[3.04445,50.19687]]]}},{"type":"Feature","properties":{"k":"MIS","s":1.443},"geometry":{"type":"Polygon","coordinates":[[[3.04386,50.19647],[3.04556,50.19758],[3.04585,50.19694],[3.0438,50.19564],[3.04321,50.19605],[3.04386,50.19647]]]}},{"type":"Feature","properties":{"k":"JAC","s":0.292},"geometry":{"type":"Polygon","coordinates":[[[3.04344,50.19724],[3.0442,50.19669],[3.04386,50.19647],[3.04311,50.19711],[3.04344,50.19724]]]}},{"type":"Feature","properties":{"k":"PTC","s":3.952},"geometry":{"type":"Polygon","coordinates":[[[3.04585,50.19694],[3.04598,50.19694],[3.04647,50.19612],[3.04256,50.19364],[3.04165,50.19428],[3.04585,50.19694]]]}},{"type":"Feature","properties":{"k":"LBF","s":3.146},"geometry":{"type":"Polygon","coordinates":[[[3.04691,50.19535],[3.04336,50.19309],[3.04256,50.19364],[3.04647,50.19612],[3.04691,50.19535]]]}},{"type":"Feature","properties":{"k":"BTH","s":2.0},"geometry":{"type":"Polygon","coordinates":[[[3.04407,50.1935],[3.04692,50.19536],[3.04739,50.19474],[3.04477,50.19305],[3.04407,50.1935]]]}},{"type":"Feature","properties":{"k":"BTN","s":2.522},"geometry":{"type":"Polygon","coordinates":[[[3.0473,50.19497],[3.04687,50.19559],[3.05144,50.19654],[3.0515,50.19583],[3.0473,50.19497]]]}},{"type":"Feature","properties":{"k":"BTH","s":5.523},"geometry":{"type":"Polygon","coordinates":[[[3.0515,50.19583],[3.05166,50.19393],[3.04862,50.19332],[3.0473,50.19497],[3.0515,50.19583]]]}},{"type":"Feature","properties":{"k":"BTN","s":1.287},"geometry":{"type":"Polygon","coordinates":[[[3.04785,50.19421],[3.04834,50.19364],[3.04652,50.19257],[3.04616,50.19294],[3.04553,50.19256],[3.04538,50.19265],[3.04785,50.19421]]]}},{"type":"Feature","properties":{"k":"BTH","s":0.0},"geometry":{"type":"Polygon","coordinates":[]}},{"type":"Feature","properties":{"k":"ORP","s":0.0},"geometry":{"type":"Polygon","coordinates":[[[3.04955,50.19219],[3.04953,50.1922],[3.04955,50.1922],[3.04955,50.19219]]]}},{"type":"Feature","properties":{"k":"ORP","s":1.638},"geometry":{"type":"Polygon","coordinates":[[[3.04477,50.19305],[3.04738,50.19473],[3.04785,50.19421],[3.04538,50.19265],[3.04477,50.19305]]]}},{"type":"Feature","properties":{"k":"ORH","s":2.643},"geometry":{"type":"Polygon","coordinates":[[[3.03896,50.19547],[3.04288,50.19271],[3.04249,50.19245],[3.03989,50.19428],[3.03925,50.19391],[3.03772,50.19498],[3.03896,50.19547]]]}},{"type":"Feature","properties":{"k":"BTN","s":2.821},"geometry":{"type":"Polygon","coordinates":[[[3.0376,50.1948],[3.039,50.19377],[3.03737,50.19282],[3.03556,50.19412],[3.0376,50.1948]]]}},{"type":"Feature","properties":{"k":"MIS","s":0.345},"geometry":{"type":"Polygon","coordinates":[[[3.03771,50.19497],[3.03925,50.19391],[3.039,50.19377],[3.03749,50.19488],[3.03771,50.19497]]]}},{"type":"Feature","properties":{"k":"JAC","s":0.354},"geometry":{"type":"Polygon","coordinates":[[[3.04341,50.19306],[3.04332,50.193],[3.03949,50.19569],[3.04341,50.19306]]]}},{"type":"Feature","properties":{"k":"ORH","s":1.776},"geometry":{"type":"Polygon","coordinates":[[[3.04332,50.193],[3.04289,50.19272],[3.03898,50.19548],[3.0395,50.19568],[3.04332,50.193]]]}},{"type":"Feature","properties":{"k":"BTH","s":4.143},"geometry":{"type":"Polygon","coordinates":[[[3.04222,50.19675],[3.0438,50.19564],[3.04165,50.19428],[3.03959,50.19573],[3.04222,50.19675]]]}},{"type":"Feature","properties":{"k":"JAC","s":0.65},"geometry":{"type":"Polygon","coordinates":[[[3.04304,50.19708],[3.04386,50.19647],[3.04321,50.19605],[3.04222,50.19676],[3.04304,50.19708]]]}},{"type":"Feature","properties":{"k":"BTH","s":5.334},"geometry":{"type":"Polygon","coordinates":[[[3.04137,50.19648],[3.03994,50.19813],[3.04323,50.1988],[3.04346,50.19852],[3.0449,50.19886],[3.0452,50.19805],[3.04137,50.19648]]]}},{"type":"Feature","properties":{"k":"BTH","s":4.196},"geometry":{"type":"Polygon","coordinates":[[[3.03924,50.19565],[3.0375,50.19764],[3.03992,50.19815],[3.04137,50.19648],[3.03924,50.19565]]]}},{"type":"Feature","properties":{"k":"BTH","s":3.263},"geometry":{"type":"Polygon","coordinates":[[[3.03776,50.19508],[3.03584,50.19731],[3.03749,50.19762],[3.03921,50.19563],[3.03776,50.19508]]]}},{"type":"Feature","properties":{"k":"BTN","s":7.793},"geometry":{"type":"Polygon","coordinates":[[[3.04477,50.19924],[3.03556,50.19738],[3.03481,50.19834],[3.04453,50.20016],[3.04477,50.19924]]]}},{"type":"Feature","properties":{"k":"LIF","s":5.224},"geometry":{"type":"Polygon","coordinates":[[[3.04522,50.20084],[3.04439,50.20052],[3.04435,50.20013],[3.03487,50.19835],[3.03462,50.19867],[3.03867,50.19936],[3.03918,50.20001],[3.04528,50.2012],[3.04522,50.20084]]]}},{"type":"Feature","properties":{"k":"BTH","s":2.325},"geometry":{"type":"Polygon","coordinates":[[[3.04577,50.19737],[3.04524,50.19824],[3.04823,50.19886],[3.0485,50.19785],[3.04577,50.19737]]]}},{"type":"Feature","properties":{"k":"BTH","s":3.59},"geometry":{"type":"Polygon","coordinates":[[[3.05171,50.20057],[3.04493,50.19923],[3.04476,50.19983],[3.05169,50.20123],[3.05171,50.20057]]]}},{"type":"Feature","properties":{"k":"BTH","s":4.258},"geometry":{"type":"Polygon","coordinates":[[[3.04472,50.20042],[3.04541,50.20076],[3.05152,50.20198],[3.05169,50.20123],[3.04476,50.19983],[3.04472,50.20042]]]}},{"type":"Feature","properties":{"k":"BTN","s":2.035},"geometry":{"type":"Polygon","coordinates":[[[3.05151,50.20198],[3.04539,50.20075],[3.04549,50.20121],[3.05141,50.20239],[3.05151,50.20198]]]}},{"type":"Feature","properties":{"k":"BTN","s":3.413},"geometry":{"type":"Polygon","coordinates":[[[3.04523,50.20217],[3.04944,50.20301],[3.0497,50.20205],[3.0455,50.20121],[3.04523,50.20217]]]}},{"type":"Feature","properties":{"k":"BTH","s":3.917},"geometry":{"type":"Polygon","coordinates":[[[3.04935,50.20332],[3.04916,50.20403],[3.05101,50.20423],[3.0514,50.20239],[3.0497,50.20205],[3.04944,50.20301],[3.04523,50.20217],[3.04517,50.2025],[3.04935,50.20332]]]}},{"type":"Feature","properties":{"k":"PTR","s":6.277},"geometry":{"type":"Polygon","coordinates":[[[3.04935,50.20333],[3.04517,50.2025],[3.04495,50.20398],[3.0472,50.20443],[3.04684,50.20531],[3.04876,50.20557],[3.04935,50.20333]]]}},{"type":"Feature","properties":{"k":"BTH","s":2.067},"geometry":{"type":"Polygon","coordinates":[[[3.0472,50.20443],[3.04495,50.204],[3.04485,50.20485],[3.04593,50.20509],[3.04578,50.20587],[3.04656,50.20605],[3.0472,50.20443]]]}},{"type":"Feature","properties":{"k":"BTH","s":11.503},"geometry":{"type":"Polygon","coordinates":[[[3.04031,50.2021],[3.04344,50.20275],[3.04267,50.20521],[3.04447,50.20556],[3.04537,50.20122],[3.03908,50.20001],[3.03976,50.20067],[3.04031,50.2021]]]}},{"type":"Feature","properties":{"k":"MIS","s":0.962},"geometry":{"type":"Polygon","coordinates":[[[3.04076,50.20416],[3.04127,50.20298],[3.04024,50.20284],[3.03985,50.20401],[3.04076,50.20416]]]}},{"type":"Feature","properties":{"k":"BTH","s":3.667},"geometry":{"type":"Polygon","coordinates":[[[3.03982,50.20368],[3.04019,50.2024],[3.03966,50.20067],[3.039,50.20056],[3.03799,50.20329],[3.0388,50.20358],[3.03982,50.20368]]]}},{"type":"Feature","properties":{"k":"JAC","s":0.026},"geometry":{"type":"Polygon","coordinates":[[[3.03662,50.2051],[3.0362,50.2055],[3.03626,50.20552],[3.03662,50.2051]]]}},{"type":"Feature","properties":{"k":"JAC","s":0.029},"geometry":{"type":"Polygon","coordinates":[[[3.03588,50.205],[3.03604,50.20484],[3.03588,50.20477],[3.03572,50.20493],[3.03588,50.205]]]}},{"type":"Feature","properties":{"k":"JAC","s":0.06},"geometry":{"type":"Polygon","coordinates":[[[3.03584,50.20349],[3.0351,50.20423],[3.03517,50.20426],[3.03584,50.20349]]]}},{"type":"Feature","properties":{"k":"JAC","s":0.105},"geometry":{"type":"Polygon","coordinates":[[[3.03385,50.20325],[3.03358,50.20356],[3.03418,50.20383],[3.03385,50.20325]]]}},{"type":"Feature","properties":{"k":"JAC","s":0.296},"geometry":{"type":"Polygon","coordinates":[[[3.03344,50.20254],[3.03282,50.20325],[3.03329,50.20345],[3.03369,50.20301],[3.03344,50.20254]]]}},{"type":"Feature","properties":{"k":"BTH","s":1.555},"geometry":{"type":"Polygon","coordinates":[[[3.03246,50.20138],[3.03148,50.20263],[3.03283,50.20324],[3.03344,50.20254],[3.03246,50.20138]]]}},{"type":"Feature","properties":{"k":"PPH","s":0.262},"geometry":{"type":"Polygon","coordinates":[[[3.03411,50.20358],[3.03466,50.20304],[3.03404,50.20281],[3.03381,50.20303],[3.03411,50.20358]]]}},{"type":"Feature","properties":{"k":"JAC","s":0.29},"geometry":{"type":"Polygon","coordinates":[[[3.03434,50.20392],[3.03507,50.20319],[3.03466,50.20304],[3.03411,50.20358],[3.03434,50.20392]]]}},{"type":"Feature","properties":{"k":"BTH","s":0.607},"geometry":{"type":"Polygon","coordinates":[[[3.03584,50.20349],[3.03508,50.20321],[3.03436,50.20392],[3.0351,50.20423],[3.03584,50.20349]]]}},{"type":"Feature","properties":{"k":"BTH","s":4.119},"geometry":{"type":"Polygon","coordinates":[[[3.03636,50.20363],[3.03702,50.20292],[3.03832,50.2004],[3.03695,50.20014],[3.0351,50.20317],[3.03636,50.20363]]]}},{"type":"Feature","properties":{"k":"BTH","s":7.374},"geometry":{"type":"Polygon","coordinates":[[[3.03361,50.2026],[3.03511,50.20315],[3.03695,50.20014],[3.03388,50.19954],[3.03258,50.20138],[3.03361,50.2026]]]}},{"type":"Feature","properties":{"k":"BTH","s":4.004},"geometry":{"type":"Polygon","coordinates":[[[3.03899,50.20055],[3.03968,50.20067],[3.03833,50.1993],[3.03457,50.19866],[3.03388,50.19953],[3.03899,50.20055]]]}},{"type":"Feature","properties":{"k":"BTH","s":9.971},"geometry":{"type":"Polygon","coordinates":[[[3.03464,50.1972],[3.03284,50.19668],[3.0286,50.20142],[3.03073,50.2023],[3.03464,50.1972]]]}},{"type":"Feature","properties":{"k":"BTN","s":4.113},"geometry":{"type":"Polygon","coordinates":[[[3.03148,50.20263],[3.03555,50.19738],[3.03466,50.19721],[3.0308,50.20233],[3.03148,50.20263]]]}},{"type":"Feature","properties":{"k":"PTC","s":17.308},"geometry":{"type":"Polygon","coordinates":[[[3.02996,50.19538],[3.02528,50.19908],[3.02693,50.20056],[3.0286,50.20142],[3.03284,50.19668],[3.02996,50.19538]]]}},{"type":"Feature","properties":{"k":"LBF","s":4.397},"geometry":{"type":"Polygon","coordinates":[[[3.02426,50.20563],[3.02942,50.20196],[3.02923,50.20187],[3.02742,50.20314],[3.02705,50.20292],[3.02887,50.20172],[3.02846,50.20155],[3.02297,50.20524],[3.02426,50.20563]]]}},{"type":"Feature","properties":{"k":"ORP","s":0.613},"geometry":{"type":"Polygon","coordinates":[[[3.02883,50.20175],[3.02705,50.20292],[3.02742,50.20314],[3.02919,50.2019],[3.02883,50.20175]]]}},{"type":"Feature","properties":{"k":"BTH","s":20.34},"geometry":{"type":"Polygon","coordinates":[[[3.03131,50.2074],[3.03469,50.20426],[3.03027,50.20231],[3.02529,50.20592],[3.02773,50.20672],[3.03131,50.2074]]]}},{"type":"Feature","properties":{"k":"ORP","s":3.928},"geometry":{"type":"Polygon","coordinates":[[[3.02526,50.20594],[3.03022,50.20231],[3.02938,50.20199],[3.02426,50.20563],[3.02526,50.20594]]]}},{"type":"Feature","properties":{"k":"LIF","s":12.131},"geometry":{"type":"Polygon","coordinates":[[[3.02658,50.20047],[3.0201,50.20435],[3.02156,50.20503],[3.02297,50.20524],[3.02846,50.20155],[3.02658,50.20047]]]}},{"type":"Feature","properties":{"k":"JAC","s":0.162},"geometry":{"type":"Polygon","coordinates":[[[3.01857,50.20317],[3.01845,50.20321],[3.01977,50.20436],[3.01988,50.20429],[3.01857,50.20317]]]}},{"type":"Feature","properties":{"k":"BTN","s":19.965},"geometry":{"type":"Polygon","coordinates":[[[3.01977,50.20436],[3.01957,50.2042],[3.01683,50.20164],[3.01551,50.20241],[3.01856,50.20555],[3.01771,50.206],[3.02059,50.20902],[3.02588,50.20621],[3.02352,50.20546],[3.02135,50.20503],[3.01988,50.20429],[3.01977,50.20436]]]}},{"type":"Feature","properties":{"k":"LIF","s":4.175},"geometry":{"type":"Polygon","coordinates":[[[3.01769,50.206],[3.01856,50.20555],[3.01552,50.20241],[3.01598,50.20214],[3.01501,50.20143],[3.01483,50.20153],[3.01513,50.20154],[3.01573,50.20199],[3.01426,50.20265],[3.01938,50.2078],[3.01769,50.206]]]}},{"type":"Feature","properties":{"k":"BTN","s":1.107},"geometry":{"type":"Polygon","coordinates":[[[3.01682,50.20164],[3.01571,50.20072],[3.01479,50.20126],[3.01598,50.20214],[3.01682,50.20164]]]}},{"type":"Feature","properties":{"k":"JAC","s":0.301},"geometry":{"type":"Polygon","coordinates":[[[3.01571,50.20072],[3.01553,50.20058],[3.01427,50.20135],[3.0146,50.20152],[3.01501,50.20143],[3.01479,50.20126],[3.01571,50.20072]]]}},{"type":"Feature","properties":{"k":"JAC","s":0.65},"geometry":{"type":"Polygon","coordinates":[[[3.01561,50.20003],[3.0158,50.19993],[3.01372,50.19841],[3.01329,50.19868],[3.01424,50.1993],[3.01443,50.1992],[3.01561,50.20003]]]}},{"type":"Feature","properties":{"k":"LBF","s":1.473},"geometry":{"type":"Polygon","coordinates":[[[3.01599,50.20095],[3.02048,50.19818],[3.02009,50.19799],[3.01571,50.20072],[3.01599,50.20095]]]}},{"type":"Feature","properties":{"k":"BTH","s":8.975},"geometry":{"type":"Polygon","coordinates":[[[3.01687,50.19636],[3.01372,50.19841],[3.0158,50.19993],[3.01629,50.19965],[3.01664,50.19983],[3.01984,50.19784],[3.01687,50.19636]]]}},{"type":"Feature","properties":{"k":"ORP","s":2.007},"geometry":{"type":"Polygon","coordinates":[[[3.02049,50.19818],[3.01602,50.20097],[3.0164,50.20129],[3.02098,50.19843],[3.02049,50.19818]]]}},{"type":"Feature","properties":{"k":"PTC","s":8.79},"geometry":{"type":"Polygon","coordinates":[[[3.02097,50.19844],[3.0164,50.20129],[3.01802,50.20266],[3.02274,50.1997],[3.02097,50.19844]]]}},{"type":"Feature","properties":{"k":"PHF","s":4.433},"geometry":{"type":"Polygon","coordinates":[[[3.01857,50.20316],[3.01889,50.20297],[3.01913,50.20316],[3.02351,50.20043],[3.02274,50.1997],[3.01802,50.20266],[3.01857,50.20316]]]}},{"type":"Feature","properties":{"k":"BTH","s":9.715},"geometry":{"type":"Polygon","coordinates":[[[3.02416,50.20079],[3.02405,50.20085],[3.02354,50.2004],[3.01902,50.20328],[3.01913,50.20359],[3.0201,50.20435],[3.02658,50.20047],[3.02628,50.20021],[3.02614,50.20032],[3.02559,50.19984],[3.02573,50.19973],[3.02512,50.19914],[3.02341,50.20017],[3.02416,50.20079]]]}},{"type":"Feature","properties":{"k":"BTH","s":2.796},"geometry":{"type":"Polygon","coordinates":[[[3.02337,50.20013],[3.02508,50.1991],[3.02359,50.19794],[3.02191,50.19896],[3.02337,50.20013]]]}},{"type":"Feature","properties":{"k":"BTH","s":2.065},"geometry":{"type":"Polygon","coordinates":[[[3.02216,50.19717],[3.02062,50.19816],[3.02189,50.19896],[3.02358,50.19792],[3.02216,50.19717]]]}},{"type":"Feature","properties":{"k":"BTH","s":3.24},"geometry":{"type":"Polygon","coordinates":[[[3.0216,50.19673],[3.02234,50.19709],[3.02723,50.1937],[3.02671,50.19329],[3.0216,50.19673]]]}},{"type":"Feature","properties":{"k":"BTH","s":4.592},"geometry":{"type":"Polygon","coordinates":[[[3.02586,50.19265],[3.02038,50.1961],[3.02142,50.19664],[3.02655,50.19316],[3.02586,50.19265]]]}},{"type":"Feature","properties":{"k":"LIF","s":7.894},"geometry":{"type":"Polygon","coordinates":[[[3.01879,50.19284],[3.0162,50.19416],[3.02038,50.1961],[3.02253,50.19475],[3.01879,50.19284]]]}},{"type":"Feature","properties":{"k":"BTH","s":6.627},"geometry":{"type":"Polygon","coordinates":[[[3.02148,50.19684],[3.01602,50.19425],[3.01486,50.19479],[3.01721,50.19613],[3.0169,50.19634],[3.01986,50.19779],[3.02148,50.19684]]]}},{"type":"Feature","properties":{"k":"BTN","s":0.875},"geometry":{"type":"Polygon","coordinates":[[[3.01999,50.19784],[3.02062,50.19816],[3.02216,50.19717],[3.02152,50.19688],[3.01999,50.19784]]]}},{"type":"Feature","properties":{"k":"BTH","s":4.425},"geometry":{"type":"Polygon","coordinates":[[[3.01721,50.19613],[3.01486,50.19479],[3.01293,50.19573],[3.01523,50.19738],[3.01721,50.19613]]]}},{"type":"Feature","properties":{"k":"BTH","s":3.018},"geometry":{"type":"Polygon","coordinates":[[[3.01486,50.19761],[3.01253,50.19594],[3.01123,50.19668],[3.0137,50.19833],[3.01486,50.19761]]]}},{"type":"Feature","properties":{"k":"ORH","s":0.735},"geometry":{"type":"Polygon","coordinates":[[[3.01283,50.19577],[3.01255,50.19595],[3.01485,50.19759],[3.01517,50.19739],[3.01283,50.19577]]]}},{"type":"Feature","properties":{"k":"LIF","s":2.364},"geometry":{"type":"Polygon","coordinates":[[[3.01603,50.19407],[3.01857,50.19282],[3.01748,50.19213],[3.01501,50.19359],[3.01603,50.19407]]]}},{"type":"Feature","properties":{"k":"BTH","s":4.436},"geometry":{"type":"Polygon","coordinates":[[[3.0157,50.19411],[3.01522,50.19386],[3.01428,50.19465],[3.01355,50.1943],[3.01448,50.1935],[3.01305,50.19272],[3.01242,50.19217],[3.01075,50.19322],[3.01389,50.19514],[3.01567,50.19427],[3.0157,50.19411]]]}},{"type":"Feature","properties":{"k":"CZH","s":15.862},"geometry":{"type":"Polygon","coordinates":[[[3.0135,50.19283],[3.01499,50.19359],[3.01748,50.19213],[3.01623,50.19131],[3.02,50.18871],[3.01888,50.18829],[3.01548,50.18751],[3.01526,50.18788],[3.01664,50.18897],[3.01172,50.19133],[3.0135,50.19283]]]}},{"type":"Feature","properties":{"k":"BTH","s":3.287},"geometry":{"type":"Polygon","coordinates":[[[3.02203,50.19159],[3.01886,50.1895],[3.01782,50.1902],[3.02067,50.19205],[3.02203,50.19159]]]}},{"type":"Feature","properties":{"k":"BTH","s":4.306},"geometry":{"type":"Polygon","coordinates":[[[3.01623,50.19131],[3.01857,50.19283],[3.01946,50.19236],[3.02067,50.19205],[3.01782,50.1902],[3.01623,50.19131]]]}},{"type":"Feature","properties":{"k":"BTH","s":9.35},"geometry":{"type":"Polygon","coordinates":[[[3.02253,50.19475],[3.02579,50.19269],[3.02477,50.19214],[3.02249,50.19154],[3.01956,50.19245],[3.01879,50.19284],[3.02253,50.19475]]]}},{"type":"Feature","properties":{"k":"JAC","s":0.135},"geometry":{"type":"Polygon","coordinates":[[[3.02477,50.19214],[3.02584,50.19266],[3.0248,50.1921],[3.02365,50.19177],[3.02249,50.19154],[3.02477,50.19214]]]}},{"type":"Feature","properties":{"k":"BTH","s":7.753},"geometry":{"type":"Polygon","coordinates":[[[3.02966,50.19244],[3.02543,50.1899],[3.02374,50.19087],[3.02829,50.19397],[3.02966,50.19244]]]}},{"type":"Feature","properties":{"k":"LBF","s":1.917},"geometry":{"type":"Polygon","coordinates":[[[3.03052,50.1915],[3.02681,50.18926],[3.02664,50.18921],[3.02614,50.18947],[3.03015,50.1919],[3.03052,50.1915]]]}},{"type":"Feature","properties":{"k":"MIS","s":2.708},"geometry":{"type":"Polygon","coordinates":[[[3.02616,50.18949],[3.02546,50.1899],[3.02967,50.19243],[3.03015,50.1919],[3.02616,50.18949]]]}},{"type":"Feature","properties":{"k":"ORH","s":3.318},"geometry":{"type":"Polygon","coordinates":[[[3.02972,50.1895],[3.02863,50.19029],[3.03147,50.19201],[3.03254,50.19117],[3.02972,50.1895]]]}},{"type":"Feature","properties":{"k":"CZH","s":5.087},"geometry":{"type":"Polygon","coordinates":[[[3.02874,50.19357],[3.0293,50.19404],[3.02901,50.19453],[3.02999,50.19522],[3.03229,50.1926],[3.03056,50.19156],[3.02874,50.19357]]]}},{"type":"Feature","properties":{"k":"JAC","s":0.724},"geometry":{"type":"Polygon","coordinates":[[[3.0293,50.19404],[3.02874,50.19357],[3.03056,50.19156],[3.03231,50.19257],[3.03055,50.1915],[3.02823,50.19404],[3.02995,50.19526],[3.02901,50.19453],[3.0293,50.19404]]]}},{"type":"Feature","properties":{"k":"BTA","s":0.389},"geometry":{"type":"Polygon","coordinates":[[[3.02829,50.19397],[3.02368,50.1909],[3.02821,50.19406],[3.02829,50.19397]]]}},{"type":"Feature","properties":{"k":"PTC","s":3.097},"geometry":{"type":"Polygon","coordinates":[[[3.02535,50.19573],[3.02296,50.19743],[3.02366,50.19778],[3.0283,50.1944],[3.02769,50.19402],[3.02535,50.19573]]]}},{"type":"Feature","properties":{"k":"BTH","s":2.73},"geometry":{"type":"Polygon","coordinates":[[[3.02769,50.19401],[3.02723,50.1937],[3.02234,50.19709],[3.02296,50.19743],[3.02769,50.19401]]]}},{"type":"Feature","properties":{"k":"BTH","s":8.738},"geometry":{"type":"Polygon","coordinates":[[[3.02834,50.19437],[3.02372,50.19782],[3.02528,50.19908],[3.02996,50.19538],[3.02834,50.19437]]]}},{"type":"Feature","properties":{"k":"AFG","s":0.028},"geometry":{"type":"Polygon","coordinates":[[[3.03001,50.1953],[3.03047,50.19554],[3.03051,50.1955],[3.03001,50.1953]]]}},{"type":"Feature","properties":{"k":"BTH","s":1.804},"geometry":{"type":"Polygon","coordinates":[[[3.03279,50.19287],[3.03048,50.19556],[3.03105,50.19586],[3.03336,50.19321],[3.03279,50.19287]]]}},{"type":"Feature","properties":{"k":"CZH","s":1.355},"geometry":{"type":"Polygon","coordinates":[[[3.03156,50.19606],[3.03206,50.19628],[3.03431,50.19368],[3.03384,50.19349],[3.03156,50.19606]]]}},{"type":"Feature","properties":{"k":"BTN","s":1.444},"geometry":{"type":"Polygon","coordinates":[[[3.03107,50.19585],[3.03156,50.19607],[3.03383,50.19349],[3.03338,50.19322],[3.03107,50.19585]]]}},{"type":"Feature","properties":{"k":"BTH","s":2.03},"geometry":{"type":"Polygon","coordinates":[[[3.03506,50.19399],[3.03431,50.19369],[3.03207,50.19628],[3.03284,50.19654],[3.03506,50.19399]]]}},{"type":"Feature","properties":{"k":"ORH","s":7.1},"geometry":{"type":"Polygon","coordinates":[[[3.03284,50.19656],[3.03584,50.19731],[3.03777,50.19506],[3.03506,50.19399],[3.03284,50.19656]]]}},{"type":"Feature","properties":{"k":"BTH","s":1.668},"geometry":{"type":"Polygon","coordinates":[[[3.03455,50.19372],[3.03556,50.19412],[3.03737,50.19282],[3.03652,50.19233],[3.03455,50.19372]]]}},{"type":"Feature","properties":{"k":"MIS","s":0.587},"geometry":{"type":"Polygon","coordinates":[[[3.03402,50.1935],[3.03658,50.19168],[3.03636,50.19156],[3.03386,50.19343],[3.03402,50.1935]]]}},{"type":"Feature","properties":{"k":"MIS","s":2.28},"geometry":{"type":"Polygon","coordinates":[[[3.03716,50.19184],[3.03551,50.19088],[3.03538,50.19097],[3.03602,50.19134],[3.03341,50.19317],[3.03377,50.19338],[3.03636,50.19156],[3.03658,50.19168],[3.03402,50.1935],[3.03449,50.1937],[3.03716,50.19184]]]}},{"type":"Feature","properties":{"k":"CZH","s":1.56},"geometry":{"type":"Polygon","coordinates":[[[3.03277,50.19288],[3.03229,50.19259],[3.02999,50.19522],[3.03051,50.1955],[3.03277,50.19288]]]}},{"type":"Feature","properties":{"k":"AFG","s":0.013},"geometry":{"type":"Polygon","coordinates":[[[3.03279,50.19286],[3.03231,50.19257],[3.03229,50.19259],[3.03279,50.19286]]]}},{"type":"Feature","properties":{"k":"BTH","s":3.624},"geometry":{"type":"Polygon","coordinates":[[[3.03148,50.192],[3.03254,50.19265],[3.034,50.19163],[3.02867,50.18822],[3.02804,50.1885],[3.03258,50.19119],[3.03148,50.192]]]}},{"type":"Feature","properties":{"k":"PTC","s":2.011},"geometry":{"type":"Polygon","coordinates":[[[3.0334,50.19316],[3.03601,50.19134],[3.03538,50.19097],[3.03423,50.19178],[3.03401,50.19164],[3.03256,50.19265],[3.0334,50.19316]]]}},{"type":"Feature","properties":{"k":"PTC","s":0.579},"geometry":{"type":"Polygon","coordinates":[[[3.02804,50.1885],[3.0268,50.18918],[3.0273,50.18949],[3.02847,50.18876],[3.02804,50.1885]]]}},{"type":"Feature","properties":{"k":"ORH","s":1.466},"geometry":{"type":"Polygon","coordinates":[[[3.02972,50.1895],[3.02847,50.18876],[3.02731,50.18949],[3.02863,50.19029],[3.02972,50.1895]]]}},{"type":"Feature","properties":{"k":"JAC","s":0.346},"geometry":{"type":"Polygon","coordinates":[[[3.01543,50.18481],[3.01429,50.18646],[3.01449,50.18652],[3.01569,50.18481],[3.01543,50.18481]]]}},{"type":"Feature","properties":{"k":"BTN","s":1.665},"geometry":{"type":"Polygon","coordinates":[[[3.01338,50.18615],[3.01428,50.18642],[3.01551,50.18472],[3.01459,50.18428],[3.01338,50.18615]]]}},{"type":"Feature","properties":{"k":"CZH","s":0.009},"geometry":{"type":"Polygon","coordinates":[[[3.0145,50.18418],[3.01425,50.18463],[3.01454,50.18421],[3.0145,50.18418]]]}},{"type":"Feature","properties":{"k":"POR","s":4.899},"geometry":{"type":"Polygon","coordinates":[[[3.0156,50.18745],[3.01747,50.18785],[3.018,50.18593],[3.01569,50.18481],[3.01449,50.18652],[3.01586,50.18696],[3.0156,50.18745]]]}},{"type":"Feature","properties":{"k":"CZH","s":2.406},"geometry":{"type":"Polygon","coordinates":[[[3.01936,50.18826],[3.01928,50.18647],[3.018,50.18593],[3.01747,50.18785],[3.01936,50.18826]]]}},{"type":"Feature","properties":{"k":"MIS","s":0.291},"geometry":{"type":"Polygon","coordinates":[[[3.01981,50.18848],[3.02067,50.18746],[3.0204,50.18737],[3.01959,50.18837],[3.01981,50.18848]]]}},{"type":"Feature","properties":{"k":"BTH","s":2.855},"geometry":{"type":"MultiPolygon","coordinates":[[[[3.0204,50.18737],[3.02067,50.18746],[3.01981,50.18848],[3.02121,50.18936],[3.02262,50.18792],[3.02088,50.18685],[3.0204,50.18737]]]]}},{"type":"Feature","properties":{"k":"MIS","s":0.621},"geometry":{"type":"Polygon","coordinates":[[[3.01939,50.18662],[3.01941,50.18716],[3.02041,50.18735],[3.02088,50.18684],[3.01975,50.18654],[3.01968,50.18666],[3.01939,50.18662]]]}},{"type":"Feature","properties":{"k":"PTC","s":0.33},"geometry":{"type":"MultiPolygon","coordinates":[[[[3.02262,50.18792],[3.02259,50.18795],[3.02294,50.18816],[3.02262,50.18792]]],[[[3.02582,50.18957],[3.02298,50.18818],[3.02556,50.18973],[3.02582,50.18957]]]]}},{"type":"Feature","properties":{"k":"ORP","s":4.797},"geometry":{"type":"Polygon","coordinates":[[[3.02354,50.19082],[3.02556,50.18973],[3.02259,50.18795],[3.02133,50.18927],[3.02354,50.19082]]]}},{"type":"Feature","properties":{"k":"BTH","s":4.084},"geometry":{"type":"Polygon","coordinates":[[[3.02203,50.19159],[3.02332,50.19094],[3.02,50.18871],[3.01889,50.18952],[3.02203,50.19159]]]}},{"type":"Feature","properties":{"k":"BTH","s":2.308},"geometry":{"type":"Polygon","coordinates":[[[3.01291,50.18688],[3.01284,50.18741],[3.01259,50.1875],[3.01311,50.18768],[3.01325,50.18821],[3.01359,50.18842],[3.01469,50.18871],[3.01549,50.18749],[3.01291,50.18688]]]}},{"type":"Feature","properties":{"k":"JAC","s":0.96},"geometry":{"type":"Polygon","coordinates":[[[3.01664,50.18897],[3.01649,50.18884],[3.01209,50.19087],[3.0115,50.19119],[3.01172,50.19133],[3.01664,50.18897]]]}},{"type":"Feature","properties":{"k":"LUZ","s":0.003},"geometry":{"type":"Polygon","coordinates":[[[3.01166,50.18853],[3.0118,50.18856],[3.01172,50.18849],[3.01166,50.18853]]]}},{"type":"Feature","properties":{"k":"JAC","s":0.19},"geometry":{"type":"Polygon","coordinates":[[[3.01044,50.19067],[3.0101,50.19039],[3.00963,50.19086],[3.00988,50.19102],[3.01044,50.19067]]]}},{"type":"Feature","properties":{"k":"MIS","s":0.36},"geometry":{"type":"Polygon","coordinates":[[[3.00988,50.19103],[3.01044,50.19146],[3.01104,50.1911],[3.01044,50.19067],[3.00988,50.19103]]]}},{"type":"Feature","properties":{"k":"MIS","s":0.448},"geometry":{"type":"Polygon","coordinates":[[[3.01182,50.19162],[3.01159,50.19148],[3.00967,50.19254],[3.00993,50.1927],[3.01182,50.19162]]]}},{"type":"Feature","properties":{"k":"BTH","s":1.784},"geometry":{"type":"Polygon","coordinates":[[[3.01153,50.19147],[3.01102,50.19112],[3.01044,50.19146],[3.00963,50.19086],[3.00865,50.19188],[3.00967,50.19254],[3.01153,50.19147]]]}},{"type":"Feature","properties":{"k":"BTH","s":1.361},"geometry":{"type":"Polygon","coordinates":[[[3.01182,50.19162],[3.00993,50.1927],[3.01075,50.19322],[3.01245,50.19215],[3.01182,50.19162]]]}},{"type":"Feature","properties":{"k":"CZH","s":2.171},"geometry":{"type":"Polygon","coordinates":[[[3.01076,50.19323],[3.00862,50.19189],[3.00828,50.19221],[3.00988,50.19321],[3.01342,50.19539],[3.01389,50.19514],[3.01076,50.19323]]]}},{"type":"Feature","properties":{"k":"BTH","s":3.369},"geometry":{"type":"Polygon","coordinates":[[[3.00988,50.19321],[3.00828,50.19221],[3.00775,50.19273],[3.01268,50.19577],[3.01342,50.19539],[3.00988,50.19321]]]}},{"type":"Feature","properties":{"k":"PTC","s":3.316},"geometry":{"type":"Polygon","coordinates":[[[3.00777,50.19274],[3.00717,50.1933],[3.01197,50.19617],[3.01268,50.19577],[3.00777,50.19274]]]}},{"type":"Feature","properties":{"k":"BTN","s":4.953},"geometry":{"type":"Polygon","coordinates":[[[3.01195,50.19616],[3.00717,50.1933],[3.00642,50.19405],[3.0107,50.19688],[3.01195,50.19616]]]}},{"type":"Feature","properties":{"k":"BTH","s":0.016},"geometry":{"type":"Polygon","coordinates":[[[3.02273,50.21176],[3.02317,50.21265],[3.02322,50.21265],[3.02273,50.21176]]]}},{"type":"Feature","properties":{"k":"BTH","s":5.99},"geometry":{"type":"Polygon","coordinates":[[[3.02553,50.21239],[3.02182,50.20836],[3.0206,50.20903],[3.02216,50.21061],[3.0232,50.21263],[3.02553,50.21239]]]}},{"type":"Feature","properties":{"k":"BTH","s":4.92},"geometry":{"type":"Polygon","coordinates":[[[3.02438,50.20842],[3.02743,50.20675],[3.02589,50.20621],[3.02184,50.20837],[3.02274,50.20933],[3.02438,50.20842]]]}},{"type":"Feature","properties":{"k":"LIF","s":6.725},"geometry":{"type":"Polygon","coordinates":[[[3.02963,50.20721],[3.02743,50.20675],[3.02273,50.20935],[3.02368,50.21037],[3.02963,50.20721]]]}},{"type":"Feature","properties":{"k":"BTN","s":9.395},"geometry":{"type":"Polygon","coordinates":[[[3.02963,50.20721],[3.02585,50.20921],[3.02747,50.21092],[3.03291,50.20787],[3.02963,50.20721]]]}},{"type":"Feature","properties":{"k":"BTH","s":7.019},"geometry":{"type":"Polygon","coordinates":[[[3.03662,50.2051],[3.03604,50.20484],[3.03588,50.205],[3.03572,50.20493],[3.03588,50.20477],[3.0347,50.20425],[3.03131,50.2074],[3.03374,50.20797],[3.03662,50.2051]]]}},{"type":"Feature","properties":{"k":"JAC","s":0.03},"geometry":{"type":"Polygon","coordinates":[[[3.03673,50.2057],[3.0363,50.20549],[3.03628,50.20551],[3.03774,50.20622],[3.03673,50.2057]]]}},{"type":"Feature","properties":{"k":"BTH","s":1.693},"geometry":{"type":"Polygon","coordinates":[[[3.03528,50.20648],[3.03668,50.20705],[3.03737,50.20686],[3.03773,50.20623],[3.0363,50.20549],[3.03528,50.20648]]]}},{"type":"Feature","properties":{"k":"BTN","s":0.844},"geometry":{"type":"Polygon","coordinates":[[[3.03528,50.20648],[3.03374,50.20797],[3.03446,50.2081],[3.0357,50.20666],[3.03528,50.20648]]]}},{"type":"Feature","properties":{"k":"BTH","s":2.671},"geometry":{"type":"Polygon","coordinates":[[[3.0369,50.20853],[3.03752,50.20734],[3.0357,50.20665],[3.03448,50.2081],[3.0369,50.20853]]]}},{"type":"Feature","properties":{"k":"BTN","s":5.787},"geometry":{"type":"Polygon","coordinates":[[[3.03789,50.21047],[3.03685,50.20872],[3.03356,50.20807],[3.032,50.20935],[3.03789,50.21047]]]}},{"type":"Feature","properties":{"k":"BTH","s":15.151},"geometry":{"type":"Polygon","coordinates":[[[3.03416,50.21232],[3.03713,50.21228],[3.03781,50.21108],[3.03789,50.21047],[3.032,50.20935],[3.02789,50.21187],[3.03416,50.21232]]]}},{"type":"Feature","properties":{"k":"BTH","s":9.111},"geometry":{"type":"Polygon","coordinates":[[[3.03705,50.21229],[3.03412,50.21234],[3.02964,50.21195],[3.03076,50.21411],[3.03633,50.21385],[3.03705,50.21229]]]}},{"type":"Feature","properties":{"k":"MIS","s":4.061},"geometry":{"type":"Polygon","coordinates":[[[3.02817,50.21166],[3.0325,50.20889],[3.03333,50.20798],[3.03291,50.20787],[3.02747,50.21092],[3.02817,50.21166]]]}},{"type":"Feature","properties":{"k":"PHF","s":6.087},"geometry":{"type":"Polygon","coordinates":[[[3.02728,50.21211],[3.02816,50.21165],[3.02585,50.20921],[3.02368,50.21037],[3.02553,50.21239],[3.02728,50.21211]]]}},{"type":"Feature","properties":{"k":"BTH","s":2.827},"geometry":{"type":"Polygon","coordinates":[[[3.02628,50.2136],[3.02554,50.21244],[3.02319,50.21269],[3.02396,50.21424],[3.02628,50.2136]]]}},{"type":"Feature","properties":{"k":"BTH","s":9.814},"geometry":{"type":"Polygon","coordinates":[[[3.0299,50.21698],[3.0271,50.21222],[3.02554,50.21244],[3.02628,50.2136],[3.02518,50.21394],[3.02735,50.21748],[3.0299,50.21698]]]}},{"type":"Feature","properties":{"k":"BTH","s":3.132},"geometry":{"type":"Polygon","coordinates":[[[3.02733,50.21747],[3.02518,50.21394],[3.02444,50.21417],[3.02613,50.21776],[3.02733,50.21747]]]}},{"type":"Feature","properties":{"k":"BTN","s":9.845},"geometry":{"type":"Polygon","coordinates":[[[3.03003,50.21696],[3.03213,50.21672],[3.02964,50.21195],[3.02789,50.21187],[3.0271,50.21222],[3.0299,50.21698],[3.03003,50.21696]],[[3.02993,50.21697],[3.02992,50.21692],[3.03003,50.21696],[3.02993,50.21697]]]}},{"type":"Feature","properties":{"k":"PTC","s":1.053},"geometry":{"type":"Polygon","coordinates":[[[3.03254,50.21509],[3.032,50.21407],[3.03077,50.21412],[3.03135,50.21521],[3.03254,50.21509]]]}},{"type":"Feature","properties":{"k":"BTH","s":6.031},"geometry":{"type":"Polygon","coordinates":[[[3.03332,50.21658],[3.03578,50.21578],[3.03595,50.21479],[3.03591,50.21479],[3.03634,50.2139],[3.03201,50.21407],[3.0325,50.21511],[3.03255,50.2151],[3.03332,50.21658]]]}},{"type":"Feature","properties":{"k":"PTC","s":1.504},"geometry":{"type":"Polygon","coordinates":[[[3.03255,50.21509],[3.03136,50.21521],[3.03213,50.21672],[3.03332,50.21658],[3.03255,50.21509]]]}},{"type":"Feature","properties":{"k":"PHF","s":0.035},"geometry":{"type":"Polygon","coordinates":[]}},{"type":"Feature","properties":{"k":"BTH","s":8.096},"geometry":{"type":"Polygon","coordinates":[[[3.02761,50.21748],[3.03113,50.22093],[3.0333,50.21993],[3.03024,50.21699],[3.02761,50.21748]]]}},{"type":"Feature","properties":{"k":"BTH","s":0.855},"geometry":{"type":"MultiPolygon","coordinates":[[[[3.03112,50.22093],[3.03113,50.22093],[3.03045,50.22026],[3.03112,50.22093]]],[[[3.02761,50.21748],[3.02739,50.21752],[3.02952,50.21994],[3.03013,50.21994],[3.02761,50.21748]]]]}}]}