{"type":"FeatureCollection","features":[{"type":"Feature","properties":{"k":"BTA","s":0.0},"geometry":{"type":"Polygon","coordinates":[]}},{"type":"Feature","properties":{"k":"PPH","s":1.222},"geometry":{"type":"Polygon","coordinates":[[[2.49613,50.58685],[2.49725,50.58638],[2.49749,50.58653],[2.49798,50.58614],[2.4972,50.58576],[2.49629,50.58609],[2.49553,50.58585],[2.49538,50.5859],[2.49567,50.58605],[2.49537,50.58629],[2.49517,50.58618],[2.49499,50.58631],[2.49613,50.58685]]]}},{"type":"Feature","properties":{"k":"JAC","s":0.154},"geometry":{"type":"Polygon","coordinates":[[[2.4964,50.58675],[2.49613,50.58685],[2.49643,50.58699],[2.49723,50.58642],[2.4964,50.58675]]]}},{"type":"Feature","properties":{"k":"PPH","s":0.952},"geometry":{"type":"Polygon","coordinates":[[[2.49553,50.58769],[2.49641,50.58708],[2.4952,50.58649],[2.4944,50.58711],[2.49553,50.58769]]]}},{"type":"Feature","properties":{"k":"PPH","s":2.329},"geometry":{"type":"Polygon","coordinates":[[[2.4952,50.58649],[2.4945,50.58619],[2.49176,50.58787],[2.49153,50.58815],[2.49099,50.58792],[2.49077,50.58803],[2.49159,50.58849],[2.49241,50.58784],[2.49344,50.58833],[2.49358,50.58798],[2.4945,50.58777],[2.49395,50.58749],[2.4952,50.58649]]]}},{"type":"Feature","properties":{"k":"BTA","s":0.004},"geometry":{"type":"MultiPolygon","coordinates":[[[[2.49076,50.58796],[2.49068,50.58797],[2.49072,50.58799],[2.49076,50.58796]]]]}},{"type":"Feature","properties":{"k":"JAC","s":0.089},"geometry":{"type":"Polygon","coordinates":[[[2.49345,50.58847],[2.49282,50.58913],[2.49311,50.58928],[2.49291,50.58912],[2.49351,50.58849],[2.49377,50.58788],[2.49345,50.58847]]]}},{"type":"Feature","properties":{"k":"BTH","s":0.65},"geometry":{"type":"Polygon","coordinates":[[[2.4945,50.58777],[2.49378,50.58787],[2.49468,50.58874],[2.495,50.58868],[2.49548,50.58892],[2.4945,50.58777]]]}},{"type":"Feature","properties":{"k":"PTC","s":0.526},"geometry":{"type":"Polygon","coordinates":[[[2.49291,50.58912],[2.49315,50.58925],[2.49436,50.58852],[2.49376,50.58796],[2.49291,50.58912]]]}},{"type":"Feature","properties":{"k":"JAC","s":0.051},"geometry":{"type":"Polygon","coordinates":[[[2.495,50.58868],[2.49468,50.58874],[2.49436,50.58852],[2.49465,50.5888],[2.49498,50.58873],[2.49539,50.58892],[2.495,50.58868]]]}},{"type":"Feature","properties":{"k":"PPH","s":1.101},"geometry":{"type":"Polygon","coordinates":[[[2.49306,50.59051],[2.49344,50.5903],[2.49269,50.58967],[2.49184,50.59016],[2.49359,50.59147],[2.4937,50.59071],[2.49306,50.59051]]]}},{"type":"Feature","properties":{"k":"JAC","s":0.355},"geometry":{"type":"Polygon","coordinates":[[[2.49622,50.5904],[2.49642,50.5905],[2.49709,50.58996],[2.49686,50.58953],[2.49742,50.5892],[2.49722,50.58913],[2.49649,50.5895],[2.49685,50.58981],[2.49622,50.5904]]]}},{"type":"Feature","properties":{"k":"VRG","s":0.317},"geometry":{"type":"Polygon","coordinates":[[[2.49666,50.59003],[2.49666,50.59009],[2.49685,50.58982],[2.49568,50.58892],[2.49544,50.58913],[2.49666,50.59003]]]}},{"type":"Feature","properties":{"k":"MIS","s":0.602},"geometry":{"type":"Polygon","coordinates":[[[2.4945,50.58777],[2.49522,50.58848],[2.49552,50.58835],[2.49579,50.58865],[2.49622,50.58831],[2.49511,50.58765],[2.4945,50.58777]]]}},{"type":"Feature","properties":{"k":"PPH","s":0.713},"geometry":{"type":"Polygon","coordinates":[[[2.49451,50.58773],[2.49506,50.58762],[2.49622,50.58831],[2.49645,50.58807],[2.49652,50.5879],[2.49578,50.58753],[2.49553,50.58769],[2.4944,50.58711],[2.49401,50.58746],[2.49451,50.58773]]]}},{"type":"Feature","properties":{"k":"JAC","s":0.018},"geometry":{"type":"Polygon","coordinates":[[[2.49713,50.5886],[2.4975,50.58847],[2.49705,50.58859],[2.49736,50.58876],[2.49713,50.5886]]]}},{"type":"Feature","properties":{"k":"PPH","s":0.507},"geometry":{"type":"Polygon","coordinates":[[[2.49793,50.58743],[2.49751,50.58736],[2.49726,50.58795],[2.49747,50.58848],[2.49799,50.58835],[2.49793,50.58743]]]}},{"type":"Feature","properties":{"k":"JAC","s":0.095},"geometry":{"type":"Polygon","coordinates":[[[2.50013,50.58806],[2.50022,50.5883],[2.50239,50.58847],[2.5026,50.58776],[2.50236,50.58843],[2.50022,50.58827],[2.50017,50.58802],[2.49946,50.58806],[2.50013,50.58806]]]}},{"type":"Feature","properties":{"k":"BTN","s":3.128},"geometry":{"type":"Polygon","coordinates":[[[2.52409,50.57938],[2.52098,50.57794],[2.5202,50.57893],[2.52299,50.58023],[2.52409,50.57938]]]}},{"type":"Feature","properties":{"k":"PTC","s":1.314},"geometry":{"type":"Polygon","coordinates":[[[2.52495,50.57595],[2.52449,50.57636],[2.524,50.57615],[2.52347,50.57663],[2.52494,50.57733],[2.52583,50.5764],[2.52495,50.57595]]]}},{"type":"Feature","properties":{"k":"ORP","s":10.83},"geometry":{"type":"Polygon","coordinates":[[[2.52097,50.57793],[2.52409,50.57938],[2.52463,50.57899],[2.52569,50.57973],[2.52616,50.57941],[2.52636,50.5795],[2.5272,50.5787],[2.52716,50.57761],[2.5262,50.57731],[2.52589,50.57771],[2.52347,50.57663],[2.52448,50.5757],[2.52331,50.57516],[2.52226,50.57616],[2.52097,50.57793]]]}},{"type":"Feature","properties":{"k":"BOR","s":0.037},"geometry":{"type":"Polygon","coordinates":[[[2.52709,50.57759],[2.52716,50.57761],[2.52623,50.57727],[2.52709,50.57759]]]}},{"type":"Feature","properties":{"k":"BTN","s":0.979},"geometry":{"type":"Polygon","coordinates":[[[2.52722,50.57716],[2.52736,50.57758],[2.52834,50.57724],[2.52906,50.57645],[2.52835,50.57619],[2.52722,50.57716]]]}},{"type":"Feature","properties":{"k":"BOR","s":0.023},"geometry":{"type":"Polygon","coordinates":[[[2.52906,50.57645],[2.52909,50.57642],[2.52838,50.57616],[2.52906,50.57645]]]}},{"type":"Feature","properties":{"k":"BTH","s":5.093},"geometry":{"type":"Polygon","coordinates":[[[2.52954,50.57607],[2.52846,50.57727],[2.52734,50.5778],[2.5296,50.57872],[2.53077,50.578],[2.53193,50.5777],[2.53088,50.57716],[2.53161,50.57654],[2.53082,50.57618],[2.53122,50.57579],[2.53079,50.57561],[2.53012,50.5763],[2.52954,50.57607]]]}},{"type":"Feature","properties":{"k":"BOR","s":0.07},"geometry":{"type":"Polygon","coordinates":[]}},{"type":"Feature","properties":{"k":"PPH","s":0.333},"geometry":{"type":"Polygon","coordinates":[[[2.5271,50.57994],[2.52794,50.57953],[2.52751,50.57949],[2.52692,50.57919],[2.52673,50.5796],[2.5271,50.57994]]]}},{"type":"Feature","properties":{"k":"BOR","s":0.072},"geometry":{"type":"Polygon","coordinates":[[[2.52616,50.57941],[2.52569,50.57973],[2.52464,50.579],[2.52463,50.57899],[2.52459,50.57902],[2.52569,50.57979],[2.52632,50.57948],[2.52616,50.57941]]]}},{"type":"Feature","properties":{"k":"JAC","s":0.06},"geometry":{"type":"Polygon","coordinates":[[[2.52632,50.57953],[2.52659,50.57971],[2.52667,50.57934],[2.5268,50.57918],[2.52632,50.57953]]]}},{"type":"Feature","properties":{"k":"BTA","s":0.021},"geometry":{"type":"Polygon","coordinates":[[[2.52352,50.58093],[2.52411,50.58143],[2.52415,50.58141],[2.52352,50.58093]]]}},{"type":"Feature","properties":{"k":"LIF","s":0.016},"geometry":{"type":"Polygon","coordinates":[[[2.52409,50.58142],[2.52377,50.5817],[2.52413,50.58197],[2.5238,50.5817],[2.52409,50.58142]]]}},{"type":"Feature","properties":{"k":"BOR","s":0.136},"geometry":{"type":"Polygon","coordinates":[[[2.52768,50.58021],[2.52773,50.58016],[2.52509,50.58195],[2.52768,50.58021]]]}},{"type":"Feature","properties":{"k":"PHF","s":3.516},"geometry":{"type":"Polygon","coordinates":[[[2.52837,50.58036],[2.52773,50.58016],[2.52514,50.58198],[2.52894,50.58437],[2.5297,50.58396],[2.52624,50.58184],[2.52837,50.58036]]]}},{"type":"Feature","properties":{"k":"BTN","s":4.002},"geometry":{"type":"Polygon","coordinates":[[[2.53099,50.58333],[2.52737,50.58109],[2.52624,50.58184],[2.5297,50.58396],[2.53099,50.58333]]]}},{"type":"Feature","properties":{"k":"BTN","s":0.667},"geometry":{"type":"Polygon","coordinates":[[[2.52396,50.58232],[2.52498,50.58289],[2.52555,50.58242],[2.52456,50.58181],[2.52396,50.58232]]]}},{"type":"Feature","properties":{"k":"BTA","s":0.05},"geometry":{"type":"Polygon","coordinates":[[[2.52555,50.58242],[2.52461,50.58177],[2.52456,50.58181],[2.52555,50.58242]]]}},{"type":"Feature","properties":{"k":"BTN","s":8.179},"geometry":{"type":"Polygon","coordinates":[[[2.5212,50.58495],[2.52193,50.58424],[2.52155,50.58408],[2.52199,50.58365],[2.52123,50.58337],[2.5235,50.58095],[2.52197,50.57995],[2.51846,50.58404],[2.5212,50.58495]]]}},{"type":"Feature","properties":{"k":"PTR","s":0.869},"geometry":{"type":"Polygon","coordinates":[[[2.52226,50.58325],[2.52273,50.58343],[2.52337,50.5828],[2.5222,50.58234],[2.52152,50.58308],[2.52217,50.58335],[2.52226,50.58325]]]}},{"type":"Feature","properties":{"k":"LIF","s":1.43},"geometry":{"type":"Polygon","coordinates":[[[2.52409,50.58142],[2.52352,50.58093],[2.5222,50.58234],[2.52337,50.5828],[2.52413,50.58197],[2.52377,50.5817],[2.52409,50.58142]]]}},{"type":"Feature","properties":{"k":"BTA","s":0.044},"geometry":{"type":"Polygon","coordinates":[[[2.52128,50.58911],[2.52028,50.58904],[2.5213,50.58917],[2.5216,50.58907],[2.52128,50.58911]]]}},{"type":"Feature","properties":{"k":"PPH","s":0.334},"geometry":{"type":"Polygon","coordinates":[[[2.52068,50.58855],[2.5203,50.58901],[2.52128,50.58911],[2.52163,50.58907],[2.52165,50.58892],[2.52068,50.58855]]]}},{"type":"Feature","properties":{"k":"BTN","s":2.427},"geometry":{"type":"Polygon","coordinates":[[[2.51899,50.59018],[2.517,50.59204],[2.51738,50.5922],[2.51761,50.59199],[2.51853,50.59236],[2.5183,50.59257],[2.5186,50.59269],[2.51976,50.5916],[2.51962,50.59134],[2.51966,50.59143],[2.51899,50.59018]]]}},{"type":"Feature","properties":{"k":"JAC","s":0.967},"geometry":{"type":"Polygon","coordinates":[[[2.51824,50.59087],[2.51785,50.59068],[2.51723,50.5912],[2.51598,50.59065],[2.51556,50.59107],[2.51733,50.5917],[2.51824,50.59087]]]}},{"type":"Feature","properties":{"k":"ORP","s":1.06},"geometry":{"type":"Polygon","coordinates":[[[2.51388,50.58982],[2.51595,50.59049],[2.51642,50.58999],[2.51432,50.58932],[2.51388,50.58982]]]}},{"type":"Feature","properties":{"k":"BTN","s":2.987},"geometry":{"type":"Polygon","coordinates":[[[2.5136,50.58973],[2.51245,50.591],[2.51438,50.59167],[2.51503,50.59131],[2.51592,50.59048],[2.5136,50.58973]]]}},{"type":"Feature","properties":{"k":"PTC","s":4.494},"geometry":{"type":"Polygon","coordinates":[[[2.51245,50.591],[2.51438,50.58855],[2.51233,50.58819],[2.51044,50.5902],[2.51245,50.591]]]}},{"type":"Feature","properties":{"k":"MIS","s":0.566},"geometry":{"type":"Polygon","coordinates":[[[2.51442,50.58844],[2.51494,50.58859],[2.51583,50.58746],[2.51546,50.58719],[2.51442,50.58844]]]}},{"type":"Feature","properties":{"k":"MIS","s":0.452},"geometry":{"type":"Polygon","coordinates":[[[2.5165,50.5898],[2.51658,50.58929],[2.51612,50.58912],[2.5156,50.58902],[2.51526,50.58941],[2.5165,50.5898]]]}},{"type":"Feature","properties":{"k":"BOR","s":0.064},"geometry":{"type":"Polygon","coordinates":[[[2.51647,50.58848],[2.51659,50.58818],[2.51591,50.58897],[2.51647,50.58848]]]}},{"type":"Feature","properties":{"k":"BTN","s":5.044},"geometry":{"type":"Polygon","coordinates":[[[2.52262,50.57563],[2.52239,50.57555],[2.52265,50.5753],[2.51905,50.574],[2.51767,50.57512],[2.52175,50.57663],[2.52262,50.57563]]]}},{"type":"Feature","properties":{"k":"ORP","s":7.782},"geometry":{"type":"Polygon","coordinates":[[[2.52003,50.5726],[2.51805,50.57202],[2.51736,50.57242],[2.51664,50.5726],[2.51475,50.57564],[2.51685,50.57639],[2.51758,50.57509],[2.51939,50.57358],[2.51805,50.57308],[2.51854,50.57254],[2.51983,50.57291],[2.52003,50.5726]]]}},{"type":"Feature","properties":{"k":"JAC","s":0.083},"geometry":{"type":"Polygon","coordinates":[[[2.51854,50.57254],[2.51804,50.5731],[2.51939,50.57358],[2.51808,50.57309],[2.51856,50.57256],[2.51979,50.5729],[2.51854,50.57254]]]}},{"type":"Feature","properties":{"k":"PPH","s":0.465},"geometry":{"type":"Polygon","coordinates":[[[2.51976,50.57326],[2.52046,50.5735],[2.52079,50.5727],[2.52025,50.57249],[2.51976,50.57326]]]}},{"type":"Feature","properties":{"k":"PTC","s":3.195},"geometry":{"type":"Polygon","coordinates":[[[2.52289,50.57327],[2.52346,50.57247],[2.52252,50.57222],[2.52111,50.57231],[2.52046,50.57348],[2.52238,50.57412],[2.52373,50.57354],[2.52289,50.57327]]]}},{"type":"Feature","properties":{"k":"PPH","s":0.405},"geometry":{"type":"Polygon","coordinates":[[[2.5236,50.57185],[2.5229,50.57159],[2.52243,50.57214],[2.52339,50.57234],[2.5236,50.57185]]]}},{"type":"Feature","properties":{"k":"BTA","s":0.067},"geometry":{"type":"Polygon","coordinates":[[[2.52322,50.57081],[2.52392,50.57082],[2.52321,50.57076],[2.52217,50.57118],[2.52322,50.57081]]]}},{"type":"Feature","properties":{"k":"PHF","s":1.502},"geometry":{"type":"Polygon","coordinates":[[[2.48675,50.58878],[2.49066,50.59103],[2.49107,50.59077],[2.48739,50.58865],[2.48675,50.58878]]]}},{"type":"Feature","properties":{"k":"ORP","s":6.29},"geometry":{"type":"Polygon","coordinates":[[[2.51846,50.58404],[2.52197,50.57995],[2.52062,50.57932],[2.51699,50.58351],[2.51846,50.58404]]]}},{"type":"Feature","properties":{"k":"PPH","s":0.94},"geometry":{"type":"Polygon","coordinates":[[[2.50421,50.58068],[2.50454,50.58123],[2.5059,50.57987],[2.50498,50.57966],[2.50421,50.58068]]]}},{"type":"Feature","properties":{"k":"PPH","s":0.001},"geometry":{"type":"Polygon","coordinates":[[[2.50527,50.57748],[2.50527,50.57743],[2.50524,50.57748],[2.50527,50.57748]]]}},{"type":"Feature","properties":{"k":"BTA","s":0.059},"geometry":{"type":"Polygon","coordinates":[[[2.48679,50.58858],[2.4866,50.58869],[2.48675,50.58878],[2.48739,50.58865],[2.48679,50.58858]]]}},{"type":"Feature","properties":{"k":"BTA","s":0.0},"geometry":{"type":"Polygon","coordinates":[]}},{"type":"Feature","properties":{"k":"BTA","s":0.141},"geometry":{"type":"Polygon","coordinates":[[[2.51362,50.59709],[2.51533,50.59766],[2.51537,50.59756],[2.51368,50.597],[2.51362,50.59709]]]}},{"type":"Feature","properties":{"k":"BTN","s":5.022},"geometry":{"type":"Polygon","coordinates":[[[2.51618,50.59569],[2.51607,50.59515],[2.51307,50.59429],[2.5126,50.59484],[2.514,50.59526],[2.51305,50.59656],[2.51377,50.59686],[2.51368,50.597],[2.51538,50.59754],[2.51618,50.59569]]]}},{"type":"Feature","properties":{"k":"BTH","s":2.762},"geometry":{"type":"Polygon","coordinates":[[[2.51307,50.59429],[2.51609,50.59515],[2.51546,50.59358],[2.51499,50.59311],[2.51389,50.59305],[2.51307,50.59429]]]}},{"type":"Feature","properties":{"k":"BTH","s":5.623},"geometry":{"type":"Polygon","coordinates":[[[2.51123,50.59585],[2.51272,50.59449],[2.51346,50.59343],[2.51126,50.59272],[2.51152,50.59245],[2.51129,50.59265],[2.50921,50.59496],[2.51123,50.59585]]]}},{"type":"Feature","properties":{"k":"BTH","s":1.939},"geometry":{"type":"Polygon","coordinates":[[[2.51362,50.59321],[2.51399,50.592],[2.51252,50.59138],[2.51156,50.59241],[2.51362,50.59321]]]}},{"type":"Feature","properties":{"k":"BTN","s":0.093},"geometry":{"type":"Polygon","coordinates":[[[2.51503,50.59171],[2.51503,50.59212],[2.51546,50.59166],[2.51511,50.5916],[2.51503,50.59171]]]}},{"type":"Feature","properties":{"k":"BTN","s":0.04},"geometry":{"type":"Polygon","coordinates":[[[2.51555,50.59254],[2.51514,50.59234],[2.51539,50.5927],[2.51555,50.59254]]]}},{"type":"Feature","properties":{"k":"BTN","s":3.57},"geometry":{"type":"Polygon","coordinates":[[[2.51647,50.59486],[2.51669,50.59492],[2.51758,50.59367],[2.51819,50.59307],[2.51852,50.59276],[2.51624,50.59192],[2.51539,50.5927],[2.51606,50.59365],[2.51647,50.59486]],[[2.518,50.59298],[2.51809,50.59291],[2.51819,50.59307],[2.518,50.59298]]]}},{"type":"Feature","properties":{"k":"BTN","s":0.367},"geometry":{"type":"Polygon","coordinates":[[[2.51506,50.59224],[2.51552,50.59252],[2.5161,50.59195],[2.5155,50.5917],[2.51506,50.59224]]]}},{"type":"Feature","properties":{"k":"BTN","s":0.09},"geometry":{"type":"Polygon","coordinates":[[[2.5155,50.5917],[2.5161,50.59195],[2.51555,50.59254],[2.51624,50.59192],[2.51546,50.59166],[2.51507,50.59214],[2.5155,50.5917]]]}},{"type":"Feature","properties":{"k":"JAC","s":0.141},"geometry":{"type":"Polygon","coordinates":[[[2.52013,50.59227],[2.51992,50.59233],[2.51965,50.59305],[2.52013,50.59227]]]}},{"type":"Feature","properties":{"k":"BTH","s":4.986},"geometry":{"type":"Polygon","coordinates":[[[2.53705,50.5737],[2.53778,50.57305],[2.53867,50.57353],[2.54142,50.57078],[2.54012,50.57068],[2.5398,50.57106],[2.53827,50.57097],[2.53705,50.5737]]]}},{"type":"Feature","properties":{"k":"BTH","s":2.497},"geometry":{"type":"Polygon","coordinates":[[[2.53689,50.57346],[2.53828,50.57095],[2.53666,50.57114],[2.53572,50.57307],[2.53689,50.57346]]]}},{"type":"Feature","properties":{"k":"FVP","s":2.302},"geometry":{"type":"Polygon","coordinates":[[[2.53576,50.57101],[2.53586,50.57048],[2.53547,50.57061],[2.53446,50.57308],[2.53572,50.57307],[2.53666,50.57114],[2.53576,50.57101]]]}},{"type":"Feature","properties":{"k":"BTH","s":4.192},"geometry":{"type":"Polygon","coordinates":[[[2.53402,50.57291],[2.53446,50.57308],[2.53547,50.57061],[2.53453,50.57017],[2.53372,50.57043],[2.53376,50.57118],[2.53202,50.57157],[2.53187,50.57225],[2.53329,50.57238],[2.5331,50.57301],[2.53402,50.57291]]]}},{"type":"Feature","properties":{"k":"BTA","s":0.002},"geometry":{"type":"MultiPolygon","coordinates":[[[[2.53377,50.56853],[2.53371,50.56852],[2.53373,50.56853],[2.53377,50.56853]]],[[[2.5342,50.56874],[2.53425,50.56875],[2.53408,50.56866],[2.5342,50.56874]]],[[[2.53528,50.56914],[2.53531,50.56914],[2.53491,50.56905],[2.53528,50.56914]]]]}},{"type":"Feature","properties":{"k":"PPH","s":7.319},"geometry":{"type":"Polygon","coordinates":[[[2.53048,50.5682],[2.5297,50.56956],[2.53135,50.56975],[2.53113,50.5703],[2.53177,50.57061],[2.53299,50.57053],[2.53334,50.5702],[2.53394,50.57022],[2.5347,50.57],[2.53507,50.57032],[2.53557,50.57045],[2.53566,50.57035],[2.53511,50.56999],[2.53571,50.56974],[2.53576,50.56941],[2.53547,50.56918],[2.53331,50.56841],[2.53131,50.56809],[2.53048,50.5682]]]}},{"type":"Feature","properties":{"k":"PTC","s":3.008},"geometry":{"type":"Polygon","coordinates":[[[2.53206,50.57149],[2.53367,50.57113],[2.53368,50.57043],[2.53307,50.5707],[2.53185,50.5708],[2.53119,50.5705],[2.52974,50.57073],[2.52933,50.57039],[2.52921,50.57166],[2.53206,50.57149]]]}},{"type":"Feature","properties":{"k":"BTH","s":1.836},"geometry":{"type":"Polygon","coordinates":[[[2.53115,50.57297],[2.5316,50.573],[2.53195,50.57159],[2.53043,50.5717],[2.53012,50.57332],[2.53102,50.57344],[2.53115,50.57297]]]}},{"type":"Feature","properties":{"k":"PPH","s":0.318},"geometry":{"type":"Polygon","coordinates":[[[2.53349,50.57415],[2.5342,50.57304],[2.53407,50.57299],[2.53386,50.57297],[2.53319,50.57406],[2.53349,50.57415]]]}},{"type":"Feature","properties":{"k":"PPH","s":0.329},"geometry":{"type":"Polygon","coordinates":[[[2.53331,50.5734],[2.53252,50.5737],[2.53316,50.57405],[2.53369,50.57302],[2.53331,50.5734]]]}},{"type":"Feature","properties":{"k":"BTH","s":1.298},"geometry":{"type":"Polygon","coordinates":[[[2.53206,50.5748],[2.53098,50.5757],[2.53122,50.57579],[2.53082,50.57618],[2.5315,50.5765],[2.53298,50.57516],[2.53206,50.5748]]]}},{"type":"Feature","properties":{"k":"PPH","s":1.682},"geometry":{"type":"Polygon","coordinates":[[[2.53298,50.57516],[2.5315,50.5765],[2.53241,50.57676],[2.53465,50.57482],[2.53334,50.57582],[2.53295,50.57559],[2.53338,50.57524],[2.53324,50.57517],[2.53392,50.57432],[2.53341,50.57421],[2.53261,50.575],[2.53298,50.57516]]]}},{"type":"Feature","properties":{"k":"MSW","s":0.51},"geometry":{"type":"Polygon","coordinates":[[[2.53116,50.57512],[2.53154,50.57524],[2.53205,50.57475],[2.53231,50.57403],[2.53187,50.57395],[2.53116,50.57512]]]}},{"type":"Feature","properties":{"k":"BOR","s":0.055},"geometry":{"type":"Polygon","coordinates":[[[2.53013,50.57629],[2.53075,50.57559],[2.53008,50.57627],[2.53013,50.57629]]]}},{"type":"Feature","properties":{"k":"MIS","s":1.701},"geometry":{"type":"Polygon","coordinates":[[[2.5259,50.57495],[2.52698,50.57567],[2.52741,50.57579],[2.52808,50.57483],[2.52666,50.57396],[2.5259,50.57495]]]}},{"type":"Feature","properties":{"k":"JAC","s":0.042},"geometry":{"type":"Polygon","coordinates":[]}},{"type":"Feature","properties":{"k":"MIS","s":3.619},"geometry":{"type":"Polygon","coordinates":[[[2.52834,50.5761],[2.52884,50.5754],[2.52916,50.57552],[2.52972,50.57491],[2.5304,50.57514],[2.53048,50.57507],[2.52978,50.57483],[2.5304,50.57422],[2.53063,50.57349],[2.5298,50.57336],[2.52972,50.57361],[2.52945,50.57358],[2.52955,50.57334],[2.52858,50.57334],[2.5281,50.57481],[2.52738,50.57585],[2.52834,50.5761]]]}},{"type":"Feature","properties":{"k":"BTH","s":0.783},"geometry":{"type":"Polygon","coordinates":[[[2.53012,50.57331],[2.53043,50.5717],[2.52979,50.57171],[2.5295,50.57321],[2.53012,50.57331]]]}},{"type":"Feature","properties":{"k":"MIS","s":4.147},"geometry":{"type":"Polygon","coordinates":[[[2.48959,50.59321],[2.48871,50.59243],[2.48499,50.59036],[2.48397,50.59086],[2.48855,50.5935],[2.48959,50.59321]]]}},{"type":"Feature","properties":{"k":"BTH","s":1.003},"geometry":{"type":"Polygon","coordinates":[[[2.519,50.59366],[2.52022,50.59404],[2.52066,50.59316],[2.52025,50.5925],[2.519,50.59366]]]}},{"type":"Feature","properties":{"k":"BTA","s":0.0},"geometry":{"type":"Polygon","coordinates":[]}},{"type":"Feature","properties":{"k":"BTA","s":0.0},"geometry":{"type":"Polygon","coordinates":[]}},{"type":"Feature","properties":{"k":"BTA","s":0.41},"geometry":{"type":"Polygon","coordinates":[[[2.48713,50.59387],[2.4849,50.59413],[2.4835,50.59367],[2.48252,50.59315],[2.48192,50.5934],[2.48151,50.59327],[2.48036,50.59237],[2.4801,50.59231],[2.4798,50.59233],[2.48027,50.59238],[2.48102,50.59307],[2.48157,50.59333],[2.48187,50.59343],[2.48257,50.59321],[2.48328,50.59363],[2.48491,50.59419],[2.48732,50.5939],[2.48962,50.59324],[2.48713,50.59387]]]}},{"type":"Feature","properties":{"k":"BTN","s":0.017},"geometry":{"type":"Polygon","coordinates":[[[2.51809,50.59291],[2.518,50.59298],[2.51819,50.59307],[2.51809,50.59291]]]}},{"type":"Feature","properties":{"k":"BTH","s":5.195},"geometry":{"type":"Polygon","coordinates":[[[2.52106,50.59545],[2.52065,50.59534],[2.5211,50.5943],[2.51894,50.59374],[2.51802,50.59336],[2.51683,50.59491],[2.5208,50.59602],[2.52106,50.59545]]]}},{"type":"Feature","properties":{"k":"PTR","s":0.376},"geometry":{"type":"Polygon","coordinates":[[[2.5211,50.5943],[2.52065,50.59534],[2.52106,50.59545],[2.52086,50.59603],[2.52117,50.59542],[2.52076,50.59531],[2.52129,50.594],[2.52092,50.59354],[2.52058,50.59415],[2.52017,50.59409],[2.5211,50.5943]]]}},{"type":"Feature","properties":{"k":"BOR","s":0.1},"geometry":{"type":"MultiPolygon","coordinates":[[[[2.5231,50.59493],[2.52239,50.59604],[2.52316,50.59495],[2.5231,50.59493]]],[[[2.52282,50.5948],[2.52311,50.59445],[2.52271,50.59482],[2.5231,50.59493],[2.52282,50.5948]]]]}},{"type":"Feature","properties":{"k":"MLG","s":11.687},"geometry":{"type":"Polygon","coordinates":[[[2.48151,50.59327],[2.48192,50.5934],[2.48252,50.59315],[2.4835,50.59367],[2.4849,50.59413],[2.48713,50.59387],[2.48855,50.5935],[2.48397,50.59086],[2.48266,50.59132],[2.48119,50.59139],[2.48011,50.59224],[2.47984,50.59229],[2.4801,50.59231],[2.48151,50.59327]]]}},{"type":"Feature","properties":{"k":"BTA","s":0.0},"geometry":{"type":"Polygon","coordinates":[]}},{"type":"Feature","properties":{"k":"BTA","s":0.483},"geometry":{"type":"MultiPolygon","coordinates":[[[[2.51324,50.60835],[2.51158,50.60936],[2.50971,50.61081],[2.50885,50.61126],[2.50816,50.61154],[2.507,50.61002],[2.50801,50.61162],[2.50889,50.61129],[2.50977,50.61084],[2.51163,50.60939],[2.51333,50.60835],[2.51168,50.60784],[2.51324,50.60835]]]]}},{"type":"Feature","properties":{"k":"PTC","s":7.187},"geometry":{"type":"Polygon","coordinates":[[[2.50817,50.61154],[2.50971,50.61081],[2.51158,50.60936],[2.51324,50.60835],[2.51167,50.60779],[2.50702,50.61],[2.50817,50.61154]]]}},{"type":"Feature","properties":{"k":"JAC","s":0.025},"geometry":{"type":"Polygon","coordinates":[[[2.52178,50.5944],[2.52181,50.59446],[2.52222,50.59423],[2.52178,50.5944]]]}},{"type":"Feature","properties":{"k":"BTA","s":0.187},"geometry":{"type":"Polygon","coordinates":[[[2.50701,50.609],[2.50679,50.60843],[2.50582,50.60738],[2.50699,50.60907],[2.50826,50.60857],[2.50701,50.609]]]}},{"type":"Feature","properties":{"k":"BTH","s":5.812},"geometry":{"type":"Polygon","coordinates":[[[2.50767,50.60579],[2.50579,50.60728],[2.50611,50.60784],[2.50679,50.60843],[2.50704,50.60901],[2.50823,50.60855],[2.50803,50.6084],[2.50833,50.60816],[2.50867,50.60833],[2.51027,50.60759],[2.50767,50.60579]]]}},{"type":"Feature","properties":{"k":"BTA","s":0.066},"geometry":{"type":"Polygon","coordinates":[[[2.50872,50.60836],[2.51032,50.60763],[2.51028,50.6076],[2.50872,50.60836]]]}},{"type":"Feature","properties":{"k":"BTA","s":0.004},"geometry":{"type":"Polygon","coordinates":[[[2.51033,50.61041],[2.51028,50.61047],[2.51105,50.60987],[2.51033,50.61041]]]}},{"type":"Feature","properties":{"k":"PPH","s":0.005},"geometry":{"type":"Polygon","coordinates":[[[2.5308,50.59445],[2.53061,50.59474],[2.53066,50.59473],[2.5308,50.59445]]]}},{"type":"Feature","properties":{"k":"PPH","s":0.672},"geometry":{"type":"Polygon","coordinates":[[[2.53056,50.59477],[2.53122,50.59357],[2.52993,50.59438],[2.52963,50.59509],[2.53056,50.59477]]]}},{"type":"Feature","properties":{"k":"PPH","s":0.888},"geometry":{"type":"Polygon","coordinates":[[[2.52302,50.59451],[2.524,50.59375],[2.52316,50.59331],[2.52241,50.5938],[2.52259,50.59392],[2.52222,50.59422],[2.52302,50.59451]]]}},{"type":"Feature","properties":{"k":"BTA","s":0.558},"geometry":{"type":"Polygon","coordinates":[[[2.52518,50.58207],[2.52841,50.58401],[2.52893,50.58443],[2.53191,50.58297],[2.53274,50.58248],[2.53385,50.58168],[2.53384,50.58149],[2.53573,50.57965],[2.53378,50.58146],[2.53378,50.58166],[2.53269,50.58245],[2.52894,50.58437],[2.52826,50.58386],[2.52509,50.58195],[2.52518,50.58207]]]}},{"type":"Feature","properties":{"k":"BTA","s":0.032},"geometry":{"type":"MultiPolygon","coordinates":[[[[2.53387,50.58172],[2.53394,50.58167],[2.53402,50.58137],[2.53387,50.58172]]],[[[2.53081,50.5835],[2.53022,50.5838],[2.53186,50.58301],[2.53081,50.5835]]]]}},{"type":"Feature","properties":{"k":"PTC","s":9.007},"geometry":{"type":"Polygon","coordinates":[[[2.53099,50.58333],[2.53229,50.5827],[2.53359,50.5818],[2.52915,50.57945],[2.52865,50.58017],[2.52734,50.58108],[2.53099,50.58333]]]}},{"type":"Feature","properties":{"k":"JAC","s":0.131},"geometry":{"type":"Polygon","coordinates":[[[2.53481,50.57912],[2.53526,50.57872],[2.53481,50.57908],[2.53324,50.57835],[2.53381,50.57874],[2.53481,50.57912]]]}},{"type":"Feature","properties":{"k":"BTH","s":0.669},"geometry":{"type":"Polygon","coordinates":[[[2.53524,50.57871],[2.53369,50.57803],[2.53324,50.57835],[2.53481,50.57908],[2.53524,50.57871]]]}},{"type":"Feature","properties":{"k":"BTH","s":10.498},"geometry":{"type":"Polygon","coordinates":[[[2.53378,50.58146],[2.53571,50.57964],[2.53372,50.5788],[2.53191,50.5778],[2.53054,50.57829],[2.52948,50.57899],[2.52915,50.57945],[2.53359,50.5818],[2.53378,50.58146]]]}},{"type":"Feature","properties":{"k":"BTH","s":3.769},"geometry":{"type":"Polygon","coordinates":[[[2.53626,50.57918],[2.53763,50.57784],[2.53526,50.57677],[2.53369,50.57803],[2.53626,50.57918]]]}},{"type":"Feature","properties":{"k":"BTN","s":0.573},"geometry":{"type":"Polygon","coordinates":[[[2.53528,50.57676],[2.53765,50.57782],[2.53786,50.57761],[2.53551,50.57656],[2.53528,50.57676]]]}},{"type":"Feature","properties":{"k":"PPH","s":0.004},"geometry":{"type":"Polygon","coordinates":[[[2.52444,50.60529],[2.52484,50.60476],[2.52483,50.60475],[2.52444,50.60529]]]}},{"type":"Feature","properties":{"k":"MIS","s":1.025},"geometry":{"type":"Polygon","coordinates":[[[2.51819,50.60386],[2.5183,50.60371],[2.51686,50.6034],[2.51604,50.60485],[2.51819,50.60386]]]}},{"type":"Feature","properties":{"k":"BTA","s":0.001},"geometry":{"type":"MultiPolygon","coordinates":[[[[2.51715,50.60609],[2.5172,50.60602],[2.51711,50.60612],[2.51715,50.60609]]]]}},{"type":"Feature","properties":{"k":"PPH","s":13.446},"geometry":{"type":"Polygon","coordinates":[[[2.52364,50.60623],[2.52498,50.60445],[2.5238,50.60379],[2.52279,50.60364],[2.52233,50.60433],[2.52182,50.60423],[2.52227,50.60357],[2.52167,50.60341],[2.52104,50.60466],[2.52003,50.60456],[2.52,50.60387],[2.51167,50.60778],[2.51343,50.60833],[2.5169,50.60626],[2.51762,50.6054],[2.52364,50.60623]]]}},{"type":"Feature","properties":{"k":"BTA","s":0.009},"geometry":{"type":"Polygon","coordinates":[[[2.5177,50.60546],[2.51917,50.60567],[2.5185,50.60556],[2.5177,50.60546]]]}},{"type":"Feature","properties":{"k":"BTA","s":0.21},"geometry":{"type":"Polygon","coordinates":[[[2.51122,50.60509],[2.51015,50.60619],[2.50979,50.60714],[2.51023,50.60621],[2.51127,50.60512],[2.5126,50.60408],[2.51122,50.60509]]]}},{"type":"Feature","properties":{"k":"MIS","s":6.061},"geometry":{"type":"Polygon","coordinates":[[[2.51097,50.6073],[2.51166,50.60598],[2.51293,50.60632],[2.51576,50.60499],[2.51262,50.60409],[2.51127,50.60512],[2.51023,50.60621],[2.50979,50.60714],[2.51034,50.60757],[2.51097,50.6073]]]}},{"type":"Feature","properties":{"k":"BTA","s":0.283},"geometry":{"type":"MultiPolygon","coordinates":[[[[2.51116,50.60511],[2.51265,50.604],[2.51331,50.60319],[2.51355,50.60275],[2.51312,50.60336],[2.51116,50.60511]]],[[[2.5105,50.60569],[2.51001,50.60625],[2.50971,50.60708],[2.51011,50.60622],[2.51116,50.60511],[2.5105,50.60569]]]]}},{"type":"Feature","properties":{"k":"ORH","s":8.6},"geometry":{"type":"Polygon","coordinates":[[[2.5117,50.60198],[2.50781,50.60586],[2.50965,50.60705],[2.5105,50.60569],[2.51312,50.60336],[2.5135,50.60274],[2.51265,50.60254],[2.51284,50.60217],[2.5117,50.60198]]]}},{"type":"Feature","properties":{"k":"MIS","s":1.296},"geometry":{"type":"Polygon","coordinates":[[[2.51341,50.60436],[2.51579,50.60496],[2.51628,50.60424],[2.51485,50.60383],[2.51458,50.60427],[2.51362,50.60402],[2.51341,50.60436]]]}},{"type":"Feature","properties":{"k":"MIS","s":7.399},"geometry":{"type":"Polygon","coordinates":[[[2.51699,50.58351],[2.52062,50.57932],[2.51898,50.57864],[2.51526,50.58303],[2.51699,50.58351]]]}},{"type":"Feature","properties":{"k":"MIS","s":1.525},"geometry":{"type":"Polygon","coordinates":[[[2.51791,50.58397],[2.51674,50.58557],[2.5179,50.58484],[2.51824,50.58496],[2.51764,50.58546],[2.51796,50.5856],[2.5194,50.58438],[2.51791,50.58397]]]}},{"type":"Feature","properties":{"k":"PPH","s":0.633},"geometry":{"type":"Polygon","coordinates":[[[2.51824,50.58496],[2.5179,50.58484],[2.51748,50.58521],[2.51706,50.58532],[2.51749,50.5855],[2.51672,50.58627],[2.51744,50.5864],[2.51764,50.58585],[2.51796,50.5856],[2.51764,50.58546],[2.51824,50.58496]]]}},{"type":"Feature","properties":{"k":"PTC","s":0.374},"geometry":{"type":"Polygon","coordinates":[[[2.52104,50.58505],[2.52049,50.5848],[2.51992,50.58535],[2.52053,50.5856],[2.52104,50.58505]]]}},{"type":"Feature","properties":{"k":"PTC","s":19.93},"geometry":{"type":"Polygon","coordinates":[[[2.5244,50.58343],[2.52339,50.58298],[2.52132,50.58501],[2.5229,50.58598],[2.52115,50.58518],[2.52004,50.58638],[2.52075,50.58666],[2.52057,50.58688],[2.52294,50.58772],[2.52309,50.58753],[2.52439,50.588],[2.52656,50.58597],[2.52879,50.58445],[2.52554,50.58243],[2.5244,50.58343]]]}},{"type":"Feature","properties":{"k":"BTA","s":0.429},"geometry":{"type":"Polygon","coordinates":[[[2.52879,50.58445],[2.52656,50.58597],[2.52439,50.588],[2.52446,50.58802],[2.52616,50.58638],[2.52885,50.58445],[2.52558,50.58239],[2.52879,50.58445]]]}},{"type":"Feature","properties":{"k":"MIS","s":0.567},"geometry":{"type":"Polygon","coordinates":[[[2.51595,50.60307],[2.51606,50.60283],[2.51545,50.60282],[2.51485,50.60383],[2.51543,50.604],[2.51595,50.60307]]]}},{"type":"Feature","properties":{"k":"BTH","s":3.055},"geometry":{"type":"Polygon","coordinates":[[[2.5148,50.59988],[2.51773,50.6002],[2.518,50.59894],[2.51518,50.59855],[2.5148,50.59988]]]}},{"type":"Feature","properties":{"k":"BTH","s":0.357},"geometry":{"type":"Polygon","coordinates":[[[2.51463,50.60135],[2.51497,50.59994],[2.5147,50.59992],[2.51431,50.60132],[2.51463,50.60135]]]}},{"type":"Feature","properties":{"k":"MIS","s":0.611},"geometry":{"type":"Polygon","coordinates":[[[2.51172,50.60058],[2.51114,50.60047],[2.51065,50.60178],[2.51121,50.60183],[2.51172,50.60058]]]}},{"type":"Feature","properties":{"k":"JAC","s":0.034},"geometry":{"type":"Polygon","coordinates":[[[2.50974,50.60209],[2.50976,50.60204],[2.50903,50.60193],[2.50974,50.60209]]]}},{"type":"Feature","properties":{"k":"PPH","s":0.133},"geometry":{"type":"Polygon","coordinates":[[[2.50734,50.6],[2.50797,50.60012],[2.50814,50.59992],[2.50752,50.59975],[2.50734,50.6]]]}},{"type":"Feature","properties":{"k":"PPH","s":0.418},"geometry":{"type":"Polygon","coordinates":[[[2.50763,50.6008],[2.50838,50.60096],[2.50879,50.6003],[2.50812,50.60016],[2.50763,50.6008]]]}},{"type":"Feature","properties":{"k":"BTH","s":0.339},"geometry":{"type":"Polygon","coordinates":[[[2.50852,50.60147],[2.50923,50.60041],[2.50885,50.60031],[2.50822,50.60139],[2.50852,50.60147]]]}},{"type":"Feature","properties":{"k":"PPH","s":0.315},"geometry":{"type":"Polygon","coordinates":[[[2.5428,50.57231],[2.54224,50.57182],[2.54169,50.57218],[2.54203,50.57244],[2.5419,50.57249],[2.5428,50.57231]]]}},{"type":"Feature","properties":{"k":"PPH","s":0.459},"geometry":{"type":"Polygon","coordinates":[[[2.54264,50.57103],[2.54094,50.57233],[2.54125,50.57238],[2.54222,50.5718],[2.54264,50.57103]]]}},{"type":"Feature","properties":{"k":"PTR","s":1.44},"geometry":{"type":"Polygon","coordinates":[[[2.5422,50.57055],[2.54169,50.57055],[2.54033,50.57201],[2.54094,50.57233],[2.54264,50.57103],[2.5422,50.57055]]]}},{"type":"Feature","properties":{"k":"PPH","s":2.11},"geometry":{"type":"Polygon","coordinates":[[[2.54366,50.57171],[2.54399,50.57151],[2.54357,50.57099],[2.54271,50.57068],[2.54236,50.56986],[2.54094,50.57015],[2.54031,50.56993],[2.54021,50.57032],[2.53982,50.57044],[2.53922,50.57015],[2.5388,50.57032],[2.53859,50.57086],[2.53972,50.57095],[2.54009,50.57059],[2.54116,50.57071],[2.5418,50.57049],[2.5422,50.5705],[2.54366,50.57171]]]}},{"type":"Feature","properties":{"k":"BTA","s":0.002},"geometry":{"type":"Polygon","coordinates":[[[2.54002,50.57011],[2.53996,50.57025],[2.54,50.57022],[2.54002,50.57011]]]}},{"type":"Feature","properties":{"k":"BTA","s":0.125},"geometry":{"type":"Polygon","coordinates":[[[2.53576,50.57101],[2.53596,50.57107],[2.53701,50.57117],[2.53734,50.57097],[2.5383,50.57091],[2.5373,50.57093],[2.537,50.57112],[2.53598,50.57103],[2.53583,50.571],[2.53587,50.57053],[2.53576,50.57101]]]}},{"type":"Feature","properties":{"k":"PPH","s":0.526},"geometry":{"type":"Polygon","coordinates":[[[2.536,50.57042],[2.53594,50.57097],[2.53708,50.57107],[2.53744,50.57088],[2.53747,50.57066],[2.536,50.57042]],[[2.53718,50.57077],[2.53699,50.57096],[2.53674,50.57094],[2.53678,50.5707],[2.53718,50.57077]]]}},{"type":"Feature","properties":{"k":"PTR","s":0.378},"geometry":{"type":"Polygon","coordinates":[[[2.50894,50.60157],[2.50959,50.60049],[2.50923,50.60041],[2.50852,50.60147],[2.50894,50.60157]]]}},{"type":"Feature","properties":{"k":"BTH","s":0.37},"geometry":{"type":"Polygon","coordinates":[[[2.50734,50.6],[2.50693,50.60054],[2.50769,50.60069],[2.50796,50.60012],[2.50734,50.6]]]}},{"type":"Feature","properties":{"k":"AIL","s":0.3},"geometry":{"type":"Polygon","coordinates":[[[2.50555,50.59998],[2.50643,50.59884],[2.50616,50.59876],[2.50529,50.59989],[2.50555,50.59998]]]}},{"type":"Feature","properties":{"k":"JAC","s":0.088},"geometry":{"type":"Polygon","coordinates":[[[2.50555,50.59998],[2.50447,50.59964],[2.50404,50.60014],[2.50447,50.59966],[2.50557,50.60002],[2.50642,50.59886],[2.50555,50.59998]]]}},{"type":"Feature","properties":{"k":"JAC","s":0.415},"geometry":{"type":"Polygon","coordinates":[[[2.50526,50.60092],[2.50469,50.60057],[2.50406,50.60116],[2.50473,50.60144],[2.50526,50.60092]]]}},{"type":"Feature","properties":{"k":"PPH","s":0.557},"geometry":{"type":"Polygon","coordinates":[[[2.50461,50.60234],[2.50497,50.60248],[2.50564,50.60184],[2.5052,50.60172],[2.50533,50.60147],[2.50489,50.60134],[2.50438,50.6019],[2.50482,50.60206],[2.50461,50.60234]]]}},{"type":"Feature","properties":{"k":"PPH","s":0.131},"geometry":{"type":"Polygon","coordinates":[[[2.50644,50.60113],[2.50603,50.60163],[2.50627,50.60171],[2.50673,50.60116],[2.50644,50.60113]]]}},{"type":"Feature","properties":{"k":"PTR","s":0.578},"geometry":{"type":"Polygon","coordinates":[[[2.50774,50.60185],[2.50721,50.6017],[2.50626,50.60281],[2.50674,50.60299],[2.50774,50.60185]]]}},{"type":"Feature","properties":{"k":"MIS","s":0.363},"geometry":{"type":"Polygon","coordinates":[[[2.50786,50.60251],[2.50732,50.60234],[2.50675,50.603],[2.50726,50.60319],[2.50786,50.60251]]]}},{"type":"Feature","properties":{"k":"BTH","s":9.695},"geometry":{"type":"Polygon","coordinates":[[[2.50585,50.60476],[2.50726,50.60319],[2.50521,50.60245],[2.5027,50.60526],[2.50455,50.60671],[2.50579,50.60728],[2.50767,50.60579],[2.50585,50.60476]]]}},{"type":"Feature","properties":{"k":"MIS","s":8.211},"geometry":{"type":"Polygon","coordinates":[[[2.50899,50.60198],[2.50852,50.60262],[2.50793,50.60244],[2.50588,50.60474],[2.50781,50.60586],[2.5117,50.60198],[2.50994,50.60179],[2.50974,50.60209],[2.50899,50.60198]]]}},{"type":"Feature","properties":{"k":"PTC","s":2.534},"geometry":{"type":"Polygon","coordinates":[[[2.50262,50.60518],[2.50336,50.60447],[2.50497,50.60248],[2.50461,50.60234],[2.50482,50.60206],[2.50436,50.6019],[2.50185,50.60493],[2.50262,50.60518]]]}},{"type":"Feature","properties":{"k":"JAC","s":0.006},"geometry":{"type":"Polygon","coordinates":[[[2.49574,50.60219],[2.49648,50.60235],[2.49626,50.60229],[2.49574,50.60219]]]}},{"type":"Feature","properties":{"k":"BTA","s":0.18},"geometry":{"type":"Polygon","coordinates":[[[2.49434,50.60041],[2.49362,50.59911],[2.49427,50.60043],[2.4956,50.60203],[2.49434,50.60041]]]}},{"type":"Feature","properties":{"k":"JAC","s":0.0},"geometry":{"type":"Polygon","coordinates":[]}},{"type":"Feature","properties":{"k":"MIS","s":0.857},"geometry":{"type":"Polygon","coordinates":[[[2.52243,50.57167],[2.52276,50.57149],[2.52339,50.57167],[2.52391,50.57084],[2.52322,50.57081],[2.52163,50.57132],[2.52243,50.57167]]]}},{"type":"Feature","properties":{"k":"BTA","s":0.001},"geometry":{"type":"Polygon","coordinates":[]}},{"type":"Feature","properties":{"k":"BTN","s":0.873},"geometry":{"type":"Polygon","coordinates":[[[2.51882,50.57182],[2.518,50.57198],[2.52005,50.57257],[2.52051,50.57212],[2.5198,50.57173],[2.51882,50.57182]]]}},{"type":"Feature","properties":{"k":"BTA","s":0.036},"geometry":{"type":"Polygon","coordinates":[[[2.51807,50.57191],[2.51796,50.57195],[2.51954,50.57175],[2.51807,50.57191]]]}},{"type":"Feature","properties":{"k":"BTA","s":0.079},"geometry":{"type":"Polygon","coordinates":[[[2.52615,50.57008],[2.52655,50.57032],[2.5278,50.57032],[2.5272,50.57019],[2.52656,50.57028],[2.52619,50.57004],[2.5259,50.57016],[2.52615,50.57008]]]}},{"type":"Feature","properties":{"k":"PPH","s":0.224},"geometry":{"type":"Polygon","coordinates":[[[2.52414,50.57256],[2.52432,50.57218],[2.52373,50.57197],[2.5235,50.57236],[2.52414,50.57256]]]}},{"type":"Feature","properties":{"k":"MIS","s":4.0},"geometry":{"type":"Polygon","coordinates":[[[2.52556,50.57216],[2.52771,50.57188],[2.5278,50.57032],[2.52655,50.57032],[2.52615,50.57008],[2.52582,50.57019],[2.52559,50.57102],[2.5269,50.57131],[2.52483,50.57098],[2.52404,50.57202],[2.52556,50.57216]]]}},{"type":"Feature","properties":{"k":"BTA","s":0.122},"geometry":{"type":"Polygon","coordinates":[[[2.52483,50.57098],[2.5269,50.57131],[2.52693,50.57123],[2.52483,50.57098]]]}},{"type":"Feature","properties":{"k":"PPH","s":0.004},"geometry":{"type":"MultiPolygon","coordinates":[[[[2.51317,50.57307],[2.51328,50.57307],[2.51305,50.57305],[2.51302,50.57306],[2.51317,50.57307]]],[[[2.51395,50.57295],[2.51414,50.57292],[2.51363,50.57297],[2.51355,50.573],[2.51395,50.57295]]]]}},{"type":"Feature","properties":{"k":"PPH","s":0.072},"geometry":{"type":"MultiPolygon","coordinates":[[[[2.51573,50.57293],[2.5156,50.57298],[2.51544,50.573],[2.51626,50.57298],[2.51638,50.57272],[2.51573,50.57293]]]]}},{"type":"Feature","properties":{"k":"BTA","s":0.244},"geometry":{"type":"Polygon","coordinates":[[[2.51623,50.57335],[2.51653,50.57268],[2.51736,50.57242],[2.51805,50.57202],[2.51646,50.57266],[2.51474,50.57563],[2.51623,50.57335]]]}},{"type":"Feature","properties":{"k":"BTA","s":0.481},"geometry":{"type":"Polygon","coordinates":[[[2.51215,50.57316],[2.51213,50.57326],[2.51218,50.5732],[2.51253,50.57325],[2.51414,50.57298],[2.51481,50.57305],[2.51616,50.57303],[2.51249,50.57852],[2.51626,50.57298],[2.51413,50.57294],[2.51215,50.57316]]]}},{"type":"Feature","properties":{"k":"PHF","s":20.705},"geometry":{"type":"Polygon","coordinates":[[[2.50833,50.57425],[2.50672,50.57648],[2.51074,50.57772],[2.51248,50.57853],[2.51616,50.57303],[2.51414,50.57298],[2.51205,50.57323],[2.51035,50.57552],[2.51069,50.57496],[2.50833,50.57425]]]}},{"type":"Feature","properties":{"k":"BTN","s":2.247},"geometry":{"type":"Polygon","coordinates":[[[2.51091,50.57469],[2.51107,50.57447],[2.50873,50.5738],[2.51111,50.57442],[2.51152,50.57384],[2.50909,50.57322],[2.50833,50.57425],[2.51047,50.57482],[2.51062,50.57461],[2.51091,50.57469]]]}},{"type":"Feature","properties":{"k":"BTA","s":0.012},"geometry":{"type":"Polygon","coordinates":[[[2.50911,50.57292],[2.50918,50.57286],[2.50834,50.57322],[2.50911,50.57292]]]}},{"type":"Feature","properties":{"k":"BTH","s":0.007},"geometry":{"type":"MultiPolygon","coordinates":[[[[2.50632,50.57362],[2.50623,50.57363],[2.50628,50.57363],[2.50632,50.57362]]],[[[2.50829,50.57327],[2.5083,50.57324],[2.50779,50.57346],[2.50829,50.57327]]]]}},{"type":"Feature","properties":{"k":"JAC","s":0.209},"geometry":{"type":"Polygon","coordinates":[[[2.50429,50.57533],[2.50561,50.57361],[2.50421,50.5753],[2.50463,50.57596],[2.50553,50.57612],[2.50472,50.57593],[2.50429,50.57533]]]}},{"type":"Feature","properties":{"k":"MIS","s":3.167},"geometry":{"type":"Polygon","coordinates":[[[2.50561,50.57361],[2.50429,50.57533],[2.50472,50.57593],[2.50553,50.57612],[2.50741,50.57354],[2.50561,50.57361]]]}},{"type":"Feature","properties":{"k":"MIS","s":3.19},"geometry":{"type":"Polygon","coordinates":[[[2.50741,50.57358],[2.50557,50.57611],[2.50674,50.57642],[2.5092,50.57299],[2.50741,50.57358]]]}},{"type":"Feature","properties":{"k":"MIS","s":14.234},"geometry":{"type":"Polygon","coordinates":[[[2.49856,50.60309],[2.50085,50.60035],[2.50001,50.59998],[2.50078,50.59916],[2.5,50.59887],[2.49953,50.59845],[2.49909,50.59895],[2.49814,50.59837],[2.4979,50.59857],[2.49732,50.59831],[2.49461,50.6008],[2.49565,50.60206],[2.4968,50.60233],[2.49856,50.60309]]]}},{"type":"Feature","properties":{"k":"BOR","s":0.088},"geometry":{"type":"Polygon","coordinates":[[[2.50008,50.59997],[2.50084,50.59918],[2.50002,50.59994],[2.50008,50.59997]]]}},{"type":"Feature","properties":{"k":"BTH","s":2.775},"geometry":{"type":"Polygon","coordinates":[[[2.49948,50.6035],[2.50178,50.60063],[2.50089,50.60032],[2.4986,50.60304],[2.49948,50.6035]]]}},{"type":"Feature","properties":{"k":"BTN","s":2.012},"geometry":{"type":"Polygon","coordinates":[[[2.53555,50.57657],[2.53786,50.57761],[2.53857,50.57676],[2.53632,50.57582],[2.53555,50.57657]]]}},{"type":"Feature","properties":{"k":"BTA","s":0.002},"geometry":{"type":"Polygon","coordinates":[[[2.5314,50.56807],[2.53148,50.56809],[2.53125,50.568],[2.5314,50.56807]]]}},{"type":"Feature","properties":{"k":"JAC","s":0.0},"geometry":{"type":"Polygon","coordinates":[]}},{"type":"Feature","properties":{"k":"MSW","s":0.57},"geometry":{"type":"Polygon","coordinates":[[[2.52122,50.59363],[2.5229,50.5924],[2.52254,50.59221],[2.52103,50.59336],[2.52122,50.59363]]]}},{"type":"Feature","properties":{"k":"BTH","s":0.981},"geometry":{"type":"Polygon","coordinates":[[[2.5227,50.59209],[2.52198,50.59164],[2.52061,50.59262],[2.52084,50.59304],[2.52137,50.59264],[2.52174,50.59279],[2.5227,50.59209]]]}},{"type":"Feature","properties":{"k":"BOR","s":0.186},"geometry":{"type":"Polygon","coordinates":[[[2.52137,50.59264],[2.52084,50.59304],[2.52061,50.59262],[2.52198,50.59164],[2.52274,50.59205],[2.52197,50.59157],[2.52053,50.59261],[2.52081,50.59314],[2.5214,50.59268],[2.52168,50.59276],[2.52137,50.59264]]]}},{"type":"Feature","properties":{"k":"JAC","s":0.17},"geometry":{"type":"Polygon","coordinates":[[[2.52444,50.59231],[2.52371,50.59278],[2.52395,50.59293],[2.52467,50.59245],[2.52444,50.59231]]]}},{"type":"Feature","properties":{"k":"PPH","s":0.175},"geometry":{"type":"Polygon","coordinates":[[[2.5275,50.59365],[2.52687,50.59406],[2.52706,50.59426],[2.52779,50.59379],[2.5275,50.59365]]]}},{"type":"Feature","properties":{"k":"PHF","s":3.083},"geometry":{"type":"Polygon","coordinates":[[[2.53936,50.57419],[2.53779,50.57579],[2.53675,50.57538],[2.53632,50.57582],[2.53857,50.57676],[2.54039,50.57464],[2.53936,50.57419]]]}},{"type":"Feature","properties":{"k":"PPH","s":0.198},"geometry":{"type":"Polygon","coordinates":[[[2.5376,50.57451],[2.53713,50.57437],[2.53672,50.57488],[2.53705,50.57491],[2.5376,50.57451]]]}},{"type":"Feature","properties":{"k":"PPH","s":0.647},"geometry":{"type":"Polygon","coordinates":[[[2.53846,50.57386],[2.53785,50.57448],[2.53865,50.57489],[2.53936,50.57419],[2.53846,50.57386]]]}},{"type":"Feature","properties":{"k":"PPH","s":0.677},"geometry":{"type":"Polygon","coordinates":[[[2.5393,50.573],[2.53946,50.57305],[2.53933,50.5734],[2.53994,50.57331],[2.53999,50.57303],[2.5407,50.57239],[2.54107,50.5724],[2.54033,50.57201],[2.5393,50.573]]]}},{"type":"Feature","properties":{"k":"PPH","s":0.957},"geometry":{"type":"Polygon","coordinates":[[[2.54082,50.57342],[2.54067,50.57336],[2.53891,50.57356],[2.53862,50.57372],[2.53901,50.57386],[2.53889,50.57401],[2.53985,50.57438],[2.54082,50.57342]]]}},{"type":"Feature","properties":{"k":"BOR","s":0.015},"geometry":{"type":"Polygon","coordinates":[[[2.52372,50.59738],[2.52369,50.59742],[2.5241,50.5975],[2.52372,50.59738]]]}},{"type":"Feature","properties":{"k":"BTN","s":0.282},"geometry":{"type":"Polygon","coordinates":[[[2.52821,50.59913],[2.52892,50.59747],[2.53,50.59609],[2.5306,50.59484],[2.52995,50.59613],[2.52885,50.59751],[2.52795,50.59921],[2.52821,50.59913]]]}},{"type":"Feature","properties":{"k":"MIS","s":2.941},"geometry":{"type":"Polygon","coordinates":[[[2.5296,50.59518],[2.52878,50.59629],[2.52689,50.59981],[2.52785,50.59935],[2.52887,50.59745],[2.52992,50.59611],[2.5304,50.59498],[2.5296,50.59518]]]}},{"type":"Feature","properties":{"k":"BTA","s":0.021},"geometry":{"type":"Polygon","coordinates":[[[2.52807,50.59916],[2.52785,50.59936],[2.52821,50.59913],[2.52807,50.59916]]]}},{"type":"Feature","properties":{"k":"LIF","s":11.379},"geometry":{"type":"Polygon","coordinates":[[[2.52958,50.59519],[2.52718,50.5948],[2.52563,50.59779],[2.52402,50.59749],[2.52368,50.59857],[2.52322,50.59851],[2.52333,50.59884],[2.52516,50.59916],[2.52474,50.60047],[2.52536,50.60056],[2.52686,50.59984],[2.52794,50.59765],[2.52958,50.59519]]]}},{"type":"Feature","properties":{"k":"BTH","s":1.016},"geometry":{"type":"Polygon","coordinates":[[[2.52234,50.59981],[2.5226,50.59908],[2.52064,50.59895],[2.52111,50.59966],[2.52234,50.59981]]]}},{"type":"Feature","properties":{"k":"BTA","s":0.168},"geometry":{"type":"Polygon","coordinates":[[[2.50536,50.57746],[2.50506,50.5779],[2.50538,50.5776],[2.50549,50.57725],[2.50468,50.57601],[2.50533,50.57705],[2.50536,50.57746]]]}},{"type":"Feature","properties":{"k":"PPH","s":0.011},"geometry":{"type":"Polygon","coordinates":[[[2.50524,50.57757],[2.50531,50.57748],[2.50524,50.57748],[2.50501,50.57778],[2.50524,50.57757]]]}},{"type":"Feature","properties":{"k":"BTH","s":0.723},"geometry":{"type":"Polygon","coordinates":[[[2.53985,50.57439],[2.54039,50.57464],[2.54151,50.57343],[2.5416,50.57324],[2.54129,50.57307],[2.53985,50.57439]]]}},{"type":"Feature","properties":{"k":"BOR","s":0.123},"geometry":{"type":"Polygon","coordinates":[[[2.50339,50.59846],[2.50308,50.59888],[2.50156,50.59835],[2.50111,50.59827],[2.50311,50.59895],[2.50344,50.5985],[2.50387,50.59857],[2.50339,50.59846]]]}},{"type":"Feature","properties":{"k":"BTH","s":3.587},"geometry":{"type":"Polygon","coordinates":[[[2.49995,50.59244],[2.49973,50.59249],[2.49548,50.59566],[2.49604,50.59624],[2.50073,50.59273],[2.49995,50.59244]]]}},{"type":"Feature","properties":{"k":"JAC","s":0.164},"geometry":{"type":"Polygon","coordinates":[[[2.50775,50.59929],[2.50662,50.59898],[2.50652,50.59913],[2.50763,50.59945],[2.50775,50.59929]]]}},{"type":"Feature","properties":{"k":"JAC","s":0.147},"geometry":{"type":"Polygon","coordinates":[[[2.50902,50.59773],[2.50915,50.59757],[2.5083,50.59723],[2.50815,50.59739],[2.50902,50.59773]]]}},{"type":"Feature","properties":{"k":"JAC","s":0.188},"geometry":{"type":"Polygon","coordinates":[[[2.50846,50.59839],[2.5075,50.59804],[2.50733,50.59822],[2.5083,50.59859],[2.50846,50.59839]]]}},{"type":"Feature","properties":{"k":"PTC","s":2.343},"geometry":{"type":"Polygon","coordinates":[[[2.50968,50.59795],[2.50797,50.60013],[2.50884,50.6003],[2.51131,50.59695],[2.51077,50.59672],[2.50968,50.59795]]]}},{"type":"Feature","properties":{"k":"BTA","s":0.014},"geometry":{"type":"Polygon","coordinates":[[[2.50973,50.59709],[2.51027,50.59729],[2.51029,50.59727],[2.50973,50.59709]]]}},{"type":"Feature","properties":{"k":"BTH","s":0.306},"geometry":{"type":"Polygon","coordinates":[[[2.51029,50.59651],[2.50975,50.59707],[2.51029,50.59727],[2.51075,50.59671],[2.51029,50.59651]]]}},{"type":"Feature","properties":{"k":"BTH","s":1.945},"geometry":{"type":"Polygon","coordinates":[[[2.50915,50.59756],[2.51022,50.59642],[2.50902,50.5956],[2.50774,50.59701],[2.50915,50.59756]]]}},{"type":"Feature","properties":{"k":"BTH","s":0.551},"geometry":{"type":"Polygon","coordinates":[[[2.51031,50.59572],[2.50944,50.59512],[2.50905,50.59557],[2.51023,50.5964],[2.51039,50.59626],[2.50993,50.59596],[2.51031,50.59572]]]}},{"type":"Feature","properties":{"k":"PTC","s":6.359},"geometry":{"type":"Polygon","coordinates":[[[2.50951,50.60047],[2.50966,50.60019],[2.51157,50.60055],[2.51322,50.59768],[2.51132,50.59695],[2.50885,50.60031],[2.50951,50.60047]]]}},{"type":"Feature","properties":{"k":"BTH","s":7.644},"geometry":{"type":"Polygon","coordinates":[[[2.51034,50.59647],[2.51322,50.59768],[2.51157,50.60055],[2.5123,50.60067],[2.51221,50.60106],[2.51343,50.60127],[2.51367,50.60044],[2.51429,50.60052],[2.51519,50.59771],[2.51326,50.59709],[2.51089,50.59609],[2.51034,50.59647]]]}},{"type":"Feature","properties":{"k":"BTA","s":0.582},"geometry":{"type":"Polygon","coordinates":[[[2.51519,50.59771],[2.51429,50.60052],[2.51441,50.60053],[2.51534,50.59768],[2.51089,50.59609],[2.51519,50.59771]]]}},{"type":"Feature","properties":{"k":"MIS","s":1.886},"geometry":{"type":"Polygon","coordinates":[[[2.50318,50.59967],[2.50404,50.60014],[2.50444,50.59964],[2.50466,50.59968],[2.50553,50.59855],[2.50423,50.59817],[2.50318,50.59967]]]}},{"type":"Feature","properties":{"k":"BTH","s":0.93},"geometry":{"type":"Polygon","coordinates":[[[2.51851,50.599],[2.51865,50.60031],[2.51953,50.60038],[2.51943,50.59908],[2.51851,50.599]]]}},{"type":"Feature","properties":{"k":"MIS","s":5.407},"geometry":{"type":"Polygon","coordinates":[[[2.51863,50.60115],[2.51916,50.60118],[2.51894,50.60274],[2.5197,50.60283],[2.51954,50.60046],[2.51539,50.59999],[2.51499,50.60164],[2.51637,50.60182],[2.51642,50.60169],[2.51731,50.60176],[2.51738,50.60143],[2.51818,50.60149],[2.51814,50.60176],[2.51855,50.60173],[2.51863,50.60115]]]}},{"type":"Feature","properties":{"k":"PPH","s":1.574},"geometry":{"type":"Polygon","coordinates":[[[2.51816,50.6015],[2.51738,50.60144],[2.51732,50.60177],[2.51645,50.6017],[2.51613,50.60274],[2.51791,50.60277],[2.51816,50.6015]]]}},{"type":"Feature","properties":{"k":"BOR","s":0.096},"geometry":{"type":"Polygon","coordinates":[[[2.51867,50.60118],[2.51911,50.60121],[2.51894,50.60274],[2.51916,50.60118],[2.51863,50.60115],[2.51859,50.60178],[2.51867,50.60118]]]}},{"type":"Feature","properties":{"k":"PPH","s":0.576},"geometry":{"type":"Polygon","coordinates":[[[2.52203,50.60331],[2.52353,50.60349],[2.52276,50.60262],[2.52215,50.60286],[2.52203,50.60331]]]}},{"type":"Feature","properties":{"k":"BTH","s":3.733},"geometry":{"type":"Polygon","coordinates":[[[2.5198,50.60283],[2.52008,50.60288],[2.52095,50.6025],[2.52184,50.60186],[2.52128,50.60058],[2.52071,50.60006],[2.51967,50.59962],[2.5198,50.60283]]]}},{"type":"Feature","properties":{"k":"JAC","s":0.271},"geometry":{"type":"Polygon","coordinates":[[[2.52212,50.60018],[2.52184,50.60013],[2.52196,50.59977],[2.52111,50.59966],[2.52196,50.60053],[2.52212,50.60018]]]}},{"type":"Feature","properties":{"k":"BTA","s":0.0},"geometry":{"type":"Polygon","coordinates":[]}},{"type":"Feature","properties":{"k":"BTH","s":4.602},"geometry":{"type":"Polygon","coordinates":[[[2.49394,50.59753],[2.49592,50.59629],[2.49459,50.59454],[2.49388,50.59422],[2.49272,50.59332],[2.49178,50.59423],[2.49343,50.59512],[2.49384,50.5959],[2.49394,50.59753]]]}},{"type":"Feature","properties":{"k":"BTN","s":9.97},"geometry":{"type":"Polygon","coordinates":[[[2.49727,50.59689],[2.4987,50.59606],[2.4998,50.59665],[2.50301,50.59373],[2.50073,50.59273],[2.49604,50.59624],[2.49727,50.59689]]]}},{"type":"Feature","properties":{"k":"PTC","s":10.598},"geometry":{"type":"Polygon","coordinates":[[[2.49473,50.59453],[2.49547,50.59555],[2.49979,50.59233],[2.49693,50.59094],[2.49346,50.59364],[2.49473,50.59453]]]}},{"type":"Feature","properties":{"k":"PTR","s":0.088},"geometry":{"type":"Polygon","coordinates":[[[2.52486,50.60309],[2.52567,50.60321],[2.52572,50.60309],[2.52485,50.60295],[2.52486,50.60309]]]}},{"type":"Feature","properties":{"k":"BTH","s":10.606},"geometry":{"type":"Polygon","coordinates":[[[2.5256,50.59776],[2.52722,50.5947],[2.52658,50.59387],[2.52602,50.5935],[2.52477,50.59459],[2.52438,50.59446],[2.52564,50.5933],[2.52532,50.593],[2.52311,50.59445],[2.52282,50.5948],[2.52316,50.59495],[2.52239,50.59604],[2.52263,50.59676],[2.52386,50.59698],[2.52372,50.59738],[2.5256,50.59776]]]}},{"type":"Feature","properties":{"k":"JAC","s":0.176},"geometry":{"type":"Polygon","coordinates":[[[2.52375,50.59719],[2.52274,50.597],[2.52291,50.5973],[2.52363,50.59742],[2.52375,50.59719]]]}},{"type":"Feature","properties":{"k":"BTN","s":5.994},"geometry":{"type":"Polygon","coordinates":[[[2.50446,50.59426],[2.5005,50.59803],[2.50222,50.59858],[2.50571,50.59444],[2.50446,50.59426]]]}},{"type":"Feature","properties":{"k":"PTC","s":4.378},"geometry":{"type":"Polygon","coordinates":[[[2.51517,50.59859],[2.51942,50.59908],[2.51939,50.59875],[2.51784,50.59793],[2.51709,50.59725],[2.51625,50.59579],[2.51579,50.59661],[2.51517,50.59859]]]}},{"type":"Feature","properties":{"k":"BTA","s":0.288},"geometry":{"type":"Polygon","coordinates":[[[2.49384,50.5959],[2.49343,50.59513],[2.49321,50.5949],[2.49178,50.59423],[2.49337,50.59515],[2.49339,50.59558],[2.49377,50.5959],[2.49383,50.5976],[2.49384,50.5959]]]}},{"type":"Feature","properties":{"k":"JAC","s":0.135},"geometry":{"type":"Polygon","coordinates":[[[2.48454,50.58979],[2.48435,50.58967],[2.48448,50.58952],[2.48445,50.58916],[2.48497,50.58881],[2.48561,50.58888],[2.48649,50.58881],[2.48665,50.58872],[2.48491,50.58878],[2.48438,50.58914],[2.48428,50.58967],[2.48453,50.58989],[2.48454,50.58979]]]}},{"type":"Feature","properties":{"k":"BTH","s":8.569},"geometry":{"type":"Polygon","coordinates":[[[2.48846,50.59215],[2.49066,50.59103],[2.48665,50.58872],[2.48561,50.58888],[2.48497,50.58881],[2.48445,50.58916],[2.48448,50.58992],[2.48846,50.59215]]]}},{"type":"Feature","properties":{"k":"BTA","s":0.273},"geometry":{"type":"Polygon","coordinates":[[[2.50267,50.59342],[2.49622,50.5904],[2.49757,50.59118],[2.50267,50.59342]]]}},{"type":"Feature","properties":{"k":"JAC","s":0.118},"geometry":{"type":"Polygon","coordinates":[[[2.4987,50.59606],[2.49727,50.59689],[2.4987,50.5961],[2.49975,50.59661],[2.4987,50.59606]]]}},{"type":"Feature","properties":{"k":"BTH","s":2.729},"geometry":{"type":"Polygon","coordinates":[[[2.4921,50.58986],[2.49064,50.58927],[2.48947,50.58852],[2.4884,50.58922],[2.49107,50.59076],[2.4921,50.58986]]]}},{"type":"Feature","properties":{"k":"BTA","s":0.0},"geometry":{"type":"Polygon","coordinates":[]}},{"type":"Feature","properties":{"k":"JAC","s":0.299},"geometry":{"type":"Polygon","coordinates":[[[2.49823,50.59757],[2.49774,50.59818],[2.49818,50.59838],[2.4987,50.59791],[2.49823,50.59757]]]}},{"type":"Feature","properties":{"k":"PPH","s":1.134},"geometry":{"type":"Polygon","coordinates":[[[2.50088,50.59762],[2.49991,50.5972],[2.49891,50.59793],[2.49946,50.59829],[2.4997,50.59805],[2.50081,50.59852],[2.50106,50.59825],[2.5005,50.59803],[2.50088,50.59762]]]}},{"type":"Feature","properties":{"k":"BOR","s":0.065},"geometry":{"type":"Polygon","coordinates":[[[2.52386,50.59698],[2.52263,50.59676],[2.52381,50.59701],[2.52365,50.59742],[2.52386,50.59698]]]}},{"type":"Feature","properties":{"k":"PTC","s":5.308},"geometry":{"type":"Polygon","coordinates":[[[2.50301,50.59373],[2.49945,50.59699],[2.50084,50.59759],[2.50446,50.59426],[2.50301,50.59373]]]}},{"type":"Feature","properties":{"k":"PTC","s":4.414},"geometry":{"type":"Polygon","coordinates":[[[2.50185,50.60492],[2.50473,50.60144],[2.50379,50.60102],[2.5035,50.60095],[2.5008,50.60421],[2.50185,50.60492]]]}},{"type":"Feature","properties":{"k":"PPH","s":4.265},"geometry":{"type":"Polygon","coordinates":[[[2.49612,50.59086],[2.49535,50.59075],[2.49443,50.59023],[2.49421,50.59042],[2.49397,50.59029],[2.49382,50.5905],[2.49446,50.59093],[2.49371,50.59157],[2.493,50.59306],[2.49346,50.59364],[2.49697,50.5909],[2.49639,50.59059],[2.49612,50.59086]]]}},{"type":"Feature","properties":{"k":"MIS","s":5.872},"geometry":{"type":"Polygon","coordinates":[[[2.52083,50.59604],[2.5168,50.59496],[2.51684,50.59581],[2.51736,50.59683],[2.51842,50.5978],[2.51936,50.59829],[2.51934,50.59729],[2.52026,50.59727],[2.52045,50.5968],[2.5203,50.5967],[2.52064,50.59635],[2.52233,50.59659],[2.52222,50.59623],[2.52083,50.59604]]]}},{"type":"Feature","properties":{"k":"BTN","s":5.001},"geometry":{"type":"Polygon","coordinates":[[[2.49598,50.59735],[2.49364,50.59909],[2.49461,50.6008],[2.49732,50.59831],[2.4979,50.59857],[2.49814,50.59837],[2.49598,50.59735]]]}},{"type":"Feature","properties":{"k":"BOR","s":0.023},"geometry":{"type":"Polygon","coordinates":[[[2.52581,50.60293],[2.52571,50.6032],[2.52629,50.60196],[2.52581,50.60293]]]}},{"type":"Feature","properties":{"k":"JAC","s":0.459},"geometry":{"type":"Polygon","coordinates":[[[2.50381,50.60013],[2.50309,50.60082],[2.50377,50.60102],[2.50439,50.60039],[2.50381,50.60013]]]}},{"type":"Feature","properties":{"k":"PPH","s":0.236},"geometry":{"type":"Polygon","coordinates":[[[2.50263,50.59968],[2.50239,50.59961],[2.5016,50.60053],[2.50182,50.60064],[2.50263,50.59968]]]}},{"type":"Feature","properties":{"k":"BTA","s":0.103},"geometry":{"type":"Polygon","coordinates":[[[2.49379,50.5982],[2.49396,50.59753],[2.4935,50.59905],[2.49364,50.59909],[2.49379,50.5982]]]}},{"type":"Feature","properties":{"k":"JAC","s":0.141},"geometry":{"type":"Polygon","coordinates":[[[2.49979,50.59233],[2.49985,50.59229],[2.49697,50.5909],[2.49979,50.59233]]]}},{"type":"Feature","properties":{"k":"JAC","s":0.35},"geometry":{"type":"Polygon","coordinates":[[[2.49713,50.59698],[2.49674,50.59678],[2.49598,50.59735],[2.49652,50.59763],[2.49713,50.59698]]]}},{"type":"Feature","properties":{"k":"BTH","s":2.429},"geometry":{"type":"Polygon","coordinates":[[[2.49674,50.59678],[2.49594,50.59629],[2.49396,50.59753],[2.49363,50.59909],[2.49674,50.59678]]]}},{"type":"Feature","properties":{"k":"JAC","s":1.044},"geometry":{"type":"Polygon","coordinates":[[[2.4884,50.58922],[2.48947,50.58852],[2.4907,50.58922],[2.4896,50.58854],[2.48972,50.58843],[2.48923,50.58815],[2.48925,50.58789],[2.48846,50.58836],[2.48733,50.5886],[2.4884,50.58922]]]}},{"type":"Feature","properties":{"k":"BOR","s":0.039},"geometry":{"type":"Polygon","coordinates":[[[2.52082,50.59608],[2.52222,50.59623],[2.52221,50.59619],[2.52082,50.59608]]]}},{"type":"Feature","properties":{"k":"PTC","s":4.732},"geometry":{"type":"Polygon","coordinates":[[[2.5008,50.60421],[2.5035,50.60095],[2.50204,50.60037],[2.49957,50.60358],[2.49987,50.60387],[2.5008,50.60421]]]}},{"type":"Feature","properties":{"k":"BTA","s":0.005},"geometry":{"type":"MultiPolygon","coordinates":[[[[2.49383,50.5974],[2.49385,50.59726],[2.49382,50.59728],[2.4938,50.5976],[2.49383,50.5974]]]]}},{"type":"Feature","properties":{"k":"PPH","s":1.057},"geometry":{"type":"Polygon","coordinates":[[[2.49859,50.59705],[2.49886,50.59726],[2.49973,50.59671],[2.49868,50.59613],[2.49732,50.59694],[2.49774,50.59715],[2.49859,50.59705]]]}},{"type":"Feature","properties":{"k":"BOR","s":0.174},"geometry":{"type":"MultiPolygon","coordinates":[[[[2.52439,50.5944],[2.52444,50.59443],[2.52564,50.5933],[2.52439,50.5944]]],[[[2.52469,50.59459],[2.52473,50.59455],[2.52444,50.59443],[2.52469,50.59459]]]]}},{"type":"Feature","properties":{"k":"BTA","s":0.019},"geometry":{"type":"Polygon","coordinates":[[[2.49386,50.59681],[2.49385,50.59648],[2.49382,50.59638],[2.49385,50.59724],[2.49386,50.59681]]]}},{"type":"Feature","properties":{"k":"PHF","s":3.599},"geometry":{"type":"Polygon","coordinates":[[[2.49004,50.59341],[2.49163,50.59413],[2.49253,50.59335],[2.48994,50.59159],[2.48851,50.59222],[2.49004,50.59341]]]}},{"type":"Feature","properties":{"k":"CZH","s":4.77},"geometry":{"type":"Polygon","coordinates":[[[2.49321,50.59263],[2.49359,50.59147],[2.49184,50.59016],[2.48994,50.59159],[2.49253,50.59335],[2.49321,50.59263]]]}},{"type":"Feature","properties":{"k":"BTH","s":22.701},"geometry":{"type":"Polygon","coordinates":[[[2.51062,50.58152],[2.51152,50.58167],[2.51256,50.58217],[2.51324,50.58227],[2.51518,50.58298],[2.5189,50.57858],[2.51403,50.57661],[2.51147,50.58008],[2.5102,50.58123],[2.51062,50.58152]]]}},{"type":"Feature","properties":{"k":"BTA","s":0.164},"geometry":{"type":"Polygon","coordinates":[[[2.51241,50.57854],[2.51233,50.57851],[2.51105,50.58024],[2.50988,50.5812],[2.51111,50.58026],[2.51241,50.57854]]]}},{"type":"Feature","properties":{"k":"BTH","s":1.886},"geometry":{"type":"Polygon","coordinates":[[[2.51415,50.57648],[2.51625,50.57735],[2.51685,50.57639],[2.51475,50.57564],[2.51415,50.57648]]]}},{"type":"Feature","properties":{"k":"BTA","s":0.186},"geometry":{"type":"Polygon","coordinates":[[[2.51468,50.57677],[2.51622,50.57741],[2.51415,50.57648],[2.51468,50.57561],[2.51403,50.57651],[2.51468,50.57677]]]}},{"type":"Feature","properties":{"k":"LIF","s":5.003},"geometry":{"type":"Polygon","coordinates":[[[2.51698,50.57636],[2.52084,50.57796],[2.52175,50.57663],[2.51767,50.57512],[2.51698,50.57636]]]}},{"type":"Feature","properties":{"k":"BTA","s":0.096},"geometry":{"type":"Polygon","coordinates":[[[2.50345,50.5843],[2.50572,50.58403],[2.50342,50.58426],[2.50318,50.58442],[2.50345,50.5843]]]}},{"type":"Feature","properties":{"k":"BTA","s":0.0},"geometry":{"type":"Polygon","coordinates":[]}},{"type":"Feature","properties":{"k":"PPH","s":0.345},"geometry":{"type":"Polygon","coordinates":[[[2.50402,50.58066],[2.50425,50.58087],[2.50421,50.58068],[2.50498,50.57966],[2.50449,50.57953],[2.50402,50.58066]]]}},{"type":"Feature","properties":{"k":"BTA","s":0.078},"geometry":{"type":"Polygon","coordinates":[[[2.50552,50.57618],[2.50669,50.57649],[2.50674,50.57642],[2.50552,50.57618]]]}},{"type":"Feature","properties":{"k":"BTN","s":1.365},"geometry":{"type":"Polygon","coordinates":[[[2.51138,50.58486],[2.51344,50.58293],[2.51285,50.58275],[2.51062,50.58462],[2.51138,50.58486]]]}},{"type":"Feature","properties":{"k":"PTC","s":11.785},"geometry":{"type":"Polygon","coordinates":[[[2.5027,50.59339],[2.50452,50.59146],[2.49742,50.58919],[2.49686,50.58953],[2.49709,50.58996],[2.49642,50.5905],[2.5027,50.59339]]]}},{"type":"Feature","properties":{"k":"LIF","s":15.781},"geometry":{"type":"Polygon","coordinates":[[[2.5026,50.58776],[2.50239,50.58847],[2.50022,50.5883],[2.50013,50.58806],[2.49885,50.58796],[2.49891,50.58831],[2.49713,50.5886],[2.49737,50.5888],[2.49705,50.58899],[2.5045,50.59145],[2.50713,50.58868],[2.50662,50.58831],[2.50584,50.58839],[2.50416,50.58787],[2.5026,50.58776]]]}},{"type":"Feature","properties":{"k":"PTC","s":5.102},"geometry":{"type":"Polygon","coordinates":[[[2.50161,50.5876],[2.50486,50.58777],[2.50504,50.58748],[2.50565,50.58716],[2.50296,50.58476],[2.50161,50.5876]]]}},{"type":"Feature","properties":{"k":"BOR","s":0.09},"geometry":{"type":"Polygon","coordinates":[[[2.50232,50.58618],[2.50271,50.58536],[2.50185,50.5869],[2.50232,50.58618]]]}},{"type":"Feature","properties":{"k":"PPH","s":0.544},"geometry":{"type":"Polygon","coordinates":[[[2.50051,50.58759],[2.50149,50.58762],[2.50168,50.58694],[2.50087,50.58682],[2.50051,50.58759]]]}},{"type":"Feature","properties":{"k":"PPH","s":2.773},"geometry":{"type":"Polygon","coordinates":[[[2.501,50.58642],[2.49949,50.58598],[2.49888,50.58624],[2.49798,50.58614],[2.4968,50.58715],[2.49871,50.58747],[2.49901,50.58692],[2.49977,50.58693],[2.49986,50.58671],[2.50013,50.58674],[2.49998,50.58707],[2.50062,50.58729],[2.501,50.58642]]]}},{"type":"Feature","properties":{"k":"PPH","s":0.007},"geometry":{"type":"MultiPolygon","coordinates":[[[[2.49624,50.58604],[2.496,50.58597],[2.49614,50.58603],[2.49624,50.58604]]],[[[2.49768,50.58602],[2.49752,50.58593],[2.49761,50.58599],[2.49768,50.58602]]],[[[2.49806,50.5861],[2.49786,50.58608],[2.49792,50.5861],[2.49806,50.5861]]],[[[2.50028,50.5854],[2.50022,50.58544],[2.50058,50.58532],[2.50028,50.5854]]]]}},{"type":"Feature","properties":{"k":"BTA","s":0.052},"geometry":{"type":"Polygon","coordinates":[[[2.5025,50.58468],[2.5027,50.58453],[2.5024,50.58466],[2.50264,50.58535],[2.5025,50.58468]]]}},{"type":"Feature","properties":{"k":"PPH","s":0.305},"geometry":{"type":"Polygon","coordinates":[[[2.51318,50.58269],[2.51344,50.58239],[2.51237,50.58215],[2.51216,50.58245],[2.51318,50.58269]]]}},{"type":"Feature","properties":{"k":"BTH","s":0.945},"geometry":{"type":"Polygon","coordinates":[[[2.51591,50.58897],[2.51659,50.58818],[2.51574,50.58758],[2.51494,50.58859],[2.51591,50.58897]]]}},{"type":"Feature","properties":{"k":"PPH","s":0.239},"geometry":{"type":"Polygon","coordinates":[[[2.51403,50.58257],[2.51385,50.58281],[2.51486,50.5831],[2.51518,50.58298],[2.51403,50.58257]]]}},{"type":"Feature","properties":{"k":"BTN","s":1.241},"geometry":{"type":"Polygon","coordinates":[[[2.51451,50.58309],[2.51419,50.58346],[2.5144,50.5843],[2.51471,50.58441],[2.51509,50.58398],[2.5155,50.58414],[2.5162,50.58333],[2.51451,50.58309]]]}},{"type":"Feature","properties":{"k":"BTH","s":3.689},"geometry":{"type":"Polygon","coordinates":[[[2.52009,50.57885],[2.52084,50.57796],[2.51698,50.57636],[2.51639,50.57733],[2.52009,50.57885]]]}},{"type":"Feature","properties":{"k":"BTA","s":0.193},"geometry":{"type":"Polygon","coordinates":[[[2.52178,50.57964],[2.5202,50.57893],[2.52293,50.58029],[2.52178,50.57964]]]}},{"type":"Feature","properties":{"k":"BTA","s":0.309},"geometry":{"type":"Polygon","coordinates":[[[2.52261,50.58027],[2.5235,50.58095],[2.52286,50.58029],[2.51901,50.57861],[2.52261,50.58027]]]}},{"type":"Feature","properties":{"k":"BTA","s":0.126},"geometry":{"type":"Polygon","coordinates":[[[2.51583,50.58746],[2.51574,50.58758],[2.51667,50.58824],[2.51676,50.58812],[2.51583,50.58746]]]}},{"type":"Feature","properties":{"k":"JAC","s":0.012},"geometry":{"type":"Polygon","coordinates":[[[2.51548,50.58716],[2.51583,50.58746],[2.51585,50.58744],[2.51548,50.58716]]]}},{"type":"Feature","properties":{"k":"MIS","s":3.067},"geometry":{"type":"Polygon","coordinates":[[[2.51521,50.58533],[2.51622,50.58599],[2.51674,50.58557],[2.51791,50.58397],[2.5162,50.58333],[2.5155,50.58414],[2.51555,50.58462],[2.51528,50.58492],[2.51542,50.58499],[2.51521,50.58533]]]}},{"type":"Feature","properties":{"k":"PPH","s":2.597},"geometry":{"type":"Polygon","coordinates":[[[2.51481,50.5866],[2.51508,50.58678],[2.51587,50.58634],[2.51529,50.58608],[2.5148,50.5861],[2.51521,50.58554],[2.51427,50.58476],[2.51317,50.5853],[2.51302,50.58556],[2.51322,50.58585],[2.51282,50.58599],[2.51277,50.58617],[2.51398,50.58659],[2.51481,50.5866]]]}},{"type":"Feature","properties":{"k":"ORH","s":1.99},"geometry":{"type":"Polygon","coordinates":[[[2.5132,50.5852],[2.51423,50.58471],[2.51412,50.58383],[2.51373,50.5831],[2.51197,50.58489],[2.5132,50.5852]]]}},{"type":"Feature","properties":{"k":"PPH","s":3.284},"geometry":{"type":"Polygon","coordinates":[[[2.51302,50.58747],[2.51344,50.58698],[2.51326,50.58692],[2.51367,50.58667],[2.51234,50.58619],[2.51237,50.58593],[2.51196,50.58576],[2.51231,50.58507],[2.5108,50.58478],[2.50996,50.58559],[2.51048,50.58594],[2.51157,50.58622],[2.51162,50.58647],[2.51118,50.58684],[2.51302,50.58747]]]}},{"type":"Feature","properties":{"k":"ORH","s":2.376},"geometry":{"type":"Polygon","coordinates":[[[2.51321,50.58819],[2.51391,50.58719],[2.51344,50.58698],[2.51302,50.58747],[2.51114,50.58683],[2.50997,50.58799],[2.51321,50.58819]]]}},{"type":"Feature","properties":{"k":"BTA","s":0.095},"geometry":{"type":"Polygon","coordinates":[[[2.51105,50.58683],[2.50984,50.58799],[2.50996,50.58799],[2.51105,50.58683]]]}},{"type":"Feature","properties":{"k":"ORP","s":5.347},"geometry":{"type":"Polygon","coordinates":[[[2.50753,50.58478],[2.50621,50.58718],[2.50682,50.58767],[2.50875,50.58783],[2.50958,50.58688],[2.50957,50.58673],[2.50884,50.58645],[2.50977,50.58564],[2.50753,50.58478]]]}},{"type":"Feature","properties":{"k":"PPH","s":1.139},"geometry":{"type":"Polygon","coordinates":[[[2.50989,50.58564],[2.50949,50.58595],[2.51071,50.58652],[2.50973,50.58756],[2.51016,50.58767],[2.51153,50.58636],[2.51137,50.58619],[2.51038,50.58598],[2.50989,50.58564]]]}},{"type":"Feature","properties":{"k":"BTH","s":4.434},"geometry":{"type":"Polygon","coordinates":[[[2.50568,50.58386],[2.50631,50.58419],[2.50981,50.58542],[2.51058,50.58469],[2.50972,50.58407],[2.50654,50.58304],[2.50548,50.58291],[2.50568,50.58386]]]}},{"type":"Feature","properties":{"k":"BTA","s":0.138},"geometry":{"type":"Polygon","coordinates":[[[2.50832,50.58496],[2.50757,50.5847],[2.50753,50.58478],[2.50981,50.5856],[2.50832,50.58496]]]}},{"type":"Feature","properties":{"k":"BTA","s":0.026},"geometry":{"type":"Polygon","coordinates":[[[2.50757,50.5847],[2.50694,50.58448],[2.50692,50.58452],[2.50757,50.5847]]]}},{"type":"Feature","properties":{"k":"BTA","s":0.229},"geometry":{"type":"Polygon","coordinates":[[[2.50568,50.58386],[2.50539,50.58291],[2.50564,50.5839],[2.50627,50.58423],[2.50976,50.58546],[2.50981,50.58542],[2.50568,50.58386]]]}},{"type":"Feature","properties":{"k":"BTA","s":0.05},"geometry":{"type":"Polygon","coordinates":[[[2.50609,50.58428],[2.50606,50.58435],[2.5069,50.58454],[2.50609,50.58428]]]}},{"type":"Feature","properties":{"k":"BTH","s":3.991},"geometry":{"type":"Polygon","coordinates":[[[2.50606,50.58435],[2.50595,50.58457],[2.50579,50.58455],[2.50566,50.58407],[2.50318,50.58443],[2.50574,50.58679],[2.5069,50.58454],[2.50606,50.58435]]]}},{"type":"Feature","properties":{"k":"ORH","s":1.359},"geometry":{"type":"Polygon","coordinates":[[[2.5062,50.58717],[2.50755,50.58474],[2.50692,50.58452],[2.50571,50.58673],[2.5062,50.58717]]]}},{"type":"Feature","properties":{"k":"BTA","s":0.15},"geometry":{"type":"Polygon","coordinates":[[[2.50719,50.5947],[2.50948,50.59507],[2.50931,50.59501],[2.50719,50.5947]]]}},{"type":"Feature","properties":{"k":"PTC","s":3.446},"geometry":{"type":"Polygon","coordinates":[[[2.50973,50.58808],[2.50863,50.58926],[2.51044,50.5902],[2.51233,50.58819],[2.50973,50.58808]]]}},{"type":"Feature","properties":{"k":"PTC","s":4.312},"geometry":{"type":"Polygon","coordinates":[[[2.5085,50.59239],[2.51022,50.59049],[2.50835,50.58959],[2.50648,50.59171],[2.5085,50.59239]]]}},{"type":"Feature","properties":{"k":"BTH","s":3.52},"geometry":{"type":"Polygon","coordinates":[[[2.50491,50.59116],[2.5064,50.59167],[2.50835,50.58956],[2.50717,50.58874],[2.50491,50.59116]]]}},{"type":"Feature","properties":{"k":"BTH","s":2.041},"geometry":{"type":"Polygon","coordinates":[[[2.50349,50.59265],[2.50296,50.59321],[2.50465,50.59389],[2.50679,50.5942],[2.50709,50.59388],[2.50349,50.59265]]]}},{"type":"Feature","properties":{"k":"BTA","s":0.065},"geometry":{"type":"Polygon","coordinates":[[[2.51031,50.59572],[2.51043,50.59565],[2.50949,50.59507],[2.51031,50.59572]]]}},{"type":"Feature","properties":{"k":"BTA","s":0.502},"geometry":{"type":"Polygon","coordinates":[[[2.51147,50.58008],[2.51403,50.57661],[2.51891,50.57855],[2.514,50.57654],[2.51141,50.58006],[2.5102,50.58123],[2.51147,50.58008]]]}},{"type":"Feature","properties":{"k":"MSW","s":0.617},"geometry":{"type":"Polygon","coordinates":[[[2.52527,50.57223],[2.52497,50.57285],[2.52588,50.57313],[2.52624,50.57217],[2.52527,50.57223]]]}},{"type":"Feature","properties":{"k":"BTH","s":1.803},"geometry":{"type":"Polygon","coordinates":[[[2.52483,50.57396],[2.52518,50.57389],[2.52578,50.57322],[2.52346,50.57247],[2.52289,50.57327],[2.52483,50.57396]]]}},{"type":"Feature","properties":{"k":"MSW","s":0.57},"geometry":{"type":"Polygon","coordinates":[[[2.52472,50.57417],[2.52594,50.57468],[2.52634,50.57423],[2.52536,50.57383],[2.52473,50.57404],[2.52472,50.57417]]]}},{"type":"Feature","properties":{"k":"PTC","s":3.628},"geometry":{"type":"Polygon","coordinates":[[[2.51912,50.57388],[2.51956,50.57414],[2.52288,50.57533],[2.52336,50.57509],[2.52487,50.57572],[2.52512,50.57538],[2.52236,50.57413],[2.51972,50.57325],[2.51912,50.57388]]]}},{"type":"Feature","properties":{"k":"MIS","s":2.562},"geometry":{"type":"Polygon","coordinates":[[[2.50425,50.59185],[2.50784,50.59306],[2.50848,50.59238],[2.50489,50.59116],[2.50425,50.59185]]]}},{"type":"Feature","properties":{"k":"PTC","s":9.074},"geometry":{"type":"Polygon","coordinates":[[[2.50925,50.59491],[2.51252,50.59138],[2.51022,50.59049],[2.50661,50.59439],[2.50925,50.59491]]]}},{"type":"Feature","properties":{"k":"JAC","s":0.128},"geometry":{"type":"Polygon","coordinates":[[[2.5025,50.58468],[2.50275,50.58528],[2.50296,50.58476],[2.50268,50.5846],[2.5025,50.58468]]]}},{"type":"Feature","properties":{"k":"BTH","s":1.469},"geometry":{"type":"Polygon","coordinates":[[[2.50857,50.58926],[2.50971,50.58805],[2.50775,50.5879],[2.50705,50.58807],[2.50857,50.58926]]]}},{"type":"Feature","properties":{"k":"PTC","s":4.901},"geometry":{"type":"Polygon","coordinates":[[[2.50308,50.59888],[2.50339,50.59846],[2.50387,50.59857],[2.50704,50.59474],[2.50696,50.59463],[2.50577,50.59445],[2.50222,50.59858],[2.50308,50.59888]]]}},{"type":"Feature","properties":{"k":"OIG","s":0.6},"geometry":{"type":"Polygon","coordinates":[[[2.5052,50.59986],[2.50606,50.59873],[2.50553,50.59855],[2.50466,50.59968],[2.5052,50.59986]]]}},{"type":"Feature","properties":{"k":"OIG","s":0.104},"geometry":{"type":"Polygon","coordinates":[[[2.50529,50.59989],[2.50616,50.59876],[2.50606,50.59873],[2.50529,50.59989]]]}},{"type":"Feature","properties":{"k":"ORP","s":5.998},"geometry":{"type":"Polygon","coordinates":[[[2.50478,50.57604],[2.50549,50.57725],[2.50506,50.5779],[2.50698,50.5785],[2.50671,50.57901],[2.5081,50.5794],[2.50922,50.57719],[2.50478,50.57604]]]}},{"type":"Feature","properties":{"k":"BTH","s":7.775},"geometry":{"type":"Polygon","coordinates":[[[2.50786,50.58019],[2.50988,50.5812],[2.51105,50.58024],[2.51233,50.57851],[2.50928,50.57721],[2.50786,50.58019]]]}},{"type":"Feature","properties":{"k":"PPH","s":1.287},"geometry":{"type":"Polygon","coordinates":[[[2.50466,50.57868],[2.50575,50.57905],[2.50599,50.57887],[2.50668,50.57904],[2.50697,50.5785],[2.50495,50.57786],[2.50466,50.57868]]]}},{"type":"Feature","properties":{"k":"MIS","s":0.006},"geometry":{"type":"Polygon","coordinates":[[[2.48098,50.59128],[2.48102,50.59104],[2.48051,50.59164],[2.48098,50.59128]]]}},{"type":"Feature","properties":{"k":"BOR","s":0.052},"geometry":{"type":"Polygon","coordinates":[[[2.52978,50.57174],[2.52979,50.57171],[2.52974,50.57171],[2.52946,50.57323],[2.52978,50.57174]]]}},{"type":"Feature","properties":{"k":"BTA","s":0.149},"geometry":{"type":"Polygon","coordinates":[[[2.50464,50.59413],[2.50273,50.59345],[2.50462,50.59417],[2.50654,50.5944],[2.50464,50.59413]]]}},{"type":"Feature","properties":{"k":"BTH","s":8.22},"geometry":{"type":"Polygon","coordinates":[[[2.50646,50.59884],[2.50699,50.59811],[2.50733,50.59822],[2.5075,50.59804],[2.50846,50.59839],[2.5087,50.59809],[2.50776,50.59775],[2.50829,50.59723],[2.50774,50.59701],[2.50942,50.59514],[2.50719,50.5947],[2.50427,50.59812],[2.50646,50.59884]]]}},{"type":"Feature","properties":{"k":"BTH","s":2.951},"geometry":{"type":"Polygon","coordinates":[[[2.5035,50.59266],[2.50707,50.59386],[2.50783,50.59308],[2.50424,50.59185],[2.5035,50.59266]]]}},{"type":"Feature","properties":{"k":"PPH","s":0.555},"geometry":{"type":"Polygon","coordinates":[[[2.52639,50.57422],[2.52642,50.57333],[2.52578,50.57322],[2.52539,50.57379],[2.52639,50.57422]]]}},{"type":"Feature","properties":{"k":"BTH","s":0.798},"geometry":{"type":"Polygon","coordinates":[[[2.50296,50.59321],[2.50277,50.59341],[2.50496,50.59419],[2.50659,50.59441],[2.50679,50.5942],[2.50465,50.59389],[2.50296,50.59321]]]}},{"type":"Feature","properties":{"k":"BTA","s":0.133},"geometry":{"type":"Polygon","coordinates":[[[2.50661,50.59439],[2.50656,50.59444],[2.50921,50.59496],[2.50661,50.59439]]]}},{"type":"Feature","properties":{"k":"MIS","s":0.652},"geometry":{"type":"Polygon","coordinates":[[[2.5274,50.57282],[2.52752,50.57203],[2.52685,50.57212],[2.52661,50.57326],[2.52731,50.57325],[2.5274,50.57282]]]}},{"type":"Feature","properties":{"k":"PPH","s":0.434},"geometry":{"type":"Polygon","coordinates":[[[2.5281,50.5719],[2.5276,50.572],[2.52745,50.57298],[2.52802,50.57303],[2.5281,50.5719]]]}}]}