{"type":"FeatureCollection","features":[{"type":"Feature","properties":{"k":"BTH","s":0.01},"geometry":{"type":"MultiPolygon","coordinates":[[[[3.00302,50.1941],[3.00331,50.19423],[3.00281,50.19398],[3.00302,50.1941]]],[[[3.00504,50.195],[3.00408,50.19458],[3.00502,50.19501],[3.00504,50.195]]]]}},{"type":"Feature","properties":{"k":"BTH","s":3.81},"geometry":{"type":"Polygon","coordinates":[[[3.00179,50.19678],[3.00455,50.19603],[3.00522,50.19512],[3.00431,50.19469],[3.001,50.19561],[3.00179,50.19678]]]}},{"type":"Feature","properties":{"k":"BTH","s":0.005},"geometry":{"type":"Polygon","coordinates":[[[2.97123,50.2221],[2.97189,50.22245],[2.97189,50.22244],[2.97123,50.2221]]]}},{"type":"Feature","properties":{"k":"BTH","s":0.002},"geometry":{"type":"Polygon","coordinates":[]}},{"type":"Feature","properties":{"k":"BTH","s":0.002},"geometry":{"type":"Polygon","coordinates":[[[2.97101,50.22199],[2.971,50.222],[2.97122,50.2221],[2.97101,50.22199]]]}},{"type":"Feature","properties":{"k":"BTH","s":1.755},"geometry":{"type":"Polygon","coordinates":[[[2.99334,50.2117],[2.99217,50.21128],[2.99216,50.21162],[2.9929,50.21202],[2.99227,50.21242],[2.99325,50.21292],[2.9945,50.21193],[2.99428,50.21184],[2.99451,50.21153],[2.9938,50.21127],[2.99334,50.2117]]]}},{"type":"Feature","properties":{"k":"BTH","s":5.341},"geometry":{"type":"Polygon","coordinates":[[[2.9879,50.21114],[2.99134,50.21425],[2.99265,50.21326],[2.99212,50.21296],[2.99248,50.21268],[2.99314,50.21299],[2.99328,50.21294],[2.99145,50.21202],[2.99028,50.21118],[2.9879,50.21114]]]}},{"type":"Feature","properties":{"k":"BTH","s":0.637},"geometry":{"type":"Polygon","coordinates":[[[2.99151,50.21196],[2.99181,50.21164],[2.99211,50.21173],[2.99217,50.21122],[2.99033,50.21119],[2.99151,50.21196]]]}},{"type":"Feature","properties":{"k":"JAC","s":0.996},"geometry":{"type":"Polygon","coordinates":[[[2.99277,50.21111],[2.99278,50.21096],[2.99296,50.21106],[2.99384,50.21078],[2.99265,50.21027],[2.99105,50.21115],[2.99277,50.21111]]]}},{"type":"Feature","properties":{"k":"BTN","s":0.326},"geometry":{"type":"Polygon","coordinates":[[[2.99138,50.21058],[2.99208,50.21019],[2.99177,50.21011],[2.98999,50.21114],[2.99039,50.21113],[2.99138,50.21058]]]}},{"type":"Feature","properties":{"k":"ORH","s":5.188},"geometry":{"type":"Polygon","coordinates":[[[2.98933,50.21113],[2.99122,50.21002],[2.98924,50.20962],[2.98814,50.20905],[2.9852,50.21077],[2.98933,50.21113]]]}},{"type":"Feature","properties":{"k":"BTH","s":8.418},"geometry":{"type":"Polygon","coordinates":[[[2.99046,50.21571],[2.99178,50.215],[2.99139,50.21464],[2.99163,50.21451],[2.9879,50.21114],[2.98503,50.21079],[2.99046,50.21571]]]}},{"type":"Feature","properties":{"k":"MIS","s":0.23},"geometry":{"type":"Polygon","coordinates":[[[2.99256,50.21334],[2.99215,50.21366],[2.99261,50.21393],[2.99308,50.21368],[2.99256,50.21334]]]}},{"type":"Feature","properties":{"k":"BOR","s":0.038},"geometry":{"type":"Polygon","coordinates":[[[2.99219,50.21417],[2.99217,50.21423],[2.99318,50.21367],[2.99219,50.21417]]]}},{"type":"Feature","properties":{"k":"FLA","s":0.177},"geometry":{"type":"Polygon","coordinates":[[[2.99179,50.21396],[2.99214,50.2142],[2.99261,50.21393],[2.99215,50.21366],[2.99179,50.21396]]]}},{"type":"Feature","properties":{"k":"BTH","s":6.601},"geometry":{"type":"Polygon","coordinates":[[[2.98638,50.21781],[2.98547,50.2182],[2.99311,50.22339],[2.99404,50.22295],[2.98638,50.21781]]]}},{"type":"Feature","properties":{"k":"PHF","s":11.008},"geometry":{"type":"Polygon","coordinates":[[[2.98638,50.21781],[2.99404,50.22295],[2.99564,50.22218],[2.988,50.2171],[2.98638,50.21781]]]}},{"type":"Feature","properties":{"k":"BTH","s":8.396},"geometry":{"type":"Polygon","coordinates":[[[2.99679,50.22163],[2.99662,50.22152],[2.99403,50.21973],[2.99397,50.21969],[2.99396,50.21969],[2.98918,50.21648],[2.988,50.2171],[2.99565,50.22218],[2.99679,50.22163]]]}},{"type":"Feature","properties":{"k":"BTH","s":0.718},"geometry":{"type":"Polygon","coordinates":[[[2.99403,50.21973],[2.99417,50.21966],[2.98935,50.21639],[2.98919,50.21648],[2.99403,50.21973]]]}},{"type":"Feature","properties":{"k":"PTC","s":8.511},"geometry":{"type":"Polygon","coordinates":[[[3.00035,50.21994],[2.99982,50.21994],[3.00021,50.21981],[2.99705,50.21826],[2.99403,50.21973],[2.99678,50.22163],[3.00035,50.21994]]]}},{"type":"Feature","properties":{"k":"BTN","s":7.167},"geometry":{"type":"Polygon","coordinates":[[[2.99408,50.21617],[2.99597,50.21739],[2.99931,50.21474],[2.99686,50.21364],[2.99408,50.21617]]]}},{"type":"Feature","properties":{"k":"MIS","s":12.934},"geometry":{"type":"Polygon","coordinates":[[[2.99705,50.21826],[2.9922,50.21491],[2.98935,50.21639],[2.99417,50.21966],[2.99705,50.21826]]]}},{"type":"Feature","properties":{"k":"JAC","s":0.116},"geometry":{"type":"Polygon","coordinates":[[[2.99551,50.21477],[2.99445,50.21415],[2.9944,50.21419],[2.99552,50.21498],[2.99551,50.21477]]]}},{"type":"Feature","properties":{"k":"BTH","s":0.909},"geometry":{"type":"Polygon","coordinates":[[[2.99425,50.21414],[2.99395,50.21434],[2.99491,50.21503],[2.99373,50.21595],[2.99408,50.21617],[2.99528,50.21518],[2.99551,50.21499],[2.99553,50.21498],[2.99425,50.21414]]]}},{"type":"Feature","properties":{"k":"PTC","s":3.493},"geometry":{"type":"Polygon","coordinates":[[[2.977,50.21788],[2.97607,50.21842],[2.98057,50.22068],[2.98144,50.22016],[2.977,50.21788]]]}},{"type":"Feature","properties":{"k":"PTC","s":3.629},"geometry":{"type":"Polygon","coordinates":[[[2.98057,50.22068],[2.97607,50.21842],[2.97528,50.21899],[2.97968,50.22129],[2.98057,50.22068]]]}},{"type":"Feature","properties":{"k":"LIF","s":2.712},"geometry":{"type":"Polygon","coordinates":[[[2.98214,50.21977],[2.9777,50.21747],[2.977,50.21788],[2.98144,50.22016],[2.98214,50.21977]]]}},{"type":"Feature","properties":{"k":"PHF","s":7.304},"geometry":{"type":"Polygon","coordinates":[[[2.98237,50.21969],[2.98471,50.21848],[2.98206,50.21646],[2.97912,50.21814],[2.98237,50.21969]]]}},{"type":"Feature","properties":{"k":"BTH","s":5.812},"geometry":{"type":"Polygon","coordinates":[[[2.9796,50.22141],[2.98253,50.22307],[2.98301,50.22206],[2.98312,50.22082],[2.98379,50.21909],[2.98146,50.22022],[2.9796,50.22141]]]}},{"type":"Feature","properties":{"k":"LIF","s":21.698},"geometry":{"type":"Polygon","coordinates":[[[2.97817,50.21764],[2.97912,50.21814],[2.98206,50.21646],[2.98471,50.21848],[2.98677,50.21748],[2.97972,50.21111],[2.97632,50.21138],[2.9793,50.21363],[2.97949,50.2138],[2.97896,50.21409],[2.98128,50.21585],[2.97817,50.21764]]]}},{"type":"Feature","properties":{"k":"BTH","s":16.275},"geometry":{"type":"Polygon","coordinates":[[[2.98677,50.21748],[2.98903,50.21643],[2.98283,50.21087],[2.97972,50.21111],[2.98677,50.21748]]]}},{"type":"Feature","properties":{"k":"BTH","s":9.277},"geometry":{"type":"Polygon","coordinates":[[[2.98435,50.21076],[2.98391,50.21074],[2.98283,50.21087],[2.98903,50.21643],[2.99046,50.21571],[2.98523,50.21098],[2.98444,50.21091],[2.98435,50.21076]]]}},{"type":"Feature","properties":{"k":"BTH","s":2.596},"geometry":{"type":"Polygon","coordinates":[[[2.97229,50.20996],[2.97456,50.21136],[2.97637,50.21131],[2.97292,50.20926],[2.97229,50.20996]]]}},{"type":"Feature","properties":{"k":"BTH","s":18.498},"geometry":{"type":"Polygon","coordinates":[[[2.97483,50.20626],[2.97269,50.20735],[2.97885,50.21111],[2.98227,50.21077],[2.97803,50.2082],[2.98266,50.20591],[2.98068,50.20529],[2.97662,50.20734],[2.97483,50.20626]]]}},{"type":"Feature","properties":{"k":"BTH","s":7.062},"geometry":{"type":"Polygon","coordinates":[[[2.97638,50.2113],[2.97885,50.21111],[2.97268,50.20737],[2.97171,50.20785],[2.97275,50.20855],[2.97297,50.20884],[2.97275,50.20909],[2.97638,50.2113]]]}},{"type":"Feature","properties":{"k":"BTH","s":5.937},"geometry":{"type":"Polygon","coordinates":[[[2.97662,50.20734],[2.98068,50.20529],[2.9784,50.20444],[2.97485,50.20624],[2.97662,50.20734]]]}},{"type":"Feature","properties":{"k":"BTN","s":1.237},"geometry":{"type":"Polygon","coordinates":[[[2.98266,50.20591],[2.97803,50.2082],[2.97833,50.20837],[2.98306,50.20605],[2.98266,50.20591]]]}},{"type":"Feature","properties":{"k":"BTN","s":8.501},"geometry":{"type":"Polygon","coordinates":[[[2.98307,50.20606],[2.97833,50.20837],[2.98034,50.20961],[2.98528,50.20713],[2.98307,50.20606]]]}},{"type":"Feature","properties":{"k":"PTC","s":1.664},"geometry":{"type":"Polygon","coordinates":[[[2.9808,50.20987],[2.98575,50.20737],[2.98533,50.20716],[2.98041,50.20964],[2.9808,50.20987]]]}},{"type":"Feature","properties":{"k":"PTC","s":10.605},"geometry":{"type":"Polygon","coordinates":[[[2.98575,50.20741],[2.9808,50.20987],[2.98227,50.21077],[2.98513,50.21076],[2.98805,50.20903],[2.98575,50.20741]]]}},{"type":"Feature","properties":{"k":"BTN","s":1.673},"geometry":{"type":"Polygon","coordinates":[[[2.98215,50.20566],[2.98508,50.20359],[2.98452,50.20327],[2.98148,50.20545],[2.98215,50.20566]]]}},{"type":"Feature","properties":{"k":"BTH","s":2.75},"geometry":{"type":"Polygon","coordinates":[[[2.98298,50.2032],[2.98026,50.20505],[2.98097,50.20527],[2.98591,50.20182],[2.98539,50.2015],[2.98298,50.2032]]]}},{"type":"Feature","properties":{"k":"PHF","s":5.474},"geometry":{"type":"Polygon","coordinates":[[[2.98026,50.20505],[2.98046,50.20492],[2.98296,50.2032],[2.98102,50.20209],[2.97813,50.20418],[2.98026,50.20505]]]}},{"type":"Feature","properties":{"k":"BTH","s":1.928},"geometry":{"type":"Polygon","coordinates":[[[2.98628,50.20205],[2.98591,50.20182],[2.98095,50.20529],[2.98137,50.20544],[2.98628,50.20205]]]}},{"type":"Feature","properties":{"k":"BTN","s":1.877},"geometry":{"type":"Polygon","coordinates":[[[2.98509,50.20359],[2.98846,50.20125],[2.98793,50.20096],[2.98452,50.20327],[2.98509,50.20359]]]}},{"type":"Feature","properties":{"k":"BTH","s":1.389},"geometry":{"type":"Polygon","coordinates":[[[2.98539,50.2015],[2.98628,50.20205],[2.98776,50.201],[2.98688,50.20045],[2.98539,50.2015]]]}},{"type":"Feature","properties":{"k":"BTH","s":4.825},"geometry":{"type":"Polygon","coordinates":[[[2.98699,50.20037],[2.98581,50.19969],[2.98178,50.20252],[2.98297,50.20319],[2.98699,50.20037]]]}},{"type":"Feature","properties":{"k":"BTH","s":2.184},"geometry":{"type":"Polygon","coordinates":[[[2.98319,50.19818],[2.98269,50.19785],[2.97887,50.20054],[2.97943,50.20086],[2.98319,50.19818]]]}},{"type":"Feature","properties":{"k":"BTH","s":3.029},"geometry":{"type":"Polygon","coordinates":[[[2.98509,50.19926],[2.98102,50.20209],[2.98177,50.20252],[2.98581,50.19968],[2.98509,50.19926]]]}},{"type":"Feature","properties":{"k":"BTH","s":9.735},"geometry":{"type":"Polygon","coordinates":[[[2.98502,50.19923],[2.98335,50.19826],[2.98089,50.1999],[2.98156,50.20028],[2.97683,50.20355],[2.9781,50.20418],[2.98502,50.19923]]]}},{"type":"Feature","properties":{"k":"BTN","s":3.001},"geometry":{"type":"Polygon","coordinates":[[[2.97613,50.20325],[2.97615,50.20329],[2.97683,50.20354],[2.98156,50.20028],[2.98089,50.1999],[2.97613,50.20325]]]}},{"type":"Feature","properties":{"k":"BTH","s":4.036},"geometry":{"type":"Polygon","coordinates":[[[2.97886,50.20052],[2.98268,50.19785],[2.98166,50.19725],[2.9778,50.19991],[2.97886,50.20052]]]}},{"type":"Feature","properties":{"k":"BTH","s":0.0},"geometry":{"type":"Polygon","coordinates":[]}},{"type":"Feature","properties":{"k":"MIS","s":0.214},"geometry":{"type":"Polygon","coordinates":[[[2.9801,50.19082],[2.98031,50.19094],[2.98042,50.19084],[2.97899,50.18995],[2.97884,50.19005],[2.9801,50.19082]]]}},{"type":"Feature","properties":{"k":"PPR","s":5.304},"geometry":{"type":"Polygon","coordinates":[[[2.97656,50.19421],[2.98051,50.19089],[2.98031,50.19094],[2.97884,50.19005],[2.97641,50.19232],[2.97661,50.19236],[2.97663,50.19399],[2.97656,50.19421]]]}},{"type":"Feature","properties":{"k":"MIS","s":7.206},"geometry":{"type":"Polygon","coordinates":[[[2.97709,50.19453],[2.97787,50.19396],[2.97845,50.19425],[2.97766,50.19487],[2.97835,50.19526],[2.98211,50.19196],[2.98051,50.19089],[2.97656,50.19421],[2.97709,50.19453]]]}},{"type":"Feature","properties":{"k":"MIS","s":0.288},"geometry":{"type":"Polygon","coordinates":[[[2.97661,50.19236],[2.97641,50.19232],[2.97646,50.19413],[2.97663,50.19399],[2.97661,50.19236]]]}},{"type":"Feature","properties":{"k":"MIS","s":0.521},"geometry":{"type":"Polygon","coordinates":[[[2.98647,50.22655],[2.98661,50.22649],[2.98234,50.22362],[2.98226,50.22375],[2.98647,50.22655]]]}},{"type":"Feature","properties":{"k":"PTC","s":6.696},"geometry":{"type":"Polygon","coordinates":[[[2.98645,50.22656],[2.98226,50.22375],[2.98127,50.22536],[2.98445,50.22748],[2.98645,50.22656]]]}},{"type":"Feature","properties":{"k":"BTN","s":12.152},"geometry":{"type":"Polygon","coordinates":[[[2.98304,50.22226],[2.98234,50.22362],[2.98661,50.22649],[2.98925,50.22523],[2.98319,50.22118],[2.98304,50.22226]]]}},{"type":"Feature","properties":{"k":"MIS","s":3.877},"geometry":{"type":"Polygon","coordinates":[[[2.97731,50.22309],[2.97637,50.22375],[2.98068,50.22614],[2.98124,50.22527],[2.97731,50.22309]]]}},{"type":"Feature","properties":{"k":"PTC","s":3.561},"geometry":{"type":"Polygon","coordinates":[[[2.9818,50.22436],[2.97823,50.22242],[2.97731,50.22309],[2.98127,50.22521],[2.9818,50.22436]]]}},{"type":"Feature","properties":{"k":"PHF","s":4.395},"geometry":{"type":"Polygon","coordinates":[[[2.98178,50.22435],[2.98252,50.22309],[2.97957,50.22143],[2.97824,50.22243],[2.98178,50.22435]]]}},{"type":"Feature","properties":{"k":"MIS","s":14.004},"geometry":{"type":"Polygon","coordinates":[[[2.97548,50.22429],[2.9787,50.22203],[2.97434,50.21978],[2.97415,50.21994],[2.9737,50.21994],[2.97112,50.22204],[2.97548,50.22429]]]}},{"type":"Feature","properties":{"k":"BTH","s":0.001},"geometry":{"type":"Polygon","coordinates":[[[2.97197,50.20767],[2.97174,50.20779],[2.97188,50.20773],[2.97197,50.20767]]]}},{"type":"Feature","properties":{"k":"OAG","s":0.279},"geometry":{"type":"Polygon","coordinates":[[[2.97275,50.20909],[2.97191,50.20974],[2.97228,50.20997],[2.97295,50.20922],[2.97275,50.20909]]]}},{"type":"Feature","properties":{"k":"PPH","s":0.025},"geometry":{"type":"Polygon","coordinates":[[[2.97238,50.20922],[2.97202,50.20962],[2.97248,50.20929],[2.97238,50.20922]]]}},{"type":"Feature","properties":{"k":"BTH","s":0.237},"geometry":{"type":"Polygon","coordinates":[[[2.98445,50.22748],[2.98127,50.22536],[2.98438,50.2276],[2.98445,50.22748]]]}},{"type":"Feature","properties":{"k":"PHF","s":6.547},"geometry":{"type":"Polygon","coordinates":[[[3.00991,50.21581],[3.00909,50.21456],[3.00395,50.21773],[3.00505,50.21853],[3.00991,50.21581]]]}},{"type":"Feature","properties":{"k":"PTC","s":4.367},"geometry":{"type":"Polygon","coordinates":[[[3.0098,50.21539],[3.01265,50.21466],[3.01183,50.21331],[3.00858,50.21351],[3.00961,50.2152],[3.0098,50.21539]]]}},{"type":"Feature","properties":{"k":"PTC","s":2.011},"geometry":{"type":"Polygon","coordinates":[[[3.01038,50.21333],[3.00943,50.21181],[3.00782,50.21218],[3.0086,50.21344],[3.01038,50.21333]]]}},{"type":"Feature","properties":{"k":"PTC","s":4.424},"geometry":{"type":"Polygon","coordinates":[[[3.01039,50.21336],[3.01272,50.21329],[3.01102,50.21062],[3.00906,50.21123],[3.01039,50.21336]]]}},{"type":"Feature","properties":{"k":"JAC","s":0.263},"geometry":{"type":"Polygon","coordinates":[[[3.01102,50.21062],[3.01099,50.21058],[3.01064,50.21056],[3.00896,50.21108],[3.00906,50.21123],[3.01102,50.21062]]]}},{"type":"Feature","properties":{"k":"PHF","s":3.93},"geometry":{"type":"Polygon","coordinates":[[[3.00518,50.21266],[3.00749,50.21116],[3.00698,50.20982],[3.00383,50.21189],[3.0042,50.21202],[3.00376,50.21242],[3.00424,50.21204],[3.00381,50.21243],[3.00512,50.21288],[3.00518,50.21266]]]}},{"type":"Feature","properties":{"k":"PTC","s":1.965},"geometry":{"type":"Polygon","coordinates":[[[3.00519,50.21265],[3.00623,50.21327],[3.00775,50.21231],[3.00747,50.21118],[3.00519,50.21265]]]}},{"type":"Feature","properties":{"k":"PPH","s":0.341},"geometry":{"type":"Polygon","coordinates":[[[3.00782,50.21218],[3.00943,50.21181],[3.00933,50.21165],[3.0084,50.21183],[3.00773,50.21178],[3.00782,50.21218]]]}},{"type":"Feature","properties":{"k":"BTH","s":0.996},"geometry":{"type":"Polygon","coordinates":[[[3.00843,50.21339],[3.00775,50.21231],[3.00655,50.21308],[3.0071,50.21354],[3.00843,50.21339]]]}},{"type":"Feature","properties":{"k":"JAC","s":0.093},"geometry":{"type":"Polygon","coordinates":[[[3.00457,50.21297],[3.00487,50.2131],[3.00512,50.21288],[3.00471,50.2127],[3.00457,50.21297]]]}},{"type":"Feature","properties":{"k":"JAC","s":0.064},"geometry":{"type":"Polygon","coordinates":[[[3.00381,50.21243],[3.00365,50.21252],[3.00409,50.21271],[3.00421,50.21253],[3.00372,50.21251],[3.00381,50.21243]],[[3.00396,50.21261],[3.00372,50.21252],[3.00372,50.21251],[3.00396,50.21261]]]}},{"type":"Feature","properties":{"k":"BTH","s":0.529},"geometry":{"type":"Polygon","coordinates":[[[3.00026,50.21065],[3.00048,50.21034],[3.00107,50.2105],[3.00145,50.21042],[3.00023,50.21013],[3.00074,50.20935],[3.00023,50.20955],[2.99968,50.21046],[3.00026,50.21065]]]}},{"type":"Feature","properties":{"k":"PHF","s":7.36},"geometry":{"type":"Polygon","coordinates":[[[3.00216,50.21073],[3.00157,50.21122],[3.00383,50.21189],[3.00698,50.20982],[3.00689,50.20959],[3.00591,50.2086],[3.00136,50.21046],[3.00216,50.21073]]]}},{"type":"Feature","properties":{"k":"PHF","s":6.574},"geometry":{"type":"Polygon","coordinates":[[[3.00145,50.21042],[3.00716,50.20812],[3.0069,50.20821],[3.00702,50.20689],[3.00074,50.20935],[3.00023,50.21013],[3.00145,50.21042]]]}},{"type":"Feature","properties":{"k":"BTH","s":7.432},"geometry":{"type":"Polygon","coordinates":[[[3.00665,50.20554],[3.00159,50.20737],[3.00023,50.20955],[3.00702,50.20689],[3.00665,50.20554]]]}},{"type":"Feature","properties":{"k":"JAC","s":0.019},"geometry":{"type":"Polygon","coordinates":[[[3.00716,50.20812],[3.00695,50.20809],[3.00697,50.20784],[3.0069,50.20821],[3.00716,50.20812]]]}},{"type":"Feature","properties":{"k":"BTH","s":11.496},"geometry":{"type":"Polygon","coordinates":[[[3.00727,50.2081],[3.00816,50.20783],[3.00901,50.209],[3.01086,50.20831],[3.01128,50.20866],[3.01173,50.20835],[3.0082,50.20369],[3.00647,50.20414],[3.00727,50.2081]]]}},{"type":"Feature","properties":{"k":"BTN","s":6.578},"geometry":{"type":"Polygon","coordinates":[[[3.00913,50.20346],[3.0082,50.20369],[3.01173,50.20835],[3.01251,50.20783],[3.01418,50.20865],[3.01103,50.20483],[3.01024,50.20489],[3.00913,50.20346]]]}},{"type":"Feature","properties":{"k":"PTC","s":2.313},"geometry":{"type":"Polygon","coordinates":[[[3.01492,50.20865],[3.01165,50.20468],[3.01103,50.20483],[3.01418,50.20865],[3.01492,50.20865]]]}},{"type":"Feature","properties":{"k":"PTC","s":10.643},"geometry":{"type":"Polygon","coordinates":[[[3.01155,50.20456],[3.01492,50.20865],[3.01784,50.20843],[3.01412,50.20391],[3.01155,50.20456]]]}},{"type":"Feature","properties":{"k":"LIF","s":10.082},"geometry":{"type":"Polygon","coordinates":[[[3.01757,50.20848],[3.01867,50.20994],[3.02037,50.20891],[3.01426,50.20265],[3.01573,50.20199],[3.01513,50.20154],[3.01483,50.20153],[3.01463,50.20165],[3.01502,50.20203],[3.0134,50.20295],[3.01356,50.20323],[3.01328,50.20337],[3.01382,50.20394],[3.01412,50.20391],[3.01784,50.20843],[3.01757,50.20848]]]}},{"type":"Feature","properties":{"k":"PTC","s":17.97},"geometry":{"type":"Polygon","coordinates":[[[3.01195,50.21024],[3.01099,50.21058],[3.01271,50.21328],[3.0148,50.21347],[3.01689,50.21333],[3.01842,50.21304],[3.01559,50.20861],[3.01424,50.20869],[3.01195,50.21024]],[[3.01249,50.21024],[3.01292,50.21003],[3.01302,50.21023],[3.01261,50.21038],[3.01249,50.21024]]]}},{"type":"Feature","properties":{"k":"BTH","s":7.477},"geometry":{"type":"Polygon","coordinates":[[[3.0204,50.21277],[3.01765,50.20848],[3.01559,50.20861],[3.01842,50.21304],[3.0204,50.21277]]]}},{"type":"Feature","properties":{"k":"BTH","s":5.964},"geometry":{"type":"Polygon","coordinates":[[[3.02317,50.21265],[3.0223,50.21097],[3.02106,50.20964],[3.01921,50.21079],[3.02057,50.21287],[3.02317,50.21265]]]}},{"type":"Feature","properties":{"k":"BTH","s":0.209},"geometry":{"type":"Polygon","coordinates":[[[3.02216,50.21061],[3.0206,50.20903],[3.0223,50.21097],[3.02273,50.21176],[3.02216,50.21061]]]}},{"type":"Feature","properties":{"k":"BTN","s":1.701},"geometry":{"type":"Polygon","coordinates":[[[3.01868,50.20996],[3.01921,50.21078],[3.02106,50.20964],[3.01936,50.20779],[3.02037,50.20891],[3.01868,50.20996]]]}},{"type":"Feature","properties":{"k":"BTH","s":2.192},"geometry":{"type":"Polygon","coordinates":[[[3.02153,50.21286],[3.02265,50.21466],[3.02396,50.21424],[3.02319,50.21269],[3.02153,50.21286]]]}},{"type":"Feature","properties":{"k":"BTH","s":2.025},"geometry":{"type":"Polygon","coordinates":[[[3.02154,50.21501],[3.02265,50.21466],[3.02152,50.21286],[3.02025,50.21292],[3.02154,50.21501]]]}},{"type":"Feature","properties":{"k":"PHF","s":0.003},"geometry":{"type":"Polygon","coordinates":[[[3.02073,50.21527],[3.02111,50.21514],[3.02073,50.21526],[3.02073,50.21527]]]}},{"type":"Feature","properties":{"k":"BTN","s":12.086},"geometry":{"type":"Polygon","coordinates":[[[2.98319,50.22118],[2.98925,50.22523],[2.99119,50.22429],[2.9838,50.21933],[2.98319,50.22118]]]}},{"type":"Feature","properties":{"k":"LIF","s":11.889},"geometry":{"type":"Polygon","coordinates":[[[3.00426,50.19469],[3.00291,50.19408],[2.99539,50.19618],[2.99633,50.19824],[3.00173,50.19674],[3.00098,50.19557],[3.00426,50.19469]]]}},{"type":"Feature","properties":{"k":"BTH","s":14.406},"geometry":{"type":"Polygon","coordinates":[[[2.99868,50.20066],[3.00046,50.20165],[3.00202,50.20078],[3.00448,50.20015],[2.99987,50.19731],[2.99653,50.19823],[2.99658,50.19913],[2.99868,50.20066]]]}},{"type":"Feature","properties":{"k":"PTC","s":2.233},"geometry":{"type":"Polygon","coordinates":[[[3.0029,50.202],[3.00476,50.20132],[3.00405,50.20036],[3.00174,50.20102],[3.0029,50.202]]]}},{"type":"Feature","properties":{"k":"BTN","s":4.968},"geometry":{"type":"Polygon","coordinates":[[[3.00144,50.19689],[2.99987,50.19731],[3.00447,50.20014],[3.0059,50.19968],[3.00144,50.19689]]]}},{"type":"Feature","properties":{"k":"ORP","s":2.945},"geometry":{"type":"Polygon","coordinates":[[[3.00684,50.1993],[3.00255,50.19659],[3.00242,50.19663],[3.00329,50.19717],[3.00273,50.19744],[3.00172,50.19681],[3.00144,50.19689],[3.0059,50.19968],[3.00684,50.1993]]]}},{"type":"Feature","properties":{"k":"MIS","s":0.663},"geometry":{"type":"Polygon","coordinates":[[[3.00799,50.19879],[3.00648,50.19957],[3.00684,50.19997],[3.00848,50.19907],[3.00799,50.19879]]]}},{"type":"Feature","properties":{"k":"MIS","s":8.817},"geometry":{"type":"Polygon","coordinates":[[[3.00647,50.20414],[3.00917,50.20345],[3.00828,50.20247],[3.00772,50.2014],[3.00781,50.20117],[3.00648,50.19957],[3.00422,50.20037],[3.00647,50.20414]]]}},{"type":"Feature","properties":{"k":"BTH","s":0.451},"geometry":{"type":"Polygon","coordinates":[[[3.01052,50.2041],[3.00978,50.2034],[3.00925,50.20358],[3.00985,50.20437],[3.01052,50.2041]]]}},{"type":"Feature","properties":{"k":"BFS","s":0.134},"geometry":{"type":"Polygon","coordinates":[[[3.01124,50.20464],[3.01024,50.20489],[3.01049,50.20496],[3.01165,50.20468],[3.01155,50.20456],[3.01124,50.20464]]]}},{"type":"Feature","properties":{"k":"OIG","s":11.363},"geometry":{"type":"Polygon","coordinates":[[[2.99911,50.2064],[3.00009,50.20703],[3.0007,50.20771],[3.00656,50.20558],[3.00604,50.20357],[2.9994,50.20594],[2.99911,50.2064]]]}},{"type":"Feature","properties":{"k":"BTH","s":13.205},"geometry":{"type":"Polygon","coordinates":[[[3.0048,50.20132],[2.99963,50.20317],[2.99907,50.20575],[2.9994,50.20595],[3.00614,50.20354],[3.0048,50.20132]]]}},{"type":"Feature","properties":{"k":"PTC","s":2.866},"geometry":{"type":"Polygon","coordinates":[[[3.00278,50.20204],[3.00169,50.20107],[2.99906,50.20231],[2.99904,50.20253],[2.99963,50.20317],[3.00278,50.20204]]]}},{"type":"Feature","properties":{"k":"MID","s":0.047},"geometry":{"type":"Polygon","coordinates":[[[2.99856,50.20393],[2.99843,50.20403],[2.99878,50.2042],[2.9989,50.2041],[2.99856,50.20393]]]}},{"type":"Feature","properties":{"k":"PHF","s":1.192},"geometry":{"type":"Polygon","coordinates":[[[2.99837,50.20403],[2.99932,50.20323],[2.99908,50.20306],[2.99698,50.2049],[2.99768,50.20529],[2.99884,50.20425],[2.99837,50.20403]]]}},{"type":"Feature","properties":{"k":"CAR","s":0.751},"geometry":{"type":"Polygon","coordinates":[[[2.99693,50.20491],[2.99614,50.20561],[2.99668,50.20619],[2.99767,50.20532],[2.99693,50.20491]]]}},{"type":"Feature","properties":{"k":"PHF","s":10.452},"geometry":{"type":"Polygon","coordinates":[[[2.99841,50.20247],[2.99654,50.20112],[2.99325,50.20399],[2.99603,50.20569],[2.9992,50.2029],[2.99872,50.20249],[2.99841,50.20247]]]}},{"type":"Feature","properties":{"k":"BTP","s":4.142},"geometry":{"type":"Polygon","coordinates":[[[2.9987,50.20237],[3.00046,50.20166],[2.99868,50.20066],[2.99658,50.19913],[2.99657,50.20086],[2.9987,50.20237]]]}},{"type":"Feature","properties":{"k":"MIS","s":1.004},"geometry":{"type":"Polygon","coordinates":[[[2.99505,50.1999],[2.99637,50.19921],[2.99627,50.19849],[2.9944,50.19955],[2.99505,50.1999]]]}},{"type":"Feature","properties":{"k":"CZH","s":3.038},"geometry":{"type":"Polygon","coordinates":[[[2.99573,50.19722],[2.99286,50.19872],[2.99427,50.19953],[2.9963,50.19846],[2.99573,50.19722]]]}},{"type":"Feature","properties":{"k":"BTH","s":17.429},"geometry":{"type":"Polygon","coordinates":[[[2.99642,50.20094],[2.99596,50.20061],[2.99202,50.19836],[2.98897,50.20117],[2.98948,50.20144],[2.98925,50.20163],[2.99302,50.20385],[2.99314,50.20373],[2.99331,50.20384],[2.99641,50.20114],[2.99642,50.20094]]]}},{"type":"Feature","properties":{"k":"PTC","s":4.378},"geometry":{"type":"Polygon","coordinates":[[[2.99198,50.19838],[2.99061,50.19776],[2.98747,50.20058],[2.98763,50.20068],[2.98815,50.20021],[2.98897,50.20067],[2.98842,50.20114],[2.98878,50.20136],[2.99198,50.19838]]]}},{"type":"Feature","properties":{"k":"PTC","s":6.35},"geometry":{"type":"Polygon","coordinates":[[[2.98878,50.19681],[2.98576,50.1996],[2.98746,50.20059],[2.99061,50.19775],[2.98878,50.19681]]]}},{"type":"Feature","properties":{"k":"MIS","s":0.11},"geometry":{"type":"Polygon","coordinates":[[[2.98688,50.20045],[2.98776,50.201],[2.9879,50.20091],[2.98698,50.20038],[2.98688,50.20045]]]}},{"type":"Feature","properties":{"k":"BTH","s":19.567},"geometry":{"type":"Polygon","coordinates":[[[2.99161,50.2031],[2.99124,50.20288],[2.99007,50.20219],[2.98997,50.20213],[2.98846,50.20125],[2.98216,50.20566],[2.98392,50.20632],[2.98573,50.20724],[2.99161,50.2031]],[[2.99119,50.20287],[2.99005,50.20221],[2.99007,50.20219],[2.99119,50.20287]]]}},{"type":"Feature","properties":{"k":"PTC","s":0.366},"geometry":{"type":"Polygon","coordinates":[[[2.98656,50.20749],[2.98588,50.20713],[2.98573,50.20724],[2.98792,50.20873],[2.98808,50.20861],[2.98656,50.20749]]]}},{"type":"Feature","properties":{"k":"BTH","s":3.49},"geometry":{"type":"Polygon","coordinates":[[[2.98917,50.20948],[2.992,50.20751],[2.99049,50.20696],[2.98792,50.20873],[2.98917,50.20948]],[[2.98865,50.20887],[2.98853,50.20893],[2.9884,50.20884],[2.98865,50.20887]]]}},{"type":"Feature","properties":{"k":"BTP","s":2.635},"geometry":{"type":"Polygon","coordinates":[[[2.9904,50.20978],[2.99315,50.20792],[2.99201,50.2075],[2.98917,50.20948],[2.9904,50.20978]]]}},{"type":"Feature","properties":{"k":"CZH","s":2.396},"geometry":{"type":"Polygon","coordinates":[[[2.99314,50.20792],[2.9904,50.20978],[2.99172,50.21],[2.99431,50.20834],[2.99314,50.20792]]]}},{"type":"Feature","properties":{"k":"PTC","s":13.701},"geometry":{"type":"Polygon","coordinates":[[[2.99163,50.20323],[2.99163,50.20324],[2.99153,50.20317],[2.98592,50.20711],[2.98813,50.20859],[2.99389,50.20456],[2.99363,50.20441],[2.99154,50.20316],[2.99163,50.20323]]]}},{"type":"Feature","properties":{"k":"BTH","s":10.119},"geometry":{"type":"Polygon","coordinates":[[[2.99049,50.20695],[2.9946,50.20844],[2.99657,50.20667],[2.99583,50.20558],[2.99397,50.2045],[2.99049,50.20695]]]}},{"type":"Feature","properties":{"k":"PHF","s":3.965},"geometry":{"type":"Polygon","coordinates":[[[2.99779,50.20833],[2.99875,50.20641],[2.99916,50.20404],[2.99649,50.20638],[2.99779,50.20833]]]}},{"type":"Feature","properties":{"k":"PPH","s":0.624},"geometry":{"type":"Polygon","coordinates":[[[2.99599,50.20868],[2.99644,50.20812],[2.9954,50.20778],[2.99482,50.2083],[2.99599,50.20868]]]}},{"type":"Feature","properties":{"k":"JNO","s":0.131},"geometry":{"type":"Polygon","coordinates":[[[2.99431,50.20834],[2.99388,50.20862],[2.99433,50.20876],[2.99461,50.20845],[2.99431,50.20834]]]}},{"type":"Feature","properties":{"k":"BTN","s":2.881},"geometry":{"type":"Polygon","coordinates":[[[2.99411,50.21075],[2.99531,50.2091],[2.99388,50.20862],[2.99204,50.20976],[2.99411,50.21075]]]}},{"type":"Feature","properties":{"k":"BOR","s":0.14},"geometry":{"type":"Polygon","coordinates":[[[2.99334,50.2117],[2.9938,50.21127],[2.99458,50.21148],[2.9938,50.21119],[2.99347,50.21152],[2.99325,50.21144],[2.99311,50.21159],[2.99217,50.21128],[2.99334,50.2117]]]}},{"type":"Feature","properties":{"k":"BOR","s":0.081},"geometry":{"type":"Polygon","coordinates":[]}},{"type":"Feature","properties":{"k":"BOR","s":0.06},"geometry":{"type":"Polygon","coordinates":[[[2.99428,50.21184],[2.9945,50.21193],[2.99439,50.21208],[2.99328,50.21294],[2.99442,50.2121],[2.99456,50.21192],[2.99432,50.21184],[2.9945,50.21156],[2.99428,50.21184]]]}},{"type":"Feature","properties":{"k":"BTH","s":9.672},"geometry":{"type":"Polygon","coordinates":[[[2.97933,50.19587],[2.97636,50.19796],[2.97236,50.19556],[2.97213,50.19574],[2.97647,50.19813],[2.97571,50.19869],[2.97777,50.19993],[2.98167,50.19725],[2.97933,50.19587]]]}},{"type":"Feature","properties":{"k":"PHF","s":10.819},"geometry":{"type":"Polygon","coordinates":[[[2.97625,50.19418],[2.9729,50.19517],[2.97235,50.19555],[2.97638,50.19794],[2.97933,50.19587],[2.97625,50.19418]]]}},{"type":"Feature","properties":{"k":"BTH","s":1.066},"geometry":{"type":"Polygon","coordinates":[[[2.97934,50.19581],[2.98299,50.19258],[2.98278,50.19239],[2.9791,50.19568],[2.97934,50.19581]]]}},{"type":"Feature","properties":{"k":"BTN","s":1.024},"geometry":{"type":"Polygon","coordinates":[[[2.98014,50.1963],[2.98368,50.19321],[2.98346,50.19301],[2.97992,50.19616],[2.98014,50.1963]]]}},{"type":"Feature","properties":{"k":"BTH","s":2.44},"geometry":{"type":"Polygon","coordinates":[[[2.97934,50.19581],[2.97992,50.19616],[2.98346,50.19301],[2.98298,50.1926],[2.97934,50.19581]]]}},{"type":"Feature","properties":{"k":"PTC","s":12.278},"geometry":{"type":"Polygon","coordinates":[[[2.98353,50.19819],[2.98652,50.19554],[2.98507,50.1946],[2.98367,50.19322],[2.98024,50.19627],[2.98353,50.19819]]]}},{"type":"Feature","properties":{"k":"PHF","s":8.086},"geometry":{"type":"Polygon","coordinates":[[[2.98573,50.19958],[2.98878,50.19681],[2.98655,50.19551],[2.98347,50.19825],[2.98573,50.19958]]]}},{"type":"Feature","properties":{"k":"JAC","s":0.127},"geometry":{"type":"Polygon","coordinates":[[[2.98507,50.1946],[2.98652,50.19554],[2.98512,50.19457],[2.9837,50.19326],[2.98507,50.1946]]]}},{"type":"Feature","properties":{"k":"BTH","s":3.122},"geometry":{"type":"Polygon","coordinates":[[[2.98278,50.19239],[2.98214,50.19193],[2.97835,50.19526],[2.9791,50.19568],[2.98278,50.19239]]]}},{"type":"Feature","properties":{"k":"BTH","s":0.09},"geometry":{"type":"Polygon","coordinates":[[[2.97958,50.19414],[2.98209,50.19198],[2.98202,50.19199],[2.97958,50.19414]]]}},{"type":"Feature","properties":{"k":"PHF","s":0.016},"geometry":{"type":"Polygon","coordinates":[[[2.97353,50.21994],[2.97233,50.22091],[2.97357,50.21994],[2.97353,50.21994]]]}},{"type":"Feature","properties":{"k":"PTC","s":1.978},"geometry":{"type":"Polygon","coordinates":[[[2.97943,50.21379],[2.97896,50.21343],[2.97503,50.21579],[2.97546,50.21612],[2.97943,50.21379]]]}},{"type":"Feature","properties":{"k":"BTH","s":2.347},"geometry":{"type":"Polygon","coordinates":[[[2.97619,50.21655],[2.97962,50.21458],[2.97894,50.21407],[2.97549,50.21614],[2.97619,50.21655]]]}},{"type":"Feature","properties":{"k":"PHF","s":2.59},"geometry":{"type":"Polygon","coordinates":[[[2.98031,50.21514],[2.97962,50.21458],[2.97619,50.21655],[2.97701,50.21705],[2.98031,50.21514]]]}},{"type":"Feature","properties":{"k":"BTH","s":3.25},"geometry":{"type":"Polygon","coordinates":[[[2.97817,50.21764],[2.98128,50.21585],[2.98031,50.21514],[2.97701,50.21705],[2.97817,50.21764]]]}},{"type":"Feature","properties":{"k":"BTN","s":4.302},"geometry":{"type":"Polygon","coordinates":[[[2.97966,50.2213],[2.97524,50.21902],[2.97434,50.21978],[2.9787,50.22203],[2.97966,50.2213]]]}},{"type":"Feature","properties":{"k":"BTH","s":1.026},"geometry":{"type":"Polygon","coordinates":[[[2.99286,50.21478],[2.99391,50.21553],[2.99354,50.21576],[2.99377,50.21592],[2.99491,50.21503],[2.99463,50.21511],[2.99341,50.21433],[2.99288,50.21458],[2.99286,50.21478]]]}},{"type":"Feature","properties":{"k":"BOR","s":0.017},"geometry":{"type":"Polygon","coordinates":[[[2.99356,50.21444],[2.99396,50.2147],[2.99345,50.21431],[2.99356,50.21444]]]}},{"type":"Feature","properties":{"k":"JAC","s":0.3},"geometry":{"type":"Polygon","coordinates":[[[2.9937,50.21397],[2.99396,50.21378],[2.99295,50.21317],[2.99265,50.21338],[2.9937,50.21397]]]}},{"type":"Feature","properties":{"k":"ORH","s":3.92},"geometry":{"type":"Polygon","coordinates":[[[2.9931,50.19074],[2.99378,50.19242],[2.99735,50.19144],[2.99481,50.19029],[2.9931,50.19074]],[[2.99494,50.19048],[2.99484,50.19051],[2.9948,50.19048],[2.99494,50.19048]]]}},{"type":"Feature","properties":{"k":"JAC","s":0.111},"geometry":{"type":"Polygon","coordinates":[[[2.99931,50.21474],[2.99936,50.2147],[2.99689,50.21359],[2.99931,50.21474]]]}},{"type":"Feature","properties":{"k":"JAC","s":0.05},"geometry":{"type":"Polygon","coordinates":[[[3.00126,50.2147],[3.00107,50.21415],[3.00137,50.21514],[3.00093,50.21556],[3.00142,50.21511],[3.00126,50.2147]]]}},{"type":"Feature","properties":{"k":"BTH","s":16.804},"geometry":{"type":"Polygon","coordinates":[[[3.00142,50.21511],[3.00093,50.21556],[3.00395,50.21773],[3.00909,50.21456],[3.00856,50.21372],[3.00831,50.21361],[3.0063,50.21375],[3.00478,50.21322],[3.00408,50.21399],[3.003,50.21366],[3.00225,50.21351],[3.00199,50.21354],[3.00196,50.2136],[3.00195,50.2136],[3.00177,50.21389],[3.00109,50.21369],[3.00092,50.21391],[3.00142,50.21511]]]}},{"type":"Feature","properties":{"k":"MIS","s":0.587},"geometry":{"type":"Polygon","coordinates":[[[2.9931,50.19074],[2.99481,50.19029],[2.99398,50.1899],[2.99296,50.19039],[2.9931,50.19074]]]}},{"type":"Feature","properties":{"k":"BTN","s":15.992},"geometry":{"type":"Polygon","coordinates":[[[3.00398,50.21783],[3.00045,50.2153],[2.99953,50.21602],[2.99844,50.21545],[2.99598,50.21742],[2.99696,50.21814],[3.00053,50.21992],[3.00398,50.21783]]]}},{"type":"Feature","properties":{"k":"MIS","s":0.049},"geometry":{"type":"Polygon","coordinates":[[[3.00337,50.21952],[3.00183,50.22047],[3.00501,50.21855],[3.00337,50.21952]]]}},{"type":"Feature","properties":{"k":"BTH","s":3.439},"geometry":{"type":"Polygon","coordinates":[[[3.00398,50.21783],[3.00053,50.21992],[3.00173,50.22049],[3.00496,50.21852],[3.00398,50.21783]]]}},{"type":"Feature","properties":{"k":"BTH","s":0.001},"geometry":{"type":"Polygon","coordinates":[[[3.00749,50.21728],[3.00763,50.21722],[3.00762,50.21721],[3.00749,50.21728]]]}},{"type":"Feature","properties":{"k":"BTH","s":0.006},"geometry":{"type":"Polygon","coordinates":[[[2.99741,50.19139],[2.99638,50.19094],[2.99716,50.19129],[2.99741,50.19139]]]}},{"type":"Feature","properties":{"k":"BTH","s":0.004},"geometry":{"type":"Polygon","coordinates":[[[2.99833,50.1918],[2.99769,50.19152],[2.99768,50.19153],[2.99833,50.1918]]]}},{"type":"Feature","properties":{"k":"BTN","s":0.0},"geometry":{"type":"Polygon","coordinates":[]}},{"type":"Feature","properties":{"k":"BTN","s":2.666},"geometry":{"type":"Polygon","coordinates":[[[3.00642,50.19405],[3.00584,50.19456],[3.01014,50.1972],[3.0107,50.19688],[3.00642,50.19405]]]}},{"type":"Feature","properties":{"k":"BTH","s":3.854},"geometry":{"type":"Polygon","coordinates":[[[3.0137,50.19833],[3.01123,50.19668],[3.00949,50.19767],[3.01238,50.19915],[3.0137,50.19833]]]}},{"type":"Feature","properties":{"k":"MIS","s":12.093},"geometry":{"type":"Polygon","coordinates":[[[3.00291,50.19648],[3.00722,50.19916],[3.01014,50.1972],[3.00584,50.19456],[3.00468,50.19589],[3.00291,50.19648]]]}},{"type":"Feature","properties":{"k":"LBF","s":1.205},"geometry":{"type":"Polygon","coordinates":[[[3.00684,50.1993],[3.00721,50.19915],[3.00292,50.19649],[3.00255,50.19659],[3.00684,50.1993]]]}},{"type":"Feature","properties":{"k":"ORP","s":0.201},"geometry":{"type":"Polygon","coordinates":[[[3.01986,50.21423],[3.02054,50.21533],[3.02073,50.21527],[3.02005,50.21417],[3.01986,50.21423]]]}},{"type":"Feature","properties":{"k":"BTH","s":1.009},"geometry":{"type":"Polygon","coordinates":[[[3.01908,50.21298],[3.02073,50.21526],[3.02111,50.21514],[3.01968,50.21291],[3.01908,50.21298]]]}},{"type":"Feature","properties":{"k":"BTH","s":2.556},"geometry":{"type":"Polygon","coordinates":[[[3.02054,50.21533],[3.01907,50.21298],[3.0179,50.2132],[3.01945,50.21567],[3.02054,50.21533]]]}},{"type":"Feature","properties":{"k":"BTH","s":2.312},"geometry":{"type":"Polygon","coordinates":[[[3.01789,50.2132],[3.01685,50.21338],[3.01847,50.21596],[3.01769,50.21623],[3.01951,50.21565],[3.01789,50.2132]]]}},{"type":"Feature","properties":{"k":"BTN","s":0.0},"geometry":{"type":"Polygon","coordinates":[]}},{"type":"Feature","properties":{"k":"BTH","s":0.112},"geometry":{"type":"Polygon","coordinates":[[[3.01538,50.21694],[3.01769,50.21623],[3.01766,50.21618],[3.01538,50.21694]]]}},{"type":"Feature","properties":{"k":"BTN","s":5.578},"geometry":{"type":"Polygon","coordinates":[[[3.01415,50.21352],[3.01604,50.21669],[3.01811,50.21606],[3.01649,50.21342],[3.01415,50.21352]]]}},{"type":"Feature","properties":{"k":"BTH","s":12.393},"geometry":{"type":"Polygon","coordinates":[[[3.01265,50.21466],[3.0098,50.21539],[3.01086,50.21675],[3.01139,50.2179],[3.01602,50.21669],[3.01412,50.21352],[3.01183,50.21332],[3.01265,50.21466]]]}},{"type":"Feature","properties":{"k":"BTH","s":0.248},"geometry":{"type":"Polygon","coordinates":[[[3.01136,50.21791],[3.0114,50.21798],[3.01538,50.21694],[3.01136,50.21791]]]}},{"type":"Feature","properties":{"k":"MIS","s":0.001},"geometry":{"type":"Polygon","coordinates":[[[2.99601,50.22204],[2.99622,50.22194],[2.99622,50.22193],[2.99601,50.22204]]]}},{"type":"Feature","properties":{"k":"BTH","s":12.601},"geometry":{"type":"Polygon","coordinates":[[[2.98396,50.21898],[2.98382,50.21931],[2.9912,50.22428],[2.99303,50.22342],[2.98533,50.21825],[2.98396,50.21898]]]}},{"type":"Feature","properties":{"k":"JAC","s":0.022},"geometry":{"type":"Polygon","coordinates":[[[3.01483,50.20153],[3.01438,50.20144],[3.01463,50.20165],[3.01483,50.20153]]]}},{"type":"Feature","properties":{"k":"BTH","s":0.004},"geometry":{"type":"Polygon","coordinates":[[[3.01372,50.19841],[3.01377,50.19837],[3.0137,50.19833],[3.01372,50.19841]]]}},{"type":"Feature","properties":{"k":"JAC","s":0.032},"geometry":{"type":"Polygon","coordinates":[[[3.01322,50.19863],[3.01329,50.19868],[3.01372,50.19841],[3.01322,50.19863]]]}},{"type":"Feature","properties":{"k":"BTN","s":1.825},"geometry":{"type":"Polygon","coordinates":[[[2.99274,50.1905],[2.98705,50.1942],[2.99311,50.19105],[2.99288,50.19043],[2.99274,50.1905]]]}},{"type":"Feature","properties":{"k":"PHF","s":6.907},"geometry":{"type":"Polygon","coordinates":[[[2.98587,50.19497],[2.98684,50.19559],[2.99353,50.19204],[2.99311,50.19105],[2.98705,50.1942],[2.98587,50.19497]]]}},{"type":"Feature","properties":{"k":"BTH","s":12.437},"geometry":{"type":"Polygon","coordinates":[[[2.99156,50.19807],[2.99525,50.1961],[2.99414,50.19345],[2.98833,50.19651],[2.99156,50.19807]]]}},{"type":"Feature","properties":{"k":"BTH","s":8.403},"geometry":{"type":"Polygon","coordinates":[[[2.98831,50.1965],[2.99413,50.19345],[2.99353,50.19208],[2.98689,50.19557],[2.98831,50.1965]],[[2.98716,50.19564],[2.98741,50.19584],[2.98716,50.19568],[2.98716,50.19564]]]}},{"type":"Feature","properties":{"k":"BTN","s":15.424},"geometry":{"type":"Polygon","coordinates":[[[2.99538,50.19616],[3.00291,50.19408],[2.99862,50.19205],[2.99416,50.19328],[2.99538,50.19616]]]}},{"type":"Feature","properties":{"k":"BTH","s":3.096},"geometry":{"type":"Polygon","coordinates":[[[2.99735,50.19144],[2.99378,50.19242],[2.99416,50.19328],[2.99862,50.19205],[2.99735,50.19144]]]}}]}