{"type":"FeatureCollection","features":[{"type":"Feature","properties":{"k":"PPH","s":3.917},"geometry":{"type":"Polygon","coordinates":[[[2.46846,50.48375],[2.46944,50.48437],[2.46991,50.48413],[2.4711,50.48446],[2.47227,50.48329],[2.47119,50.48271],[2.46996,50.48238],[2.46948,50.48239],[2.46846,50.48375]]]}},{"type":"Feature","properties":{"k":"BTA","s":0.028},"geometry":{"type":"Polygon","coordinates":[[[2.46763,50.48366],[2.46844,50.48403],[2.46838,50.48392],[2.46748,50.48356],[2.46763,50.48366]]]}},{"type":"Feature","properties":{"k":"PPH","s":0.668},"geometry":{"type":"Polygon","coordinates":[[[2.46472,50.48992],[2.4648,50.48941],[2.46367,50.48969],[2.4635,50.49013],[2.46405,50.49044],[2.46472,50.48992]]]}},{"type":"Feature","properties":{"k":"PTC","s":4.109},"geometry":{"type":"Polygon","coordinates":[[[2.45922,50.48956],[2.45842,50.4901],[2.46263,50.49142],[2.46405,50.49044],[2.46355,50.49016],[2.45922,50.48956]]]}},{"type":"Feature","properties":{"k":"BTH","s":0.001},"geometry":{"type":"Polygon","coordinates":[[[2.46694,50.48851],[2.46701,50.4885],[2.46696,50.48849],[2.46694,50.48851]]]}},{"type":"Feature","properties":{"k":"ORH","s":0.006},"geometry":{"type":"Polygon","coordinates":[[[2.46702,50.48848],[2.46709,50.48829],[2.46694,50.48846],[2.46702,50.48848]]]}},{"type":"Feature","properties":{"k":"POR","s":0.518},"geometry":{"type":"Polygon","coordinates":[[[2.46821,50.48434],[2.46832,50.48411],[2.46608,50.48357],[2.46596,50.48378],[2.46821,50.48434]]]}},{"type":"Feature","properties":{"k":"LUZ","s":0.489},"geometry":{"type":"Polygon","coordinates":[[[2.46609,50.48357],[2.46844,50.48403],[2.46688,50.48319],[2.46652,50.48354],[2.46618,50.48344],[2.46609,50.48357]]]}},{"type":"Feature","properties":{"k":"MIS","s":1.216},"geometry":{"type":"Polygon","coordinates":[[[2.45996,50.48622],[2.45868,50.48553],[2.4578,50.48628],[2.45891,50.48686],[2.45996,50.48622]]]}},{"type":"Feature","properties":{"k":"PPH","s":1.039},"geometry":{"type":"Polygon","coordinates":[[[2.4602,50.48637],[2.46061,50.4856],[2.46053,50.48551],[2.46006,50.48567],[2.45945,50.48486],[2.45904,50.48485],[2.45868,50.48546],[2.4602,50.48637]]]}},{"type":"Feature","properties":{"k":"LUZ","s":0.211},"geometry":{"type":"Polygon","coordinates":[[[2.45799,50.48461],[2.45741,50.48462],[2.45716,50.48488],[2.4587,50.48537],[2.45765,50.48501],[2.45799,50.48461]]]}},{"type":"Feature","properties":{"k":"PPH","s":0.222},"geometry":{"type":"Polygon","coordinates":[[[2.45603,50.48489],[2.456,50.48436],[2.45551,50.48439],[2.45558,50.48504],[2.45603,50.48489]]]}},{"type":"Feature","properties":{"k":"PTR","s":0.242},"geometry":{"type":"Polygon","coordinates":[[[2.45679,50.48434],[2.456,50.48438],[2.45603,50.48489],[2.45681,50.48465],[2.45679,50.48434]]]}},{"type":"Feature","properties":{"k":"PPH","s":0.343},"geometry":{"type":"Polygon","coordinates":[[[2.45558,50.48504],[2.45551,50.48441],[2.45486,50.48445],[2.45498,50.48517],[2.45558,50.48504]]]}},{"type":"Feature","properties":{"k":"PPH","s":0.331},"geometry":{"type":"Polygon","coordinates":[[[2.45654,50.48539],[2.45707,50.48497],[2.45702,50.48473],[2.45593,50.48498],[2.45654,50.48539]]]}},{"type":"Feature","properties":{"k":"CZH","s":0.608},"geometry":{"type":"Polygon","coordinates":[[[2.45735,50.48669],[2.45787,50.4859],[2.45711,50.48567],[2.45647,50.4864],[2.45735,50.48669]]]}},{"type":"Feature","properties":{"k":"CZH","s":8.327},"geometry":{"type":"Polygon","coordinates":[[[2.45662,50.48772],[2.45742,50.48671],[2.45645,50.4864],[2.45711,50.48567],[2.45787,50.4859],[2.45864,50.48541],[2.45716,50.48488],[2.45654,50.48539],[2.45593,50.48498],[2.45373,50.48543],[2.45287,50.48714],[2.45462,50.48747],[2.45401,50.48859],[2.45662,50.48772]]]}},{"type":"Feature","properties":{"k":"POR","s":1.008},"geometry":{"type":"Polygon","coordinates":[[[2.45854,50.48714],[2.45752,50.48665],[2.4573,50.48716],[2.45651,50.48787],[2.45735,50.48812],[2.45854,50.48714]]]}},{"type":"Feature","properties":{"k":"MIS","s":4.313},"geometry":{"type":"Polygon","coordinates":[[[2.4576,50.49103],[2.45643,50.49081],[2.45648,50.49064],[2.45525,50.49042],[2.45567,50.48967],[2.45537,50.4896],[2.45541,50.48913],[2.45497,50.48858],[2.45457,50.48978],[2.45525,50.4898],[2.45452,50.49112],[2.45603,50.49148],[2.45569,50.49178],[2.45702,50.49211],[2.45725,50.49176],[2.45998,50.49233],[2.46036,50.49183],[2.45928,50.49148],[2.45747,50.49123],[2.4576,50.49103]]]}},{"type":"Feature","properties":{"k":"BTN","s":7.004},"geometry":{"type":"Polygon","coordinates":[[[2.45682,50.49246],[2.4554,50.49206],[2.45416,50.4932],[2.45779,50.49431],[2.45827,50.49356],[2.45924,50.49387],[2.46079,50.49273],[2.45725,50.49177],[2.45682,50.49246]]]}},{"type":"Feature","properties":{"k":"POT","s":0.22},"geometry":{"type":"Polygon","coordinates":[[[2.45886,50.49396],[2.45924,50.49387],[2.45827,50.49356],[2.45781,50.49428],[2.45853,50.49379],[2.45886,50.49396]]]}},{"type":"Feature","properties":{"k":"MIS","s":0.774},"geometry":{"type":"Polygon","coordinates":[[[2.46137,50.49232],[2.46036,50.49183],[2.45998,50.49234],[2.45725,50.49177],[2.46079,50.49273],[2.46137,50.49232]]]}},{"type":"Feature","properties":{"k":"BTH","s":5.249},"geometry":{"type":"Polygon","coordinates":[[[2.45648,50.49071],[2.45762,50.49101],[2.45755,50.49113],[2.45934,50.49144],[2.46073,50.49188],[2.46141,50.49229],[2.46263,50.49142],[2.45842,50.4901],[2.45821,50.49028],[2.4557,50.48963],[2.45528,50.49037],[2.4565,50.49059],[2.45648,50.49071]]]}},{"type":"Feature","properties":{"k":"PTC","s":0.238},"geometry":{"type":"Polygon","coordinates":[[[2.45185,50.49519],[2.45178,50.49524],[2.45509,50.4966],[2.45185,50.49519]]]}},{"type":"Feature","properties":{"k":"PHF","s":0.009},"geometry":{"type":"Polygon","coordinates":[[[2.45076,50.49482],[2.45078,50.4948],[2.44991,50.49447],[2.45076,50.49482]]]}},{"type":"Feature","properties":{"k":"POR","s":3.062},"geometry":{"type":"Polygon","coordinates":[[[2.44549,50.49209],[2.44497,50.49235],[2.44394,50.49257],[2.44872,50.49398],[2.44928,50.49322],[2.44549,50.49209]]]}},{"type":"Feature","properties":{"k":"PHF","s":7.327},"geometry":{"type":"Polygon","coordinates":[[[2.44217,50.49188],[2.44336,50.4926],[2.44624,50.49147],[2.4408,50.48904],[2.44028,50.49026],[2.44065,50.49037],[2.44217,50.49188]]]}},{"type":"Feature","properties":{"k":"MIS","s":0.209},"geometry":{"type":"Polygon","coordinates":[[[2.44596,50.49175],[2.44547,50.49209],[2.44566,50.49214],[2.44701,50.49126],[2.44679,50.4912],[2.44596,50.49175]]]}},{"type":"Feature","properties":{"k":"BTH","s":3.361},"geometry":{"type":"Polygon","coordinates":[[[2.44927,50.49322],[2.45002,50.49217],[2.44701,50.49126],[2.44566,50.49214],[2.44927,50.49322]]]}},{"type":"Feature","properties":{"k":"PTC","s":1.489},"geometry":{"type":"Polygon","coordinates":[[[2.44895,50.49014],[2.44822,50.49036],[2.4468,50.49119],[2.44817,50.49161],[2.44956,50.49032],[2.44895,50.49014]]]}},{"type":"Feature","properties":{"k":"LIF","s":5.021},"geometry":{"type":"Polygon","coordinates":[[[2.44956,50.49032],[2.44817,50.49161],[2.45002,50.49217],[2.44879,50.49401],[2.44904,50.49411],[2.45254,50.49117],[2.44956,50.49032]]]}},{"type":"Feature","properties":{"k":"PHF","s":6.137},"geometry":{"type":"Polygon","coordinates":[[[2.45254,50.49117],[2.44904,50.49411],[2.45078,50.4948],[2.45443,50.49171],[2.45254,50.49117]]]}},{"type":"Feature","properties":{"k":"BTH","s":12.872},"geometry":{"type":"Polygon","coordinates":[[[2.45533,50.4967],[2.45832,50.49452],[2.45781,50.49428],[2.45415,50.49321],[2.45539,50.49206],[2.45443,50.49171],[2.45076,50.49482],[2.45533,50.4967]]]}},{"type":"Feature","properties":{"k":"BTN","s":0.026},"geometry":{"type":"Polygon","coordinates":[[[2.45412,50.49065],[2.45402,50.49084],[2.45411,50.49071],[2.45479,50.49061],[2.45412,50.49065]]]}},{"type":"Feature","properties":{"k":"BTN","s":5.404},"geometry":{"type":"Polygon","coordinates":[[[2.45169,50.49097],[2.45363,50.49142],[2.45539,50.49205],[2.45595,50.49146],[2.45392,50.49098],[2.4541,50.49068],[2.4541,50.49067],[2.45411,50.49065],[2.45478,50.49061],[2.45517,50.48994],[2.4534,50.4899],[2.45381,50.48869],[2.45295,50.48869],[2.45204,50.4889],[2.45131,50.49],[2.45222,50.49014],[2.45169,50.49097]]]}},{"type":"Feature","properties":{"k":"MIS","s":1.03},"geometry":{"type":"Polygon","coordinates":[[[2.45457,50.48978],[2.45494,50.48854],[2.45384,50.48869],[2.45354,50.48975],[2.45457,50.48978]]]}},{"type":"Feature","properties":{"k":"MIS","s":2.271},"geometry":{"type":"Polygon","coordinates":[[[2.44896,50.49014],[2.45171,50.49098],[2.45216,50.49013],[2.45131,50.49],[2.45203,50.4889],[2.44896,50.49014]]]}},{"type":"Feature","properties":{"k":"CZH","s":11.148},"geometry":{"type":"Polygon","coordinates":[[[2.44898,50.48586],[2.44778,50.48877],[2.45097,50.48922],[2.45199,50.48886],[2.45373,50.48543],[2.45266,50.48574],[2.44898,50.48586]]]}},{"type":"Feature","properties":{"k":"PTC","s":2.075},"geometry":{"type":"Polygon","coordinates":[[[2.45401,50.48859],[2.45462,50.48747],[2.45287,50.48714],[2.45203,50.48885],[2.45401,50.48859]]]}},{"type":"Feature","properties":{"k":"LUZ","s":0.132},"geometry":{"type":"Polygon","coordinates":[[[2.45248,50.4855],[2.4525,50.48573],[2.45352,50.48547],[2.45248,50.4855]]]}},{"type":"Feature","properties":{"k":"PPH","s":0.136},"geometry":{"type":"Polygon","coordinates":[[[2.45486,50.48448],[2.45462,50.48448],[2.45475,50.48521],[2.45498,50.48518],[2.45486,50.48448]]]}},{"type":"Feature","properties":{"k":"PPH","s":0.307},"geometry":{"type":"Polygon","coordinates":[[[2.45442,50.48448],[2.45389,50.48458],[2.45407,50.48532],[2.45455,50.48525],[2.45442,50.48448]]]}},{"type":"Feature","properties":{"k":"PPH","s":0.347},"geometry":{"type":"Polygon","coordinates":[[[2.45141,50.48387],[2.45143,50.48425],[2.45218,50.48418],[2.45207,50.48339],[2.45169,50.48345],[2.45174,50.48387],[2.45141,50.48387]]]}},{"type":"Feature","properties":{"k":"PPH","s":0.165},"geometry":{"type":"Polygon","coordinates":[[[2.45014,50.48425],[2.45018,50.48348],[2.44993,50.48349],[2.44984,50.48423],[2.45014,50.48425]]]}},{"type":"Feature","properties":{"k":"BTH","s":3.216},"geometry":{"type":"Polygon","coordinates":[[[2.45114,50.46437],[2.45,50.46492],[2.45211,50.46614],[2.45325,50.4658],[2.45382,50.46525],[2.45195,50.46418],[2.45114,50.46437]]]}},{"type":"Feature","properties":{"k":"PTR","s":0.118},"geometry":{"type":"Polygon","coordinates":[[[2.44058,50.48119],[2.44049,50.4807],[2.44016,50.48068],[2.44033,50.48121],[2.44058,50.48119]]]}},{"type":"Feature","properties":{"k":"PPH","s":1.221},"geometry":{"type":"Polygon","coordinates":[[[2.44105,50.48029],[2.44356,50.48028],[2.4436,50.47978],[2.44083,50.47969],[2.44105,50.48029]]]}},{"type":"Feature","properties":{"k":"PTR","s":5.806},"geometry":{"type":"Polygon","coordinates":[[[2.44016,50.47686],[2.44007,50.47796],[2.44008,50.47796],[2.44031,50.47904],[2.44099,50.47903],[2.44083,50.47968],[2.44278,50.47975],[2.44297,50.47683],[2.44016,50.47686]]]}},{"type":"Feature","properties":{"k":"BTH","s":10.029},"geometry":{"type":"Polygon","coordinates":[[[2.43544,50.47973],[2.43771,50.47994],[2.43896,50.47682],[2.43946,50.47411],[2.4392,50.47412],[2.43881,50.47453],[2.43755,50.47523],[2.4362,50.47645],[2.43544,50.47973]]]}},{"type":"Feature","properties":{"k":"BTH","s":9.142},"geometry":{"type":"Polygon","coordinates":[[[2.4341,50.48006],[2.44041,50.48023],[2.44,50.4775],[2.44039,50.47487],[2.44004,50.4737],[2.44072,50.47333],[2.43953,50.47262],[2.43902,50.47329],[2.43952,50.4741],[2.43962,50.47489],[2.4392,50.47665],[2.43848,50.47774],[2.43772,50.47995],[2.43323,50.47952],[2.4341,50.48006]]]}},{"type":"Feature","properties":{"k":"BTH","s":4.92},"geometry":{"type":"Polygon","coordinates":[[[2.44409,50.47562],[2.44309,50.47571],[2.44305,50.47538],[2.44041,50.47546],[2.44017,50.47686],[2.44631,50.4768],[2.44409,50.47562]]]}},{"type":"Feature","properties":{"k":"MIS","s":0.204},"geometry":{"type":"Polygon","coordinates":[[[2.44609,50.47593],[2.445,50.4761],[2.44532,50.47633],[2.44619,50.47612],[2.44609,50.47593]]]}},{"type":"Feature","properties":{"k":"PHF","s":3.056},"geometry":{"type":"Polygon","coordinates":[[[2.44418,50.47562],[2.445,50.47618],[2.4461,50.47592],[2.44621,50.47612],[2.44533,50.47634],[2.4464,50.47678],[2.44744,50.47749],[2.44648,50.47456],[2.445,50.47463],[2.44527,50.47539],[2.44418,50.47562]]]}},{"type":"Feature","properties":{"k":"BTH","s":2.919},"geometry":{"type":"Polygon","coordinates":[[[2.44834,50.47606],[2.44822,50.47455],[2.44647,50.47451],[2.44744,50.47749],[2.448,50.47792],[2.44826,50.47789],[2.44758,50.47641],[2.44887,50.47619],[2.44834,50.47606]]]}},{"type":"Feature","properties":{"k":"BTH","s":1.523},"geometry":{"type":"Polygon","coordinates":[[[2.44758,50.47641],[2.44826,50.47789],[2.448,50.47792],[2.44861,50.47837],[2.44852,50.47762],[2.44938,50.47746],[2.44888,50.47618],[2.44758,50.47641]]]}},{"type":"Feature","properties":{"k":"PHF","s":12.016},"geometry":{"type":"Polygon","coordinates":[[[2.44356,50.48029],[2.44546,50.47998],[2.44876,50.47905],[2.44866,50.47847],[2.44631,50.4768],[2.44297,50.47683],[2.44278,50.47975],[2.4436,50.47978],[2.44356,50.48029]],[[2.44646,50.47804],[2.44645,50.47777],[2.44646,50.47777],[2.44646,50.47804]]]}},{"type":"Feature","properties":{"k":"PTC","s":0.81},"geometry":{"type":"Polygon","coordinates":[[[2.44409,50.48052],[2.44438,50.48111],[2.44572,50.48101],[2.44558,50.48021],[2.44409,50.48052]]]}},{"type":"Feature","properties":{"k":"JAC","s":1.062},"geometry":{"type":"Polygon","coordinates":[[[2.44417,50.4811],[2.44402,50.48057],[2.44177,50.48063],[2.44164,50.48124],[2.44417,50.4811]]]}},{"type":"Feature","properties":{"k":"PTC","s":6.47},"geometry":{"type":"Polygon","coordinates":[[[2.44313,50.4829],[2.44518,50.48291],[2.44491,50.48121],[2.44023,50.48132],[2.44133,50.48278],[2.44127,50.4835],[2.44338,50.48351],[2.44313,50.4829]]]}},{"type":"Feature","properties":{"k":"PPH","s":0.977},"geometry":{"type":"Polygon","coordinates":[[[2.44689,50.48101],[2.44684,50.48097],[2.44626,50.48103],[2.4461,50.48309],[2.44667,50.4831],[2.44689,50.48101]]]}},{"type":"Feature","properties":{"k":"ORH","s":1.607},"geometry":{"type":"Polygon","coordinates":[[[2.44521,50.48293],[2.4461,50.48294],[2.44627,50.48106],[2.44493,50.4812],[2.44521,50.48293]]]}},{"type":"Feature","properties":{"k":"BTH","s":1.551},"geometry":{"type":"Polygon","coordinates":[[[2.44763,50.48186],[2.44772,50.48092],[2.44696,50.48107],[2.44671,50.48354],[2.44708,50.48357],[2.44746,50.48339],[2.44763,50.48186]]]}},{"type":"Feature","properties":{"k":"PTC","s":0.588},"geometry":{"type":"Polygon","coordinates":[[[2.44778,50.48333],[2.44803,50.48088],[2.44773,50.48092],[2.44747,50.48333],[2.44778,50.48333]]]}},{"type":"Feature","properties":{"k":"LUZ","s":1.585},"geometry":{"type":"Polygon","coordinates":[[[2.44916,50.48277],[2.4486,50.48274],[2.44861,50.48081],[2.44803,50.48088],[2.44778,50.48332],[2.44899,50.48333],[2.44916,50.48277]]]}},{"type":"Feature","properties":{"k":"ORH","s":1.71},"geometry":{"type":"Polygon","coordinates":[[[2.44848,50.48072],[2.44848,50.47938],[2.44661,50.47992],[2.44668,50.4809],[2.44848,50.48072]]]}},{"type":"Feature","properties":{"k":"POR","s":0.716},"geometry":{"type":"Polygon","coordinates":[[[2.44668,50.4809],[2.44661,50.47992],[2.44558,50.48021],[2.44572,50.48101],[2.44668,50.4809]]]}},{"type":"Feature","properties":{"k":"PHF","s":0.654},"geometry":{"type":"Polygon","coordinates":[[[2.45181,50.47924],[2.45164,50.47878],[2.44992,50.47918],[2.45057,50.47966],[2.45181,50.47924]]]}},{"type":"Feature","properties":{"k":"PTC","s":0.075},"geometry":{"type":"Polygon","coordinates":[[[2.44917,50.48153],[2.44901,50.48072],[2.449,50.48072],[2.44902,50.48153],[2.44917,50.48153]]]}},{"type":"Feature","properties":{"k":"BTP","s":0.811},"geometry":{"type":"Polygon","coordinates":[[[2.44917,50.48153],[2.44902,50.48153],[2.449,50.48072],[2.449,50.48275],[2.44961,50.48254],[2.44937,50.48064],[2.44901,50.48072],[2.44917,50.48153]]]}},{"type":"Feature","properties":{"k":"BTA","s":0.036},"geometry":{"type":"Polygon","coordinates":[[[2.44962,50.4826],[2.44961,50.48254],[2.44926,50.48259],[2.4491,50.48276],[2.44962,50.4826]]]}},{"type":"Feature","properties":{"k":"PPH","s":0.481},"geometry":{"type":"Polygon","coordinates":[[[2.45066,50.48207],[2.45076,50.48302],[2.45096,50.48303],[2.45099,50.48273],[2.45161,50.48271],[2.45134,50.48198],[2.45066,50.48207]]]}},{"type":"Feature","properties":{"k":"PPH","s":1.346},"geometry":{"type":"Polygon","coordinates":[[[2.45134,50.48198],[2.45161,50.48269],[2.452,50.48262],[2.4511,50.48106],[2.44964,50.48127],[2.44973,50.48211],[2.45017,50.48208],[2.45015,50.48179],[2.45064,50.48176],[2.45069,50.48206],[2.45134,50.48198]]]}},{"type":"Feature","properties":{"k":"PPH","s":0.45},"geometry":{"type":"Polygon","coordinates":[[[2.45256,50.48185],[2.45176,50.48195],[2.45203,50.48264],[2.45282,50.48252],[2.45256,50.48185]]]}},{"type":"Feature","properties":{"k":"PPH","s":1.112},"geometry":{"type":"Polygon","coordinates":[[[2.45464,50.48208],[2.45461,50.48162],[2.45329,50.48135],[2.45345,50.48176],[2.4526,50.48189],[2.45285,50.48252],[2.45464,50.48208]]]}},{"type":"Feature","properties":{"k":"ORH","s":0.135},"geometry":{"type":"Polygon","coordinates":[[[2.45276,50.47824],[2.45355,50.47814],[2.45351,50.47799],[2.45274,50.47793],[2.45276,50.47824]]]}},{"type":"Feature","properties":{"k":"ORH","s":0.968},"geometry":{"type":"Polygon","coordinates":[[[2.45216,50.47785],[2.45008,50.47796],[2.45041,50.47858],[2.45268,50.47825],[2.45266,50.47796],[2.45216,50.47785]]]}},{"type":"Feature","properties":{"k":"MIS","s":1.351},"geometry":{"type":"Polygon","coordinates":[[[2.45037,50.47859],[2.45008,50.47795],[2.44936,50.47747],[2.44852,50.47762],[2.44861,50.47841],[2.44953,50.47881],[2.45037,50.47859]]]}},{"type":"Feature","properties":{"k":"BTH","s":1.0},"geometry":{"type":"Polygon","coordinates":[[[2.45083,50.47599],[2.45069,50.47781],[2.45136,50.47779],[2.45154,50.47595],[2.45083,50.47599]]]}},{"type":"Feature","properties":{"k":"MIS","s":0.998},"geometry":{"type":"Polygon","coordinates":[[[2.45002,50.47772],[2.45069,50.47781],[2.45083,50.47599],[2.45009,50.47603],[2.45002,50.47772]]]}},{"type":"Feature","properties":{"k":"ORH","s":1.298},"geometry":{"type":"Polygon","coordinates":[[[2.45002,50.47772],[2.45009,50.47603],[2.44885,50.47609],[2.44938,50.47746],[2.45008,50.47796],[2.45123,50.47791],[2.45124,50.47779],[2.45002,50.47772]]]}},{"type":"Feature","properties":{"k":"MDI","s":1.547},"geometry":{"type":"Polygon","coordinates":[[[2.45154,50.47595],[2.45136,50.47779],[2.45239,50.47782],[2.45261,50.47592],[2.45154,50.47595]]]}},{"type":"Feature","properties":{"k":"MIS","s":0.936},"geometry":{"type":"Polygon","coordinates":[[[2.45294,50.47794],[2.45325,50.47593],[2.45261,50.47592],[2.45239,50.47782],[2.45294,50.47794]]]}},{"type":"Feature","properties":{"k":"PHF","s":6.488},"geometry":{"type":"Polygon","coordinates":[[[2.45355,50.47814],[2.45533,50.47807],[2.45577,50.47601],[2.45504,50.47598],[2.45514,50.47534],[2.45294,50.47515],[2.45086,50.47526],[2.45096,50.47598],[2.45325,50.47593],[2.45294,50.47797],[2.45336,50.47798],[2.45355,50.47814]]]}},{"type":"Feature","properties":{"k":"MIS","s":0.745},"geometry":{"type":"Polygon","coordinates":[[[2.45222,50.47491],[2.45264,50.47371],[2.45166,50.47371],[2.45167,50.47499],[2.45222,50.47491]]]}},{"type":"Feature","properties":{"k":"BTH","s":3.603},"geometry":{"type":"Polygon","coordinates":[[[2.45325,50.47442],[2.45369,50.47369],[2.45355,50.47281],[2.45246,50.47278],[2.45289,50.47371],[2.45265,50.47372],[2.4522,50.47494],[2.45167,50.47499],[2.45166,50.47371],[2.45088,50.47371],[2.45106,50.47526],[2.45294,50.47515],[2.45514,50.47534],[2.45516,50.4751],[2.45449,50.47505],[2.45457,50.47453],[2.45325,50.47442]]]}},{"type":"Feature","properties":{"k":"BTH","s":0.934},"geometry":{"type":"Polygon","coordinates":[[[2.45362,50.47102],[2.45272,50.47213],[2.45332,50.47251],[2.45448,50.47122],[2.45362,50.47102]]]}},{"type":"Feature","properties":{"k":"PHF","s":0.963},"geometry":{"type":"Polygon","coordinates":[[[2.45225,50.47099],[2.45185,50.47159],[2.45269,50.47213],[2.4536,50.47099],[2.45308,50.47086],[2.45225,50.47099]]]}},{"type":"Feature","properties":{"k":"AVP","s":0.511},"geometry":{"type":"Polygon","coordinates":[[[2.45289,50.4737],[2.45246,50.47278],[2.45177,50.47276],[2.4522,50.47371],[2.45289,50.4737]]]}},{"type":"Feature","properties":{"k":"BTH","s":1.747},"geometry":{"type":"Polygon","coordinates":[[[2.45054,50.47178],[2.44994,50.47269],[2.45355,50.47276],[2.45218,50.47192],[2.45054,50.47178]]]}},{"type":"Feature","properties":{"k":"LUZ","s":0.104},"geometry":{"type":"Polygon","coordinates":[[[2.45178,50.47163],[2.45148,50.47144],[2.45122,50.47185],[2.45162,50.47185],[2.45178,50.47163]]]}},{"type":"Feature","properties":{"k":"ORH","s":0.4},"geometry":{"type":"Polygon","coordinates":[[[2.45116,50.47184],[2.45145,50.47141],[2.45096,50.47108],[2.45024,50.47172],[2.45116,50.47184]]]}},{"type":"Feature","properties":{"k":"ORH","s":1.091},"geometry":{"type":"Polygon","coordinates":[[[2.44997,50.47264],[2.45053,50.4718],[2.44938,50.47149],[2.44853,50.47252],[2.44997,50.47264]]]}},{"type":"Feature","properties":{"k":"BTH","s":0.465},"geometry":{"type":"Polygon","coordinates":[[[2.44939,50.47149],[2.44898,50.47135],[2.44803,50.47245],[2.44853,50.47251],[2.44939,50.47149]]]}},{"type":"Feature","properties":{"k":"BTN","s":2.846},"geometry":{"type":"Polygon","coordinates":[[[2.44885,50.47261],[2.44912,50.47389],[2.45072,50.47393],[2.45086,50.47526],[2.45105,50.47525],[2.45088,50.47371],[2.4522,50.47371],[2.45178,50.47276],[2.44885,50.47261]]]}},{"type":"Feature","properties":{"k":"MIS","s":0.55},"geometry":{"type":"Polygon","coordinates":[[[2.44624,50.47404],[2.4462,50.47404],[2.44485,50.47413],[2.44483,50.47413],[2.445,50.47463],[2.44634,50.47455],[2.44624,50.47404]]]}},{"type":"Feature","properties":{"k":"BTH","s":1.346},"geometry":{"type":"Polygon","coordinates":[[[2.44483,50.47413],[2.44353,50.47426],[2.44418,50.47562],[2.44527,50.47539],[2.44483,50.47413]]]}},{"type":"Feature","properties":{"k":"BTH","s":0.424},"geometry":{"type":"Polygon","coordinates":[[[2.44353,50.47426],[2.44249,50.47435],[2.44316,50.47467],[2.44411,50.47556],[2.44353,50.47426]]]}},{"type":"Feature","properties":{"k":"LUZ","s":0.353},"geometry":{"type":"Polygon","coordinates":[[[2.44305,50.47538],[2.44297,50.47472],[2.44233,50.47475],[2.44236,50.47543],[2.44305,50.47538]]]}},{"type":"Feature","properties":{"k":"BTH","s":1.078},"geometry":{"type":"Polygon","coordinates":[[[2.44177,50.47546],[2.44236,50.47543],[2.44233,50.47475],[2.44297,50.47472],[2.44309,50.47571],[2.44409,50.47562],[2.44282,50.47453],[2.44223,50.4743],[2.44229,50.47451],[2.44161,50.4746],[2.44177,50.47546]]]}},{"type":"Feature","properties":{"k":"BTH","s":15.994},"geometry":{"type":"Polygon","coordinates":[[[2.43991,50.47217],[2.44189,50.47309],[2.4423,50.47428],[2.44624,50.47404],[2.44633,50.47451],[2.44822,50.47455],[2.44834,50.47606],[2.45095,50.47598],[2.45072,50.47393],[2.44771,50.47385],[2.44735,50.47237],[2.44096,50.4716],[2.44038,50.47174],[2.43991,50.47217]]]}},{"type":"Feature","properties":{"k":"BTH","s":0.823},"geometry":{"type":"Polygon","coordinates":[[[2.44412,50.47119],[2.44396,50.47189],[2.44421,50.47162],[2.44506,50.47169],[2.445,50.472],[2.44574,50.47209],[2.44584,50.47126],[2.44412,50.47119]]]}},{"type":"Feature","properties":{"k":"BTH","s":1.525},"geometry":{"type":"Polygon","coordinates":[[[2.44775,50.47385],[2.44911,50.47387],[2.44885,50.4726],[2.44735,50.47237],[2.44775,50.47385]]]}},{"type":"Feature","properties":{"k":"ORH","s":0.455},"geometry":{"type":"Polygon","coordinates":[[[2.44866,50.46992],[2.44834,50.46968],[2.44719,50.47072],[2.44762,50.47087],[2.44866,50.46992]]]}},{"type":"Feature","properties":{"k":"AVP","s":1.069},"geometry":{"type":"Polygon","coordinates":[[[2.44829,50.4697],[2.44805,50.46897],[2.44617,50.47094],[2.44722,50.47068],[2.44829,50.4697]]]}},{"type":"Feature","properties":{"k":"ORH","s":5.56},"geometry":{"type":"Polygon","coordinates":[[[2.44574,50.47209],[2.44803,50.47244],[2.44898,50.47134],[2.44719,50.47072],[2.44616,50.47094],[2.44803,50.46894],[2.44719,50.46844],[2.44457,50.47122],[2.44584,50.47126],[2.44574,50.47209]]]}},{"type":"Feature","properties":{"k":"BTH","s":2.385},"geometry":{"type":"Polygon","coordinates":[[[2.44518,50.46922],[2.44325,50.4712],[2.44347,50.47121],[2.44303,50.47179],[2.44395,50.47189],[2.44412,50.47119],[2.44457,50.47122],[2.44625,50.46954],[2.44518,50.46922]]]}},{"type":"Feature","properties":{"k":"BTH","s":5.294},"geometry":{"type":"Polygon","coordinates":[[[2.44531,50.46909],[2.44411,50.4687],[2.44347,50.46929],[2.44243,50.46966],[2.44118,50.47037],[2.44073,50.47106],[2.44075,50.47143],[2.44303,50.47179],[2.44347,50.47121],[2.44324,50.4712],[2.44531,50.46909]]]}},{"type":"Feature","properties":{"k":"BTH","s":2.416},"geometry":{"type":"MultiPolygon","coordinates":[[[[2.44287,50.46718],[2.44241,50.46702],[2.44204,50.46751],[2.44142,50.46733],[2.44095,50.46802],[2.44369,50.46883],[2.4449,50.46781],[2.44385,50.46748],[2.44342,50.46808],[2.44243,50.46777],[2.44281,50.46726],[2.44287,50.46718]]]]}},{"type":"Feature","properties":{"k":"BTH","s":0.537},"geometry":{"type":"Polygon","coordinates":[[[2.44342,50.46806],[2.44385,50.46748],[2.44288,50.46717],[2.4425,50.46779],[2.44342,50.46806]]]}},{"type":"Feature","properties":{"k":"BTH","s":1.198},"geometry":{"type":"Polygon","coordinates":[[[2.44618,50.46801],[2.44538,50.46776],[2.44502,50.46784],[2.44412,50.4687],[2.4453,50.46908],[2.44618,50.46801]]]}},{"type":"Feature","properties":{"k":"PTC","s":1.219},"geometry":{"type":"Polygon","coordinates":[[[2.44517,50.46921],[2.44623,50.46953],[2.44719,50.46844],[2.44618,50.46801],[2.44517,50.46921]]]}},{"type":"Feature","properties":{"k":"BTH","s":0.853},"geometry":{"type":"Polygon","coordinates":[[[2.44792,50.46869],[2.44923,50.46783],[2.44853,50.46748],[2.44719,50.46835],[2.44792,50.46869]]]}},{"type":"Feature","properties":{"k":"CZH","s":4.075},"geometry":{"type":"Polygon","coordinates":[[[2.45007,50.46689],[2.44985,50.46704],[2.44968,50.46697],[2.44873,50.46757],[2.44923,50.46783],[2.44794,50.4687],[2.44871,50.46985],[2.45172,50.46774],[2.45007,50.46689]]]}},{"type":"Feature","properties":{"k":"BTH","s":4.934},"geometry":{"type":"Polygon","coordinates":[[[2.45037,50.47063],[2.4516,50.46928],[2.45107,50.46899],[2.45306,50.46764],[2.45258,50.46736],[2.45333,50.46679],[2.45261,50.46642],[2.45338,50.46591],[2.45324,50.4658],[2.45211,50.46614],[2.45133,50.46667],[2.45208,50.46708],[2.45137,50.46754],[2.45172,50.46774],[2.44871,50.46985],[2.45037,50.47063]]]}},{"type":"Feature","properties":{"k":"BTH","s":1.762},"geometry":{"type":"Polygon","coordinates":[[[2.44866,50.46992],[2.44762,50.47087],[2.44942,50.47148],[2.45036,50.47068],[2.44866,50.46992]]]}},{"type":"Feature","properties":{"k":"BTH","s":0.604},"geometry":{"type":"Polygon","coordinates":[[[2.45037,50.47069],[2.44943,50.47148],[2.45024,50.47171],[2.45095,50.47107],[2.45037,50.47069]]]}},{"type":"Feature","properties":{"k":"LUZ","s":0.196},"geometry":{"type":"Polygon","coordinates":[[[2.45172,50.47111],[2.45123,50.47118],[2.45183,50.47158],[2.45222,50.47101],[2.45172,50.47111]]]}},{"type":"Feature","properties":{"k":"BTH","s":0.848},"geometry":{"type":"Polygon","coordinates":[[[2.45196,50.46946],[2.45073,50.47084],[2.45118,50.47113],[2.45253,50.4697],[2.45196,50.46946]]]}},{"type":"Feature","properties":{"k":"ORP","s":0.564},"geometry":{"type":"Polygon","coordinates":[[[2.4516,50.46928],[2.45038,50.47062],[2.45073,50.47084],[2.45194,50.46946],[2.4516,50.46928]]]}},{"type":"Feature","properties":{"k":"CZH","s":0.397},"geometry":{"type":"Polygon","coordinates":[[[2.45331,50.47055],[2.45308,50.47086],[2.45455,50.47121],[2.45473,50.47094],[2.45331,50.47055]]]}},{"type":"Feature","properties":{"k":"BTH","s":2.916},"geometry":{"type":"Polygon","coordinates":[[[2.45513,50.46849],[2.45331,50.47055],[2.45473,50.47094],[2.45517,50.47045],[2.45605,50.47079],[2.45588,50.47013],[2.456,50.46946],[2.45579,50.46903],[2.45513,50.46849]]]}},{"type":"Feature","properties":{"k":"PTC","s":5.307},"geometry":{"type":"Polygon","coordinates":[[[2.4512,50.47116],[2.45308,50.47086],[2.45514,50.46847],[2.4548,50.46809],[2.45365,50.46755],[2.45142,50.46918],[2.45253,50.4697],[2.4512,50.47116]]]}},{"type":"Feature","properties":{"k":"BTH","s":0.436},"geometry":{"type":"Polygon","coordinates":[[[2.45269,50.46825],[2.4524,50.46808],[2.45107,50.46899],[2.45142,50.46918],[2.45269,50.46825]]]}},{"type":"Feature","properties":{"k":"BTH","s":0.594},"geometry":{"type":"Polygon","coordinates":[[[2.4524,50.46808],[2.45269,50.46825],[2.45387,50.46738],[2.4531,50.46697],[2.45258,50.46736],[2.45306,50.46763],[2.4524,50.46808]]]}},{"type":"Feature","properties":{"k":"CAR","s":0.292},"geometry":{"type":"Polygon","coordinates":[[[2.45594,50.46827],[2.45628,50.46839],[2.45706,50.46765],[2.4568,50.46745],[2.45594,50.46827]]]}},{"type":"Feature","properties":{"k":"PTC","s":0.244},"geometry":{"type":"Polygon","coordinates":[[[2.45535,50.46864],[2.45552,50.46876],[2.45682,50.46744],[2.4567,50.46732],[2.45535,50.46864]]]}},{"type":"Feature","properties":{"k":"BTH","s":0.198},"geometry":{"type":"Polygon","coordinates":[[[2.45552,50.46876],[2.45586,50.469],[2.45628,50.46839],[2.45594,50.46827],[2.45552,50.46876]]]}},{"type":"Feature","properties":{"k":"BTH","s":0.371},"geometry":{"type":"Polygon","coordinates":[[[2.45559,50.47061],[2.45517,50.47045],[2.45448,50.47127],[2.45494,50.47144],[2.45559,50.47061]]]}},{"type":"Feature","properties":{"k":"CZH","s":0.783},"geometry":{"type":"Polygon","coordinates":[[[2.45493,50.47145],[2.45631,50.47195],[2.45605,50.47079],[2.45559,50.47061],[2.45493,50.47145]]]}},{"type":"Feature","properties":{"k":"CZH","s":0.24},"geometry":{"type":"Polygon","coordinates":[[[2.45635,50.47176],[2.45637,50.47179],[2.45684,50.4711],[2.4562,50.4709],[2.45635,50.47176]]]}},{"type":"Feature","properties":{"k":"BTH","s":0.31},"geometry":{"type":"Polygon","coordinates":[[[2.45857,50.47061],[2.45819,50.47046],[2.45738,50.47131],[2.45766,50.47142],[2.45857,50.47061]]]}},{"type":"Feature","properties":{"k":"BTH","s":1.657},"geometry":{"type":"Polygon","coordinates":[[[2.45613,50.47082],[2.45737,50.4713],[2.45818,50.47045],[2.45608,50.46961],[2.45613,50.47082]]]}},{"type":"Feature","properties":{"k":"PPH","s":1.969},"geometry":{"type":"Polygon","coordinates":[[[2.45892,50.46983],[2.45712,50.46907],[2.4567,50.46985],[2.45939,50.47094],[2.4598,50.47019],[2.45892,50.46983]]]}},{"type":"Feature","properties":{"k":"JAC","s":0.47},"geometry":{"type":"Polygon","coordinates":[[[2.45765,50.47143],[2.45835,50.47172],[2.45873,50.47139],[2.4584,50.47125],[2.45893,50.47076],[2.45859,50.47062],[2.45765,50.47143]]]}},{"type":"Feature","properties":{"k":"MIS","s":0.645},"geometry":{"type":"Polygon","coordinates":[[[2.4594,50.47174],[2.46007,50.47123],[2.45893,50.47076],[2.4584,50.47125],[2.4594,50.47174]]]}},{"type":"Feature","properties":{"k":"PTR","s":0.357},"geometry":{"type":"Polygon","coordinates":[[[2.4599,50.47114],[2.46029,50.47038],[2.4598,50.47019],[2.45939,50.47094],[2.4599,50.47114]]]}},{"type":"Feature","properties":{"k":"MIS","s":0.813},"geometry":{"type":"Polygon","coordinates":[[[2.45993,50.47106],[2.46088,50.47161],[2.46172,50.47114],[2.46149,50.47086],[2.4602,50.47055],[2.45993,50.47106]]]}},{"type":"Feature","properties":{"k":"BTH","s":7.05},"geometry":{"type":"Polygon","coordinates":[[[2.46141,50.46912],[2.46002,50.46879],[2.45912,50.46694],[2.45704,50.46836],[2.45655,50.46813],[2.45608,50.46865],[2.46029,50.47038],[2.4602,50.47055],[2.4615,50.47087],[2.46141,50.46912]]]}},{"type":"Feature","properties":{"k":"BTH","s":1.165},"geometry":{"type":"Polygon","coordinates":[[[2.46198,50.46887],[2.46145,50.46891],[2.46178,50.47018],[2.46325,50.4698],[2.46289,50.4691],[2.46222,50.46927],[2.46198,50.46887]]]}},{"type":"Feature","properties":{"k":"MIS","s":0.579},"geometry":{"type":"Polygon","coordinates":[[[2.46176,50.46831],[2.46223,50.46926],[2.4629,50.4691],[2.4624,50.46814],[2.46176,50.46831]]]}},{"type":"Feature","properties":{"k":"BTH","s":2.456},"geometry":{"type":"Polygon","coordinates":[[[2.46337,50.46984],[2.46337,50.46986],[2.46493,50.46926],[2.46335,50.46758],[2.46225,50.4677],[2.46337,50.46984]]]}},{"type":"Feature","properties":{"k":"PHF","s":2.911},"geometry":{"type":"Polygon","coordinates":[[[2.46938,50.46929],[2.46714,50.46808],[2.46618,50.46896],[2.46536,50.46844],[2.46702,50.47019],[2.46938,50.46929]]]}},{"type":"Feature","properties":{"k":"MIS","s":4.593},"geometry":{"type":"Polygon","coordinates":[[[2.46536,50.46844],[2.46397,50.46756],[2.46339,50.4676],[2.4668,50.47115],[2.47026,50.46977],[2.46938,50.46929],[2.46702,50.47019],[2.46536,50.46844]]]}},{"type":"Feature","properties":{"k":"BTH","s":3.377},"geometry":{"type":"Polygon","coordinates":[[[2.46653,50.47089],[2.46497,50.46925],[2.46337,50.46986],[2.46433,50.47172],[2.46653,50.47089]]]}},{"type":"Feature","properties":{"k":"BTH","s":0.628},"geometry":{"type":"Polygon","coordinates":[[[2.46464,50.47198],[2.46678,50.47116],[2.46653,50.47089],[2.46433,50.47172],[2.46464,50.47198]]]}},{"type":"Feature","properties":{"k":"MIS","s":2.118},"geometry":{"type":"Polygon","coordinates":[[[2.46177,50.47018],[2.46211,50.47093],[2.46308,50.4718],[2.46409,50.4715],[2.46326,50.4698],[2.46177,50.47018]]]}},{"type":"Feature","properties":{"k":"LUZ","s":0.631},"geometry":{"type":"Polygon","coordinates":[[[2.46166,50.47118],[2.46089,50.47161],[2.46139,50.47221],[2.46235,50.47173],[2.46166,50.47118]]]}},{"type":"Feature","properties":{"k":"POR","s":1.321},"geometry":{"type":"Polygon","coordinates":[[[2.46207,50.47326],[2.46359,50.47301],[2.46232,50.47179],[2.46144,50.47226],[2.46207,50.47326]]]}},{"type":"Feature","properties":{"k":"PPH","s":0.776},"geometry":{"type":"Polygon","coordinates":[[[2.46531,50.47347],[2.4645,50.4731],[2.46329,50.47216],[2.46297,50.47239],[2.46475,50.47382],[2.46531,50.47347]]]}},{"type":"Feature","properties":{"k":"MIS","s":0.501},"geometry":{"type":"Polygon","coordinates":[[[2.46409,50.4715],[2.46308,50.4718],[2.46367,50.47237],[2.46452,50.47197],[2.46409,50.4715]]]}},{"type":"Feature","properties":{"k":"MIS","s":2.24},"geometry":{"type":"Polygon","coordinates":[[[2.46586,50.47151],[2.46463,50.47198],[2.46683,50.47369],[2.46758,50.4728],[2.46586,50.47151]]]}},{"type":"Feature","properties":{"k":"MIS","s":0.243},"geometry":{"type":"Polygon","coordinates":[[[2.46586,50.47377],[2.46637,50.47341],[2.46583,50.473],[2.46558,50.4736],[2.46586,50.47377]]]}},{"type":"Feature","properties":{"k":"CZH","s":1.251},"geometry":{"type":"Polygon","coordinates":[[[2.4645,50.4731],[2.46558,50.4736],[2.46583,50.473],[2.46452,50.47197],[2.46367,50.47237],[2.4645,50.4731]]]}},{"type":"Feature","properties":{"k":"PPH","s":0.063},"geometry":{"type":"Polygon","coordinates":[[[2.46484,50.4739],[2.46543,50.47355],[2.46531,50.47347],[2.46475,50.47382],[2.46484,50.4739]]]}},{"type":"Feature","properties":{"k":"PPH","s":0.546},"geometry":{"type":"Polygon","coordinates":[[[2.46561,50.47453],[2.46632,50.47408],[2.46546,50.47357],[2.46485,50.47391],[2.46561,50.47453]]]}},{"type":"Feature","properties":{"k":"MLG","s":0.381},"geometry":{"type":"Polygon","coordinates":[[[2.46688,50.47381],[2.46637,50.47341],[2.46583,50.47379],[2.46668,50.47429],[2.46688,50.47381]]]}},{"type":"Feature","properties":{"k":"PPH","s":0.25},"geometry":{"type":"Polygon","coordinates":[[[2.46556,50.47456],[2.4659,50.47481],[2.4666,50.47425],[2.46632,50.47408],[2.46556,50.47456]]]}},{"type":"Feature","properties":{"k":"PPH","s":0.402},"geometry":{"type":"Polygon","coordinates":[[[2.46641,50.47503],[2.46692,50.47524],[2.4668,50.47437],[2.4666,50.47425],[2.46594,50.47477],[2.46641,50.47503]]]}},{"type":"Feature","properties":{"k":"MIS","s":0.583},"geometry":{"type":"Polygon","coordinates":[[[2.46538,50.47443],[2.46496,50.47408],[2.46385,50.47486],[2.46416,50.47529],[2.46538,50.47443]]]}},{"type":"Feature","properties":{"k":"ORP","s":0.892},"geometry":{"type":"Polygon","coordinates":[[[2.46385,50.47485],[2.46498,50.47411],[2.46441,50.47364],[2.46316,50.47402],[2.46385,50.47485]]]}},{"type":"Feature","properties":{"k":"POR","s":0.343},"geometry":{"type":"Polygon","coordinates":[[[2.46293,50.47378],[2.46315,50.47403],[2.46441,50.47364],[2.46407,50.47336],[2.46293,50.47378]]]}},{"type":"Feature","properties":{"k":"POR","s":0.296},"geometry":{"type":"Polygon","coordinates":[[[2.46173,50.47358],[2.4627,50.47375],[2.46258,50.47321],[2.46175,50.47326],[2.46173,50.47358]]]}},{"type":"Feature","properties":{"k":"ORP","s":1.91},"geometry":{"type":"Polygon","coordinates":[[[2.46033,50.47435],[2.46297,50.47497],[2.46243,50.4755],[2.46116,50.47508],[2.46289,50.47585],[2.46381,50.4753],[2.46279,50.47429],[2.46073,50.47386],[2.46033,50.47435]]]}},{"type":"Feature","properties":{"k":"MIS","s":0.665},"geometry":{"type":"Polygon","coordinates":[[[2.46297,50.47497],[2.46165,50.47458],[2.46119,50.47504],[2.46244,50.47549],[2.46297,50.47497]]]}},{"type":"Feature","properties":{"k":"BTH","s":5.452},"geometry":{"type":"Polygon","coordinates":[[[2.45856,50.47333],[2.45865,50.47319],[2.45654,50.47257],[2.45701,50.47343],[2.45691,50.47427],[2.45898,50.47596],[2.46073,50.47386],[2.45856,50.47333]]]}},{"type":"Feature","properties":{"k":"POR","s":0.535},"geometry":{"type":"Polygon","coordinates":[[[2.45906,50.47278],[2.45888,50.47303],[2.46157,50.47354],[2.46167,50.47328],[2.45906,50.47278]]]}},{"type":"Feature","properties":{"k":"JAC","s":0.113},"geometry":{"type":"Polygon","coordinates":[[[2.46108,50.47222],[2.46133,50.47215],[2.46088,50.47161],[2.46073,50.47178],[2.46108,50.47222]]]}},{"type":"Feature","properties":{"k":"MIS","s":2.067},"geometry":{"type":"Polygon","coordinates":[[[2.46077,50.47309],[2.46104,50.47273],[2.46058,50.47244],[2.46108,50.47215],[2.46058,50.47152],[2.46007,50.47123],[2.45861,50.47247],[2.46077,50.47309]]]}},{"type":"Feature","properties":{"k":"BTH","s":0.281},"geometry":{"type":"Polygon","coordinates":[[[2.4576,50.47257],[2.45645,50.47215],[2.45653,50.47257],[2.45742,50.47281],[2.4576,50.47257]]]}},{"type":"Feature","properties":{"k":"PPH","s":1.671},"geometry":{"type":"Polygon","coordinates":[[[2.45915,50.47275],[2.45671,50.47127],[2.45637,50.47179],[2.45645,50.47215],[2.4576,50.47257],[2.45743,50.47281],[2.45865,50.47319],[2.45915,50.47275]]]}},{"type":"Feature","properties":{"k":"BTH","s":0.989},"geometry":{"type":"Polygon","coordinates":[[[2.45875,50.47137],[2.45835,50.47172],[2.45683,50.47112],[2.45672,50.47127],[2.45861,50.47247],[2.45939,50.47174],[2.45875,50.47137]]]}},{"type":"Feature","properties":{"k":"BTH","s":2.947},"geometry":{"type":"Polygon","coordinates":[[[2.45451,50.47129],[2.45336,50.47256],[2.45516,50.47338],[2.45528,50.47286],[2.45661,50.47296],[2.45631,50.47195],[2.45451,50.47129]]]}},{"type":"Feature","properties":{"k":"BTH","s":1.098},"geometry":{"type":"Polygon","coordinates":[[[2.45528,50.47286],[2.45516,50.47338],[2.4568,50.47415],[2.45684,50.47339],[2.45661,50.47296],[2.45528,50.47286]]]}},{"type":"Feature","properties":{"k":"BTN","s":5.621},"geometry":{"type":"Polygon","coordinates":[[[2.45457,50.47453],[2.45449,50.47505],[2.45516,50.4751],[2.45504,50.47598],[2.45702,50.47608],[2.45766,50.47504],[2.45653,50.47411],[2.45372,50.47281],[2.45355,50.47281],[2.45369,50.47369],[2.45325,50.47442],[2.45457,50.47453]]]}},{"type":"Feature","properties":{"k":"ORH","s":6.093},"geometry":{"type":"Polygon","coordinates":[[[2.45932,50.47841],[2.45961,50.47773],[2.45994,50.4778],[2.4602,50.47747],[2.4584,50.47624],[2.45881,50.47594],[2.45766,50.47504],[2.45702,50.47608],[2.45577,50.47601],[2.45547,50.47745],[2.45824,50.47781],[2.45804,50.47823],[2.45932,50.47841]]]}},{"type":"Feature","properties":{"k":"ORH","s":5.01},"geometry":{"type":"Polygon","coordinates":[[[2.46006,50.47681],[2.46086,50.4778],[2.46129,50.477],[2.46161,50.47707],[2.46289,50.47585],[2.46116,50.47508],[2.46148,50.47466],[2.46033,50.47435],[2.459,50.47594],[2.46006,50.47681]]]}},{"type":"Feature","properties":{"k":"PPH","s":0.664},"geometry":{"type":"Polygon","coordinates":[[[2.45975,50.47668],[2.45882,50.47595],[2.45842,50.47624],[2.46018,50.47745],[2.46034,50.47733],[2.45975,50.47668]]]}},{"type":"Feature","properties":{"k":"MIS","s":0.213},"geometry":{"type":"Polygon","coordinates":[[[2.46137,50.47702],[2.46091,50.47787],[2.46108,50.47811],[2.46161,50.47707],[2.46137,50.47702]]]}},{"type":"Feature","properties":{"k":"PPH","s":0.378},"geometry":{"type":"Polygon","coordinates":[[[2.45961,50.47773],[2.45935,50.47841],[2.46001,50.47851],[2.46031,50.47795],[2.45961,50.47773]]]}},{"type":"Feature","properties":{"k":"PTR","s":0.167},"geometry":{"type":"Polygon","coordinates":[[[2.4581,50.4792],[2.45804,50.47933],[2.45798,50.47949],[2.45816,50.47953],[2.45857,50.47852],[2.45834,50.47849],[2.4581,50.4792]]]}},{"type":"Feature","properties":{"k":"PPH","s":0.382},"geometry":{"type":"Polygon","coordinates":[[[2.4575,50.47889],[2.45778,50.47891],[2.45796,50.47845],[2.45728,50.47838],[2.45699,50.47933],[2.4573,50.47937],[2.4575,50.47889]]]}},{"type":"Feature","properties":{"k":"PPH","s":0.53},"geometry":{"type":"Polygon","coordinates":[[[2.45671,50.4793],[2.45697,50.47845],[2.4562,50.47833],[2.456,50.47924],[2.45671,50.4793]]]}},{"type":"Feature","properties":{"k":"PPH","s":0.406},"geometry":{"type":"Polygon","coordinates":[[[2.45823,50.47782],[2.45706,50.47766],[2.45693,50.47811],[2.45806,50.47819],[2.45823,50.47782]]]}},{"type":"Feature","properties":{"k":"PPH","s":0.405},"geometry":{"type":"Polygon","coordinates":[[[2.45549,50.47745],[2.45537,50.47806],[2.45629,50.47808],[2.45639,50.47757],[2.45549,50.47745]]]}},{"type":"Feature","properties":{"k":"PPH","s":0.569},"geometry":{"type":"Polygon","coordinates":[[[2.4582,50.47967],[2.45796,50.48005],[2.45762,50.47998],[2.45712,50.48167],[2.45757,50.48153],[2.4582,50.47967]]]}},{"type":"Feature","properties":{"k":"PPH","s":5.261},"geometry":{"type":"Polygon","coordinates":[[[2.45286,50.48029],[2.45301,50.48067],[2.45529,50.48167],[2.45529,50.48253],[2.45811,50.48246],[2.45803,50.48132],[2.45764,50.48132],[2.45757,50.48153],[2.45712,50.48167],[2.45753,50.48024],[2.45708,50.48017],[2.457,50.48033],[2.4567,50.48032],[2.45586,50.48018],[2.45619,50.48084],[2.45539,50.48082],[2.45563,50.47932],[2.45532,50.47932],[2.45505,50.48078],[2.45286,50.48029]]]}},{"type":"Feature","properties":{"k":"PPH","s":0.999},"geometry":{"type":"Polygon","coordinates":[[[2.45976,50.48236],[2.45969,50.48167],[2.45806,50.48166],[2.45811,50.48248],[2.45976,50.48236]]]}},{"type":"Feature","properties":{"k":"PPH","s":0.265},"geometry":{"type":"Polygon","coordinates":[[[2.46009,50.47889],[2.45977,50.47882],[2.45928,50.47967],[2.45943,50.47982],[2.46009,50.47889]]]}},{"type":"Feature","properties":{"k":"PPH","s":0.609},"geometry":{"type":"Polygon","coordinates":[[[2.46231,50.48248],[2.46283,50.48232],[2.46294,50.48199],[2.46203,50.48151],[2.46193,50.48197],[2.46149,50.48205],[2.46231,50.48248]]]}},{"type":"Feature","properties":{"k":"PPH","s":0.578},"geometry":{"type":"Polygon","coordinates":[[[2.46496,50.48317],[2.46527,50.48297],[2.46488,50.48272],[2.46498,50.48255],[2.46447,50.48218],[2.46409,50.48225],[2.46403,50.48278],[2.46505,50.48331],[2.46496,50.48317]]]}},{"type":"Feature","properties":{"k":"BTH","s":6.073},"geometry":{"type":"Polygon","coordinates":[[[2.46547,50.47629],[2.46504,50.47601],[2.46366,50.47745],[2.46493,50.47769],[2.46407,50.47916],[2.466,50.47947],[2.46781,50.47725],[2.46675,50.47673],[2.46654,50.47666],[2.46635,50.47685],[2.46536,50.47637],[2.46547,50.47629]]]}},{"type":"Feature","properties":{"k":"POR","s":1.759},"geometry":{"type":"Polygon","coordinates":[[[2.46262,50.47831],[2.46262,50.47832],[2.46241,50.47875],[2.46408,50.47916],[2.46488,50.47769],[2.46366,50.47745],[2.46315,50.47843],[2.46301,50.4784],[2.46262,50.47831]]]}},{"type":"Feature","properties":{"k":"TRE","s":0.046},"geometry":{"type":"Polygon","coordinates":[[[2.46148,50.47868],[2.46204,50.47879],[2.46207,50.47872],[2.46156,50.47855],[2.46148,50.47868]]]}},{"type":"Feature","properties":{"k":"POR","s":0.435},"geometry":{"type":"Polygon","coordinates":[[[2.46264,50.47831],[2.46122,50.47803],[2.46154,50.47847],[2.46233,50.47876],[2.46264,50.47831]]]}},{"type":"Feature","properties":{"k":"BTH","s":1.144},"geometry":{"type":"Polygon","coordinates":[[[2.46123,50.47801],[2.46314,50.47843],[2.4635,50.47774],[2.46155,50.47735],[2.46123,50.47801]]]}},{"type":"Feature","properties":{"k":"BTH","s":0.766},"geometry":{"type":"Polygon","coordinates":[[[2.46376,50.47731],[2.46178,50.4769],[2.46155,50.47735],[2.46351,50.47774],[2.46376,50.47731]]]}},{"type":"Feature","properties":{"k":"LUZ","s":0.833},"geometry":{"type":"Polygon","coordinates":[[[2.46411,50.47591],[2.46306,50.47716],[2.46376,50.47731],[2.46472,50.47628],[2.46411,50.47591]]]}},{"type":"Feature","properties":{"k":"BTH","s":0.338},"geometry":{"type":"Polygon","coordinates":[[[2.46374,50.47622],[2.46349,50.4761],[2.46263,50.47706],[2.46306,50.47716],[2.46374,50.47622]]]}},{"type":"Feature","properties":{"k":"MIS","s":0.726},"geometry":{"type":"Polygon","coordinates":[[[2.46176,50.47687],[2.46178,50.4769],[2.46262,50.47706],[2.46347,50.47611],[2.463,50.47583],[2.46176,50.47687]]]}},{"type":"Feature","properties":{"k":"BTH","s":0.268},"geometry":{"type":"Polygon","coordinates":[[[2.46374,50.47622],[2.46405,50.4759],[2.46351,50.47554],[2.46305,50.4758],[2.46374,50.47622]]]}},{"type":"Feature","properties":{"k":"PPH","s":0.482},"geometry":{"type":"Polygon","coordinates":[[[2.46405,50.47522],[2.4635,50.47553],[2.46469,50.47626],[2.465,50.476],[2.46405,50.47522]]]}},{"type":"Feature","properties":{"k":"PPH","s":3.154},"geometry":{"type":"Polygon","coordinates":[[[2.46458,50.47568],[2.46548,50.47628],[2.46536,50.47637],[2.46635,50.47685],[2.46654,50.47666],[2.46739,50.47696],[2.46771,50.47668],[2.46727,50.47643],[2.46737,50.47628],[2.46704,50.47589],[2.46644,50.47551],[2.46538,50.47443],[2.46416,50.47529],[2.46458,50.47568]]]}},{"type":"Feature","properties":{"k":"PPH","s":0.335},"geometry":{"type":"Polygon","coordinates":[[[2.46765,50.47714],[2.46875,50.47756],[2.46891,50.47748],[2.46771,50.47668],[2.4675,50.47688],[2.46765,50.47714]]]}},{"type":"Feature","properties":{"k":"BTH","s":1.298},"geometry":{"type":"Polygon","coordinates":[[[2.46881,50.47654],[2.46778,50.47619],[2.4682,50.47677],[2.4702,50.47806],[2.47062,50.4778],[2.47054,50.47752],[2.46881,50.47654]]]}},{"type":"Feature","properties":{"k":"PHF","s":0.749},"geometry":{"type":"Polygon","coordinates":[[[2.47215,50.47746],[2.4718,50.47783],[2.4733,50.4785],[2.47382,50.47803],[2.47215,50.47746]]]}},{"type":"Feature","properties":{"k":"PPH","s":2.066},"geometry":{"type":"Polygon","coordinates":[[[2.47213,50.47909],[2.47258,50.47873],[2.47421,50.48026],[2.47429,50.48019],[2.4745,50.48038],[2.47481,50.4802],[2.47424,50.47967],[2.47437,50.4796],[2.47438,50.47959],[2.47439,50.47959],[2.47449,50.47955],[2.4745,50.47953],[2.47453,50.47953],[2.47478,50.47942],[2.47495,50.47934],[2.47469,50.47916],[2.47153,50.47783],[2.47213,50.47909]],[[2.47481,50.47939],[2.47482,50.47939],[2.47478,50.47942],[2.47481,50.47939]],[[2.47161,50.47792],[2.47162,50.47794],[2.47161,50.47795],[2.47161,50.47792]],[[2.47323,50.47925],[2.47326,50.47923],[2.47328,50.47924],[2.47323,50.47925]],[[2.47337,50.47938],[2.47338,50.47937],[2.47342,50.47938],[2.47337,50.47938]]]}},{"type":"Feature","properties":{"k":"ORH","s":6.227},"geometry":{"type":"Polygon","coordinates":[[[2.46836,50.47965],[2.46996,50.47995],[2.4701,50.47981],[2.47036,50.47988],[2.47027,50.48004],[2.47083,50.48019],[2.47109,50.4798],[2.47028,50.47959],[2.4707,50.47915],[2.47034,50.47901],[2.47073,50.47857],[2.46969,50.47796],[2.46781,50.47725],[2.466,50.47947],[2.46836,50.47965]]]}},{"type":"Feature","properties":{"k":"BTH","s":0.478},"geometry":{"type":"Polygon","coordinates":[[[2.47339,50.48003],[2.47287,50.48056],[2.4741,50.48076],[2.47435,50.48046],[2.47339,50.48003]]]}},{"type":"Feature","properties":{"k":"PPH","s":0.306},"geometry":{"type":"Polygon","coordinates":[[[2.47145,50.47944],[2.4707,50.47915],[2.47028,50.47959],[2.47105,50.47979],[2.47145,50.47944]]]}},{"type":"Feature","properties":{"k":"PTR","s":0.681},"geometry":{"type":"Polygon","coordinates":[[[2.4737,50.47968],[2.47258,50.47873],[2.47212,50.4791],[2.47381,50.48017],[2.47421,50.48026],[2.4737,50.47968]]]}},{"type":"Feature","properties":{"k":"ORH","s":0.206},"geometry":{"type":"Polygon","coordinates":[[[2.47742,50.47769],[2.47877,50.47899],[2.47878,50.47898],[2.47799,50.47792],[2.47742,50.47769]]]}},{"type":"Feature","properties":{"k":"SPH","s":0.887},"geometry":{"type":"Polygon","coordinates":[[[2.47462,50.47854],[2.47528,50.47896],[2.47607,50.47863],[2.47633,50.47898],[2.47693,50.47872],[2.47657,50.47807],[2.47655,50.47804],[2.47462,50.47854]]]}},{"type":"Feature","properties":{"k":"PHF","s":0.319},"geometry":{"type":"Polygon","coordinates":[[[2.47658,50.47799],[2.47687,50.47859],[2.47712,50.47849],[2.47693,50.47805],[2.47624,50.4779],[2.4753,50.47814],[2.47501,50.4784],[2.47658,50.47799]]]}},{"type":"Feature","properties":{"k":"ORH","s":0.345},"geometry":{"type":"MultiPolygon","coordinates":[[[[2.47706,50.47713],[2.47747,50.47766],[2.47765,50.47765],[2.47655,50.47593],[2.47706,50.47713]]]]}},{"type":"Feature","properties":{"k":"PHF","s":19.744},"geometry":{"type":"Polygon","coordinates":[[[2.47116,50.47616],[2.47148,50.47768],[2.4718,50.47783],[2.47215,50.47746],[2.47382,50.47803],[2.4733,50.4785],[2.47477,50.47919],[2.47627,50.4803],[2.47685,50.47993],[2.47697,50.48002],[2.47759,50.47974],[2.47804,50.48012],[2.47922,50.4793],[2.47702,50.47716],[2.47638,50.4758],[2.47589,50.47389],[2.47422,50.4743],[2.47415,50.47396],[2.47305,50.47394],[2.47116,50.47616]],[[2.47564,50.47425],[2.47564,50.47429],[2.4756,50.47429],[2.47564,50.47425]],[[2.4753,50.47814],[2.47624,50.4779],[2.47693,50.47805],[2.47712,50.47849],[2.47687,50.47859],[2.47658,50.47799],[2.47501,50.4784],[2.4753,50.47814]],[[2.47693,50.47872],[2.47633,50.47898],[2.47606,50.47864],[2.47528,50.47896],[2.4746,50.47852],[2.47657,50.478],[2.47687,50.47859],[2.47693,50.47872]]]}},{"type":"Feature","properties":{"k":"PHF","s":2.719},"geometry":{"type":"Polygon","coordinates":[[[2.47362,50.47217],[2.47397,50.47284],[2.47422,50.4743],[2.47589,50.47389],[2.47572,50.47328],[2.47507,50.47264],[2.47483,50.47196],[2.47431,50.47161],[2.47362,50.47217]]]}},{"type":"Feature","properties":{"k":"CZH","s":7.29},"geometry":{"type":"Polygon","coordinates":[[[2.46757,50.47365],[2.46718,50.47469],[2.46833,50.47502],[2.46844,50.4748],[2.46934,50.47501],[2.46992,50.47516],[2.46938,50.47601],[2.47018,50.47633],[2.46965,50.47697],[2.47094,50.47754],[2.47116,50.47725],[2.47109,50.47613],[2.47162,50.47555],[2.47183,50.47528],[2.4686,50.47258],[2.46757,50.47365]]]}},{"type":"Feature","properties":{"k":"PTC","s":4.824},"geometry":{"type":"Polygon","coordinates":[[[2.47273,50.47434],[2.47044,50.47175],[2.4686,50.47258],[2.47183,50.47528],[2.47273,50.47434]]]}},{"type":"Feature","properties":{"k":"CZH","s":3.305},"geometry":{"type":"Polygon","coordinates":[[[2.46763,50.47278],[2.46864,50.47198],[2.46976,50.47153],[2.46844,50.47049],[2.46589,50.47149],[2.46763,50.47278]]]}},{"type":"Feature","properties":{"k":"BTH","s":3.819},"geometry":{"type":"Polygon","coordinates":[[[2.47337,50.47295],[2.47306,50.47216],[2.47338,50.47144],[2.47194,50.47142],[2.4705,50.47172],[2.47277,50.47429],[2.47337,50.47295]]]}},{"type":"Feature","properties":{"k":"BTH","s":0.732},"geometry":{"type":"Polygon","coordinates":[[[2.47347,50.4729],[2.47302,50.47401],[2.47417,50.47405],[2.47397,50.47284],[2.47347,50.4729]]]}},{"type":"Feature","properties":{"k":"ORP","s":0.633},"geometry":{"type":"Polygon","coordinates":[[[2.47347,50.47289],[2.47397,50.47284],[2.47362,50.47217],[2.47431,50.47161],[2.4735,50.47147],[2.47312,50.47219],[2.47347,50.47289]]]}},{"type":"Feature","properties":{"k":"CZH","s":3.612},"geometry":{"type":"Polygon","coordinates":[[[2.47243,50.4712],[2.47337,50.47131],[2.47315,50.47093],[2.47402,50.47067],[2.47287,50.46947],[2.47178,50.46888],[2.47033,50.46976],[2.47243,50.4712]]]}},{"type":"Feature","properties":{"k":"PTC","s":2.584},"geometry":{"type":"Polygon","coordinates":[[[2.46976,50.47152],[2.4709,50.47125],[2.47213,50.47116],[2.47025,50.46979],[2.46845,50.47049],[2.46976,50.47152]]]}},{"type":"Feature","properties":{"k":"MIS","s":4.664},"geometry":{"type":"Polygon","coordinates":[[[2.47033,50.46976],[2.47177,50.46887],[2.46849,50.46677],[2.46744,50.46815],[2.47033,50.46976]]]}},{"type":"Feature","properties":{"k":"BTN","s":0.0},"geometry":{"type":"MultiPolygon","coordinates":[[[[2.47244,50.46922],[2.47236,50.46919],[2.47239,50.46922],[2.47244,50.46922]]]]}},{"type":"Feature","properties":{"k":"BTN","s":0.022},"geometry":{"type":"Polygon","coordinates":[[[2.46388,50.4675],[2.46351,50.46739],[2.46366,50.46751],[2.46388,50.4675]]]}},{"type":"Feature","properties":{"k":"ORH","s":0.253},"geometry":{"type":"Polygon","coordinates":[[[2.46127,50.46786],[2.46222,50.4676],[2.46366,50.46751],[2.46351,50.46739],[2.46118,50.46767],[2.46074,50.4673],[2.46127,50.46786]]]}},{"type":"Feature","properties":{"k":"LIF","s":3.167},"geometry":{"type":"Polygon","coordinates":[[[2.46047,50.46708],[2.4604,50.46593],[2.45934,50.46604],[2.45943,50.4663],[2.45893,50.46652],[2.46002,50.46879],[2.46142,50.46912],[2.46047,50.46708]]]}},{"type":"Feature","properties":{"k":"CZH","s":0.557},"geometry":{"type":"Polygon","coordinates":[[[2.45926,50.46593],[2.45904,50.46554],[2.45753,50.46668],[2.45772,50.46694],[2.45926,50.46593]]]}},{"type":"Feature","properties":{"k":"MIS","s":0.459},"geometry":{"type":"Polygon","coordinates":[[[2.45943,50.4663],[2.45926,50.46593],[2.45772,50.46694],[2.45789,50.46717],[2.45943,50.4663]]]}},{"type":"Feature","properties":{"k":"CZH","s":1.436},"geometry":{"type":"Polygon","coordinates":[[[2.45912,50.46694],[2.45893,50.46652],[2.45789,50.46717],[2.45753,50.46668],[2.4567,50.46732],[2.45706,50.46765],[2.45655,50.46813],[2.45704,50.46836],[2.45912,50.46694]]]}},{"type":"Feature","properties":{"k":"PTC","s":3.712},"geometry":{"type":"Polygon","coordinates":[[[2.45502,50.46694],[2.45474,50.46771],[2.45535,50.46863],[2.45622,50.46771],[2.45796,50.46637],[2.4569,50.46531],[2.45502,50.46694]]]}},{"type":"Feature","properties":{"k":"BTH","s":1.109},"geometry":{"type":"Polygon","coordinates":[[[2.45797,50.46635],[2.4587,50.46579],[2.45762,50.46471],[2.4569,50.46531],[2.45797,50.46635]]]}},{"type":"Feature","properties":{"k":"POR","s":1.603},"geometry":{"type":"Polygon","coordinates":[[[2.45841,50.46406],[2.45774,50.46372],[2.45516,50.46611],[2.45513,50.46657],[2.45841,50.46406]]]}},{"type":"Feature","properties":{"k":"LIF","s":3.129},"geometry":{"type":"Polygon","coordinates":[[[2.45504,50.46619],[2.45774,50.46371],[2.45727,50.46342],[2.45471,50.46398],[2.45455,50.46429],[2.45502,50.46533],[2.45504,50.46619]]]}},{"type":"Feature","properties":{"k":"POR","s":0.945},"geometry":{"type":"Polygon","coordinates":[[[2.45965,50.4641],[2.45832,50.46468],[2.45888,50.46524],[2.46024,50.46483],[2.45965,50.4641]]]}},{"type":"Feature","properties":{"k":"MIS","s":1.147},"geometry":{"type":"Polygon","coordinates":[[[2.45832,50.46468],[2.45958,50.46402],[2.45907,50.46366],[2.45763,50.4647],[2.45871,50.46578],[2.45909,50.46551],[2.45832,50.46468]]]}},{"type":"Feature","properties":{"k":"MIS","s":0.238},"geometry":{"type":"Polygon","coordinates":[[[2.46031,50.46509],[2.46024,50.46484],[2.45887,50.46524],[2.45897,50.46539],[2.46031,50.46509]]]}},{"type":"Feature","properties":{"k":"BTH","s":0.64},"geometry":{"type":"Polygon","coordinates":[[[2.45907,50.46366],[2.45846,50.46319],[2.45738,50.46344],[2.45831,50.46403],[2.45907,50.46366]]]}},{"type":"Feature","properties":{"k":"PPH","s":1.419},"geometry":{"type":"Polygon","coordinates":[[[2.44313,50.4829],[2.44359,50.484],[2.44419,50.48383],[2.4452,50.48382],[2.44521,50.48293],[2.44313,50.4829]]]}},{"type":"Feature","properties":{"k":"BTA","s":0.015},"geometry":{"type":"Polygon","coordinates":[[[2.44778,50.48334],[2.44747,50.48333],[2.44746,50.48339],[2.44778,50.48334]]]}},{"type":"Feature","properties":{"k":"PPH","s":0.855},"geometry":{"type":"Polygon","coordinates":[[[2.43788,50.48586],[2.43842,50.48617],[2.43989,50.48558],[2.43902,50.48496],[2.43788,50.48586]]]}},{"type":"Feature","properties":{"k":"PPH","s":0.451},"geometry":{"type":"Polygon","coordinates":[[[2.43406,50.48361],[2.43484,50.48361],[2.43906,50.48354],[2.4397,50.48334],[2.4397,50.48363],[2.44101,50.48346],[2.44123,50.48381],[2.44121,50.48342],[2.43981,50.48355],[2.43979,50.48327],[2.43956,50.48324],[2.43895,50.48345],[2.43356,50.48352],[2.43406,50.48361]]]}},{"type":"Feature","properties":{"k":"VRG","s":0.305},"geometry":{"type":"Polygon","coordinates":[[[2.43124,50.4831],[2.4323,50.48352],[2.43217,50.48305],[2.43124,50.48288],[2.43124,50.4831]]]}},{"type":"Feature","properties":{"k":"BTN","s":3.615},"geometry":{"type":"MultiPolygon","coordinates":[[[[2.43453,50.48491],[2.4344,50.48467],[2.4364,50.48406],[2.43815,50.48386],[2.43812,50.48364],[2.43435,50.48376],[2.43237,50.48364],[2.43207,50.485],[2.43453,50.48491]]],[[[2.42861,50.48304],[2.42923,50.48311],[2.42906,50.48308],[2.42861,50.48304]]]]}},{"type":"Feature","properties":{"k":"PPH","s":0.341},"geometry":{"type":"MultiPolygon","coordinates":[[[[2.43825,50.48386],[2.43822,50.48358],[2.43237,50.48364],[2.43435,50.48376],[2.43812,50.48364],[2.43825,50.48386]]],[[[2.42837,50.48296],[2.42813,50.48299],[2.42964,50.48315],[2.42837,50.48296]]]]}},{"type":"Feature","properties":{"k":"PTR","s":0.303},"geometry":{"type":"Polygon","coordinates":[[[2.43935,50.4846],[2.43903,50.48496],[2.43943,50.48523],[2.43981,50.48522],[2.43991,50.48466],[2.43935,50.4846]]]}},{"type":"Feature","properties":{"k":"PPH","s":1.241},"geometry":{"type":"Polygon","coordinates":[[[2.4525,50.48573],[2.45246,50.48497],[2.45078,50.48518],[2.44816,50.4851],[2.44817,50.48524],[2.44907,50.48535],[2.4511,50.48538],[2.45114,50.48577],[2.4525,50.48573]]]}},{"type":"Feature","properties":{"k":"MIS","s":1.748},"geometry":{"type":"Polygon","coordinates":[[[2.44018,50.48254],[2.4407,50.48228],[2.44007,50.4813],[2.43869,50.48145],[2.43889,50.48282],[2.4397,50.48294],[2.43969,50.48256],[2.44018,50.48254]]]}},{"type":"Feature","properties":{"k":"PPH","s":0.723},"geometry":{"type":"Polygon","coordinates":[[[2.43918,50.48358],[2.43828,50.48358],[2.43829,50.48386],[2.43941,50.48395],[2.44119,50.48383],[2.44096,50.48351],[2.43973,50.48367],[2.43951,50.48337],[2.43918,50.48358]]]}},{"type":"Feature","properties":{"k":"LUZ","s":1.274},"geometry":{"type":"Polygon","coordinates":[[[2.44002,50.48465],[2.44067,50.48545],[2.44193,50.48529],[2.44159,50.48466],[2.4409,50.48466],[2.44091,50.48394],[2.44006,50.48395],[2.44002,50.48465]]]}},{"type":"Feature","properties":{"k":"PPH","s":1.528},"geometry":{"type":"Polygon","coordinates":[[[2.43991,50.48466],[2.43981,50.48522],[2.43943,50.48523],[2.43989,50.48558],[2.43892,50.48594],[2.44121,50.48608],[2.44123,50.48543],[2.44063,50.48546],[2.44001,50.48467],[2.44004,50.48395],[2.43946,50.48405],[2.43935,50.48461],[2.43991,50.48466]]]}},{"type":"Feature","properties":{"k":"MIS","s":4.665},"geometry":{"type":"Polygon","coordinates":[[[2.44213,50.48964],[2.44287,50.48817],[2.4414,50.48796],[2.44201,50.48642],[2.44087,50.48645],[2.43946,50.49002],[2.44028,50.49026],[2.4408,50.48904],[2.44213,50.48964]]]}},{"type":"Feature","properties":{"k":"MIS","s":3.398},"geometry":{"type":"Polygon","coordinates":[[[2.43577,50.48728],[2.43953,50.48817],[2.43947,50.48832],[2.43985,50.48841],[2.44024,50.48746],[2.43717,50.48669],[2.43731,50.4862],[2.43629,50.48603],[2.43577,50.48728]]]}},{"type":"Feature","properties":{"k":"MIS","s":0.503},"geometry":{"type":"Polygon","coordinates":[[[2.43886,50.48984],[2.43923,50.48995],[2.43985,50.48841],[2.43947,50.48832],[2.43886,50.48984]]]}},{"type":"Feature","properties":{"k":"PTC","s":0.635},"geometry":{"type":"Polygon","coordinates":[[[2.44334,50.48828],[2.44286,50.48818],[2.44221,50.48969],[2.44262,50.48987],[2.44334,50.48828]]]}},{"type":"Feature","properties":{"k":"POT","s":0.24},"geometry":{"type":"Polygon","coordinates":[[[2.44361,50.48831],[2.44334,50.48827],[2.44292,50.48926],[2.44321,50.48935],[2.44361,50.48831]]]}},{"type":"Feature","properties":{"k":"MIS","s":0.194},"geometry":{"type":"Polygon","coordinates":[[[2.44321,50.48935],[2.44292,50.48926],[2.44262,50.48987],[2.44298,50.49004],[2.44321,50.48935]]]}},{"type":"Feature","properties":{"k":"BTH","s":4.044},"geometry":{"type":"Polygon","coordinates":[[[2.44795,50.4904],[2.44326,50.48919],[2.44298,50.49004],[2.44624,50.49147],[2.44795,50.4904]]]}},{"type":"Feature","properties":{"k":"PTC","s":5.339},"geometry":{"type":"Polygon","coordinates":[[[2.44854,50.49022],[2.45083,50.48928],[2.44363,50.48832],[2.44339,50.48902],[2.44854,50.49022]]]}},{"type":"Feature","properties":{"k":"MIS","s":0.976},"geometry":{"type":"Polygon","coordinates":[[[2.44854,50.49022],[2.44333,50.48901],[2.44326,50.48917],[2.44813,50.49034],[2.44854,50.49022]]]}},{"type":"Feature","properties":{"k":"PTC","s":3.017},"geometry":{"type":"Polygon","coordinates":[[[2.44778,50.48877],[2.44897,50.48585],[2.44837,50.48579],[2.44757,50.48597],[2.44652,50.4886],[2.44778,50.48877]]]}},{"type":"Feature","properties":{"k":"MIS","s":0.817},"geometry":{"type":"Polygon","coordinates":[[[2.44757,50.48597],[2.44712,50.48606],[2.44615,50.48854],[2.44652,50.4886],[2.44757,50.48597]]]}},{"type":"Feature","properties":{"k":"PPH","s":0.501},"geometry":{"type":"Polygon","coordinates":[[[2.4482,50.48476],[2.44818,50.4851],[2.44995,50.48514],[2.44997,50.48476],[2.4482,50.48476]]]}},{"type":"Feature","properties":{"k":"MIS","s":2.735},"geometry":{"type":"Polygon","coordinates":[[[2.44615,50.48854],[2.44712,50.48606],[2.44563,50.48617],[2.44473,50.48842],[2.44615,50.48854]],[[2.44603,50.48841],[2.44596,50.48842],[2.44596,50.48841],[2.44603,50.48841]]]}},{"type":"Feature","properties":{"k":"MIS","s":3.04},"geometry":{"type":"Polygon","coordinates":[[[2.44296,50.48817],[2.44472,50.48841],[2.44563,50.48617],[2.4437,50.4863],[2.44296,50.48817]]]}},{"type":"Feature","properties":{"k":"BTH","s":8.545},"geometry":{"type":"Polygon","coordinates":[[[2.44706,50.48604],[2.44815,50.48576],[2.44817,50.48537],[2.44581,50.48547],[2.44573,50.4851],[2.44196,50.4853],[2.44132,50.48542],[2.44131,50.48611],[2.43888,50.48596],[2.43842,50.48617],[2.43788,50.48586],[2.43731,50.4863],[2.43724,50.48671],[2.44024,50.48746],[2.43923,50.48995],[2.43946,50.49002],[2.44087,50.48645],[2.44706,50.48604]]]}},{"type":"Feature","properties":{"k":"MIS","s":2.186},"geometry":{"type":"Polygon","coordinates":[[[2.44294,50.48817],[2.44369,50.48631],[2.44199,50.48644],[2.4414,50.48796],[2.44294,50.48817]]]}},{"type":"Feature","properties":{"k":"LUZ","s":0.531},"geometry":{"type":"Polygon","coordinates":[[[2.44176,50.48358],[2.442,50.48391],[2.4427,50.48367],[2.44299,50.48398],[2.44353,50.48396],[2.44338,50.48351],[2.44127,50.4835],[2.44126,50.48386],[2.44176,50.48358]]]}},{"type":"Feature","properties":{"k":"BTA","s":0.087},"geometry":{"type":"Polygon","coordinates":[[[2.44898,50.48338],[2.4492,50.4833],[2.4492,50.48277],[2.44899,50.48333],[2.44778,50.48332],[2.44898,50.48338]]]}},{"type":"Feature","properties":{"k":"BTH","s":1.823},"geometry":{"type":"Polygon","coordinates":[[[2.43629,50.48603],[2.43731,50.4862],[2.43886,50.48495],[2.43836,50.48478],[2.43736,50.48483],[2.43656,50.48498],[2.43629,50.48603]]]}},{"type":"Feature","properties":{"k":"MIS","s":0.452},"geometry":{"type":"Polygon","coordinates":[[[2.45325,50.46676],[2.45397,50.46625],[2.45338,50.46591],[2.45261,50.46642],[2.45325,50.46676]]]}},{"type":"Feature","properties":{"k":"POR","s":0.357},"geometry":{"type":"Polygon","coordinates":[[[2.45432,50.46646],[2.455,50.46575],[2.45492,50.46534],[2.45397,50.46624],[2.45432,50.46646]]]}},{"type":"Feature","properties":{"k":"CZH","s":0.001},"geometry":{"type":"Polygon","coordinates":[[[2.42494,50.48017],[2.42467,50.48037],[2.42495,50.48018],[2.42494,50.48017]]]}},{"type":"Feature","properties":{"k":"PPH","s":0.106},"geometry":{"type":"Polygon","coordinates":[[[2.42419,50.48073],[2.42407,50.48082],[2.42489,50.48115],[2.42504,50.481],[2.42419,50.48073]]]}},{"type":"Feature","properties":{"k":"JAC","s":0.235},"geometry":{"type":"Polygon","coordinates":[[[2.42405,50.47784],[2.42393,50.47768],[2.42359,50.47807],[2.42414,50.47847],[2.42439,50.47827],[2.42405,50.47784]]]}},{"type":"Feature","properties":{"k":"PHF","s":0.025},"geometry":{"type":"Polygon","coordinates":[[[2.42439,50.47827],[2.42419,50.47851],[2.42451,50.47833],[2.42439,50.47827]]]}},{"type":"Feature","properties":{"k":"BTH","s":5.96},"geometry":{"type":"Polygon","coordinates":[[[2.42417,50.47761],[2.42479,50.47818],[2.42523,50.47793],[2.42619,50.47842],[2.42591,50.47899],[2.4263,50.47921],[2.4275,50.47947],[2.42841,50.47858],[2.42757,50.47808],[2.42847,50.47709],[2.42725,50.47659],[2.42713,50.4767],[2.42642,50.47609],[2.42417,50.47761]]]}},{"type":"Feature","properties":{"k":"BTH","s":0.014},"geometry":{"type":"MultiPolygon","coordinates":[[[[2.42814,50.47633],[2.42815,50.47629],[2.42794,50.47663],[2.42814,50.47633]]]]}},{"type":"Feature","properties":{"k":"POR","s":0.809},"geometry":{"type":"Polygon","coordinates":[[[2.4539,50.4663],[2.45322,50.46678],[2.45474,50.46743],[2.45508,50.46658],[2.455,50.46595],[2.4545,50.46645],[2.45484,50.46659],[2.45422,50.46707],[2.45398,50.46696],[2.45427,50.4665],[2.4539,50.4663]]]}},{"type":"Feature","properties":{"k":"BTH","s":1.299},"geometry":{"type":"Polygon","coordinates":[[[2.45213,50.46615],[2.44999,50.46493],[2.44944,50.46523],[2.45076,50.46601],[2.45048,50.46622],[2.45129,50.46665],[2.45213,50.46615]]]}},{"type":"Feature","properties":{"k":"BTH","s":1.492},"geometry":{"type":"Polygon","coordinates":[[[2.45047,50.46622],[2.45075,50.46602],[2.44944,50.46523],[2.44893,50.46551],[2.45067,50.46649],[2.45009,50.46689],[2.45137,50.46754],[2.45208,50.46708],[2.45047,50.46622]]]}},{"type":"Feature","properties":{"k":"BTH","s":1.421},"geometry":{"type":"Polygon","coordinates":[[[2.44985,50.46704],[2.45063,50.46649],[2.44889,50.46553],[2.44798,50.46603],[2.44985,50.46704]]]}},{"type":"Feature","properties":{"k":"BTP","s":0.943},"geometry":{"type":"Polygon","coordinates":[[[2.44862,50.4664],[2.44762,50.46702],[2.44873,50.46757],[2.44964,50.46695],[2.44862,50.4664]]]}},{"type":"Feature","properties":{"k":"BTH","s":2.038},"geometry":{"type":"Polygon","coordinates":[[[2.44551,50.46765],[2.44719,50.46835],[2.44853,50.46748],[2.44691,50.46668],[2.44551,50.46765]]]}},{"type":"Feature","properties":{"k":"BTH","s":3.426},"geometry":{"type":"Polygon","coordinates":[[[2.44536,50.46754],[2.44773,50.46606],[2.44671,50.46573],[2.44554,50.46585],[2.44505,50.46555],[2.44352,50.467],[2.44536,50.46754]]]}},{"type":"Feature","properties":{"k":"BTH","s":0.632},"geometry":{"type":"Polygon","coordinates":[[[2.44691,50.46668],[2.44762,50.46702],[2.44862,50.4664],[2.44794,50.46605],[2.44691,50.46668]]]}},{"type":"Feature","properties":{"k":"BTH","s":1.443},"geometry":{"type":"Polygon","coordinates":[[[2.44241,50.46583],[2.44185,50.46651],[2.44261,50.4667],[2.44387,50.46527],[2.44236,50.46499],[2.44194,50.46567],[2.44241,50.46583]]]}},{"type":"Feature","properties":{"k":"BTH","s":0.64},"geometry":{"type":"Polygon","coordinates":[[[2.44241,50.46702],[2.4449,50.46781],[2.44516,50.46761],[2.44267,50.46676],[2.44241,50.46702]]]}},{"type":"Feature","properties":{"k":"BTH","s":0.524},"geometry":{"type":"Polygon","coordinates":[[[2.44266,50.46676],[2.44179,50.46657],[2.44136,50.46721],[2.44202,50.46749],[2.44266,50.46676]]]}},{"type":"Feature","properties":{"k":"LUZ","s":0.204},"geometry":{"type":"Polygon","coordinates":[[[2.44179,50.46653],[2.44239,50.46582],[2.44211,50.46573],[2.44147,50.46647],[2.44179,50.46653]]]}},{"type":"Feature","properties":{"k":"PPH","s":0.43},"geometry":{"type":"Polygon","coordinates":[[[2.44155,50.46554],[2.44183,50.46569],[2.44114,50.46642],[2.44146,50.46647],[2.44211,50.46573],[2.44194,50.46567],[2.44236,50.46499],[2.44204,50.46492],[2.44155,50.46554]]]}},{"type":"Feature","properties":{"k":"PPH","s":0.301},"geometry":{"type":"Polygon","coordinates":[[[2.44183,50.46569],[2.44148,50.46554],[2.44071,50.46634],[2.44112,50.46643],[2.44183,50.46569]]]}},{"type":"Feature","properties":{"k":"BTH","s":1.527},"geometry":{"type":"Polygon","coordinates":[[[2.44052,50.46634],[2.43972,50.46746],[2.44092,50.46804],[2.44178,50.46658],[2.44052,50.46634]]]}},{"type":"Feature","properties":{"k":"CZH","s":8.627},"geometry":{"type":"Polygon","coordinates":[[[2.43314,50.47261],[2.43179,50.47003],[2.43007,50.46746],[2.42962,50.4675],[2.42985,50.46832],[2.43058,50.4695],[2.43033,50.46963],[2.4304,50.4702],[2.43195,50.47502],[2.43405,50.47502],[2.43314,50.47261]],[[2.43235,50.4724],[2.43252,50.47296],[2.43215,50.47303],[2.43201,50.47244],[2.43235,50.4724]]]}},{"type":"Feature","properties":{"k":"ORH","s":11.807},"geometry":{"type":"Polygon","coordinates":[[[2.43898,50.47414],[2.43857,50.47296],[2.43734,50.47178],[2.43767,50.47133],[2.43716,50.4709],[2.43768,50.4706],[2.4385,50.47082],[2.4386,50.47074],[2.43671,50.46944],[2.43634,50.46962],[2.43303,50.46732],[2.43279,50.46694],[2.43223,50.46704],[2.43207,50.46709],[2.43792,50.47481],[2.43898,50.47414]]]}},{"type":"Feature","properties":{"k":"MIS","s":1.416},"geometry":{"type":"Polygon","coordinates":[[[2.43892,50.46895],[2.43748,50.46845],[2.43686,50.46928],[2.43802,50.47008],[2.43892,50.46895]]]}},{"type":"Feature","properties":{"k":"BTH","s":3.301},"geometry":{"type":"Polygon","coordinates":[[[2.43748,50.46844],[2.43892,50.46895],[2.43853,50.46942],[2.44011,50.46998],[2.44028,50.4697],[2.43896,50.4692],[2.4396,50.46839],[2.43861,50.46806],[2.43928,50.46731],[2.43953,50.46738],[2.44035,50.46628],[2.43918,50.46589],[2.43748,50.46844]]]}},{"type":"Feature","properties":{"k":"BTH","s":1.329},"geometry":{"type":"Polygon","coordinates":[[[2.43928,50.46731],[2.43861,50.46806],[2.44052,50.46867],[2.44105,50.46806],[2.43928,50.46731]]]}},{"type":"Feature","properties":{"k":"BTH","s":1.342},"geometry":{"type":"Polygon","coordinates":[[[2.44381,50.46887],[2.44107,50.46806],[2.44053,50.46866],[2.4434,50.46921],[2.44381,50.46887]]]}},{"type":"Feature","properties":{"k":"JAC","s":0.008},"geometry":{"type":"MultiPolygon","coordinates":[[[[2.42846,50.47503],[2.42825,50.47588],[2.42839,50.47538],[2.42846,50.47503]]],[[[2.42854,50.47462],[2.42853,50.47476],[2.42856,50.47463],[2.42854,50.47462]]]]}},{"type":"Feature","properties":{"k":"PPH","s":1.76},"geometry":{"type":"Polygon","coordinates":[[[2.42856,50.47372],[2.42949,50.47243],[2.42921,50.47158],[2.42884,50.4716],[2.42875,50.47063],[2.42795,50.47068],[2.42855,50.47294],[2.42856,50.47372]]]}},{"type":"Feature","properties":{"k":"PPH","s":0.023},"geometry":{"type":"Polygon","coordinates":[[[2.42773,50.47005],[2.42764,50.47007],[2.42776,50.47039],[2.42773,50.47005]]]}},{"type":"Feature","properties":{"k":"PTR","s":3.925},"geometry":{"type":"Polygon","coordinates":[[[2.42837,50.46848],[2.4274,50.46696],[2.42816,50.46682],[2.42712,50.46579],[2.42644,50.4666],[2.42786,50.47039],[2.42808,50.47066],[2.42873,50.47062],[2.42837,50.46848]]]}},{"type":"Feature","properties":{"k":"ORH","s":0.135},"geometry":{"type":"Polygon","coordinates":[[[2.42702,50.46805],[2.42676,50.46747],[2.42764,50.47007],[2.42702,50.46805]]]}},{"type":"Feature","properties":{"k":"MIS","s":0.292},"geometry":{"type":"MultiPolygon","coordinates":[[[[2.45402,50.46345],[2.4541,50.46232],[2.45343,50.46254],[2.45402,50.46345]]]]}},{"type":"Feature","properties":{"k":"MIS","s":0.106},"geometry":{"type":"Polygon","coordinates":[[[2.45334,50.46258],[2.45423,50.46387],[2.45402,50.46345],[2.45334,50.46258]]]}},{"type":"Feature","properties":{"k":"BTH","s":1.61},"geometry":{"type":"Polygon","coordinates":[[[2.45418,50.46388],[2.45334,50.46258],[2.4517,50.46306],[2.45274,50.46402],[2.45418,50.46388]]]}},{"type":"Feature","properties":{"k":"BTH","s":0.216},"geometry":{"type":"Polygon","coordinates":[[[2.45249,50.46405],[2.45274,50.46402],[2.4517,50.46306],[2.45148,50.46314],[2.45249,50.46405]]]}},{"type":"Feature","properties":{"k":"BTH","s":0.883},"geometry":{"type":"Polygon","coordinates":[[[2.45062,50.46346],[2.45023,50.4637],[2.45105,50.46422],[2.45222,50.46408],[2.45134,50.46319],[2.45062,50.46346]]]}},{"type":"Feature","properties":{"k":"JAC","s":0.259},"geometry":{"type":"Polygon","coordinates":[[[2.44923,50.46311],[2.44836,50.46367],[2.44855,50.46383],[2.44953,50.46331],[2.44923,50.46311]]]}},{"type":"Feature","properties":{"k":"BTH","s":1.511},"geometry":{"type":"Polygon","coordinates":[[[2.44983,50.4649],[2.45099,50.46428],[2.44953,50.46331],[2.44855,50.46383],[2.44983,50.4649]]]}},{"type":"Feature","properties":{"k":"BTH","s":0.691},"geometry":{"type":"Polygon","coordinates":[[[2.44946,50.46457],[2.44793,50.46551],[2.44784,50.466],[2.44983,50.4649],[2.44946,50.46457]]]}},{"type":"Feature","properties":{"k":"ORH","s":1.376},"geometry":{"type":"Polygon","coordinates":[[[2.45382,50.46525],[2.45456,50.46452],[2.4543,50.46398],[2.45195,50.46418],[2.45382,50.46525]]]}},{"type":"Feature","properties":{"k":"BTH","s":1.042},"geometry":{"type":"Polygon","coordinates":[[[2.45455,50.46452],[2.45324,50.4658],[2.45397,50.46624],[2.45492,50.46534],[2.45455,50.46452]]]}},{"type":"Feature","properties":{"k":"ORH","s":1.257},"geometry":{"type":"Polygon","coordinates":[[[2.44336,50.46924],[2.44135,50.46882],[2.44071,50.46942],[2.44044,50.46937],[2.44036,50.46953],[2.44187,50.46984],[2.44336,50.46924]]]}},{"type":"Feature","properties":{"k":"BTH","s":1.314},"geometry":{"type":"Polygon","coordinates":[[[2.43896,50.4692],[2.44028,50.4697],[2.44045,50.46934],[2.44071,50.46942],[2.44135,50.46881],[2.43961,50.46838],[2.43896,50.4692]]]}},{"type":"Feature","properties":{"k":"MIS","s":0.627},"geometry":{"type":"Polygon","coordinates":[[[2.43825,50.46989],[2.43994,50.47041],[2.44009,50.47001],[2.4386,50.46946],[2.43825,50.46989]]]}},{"type":"Feature","properties":{"k":"ORH","s":0.382},"geometry":{"type":"Polygon","coordinates":[[[2.44035,50.46962],[2.44018,50.46992],[2.44133,50.47014],[2.44187,50.46984],[2.44035,50.46962]]]}},{"type":"Feature","properties":{"k":"POR","s":1.405},"geometry":{"type":"Polygon","coordinates":[[[2.43893,50.47072],[2.44063,50.47098],[2.44129,50.47014],[2.44019,50.46994],[2.43994,50.47041],[2.43827,50.46989],[2.43804,50.47008],[2.43893,50.47072]]]}},{"type":"Feature","properties":{"k":"BTH","s":0.696},"geometry":{"type":"Polygon","coordinates":[[[2.43803,50.47009],[2.43776,50.4702],[2.4386,50.47074],[2.43783,50.47131],[2.43825,50.47149],[2.4388,50.47089],[2.44058,50.47115],[2.44063,50.47098],[2.43893,50.47072],[2.43803,50.47009]]]}},{"type":"Feature","properties":{"k":"ORH","s":0.574},"geometry":{"type":"Polygon","coordinates":[[[2.43991,50.47217],[2.43968,50.47238],[2.44103,50.47319],[2.44189,50.47309],[2.43991,50.47217]]]}},{"type":"Feature","properties":{"k":"CZH","s":0.313},"geometry":{"type":"Polygon","coordinates":[[[2.44133,50.47369],[2.44103,50.47319],[2.43968,50.4724],[2.43951,50.47256],[2.44133,50.47369]]]}},{"type":"Feature","properties":{"k":"PPH","s":0.035},"geometry":{"type":"Polygon","coordinates":[[[2.43923,50.47379],[2.4392,50.47412],[2.43946,50.47411],[2.43923,50.47379]]]}},{"type":"Feature","properties":{"k":"BTH","s":0.557},"geometry":{"type":"Polygon","coordinates":[[[2.44189,50.47309],[2.44103,50.47319],[2.44133,50.47369],[2.4423,50.47428],[2.44189,50.47309]]]}},{"type":"Feature","properties":{"k":"BTH","s":0.241},"geometry":{"type":"Polygon","coordinates":[[[2.44172,50.47459],[2.44229,50.47451],[2.44223,50.47429],[2.44141,50.47379],[2.44172,50.47459]]]}},{"type":"Feature","properties":{"k":"CZH","s":1.032},"geometry":{"type":"Polygon","coordinates":[[[2.44124,50.47369],[2.44072,50.47334],[2.44042,50.47351],[2.44099,50.47454],[2.44109,50.47546],[2.44177,50.47546],[2.44124,50.47369]]]}},{"type":"Feature","properties":{"k":"BTN","s":0.826},"geometry":{"type":"Polygon","coordinates":[[[2.44099,50.47454],[2.44042,50.47351],[2.4401,50.47371],[2.44036,50.47426],[2.44042,50.47546],[2.44109,50.47546],[2.44099,50.47454]]]}},{"type":"Feature","properties":{"k":"BTN","s":23.27},"geometry":{"type":"Polygon","coordinates":[[[2.43195,50.47502],[2.43264,50.47649],[2.43447,50.4765],[2.43463,50.47725],[2.43509,50.47697],[2.43631,50.47615],[2.43746,50.47512],[2.43522,50.47212],[2.43749,50.47511],[2.43792,50.47481],[2.43207,50.46709],[2.43007,50.46746],[2.43179,50.47003],[2.43314,50.47261],[2.43434,50.47559],[2.43398,50.47503],[2.43195,50.47502]],[[2.43488,50.47662],[2.43488,50.47664],[2.43471,50.47627],[2.43488,50.47662]]]}},{"type":"Feature","properties":{"k":"BTH","s":12.347},"geometry":{"type":"Polygon","coordinates":[[[2.4289,50.47156],[2.42926,50.47155],[2.42953,50.47248],[2.42863,50.47379],[2.42798,50.47683],[2.43009,50.47761],[2.43052,50.47543],[2.43111,50.47543],[2.43192,50.47491],[2.43055,50.47046],[2.42896,50.47059],[2.4289,50.47156]]]}},{"type":"Feature","properties":{"k":"MIS","s":2.822},"geometry":{"type":"Polygon","coordinates":[[[2.43109,50.47787],[2.43136,50.47659],[2.43261,50.47651],[2.43189,50.47497],[2.43114,50.47544],[2.43054,50.47546],[2.43007,50.47763],[2.43052,50.47773],[2.43059,50.47764],[2.43109,50.47787]]]}},{"type":"Feature","properties":{"k":"PTR","s":0.039},"geometry":{"type":"Polygon","coordinates":[[[2.43072,50.48196],[2.43078,50.48084],[2.43074,50.48084],[2.43072,50.48196]]]}},{"type":"Feature","properties":{"k":"LUZ","s":0.373},"geometry":{"type":"Polygon","coordinates":[[[2.43366,50.48225],[2.4336,50.48272],[2.43462,50.48273],[2.43439,50.48214],[2.43366,50.48225]]]}},{"type":"Feature","properties":{"k":"BTH","s":0.407},"geometry":{"type":"Polygon","coordinates":[[[2.43603,50.48274],[2.43588,50.48186],[2.43518,50.48198],[2.4355,50.48274],[2.43603,50.48274]]]}},{"type":"Feature","properties":{"k":"PTC","s":8.101},"geometry":{"type":"Polygon","coordinates":[[[2.43361,50.48211],[2.43719,50.48148],[2.44033,50.48121],[2.44016,50.48068],[2.43513,50.4805],[2.43476,50.48055],[2.43465,50.48077],[2.43105,50.48078],[2.43078,50.48084],[2.43072,50.48196],[2.43361,50.48211]]]}},{"type":"Feature","properties":{"k":"CAR","s":6.478},"geometry":{"type":"Polygon","coordinates":[[[2.43356,50.48352],[2.43373,50.48354],[2.43895,50.48345],[2.43956,50.48324],[2.43979,50.48327],[2.43981,50.48355],[2.44121,50.48342],[2.4412,50.48306],[2.44053,50.48311],[2.43886,50.48284],[2.43868,50.48144],[2.43588,50.48186],[2.43603,50.48274],[2.43831,50.48279],[2.43876,50.48283],[2.4336,50.48272],[2.43356,50.48352]]]}}]}