{"type":"FeatureCollection","features":[{"type":"Feature","properties":{"k":"PTC","s":0.848},"geometry":{"type":"Polygon","coordinates":[[[1.7232,50.42993],[1.72401,50.43006],[1.72529,50.42903],[1.72462,50.42881],[1.7232,50.42993]]]}},{"type":"Feature","properties":{"k":"LIF","s":4.261},"geometry":{"type":"Polygon","coordinates":[[[1.72667,50.42788],[1.72408,50.43015],[1.72539,50.43075],[1.72893,50.42804],[1.72667,50.42788]]]}},{"type":"Feature","properties":{"k":"BTH","s":0.732},"geometry":{"type":"Polygon","coordinates":[[[1.72595,50.42777],[1.72462,50.42881],[1.72529,50.42903],[1.72645,50.42811],[1.72595,50.42777]]]}},{"type":"Feature","properties":{"k":"LIF","s":6.339},"geometry":{"type":"Polygon","coordinates":[[[1.73005,50.42792],[1.72893,50.42804],[1.72539,50.43075],[1.72664,50.43132],[1.72698,50.43102],[1.72747,50.43124],[1.73118,50.42829],[1.73005,50.42792]]]}},{"type":"Feature","properties":{"k":"BTN","s":12.836},"geometry":{"type":"Polygon","coordinates":[[[1.73373,50.43092],[1.73215,50.4291],[1.73118,50.42829],[1.72717,50.43154],[1.73096,50.43313],[1.73373,50.43092]]]}},{"type":"Feature","properties":{"k":"PHF","s":7.659},"geometry":{"type":"Polygon","coordinates":[[[1.7319,50.42584],[1.73362,50.42537],[1.73286,50.42405],[1.72855,50.42435],[1.73113,50.42751],[1.73278,50.42693],[1.7319,50.42584]]]}},{"type":"Feature","properties":{"k":"BTN","s":1.141},"geometry":{"type":"MultiPolygon","coordinates":[[[[1.72839,50.4243],[1.72863,50.42428],[1.72819,50.42371],[1.7321,50.42341],[1.73243,50.42403],[1.73275,50.42391],[1.73237,50.42319],[1.73209,50.42321],[1.73236,50.4233],[1.72768,50.4235],[1.72839,50.4243]]],[[[1.73121,50.42326],[1.73213,50.42329],[1.73209,50.42321],[1.73121,50.42326]]]]}},{"type":"Feature","properties":{"k":"BTN","s":1.916},"geometry":{"type":"Polygon","coordinates":[[[1.72819,50.42371],[1.72863,50.42428],[1.73243,50.42403],[1.7321,50.42341],[1.72819,50.42371]]]}},{"type":"Feature","properties":{"k":"BOR","s":0.115},"geometry":{"type":"Polygon","coordinates":[[[1.73444,50.42441],[1.7345,50.42324],[1.7344,50.42441],[1.7351,50.42728],[1.73444,50.42441]]]}},{"type":"Feature","properties":{"k":"BTH","s":9.786},"geometry":{"type":"Polygon","coordinates":[[[1.73444,50.42441],[1.73474,50.42591],[1.73871,50.42666],[1.73958,50.42401],[1.73453,50.42325],[1.73444,50.42441]]]}},{"type":"Feature","properties":{"k":"CZH","s":20.178},"geometry":{"type":"Polygon","coordinates":[[[1.73278,50.42693],[1.73114,50.42752],[1.73482,50.43166],[1.73585,50.4326],[1.73665,50.43273],[1.73679,50.43275],[1.73822,50.43189],[1.73637,50.42973],[1.73509,50.42736],[1.7344,50.42441],[1.7345,50.42324],[1.73234,50.42292],[1.73365,50.42537],[1.73255,50.42564],[1.7319,50.42584],[1.73278,50.42693]],[[1.73269,50.42606],[1.73256,50.42565],[1.73281,50.42603],[1.73269,50.42606]]]}},{"type":"Feature","properties":{"k":"JAC","s":0.035},"geometry":{"type":"Polygon","coordinates":[[[1.74088,50.43143],[1.73987,50.43111],[1.7409,50.43147],[1.74116,50.43117],[1.74088,50.43143]]]}},{"type":"Feature","properties":{"k":"LIF","s":18.245},"geometry":{"type":"Polygon","coordinates":[[[1.74073,50.43074],[1.74247,50.43024],[1.73873,50.42663],[1.73474,50.42591],[1.7351,50.42728],[1.73641,50.42976],[1.73822,50.43189],[1.74073,50.43074]]]}},{"type":"Feature","properties":{"k":"BTH","s":8.21},"geometry":{"type":"Polygon","coordinates":[[[1.74743,50.43014],[1.74744,50.4283],[1.74617,50.42798],[1.74237,50.43034],[1.74677,50.43164],[1.74743,50.43014]]]}},{"type":"Feature","properties":{"k":"BTH","s":2.133},"geometry":{"type":"Polygon","coordinates":[[[1.74138,50.43059],[1.7467,50.43219],[1.74677,50.43164],[1.74232,50.43036],[1.74138,50.43059]]]}},{"type":"Feature","properties":{"k":"BTH","s":3.25},"geometry":{"type":"Polygon","coordinates":[[[1.74638,50.42775],[1.74671,50.42749],[1.74379,50.42734],[1.74285,50.43004],[1.74638,50.42775]]]}},{"type":"Feature","properties":{"k":"CZH","s":13.43},"geometry":{"type":"Polygon","coordinates":[[[1.74285,50.43004],[1.74379,50.42734],[1.74321,50.42731],[1.74378,50.42583],[1.74194,50.4255],[1.73958,50.42401],[1.73873,50.42663],[1.74247,50.43024],[1.74285,50.43004]]]}},{"type":"Feature","properties":{"k":"LIF","s":1.803},"geometry":{"type":"Polygon","coordinates":[[[1.7455,50.43832],[1.74585,50.43877],[1.74582,50.43877],[1.74594,50.43895],[1.7494,50.43878],[1.74906,50.43815],[1.7455,50.43832]]]}},{"type":"Feature","properties":{"k":"CZH","s":6.46},"geometry":{"type":"Polygon","coordinates":[[[1.7502,50.44174],[1.74937,50.44003],[1.74938,50.44002],[1.75,50.43994],[1.7494,50.43878],[1.74594,50.43895],[1.74815,50.44186],[1.7502,50.44174]]]}},{"type":"Feature","properties":{"k":"ORH","s":4.406},"geometry":{"type":"Polygon","coordinates":[[[1.75084,50.44186],[1.74721,50.44202],[1.74907,50.444],[1.75122,50.44325],[1.75084,50.44186]]]}},{"type":"Feature","properties":{"k":"BTN","s":5.496},"geometry":{"type":"Polygon","coordinates":[[[1.74599,50.44291],[1.74484,50.44329],[1.74645,50.44494],[1.74907,50.444],[1.74721,50.44202],[1.74534,50.44216],[1.74599,50.44291]]]}},{"type":"Feature","properties":{"k":"PTC","s":7.479},"geometry":{"type":"Polygon","coordinates":[[[1.74828,50.44596],[1.74969,50.44624],[1.75231,50.44535],[1.75121,50.44328],[1.74645,50.44495],[1.74733,50.4457],[1.7479,50.44573],[1.74828,50.44596]]]}},{"type":"Feature","properties":{"k":"MIS","s":0.767},"geometry":{"type":"Polygon","coordinates":[[[1.75249,50.4457],[1.75229,50.44538],[1.74965,50.44627],[1.74986,50.44655],[1.75249,50.4457]]]}},{"type":"Feature","properties":{"k":"TTH","s":4.141},"geometry":{"type":"Polygon","coordinates":[[[1.74983,50.44748],[1.75088,50.44809],[1.75345,50.4472],[1.75251,50.44571],[1.74988,50.44655],[1.74983,50.44748]]]}},{"type":"Feature","properties":{"k":"JAC","s":0.845},"geometry":{"type":"Polygon","coordinates":[[[1.74997,50.44681],[1.74959,50.44625],[1.74924,50.44616],[1.74832,50.44653],[1.74984,50.44741],[1.74997,50.44681]]]}},{"type":"Feature","properties":{"k":"BTH","s":19.572},"geometry":{"type":"Polygon","coordinates":[[[1.74556,50.44464],[1.745,50.44494],[1.74479,50.44478],[1.74545,50.44443],[1.74453,50.44339],[1.74373,50.4428],[1.73976,50.44385],[1.7415,50.44648],[1.74116,50.44752],[1.74303,50.44862],[1.74737,50.44673],[1.74556,50.44464]]]}},{"type":"Feature","properties":{"k":"PPH","s":2.603},"geometry":{"type":"Polygon","coordinates":[[[1.74025,50.44454],[1.73847,50.4456],[1.73981,50.44619],[1.73978,50.44648],[1.74128,50.44696],[1.74148,50.44646],[1.74025,50.44454]]]}},{"type":"Feature","properties":{"k":"PPH","s":1.648},"geometry":{"type":"Polygon","coordinates":[[[1.73895,50.44348],[1.73811,50.44371],[1.73846,50.4449],[1.73896,50.44529],[1.74025,50.44454],[1.73996,50.44413],[1.73959,50.44424],[1.73895,50.44348]]]}},{"type":"Feature","properties":{"k":"BTH","s":6.279},"geometry":{"type":"Polygon","coordinates":[[[1.73741,50.44272],[1.74058,50.44189],[1.74092,50.44241],[1.74274,50.44194],[1.74183,50.44106],[1.74233,50.44089],[1.74168,50.44014],[1.73737,50.44124],[1.73741,50.44272]]]}},{"type":"Feature","properties":{"k":"BTH","s":0.546},"geometry":{"type":"Polygon","coordinates":[[[1.73737,50.44124],[1.74168,50.44014],[1.74157,50.44],[1.73738,50.44108],[1.73737,50.44124]]]}},{"type":"Feature","properties":{"k":"PPH","s":0.784},"geometry":{"type":"Polygon","coordinates":[[[1.74426,50.44223],[1.74508,50.44321],[1.74599,50.44292],[1.74533,50.44215],[1.74426,50.44223]],[[1.7452,50.44255],[1.74508,50.44259],[1.745,50.44251],[1.7452,50.44255]]]}},{"type":"Feature","properties":{"k":"PTC","s":19.253},"geometry":{"type":"Polygon","coordinates":[[[1.74401,50.43639],[1.74007,50.43656],[1.74058,50.43783],[1.74403,50.44205],[1.74814,50.44185],[1.74401,50.43639]]]}},{"type":"Feature","properties":{"k":"LIF","s":2.857},"geometry":{"type":"Polygon","coordinates":[[[1.74473,50.43737],[1.7455,50.43831],[1.74904,50.43815],[1.74849,50.43718],[1.74473,50.43737]]]}},{"type":"Feature","properties":{"k":"LIF","s":3.099},"geometry":{"type":"Polygon","coordinates":[[[1.74402,50.43639],[1.74473,50.43737],[1.7485,50.43718],[1.74796,50.43619],[1.74402,50.43639]]]}},{"type":"Feature","properties":{"k":"BTH","s":10.944},"geometry":{"type":"Polygon","coordinates":[[[1.74064,50.4361],[1.74009,50.4361],[1.74007,50.43656],[1.74798,50.43617],[1.74778,50.43577],[1.74687,50.43508],[1.74348,50.43387],[1.74073,50.43482],[1.74026,50.43518],[1.74,50.43581],[1.74062,50.43584],[1.74064,50.4361]]]}},{"type":"Feature","properties":{"k":"ORH","s":2.984},"geometry":{"type":"Polygon","coordinates":[[[1.74711,50.43439],[1.74695,50.4344],[1.74646,50.43309],[1.74349,50.43387],[1.74689,50.43507],[1.74774,50.43567],[1.74711,50.43439]]]}},{"type":"Feature","properties":{"k":"BTH","s":3.016},"geometry":{"type":"Polygon","coordinates":[[[1.74138,50.43059],[1.74042,50.43094],[1.74615,50.4327],[1.7467,50.43254],[1.7467,50.43219],[1.74138,50.43059]]]}},{"type":"Feature","properties":{"k":"ORP","s":2.542},"geometry":{"type":"Polygon","coordinates":[[[1.74117,50.43117],[1.7409,50.43147],[1.73987,50.43111],[1.73963,50.43122],[1.74483,50.43303],[1.74623,50.43272],[1.74117,50.43117]]]}},{"type":"Feature","properties":{"k":"BTH","s":10.038},"geometry":{"type":"Polygon","coordinates":[[[1.73964,50.43439],[1.74482,50.43304],[1.73959,50.43124],[1.73691,50.4328],[1.73964,50.43439]]]}},{"type":"Feature","properties":{"k":"MIS","s":0.221},"geometry":{"type":"Polygon","coordinates":[[[1.74007,50.43656],[1.74009,50.4361],[1.74064,50.4361],[1.74062,50.43584],[1.74,50.43581],[1.73992,50.43657],[1.74007,50.43656]]]}},{"type":"Feature","properties":{"k":"BTH","s":9.901},"geometry":{"type":"Polygon","coordinates":[[[1.73781,50.43609],[1.73735,50.43602],[1.73709,50.43792],[1.73738,50.44108],[1.74157,50.44],[1.73781,50.43609]]]}},{"type":"Feature","properties":{"k":"ORH","s":3.993},"geometry":{"type":"Polygon","coordinates":[[[1.72702,50.43907],[1.72729,50.43925],[1.72852,50.43834],[1.73124,50.43703],[1.73526,50.43559],[1.73401,50.43458],[1.73227,50.43584],[1.72702,50.43907]]]}},{"type":"Feature","properties":{"k":"ORH","s":5.607},"geometry":{"type":"Polygon","coordinates":[[[1.73359,50.43342],[1.73499,50.43377],[1.73525,50.43343],[1.73521,50.43276],[1.73376,50.43094],[1.731,50.43314],[1.73296,50.43397],[1.73359,50.43342]]]}},{"type":"Feature","properties":{"k":"BTH","s":15.338},"geometry":{"type":"Polygon","coordinates":[[[1.7307,50.43669],[1.73203,50.43593],[1.73393,50.43444],[1.7283,50.43207],[1.72593,50.43481],[1.7298,50.43643],[1.72989,50.43635],[1.7307,50.43669]]]}},{"type":"Feature","properties":{"k":"BTH","s":6.364},"geometry":{"type":"Polygon","coordinates":[[[1.72592,50.43481],[1.7283,50.43207],[1.72614,50.43117],[1.72379,50.43394],[1.72592,50.43481]]]}},{"type":"Feature","properties":{"k":"PTC","s":0.996},"geometry":{"type":"MultiPolygon","coordinates":[[[[1.72345,50.43375],[1.72379,50.43394],[1.72614,50.43117],[1.72577,50.43101],[1.72345,50.43375]]]]}},{"type":"Feature","properties":{"k":"ORH","s":6.834},"geometry":{"type":"Polygon","coordinates":[[[1.71941,50.44598],[1.72097,50.4464],[1.72117,50.44282],[1.71855,50.44427],[1.71576,50.44543],[1.71941,50.44598]]]}},{"type":"Feature","properties":{"k":"JAC","s":0.219},"geometry":{"type":"Polygon","coordinates":[[[1.72023,50.43938],[1.72046,50.43942],[1.7208,50.43865],[1.72042,50.43854],[1.72023,50.43938]]]}},{"type":"Feature","properties":{"k":"PTC","s":1.155},"geometry":{"type":"Polygon","coordinates":[[[1.72049,50.43947],[1.7216,50.44003],[1.72248,50.43923],[1.72086,50.43868],[1.72049,50.43947]]]}},{"type":"Feature","properties":{"k":"PHF","s":11.016},"geometry":{"type":"Polygon","coordinates":[[[1.7234,50.43379],[1.72276,50.43332],[1.72166,50.43884],[1.72402,50.43975],[1.7252,50.43452],[1.7234,50.43379]]]}},{"type":"Feature","properties":{"k":"BTH","s":5.432},"geometry":{"type":"Polygon","coordinates":[[[1.72133,50.44241],[1.71938,50.44144],[1.71881,50.44273],[1.71615,50.44304],[1.71649,50.44481],[1.71784,50.44432],[1.72133,50.44241]]]}},{"type":"Feature","properties":{"k":"BTH","s":0.002},"geometry":{"type":"Polygon","coordinates":[[[1.71928,50.44603],[1.71979,50.44614],[1.71953,50.44607],[1.71928,50.44603]]]}},{"type":"Feature","properties":{"k":"MIS","s":3.525},"geometry":{"type":"Polygon","coordinates":[[[1.72207,50.44662],[1.72233,50.44214],[1.72119,50.44279],[1.72099,50.4464],[1.72207,50.44662]]]}},{"type":"Feature","properties":{"k":"BTH","s":14.264},"geometry":{"type":"Polygon","coordinates":[[[1.72233,50.44212],[1.7223,50.44293],[1.72791,50.44585],[1.72862,50.44642],[1.73067,50.44549],[1.72922,50.44395],[1.72402,50.44125],[1.72233,50.44212]]]}},{"type":"Feature","properties":{"k":"BTH","s":13.091},"geometry":{"type":"Polygon","coordinates":[[[1.7278,50.44582],[1.7223,50.44297],[1.72223,50.44426],[1.72222,50.44426],[1.72208,50.44661],[1.72458,50.44757],[1.72659,50.448],[1.7278,50.44582]]]}},{"type":"Feature","properties":{"k":"PPH","s":6.849},"geometry":{"type":"Polygon","coordinates":[[[1.73204,50.44148],[1.73198,50.44222],[1.73156,50.44221],[1.73093,50.44276],[1.72968,50.44205],[1.72974,50.44241],[1.73003,50.44236],[1.7298,50.44266],[1.73075,50.44346],[1.73292,50.44474],[1.7329,50.44454],[1.73332,50.4442],[1.73356,50.44432],[1.73384,50.44417],[1.73334,50.44387],[1.73375,50.44363],[1.73407,50.44394],[1.73388,50.44343],[1.73526,50.44266],[1.73581,50.44295],[1.73634,50.44264],[1.73582,50.44266],[1.73502,50.44232],[1.73478,50.44237],[1.73204,50.44148]]]}},{"type":"Feature","properties":{"k":"PPH","s":0.957},"geometry":{"type":"Polygon","coordinates":[[[1.73134,50.44396],[1.73069,50.44351],[1.72921,50.44395],[1.72986,50.44464],[1.73134,50.44396]]]}},{"type":"Feature","properties":{"k":"PTC","s":3.328},"geometry":{"type":"Polygon","coordinates":[[[1.72979,50.44015],[1.72952,50.44156],[1.72968,50.44205],[1.73093,50.44276],[1.73156,50.44224],[1.73171,50.44143],[1.73132,50.44029],[1.72979,50.44015]]]}},{"type":"Feature","properties":{"k":"BTH","s":0.009},"geometry":{"type":"Polygon","coordinates":[[[1.7188,50.44272],[1.71882,50.44268],[1.71712,50.44288],[1.7188,50.44272]]]}},{"type":"Feature","properties":{"k":"BTH","s":3.464},"geometry":{"type":"Polygon","coordinates":[[[1.73492,50.44141],[1.73379,50.44048],[1.73132,50.44029],[1.73171,50.44143],[1.73282,50.44165],[1.73472,50.44242],[1.73491,50.44227],[1.73492,50.44141]]]}},{"type":"Feature","properties":{"k":"BTH","s":30.276},"geometry":{"type":"Polygon","coordinates":[[[1.7262,50.44026],[1.72623,50.44076],[1.72965,50.44245],[1.72944,50.44155],[1.7297,50.44009],[1.73379,50.44048],[1.73492,50.44141],[1.73491,50.44234],[1.73582,50.44266],[1.73728,50.44252],[1.73696,50.43762],[1.73545,50.43745],[1.73494,50.43693],[1.73629,50.43621],[1.73588,50.43587],[1.73229,50.43692],[1.73057,50.43768],[1.7262,50.44026]]]}},{"type":"Feature","properties":{"k":"PTC","s":6.133},"geometry":{"type":"Polygon","coordinates":[[[1.73066,50.44352],[1.72862,50.44196],[1.72613,50.44088],[1.72545,50.44098],[1.72493,50.44088],[1.72402,50.44125],[1.72922,50.44395],[1.73066,50.44352]]]}},{"type":"Feature","properties":{"k":"PTC","s":7.73},"geometry":{"type":"Polygon","coordinates":[[[1.72248,50.43923],[1.7216,50.44003],[1.72022,50.43941],[1.71942,50.44146],[1.72134,50.44241],[1.72476,50.4404],[1.72474,50.44021],[1.72248,50.43923]]]}},{"type":"Feature","properties":{"k":"CAR","s":14.678},"geometry":{"type":"Polygon","coordinates":[[[1.72527,50.44009],[1.73058,50.43676],[1.7252,50.43452],[1.72402,50.43975],[1.72491,50.44016],[1.72527,50.44009]]]}},{"type":"Feature","properties":{"k":"PHF","s":2.324},"geometry":{"type":"Polygon","coordinates":[[[1.72219,50.43296],[1.72179,50.435],[1.72218,50.43604],[1.7213,50.43731],[1.72102,50.43863],[1.72166,50.43884],[1.72276,50.43332],[1.72219,50.43296]]]}},{"type":"Feature","properties":{"k":"PTC","s":0.001},"geometry":{"type":"Polygon","coordinates":[]}},{"type":"Feature","properties":{"k":"LIF","s":2.551},"geometry":{"type":"Polygon","coordinates":[[[1.72577,50.4499],[1.72639,50.44967],[1.72299,50.44916],[1.72477,50.45138],[1.72577,50.4499]]]}},{"type":"Feature","properties":{"k":"PTC","s":5.832},"geometry":{"type":"Polygon","coordinates":[[[1.72264,50.44693],[1.72152,50.44657],[1.72299,50.44916],[1.72639,50.44967],[1.72816,50.4485],[1.72259,50.44771],[1.72264,50.44693]]]}},{"type":"Feature","properties":{"k":"MIS","s":1.326},"geometry":{"type":"Polygon","coordinates":[[[1.72413,50.44758],[1.72256,50.44701],[1.72259,50.44771],[1.72827,50.44843],[1.72413,50.44758]]]}},{"type":"Feature","properties":{"k":"PPH","s":4.562},"geometry":{"type":"Polygon","coordinates":[[[1.72837,50.44834],[1.73085,50.44694],[1.72959,50.44607],[1.7286,50.44646],[1.72782,50.44584],[1.72665,50.44801],[1.72837,50.44834]]]}},{"type":"Feature","properties":{"k":"PPH","s":5.858},"geometry":{"type":"Polygon","coordinates":[[[1.73118,50.44868],[1.7332,50.44869],[1.73341,50.44745],[1.73292,50.44722],[1.73462,50.44618],[1.73377,50.44579],[1.7326,50.44652],[1.73194,50.4462],[1.73243,50.44659],[1.73195,50.44696],[1.73112,50.4474],[1.73072,50.44711],[1.72857,50.44832],[1.73118,50.44868]]]}},{"type":"Feature","properties":{"k":"PTC","s":3.222},"geometry":{"type":"Polygon","coordinates":[[[1.73348,50.44873],[1.73216,50.44874],[1.73287,50.45193],[1.73413,50.45184],[1.73348,50.44873]]]}},{"type":"Feature","properties":{"k":"BTN","s":15.281},"geometry":{"type":"Polygon","coordinates":[[[1.72592,50.4501],[1.72514,50.45125],[1.7312,50.45205],[1.73286,50.45193],[1.73213,50.44875],[1.72849,50.44844],[1.72592,50.4501]]]}},{"type":"Feature","properties":{"k":"BTH","s":0.003},"geometry":{"type":"Polygon","coordinates":[[[1.7251,50.45127],[1.72563,50.45133],[1.72511,50.45126],[1.7251,50.45127]]]}},{"type":"Feature","properties":{"k":"ORH","s":6.264},"geometry":{"type":"Polygon","coordinates":[[[1.74381,50.45415],[1.74622,50.45451],[1.74798,50.45198],[1.7474,50.45163],[1.74653,50.45173],[1.74569,50.45223],[1.74246,50.4535],[1.74381,50.45415]]]}},{"type":"Feature","properties":{"k":"MIS","s":5.458},"geometry":{"type":"Polygon","coordinates":[[[1.74358,50.4529],[1.74569,50.45206],[1.74689,50.45138],[1.74339,50.44903],[1.74358,50.4529]]]}},{"type":"Feature","properties":{"k":"MIS","s":2.533},"geometry":{"type":"Polygon","coordinates":[[[1.73945,50.45349],[1.74077,50.45355],[1.7423,50.45334],[1.74221,50.45236],[1.73941,50.45239],[1.73945,50.45349]]]}},{"type":"Feature","properties":{"k":"BTH","s":8.247},"geometry":{"type":"MultiPolygon","coordinates":[[[[1.73413,50.45184],[1.73777,50.45157],[1.73795,50.45207],[1.73683,50.44879],[1.73349,50.44877],[1.73413,50.45184]]],[[[1.73937,50.45239],[1.7394,50.45277],[1.73941,50.45239],[1.73937,50.45239]]]]}},{"type":"Feature","properties":{"k":"PPH","s":6.792},"geometry":{"type":"Polygon","coordinates":[[[1.73872,50.44913],[1.73885,50.44971],[1.73835,50.44972],[1.73828,50.44909],[1.73867,50.44906],[1.73886,50.44884],[1.73795,50.44864],[1.73738,50.44881],[1.73683,50.44879],[1.73805,50.45237],[1.74,50.45238],[1.73973,50.44817],[1.73941,50.44871],[1.73872,50.44913]]]}},{"type":"Feature","properties":{"k":"PPH","s":2.841},"geometry":{"type":"Polygon","coordinates":[[[1.73358,50.44743],[1.73445,50.44741],[1.73439,50.4487],[1.73597,50.4487],[1.73616,50.44674],[1.73488,50.44657],[1.73358,50.44743]]]}},{"type":"Feature","properties":{"k":"PPH","s":5.615},"geometry":{"type":"Polygon","coordinates":[[[1.73792,50.44858],[1.7391,50.44885],[1.73984,50.44774],[1.73877,50.44736],[1.7392,50.44691],[1.73634,50.44626],[1.73597,50.4487],[1.73722,50.44874],[1.73792,50.44858]]]}},{"type":"Feature","properties":{"k":"PTC","s":8.12},"geometry":{"type":"Polygon","coordinates":[[[1.74221,50.45236],[1.74189,50.44808],[1.74019,50.44732],[1.73973,50.44817],[1.74,50.45238],[1.74221,50.45236]]]}},{"type":"Feature","properties":{"k":"BTH","s":5.005},"geometry":{"type":"Polygon","coordinates":[[[1.7422,50.45231],[1.74231,50.45336],[1.74358,50.4529],[1.74339,50.44903],[1.74189,50.44808],[1.7422,50.45231]]]}},{"type":"Feature","properties":{"k":"LIF","s":7.506},"geometry":{"type":"Polygon","coordinates":[[[1.74515,50.44999],[1.74901,50.44836],[1.74737,50.44673],[1.74303,50.44862],[1.74515,50.44999]]]}},{"type":"Feature","properties":{"k":"MIS","s":0.801},"geometry":{"type":"Polygon","coordinates":[[[1.75366,50.44755],[1.75346,50.44721],[1.75084,50.44811],[1.75125,50.44837],[1.75366,50.44755]]]}},{"type":"Feature","properties":{"k":"BTH","s":1.511},"geometry":{"type":"Polygon","coordinates":[[[1.75236,50.44896],[1.7541,50.44828],[1.75366,50.44755],[1.75132,50.44836],[1.75236,50.44896]]]}},{"type":"Feature","properties":{"k":"BTH","s":2.359},"geometry":{"type":"Polygon","coordinates":[[[1.74798,50.45198],[1.74622,50.45451],[1.74725,50.45477],[1.74888,50.45246],[1.74798,50.45198]]]}},{"type":"Feature","properties":{"k":"BTH","s":3.679},"geometry":{"type":"Polygon","coordinates":[[[1.75053,50.45328],[1.74888,50.45246],[1.74725,50.45477],[1.74891,50.45534],[1.75053,50.45328]]]}},{"type":"Feature","properties":{"k":"MIS","s":2.293},"geometry":{"type":"Polygon","coordinates":[[[1.75437,50.45688],[1.75496,50.45655],[1.753,50.45592],[1.75307,50.45558],[1.75185,50.45525],[1.75213,50.45493],[1.75157,50.45463],[1.75071,50.45577],[1.75437,50.45688]]]}},{"type":"Feature","properties":{"k":"PPH","s":0.546},"geometry":{"type":"Polygon","coordinates":[[[1.75307,50.45558],[1.753,50.45592],[1.75496,50.45655],[1.75536,50.45633],[1.75307,50.45558]]]}},{"type":"Feature","properties":{"k":"BTH","s":2.236},"geometry":{"type":"Polygon","coordinates":[[[1.75152,50.45461],[1.75005,50.45382],[1.74891,50.45534],[1.75068,50.45579],[1.75152,50.45461]]]}},{"type":"Feature","properties":{"k":"ORH","s":0.419},"geometry":{"type":"MultiPolygon","coordinates":[[[[1.72099,50.43862],[1.72126,50.43737],[1.72051,50.43845],[1.72099,50.43862]]],[[[1.72214,50.43305],[1.72162,50.43454],[1.72176,50.43492],[1.72214,50.43305]]]]}}]}