{"type":"FeatureCollection","features":[{"type":"Feature","properties":{"k":"PTR","s":0.361},"geometry":{"type":"Polygon","coordinates":[[[2.70391,50.36513],[2.70382,50.365],[2.70137,50.36655],[2.70115,50.36649],[2.70151,50.36664],[2.70391,50.36513]]]}},{"type":"Feature","properties":{"k":"BTH","s":0.29},"geometry":{"type":"Polygon","coordinates":[[[2.70649,50.36636],[2.70612,50.36614],[2.70528,50.36632],[2.70512,50.36622],[2.70587,50.36674],[2.70649,50.36636]]]}},{"type":"Feature","properties":{"k":"MIS","s":2.586},"geometry":{"type":"Polygon","coordinates":[[[2.70587,50.36674],[2.70457,50.3659],[2.70253,50.36716],[2.70396,50.36792],[2.70587,50.36674]]]}},{"type":"Feature","properties":{"k":"MIS","s":2.029},"geometry":{"type":"Polygon","coordinates":[[[2.70251,50.36717],[2.70457,50.3659],[2.70391,50.36513],[2.70152,50.36665],[2.70251,50.36717]]]}},{"type":"Feature","properties":{"k":"BTN","s":28.98},"geometry":{"type":"Polygon","coordinates":[[[2.69205,50.37096],[2.69355,50.37272],[2.69553,50.37143],[2.6951,50.3712],[2.70159,50.36674],[2.69781,50.36545],[2.69708,50.36645],[2.69381,50.36568],[2.69275,50.36683],[2.69176,50.3699],[2.69205,50.37096]]]}},{"type":"Feature","properties":{"k":"BTH","s":11.588},"geometry":{"type":"Polygon","coordinates":[[[2.6965,50.37196],[2.6967,50.37181],[2.69776,50.37247],[2.69917,50.3712],[2.70257,50.36889],[2.70028,50.36763],[2.6951,50.3712],[2.6965,50.37196]]]}},{"type":"Feature","properties":{"k":"PTR","s":0.821},"geometry":{"type":"Polygon","coordinates":[[[2.70036,50.37049],[2.69886,50.37159],[2.6994,50.37185],[2.70085,50.37082],[2.70036,50.37049]]]}},{"type":"Feature","properties":{"k":"BTN","s":1.29},"geometry":{"type":"Polygon","coordinates":[[[2.70315,50.36848],[2.70085,50.36726],[2.70028,50.36763],[2.70257,50.36889],[2.70315,50.36848]]]}},{"type":"Feature","properties":{"k":"ORH","s":11.828},"geometry":{"type":"Polygon","coordinates":[[[2.70642,50.37041],[2.70751,50.37033],[2.70883,50.36918],[2.71047,50.36836],[2.70843,50.36685],[2.70784,50.36713],[2.70656,50.3664],[2.70359,50.36829],[2.70642,50.37041]]]}},{"type":"Feature","properties":{"k":"BTH","s":4.845},"geometry":{"type":"Polygon","coordinates":[[[2.7038,50.37292],[2.70642,50.37041],[2.70538,50.36963],[2.70208,50.37183],[2.7038,50.37292]]]}},{"type":"Feature","properties":{"k":"ORH","s":6.402},"geometry":{"type":"Polygon","coordinates":[[[2.70359,50.36829],[2.70051,50.3704],[2.70208,50.37183],[2.70538,50.36963],[2.70359,50.36829]]]}},{"type":"Feature","properties":{"k":"PHF","s":11.712},"geometry":{"type":"Polygon","coordinates":[[[2.70386,50.373],[2.70423,50.37362],[2.70319,50.37526],[2.70366,50.3754],[2.70356,50.37567],[2.70509,50.37612],[2.70677,50.37422],[2.7096,50.37579],[2.71109,50.37524],[2.70518,50.37172],[2.70386,50.373]]]}},{"type":"Feature","properties":{"k":"PPH","s":1.384},"geometry":{"type":"Polygon","coordinates":[[[2.69888,50.3746],[2.69824,50.37535],[2.69953,50.37536],[2.69953,50.37568],[2.70071,50.37578],[2.70071,50.37624],[2.70114,50.37632],[2.70126,50.37584],[2.70029,50.37572],[2.70032,50.37498],[2.70076,50.37496],[2.69888,50.3746]]]}},{"type":"Feature","properties":{"k":"BTH","s":6.486},"geometry":{"type":"Polygon","coordinates":[[[2.70043,50.37328],[2.69949,50.37406],[2.69706,50.37316],[2.69633,50.37378],[2.69768,50.37426],[2.69704,50.37483],[2.69826,50.37526],[2.69888,50.3746],[2.70291,50.37533],[2.70362,50.37445],[2.70043,50.37328]]]}},{"type":"Feature","properties":{"k":"BTH","s":9.767},"geometry":{"type":"Polygon","coordinates":[[[2.69881,50.37162],[2.69705,50.37315],[2.69949,50.37406],[2.70043,50.37328],[2.70363,50.37445],[2.70413,50.37356],[2.70362,50.37293],[2.70243,50.37227],[2.70085,50.37082],[2.6994,50.37185],[2.69881,50.37162]]]}},{"type":"Feature","properties":{"k":"BTH","s":0.871},"geometry":{"type":"Polygon","coordinates":[[[2.69703,50.37483],[2.69768,50.37426],[2.69633,50.37378],[2.69565,50.37435],[2.69703,50.37483]]]}},{"type":"Feature","properties":{"k":"PPH","s":1.142},"geometry":{"type":"Polygon","coordinates":[[[2.69639,50.37461],[2.69651,50.37511],[2.69617,50.37552],[2.69736,50.37596],[2.69833,50.37615],[2.6985,50.37541],[2.69823,50.37539],[2.69819,50.37523],[2.69788,50.376],[2.69734,50.37587],[2.69772,50.37507],[2.69639,50.37461]]]}},{"type":"Feature","properties":{"k":"BTH","s":10.278},"geometry":{"type":"Polygon","coordinates":[[[2.69263,50.37185],[2.68812,50.37519],[2.68935,50.37522],[2.69153,50.37561],[2.69283,50.37628],[2.69386,50.375],[2.69332,50.37469],[2.69466,50.37375],[2.69263,50.37185]]]}},{"type":"Feature","properties":{"k":"BTH","s":4.637},"geometry":{"type":"Polygon","coordinates":[[[2.69554,50.37428],[2.6976,50.37258],[2.69553,50.37143],[2.69355,50.37272],[2.69554,50.37428]]]}},{"type":"Feature","properties":{"k":"PHF","s":0.001},"geometry":{"type":"Polygon","coordinates":[[[2.69224,50.36811],[2.6923,50.36793],[2.69223,50.3681],[2.69224,50.36811]]]}},{"type":"Feature","properties":{"k":"PTC","s":0.084},"geometry":{"type":"MultiPolygon","coordinates":[[[[2.6918,50.369],[2.68875,50.36736],[2.68874,50.36736],[2.6918,50.369]]],[[[2.69223,50.3681],[2.69218,50.36823],[2.69224,50.36811],[2.69223,50.3681]]]]}},{"type":"Feature","properties":{"k":"BOR","s":0.206},"geometry":{"type":"Polygon","coordinates":[[[2.68945,50.3722],[2.6915,50.37061],[2.69147,50.37059],[2.68945,50.3722]]]}},{"type":"Feature","properties":{"k":"BTH","s":4.843},"geometry":{"type":"Polygon","coordinates":[[[2.68944,50.37221],[2.68526,50.36996],[2.68417,50.37077],[2.68827,50.37306],[2.68944,50.37221]]]}},{"type":"Feature","properties":{"k":"LIF","s":8.552},"geometry":{"type":"Polygon","coordinates":[[[2.68935,50.37215],[2.69147,50.37059],[2.68747,50.36844],[2.68536,50.37002],[2.68935,50.37215]]]}},{"type":"Feature","properties":{"k":"BTH","s":4.682},"geometry":{"type":"Polygon","coordinates":[[[2.69162,50.37],[2.69176,50.36904],[2.68874,50.36737],[2.68742,50.36835],[2.69109,50.37035],[2.69162,50.37]]]}},{"type":"Feature","properties":{"k":"BOR","s":0.205},"geometry":{"type":"Polygon","coordinates":[[[2.6873,50.36845],[2.68526,50.36997],[2.68536,50.37002],[2.68747,50.36844],[2.6873,50.36845]]]}},{"type":"Feature","properties":{"k":"BTH","s":8.548},"geometry":{"type":"Polygon","coordinates":[[[2.68812,50.37519],[2.69263,50.37185],[2.69171,50.37054],[2.68544,50.37515],[2.68812,50.37519]]]}},{"type":"Feature","properties":{"k":"PHF","s":1.925},"geometry":{"type":"Polygon","coordinates":[[[2.68827,50.37306],[2.68584,50.37175],[2.68663,50.37221],[2.6855,50.37302],[2.68699,50.37388],[2.68697,50.37401],[2.68827,50.37306]]]}},{"type":"Feature","properties":{"k":"BTH","s":0.109},"geometry":{"type":"Polygon","coordinates":[[[2.68697,50.37401],[2.68688,50.37396],[2.68529,50.37516],[2.68697,50.37401]]]}},{"type":"Feature","properties":{"k":"BTH","s":0.803},"geometry":{"type":"Polygon","coordinates":[[[2.68501,50.3792],[2.68572,50.37861],[2.68501,50.3782],[2.68391,50.379],[2.68447,50.37933],[2.68501,50.3792]]]}},{"type":"Feature","properties":{"k":"ORP","s":0.753},"geometry":{"type":"Polygon","coordinates":[[[2.68669,50.37765],[2.68624,50.37731],[2.68504,50.37818],[2.68573,50.37859],[2.68669,50.37765]]]}},{"type":"Feature","properties":{"k":"BTH","s":0.414},"geometry":{"type":"Polygon","coordinates":[[[2.68681,50.37764],[2.68658,50.37789],[2.68773,50.37827],[2.68831,50.37867],[2.68851,50.37841],[2.68681,50.37764]]]}},{"type":"Feature","properties":{"k":"BTH","s":2.222},"geometry":{"type":"Polygon","coordinates":[[[2.68656,50.37791],[2.68506,50.3792],[2.68768,50.37945],[2.68829,50.37867],[2.68656,50.37791]]]}},{"type":"Feature","properties":{"k":"PPH","s":0.566},"geometry":{"type":"Polygon","coordinates":[[[2.68768,50.37945],[2.68832,50.37951],[2.68909,50.37885],[2.68848,50.37843],[2.68768,50.37945]]]}},{"type":"Feature","properties":{"k":"MIS","s":4.934},"geometry":{"type":"Polygon","coordinates":[[[2.68805,50.37678],[2.68742,50.37687],[2.68696,50.37668],[2.68635,50.37724],[2.6895,50.37895],[2.6918,50.37959],[2.69236,50.37926],[2.69044,50.37792],[2.68805,50.37678]],[[2.6872,50.37713],[2.68997,50.37844],[2.68923,50.37812],[2.6872,50.37713]]]}},{"type":"Feature","properties":{"k":"NVT","s":1.332},"geometry":{"type":"Polygon","coordinates":[[[2.68871,50.37534],[2.68776,50.3753],[2.68575,50.37691],[2.68635,50.37724],[2.68871,50.37534]]]}},{"type":"Feature","properties":{"k":"ORH","s":6.307},"geometry":{"type":"Polygon","coordinates":[[[2.68703,50.37666],[2.68741,50.37684],[2.68804,50.37676],[2.69044,50.37792],[2.69272,50.37646],[2.69136,50.37574],[2.68871,50.37534],[2.68703,50.37666]]]}},{"type":"Feature","properties":{"k":"BTH","s":0.264},"geometry":{"type":"Polygon","coordinates":[[[2.69225,50.37681],[2.69099,50.37753],[2.6912,50.37762],[2.69202,50.37716],[2.6929,50.37654],[2.69276,50.37647],[2.69225,50.37681]]]}},{"type":"Feature","properties":{"k":"JAC","s":0.639},"geometry":{"type":"Polygon","coordinates":[[[2.6944,50.37626],[2.69436,50.37607],[2.69301,50.37613],[2.69291,50.37635],[2.69414,50.37678],[2.69457,50.3763],[2.69542,50.37625],[2.6944,50.37626]]]}},{"type":"Feature","properties":{"k":"CZH","s":0.544},"geometry":{"type":"Polygon","coordinates":[[[2.69494,50.37718],[2.69331,50.37672],[2.69286,50.37706],[2.69462,50.37746],[2.69494,50.37718]]]}},{"type":"Feature","properties":{"k":"ORH","s":0.889},"geometry":{"type":"Polygon","coordinates":[[[2.69406,50.37784],[2.69459,50.37746],[2.69285,50.37706],[2.69329,50.3767],[2.69291,50.37654],[2.69203,50.37715],[2.69406,50.37784]]]}},{"type":"Feature","properties":{"k":"PPH","s":0.101},"geometry":{"type":"Polygon","coordinates":[[[2.69337,50.37831],[2.69403,50.37852],[2.69422,50.37839],[2.69357,50.37818],[2.69337,50.37831]]]}},{"type":"Feature","properties":{"k":"BTH","s":0.776},"geometry":{"type":"Polygon","coordinates":[[[2.69418,50.37833],[2.69593,50.37739],[2.69495,50.37717],[2.69381,50.37803],[2.69418,50.37833]]]}},{"type":"Feature","properties":{"k":"MIS","s":2.225},"geometry":{"type":"Polygon","coordinates":[[[2.69285,50.37897],[2.69383,50.37917],[2.69398,50.37854],[2.69094,50.37755],[2.69044,50.37792],[2.69236,50.37926],[2.69285,50.37897]]]}},{"type":"Feature","properties":{"k":"BTH","s":1.218},"geometry":{"type":"Polygon","coordinates":[[[2.69118,50.37764],[2.69331,50.37831],[2.69403,50.37783],[2.69202,50.37716],[2.69118,50.37764]]]}},{"type":"Feature","properties":{"k":"PPH","s":0.923},"geometry":{"type":"Polygon","coordinates":[[[2.69336,50.38095],[2.69175,50.3807],[2.69152,50.38144],[2.69333,50.38158],[2.69336,50.38095]]]}},{"type":"Feature","properties":{"k":"FVP","s":1.021},"geometry":{"type":"Polygon","coordinates":[[[2.69676,50.38229],[2.69608,50.38167],[2.69543,50.38192],[2.69505,50.3816],[2.69467,50.38171],[2.69576,50.38285],[2.69676,50.38229]]]}},{"type":"Feature","properties":{"k":"SPH","s":0.189},"geometry":{"type":"Polygon","coordinates":[[[2.69562,50.38293],[2.69577,50.38286],[2.69467,50.38171],[2.69451,50.38177],[2.69562,50.38293]]]}},{"type":"Feature","properties":{"k":"LUZ","s":0.382},"geometry":{"type":"Polygon","coordinates":[[[2.69419,50.38186],[2.69387,50.38196],[2.69503,50.38319],[2.69523,50.38299],[2.69419,50.38186]]]}},{"type":"Feature","properties":{"k":"BTH","s":0.405},"geometry":{"type":"Polygon","coordinates":[[[2.69562,50.38293],[2.6945,50.38176],[2.69418,50.38186],[2.6953,50.38307],[2.69562,50.38293]]]}},{"type":"Feature","properties":{"k":"PPH","s":0.151},"geometry":{"type":"Polygon","coordinates":[[[2.69432,50.38359],[2.69363,50.3828],[2.69349,50.38288],[2.6942,50.38374],[2.69432,50.38359]]]}},{"type":"Feature","properties":{"k":"LUZ","s":0.441},"geometry":{"type":"Polygon","coordinates":[[[2.69481,50.38329],[2.69406,50.38249],[2.69363,50.3828],[2.69432,50.38357],[2.69481,50.38329]]]}},{"type":"Feature","properties":{"k":"PPH","s":0.356},"geometry":{"type":"Polygon","coordinates":[[[2.69274,50.38218],[2.69245,50.38202],[2.69256,50.38289],[2.69279,50.38281],[2.69273,50.3824],[2.69398,50.38235],[2.69391,50.38216],[2.69274,50.38218]]]}},{"type":"Feature","properties":{"k":"PPH","s":1.482},"geometry":{"type":"Polygon","coordinates":[[[2.69141,50.3832],[2.69255,50.38287],[2.69245,50.38202],[2.69274,50.38218],[2.69311,50.38214],[2.69314,50.38162],[2.69158,50.38151],[2.69141,50.3832]]]}},{"type":"Feature","properties":{"k":"PPH","s":1.997},"geometry":{"type":"Polygon","coordinates":[[[2.69009,50.38181],[2.69017,50.38204],[2.68826,50.3819],[2.68829,50.38227],[2.68803,50.38228],[2.68802,50.38301],[2.69049,50.38294],[2.6901,50.38217],[2.69146,50.38214],[2.69144,50.38181],[2.69009,50.38181]]]}},{"type":"Feature","properties":{"k":"JAC","s":1.02},"geometry":{"type":"Polygon","coordinates":[[[2.68712,50.38307],[2.68711,50.38267],[2.68745,50.38265],[2.68747,50.38227],[2.68703,50.38243],[2.68631,50.38239],[2.6863,50.38185],[2.68588,50.38186],[2.68578,50.38319],[2.68712,50.38307]]]}},{"type":"Feature","properties":{"k":"JAC","s":0.203},"geometry":{"type":"Polygon","coordinates":[[[2.68996,50.38084],[2.68948,50.38087],[2.68944,50.38142],[2.68986,50.38142],[2.68996,50.38084]]]}},{"type":"Feature","properties":{"k":"AVP","s":2.548},"geometry":{"type":"Polygon","coordinates":[[[2.69116,50.38023],[2.69148,50.37966],[2.68994,50.37928],[2.68909,50.37889],[2.68834,50.37952],[2.68692,50.37937],[2.68672,50.37984],[2.69116,50.38023]]]}},{"type":"Feature","properties":{"k":"JAC","s":0.415},"geometry":{"type":"Polygon","coordinates":[[[2.68739,50.38074],[2.68735,50.37995],[2.68672,50.37986],[2.68675,50.38075],[2.68739,50.38074]]]}},{"type":"Feature","properties":{"k":"JAC","s":0.718},"geometry":{"type":"Polygon","coordinates":[[[2.68489,50.38015],[2.68519,50.38096],[2.68622,50.38077],[2.68598,50.37992],[2.68489,50.38015]]]}},{"type":"Feature","properties":{"k":"FVP","s":0.427},"geometry":{"type":"Polygon","coordinates":[[[2.68622,50.38077],[2.68675,50.38075],[2.68671,50.37988],[2.68608,50.37995],[2.68622,50.38077]]]}},{"type":"Feature","properties":{"k":"LUZ","s":0.236},"geometry":{"type":"Polygon","coordinates":[[[2.6846,50.38112],[2.68434,50.38019],[2.68404,50.38023],[2.68432,50.38122],[2.6846,50.38112]]]}},{"type":"Feature","properties":{"k":"JAC","s":0.32},"geometry":{"type":"Polygon","coordinates":[[[2.68387,50.38139],[2.68426,50.38126],[2.68392,50.38032],[2.68355,50.38038],[2.68387,50.38139]]]}},{"type":"Feature","properties":{"k":"PPH","s":2.499},"geometry":{"type":"Polygon","coordinates":[[[2.68569,50.38321],[2.68572,50.38265],[2.68521,50.38265],[2.68519,50.38229],[2.68426,50.38229],[2.68422,50.38212],[2.68221,50.3826],[2.68181,50.38316],[2.68294,50.3829],[2.68298,50.38302],[2.68175,50.38331],[2.68171,50.38362],[2.68402,50.38314],[2.68569,50.38321]]]}},{"type":"Feature","properties":{"k":"CZH","s":4.35},"geometry":{"type":"Polygon","coordinates":[[[2.68473,50.38533],[2.68697,50.3849],[2.68567,50.38323],[2.68446,50.38311],[2.68246,50.38348],[2.6828,50.38395],[2.68359,50.38386],[2.68473,50.38533]]]}},{"type":"Feature","properties":{"k":"PPH","s":1.217},"geometry":{"type":"Polygon","coordinates":[[[2.68358,50.38386],[2.68269,50.38396],[2.68383,50.38552],[2.68475,50.38535],[2.68358,50.38386]]]}},{"type":"Feature","properties":{"k":"CZH","s":1.694},"geometry":{"type":"Polygon","coordinates":[[[2.68592,50.38321],[2.68582,50.38327],[2.68641,50.38406],[2.68896,50.3837],[2.68842,50.38301],[2.68592,50.38321]]]}},{"type":"Feature","properties":{"k":"BTN","s":4.152},"geometry":{"type":"Polygon","coordinates":[[[2.68896,50.3837],[2.68641,50.38407],[2.68799,50.38607],[2.68857,50.3858],[2.69035,50.38549],[2.68896,50.3837]]]}},{"type":"Feature","properties":{"k":"CZH","s":4.123},"geometry":{"type":"Polygon","coordinates":[[[2.68751,50.38603],[2.68785,50.38605],[2.68707,50.38503],[2.68585,50.38518],[2.68626,50.38811],[2.68959,50.38749],[2.6888,50.38709],[2.68842,50.38734],[2.68785,50.38731],[2.68768,50.38645],[2.68727,50.38622],[2.68751,50.38603]]]}},{"type":"Feature","properties":{"k":"BTH","s":7.084},"geometry":{"type":"Polygon","coordinates":[[[2.68468,50.38918],[2.68626,50.38811],[2.68585,50.38518],[2.68274,50.38577],[2.68326,50.38723],[2.68468,50.38918]]]}},{"type":"Feature","properties":{"k":"PHF","s":0.595},"geometry":{"type":"MultiPolygon","coordinates":[[[[2.6882,50.38601],[2.68799,50.38632],[2.68864,50.38688],[2.68922,50.38599],[2.68873,50.38587],[2.6882,50.38601]]]]}},{"type":"Feature","properties":{"k":"BTH","s":3.107},"geometry":{"type":"Polygon","coordinates":[[[2.69235,50.38678],[2.69326,50.38539],[2.69185,50.38503],[2.68999,50.38567],[2.68876,50.38583],[2.69235,50.38678]]]}},{"type":"Feature","properties":{"k":"MIS","s":4.606},"geometry":{"type":"Polygon","coordinates":[[[2.68842,50.38302],[2.69035,50.38549],[2.69255,50.38477],[2.69126,50.38305],[2.68842,50.38302]]]}},{"type":"Feature","properties":{"k":"BTN","s":2.521},"geometry":{"type":"Polygon","coordinates":[[[2.69142,50.38322],[2.69258,50.38473],[2.69331,50.38447],[2.69418,50.38374],[2.69332,50.3827],[2.69142,50.38322]]]}},{"type":"Feature","properties":{"k":"BTN","s":1.752},"geometry":{"type":"MultiPolygon","coordinates":[[[[2.69426,50.38562],[2.69468,50.38528],[2.69273,50.38478],[2.69186,50.38503],[2.69426,50.38562]]],[[[2.69936,50.38314],[2.69737,50.38317],[2.6969,50.38354],[2.69909,50.38387],[2.69936,50.38314]]]]}},{"type":"Feature","properties":{"k":"PHF","s":2.932},"geometry":{"type":"Polygon","coordinates":[[[2.69378,50.38425],[2.69273,50.38478],[2.69468,50.38528],[2.69656,50.38378],[2.69526,50.38316],[2.69378,50.38425]]]}},{"type":"Feature","properties":{"k":"MIS","s":1.924},"geometry":{"type":"Polygon","coordinates":[[[2.6993,50.38345],[2.70254,50.38432],[2.70284,50.38367],[2.69957,50.38276],[2.6993,50.38345]]]}},{"type":"Feature","properties":{"k":"MIS","s":1.52},"geometry":{"type":"Polygon","coordinates":[[[2.69911,50.38411],[2.70235,50.38474],[2.70254,50.38432],[2.6993,50.38345],[2.69911,50.38411]]]}},{"type":"Feature","properties":{"k":"BTH","s":0.072},"geometry":{"type":"Polygon","coordinates":[[[2.6991,50.38413],[2.70232,50.3848],[2.70234,50.38475],[2.6991,50.38413]]]}},{"type":"Feature","properties":{"k":"BTH","s":0.038},"geometry":{"type":"Polygon","coordinates":[[[2.70317,50.38348],[2.70389,50.38372],[2.70409,50.38402],[2.70411,50.38373],[2.70317,50.38348]]]}},{"type":"Feature","properties":{"k":"MOT","s":0.002},"geometry":{"type":"MultiPolygon","coordinates":[[[[2.708,50.38451],[2.70801,50.3845],[2.70786,50.38452],[2.708,50.38451]]],[[[2.7069,50.38472],[2.70721,50.38462],[2.7069,50.38467],[2.7069,50.38472]]]]}},{"type":"Feature","properties":{"k":"MIS","s":0.004},"geometry":{"type":"MultiPolygon","coordinates":[[[[2.70899,50.38458],[2.70901,50.38455],[2.7087,50.38454],[2.70899,50.38458]]],[[[2.708,50.38451],[2.70812,50.38451],[2.70801,50.3845],[2.708,50.38451]]]]}},{"type":"Feature","properties":{"k":"PPH","s":0.82},"geometry":{"type":"Polygon","coordinates":[[[2.70356,50.38026],[2.70442,50.38064],[2.70472,50.38029],[2.70338,50.37961],[2.70348,50.37934],[2.70256,50.37921],[2.70356,50.38026]]]}},{"type":"Feature","properties":{"k":"MIS","s":0.994},"geometry":{"type":"Polygon","coordinates":[[[2.70096,50.38247],[2.70069,50.38279],[2.69968,50.38255],[2.69957,50.38278],[2.70286,50.38364],[2.70296,50.38343],[2.70096,50.38247]]]}},{"type":"Feature","properties":{"k":"MIS","s":2.311},"geometry":{"type":"Polygon","coordinates":[[[2.69738,50.38317],[2.69935,50.38314],[2.69958,50.38255],[2.70027,50.38175],[2.69977,50.38176],[2.69974,50.38193],[2.69925,50.38194],[2.69923,50.38181],[2.69751,50.38196],[2.69738,50.38317]]]}},{"type":"Feature","properties":{"k":"BTN","s":1.492},"geometry":{"type":"Polygon","coordinates":[[[2.69526,50.38316],[2.69656,50.38378],[2.69738,50.38317],[2.69751,50.38196],[2.69526,50.38316]]]}},{"type":"Feature","properties":{"k":"BTH","s":1.581},"geometry":{"type":"Polygon","coordinates":[[[2.69742,50.38191],[2.6981,50.38178],[2.69816,50.38129],[2.69844,50.38127],[2.69858,50.38112],[2.6994,50.38135],[2.69963,50.38106],[2.69887,50.38083],[2.69876,50.38093],[2.6971,50.38103],[2.6969,50.38129],[2.69605,50.38167],[2.69677,50.38228],[2.69742,50.38191]]]}},{"type":"Feature","properties":{"k":"PPH","s":3.19},"geometry":{"type":"Polygon","coordinates":[[[2.70113,50.38151],[2.7025,50.38047],[2.7025,50.37997],[2.6997,50.37985],[2.69955,50.38021],[2.69887,50.38022],[2.69874,50.38048],[2.6993,50.38041],[2.69887,50.38083],[2.70113,50.38151]]]}},{"type":"Feature","properties":{"k":"PPH","s":0.168},"geometry":{"type":"Polygon","coordinates":[[[2.69874,50.377],[2.69888,50.3763],[2.69859,50.37623],[2.69845,50.37696],[2.69874,50.377]]]}},{"type":"Feature","properties":{"k":"PPH","s":0.936},"geometry":{"type":"Polygon","coordinates":[[[2.6977,50.37644],[2.69756,50.3774],[2.69827,50.37743],[2.69857,50.37623],[2.69737,50.37597],[2.69723,50.37626],[2.6977,50.37644]]]}},{"type":"Feature","properties":{"k":"PTR","s":1.945},"geometry":{"type":"Polygon","coordinates":[[[2.70124,50.37635],[2.70063,50.37623],[2.70069,50.3758],[2.69951,50.37568],[2.69951,50.3754],[2.69851,50.37541],[2.69833,50.37617],[2.69952,50.37644],[2.69936,50.37689],[2.70022,50.37698],[2.7002,50.37654],[2.70114,50.3767],[2.70124,50.37635]]]}},{"type":"Feature","properties":{"k":"PPH","s":0.125},"geometry":{"type":"Polygon","coordinates":[[[2.70248,50.37631],[2.70258,50.37594],[2.70218,50.37588],[2.70207,50.37623],[2.70248,50.37631]]]}},{"type":"Feature","properties":{"k":"PPH","s":1.136},"geometry":{"type":"Polygon","coordinates":[[[2.70474,50.37659],[2.70331,50.37635],[2.7047,50.37665],[2.70407,50.37749],[2.70465,50.37762],[2.70453,50.3778],[2.7049,50.37791],[2.70538,50.37737],[2.70523,50.37732],[2.70566,50.37648],[2.70503,50.37623],[2.70474,50.37659]]]}},{"type":"Feature","properties":{"k":"PPH","s":0.239},"geometry":{"type":"Polygon","coordinates":[[[2.70568,50.37874],[2.70603,50.37886],[2.70635,50.37874],[2.70652,50.37887],[2.7069,50.37871],[2.70656,50.37847],[2.70608,50.37847],[2.70568,50.37874]]]}},{"type":"Feature","properties":{"k":"PTR","s":0.731},"geometry":{"type":"Polygon","coordinates":[[[2.70855,50.37859],[2.70783,50.3781],[2.70764,50.37827],[2.70825,50.37898],[2.7078,50.37912],[2.7079,50.37926],[2.70833,50.37908],[2.70878,50.3796],[2.70934,50.3794],[2.70855,50.37859]]]}},{"type":"Feature","properties":{"k":"ORH","s":0.967},"geometry":{"type":"Polygon","coordinates":[[[2.7051,50.37613],[2.7074,50.37724],[2.70776,50.37698],[2.70542,50.37569],[2.7051,50.37613]]]}},{"type":"Feature","properties":{"k":"BTN","s":4.384},"geometry":{"type":"Polygon","coordinates":[[[2.70947,50.37571],[2.70677,50.37422],[2.70542,50.37569],[2.70773,50.37697],[2.70947,50.37571]]]}},{"type":"Feature","properties":{"k":"BTH","s":1.305},"geometry":{"type":"Polygon","coordinates":[[[2.71237,50.37743],[2.71291,50.3772],[2.71019,50.37562],[2.70948,50.37595],[2.71037,50.37657],[2.71079,50.37635],[2.71237,50.37743]]]}},{"type":"Feature","properties":{"k":"BTH","s":5.026},"geometry":{"type":"Polygon","coordinates":[[[2.70809,50.37685],[2.70873,50.3773],[2.70765,50.37786],[2.70855,50.37859],[2.70907,50.37831],[2.70947,50.37872],[2.7107,50.37825],[2.71047,50.37795],[2.71198,50.3772],[2.71079,50.37635],[2.71037,50.37657],[2.70946,50.37596],[2.70809,50.37685]]]}},{"type":"Feature","properties":{"k":"PTR","s":0.994},"geometry":{"type":"Polygon","coordinates":[[[2.71278,50.37805],[2.71342,50.37809],[2.71379,50.37843],[2.7141,50.37843],[2.71445,50.37807],[2.71292,50.37719],[2.71224,50.37751],[2.71278,50.37805]]]}},{"type":"Feature","properties":{"k":"PPH","s":5.033},"geometry":{"type":"MultiPolygon","coordinates":[[[[2.71366,50.37957],[2.71419,50.37921],[2.71451,50.37977],[2.71548,50.37987],[2.71579,50.37887],[2.71459,50.3789],[2.7148,50.37841],[2.71379,50.37843],[2.71342,50.37809],[2.71278,50.37805],[2.71224,50.37751],[2.71238,50.37742],[2.71198,50.3772],[2.71047,50.37795],[2.71178,50.37953],[2.71271,50.37969],[2.71288,50.37957],[2.71239,50.37934],[2.71239,50.37909],[2.71243,50.37912],[2.71242,50.37919],[2.71261,50.37891],[2.71277,50.379],[2.71285,50.37896],[2.71292,50.37892],[2.71324,50.37918],[2.71309,50.37926],[2.71366,50.37957]],[[2.71229,50.37912],[2.7122,50.37895],[2.71234,50.37891],[2.71243,50.37908],[2.71239,50.37909],[2.71229,50.37912]],[[2.71212,50.3784],[2.71217,50.37844],[2.71214,50.37845],[2.71212,50.3784]]],[[[2.71241,50.37919],[2.71248,50.37928],[2.71258,50.3793],[2.71248,50.37922],[2.7127,50.3791],[2.71265,50.37906],[2.71277,50.379],[2.71263,50.37897],[2.71251,50.37908],[2.71242,50.37919],[2.71241,50.37919]],[[2.71246,50.37916],[2.71257,50.37904],[2.71267,50.37911],[2.71246,50.37916]]],[[[2.71252,50.37932],[2.71283,50.37951],[2.71309,50.37926],[2.71276,50.37943],[2.71258,50.3793],[2.71252,50.37932]]]]}},{"type":"Feature","properties":{"k":"BTH","s":1.704},"geometry":{"type":"Polygon","coordinates":[[[2.71445,50.37807],[2.71472,50.37771],[2.71071,50.3754],[2.71017,50.3756],[2.71445,50.37807]]]}},{"type":"Feature","properties":{"k":"BTH","s":4.493},"geometry":{"type":"Polygon","coordinates":[[[2.71071,50.3754],[2.71472,50.37771],[2.71577,50.37613],[2.71194,50.37507],[2.71071,50.3754]]]}},{"type":"Feature","properties":{"k":"MIS","s":3.98},"geometry":{"type":"Polygon","coordinates":[[[2.71862,50.37678],[2.71904,50.37622],[2.71325,50.37456],[2.71194,50.37507],[2.71862,50.37678]]]}},{"type":"Feature","properties":{"k":"MIS","s":3.151},"geometry":{"type":"Polygon","coordinates":[[[2.71579,50.37611],[2.71449,50.37802],[2.71489,50.37823],[2.71459,50.3789],[2.71578,50.37887],[2.71724,50.37647],[2.71579,50.37611]]]}},{"type":"Feature","properties":{"k":"PTC","s":2.535},"geometry":{"type":"Polygon","coordinates":[[[2.72029,50.3773],[2.71729,50.37644],[2.71662,50.37738],[2.71877,50.37794],[2.71824,50.37861],[2.71888,50.37782],[2.71978,50.37809],[2.72029,50.3773]]]}},{"type":"Feature","properties":{"k":"PHF","s":0.006},"geometry":{"type":"MultiPolygon","coordinates":[[[[2.6617,50.38787],[2.66192,50.38793],[2.66172,50.38783],[2.66146,50.38787],[2.6617,50.38787]]]]}},{"type":"Feature","properties":{"k":"PPH","s":4.046},"geometry":{"type":"Polygon","coordinates":[[[2.6629,50.38786],[2.66159,50.38794],[2.66045,50.38735],[2.65858,50.38937],[2.65953,50.38974],[2.66028,50.38931],[2.66119,50.38969],[2.6629,50.38786]]]}},{"type":"Feature","properties":{"k":"PPH","s":1.33},"geometry":{"type":"Polygon","coordinates":[[[2.65738,50.38829],[2.65699,50.38869],[2.65849,50.38931],[2.65854,50.38908],[2.65866,50.38913],[2.65951,50.38821],[2.6592,50.38809],[2.65738,50.38829]]]}},{"type":"Feature","properties":{"k":"JAC","s":0.054},"geometry":{"type":"Polygon","coordinates":[[[2.66117,50.38971],[2.66184,50.3896],[2.6614,50.38947],[2.66117,50.38971]]]}},{"type":"Feature","properties":{"k":"JAC","s":0.156},"geometry":{"type":"Polygon","coordinates":[[[2.66094,50.39114],[2.66119,50.39123],[2.66182,50.39064],[2.6616,50.39056],[2.66094,50.39114]]]}},{"type":"Feature","properties":{"k":"BTH","s":3.559},"geometry":{"type":"Polygon","coordinates":[[[2.66498,50.38842],[2.66351,50.38786],[2.66304,50.38784],[2.6614,50.38947],[2.66184,50.3896],[2.6671,50.38873],[2.66498,50.38842]]]}},{"type":"Feature","properties":{"k":"BTH","s":0.02},"geometry":{"type":"Polygon","coordinates":[[[2.6672,50.38868],[2.66638,50.38862],[2.66693,50.38871],[2.6672,50.38868]]]}},{"type":"Feature","properties":{"k":"PTC","s":2.002},"geometry":{"type":"Polygon","coordinates":[[[2.73534,50.37446],[2.73249,50.37325],[2.73161,50.37377],[2.7344,50.37493],[2.73534,50.37446]]]}},{"type":"Feature","properties":{"k":"BTN","s":0.017},"geometry":{"type":"Polygon","coordinates":[[[2.66498,50.38842],[2.66536,50.38848],[2.66408,50.38806],[2.66498,50.38842]]]}},{"type":"Feature","properties":{"k":"PHF","s":0.0},"geometry":{"type":"Polygon","coordinates":[[[2.65697,50.38827],[2.65691,50.38826],[2.65693,50.38827],[2.65697,50.38827]]]}},{"type":"Feature","properties":{"k":"PPH","s":0.283},"geometry":{"type":"Polygon","coordinates":[[[2.65697,50.38867],[2.6573,50.38834],[2.65613,50.38804],[2.65592,50.38829],[2.65697,50.38867]]]}},{"type":"Feature","properties":{"k":"JAC","s":0.534},"geometry":{"type":"Polygon","coordinates":[[[2.65484,50.38806],[2.65315,50.38966],[2.65332,50.38972],[2.65488,50.38818],[2.6584,50.38944],[2.65484,50.38806]]]}},{"type":"Feature","properties":{"k":"BTH","s":0.008},"geometry":{"type":"Polygon","coordinates":[[[2.72278,50.38576],[2.7223,50.38556],[2.72191,50.38543],[2.72278,50.38576]]]}},{"type":"Feature","properties":{"k":"PPH","s":0.001},"geometry":{"type":"Polygon","coordinates":[[[2.72154,50.38529],[2.72191,50.38543],[2.72191,50.38542],[2.72154,50.38529]]]}},{"type":"Feature","properties":{"k":"PPH","s":1.849},"geometry":{"type":"MultiPolygon","coordinates":[[[[2.72594,50.38649],[2.7276,50.38674],[2.72782,50.38674],[2.72795,50.38653],[2.72745,50.38542],[2.72614,50.38517],[2.72627,50.38547],[2.72588,50.38616],[2.72594,50.38649]]],[[[2.72955,50.38719],[2.72924,50.38702],[2.72938,50.38714],[2.72955,50.38719]]]]}},{"type":"Feature","properties":{"k":"BTH","s":4.01},"geometry":{"type":"Polygon","coordinates":[[[2.72701,50.38305],[2.72778,50.38144],[2.72666,50.38136],[2.72503,50.38153],[2.72517,50.38121],[2.72425,50.38099],[2.72366,50.38237],[2.72701,50.38305]]]}},{"type":"Feature","properties":{"k":"PTR","s":1.939},"geometry":{"type":"Polygon","coordinates":[[[2.72322,50.3825],[2.7227,50.38317],[2.72481,50.38421],[2.72542,50.38287],[2.72322,50.3825]]]}},{"type":"Feature","properties":{"k":"BTH","s":1.377},"geometry":{"type":"Polygon","coordinates":[[[2.72144,50.38233],[2.72053,50.38196],[2.72024,50.38234],[2.72047,50.38242],[2.72056,50.38274],[2.7227,50.38317],[2.72322,50.38248],[2.72144,50.38233]]]}},{"type":"Feature","properties":{"k":"MIS","s":1.376},"geometry":{"type":"Polygon","coordinates":[[[2.72179,50.38136],[2.72146,50.3821],[2.72354,50.38235],[2.72391,50.38157],[2.72179,50.38136]]]}},{"type":"Feature","properties":{"k":"MIS","s":3.086},"geometry":{"type":"Polygon","coordinates":[[[2.72169,50.3813],[2.72394,50.38154],[2.7244,50.38029],[2.72198,50.37992],[2.72068,50.38102],[2.72169,50.3813]],[[2.72404,50.38085],[2.72403,50.38088],[2.72178,50.38053],[2.72404,50.38085]]]}},{"type":"Feature","properties":{"k":"MOT","s":0.082},"geometry":{"type":"Polygon","coordinates":[[[2.72239,50.37998],[2.72262,50.37974],[2.72226,50.3797],[2.72198,50.37992],[2.72239,50.37998]]]}},{"type":"Feature","properties":{"k":"BTH","s":0.699},"geometry":{"type":"Polygon","coordinates":[[[2.72257,50.37943],[2.72226,50.37969],[2.72458,50.37995],[2.72491,50.37947],[2.72257,50.37943]]]}},{"type":"Feature","properties":{"k":"BTH","s":0.488},"geometry":{"type":"Polygon","coordinates":[[[2.72436,50.38028],[2.72458,50.37995],[2.72262,50.37974],[2.72239,50.37998],[2.72436,50.38028]]]}},{"type":"Feature","properties":{"k":"BTH","s":1.798},"geometry":{"type":"Polygon","coordinates":[[[2.72668,50.38134],[2.72778,50.38141],[2.72802,50.38088],[2.72651,50.3806],[2.72543,50.38078],[2.72444,50.38053],[2.72425,50.38095],[2.72518,50.38117],[2.72506,50.3815],[2.72668,50.38134]]]}},{"type":"Feature","properties":{"k":"LUZ","s":1.107},"geometry":{"type":"Polygon","coordinates":[[[2.71652,50.38405],[2.71689,50.38335],[2.71509,50.38309],[2.71471,50.38377],[2.71652,50.38405]]]}},{"type":"Feature","properties":{"k":"PPH","s":0.197},"geometry":{"type":"Polygon","coordinates":[[[2.71683,50.38409],[2.71724,50.38338],[2.71693,50.38331],[2.71653,50.38404],[2.71683,50.38409]]]}},{"type":"Feature","properties":{"k":"JAC","s":0.205},"geometry":{"type":"Polygon","coordinates":[[[2.72542,50.38288],[2.72481,50.38421],[2.72497,50.3843],[2.72559,50.38291],[2.72542,50.38288]]]}},{"type":"Feature","properties":{"k":"BTH","s":4.976},"geometry":{"type":"Polygon","coordinates":[[[2.72673,50.38021],[2.72818,50.38062],[2.72932,50.37895],[2.72858,50.37879],[2.72679,50.3779],[2.72507,50.38031],[2.72673,50.38021]]]}},{"type":"Feature","properties":{"k":"MIS","s":0.828},"geometry":{"type":"Polygon","coordinates":[[[2.72491,50.37732],[2.72462,50.37814],[2.72566,50.37844],[2.72617,50.37774],[2.72491,50.37732]]]}},{"type":"Feature","properties":{"k":"BTN","s":1.218},"geometry":{"type":"Polygon","coordinates":[[[2.72676,50.37791],[2.72626,50.37774],[2.72444,50.3802],[2.72502,50.38031],[2.72676,50.37791]]]}},{"type":"Feature","properties":{"k":"BTH","s":5.953},"geometry":{"type":"Polygon","coordinates":[[[2.72198,50.37941],[2.7249,50.37947],[2.72546,50.37871],[2.72065,50.37717],[2.71963,50.37846],[2.72198,50.37941]]]}},{"type":"Feature","properties":{"k":"JAC","s":1.158},"geometry":{"type":"Polygon","coordinates":[[[2.72566,50.37844],[2.72209,50.37725],[2.72198,50.37759],[2.72081,50.37697],[2.72065,50.37717],[2.72546,50.37871],[2.72566,50.37844]]]}},{"type":"Feature","properties":{"k":"BTH","s":4.095},"geometry":{"type":"Polygon","coordinates":[[[2.72392,50.37682],[2.72253,50.37544],[2.72191,50.37543],[2.72082,50.37695],[2.72198,50.37758],[2.72209,50.37722],[2.72461,50.37811],[2.7249,50.37732],[2.72392,50.37682]]]}},{"type":"Feature","properties":{"k":"BTH","s":3.426},"geometry":{"type":"Polygon","coordinates":[[[2.72485,50.37723],[2.72639,50.37594],[2.72658,50.37556],[2.72482,50.37481],[2.72326,50.3761],[2.72393,50.37672],[2.72485,50.37723]]]}},{"type":"Feature","properties":{"k":"CZH","s":2.832},"geometry":{"type":"Polygon","coordinates":[[[2.72744,50.37808],[2.72873,50.3769],[2.72665,50.37607],[2.72519,50.37733],[2.72557,50.37702],[2.72584,50.37711],[2.72552,50.37743],[2.72744,50.37808]]]}},{"type":"Feature","properties":{"k":"BTH","s":5.499},"geometry":{"type":"Polygon","coordinates":[[[2.72784,50.37652],[2.73034,50.37757],[2.73156,50.37647],[2.73276,50.37573],[2.7302,50.37469],[2.72784,50.37652]]]}},{"type":"Feature","properties":{"k":"BTN","s":2.638},"geometry":{"type":"Polygon","coordinates":[[[2.72744,50.37808],[2.72877,50.37877],[2.72938,50.37889],[2.73001,50.37827],[2.73034,50.37757],[2.72873,50.3769],[2.72744,50.37808]]]}},{"type":"Feature","properties":{"k":"BTN","s":0.002},"geometry":{"type":"Polygon","coordinates":[[[2.72927,50.37912],[2.72939,50.379],[2.72936,50.37899],[2.72927,50.37912]]]}},{"type":"Feature","properties":{"k":"PPH","s":8.011},"geometry":{"type":"Polygon","coordinates":[[[2.66134,50.38994],[2.6617,50.39024],[2.66192,50.39025],[2.6616,50.39051],[2.66567,50.392],[2.6667,50.39094],[2.66746,50.39053],[2.66629,50.38994],[2.66738,50.38901],[2.66728,50.38887],[2.66144,50.38984],[2.66134,50.38994]]]}},{"type":"Feature","properties":{"k":"JAC","s":0.001},"geometry":{"type":"Polygon","coordinates":[[[2.67167,50.38372],[2.67166,50.38374],[2.67179,50.38375],[2.67167,50.38372]]]}},{"type":"Feature","properties":{"k":"JAC","s":0.0},"geometry":{"type":"Polygon","coordinates":[[[2.67255,50.38461],[2.67249,50.38467],[2.67256,50.38462],[2.67255,50.38461]]]}},{"type":"Feature","properties":{"k":"BTH","s":0.483},"geometry":{"type":"Polygon","coordinates":[[[2.67293,50.38423],[2.67318,50.38382],[2.67166,50.38374],[2.6715,50.38409],[2.67293,50.38423]]]}},{"type":"Feature","properties":{"k":"BTH","s":8.229},"geometry":{"type":"Polygon","coordinates":[[[2.678,50.38839],[2.67674,50.38897],[2.67695,50.38932],[2.67642,50.38963],[2.67715,50.39057],[2.68376,50.38811],[2.68407,50.38847],[2.68326,50.38723],[2.678,50.38839]]]}},{"type":"Feature","properties":{"k":"BTN","s":5.0},"geometry":{"type":"Polygon","coordinates":[[[2.67988,50.38674],[2.67715,50.3875],[2.6773,50.3877],[2.67753,50.38762],[2.678,50.38839],[2.68328,50.38723],[2.68288,50.38616],[2.67988,50.38674]]]}},{"type":"Feature","properties":{"k":"BTH","s":4.781},"geometry":{"type":"Polygon","coordinates":[[[2.68072,50.385],[2.68057,50.38459],[2.67829,50.38501],[2.67928,50.38634],[2.68381,50.38552],[2.68306,50.38448],[2.68072,50.385]]]}},{"type":"Feature","properties":{"k":"PHF","s":2.097},"geometry":{"type":"Polygon","coordinates":[[[2.67961,50.3863],[2.67695,50.38724],[2.67715,50.3875],[2.67988,50.38674],[2.68288,50.38616],[2.68274,50.38577],[2.67961,50.3863]]]}},{"type":"Feature","properties":{"k":"JAC","s":0.35},"geometry":{"type":"Polygon","coordinates":[[[2.6805,50.3844],[2.67817,50.38485],[2.67829,50.38501],[2.68057,50.38459],[2.6805,50.3844]]]}},{"type":"Feature","properties":{"k":"PPH","s":1.888},"geometry":{"type":"Polygon","coordinates":[[[2.68243,50.38347],[2.68149,50.38367],[2.68158,50.38452],[2.68088,50.38361],[2.6803,50.38377],[2.68072,50.385],[2.68306,50.38448],[2.68243,50.38347]]]}},{"type":"Feature","properties":{"k":"PPH","s":1.005},"geometry":{"type":"Polygon","coordinates":[[[2.6826,50.38168],[2.68299,50.38145],[2.68386,50.38141],[2.68354,50.38049],[2.68193,50.38096],[2.6826,50.38168]]]}},{"type":"Feature","properties":{"k":"LUZ","s":1.241},"geometry":{"type":"Polygon","coordinates":[[[2.6807,50.3804],[2.68135,50.3811],[2.68296,50.38064],[2.68267,50.37985],[2.6807,50.3804]]]}},{"type":"Feature","properties":{"k":"ORP","s":0.022},"geometry":{"type":"Polygon","coordinates":[]}},{"type":"Feature","properties":{"k":"BTN","s":0.0},"geometry":{"type":"MultiPolygon","coordinates":[]}},{"type":"Feature","properties":{"k":"JAC","s":0.002},"geometry":{"type":"Polygon","coordinates":[[[2.67588,50.38227],[2.67572,50.38217],[2.67585,50.38228],[2.67588,50.38227]]]}},{"type":"Feature","properties":{"k":"BTH","s":0.004},"geometry":{"type":"Polygon","coordinates":[[[2.6756,50.38209],[2.67533,50.38219],[2.67563,50.38211],[2.6756,50.38209]]]}},{"type":"Feature","properties":{"k":"JAC","s":0.257},"geometry":{"type":"Polygon","coordinates":[[[2.67429,50.38335],[2.67376,50.3829],[2.67327,50.38321],[2.67388,50.38355],[2.67429,50.38335]]]}},{"type":"Feature","properties":{"k":"JAC","s":0.001},"geometry":{"type":"MultiPolygon","coordinates":[[[[2.67314,50.38322],[2.67313,50.38324],[2.67324,50.38316],[2.67314,50.38322]]]]}},{"type":"Feature","properties":{"k":"JAC","s":0.787},"geometry":{"type":"Polygon","coordinates":[[[2.71888,50.37782],[2.71815,50.37872],[2.71892,50.37899],[2.71978,50.37809],[2.71888,50.37782]]]}},{"type":"Feature","properties":{"k":"PPH","s":0.523},"geometry":{"type":"Polygon","coordinates":[[[2.72641,50.38422],[2.72537,50.38384],[2.72512,50.38438],[2.72599,50.38474],[2.72641,50.38422]]]}},{"type":"Feature","properties":{"k":"PPH","s":0.282},"geometry":{"type":"Polygon","coordinates":[[[2.71862,50.37932],[2.71892,50.37899],[2.71815,50.37872],[2.71784,50.37912],[2.71862,50.37932]]]}},{"type":"Feature","properties":{"k":"BTN","s":1.874},"geometry":{"type":"Polygon","coordinates":[[[2.71877,50.37794],[2.71662,50.37738],[2.71623,50.37798],[2.7166,50.37803],[2.71686,50.37787],[2.71651,50.37856],[2.71784,50.37912],[2.71877,50.37794]]]}},{"type":"Feature","properties":{"k":"MLG","s":0.063},"geometry":{"type":"Polygon","coordinates":[[[2.71603,50.37826],[2.71617,50.37828],[2.7166,50.37803],[2.71623,50.37798],[2.71603,50.37826]]]}},{"type":"Feature","properties":{"k":"ORH","s":0.884},"geometry":{"type":"Polygon","coordinates":[[[2.71709,50.38149],[2.71894,50.3819],[2.71894,50.38109],[2.71845,50.38083],[2.7182,50.3812],[2.71716,50.38103],[2.71709,50.38149]]]}},{"type":"Feature","properties":{"k":"LUZ","s":1.293},"geometry":{"type":"Polygon","coordinates":[[[2.72059,50.37983],[2.71906,50.37902],[2.71858,50.37999],[2.7198,50.38052],[2.72059,50.37983]]]}},{"type":"Feature","properties":{"k":"BTH","s":3.93},"geometry":{"type":"Polygon","coordinates":[[[2.71918,50.38103],[2.72103,50.38196],[2.72145,50.38125],[2.72066,50.38102],[2.72256,50.37943],[2.72175,50.37937],[2.71963,50.37847],[2.71911,50.37898],[2.72061,50.37983],[2.71918,50.38103]]]}},{"type":"Feature","properties":{"k":"BTH","s":0.774},"geometry":{"type":"Polygon","coordinates":[[[2.719,50.38112],[2.71902,50.38203],[2.71878,50.38269],[2.71914,50.38284],[2.7199,50.38169],[2.719,50.38112]]]}},{"type":"Feature","properties":{"k":"PPH","s":0.394},"geometry":{"type":"Polygon","coordinates":[[[2.71975,50.38301],[2.72054,50.38194],[2.72023,50.3818],[2.71931,50.38294],[2.71975,50.38301]]]}},{"type":"Feature","properties":{"k":"PHF","s":0.033},"geometry":{"type":"Polygon","coordinates":[[[2.70899,50.38458],[2.71041,50.3848],[2.71042,50.38477],[2.70899,50.38458]]]}},{"type":"Feature","properties":{"k":"MIS","s":0.312},"geometry":{"type":"Polygon","coordinates":[[[2.7262,50.38303],[2.72578,50.38294],[2.72537,50.38384],[2.72571,50.38396],[2.7262,50.38303]]]}},{"type":"Feature","properties":{"k":"JAC","s":0.004},"geometry":{"type":"Polygon","coordinates":[[[2.71071,50.38444],[2.71087,50.38434],[2.71069,50.38439],[2.71071,50.38444]]]}},{"type":"Feature","properties":{"k":"BTH","s":0.027},"geometry":{"type":"MultiPolygon","coordinates":[[[[2.71355,50.38329],[2.71348,50.38334],[2.71432,50.3837],[2.71355,50.38329]]]]}},{"type":"Feature","properties":{"k":"AFG","s":0.329},"geometry":{"type":"Polygon","coordinates":[[[2.71381,50.3833],[2.71471,50.38377],[2.71505,50.38315],[2.71462,50.3831],[2.71381,50.3833]]]}},{"type":"Feature","properties":{"k":"CZH","s":1.217},"geometry":{"type":"Polygon","coordinates":[[[2.73108,50.37409],[2.73385,50.37524],[2.7345,50.37497],[2.73162,50.37377],[2.73108,50.37409]]]}},{"type":"Feature","properties":{"k":"PTC","s":1.997},"geometry":{"type":"Polygon","coordinates":[[[2.73383,50.37524],[2.73108,50.37409],[2.7302,50.37469],[2.73276,50.37573],[2.73383,50.37524]]]}},{"type":"Feature","properties":{"k":"PHF","s":8.195},"geometry":{"type":"Polygon","coordinates":[[[2.73054,50.37438],[2.7322,50.37337],[2.72683,50.3702],[2.72553,50.37144],[2.73054,50.37438]]]}},{"type":"Feature","properties":{"k":"PHF","s":7.877},"geometry":{"type":"Polygon","coordinates":[[[2.72968,50.37012],[2.72929,50.3704],[2.73324,50.37275],[2.73536,50.3715],[2.73352,50.37043],[2.72982,50.36964],[2.7278,50.36843],[2.72761,50.36882],[2.72968,50.37012]]]}},{"type":"Feature","properties":{"k":"PTC","s":6.345},"geometry":{"type":"Polygon","coordinates":[[[2.7247,50.36774],[2.72301,50.3689],[2.72607,50.37084],[2.72703,50.36984],[2.7277,50.36844],[2.7247,50.36774]]]}},{"type":"Feature","properties":{"k":"PTC","s":0.263},"geometry":{"type":"Polygon","coordinates":[[[2.72297,50.36872],[2.72314,50.36881],[2.7247,50.36774],[2.72447,50.36765],[2.72297,50.36872]]]}},{"type":"Feature","properties":{"k":"BTN","s":2.205},"geometry":{"type":"Polygon","coordinates":[[[2.72347,50.36829],[2.72211,50.36726],[2.72064,50.36811],[2.72202,50.36918],[2.72347,50.36829]]]}},{"type":"Feature","properties":{"k":"CZH","s":9.918},"geometry":{"type":"Polygon","coordinates":[[[2.71988,50.37044],[2.72382,50.37296],[2.72607,50.37084],[2.72283,50.36879],[2.71988,50.37044]]]}},{"type":"Feature","properties":{"k":"BTH","s":16.043},"geometry":{"type":"Polygon","coordinates":[[[2.72232,50.37499],[2.72326,50.3761],[2.72482,50.37481],[2.7282,50.37619],[2.73057,50.37441],[2.72553,50.37144],[2.7247,50.37213],[2.72232,50.37499]]]}},{"type":"Feature","properties":{"k":"BTN","s":4.598},"geometry":{"type":"Polygon","coordinates":[[[2.72214,50.37504],[2.72089,50.37374],[2.71862,50.37678],[2.72038,50.37727],[2.72214,50.37504]]]}},{"type":"Feature","properties":{"k":"PPH","s":0.791},"geometry":{"type":"Polygon","coordinates":[[[2.70938,50.38296],[2.71131,50.38184],[2.71096,50.38156],[2.70868,50.38291],[2.70938,50.38296]]]}},{"type":"Feature","properties":{"k":"MIS","s":0.625},"geometry":{"type":"Polygon","coordinates":[[[2.72566,50.36795],[2.72754,50.36827],[2.72684,50.36785],[2.72517,50.36744],[2.72479,50.3677],[2.72566,50.36795]]]}},{"type":"Feature","properties":{"k":"BTH","s":1.347},"geometry":{"type":"Polygon","coordinates":[[[2.73882,50.37228],[2.74018,50.37183],[2.73626,50.371],[2.7361,50.37112],[2.73882,50.37228]]]}},{"type":"Feature","properties":{"k":"BTN","s":0.112},"geometry":{"type":"Polygon","coordinates":[[[2.73619,50.37099],[2.73515,50.37077],[2.73587,50.37119],[2.73619,50.37099]]]}},{"type":"Feature","properties":{"k":"BTN","s":0.616},"geometry":{"type":"Polygon","coordinates":[[[2.73515,50.37077],[2.73355,50.37043],[2.73535,50.37151],[2.73587,50.37119],[2.73515,50.37077]]]}},{"type":"Feature","properties":{"k":"BTH","s":0.354},"geometry":{"type":"Polygon","coordinates":[[[2.72603,50.38409],[2.72641,50.38422],[2.72697,50.38323],[2.72654,50.38315],[2.72603,50.38409]]]}},{"type":"Feature","properties":{"k":"AFG","s":0.198},"geometry":{"type":"Polygon","coordinates":[[[2.72537,50.38384],[2.72578,50.38294],[2.72563,50.38292],[2.72497,50.38431],[2.72512,50.38438],[2.72537,50.38384]]]}},{"type":"Feature","properties":{"k":"MIS","s":0.05},"geometry":{"type":"Polygon","coordinates":[[[2.72632,50.38687],[2.72594,50.3869],[2.72718,50.38711],[2.72632,50.38687]]]}},{"type":"Feature","properties":{"k":"CZH","s":1.551},"geometry":{"type":"Polygon","coordinates":[[[2.73717,50.37303],[2.73463,50.37198],[2.73386,50.37243],[2.73644,50.3735],[2.73717,50.37303]]]}},{"type":"Feature","properties":{"k":"MIS","s":3.024},"geometry":{"type":"Polygon","coordinates":[[[2.73646,50.3735],[2.73387,50.37244],[2.73249,50.37325],[2.73534,50.37446],[2.73646,50.3735]]]}},{"type":"Feature","properties":{"k":"CZH","s":0.051},"geometry":{"type":"MultiPolygon","coordinates":[[[[2.73682,50.3733],[2.73659,50.37345],[2.73589,50.37407],[2.73682,50.3733]]],[[[2.73776,50.37279],[2.73701,50.37317],[2.73682,50.3733],[2.73776,50.37279]]]]}},{"type":"Feature","properties":{"k":"MIS","s":3.003},"geometry":{"type":"Polygon","coordinates":[[[2.73882,50.37228],[2.7361,50.37112],[2.73464,50.37197],[2.73718,50.37302],[2.73882,50.37228]]]}},{"type":"Feature","properties":{"k":"BTN","s":0.004},"geometry":{"type":"Polygon","coordinates":[[[2.73588,50.37408],[2.73584,50.37406],[2.73568,50.37425],[2.73588,50.37408]]]}},{"type":"Feature","properties":{"k":"BTA","s":0.023},"geometry":{"type":"Polygon","coordinates":[[[2.71876,50.38276],[2.71909,50.3829],[2.71914,50.38284],[2.71876,50.38276]]]}},{"type":"Feature","properties":{"k":"PPH","s":1.209},"geometry":{"type":"Polygon","coordinates":[[[2.71709,50.38149],[2.71706,50.38229],[2.7187,50.38276],[2.71894,50.3819],[2.71709,50.38149]]]}},{"type":"Feature","properties":{"k":"BTN","s":0.781},"geometry":{"type":"Polygon","coordinates":[[[2.72968,50.37012],[2.72761,50.3689],[2.72743,50.36929],[2.72929,50.3704],[2.72968,50.37012]]]}},{"type":"Feature","properties":{"k":"PTR","s":0.282},"geometry":{"type":"Polygon","coordinates":[[[2.72654,50.38315],[2.7262,50.38303],[2.72571,50.38396],[2.72601,50.38408],[2.72654,50.38315]]]}},{"type":"Feature","properties":{"k":"FVP","s":0.989},"geometry":{"type":"Polygon","coordinates":[[[2.7135,50.36649],[2.71299,50.36687],[2.71427,50.36807],[2.715,50.36773],[2.7135,50.36649]]]}},{"type":"Feature","properties":{"k":"BTH","s":3.504},"geometry":{"type":"Polygon","coordinates":[[[2.71282,50.36692],[2.71255,50.36667],[2.71166,50.36698],[2.70994,50.36612],[2.70848,50.36683],[2.71052,50.36834],[2.71282,50.36692]]]}},{"type":"Feature","properties":{"k":"BTH","s":6.775},"geometry":{"type":"Polygon","coordinates":[[[2.7172,50.37013],[2.71803,50.37121],[2.72031,50.37011],[2.716,50.36736],[2.71445,50.36826],[2.7172,50.37013]]]}},{"type":"Feature","properties":{"k":"PTC","s":5.132},"geometry":{"type":"Polygon","coordinates":[[[2.71852,50.3711],[2.72304,50.37401],[2.72382,50.37296],[2.71988,50.37045],[2.71852,50.3711]]]}},{"type":"Feature","properties":{"k":"BTN","s":8.798},"geometry":{"type":"Polygon","coordinates":[[[2.71444,50.36854],[2.71279,50.36701],[2.71099,50.36813],[2.71677,50.37201],[2.71781,50.37132],[2.71706,50.37028],[2.71444,50.36854]]]}},{"type":"Feature","properties":{"k":"BTN","s":4.591},"geometry":{"type":"Polygon","coordinates":[[[2.72089,50.37374],[2.71945,50.37278],[2.71801,50.37133],[2.71569,50.37282],[2.7206,50.37413],[2.72089,50.37374]]]}},{"type":"Feature","properties":{"k":"BTH","s":1.954},"geometry":{"type":"Polygon","coordinates":[[[2.72213,50.36725],[2.72347,50.36829],[2.72496,50.3672],[2.72376,50.3664],[2.72288,50.36719],[2.72161,50.36721],[2.72183,50.36742],[2.72213,50.36725]]]}},{"type":"Feature","properties":{"k":"BTH","s":3.952},"geometry":{"type":"Polygon","coordinates":[[[2.7196,50.36766],[2.71796,50.36867],[2.72032,50.3701],[2.72202,50.36918],[2.72067,50.36814],[2.7196,50.36766]]]}},{"type":"Feature","properties":{"k":"PTC","s":10.008},"geometry":{"type":"Polygon","coordinates":[[[2.70731,50.37046],[2.70633,50.37054],[2.70518,50.37172],[2.71109,50.37524],[2.71149,50.37513],[2.71026,50.37439],[2.71082,50.37404],[2.70959,50.37333],[2.71106,50.3722],[2.70767,50.37027],[2.70731,50.37046]]]}},{"type":"Feature","properties":{"k":"BTN","s":0.612},"geometry":{"type":"Polygon","coordinates":[[[2.71717,50.37022],[2.7145,50.36846],[2.7128,50.367],[2.71444,50.36854],[2.71706,50.37028],[2.71781,50.37132],[2.71717,50.37022]]]}},{"type":"Feature","properties":{"k":"CZH","s":5.359},"geometry":{"type":"Polygon","coordinates":[[[2.71445,50.37375],[2.71976,50.37526],[2.7206,50.37413],[2.71565,50.37285],[2.71445,50.37375]]]}},{"type":"Feature","properties":{"k":"CZH","s":5.353},"geometry":{"type":"Polygon","coordinates":[[[2.70959,50.37333],[2.71082,50.37404],[2.71026,50.37439],[2.71149,50.37513],[2.7131,50.37456],[2.7141,50.37393],[2.71106,50.3722],[2.70959,50.37333]]]}},{"type":"Feature","properties":{"k":"BTH","s":4.98},"geometry":{"type":"Polygon","coordinates":[[[2.71326,50.37457],[2.71904,50.37622],[2.71975,50.37526],[2.71443,50.3738],[2.71326,50.37457]]]}},{"type":"Feature","properties":{"k":"PTC","s":5.436},"geometry":{"type":"Polygon","coordinates":[[[2.73324,50.37275],[2.72744,50.3693],[2.72683,50.3702],[2.7322,50.37334],[2.73324,50.37275]]]}},{"type":"Feature","properties":{"k":"BTH","s":19.006},"geometry":{"type":"Polygon","coordinates":[[[2.71676,50.37201],[2.71099,50.36813],[2.70946,50.36886],[2.70767,50.37027],[2.7141,50.37393],[2.71676,50.37201]]]}},{"type":"Feature","properties":{"k":"BTH","s":3.538},"geometry":{"type":"Polygon","coordinates":[[[2.71852,50.3711],[2.71823,50.37123],[2.71953,50.37272],[2.72073,50.37351],[2.72215,50.37487],[2.72304,50.37401],[2.71852,50.3711]]]}},{"type":"Feature","properties":{"k":"JAC","s":0.451},"geometry":{"type":"Polygon","coordinates":[[[2.71523,50.3669],[2.71449,50.36731],[2.715,50.36773],[2.71585,50.36734],[2.71523,50.3669]]]}},{"type":"Feature","properties":{"k":"JAC","s":0.006},"geometry":{"type":"MultiPolygon","coordinates":[[[[2.65856,50.39636],[2.65888,50.39645],[2.65862,50.39634],[2.65856,50.39636]]],[[[2.65596,50.39669],[2.65634,50.39668],[2.65608,50.39668],[2.65596,50.39669]]]]}},{"type":"Feature","properties":{"k":"MIS","s":1.697},"geometry":{"type":"Polygon","coordinates":[[[2.65352,50.39419],[2.6539,50.3945],[2.6569,50.39215],[2.65606,50.39186],[2.65352,50.39419]]]}},{"type":"Feature","properties":{"k":"MLG","s":1.643},"geometry":{"type":"Polygon","coordinates":[[[2.65394,50.39479],[2.65412,50.39498],[2.6574,50.39246],[2.65847,50.39285],[2.65874,50.39282],[2.66014,50.39144],[2.65978,50.39129],[2.65854,50.39264],[2.65732,50.39216],[2.65394,50.39479]]]}},{"type":"Feature","properties":{"k":"LIF","s":8.958},"geometry":{"type":"Polygon","coordinates":[[[2.65494,50.39589],[2.65572,50.3957],[2.65708,50.39576],[2.66126,50.39126],[2.66057,50.39104],[2.65874,50.39282],[2.65847,50.39285],[2.6574,50.39246],[2.65412,50.39498],[2.65494,50.39589]]]}},{"type":"Feature","properties":{"k":"JAC","s":0.1},"geometry":{"type":"Polygon","coordinates":[[[2.65606,50.39186],[2.6569,50.39215],[2.65703,50.39205],[2.65617,50.39175],[2.65606,50.39186]]]}},{"type":"Feature","properties":{"k":"LBF","s":14.865},"geometry":{"type":"Polygon","coordinates":[[[2.65176,50.39114],[2.65347,50.3924],[2.65222,50.39296],[2.65338,50.39428],[2.65834,50.3895],[2.65488,50.38818],[2.65332,50.38972],[2.65314,50.38967],[2.65176,50.39114]]]}},{"type":"Feature","properties":{"k":"PHF","s":0.057},"geometry":{"type":"MultiPolygon","coordinates":[[[[2.65309,50.3926],[2.65327,50.3925],[2.65273,50.39274],[2.65309,50.3926]]],[[[2.65347,50.39241],[2.65334,50.39228],[2.6534,50.39241],[2.65347,50.39241]]],[[[2.65264,50.39168],[2.65198,50.39129],[2.65323,50.39218],[2.65264,50.39168]]]]}},{"type":"Feature","properties":{"k":"PPH","s":0.004},"geometry":{"type":"Polygon","coordinates":[[[2.65277,50.39277],[2.65273,50.39274],[2.65261,50.39279],[2.65277,50.39277]]]}},{"type":"Feature","properties":{"k":"CZH","s":0.004},"geometry":{"type":"Polygon","coordinates":[[[2.65258,50.3928],[2.65226,50.39294],[2.65261,50.39282],[2.65258,50.3928]]]}},{"type":"Feature","properties":{"k":"PPH","s":0.044},"geometry":{"type":"Polygon","coordinates":[[[2.65225,50.393],[2.65336,50.39435],[2.6534,50.3943],[2.65225,50.393]]]}},{"type":"Feature","properties":{"k":"BTH","s":10.508},"geometry":{"type":"Polygon","coordinates":[[[2.65961,50.39534],[2.66253,50.39402],[2.66418,50.39234],[2.66126,50.39126],[2.65708,50.39576],[2.65961,50.39534]]]}},{"type":"Feature","properties":{"k":"BTH","s":1.868},"geometry":{"type":"Polygon","coordinates":[[[2.66418,50.39234],[2.66463,50.39169],[2.66182,50.39064],[2.66121,50.39121],[2.66418,50.39234]]]}},{"type":"Feature","properties":{"k":"JAC","s":0.458},"geometry":{"type":"Polygon","coordinates":[[[2.65854,50.39264],[2.65978,50.39129],[2.66015,50.39145],[2.66057,50.39104],[2.66015,50.39077],[2.65848,50.3926],[2.65857,50.39248],[2.65744,50.39207],[2.65736,50.39218],[2.65854,50.39264]]]}},{"type":"Feature","properties":{"k":"MIS","s":0.027},"geometry":{"type":"MultiPolygon","coordinates":[[[[2.66499,50.39532],[2.66444,50.39594],[2.66466,50.39578],[2.66499,50.39532]]],[[[2.66378,50.39626],[2.66386,50.39622],[2.66373,50.39626],[2.66378,50.39626]]]]}},{"type":"Feature","properties":{"k":"PHF","s":0.0},"geometry":{"type":"Polygon","coordinates":[[[2.66502,50.39535],[2.66504,50.39531],[2.66501,50.39533],[2.66502,50.39535]]]}},{"type":"Feature","properties":{"k":"BOR","s":0.015},"geometry":{"type":"Polygon","coordinates":[[[2.66512,50.39518],[2.66577,50.39488],[2.66508,50.39517],[2.66504,50.39531],[2.66512,50.39518]]]}},{"type":"Feature","properties":{"k":"PPH","s":1.934},"geometry":{"type":"Polygon","coordinates":[[[2.66322,50.39351],[2.6626,50.39402],[2.66322,50.39428],[2.66492,50.39286],[2.66556,50.39203],[2.66463,50.39169],[2.66322,50.39351]]]}}]}