{"type":"FeatureCollection","features":[{"type":"Feature","properties":{"k":"PPH","s":0.009},"geometry":{"type":"Polygon","coordinates":[[[1.68231,50.63835],[1.68238,50.63832],[1.68203,50.63839],[1.68231,50.63835]]]}},{"type":"Feature","properties":{"k":"BTA","s":0.18},"geometry":{"type":"Polygon","coordinates":[[[1.64624,50.65205],[1.64575,50.65286],[1.64498,50.65351],[1.64586,50.65297],[1.64624,50.65205]]]}},{"type":"Feature","properties":{"k":"BTH","s":0.001},"geometry":{"type":"MultiPolygon","coordinates":[[[[1.67786,50.6387],[1.67771,50.63878],[1.67777,50.63876],[1.67786,50.6387]]]]}},{"type":"Feature","properties":{"k":"PTR","s":0.001},"geometry":{"type":"Polygon","coordinates":[[[1.67446,50.63753],[1.67449,50.63738],[1.67447,50.63739],[1.67446,50.63753]]]}},{"type":"Feature","properties":{"k":"MIS","s":1.308},"geometry":{"type":"Polygon","coordinates":[[[1.65273,50.66545],[1.65408,50.66528],[1.65347,50.66437],[1.65133,50.66515],[1.65273,50.66545]]]}},{"type":"Feature","properties":{"k":"BTH","s":9.728},"geometry":{"type":"Polygon","coordinates":[[[1.65092,50.65452],[1.65194,50.65479],[1.65247,50.65548],[1.65792,50.65518],[1.65842,50.65483],[1.65912,50.65344],[1.65036,50.65383],[1.65092,50.65452]]]}},{"type":"Feature","properties":{"k":"ORP","s":8.88},"geometry":{"type":"Polygon","coordinates":[[[1.65036,50.65383],[1.65912,50.65344],[1.65917,50.65277],[1.65891,50.65214],[1.655,50.65226],[1.65053,50.65278],[1.65073,50.65317],[1.65016,50.65331],[1.65036,50.65383]]]}},{"type":"Feature","properties":{"k":"BTH","s":1.315},"geometry":{"type":"Polygon","coordinates":[[[1.65486,50.651],[1.65592,50.65211],[1.65738,50.65209],[1.65706,50.65165],[1.65679,50.6517],[1.65667,50.65145],[1.65633,50.65132],[1.6565,50.65119],[1.65618,50.65086],[1.65486,50.651]]]}},{"type":"Feature","properties":{"k":"BTH","s":11.636},"geometry":{"type":"Polygon","coordinates":[[[1.64583,50.66004],[1.64619,50.66213],[1.64672,50.66296],[1.64643,50.66309],[1.64908,50.66471],[1.65058,50.6629],[1.65028,50.66235],[1.64907,50.66183],[1.64821,50.66104],[1.64855,50.66086],[1.64892,50.66118],[1.64949,50.66086],[1.64863,50.65917],[1.64698,50.6595],[1.64781,50.66122],[1.64701,50.65996],[1.64583,50.66004]]]}},{"type":"Feature","properties":{"k":"PPH","s":0.035},"geometry":{"type":"MultiPolygon","coordinates":[[[[1.67235,50.63659],[1.67251,50.63663],[1.67179,50.63609],[1.67235,50.63659]]],[[[1.67431,50.63668],[1.67421,50.63667],[1.67443,50.63707],[1.67431,50.63668]]]]}},{"type":"Feature","properties":{"k":"PPH","s":0.02},"geometry":{"type":"Polygon","coordinates":[[[1.67065,50.63591],[1.6702,50.63576],[1.67032,50.63584],[1.67065,50.63591]]]}},{"type":"Feature","properties":{"k":"PTR","s":0.039},"geometry":{"type":"Polygon","coordinates":[[[1.67071,50.63592],[1.67167,50.6361],[1.67063,50.63585],[1.67071,50.63592]]]}},{"type":"Feature","properties":{"k":"PPH","s":6.897},"geometry":{"type":"Polygon","coordinates":[[[1.67087,50.64771],[1.6683,50.64625],[1.66628,50.64556],[1.66617,50.64803],[1.66655,50.64774],[1.66705,50.64815],[1.66829,50.64838],[1.66906,50.64886],[1.66936,50.64886],[1.67049,50.64875],[1.6703,50.6484],[1.67087,50.64771]]]}},{"type":"Feature","properties":{"k":"PPH","s":3.113},"geometry":{"type":"Polygon","coordinates":[[[1.66746,50.64938],[1.66856,50.64953],[1.66832,50.65016],[1.66899,50.65053],[1.66989,50.64996],[1.66835,50.64865],[1.66844,50.64847],[1.6668,50.64813],[1.66651,50.64786],[1.66613,50.64814],[1.66579,50.64885],[1.66754,50.64924],[1.66746,50.64938]]]}},{"type":"Feature","properties":{"k":"BTA","s":0.084},"geometry":{"type":"Polygon","coordinates":[[[1.6704,50.6484],[1.67094,50.64769],[1.67031,50.6484],[1.67058,50.64878],[1.6704,50.6484]]]}},{"type":"Feature","properties":{"k":"TRE","s":2.226},"geometry":{"type":"Polygon","coordinates":[[[1.67267,50.6493],[1.671,50.64773],[1.6704,50.6484],[1.67051,50.64881],[1.67163,50.65022],[1.67267,50.6493]]]}},{"type":"Feature","properties":{"k":"PPH","s":0.717},"geometry":{"type":"Polygon","coordinates":[[[1.67036,50.65054],[1.67054,50.65052],[1.67053,50.65016],[1.67026,50.64999],[1.67035,50.64971],[1.67009,50.6496],[1.67022,50.64929],[1.66942,50.64905],[1.66937,50.64888],[1.66869,50.64885],[1.67036,50.65054]]]}},{"type":"Feature","properties":{"k":"PPH","s":1.329},"geometry":{"type":"Polygon","coordinates":[[[1.66937,50.64887],[1.66943,50.64904],[1.67024,50.64928],[1.6701,50.6496],[1.67037,50.64971],[1.67027,50.64999],[1.67055,50.65016],[1.67054,50.65044],[1.67078,50.65038],[1.67109,50.65059],[1.67163,50.65022],[1.67047,50.64876],[1.66937,50.64887]]]}},{"type":"Feature","properties":{"k":"MIS","s":6.852},"geometry":{"type":"Polygon","coordinates":[[[1.66427,50.65113],[1.66485,50.6517],[1.66662,50.65186],[1.66899,50.65053],[1.66832,50.65016],[1.66856,50.64953],[1.66746,50.64938],[1.66754,50.64924],[1.66579,50.64885],[1.66427,50.65113]]]}},{"type":"Feature","properties":{"k":"BTH","s":1.516},"geometry":{"type":"Polygon","coordinates":[[[1.66896,50.65191],[1.6695,50.65108],[1.66866,50.65075],[1.6667,50.65186],[1.66896,50.65191]]]}},{"type":"Feature","properties":{"k":"PPH","s":0.495},"geometry":{"type":"Polygon","coordinates":[[[1.63838,50.67735],[1.63859,50.67761],[1.63985,50.67719],[1.63957,50.67659],[1.63838,50.67735]]]}},{"type":"Feature","properties":{"k":"MIS","s":0.012},"geometry":{"type":"MultiPolygon","coordinates":[[[[1.63114,50.66718],[1.63073,50.66716],[1.63129,50.66725],[1.63114,50.66718]]],[[[1.62805,50.66697],[1.62819,50.66699],[1.62802,50.66696],[1.62805,50.66697]]]]}},{"type":"Feature","properties":{"k":"PTR","s":0.028},"geometry":{"type":"MultiPolygon","coordinates":[[[[1.63149,50.66728],[1.63145,50.66728],[1.63194,50.66736],[1.63149,50.66728]]],[[[1.63497,50.66797],[1.63463,50.66781],[1.63499,50.66813],[1.63497,50.66797]]]]}},{"type":"Feature","properties":{"k":"PPH","s":3.97},"geometry":{"type":"Polygon","coordinates":[[[1.64067,50.6722],[1.63769,50.66884],[1.63965,50.66794],[1.63885,50.66692],[1.63768,50.6673],[1.63614,50.66737],[1.6381,50.66971],[1.63865,50.67003],[1.63901,50.67103],[1.63966,50.67138],[1.64009,50.67214],[1.64101,50.67257],[1.64117,50.6725],[1.64094,50.67237],[1.64158,50.67184],[1.64138,50.67175],[1.64067,50.6722]]]}},{"type":"Feature","properties":{"k":"BTH","s":0.499},"geometry":{"type":"Polygon","coordinates":[[[1.64152,50.66462],[1.64126,50.66514],[1.64173,50.66526],[1.64303,50.66468],[1.64152,50.66462]]]}},{"type":"Feature","properties":{"k":"PTR","s":4.456},"geometry":{"type":"Polygon","coordinates":[[[1.6446,50.66436],[1.64452,50.66417],[1.64419,50.6642],[1.64173,50.66526],[1.64126,50.66514],[1.64056,50.66585],[1.64198,50.66636],[1.64319,50.66656],[1.64419,50.6658],[1.64346,50.66482],[1.6439,50.66495],[1.64481,50.66487],[1.6457,50.66573],[1.64635,50.66531],[1.6446,50.66436]]]}},{"type":"Feature","properties":{"k":"PPH","s":1.249},"geometry":{"type":"Polygon","coordinates":[[[1.64481,50.66487],[1.6439,50.66495],[1.64346,50.66482],[1.64419,50.6658],[1.64497,50.66623],[1.64574,50.66571],[1.64481,50.66487]]]}},{"type":"Feature","properties":{"k":"PPH","s":0.069},"geometry":{"type":"Polygon","coordinates":[[[1.67866,50.63956],[1.67894,50.63957],[1.67912,50.63937],[1.67866,50.63952],[1.67823,50.63856],[1.67866,50.63956]]]}},{"type":"Feature","properties":{"k":"MIS","s":2.505},"geometry":{"type":"Polygon","coordinates":[[[1.64143,50.66333],[1.64152,50.66462],[1.64303,50.66468],[1.64419,50.6642],[1.64251,50.66293],[1.64143,50.66333]]]}},{"type":"Feature","properties":{"k":"BTA","s":0.212},"geometry":{"type":"Polygon","coordinates":[[[1.64681,50.66441],[1.6472,50.66479],[1.64736,50.66469],[1.64618,50.6636],[1.64595,50.66368],[1.64681,50.66441]]]}},{"type":"Feature","properties":{"k":"PPH","s":4.504},"geometry":{"type":"Polygon","coordinates":[[[1.65028,50.66495],[1.6506,50.66528],[1.65394,50.66403],[1.65394,50.66354],[1.65073,50.66287],[1.64971,50.66428],[1.64953,50.6643],[1.65109,50.6647],[1.6513,50.66495],[1.65108,50.66498],[1.6507,50.66463],[1.64955,50.66504],[1.65028,50.66495]]]}},{"type":"Feature","properties":{"k":"PTR","s":3.02},"geometry":{"type":"Polygon","coordinates":[[[1.64901,50.66604],[1.64734,50.66473],[1.64572,50.66573],[1.64655,50.66646],[1.64672,50.66633],[1.64742,50.66707],[1.64901,50.66604]]]}},{"type":"Feature","properties":{"k":"PPH","s":1.338},"geometry":{"type":"Polygon","coordinates":[[[1.64655,50.66646],[1.64572,50.66573],[1.64498,50.66622],[1.64675,50.66745],[1.64742,50.66707],[1.64672,50.66633],[1.64655,50.66646]]]}},{"type":"Feature","properties":{"k":"PPH","s":6.343},"geometry":{"type":"Polygon","coordinates":[[[1.64898,50.66889],[1.64814,50.66766],[1.64871,50.66757],[1.6496,50.66842],[1.65055,50.6678],[1.65017,50.66712],[1.64886,50.66754],[1.6483,50.66667],[1.64611,50.66801],[1.64503,50.66901],[1.64492,50.66931],[1.64542,50.67055],[1.64536,50.67108],[1.64636,50.6704],[1.64636,50.66928],[1.64605,50.66917],[1.64641,50.66852],[1.64827,50.66943],[1.64898,50.66889]]]}},{"type":"Feature","properties":{"k":"PPH","s":1.542},"geometry":{"type":"Polygon","coordinates":[[[1.64437,50.66755],[1.64557,50.66828],[1.64675,50.66745],[1.64557,50.66662],[1.64437,50.66755]]]}},{"type":"Feature","properties":{"k":"PPH","s":7.768},"geometry":{"type":"Polygon","coordinates":[[[1.64337,50.66921],[1.64432,50.6704],[1.64483,50.66898],[1.64557,50.66828],[1.64437,50.66755],[1.64551,50.66663],[1.64421,50.66578],[1.64319,50.66656],[1.64198,50.66636],[1.64164,50.66733],[1.64136,50.66756],[1.64158,50.6677],[1.64139,50.66796],[1.64337,50.66921]]]}},{"type":"Feature","properties":{"k":"PPH","s":2.758},"geometry":{"type":"Polygon","coordinates":[[[1.64012,50.66905],[1.64174,50.6699],[1.64212,50.6703],[1.64343,50.66942],[1.64337,50.66921],[1.64297,50.66888],[1.64175,50.66817],[1.64012,50.66905]]]}},{"type":"Feature","properties":{"k":"PPH","s":3.315},"geometry":{"type":"Polygon","coordinates":[[[1.64129,50.67142],[1.64158,50.67184],[1.64201,50.67103],[1.64197,50.67027],[1.63999,50.66913],[1.63993,50.66831],[1.63965,50.66794],[1.63854,50.66845],[1.64129,50.67142]]]}},{"type":"Feature","properties":{"k":"MIS","s":3.262},"geometry":{"type":"Polygon","coordinates":[[[1.6406,50.67214],[1.64099,50.67212],[1.64144,50.67165],[1.64129,50.67142],[1.63854,50.66845],[1.63769,50.66884],[1.6406,50.67214]]]}},{"type":"Feature","properties":{"k":"MIS","s":3.24},"geometry":{"type":"Polygon","coordinates":[[[1.64431,50.67043],[1.64345,50.66943],[1.64213,50.67032],[1.64215,50.67099],[1.64165,50.67193],[1.64379,50.67184],[1.64431,50.67043]]]}},{"type":"Feature","properties":{"k":"MIS","s":1.665},"geometry":{"type":"Polygon","coordinates":[[[1.64379,50.67184],[1.64466,50.67206],[1.64525,50.67066],[1.64474,50.66938],[1.64379,50.67184]]]}},{"type":"Feature","properties":{"k":"PPH","s":2.435},"geometry":{"type":"Polygon","coordinates":[[[1.64499,50.67203],[1.64827,50.66943],[1.64641,50.66852],[1.64605,50.66917],[1.64636,50.66928],[1.64636,50.6704],[1.64536,50.67108],[1.64499,50.67203]]]}},{"type":"Feature","properties":{"k":"PPH","s":1.382},"geometry":{"type":"Polygon","coordinates":[[[1.65376,50.66541],[1.65233,50.66547],[1.65234,50.66611],[1.65345,50.66624],[1.6555,50.66517],[1.65536,50.665],[1.65376,50.66541]]]}},{"type":"Feature","properties":{"k":"BTP","s":8.001},"geometry":{"type":"Polygon","coordinates":[[[1.66507,50.65408],[1.66816,50.65215],[1.66486,50.65192],[1.66467,50.65205],[1.66361,50.65203],[1.66221,50.65328],[1.66108,50.65402],[1.6637,50.65469],[1.66507,50.65408]]]}},{"type":"Feature","properties":{"k":"MIS","s":2.157},"geometry":{"type":"Polygon","coordinates":[[[1.66331,50.64836],[1.66162,50.65006],[1.66239,50.65042],[1.66356,50.65063],[1.66411,50.64987],[1.66323,50.64955],[1.66321,50.64939],[1.66389,50.64839],[1.66331,50.64836]]]}},{"type":"Feature","properties":{"k":"PPH","s":6.456},"geometry":{"type":"Polygon","coordinates":[[[1.66465,50.648],[1.66396,50.64776],[1.6633,50.64722],[1.66211,50.64854],[1.65994,50.65024],[1.65795,50.65012],[1.65823,50.65075],[1.66065,50.65084],[1.66096,50.65163],[1.66321,50.65103],[1.66356,50.65063],[1.66239,50.65042],[1.66162,50.65006],[1.66331,50.64836],[1.66457,50.64841],[1.66465,50.648]]]}},{"type":"Feature","properties":{"k":"LIF","s":2.101},"geometry":{"type":"Polygon","coordinates":[[[1.65718,50.64689],[1.65721,50.64739],[1.65702,50.64761],[1.65745,50.64824],[1.65845,50.64777],[1.66132,50.64697],[1.65718,50.64689]]]}},{"type":"Feature","properties":{"k":"PPH","s":4.307},"geometry":{"type":"Polygon","coordinates":[[[1.66278,50.64693],[1.66302,50.64689],[1.66398,50.64774],[1.66467,50.64797],[1.66511,50.64555],[1.66441,50.6453],[1.66453,50.64507],[1.66385,50.64495],[1.66344,50.64517],[1.66287,50.64517],[1.66241,50.64634],[1.66278,50.64693]]]}},{"type":"Feature","properties":{"k":"TRE","s":2.438},"geometry":{"type":"Polygon","coordinates":[[[1.66221,50.64578],[1.66264,50.64525],[1.66087,50.64492],[1.65912,50.64394],[1.65843,50.64497],[1.66221,50.64578]]]}},{"type":"Feature","properties":{"k":"PPH","s":7.551},"geometry":{"type":"Polygon","coordinates":[[[1.66221,50.64578],[1.65843,50.64497],[1.65832,50.64513],[1.65727,50.64543],[1.65551,50.64547],[1.65576,50.64695],[1.66138,50.64695],[1.66221,50.64578]]]}},{"type":"Feature","properties":{"k":"PPH","s":0.014},"geometry":{"type":"MultiPolygon","coordinates":[[[[1.65946,50.63516],[1.65922,50.6352],[1.65942,50.63519],[1.65946,50.63516]]],[[[1.66068,50.63455],[1.65971,50.63495],[1.66028,50.63473],[1.66068,50.63455]]]]}},{"type":"Feature","properties":{"k":"MIS","s":0.031},"geometry":{"type":"Polygon","coordinates":[[[1.65859,50.63528],[1.65719,50.63578],[1.65722,50.63582],[1.65859,50.63528]]]}},{"type":"Feature","properties":{"k":"PPH","s":0.001},"geometry":{"type":"Polygon","coordinates":[[[1.64925,50.63683],[1.64931,50.63685],[1.64946,50.63685],[1.64925,50.63683]]]}},{"type":"Feature","properties":{"k":"PPH","s":0.001},"geometry":{"type":"Polygon","coordinates":[[[1.64087,50.63181],[1.6409,50.63179],[1.64054,50.6319],[1.64087,50.63181]]]}},{"type":"Feature","properties":{"k":"PPH","s":5.225},"geometry":{"type":"Polygon","coordinates":[[[1.63843,50.64808],[1.63693,50.64844],[1.63593,50.6483],[1.63557,50.64951],[1.63391,50.64959],[1.63373,50.64966],[1.63373,50.65005],[1.63339,50.65009],[1.63382,50.65028],[1.63856,50.65011],[1.63843,50.64808]]]}},{"type":"Feature","properties":{"k":"PPH","s":3.006},"geometry":{"type":"Polygon","coordinates":[[[1.633,50.6498],[1.63332,50.64988],[1.63368,50.64985],[1.63391,50.64957],[1.63553,50.6495],[1.63591,50.6483],[1.63292,50.64812],[1.633,50.6498]]]}},{"type":"Feature","properties":{"k":"PPH","s":0.668},"geometry":{"type":"Polygon","coordinates":[[[1.63871,50.65294],[1.63858,50.6522],[1.63741,50.65237],[1.63757,50.65314],[1.63871,50.65294]]]}},{"type":"Feature","properties":{"k":"PTR","s":1.924},"geometry":{"type":"Polygon","coordinates":[[[1.63027,50.6527],[1.6288,50.65258],[1.62851,50.65301],[1.63122,50.65332],[1.6313,50.65434],[1.63245,50.65405],[1.63358,50.65403],[1.63027,50.6527]]]}},{"type":"Feature","properties":{"k":"PPH","s":6.309},"geometry":{"type":"Polygon","coordinates":[[[1.63422,50.65233],[1.63365,50.65226],[1.63277,50.65028],[1.63187,50.65039],[1.63195,50.65111],[1.63113,50.65117],[1.63037,50.65148],[1.63051,50.65269],[1.63365,50.65399],[1.63422,50.65233]]]}},{"type":"Feature","properties":{"k":"MLG","s":3.801},"geometry":{"type":"Polygon","coordinates":[[[1.62742,50.65307],[1.62752,50.65372],[1.62804,50.65364],[1.62823,50.65416],[1.6277,50.65425],[1.62791,50.65486],[1.62928,50.65448],[1.6313,50.65434],[1.63122,50.65332],[1.62851,50.65301],[1.62742,50.65307]]]}},{"type":"Feature","properties":{"k":"BOR","s":0.131},"geometry":{"type":"Polygon","coordinates":[[[1.63763,50.65966],[1.63725,50.65901],[1.63704,50.65901],[1.63664,50.65836],[1.63669,50.6579],[1.63661,50.65787],[1.63657,50.65836],[1.637,50.65907],[1.63718,50.65902],[1.63753,50.65982],[1.63763,50.65966]]]}},{"type":"Feature","properties":{"k":"MIS","s":3.499},"geometry":{"type":"Polygon","coordinates":[[[1.63924,50.65938],[1.63924,50.65844],[1.63852,50.65845],[1.6385,50.65753],[1.63665,50.65741],[1.63664,50.65836],[1.63704,50.65901],[1.63725,50.65901],[1.63763,50.65966],[1.63747,50.65973],[1.63756,50.65986],[1.63819,50.65979],[1.63924,50.65938]]]}},{"type":"Feature","properties":{"k":"PPH","s":3.919},"geometry":{"type":"Polygon","coordinates":[[[1.63743,50.66089],[1.63832,50.66174],[1.63864,50.66151],[1.63898,50.66169],[1.64072,50.65918],[1.64093,50.65913],[1.64106,50.65863],[1.63884,50.65963],[1.63755,50.65986],[1.63743,50.66034],[1.63766,50.66059],[1.63743,50.66089]]]}},{"type":"Feature","properties":{"k":"PPH","s":3.929},"geometry":{"type":"Polygon","coordinates":[[[1.61067,50.64612],[1.61047,50.64552],[1.61087,50.64502],[1.61179,50.6447],[1.61166,50.64394],[1.6093,50.64438],[1.60798,50.64514],[1.6081,50.64552],[1.60845,50.64536],[1.60881,50.6457],[1.60854,50.64599],[1.61092,50.6465],[1.61104,50.64636],[1.61067,50.64612]]]}},{"type":"Feature","properties":{"k":"PTR","s":0.034},"geometry":{"type":"MultiPolygon","coordinates":[[[[1.60538,50.66504],[1.60511,50.66505],[1.60588,50.6652],[1.60538,50.66504]]],[[[1.60458,50.66501],[1.60477,50.66501],[1.60459,50.66498],[1.60458,50.66501]]]]}},{"type":"Feature","properties":{"k":"PPH","s":0.053},"geometry":{"type":"MultiPolygon","coordinates":[[[[1.60873,50.66574],[1.6082,50.66585],[1.60906,50.66585],[1.60873,50.66574]]],[[[1.60616,50.66561],[1.60648,50.66563],[1.6062,50.66555],[1.60616,50.66561]]]]}},{"type":"Feature","properties":{"k":"BTH","s":1.355},"geometry":{"type":"Polygon","coordinates":[[[1.64095,50.65995],[1.64074,50.66071],[1.64161,50.66066],[1.64267,50.66017],[1.64132,50.65911],[1.64095,50.65995]]]}},{"type":"Feature","properties":{"k":"BTH","s":5.068},"geometry":{"type":"Polygon","coordinates":[[[1.65208,50.65243],[1.65592,50.65211],[1.65392,50.65001],[1.65177,50.65041],[1.65208,50.65243]]]}},{"type":"Feature","properties":{"k":"PPH","s":0.723},"geometry":{"type":"Polygon","coordinates":[[[1.65717,50.65178],[1.65774,50.65169],[1.65784,50.65208],[1.65876,50.652],[1.65833,50.65116],[1.65809,50.65122],[1.65796,50.65106],[1.65762,50.65116],[1.6574,50.6516],[1.65708,50.65167],[1.65717,50.65178]]]}},{"type":"Feature","properties":{"k":"JAC","s":0.101},"geometry":{"type":"Polygon","coordinates":[[[1.64701,50.65996],[1.64775,50.66124],[1.64781,50.66122],[1.64701,50.65996]]]}},{"type":"Feature","properties":{"k":"PPH","s":32.44},"geometry":{"type":"Polygon","coordinates":[[[1.6506,50.66029],[1.6495,50.66083],[1.65058,50.66286],[1.65135,50.6616],[1.65147,50.66084],[1.65277,50.65996],[1.65365,50.65987],[1.65373,50.65967],[1.65368,50.65895],[1.65086,50.65897],[1.65081,50.65775],[1.6541,50.65772],[1.65389,50.65707],[1.64702,50.6572],[1.64599,50.6584],[1.64629,50.65841],[1.64626,50.65865],[1.64559,50.65881],[1.64554,50.6591],[1.6438,50.65902],[1.64384,50.65839],[1.64328,50.65839],[1.64325,50.6582],[1.6415,50.65827],[1.64132,50.65911],[1.64267,50.66017],[1.64138,50.66071],[1.64139,50.66105],[1.64195,50.66114],[1.64174,50.66158],[1.64064,50.66139],[1.64081,50.66227],[1.64137,50.66332],[1.64251,50.66293],[1.64427,50.66426],[1.64618,50.6636],[1.64556,50.66294],[1.64578,50.66289],[1.64657,50.6639],[1.64682,50.66378],[1.64613,50.66312],[1.64664,50.66292],[1.64609,50.66198],[1.64579,50.66003],[1.64711,50.65993],[1.64688,50.65939],[1.65064,50.65902],[1.6506,50.66029]]]}},{"type":"Feature","properties":{"k":"BTN","s":8.773},"geometry":{"type":"Polygon","coordinates":[[[1.64532,50.65721],[1.65389,50.65707],[1.65354,50.65631],[1.65275,50.65583],[1.64515,50.65587],[1.64532,50.65721]]]}},{"type":"Feature","properties":{"k":"BOR","s":0.044},"geometry":{"type":"Polygon","coordinates":[[[1.65072,50.65319],[1.65053,50.65278],[1.65066,50.65317],[1.65022,50.65329],[1.65072,50.65319]]]}},{"type":"Feature","properties":{"k":"LIF","s":1.677},"geometry":{"type":"Polygon","coordinates":[[[1.66097,50.65173],[1.66061,50.65084],[1.65825,50.65075],[1.65864,50.65152],[1.65954,50.65144],[1.6596,50.652],[1.66097,50.65173]]]}},{"type":"Feature","properties":{"k":"AVP","s":4.333},"geometry":{"type":"Polygon","coordinates":[[[1.64601,50.6584],[1.64702,50.6572],[1.64167,50.65723],[1.6415,50.65827],[1.64325,50.6582],[1.64327,50.65834],[1.64601,50.6584]]]}},{"type":"Feature","properties":{"k":"ORH","s":6.258},"geometry":{"type":"Polygon","coordinates":[[[1.64167,50.65723],[1.64532,50.65721],[1.64492,50.65395],[1.64478,50.65395],[1.64489,50.65492],[1.64201,50.65486],[1.64167,50.65723]]]}},{"type":"Feature","properties":{"k":"PPH","s":1.666},"geometry":{"type":"Polygon","coordinates":[[[1.66038,50.65546],[1.66095,50.65625],[1.66384,50.65507],[1.6637,50.65471],[1.66038,50.65546]]]}},{"type":"Feature","properties":{"k":"PTR","s":0.826},"geometry":{"type":"Polygon","coordinates":[[[1.66095,50.65625],[1.65998,50.65464],[1.65928,50.65509],[1.66059,50.6564],[1.66095,50.65625]]]}},{"type":"Feature","properties":{"k":"BTH","s":3.442},"geometry":{"type":"Polygon","coordinates":[[[1.65918,50.65704],[1.66059,50.6564],[1.65928,50.65509],[1.65801,50.65604],[1.65652,50.65771],[1.65918,50.65704]]]}},{"type":"Feature","properties":{"k":"PTR","s":4.324},"geometry":{"type":"Polygon","coordinates":[[[1.65376,50.65633],[1.65429,50.65794],[1.65451,50.65797],[1.65605,50.65624],[1.65791,50.65521],[1.65247,50.6555],[1.65376,50.65633]]]}},{"type":"Feature","properties":{"k":"PPH","s":0.12},"geometry":{"type":"Polygon","coordinates":[[[1.64253,50.65393],[1.64251,50.65486],[1.64267,50.65486],[1.64269,50.65393],[1.64253,50.65393]]]}},{"type":"Feature","properties":{"k":"BOR","s":0.108},"geometry":{"type":"Polygon","coordinates":[[[1.64372,50.65112],[1.64368,50.65132],[1.6425,50.65182],[1.64375,50.65135],[1.64374,50.65116],[1.64492,50.651],[1.64372,50.65112]]]}},{"type":"Feature","properties":{"k":"TRE","s":2.081},"geometry":{"type":"Polygon","coordinates":[[[1.66002,50.65465],[1.66042,50.65545],[1.6637,50.65469],[1.66108,50.65402],[1.66002,50.65465]]]}},{"type":"Feature","properties":{"k":"PPH","s":5.545},"geometry":{"type":"Polygon","coordinates":[[[1.6449,50.6515],[1.64372,50.6517],[1.64358,50.65148],[1.64255,50.65191],[1.64317,50.65246],[1.64498,50.65351],[1.64575,50.65286],[1.64608,50.65206],[1.64761,50.65189],[1.64747,50.65158],[1.64713,50.65161],[1.647,50.65127],[1.64678,50.65132],[1.64655,50.65117],[1.64725,50.65076],[1.64707,50.64999],[1.64495,50.65105],[1.6449,50.6515]]]}},{"type":"Feature","properties":{"k":"LIF","s":3.542},"geometry":{"type":"Polygon","coordinates":[[[1.64511,50.64939],[1.64283,50.64945],[1.6425,50.65178],[1.64368,50.65132],[1.64372,50.65112],[1.64505,50.65098],[1.64511,50.64939]]]}},{"type":"Feature","properties":{"k":"BOR","s":0.208},"geometry":{"type":"Polygon","coordinates":[[[1.64985,50.65067],[1.64981,50.6508],[1.65182,50.65055],[1.65177,50.65041],[1.64985,50.65067]]]}},{"type":"Feature","properties":{"k":"PPH","s":0.974},"geometry":{"type":"Polygon","coordinates":[[[1.65613,50.64884],[1.65741,50.6485],[1.65745,50.64824],[1.65702,50.64761],[1.65597,50.6478],[1.65613,50.64884]]]}},{"type":"Feature","properties":{"k":"PPH","s":5.68},"geometry":{"type":"Polygon","coordinates":[[[1.65706,50.65047],[1.6575,50.65067],[1.65798,50.65042],[1.65776,50.65006],[1.65683,50.64976],[1.65595,50.6505],[1.65477,50.65066],[1.65407,50.64997],[1.65553,50.6494],[1.65531,50.64913],[1.656,50.64892],[1.65588,50.64822],[1.65552,50.64825],[1.65504,50.64778],[1.65419,50.64816],[1.65366,50.64783],[1.65223,50.6495],[1.65312,50.65019],[1.65391,50.64999],[1.65486,50.651],[1.65618,50.65086],[1.65706,50.65047]],[[1.65635,50.65072],[1.65618,50.65081],[1.65609,50.65073],[1.65635,50.65072]]]}},{"type":"Feature","properties":{"k":"PPH","s":0.555},"geometry":{"type":"Polygon","coordinates":[[[1.6544,50.6503],[1.65518,50.6502],[1.65574,50.64985],[1.65529,50.64953],[1.65408,50.64997],[1.6544,50.6503]]]}},{"type":"Feature","properties":{"k":"BTH","s":4.517},"geometry":{"type":"Polygon","coordinates":[[[1.64983,50.65109],[1.64879,50.65117],[1.64932,50.65319],[1.65045,50.65269],[1.65208,50.65243],[1.65182,50.65055],[1.64981,50.6508],[1.64983,50.65109]]]}},{"type":"Feature","properties":{"k":"PPH","s":0.168},"geometry":{"type":"Polygon","coordinates":[[[1.64879,50.65117],[1.64983,50.65109],[1.64977,50.65088],[1.64875,50.65097],[1.64879,50.65117]]]}},{"type":"Feature","properties":{"k":"PFR","s":0.073},"geometry":{"type":"Polygon","coordinates":[[[1.64819,50.65132],[1.64847,50.65131],[1.64836,50.65095],[1.64813,50.65096],[1.64819,50.65132]]]}},{"type":"Feature","properties":{"k":"MDI","s":0.186},"geometry":{"type":"Polygon","coordinates":[[[1.64745,50.65135],[1.64747,50.65158],[1.64853,50.65152],[1.64847,50.65131],[1.64745,50.65135]]]}},{"type":"Feature","properties":{"k":"PPH","s":0.015},"geometry":{"type":"MultiPolygon","coordinates":[[[[1.62817,50.62835],[1.62753,50.62812],[1.62768,50.62821],[1.62817,50.62835]]],[[[1.62759,50.62962],[1.6276,50.6296],[1.62758,50.62961],[1.62759,50.62962]]],[[[1.62833,50.63034],[1.62817,50.63021],[1.6284,50.63044],[1.62833,50.63034]]],[[[1.62912,50.6304],[1.62894,50.63051],[1.62896,50.63051],[1.62912,50.6304]]]]}},{"type":"Feature","properties":{"k":"PHF","s":4.223},"geometry":{"type":"Polygon","coordinates":[[[1.64763,50.65189],[1.64624,50.65205],[1.64586,50.65297],[1.64506,50.65355],[1.6452,50.65363],[1.64571,50.65375],[1.64694,50.65375],[1.64895,50.65324],[1.64853,50.65152],[1.64747,50.65158],[1.64763,50.65189]]]}},{"type":"Feature","properties":{"k":"MIS","s":10.748},"geometry":{"type":"Polygon","coordinates":[[[1.64492,50.65395],[1.64515,50.65587],[1.65275,50.65583],[1.65173,50.65486],[1.65045,50.65448],[1.64981,50.65329],[1.64842,50.6534],[1.64708,50.65384],[1.64492,50.65395]]]}},{"type":"Feature","properties":{"k":"MIS","s":0.346},"geometry":{"type":"Polygon","coordinates":[[[1.64213,50.65393],[1.64199,50.65486],[1.64251,50.65486],[1.64241,50.65392],[1.64213,50.65393]]]}},{"type":"Feature","properties":{"k":"LIF","s":3.046},"geometry":{"type":"Polygon","coordinates":[[[1.65086,50.65897],[1.65368,50.65895],[1.65413,50.65817],[1.6541,50.65772],[1.65081,50.65775],[1.65086,50.65897]]]}},{"type":"Feature","properties":{"k":"PTR","s":1.936},"geometry":{"type":"Polygon","coordinates":[[[1.65161,50.66241],[1.65105,50.66232],[1.65073,50.66287],[1.65389,50.66353],[1.6539,50.66227],[1.65365,50.66228],[1.65367,50.66262],[1.65164,50.66231],[1.65161,50.66241]]]}},{"type":"Feature","properties":{"k":"MIS","s":1.827},"geometry":{"type":"Polygon","coordinates":[[[1.64222,50.67268],[1.64352,50.673],[1.64466,50.67206],[1.64379,50.67184],[1.64165,50.67193],[1.64158,50.67214],[1.64222,50.67268]]]}},{"type":"Feature","properties":{"k":"PPH","s":0.652},"geometry":{"type":"Polygon","coordinates":[[[1.64274,50.67291],[1.64195,50.67264],[1.64148,50.67224],[1.64124,50.67243],[1.64186,50.6736],[1.64274,50.67291]]]}},{"type":"Feature","properties":{"k":"MIS","s":3.796},"geometry":{"type":"Polygon","coordinates":[[[1.65365,50.66228],[1.6539,50.66227],[1.65394,50.66245],[1.65377,50.66033],[1.65312,50.66034],[1.65306,50.66007],[1.65164,50.66089],[1.65111,50.66222],[1.65367,50.66262],[1.65365,50.66228]],[[1.65279,50.66057],[1.65279,50.66062],[1.65271,50.66062],[1.65279,50.66057]]]}},{"type":"Feature","properties":{"k":"PPH","s":0.958},"geometry":{"type":"Polygon","coordinates":[[[1.64949,50.66086],[1.64892,50.66118],[1.64855,50.66086],[1.64821,50.66104],[1.64907,50.66183],[1.65028,50.66235],[1.64949,50.66086]]]}},{"type":"Feature","properties":{"k":"LIF","s":1.917},"geometry":{"type":"Polygon","coordinates":[[[1.6495,50.66083],[1.6506,50.66029],[1.65065,50.659],[1.64865,50.65919],[1.6495,50.66083]]]}},{"type":"Feature","properties":{"k":"BOR","s":0.058},"geometry":{"type":"Polygon","coordinates":[[[1.65864,50.65152],[1.65947,50.65149],[1.65952,50.652],[1.65954,50.65144],[1.65864,50.65152]]]}},{"type":"Feature","properties":{"k":"PHF","s":3.445},"geometry":{"type":"Polygon","coordinates":[[[1.66149,50.6528],[1.66259,50.65175],[1.66161,50.65174],[1.66032,50.65204],[1.65907,50.65213],[1.65932,50.65333],[1.65884,50.65443],[1.65903,50.6545],[1.66149,50.6528]]]}},{"type":"Feature","properties":{"k":"PTR","s":0.22},"geometry":{"type":"Polygon","coordinates":[[[1.6637,50.65471],[1.66388,50.65504],[1.66505,50.65416],[1.6637,50.65471]]]}},{"type":"Feature","properties":{"k":"BTH","s":1.697},"geometry":{"type":"Polygon","coordinates":[[[1.64595,50.66368],[1.64452,50.66417],[1.6446,50.66436],[1.64634,50.66531],[1.6472,50.66479],[1.64595,50.66368]]]}}]}