{"type":"FeatureCollection","features":[{"type":"Feature","properties":{"k":"BTH","s":2.005},"geometry":{"type":"Polygon","coordinates":[[[1.74109,50.5787],[1.74074,50.57929],[1.74556,50.57902],[1.74516,50.5785],[1.74109,50.5787]]]}},{"type":"Feature","properties":{"k":"MIS","s":1.124},"geometry":{"type":"Polygon","coordinates":[[[1.75276,50.57123],[1.75071,50.57046],[1.75058,50.5708],[1.75333,50.57213],[1.75276,50.57123]]]}},{"type":"Feature","properties":{"k":"JAC","s":0.136},"geometry":{"type":"Polygon","coordinates":[[[1.75276,50.57123],[1.75333,50.57213],[1.75382,50.57235],[1.75282,50.57122],[1.75071,50.57046],[1.75276,50.57123]]]}},{"type":"Feature","properties":{"k":"BTH","s":22.631},"geometry":{"type":"Polygon","coordinates":[[[1.75449,50.57003],[1.7562,50.56814],[1.75162,50.56761],[1.75072,50.57043],[1.75282,50.57122],[1.75382,50.57235],[1.75827,50.57466],[1.76046,50.57237],[1.75449,50.57003]]]}},{"type":"Feature","properties":{"k":"ORH","s":4.445},"geometry":{"type":"Polygon","coordinates":[[[1.75698,50.57404],[1.75468,50.57291],[1.75272,50.57424],[1.75405,50.57529],[1.7544,50.57511],[1.75485,50.57543],[1.75698,50.57404]]]}},{"type":"Feature","properties":{"k":"BTH","s":9.799},"geometry":{"type":"Polygon","coordinates":[[[1.74917,50.57295],[1.74924,50.57308],[1.75195,50.57503],[1.75229,50.57546],[1.75292,50.5758],[1.75405,50.57529],[1.75272,50.57424],[1.75468,50.57291],[1.75065,50.57112],[1.75034,50.5713],[1.74917,50.57295]]]}},{"type":"Feature","properties":{"k":"PPH","s":2.303},"geometry":{"type":"Polygon","coordinates":[[[1.75123,50.57577],[1.7516,50.57716],[1.75241,50.57716],[1.75263,50.57638],[1.75231,50.57567],[1.75199,50.57559],[1.74963,50.57383],[1.74946,50.57386],[1.74947,50.57411],[1.75123,50.57577]]]}},{"type":"Feature","properties":{"k":"MIS","s":2.302},"geometry":{"type":"Polygon","coordinates":[[[1.7502,50.57587],[1.75047,50.57715],[1.7516,50.57716],[1.75123,50.57577],[1.74947,50.57411],[1.74917,50.57444],[1.7502,50.57587]]]}},{"type":"Feature","properties":{"k":"BTH","s":6.868},"geometry":{"type":"Polygon","coordinates":[[[1.75864,50.57681],[1.75484,50.57543],[1.7544,50.57511],[1.75298,50.57577],[1.75568,50.57853],[1.75864,50.57681]]]}},{"type":"Feature","properties":{"k":"PPH","s":7.785},"geometry":{"type":"Polygon","coordinates":[[[1.75241,50.57565],[1.75268,50.57634],[1.75242,50.57716],[1.75047,50.57716],[1.75068,50.57827],[1.75131,50.57909],[1.75198,50.57959],[1.75292,50.579],[1.75534,50.57873],[1.75568,50.57853],[1.75298,50.57577],[1.75241,50.57565]]]}},{"type":"Feature","properties":{"k":"MIS","s":7.981},"geometry":{"type":"Polygon","coordinates":[[[1.75037,50.57717],[1.75007,50.57593],[1.749,50.57454],[1.74728,50.57572],[1.74533,50.5762],[1.74636,50.57656],[1.74721,50.57753],[1.74882,50.577],[1.74937,50.57691],[1.74965,50.5789],[1.7504,50.57994],[1.75152,50.57951],[1.75051,50.57826],[1.75037,50.57717]]]}},{"type":"Feature","properties":{"k":"ORH","s":1.384},"geometry":{"type":"Polygon","coordinates":[[[1.7452,50.57588],[1.74515,50.576],[1.74707,50.57551],[1.74777,50.57512],[1.74845,50.57465],[1.748,50.57412],[1.7452,50.57588]]]}},{"type":"Feature","properties":{"k":"PPH","s":2.24},"geometry":{"type":"Polygon","coordinates":[[[1.74629,50.5766],[1.74538,50.5763],[1.74397,50.5766],[1.7423,50.57774],[1.74469,50.57757],[1.74629,50.5766]]]}},{"type":"Feature","properties":{"k":"ORP","s":1.995},"geometry":{"type":"Polygon","coordinates":[[[1.74636,50.57656],[1.74454,50.57766],[1.74488,50.57811],[1.74756,50.57791],[1.74636,50.57656]]]}},{"type":"Feature","properties":{"k":"PPH","s":3.742},"geometry":{"type":"Polygon","coordinates":[[[1.74965,50.5789],[1.74936,50.57691],[1.7472,50.57752],[1.74941,50.58032],[1.75038,50.5799],[1.74965,50.5789]]]}},{"type":"Feature","properties":{"k":"BTH","s":6.23},"geometry":{"type":"Polygon","coordinates":[[[1.74729,50.58125],[1.74941,50.58032],[1.74756,50.57791],[1.74488,50.57811],[1.74729,50.58125]]]}},{"type":"Feature","properties":{"k":"PPH","s":0.017},"geometry":{"type":"Polygon","coordinates":[]}},{"type":"Feature","properties":{"k":"PPH","s":2.594},"geometry":{"type":"Polygon","coordinates":[[[1.75156,50.57955],[1.74973,50.58026],[1.75141,50.58111],[1.75163,50.58099],[1.75347,50.58208],[1.75418,50.58172],[1.75306,50.58122],[1.75272,50.58135],[1.75151,50.58065],[1.75192,50.58038],[1.75296,50.581],[1.7523,50.58049],[1.75261,50.58026],[1.75156,50.57955]]]}},{"type":"Feature","properties":{"k":"MIS","s":0.03},"geometry":{"type":"Polygon","coordinates":[[[1.75144,50.57949],[1.75151,50.5795],[1.75095,50.57888],[1.75144,50.57949]]]}},{"type":"Feature","properties":{"k":"PPH","s":0.001},"geometry":{"type":"MultiPolygon","coordinates":[[[[1.75194,50.57967],[1.75205,50.57959],[1.75193,50.57966],[1.75194,50.57967]]]]}},{"type":"Feature","properties":{"k":"CZH","s":0.015},"geometry":{"type":"MultiPolygon","coordinates":[[[[1.75986,50.57872],[1.76117,50.57924],[1.76118,50.57922],[1.75986,50.57872]]]]}},{"type":"Feature","properties":{"k":"ORH","s":0.801},"geometry":{"type":"Polygon","coordinates":[[[1.76945,50.57892],[1.76854,50.57697],[1.76796,50.57689],[1.7689,50.57883],[1.76945,50.57892]]]}},{"type":"Feature","properties":{"k":"BTH","s":4.405},"geometry":{"type":"Polygon","coordinates":[[[1.76471,50.57641],[1.7658,50.5783],[1.7689,50.57883],[1.76796,50.57689],[1.76471,50.57641]]]}},{"type":"Feature","properties":{"k":"JAC","s":0.234},"geometry":{"type":"Polygon","coordinates":[[[1.76603,50.57651],[1.76612,50.57653],[1.76568,50.57353],[1.76603,50.57651]]]}},{"type":"Feature","properties":{"k":"MIS","s":3.723},"geometry":{"type":"Polygon","coordinates":[[[1.76341,50.57612],[1.76603,50.57651],[1.76556,50.57355],[1.76459,50.57369],[1.76341,50.57612]]]}},{"type":"Feature","properties":{"k":"LIF","s":2.739},"geometry":{"type":"Polygon","coordinates":[[[1.76444,50.57388],[1.76361,50.57358],[1.76161,50.57585],[1.76331,50.57609],[1.76444,50.57388]]]}},{"type":"Feature","properties":{"k":"BTH","s":1.171},"geometry":{"type":"Polygon","coordinates":[[[1.76522,50.5773],[1.76471,50.57641],[1.76334,50.5762],[1.76297,50.57696],[1.76522,50.5773]]]}},{"type":"Feature","properties":{"k":"BTH","s":1.93},"geometry":{"type":"Polygon","coordinates":[[[1.76296,50.57696],[1.76251,50.57774],[1.7658,50.5783],[1.76522,50.5773],[1.76296,50.57696]]]}},{"type":"Feature","properties":{"k":"ORH","s":7.072},"geometry":{"type":"Polygon","coordinates":[[[1.75536,50.57873],[1.75728,50.57947],[1.75914,50.57844],[1.76118,50.57922],[1.76216,50.57808],[1.75864,50.57681],[1.75536,50.57873]]]}},{"type":"Feature","properties":{"k":"CZH","s":7.519},"geometry":{"type":"Polygon","coordinates":[[[1.75698,50.57404],[1.75484,50.57543],[1.76048,50.57747],[1.76122,50.57606],[1.76058,50.57592],[1.76069,50.57573],[1.75929,50.57531],[1.75698,50.57404]]]}},{"type":"Feature","properties":{"k":"BTH","s":1.705},"geometry":{"type":"Polygon","coordinates":[[[1.76159,50.57583],[1.76361,50.57358],[1.76288,50.5733],[1.76083,50.57567],[1.76159,50.57583]]]}},{"type":"Feature","properties":{"k":"BTH","s":3.96},"geometry":{"type":"Polygon","coordinates":[[[1.76083,50.57567],[1.76288,50.5733],[1.76136,50.57272],[1.7592,50.57508],[1.76083,50.57567]]]}},{"type":"Feature","properties":{"k":"BTH","s":2.376},"geometry":{"type":"Polygon","coordinates":[[[1.75916,50.57513],[1.76136,50.57272],[1.76046,50.57237],[1.75827,50.57466],[1.75916,50.57513]]]}},{"type":"Feature","properties":{"k":"PTC","s":0.089},"geometry":{"type":"Polygon","coordinates":[[[1.75784,50.57069],[1.75778,50.57075],[1.75899,50.57121],[1.75784,50.57069]]]}},{"type":"Feature","properties":{"k":"BTH","s":0.55},"geometry":{"type":"Polygon","coordinates":[[[1.75739,50.57117],[1.75859,50.57164],[1.75899,50.57121],[1.75778,50.57075],[1.75739,50.57117]]]}},{"type":"Feature","properties":{"k":"MIS","s":4.428},"geometry":{"type":"Polygon","coordinates":[[[1.76248,50.57039],[1.76045,50.56957],[1.75862,50.57163],[1.76055,50.57238],[1.76248,50.57039]]]}},{"type":"Feature","properties":{"k":"PTC","s":6.285},"geometry":{"type":"Polygon","coordinates":[[[1.76438,50.57116],[1.76252,50.57038],[1.76061,50.57243],[1.76445,50.57389],[1.76438,50.57116]]]}},{"type":"Feature","properties":{"k":"BTH","s":9.852},"geometry":{"type":"Polygon","coordinates":[[[1.76575,50.5692],[1.76508,50.57031],[1.76586,50.57177],[1.7662,50.57346],[1.76568,50.57353],[1.76612,50.57653],[1.76906,50.57696],[1.76737,50.57348],[1.76661,50.57112],[1.76683,50.56926],[1.76575,50.5692]]]}},{"type":"Feature","properties":{"k":"JAC","s":0.241},"geometry":{"type":"Polygon","coordinates":[[[1.76351,50.5707],[1.76567,50.56369],[1.76346,50.57069],[1.76351,50.5707]]]}},{"type":"Feature","properties":{"k":"BTH","s":9.544},"geometry":{"type":"Polygon","coordinates":[[[1.76441,50.57108],[1.76438,50.57021],[1.7658,50.56812],[1.76846,50.56587],[1.7657,50.56372],[1.76351,50.5707],[1.76441,50.57108]]]}},{"type":"Feature","properties":{"k":"PPH","s":0.687},"geometry":{"type":"Polygon","coordinates":[[[1.76864,50.56666],[1.7681,50.56646],[1.76708,50.56735],[1.76766,50.56773],[1.76864,50.56666]]]}},{"type":"Feature","properties":{"k":"BTH","s":11.816},"geometry":{"type":"Polygon","coordinates":[[[1.7645,50.5628],[1.7639,50.5627],[1.76164,50.56998],[1.76346,50.57069],[1.76567,50.56369],[1.7645,50.5628]]]}},{"type":"Feature","properties":{"k":"JAC","s":0.248},"geometry":{"type":"Polygon","coordinates":[[[1.76389,50.56273],[1.7639,50.5627],[1.76385,50.5627],[1.76161,50.56997],[1.76389,50.56273]]]}},{"type":"Feature","properties":{"k":"BTH","s":11.321},"geometry":{"type":"Polygon","coordinates":[[[1.75976,50.56924],[1.76161,50.56997],[1.76385,50.5627],[1.76184,50.56258],[1.75976,50.56924]]]}},{"type":"Feature","properties":{"k":"JAC","s":0.225},"geometry":{"type":"Polygon","coordinates":[[[1.76184,50.56258],[1.7618,50.56256],[1.75972,50.56923],[1.76184,50.56258]]]}},{"type":"Feature","properties":{"k":"PTC","s":9.986},"geometry":{"type":"Polygon","coordinates":[[[1.75972,50.56923],[1.76175,50.56253],[1.75957,50.56299],[1.75787,50.56851],[1.75972,50.56923]]]}},{"type":"Feature","properties":{"k":"LIF","s":8.563},"geometry":{"type":"Polygon","coordinates":[[[1.75787,50.56851],[1.75957,50.56299],[1.7573,50.56359],[1.75581,50.56805],[1.75787,50.56851]]]}},{"type":"Feature","properties":{"k":"FLA","s":1.51},"geometry":{"type":"Polygon","coordinates":[[[1.75905,50.57114],[1.76043,50.56956],[1.75962,50.56923],[1.75833,50.57057],[1.75805,50.57047],[1.75795,50.57072],[1.75905,50.57114]]]}},{"type":"Feature","properties":{"k":"BTH","s":6.348},"geometry":{"type":"Polygon","coordinates":[[[1.7562,50.56814],[1.75449,50.57003],[1.75739,50.57117],[1.75925,50.5691],[1.7562,50.56814]]]}},{"type":"Feature","properties":{"k":"ORP","s":0.026},"geometry":{"type":"Polygon","coordinates":[[[1.75209,50.56724],[1.75182,50.56722],[1.7518,50.56733],[1.7521,50.56736],[1.75209,50.56724]]]}},{"type":"Feature","properties":{"k":"PPH","s":3.487},"geometry":{"type":"Polygon","coordinates":[[[1.74939,50.56817],[1.74918,50.56778],[1.74749,50.5684],[1.74647,50.56828],[1.74622,50.56846],[1.74855,50.56919],[1.75044,50.56998],[1.75091,50.56854],[1.74995,50.56829],[1.74996,50.56815],[1.74939,50.56817]]]}},{"type":"Feature","properties":{"k":"PPH","s":6.305},"geometry":{"type":"Polygon","coordinates":[[[1.74897,50.56579],[1.74839,50.56625],[1.74687,50.56689],[1.74779,50.5679],[1.74825,50.56801],[1.74958,50.56757],[1.75111,50.56747],[1.75113,50.56726],[1.75135,50.56727],[1.75196,50.56513],[1.74897,50.56579]]]}},{"type":"Feature","properties":{"k":"EPI","s":4.524},"geometry":{"type":"Polygon","coordinates":[[[1.74867,50.56555],[1.74927,50.56564],[1.75202,50.56501],[1.75237,50.56384],[1.75237,50.56382],[1.74892,50.56353],[1.74867,50.56555]]]}},{"type":"Feature","properties":{"k":"BTH","s":2.528},"geometry":{"type":"Polygon","coordinates":[[[1.75225,50.56509],[1.75151,50.56752],[1.7527,50.56767],[1.75355,50.56482],[1.75225,50.56509]],[[1.7521,50.56736],[1.7518,50.56733],[1.75182,50.56722],[1.7521,50.56736]]]}},{"type":"Feature","properties":{"k":"PTC","s":8.313},"geometry":{"type":"Polygon","coordinates":[[[1.75324,50.56709],[1.75319,50.56726],[1.75418,50.56736],[1.75404,50.56768],[1.75429,50.56772],[1.7542,50.56788],[1.75556,50.56803],[1.75561,50.56787],[1.75586,50.56789],[1.75722,50.56383],[1.75691,50.56395],[1.75694,50.56374],[1.75566,50.5643],[1.75394,50.56474],[1.75392,50.56493],[1.75365,50.56498],[1.753,50.56697],[1.75324,50.56709]]]}},{"type":"Feature","properties":{"k":"ORH","s":2.038},"geometry":{"type":"Polygon","coordinates":[[[1.75782,50.55966],[1.75801,50.55904],[1.7542,50.55887],[1.75394,50.55955],[1.75782,50.55966]]]}},{"type":"Feature","properties":{"k":"EPI","s":10.805},"geometry":{"type":"Polygon","coordinates":[[[1.75237,50.56382],[1.75351,50.56014],[1.74974,50.5598],[1.74892,50.56349],[1.75237,50.56382]]]}},{"type":"Feature","properties":{"k":"MIS","s":4.833},"geometry":{"type":"Polygon","coordinates":[[[1.74524,50.56232],[1.74621,50.56394],[1.74892,50.56349],[1.74932,50.56159],[1.74524,50.56232]]]}},{"type":"Feature","properties":{"k":"ORH","s":10.017},"geometry":{"type":"Polygon","coordinates":[[[1.74109,50.56075],[1.74194,50.56156],[1.74352,50.56264],[1.74679,50.56204],[1.74713,50.55914],[1.74109,50.56075]]]}},{"type":"Feature","properties":{"k":"BTH","s":7.417},"geometry":{"type":"Polygon","coordinates":[[[1.74732,50.55856],[1.74709,50.55985],[1.74772,50.56006],[1.74764,50.56016],[1.74702,50.56011],[1.74679,50.56204],[1.74933,50.56159],[1.7501,50.55786],[1.74844,50.55826],[1.74776,50.55827],[1.74732,50.55856]]]}},{"type":"Feature","properties":{"k":"BTH","s":0.497},"geometry":{"type":"Polygon","coordinates":[[[1.74916,50.55789],[1.74979,50.55773],[1.74914,50.55703],[1.74836,50.55708],[1.74916,50.55789]]]}},{"type":"Feature","properties":{"k":"BTN","s":6.519},"geometry":{"type":"Polygon","coordinates":[[[1.74591,50.55672],[1.74652,50.55832],[1.74909,50.55802],[1.74686,50.55555],[1.74274,50.55652],[1.74313,50.55741],[1.74591,50.55672]]]}},{"type":"Feature","properties":{"k":"PTC","s":6.206},"geometry":{"type":"Polygon","coordinates":[[[1.75536,50.55446],[1.7469,50.55543],[1.74773,50.55634],[1.755,50.55546],[1.75536,50.55446]]]}},{"type":"Feature","properties":{"k":"BTH","s":5.197},"geometry":{"type":"Polygon","coordinates":[[[1.74835,50.55707],[1.75456,50.55668],[1.755,50.55548],[1.74773,50.55634],[1.74835,50.55707]]]}},{"type":"Feature","properties":{"k":"PTC","s":4.237},"geometry":{"type":"Polygon","coordinates":[[[1.74986,50.55781],[1.75151,50.5578],[1.754,50.55832],[1.75456,50.55668],[1.74914,50.55703],[1.74986,50.55781]]]}},{"type":"Feature","properties":{"k":"BTH","s":5.938},"geometry":{"type":"Polygon","coordinates":[[[1.75351,50.56014],[1.75405,50.55845],[1.75124,50.55786],[1.75114,50.55883],[1.75101,50.55882],[1.75092,50.55881],[1.75091,50.55881],[1.75082,50.55839],[1.75103,50.55833],[1.75109,50.55784],[1.7501,50.55786],[1.74973,50.55982],[1.75351,50.56014]]]}},{"type":"Feature","properties":{"k":"CZH","s":22.771},"geometry":{"type":"Polygon","coordinates":[[[1.7579,50.5597],[1.754,50.55964],[1.7523,50.56493],[1.75504,50.56441],[1.75805,50.56321],[1.7611,50.56259],[1.75875,50.55987],[1.75893,50.55889],[1.7582,50.55885],[1.7579,50.5597]]]}},{"type":"Feature","properties":{"k":"CZH","s":2.244},"geometry":{"type":"Polygon","coordinates":[[[1.76292,50.56198],[1.76124,50.56],[1.75988,50.5599],[1.76207,50.56233],[1.76292,50.56198]]]}},{"type":"Feature","properties":{"k":"CZH","s":2.987},"geometry":{"type":"Polygon","coordinates":[[[1.75875,50.55987],[1.7611,50.56259],[1.76197,50.56237],[1.75988,50.5599],[1.75989,50.55902],[1.75894,50.55889],[1.75875,50.55987]]]}},{"type":"Feature","properties":{"k":"CZH","s":0.075},"geometry":{"type":"Polygon","coordinates":[[[1.76222,50.56008],[1.76255,50.56009],[1.75989,50.55982],[1.76222,50.56008]]]}},{"type":"Feature","properties":{"k":"LIF","s":8.493},"geometry":{"type":"Polygon","coordinates":[[[1.76776,50.56528],[1.76853,50.56482],[1.76683,50.56157],[1.7663,50.56099],[1.7659,50.56084],[1.76187,50.5625],[1.76445,50.56273],[1.76776,50.56528]]]}},{"type":"Feature","properties":{"k":"PPH","s":0.004},"geometry":{"type":"MultiPolygon","coordinates":[]}},{"type":"Feature","properties":{"k":"LIF","s":0.049},"geometry":{"type":"Polygon","coordinates":[[[1.74807,50.55116],[1.74879,50.55095],[1.74574,50.55177],[1.74807,50.55116]]]}},{"type":"Feature","properties":{"k":"BTN","s":0.024},"geometry":{"type":"Polygon","coordinates":[[[1.75057,50.55049],[1.75058,50.55047],[1.74879,50.55095],[1.75057,50.55049]]]}},{"type":"Feature","properties":{"k":"BTH","s":2.81},"geometry":{"type":"Polygon","coordinates":[[[1.75177,50.55196],[1.75181,50.5522],[1.75414,50.55206],[1.7543,50.55182],[1.75204,50.55111],[1.75189,50.5503],[1.7513,50.55029],[1.75058,50.55049],[1.75104,50.5521],[1.75177,50.55196]]]}},{"type":"Feature","properties":{"k":"BTH","s":0.012},"geometry":{"type":"Polygon","coordinates":[[[1.7513,50.55029],[1.75189,50.55029],[1.75131,50.55028],[1.75057,50.55049],[1.7513,50.55029]]]}},{"type":"Feature","properties":{"k":"MIS","s":10.849},"geometry":{"type":"Polygon","coordinates":[[[1.74595,50.55457],[1.7557,50.55343],[1.75594,50.55269],[1.75414,50.55206],[1.75174,50.55219],[1.74635,50.55352],[1.74606,50.55369],[1.74595,50.55457]]]}},{"type":"Feature","properties":{"k":"PPH","s":0.45},"geometry":{"type":"Polygon","coordinates":[[[1.75591,50.55268],[1.75594,50.55269],[1.75601,50.55236],[1.7543,50.55182],[1.75414,50.55207],[1.75591,50.55268]]]}},{"type":"Feature","properties":{"k":"BTH","s":6.992},"geometry":{"type":"Polygon","coordinates":[[[1.7469,50.55543],[1.75536,50.55446],[1.7557,50.55343],[1.74595,50.55457],[1.7469,50.55543]]]}},{"type":"Feature","properties":{"k":"CZH","s":7.32},"geometry":{"type":"Polygon","coordinates":[[[1.75097,50.55225],[1.75058,50.55049],[1.7447,50.55204],[1.74521,50.55241],[1.7459,50.55217],[1.74601,50.5523],[1.74581,50.55242],[1.74631,50.55235],[1.7461,50.55354],[1.75097,50.55225]]]}},{"type":"Feature","properties":{"k":"BTN","s":0.016},"geometry":{"type":"Polygon","coordinates":[[[1.7447,50.55204],[1.74574,50.55177],[1.7447,50.55203],[1.74355,50.55122],[1.7447,50.55204]]]}},{"type":"Feature","properties":{"k":"BTH","s":10.941},"geometry":{"type":"Polygon","coordinates":[[[1.74222,50.55518],[1.74272,50.55652],[1.74686,50.55555],[1.74584,50.55453],[1.74624,50.55258],[1.74608,50.55243],[1.74237,50.55325],[1.74235,50.55342],[1.74181,50.55355],[1.74163,50.55343],[1.74101,50.55357],[1.74222,50.55518]]]}},{"type":"Feature","properties":{"k":"MIS","s":12.554},"geometry":{"type":"Polygon","coordinates":[[[1.74089,50.55352],[1.74536,50.55251],[1.74219,50.55035],[1.73937,50.55002],[1.73714,50.55082],[1.74089,50.55352]]]}},{"type":"Feature","properties":{"k":"PPH","s":0.366},"geometry":{"type":"Polygon","coordinates":[[[1.73737,50.55336],[1.7358,50.55322],[1.73579,50.55332],[1.73966,50.55391],[1.73737,50.55336]]]}},{"type":"Feature","properties":{"k":"CZH","s":4.467},"geometry":{"type":"Polygon","coordinates":[[[1.7358,50.55331],[1.73543,50.55374],[1.73546,50.55432],[1.73773,50.55454],[1.73812,50.55564],[1.73992,50.55541],[1.73965,50.55398],[1.7358,50.55331]]]}},{"type":"Feature","properties":{"k":"ORP","s":2.527},"geometry":{"type":"Polygon","coordinates":[[[1.73251,50.5509],[1.73288,50.552],[1.73435,50.55206],[1.73695,50.55254],[1.73695,50.55223],[1.7344,50.55144],[1.73416,50.55082],[1.73251,50.5509]]]}},{"type":"Feature","properties":{"k":"PPH","s":5.077},"geometry":{"type":"Polygon","coordinates":[[[1.73695,50.55223],[1.73695,50.55253],[1.73961,50.55356],[1.74089,50.55352],[1.73715,50.55081],[1.73602,50.55103],[1.73572,50.55089],[1.7344,50.55144],[1.73695,50.55223]]]}},{"type":"Feature","properties":{"k":"MIS","s":2.498},"geometry":{"type":"Polygon","coordinates":[[[1.73938,50.55],[1.73744,50.55067],[1.73639,50.54894],[1.73515,50.54902],[1.73547,50.55031],[1.73586,50.55102],[1.73715,50.55081],[1.73938,50.55]]]}},{"type":"Feature","properties":{"k":"BTH","s":4.301},"geometry":{"type":"Polygon","coordinates":[[[1.7345,50.5514],[1.73566,50.55091],[1.73515,50.54902],[1.7363,50.5489],[1.73497,50.54749],[1.73404,50.54757],[1.73416,50.54858],[1.7337,50.54862],[1.7345,50.5514]]]}},{"type":"Feature","properties":{"k":"MIS","s":0.017},"geometry":{"type":"Polygon","coordinates":[[[1.73672,50.54885],[1.73554,50.54764],[1.73669,50.54886],[1.73672,50.54885]]]}},{"type":"Feature","properties":{"k":"ORH","s":0.017},"geometry":{"type":"MultiPolygon","coordinates":[[[[1.74057,50.55014],[1.7394,50.54999],[1.73939,50.55001],[1.74057,50.55014]]]]}},{"type":"Feature","properties":{"k":"PPH","s":0.039},"geometry":{"type":"MultiPolygon","coordinates":[[[[1.73362,50.54819],[1.7337,50.54858],[1.73364,50.54817],[1.73266,50.54833],[1.73261,50.54813],[1.73264,50.54834],[1.73362,50.54819]]],[[[1.73407,50.54858],[1.73407,50.54857],[1.7337,50.54858],[1.7337,50.54859],[1.73407,50.54858]]],[[[1.73403,50.54755],[1.73404,50.54757],[1.73536,50.54746],[1.73403,50.54755]]]]}},{"type":"Feature","properties":{"k":"PPH","s":0.229},"geometry":{"type":"Polygon","coordinates":[[[1.72914,50.54618],[1.7292,50.54645],[1.73026,50.54636],[1.73022,50.54609],[1.72914,50.54618]]]}},{"type":"Feature","properties":{"k":"PPH","s":0.181},"geometry":{"type":"Polygon","coordinates":[[[1.72898,50.54573],[1.72904,50.54592],[1.73016,50.54583],[1.73014,50.54563],[1.72898,50.54573]]]}},{"type":"Feature","properties":{"k":"PPH","s":0.313},"geometry":{"type":"Polygon","coordinates":[[[1.72787,50.54754],[1.72788,50.54725],[1.72859,50.54712],[1.72849,50.54674],[1.72768,50.54676],[1.72781,50.54754],[1.72695,50.54763],[1.72787,50.54754]]]}},{"type":"Feature","properties":{"k":"PPH","s":1.408},"geometry":{"type":"Polygon","coordinates":[[[1.72746,50.54538],[1.72768,50.54674],[1.72842,50.54673],[1.7284,50.54653],[1.72903,50.54648],[1.72866,50.54525],[1.72746,50.54538]]]}},{"type":"Feature","properties":{"k":"CZH","s":0.008},"geometry":{"type":"MultiPolygon","coordinates":[[[[1.72717,50.54864],[1.72731,50.54922],[1.72723,50.54885],[1.72717,50.54864]]],[[[1.72693,50.54764],[1.72704,50.54812],[1.72697,50.54769],[1.72693,50.54764]]]]}},{"type":"Feature","properties":{"k":"PPH","s":1.055},"geometry":{"type":"Polygon","coordinates":[[[1.72942,50.54753],[1.7299,50.54885],[1.73027,50.54637],[1.72919,50.54646],[1.72942,50.54753]]]}},{"type":"Feature","properties":{"k":"PPH","s":4.295},"geometry":{"type":"Polygon","coordinates":[[[1.72695,50.54763],[1.72751,50.5501],[1.72847,50.55031],[1.72993,50.55016],[1.7296,50.54934],[1.73003,50.54926],[1.72953,50.54815],[1.7279,50.54825],[1.72788,50.54757],[1.72695,50.54763]]]}},{"type":"Feature","properties":{"k":"BTH","s":4.251},"geometry":{"type":"MultiPolygon","coordinates":[[[[1.72789,50.55236],[1.72764,50.55189],[1.72723,50.55179],[1.72721,50.55075],[1.72422,50.55078],[1.72437,50.55257],[1.72789,50.55236]]],[[[1.72747,50.55014],[1.72745,50.55024],[1.72748,50.55018],[1.72747,50.55014]]]]}},{"type":"Feature","properties":{"k":"BTH","s":6.503},"geometry":{"type":"Polygon","coordinates":[[[1.72817,50.55274],[1.72988,50.55235],[1.729,50.55158],[1.72771,50.5518],[1.72789,50.55236],[1.72188,50.55272],[1.72238,50.55405],[1.72275,50.55417],[1.72823,50.55315],[1.72817,50.55274]],[[1.72629,50.5534],[1.72614,50.55319],[1.72791,50.5529],[1.72796,50.55313],[1.72629,50.5534]]]}},{"type":"Feature","properties":{"k":"BFS","s":0.038},"geometry":{"type":"Polygon","coordinates":[[[1.7276,50.55181],[1.72798,50.55233],[1.72773,50.55185],[1.7276,50.55181]]]}},{"type":"Feature","properties":{"k":"PPH","s":0.957},"geometry":{"type":"Polygon","coordinates":[[[1.72827,50.55174],[1.72896,50.55155],[1.72814,50.55078],[1.72723,50.55079],[1.72726,50.55178],[1.72827,50.55174]]]}},{"type":"Feature","properties":{"k":"MIS","s":1.4},"geometry":{"type":"Polygon","coordinates":[[[1.73039,50.55317],[1.72988,50.55235],[1.72817,50.55274],[1.72822,50.55354],[1.73039,50.55317]]]}},{"type":"Feature","properties":{"k":"PPH","s":4.149},"geometry":{"type":"Polygon","coordinates":[[[1.72468,50.55417],[1.72495,50.55486],[1.7261,50.55476],[1.72719,50.55496],[1.72849,50.55442],[1.72882,50.55454],[1.73076,50.55416],[1.73061,50.55378],[1.72991,50.55387],[1.72983,50.55355],[1.73007,50.5533],[1.72468,50.55417]]]}},{"type":"Feature","properties":{"k":"ORP","s":0.302},"geometry":{"type":"Polygon","coordinates":[[[1.7271,50.55301],[1.72614,50.55319],[1.72629,50.5534],[1.72796,50.55313],[1.72791,50.5529],[1.7271,50.55301]]]}},{"type":"Feature","properties":{"k":"JAC","s":1.332},"geometry":{"type":"Polygon","coordinates":[[[1.72254,50.55415],[1.72288,50.55419],[1.7227,50.55431],[1.72361,50.55416],[1.72452,50.55427],[1.72478,50.55409],[1.72813,50.55359],[1.72823,50.55315],[1.72254,50.55415]]]}},{"type":"Feature","properties":{"k":"JAC","s":0.119},"geometry":{"type":"Polygon","coordinates":[[[1.72212,50.55369],[1.72234,50.55404],[1.72244,50.55414],[1.72256,50.55416],[1.72176,50.55275],[1.72212,50.55369]]]}},{"type":"Feature","properties":{"k":"JAC","s":0.367},"geometry":{"type":"Polygon","coordinates":[[[1.71913,50.55288],[1.71918,50.55318],[1.72177,50.55277],[1.71913,50.55288]]]}},{"type":"Feature","properties":{"k":"ORP","s":7.204},"geometry":{"type":"Polygon","coordinates":[[[1.71895,50.5521],[1.71973,50.55203],[1.71983,50.55284],[1.72437,50.55257],[1.72422,50.55078],[1.71966,50.55082],[1.71974,50.55189],[1.71913,50.55195],[1.71851,50.55083],[1.71823,50.55083],[1.71895,50.5521]]]}},{"type":"Feature","properties":{"k":"BTP","s":0.734},"geometry":{"type":"Polygon","coordinates":[[[1.71966,50.55082],[1.71851,50.55083],[1.71913,50.55195],[1.71974,50.55189],[1.71966,50.55082]]]}},{"type":"Feature","properties":{"k":"BTH","s":4.165},"geometry":{"type":"Polygon","coordinates":[[[1.7191,50.55496],[1.72286,50.55423],[1.72234,50.55404],[1.72177,50.55277],[1.71918,50.55318],[1.7191,50.55496]]]}},{"type":"Feature","properties":{"k":"CZH","s":10.182},"geometry":{"type":"Polygon","coordinates":[[[1.72045,50.55718],[1.72579,50.55618],[1.72469,50.55422],[1.72437,50.55434],[1.72305,50.55425],[1.71912,50.55496],[1.72045,50.55718]]]}},{"type":"Feature","properties":{"k":"BTH","s":6.337},"geometry":{"type":"Polygon","coordinates":[[[1.72578,50.55618],[1.72042,50.55719],[1.72187,50.55852],[1.72635,50.55769],[1.72578,50.55618]]]}},{"type":"Feature","properties":{"k":"ORP","s":3.359},"geometry":{"type":"Polygon","coordinates":[[[1.72187,50.55852],[1.72278,50.55932],[1.72671,50.55865],[1.72635,50.55769],[1.72187,50.55852]]]}},{"type":"Feature","properties":{"k":"MIS","s":3.935},"geometry":{"type":"Polygon","coordinates":[[[1.72032,50.55748],[1.72016,50.55681],[1.71958,50.55616],[1.71701,50.5564],[1.71863,50.55868],[1.72032,50.55748]]]}},{"type":"Feature","properties":{"k":"LIF","s":10.073},"geometry":{"type":"Polygon","coordinates":[[[1.72046,50.55732],[1.71703,50.55985],[1.71744,50.56022],[1.71819,50.56162],[1.72318,50.5597],[1.72046,50.55732]]]}},{"type":"Feature","properties":{"k":"JAC","s":0.126},"geometry":{"type":"Polygon","coordinates":[[[1.7182,50.56164],[1.7232,50.55972],[1.72318,50.5597],[1.7182,50.56164]]]}},{"type":"Feature","properties":{"k":"LIF","s":7.25},"geometry":{"type":"Polygon","coordinates":[[[1.71839,50.56199],[1.71975,50.5629],[1.72438,50.56112],[1.72437,50.56102],[1.7232,50.55972],[1.7182,50.56164],[1.71839,50.56199]]]}},{"type":"Feature","properties":{"k":"JAC","s":0.119},"geometry":{"type":"Polygon","coordinates":[[[1.71978,50.56292],[1.72438,50.56112],[1.71975,50.5629],[1.71978,50.56292]]]}},{"type":"Feature","properties":{"k":"ORP","s":3.181},"geometry":{"type":"Polygon","coordinates":[[[1.72278,50.55932],[1.72396,50.56042],[1.72446,50.56125],[1.72641,50.56091],[1.72474,50.55899],[1.72278,50.55932]]]}},{"type":"Feature","properties":{"k":"BTH","s":3.897},"geometry":{"type":"Polygon","coordinates":[[[1.72864,50.56052],[1.72695,50.55862],[1.72474,50.55899],[1.72641,50.56091],[1.72864,50.56052]]]}},{"type":"Feature","properties":{"k":"BTH","s":3.9},"geometry":{"type":"Polygon","coordinates":[[[1.73247,50.56103],[1.73207,50.55989],[1.72446,50.56125],[1.7244,50.56174],[1.72371,50.56252],[1.72392,50.56315],[1.72469,50.56399],[1.72505,50.56386],[1.72434,50.56316],[1.72402,50.56248],[1.7248,50.56166],[1.73182,50.56046],[1.73218,50.56108],[1.73247,50.56103]]]}},{"type":"Feature","properties":{"k":"LIF","s":5.076},"geometry":{"type":"Polygon","coordinates":[[[1.72864,50.56052],[1.73143,50.56],[1.73044,50.55836],[1.72972,50.5582],[1.72695,50.55862],[1.72864,50.56052]]]}},{"type":"Feature","properties":{"k":"MIS","s":0.052},"geometry":{"type":"Polygon","coordinates":[[[1.73087,50.5578],[1.73093,50.55789],[1.73147,50.55768],[1.73142,50.55759],[1.73087,50.5578]]]}},{"type":"Feature","properties":{"k":"MIS","s":5.382},"geometry":{"type":"Polygon","coordinates":[[[1.72671,50.55865],[1.72837,50.55845],[1.7283,50.55826],[1.73087,50.55779],[1.73048,50.55705],[1.72588,50.55643],[1.72671,50.55865]]]}},{"type":"Feature","properties":{"k":"CZH","s":6.477},"geometry":{"type":"Polygon","coordinates":[[[1.73048,50.55705],[1.72894,50.55454],[1.72848,50.55442],[1.72719,50.55497],[1.7261,50.55476],[1.72495,50.55487],[1.72588,50.55643],[1.73048,50.55705]]]}},{"type":"Feature","properties":{"k":"BTH","s":1.954},"geometry":{"type":"Polygon","coordinates":[[[1.73095,50.55452],[1.73021,50.55466],[1.73142,50.55759],[1.73211,50.55733],[1.73095,50.55452]]]}},{"type":"Feature","properties":{"k":"MIS","s":2.325},"geometry":{"type":"Polygon","coordinates":[[[1.73001,50.55432],[1.72894,50.55454],[1.73087,50.55779],[1.73142,50.55759],[1.73001,50.55432]]]}},{"type":"Feature","properties":{"k":"PPH","s":1.717},"geometry":{"type":"Polygon","coordinates":[[[1.73169,50.55766],[1.73095,50.55795],[1.73114,50.55862],[1.73074,50.55871],[1.73143,50.56],[1.73299,50.55968],[1.73253,50.55918],[1.73185,50.55936],[1.73159,50.55903],[1.73209,50.55889],[1.73203,50.55854],[1.7317,50.55856],[1.73169,50.55766]]]}},{"type":"Feature","properties":{"k":"PPH","s":1.583},"geometry":{"type":"Polygon","coordinates":[[[1.73391,50.55739],[1.73386,50.55792],[1.73455,50.55839],[1.73602,50.55782],[1.73561,50.55713],[1.73536,50.55698],[1.73391,50.55739]]]}},{"type":"Feature","properties":{"k":"PPH","s":35.295},"geometry":{"type":"Polygon","coordinates":[[[1.74153,50.5575],[1.74149,50.55711],[1.74041,50.55724],[1.73992,50.55541],[1.73812,50.55564],[1.73773,50.55454],[1.73546,50.55432],[1.73543,50.55374],[1.7358,50.55322],[1.73737,50.55336],[1.73966,50.55391],[1.7397,50.55366],[1.73648,50.55251],[1.73451,50.55215],[1.73316,50.5521],[1.73346,50.55319],[1.73322,50.55326],[1.73341,50.55385],[1.7319,50.55405],[1.73198,50.55427],[1.73163,50.55435],[1.73187,50.55481],[1.73136,50.55493],[1.73192,50.55633],[1.73241,50.55616],[1.73265,50.55656],[1.73206,50.55674],[1.73234,50.5577],[1.73342,50.55792],[1.73328,50.55768],[1.73278,50.55767],[1.73254,50.55729],[1.73252,50.557],[1.73284,50.55687],[1.73271,50.55668],[1.73289,50.5566],[1.73305,50.55671],[1.73376,50.55642],[1.7349,50.55662],[1.73597,50.55758],[1.73636,50.55956],[1.73616,50.55961],[1.73672,50.56059],[1.73761,50.56024],[1.73722,50.55993],[1.74081,50.55846],[1.74337,50.55832],[1.7434,50.55842],[1.74535,50.5582],[1.74493,50.55838],[1.74392,50.55846],[1.74417,50.55887],[1.74652,50.55832],[1.74591,50.55672],[1.7431,50.55745],[1.74153,50.5575]]]}},{"type":"Feature","properties":{"k":"CZH","s":6.598},"geometry":{"type":"Polygon","coordinates":[[[1.74222,50.55518],[1.74101,50.55357],[1.7397,50.55366],[1.74041,50.55724],[1.74149,50.55711],[1.74153,50.5575],[1.74314,50.55745],[1.74222,50.55518]]]}},{"type":"Feature","properties":{"k":"PPH","s":0.657},"geometry":{"type":"Polygon","coordinates":[[[1.74237,50.55837],[1.74087,50.55848],[1.74114,50.55892],[1.74339,50.55846],[1.7432,50.55835],[1.74237,50.55837]]]}},{"type":"Feature","properties":{"k":"CZH","s":9.157},"geometry":{"type":"Polygon","coordinates":[[[1.74109,50.56075],[1.74713,50.55914],[1.7473,50.55829],[1.74387,50.55918],[1.74197,50.55922],[1.74171,50.559],[1.74062,50.55922],[1.73872,50.55996],[1.74129,50.5623],[1.74274,50.56278],[1.74352,50.56264],[1.74194,50.56156],[1.74109,50.56075]]]}},{"type":"Feature","properties":{"k":"PPH","s":9.339},"geometry":{"type":"Polygon","coordinates":[[[1.73706,50.56149],[1.73672,50.56159],[1.73746,50.56288],[1.73859,50.56247],[1.74007,50.56365],[1.74055,50.56334],[1.74106,50.56367],[1.74153,50.56341],[1.74253,50.56397],[1.7437,50.56491],[1.74319,50.56514],[1.74341,50.5653],[1.74463,50.56496],[1.7439,50.56354],[1.74129,50.5623],[1.73872,50.55996],[1.73785,50.56028],[1.73783,50.56063],[1.73803,50.56067],[1.73838,50.56133],[1.73808,50.56176],[1.73832,50.5624],[1.73784,50.56256],[1.73737,50.56184],[1.73736,50.56142],[1.73695,50.56127],[1.73706,50.56149]]]}},{"type":"Feature","properties":{"k":"PPH","s":4.951},"geometry":{"type":"Polygon","coordinates":[[[1.73333,50.56213],[1.731,50.56257],[1.72983,50.56331],[1.72946,50.56387],[1.73091,50.56465],[1.73228,50.56351],[1.73263,50.56372],[1.7346,50.56318],[1.73333,50.56213]]]}},{"type":"Feature","properties":{"k":"ORH","s":3.695},"geometry":{"type":"Polygon","coordinates":[[[1.73357,50.56611],[1.73421,50.56517],[1.73483,50.56501],[1.73228,50.56351],[1.73091,50.56465],[1.73357,50.56611]]]}},{"type":"Feature","properties":{"k":"PPH","s":1.819},"geometry":{"type":"Polygon","coordinates":[[[1.739,50.56556],[1.73754,50.56421],[1.7368,50.56457],[1.73625,50.56419],[1.73575,50.56445],[1.7384,50.56591],[1.739,50.56556]]]}},{"type":"Feature","properties":{"k":"PPH","s":7.357},"geometry":{"type":"Polygon","coordinates":[[[1.73859,50.56247],[1.73746,50.56288],[1.73685,50.56185],[1.73617,50.56196],[1.73628,50.56217],[1.73597,50.56227],[1.7358,50.56257],[1.73602,50.56277],[1.73632,50.56267],[1.73715,50.5634],[1.73774,50.56335],[1.73851,50.56421],[1.73795,50.56436],[1.73899,50.56525],[1.73982,50.5668],[1.7403,50.56657],[1.74039,50.56581],[1.74185,50.56582],[1.74184,50.5656],[1.74087,50.56507],[1.74148,50.56449],[1.73859,50.56247]]]}},{"type":"Feature","properties":{"k":"MIS","s":1.696},"geometry":{"type":"Polygon","coordinates":[[[1.74148,50.56449],[1.74195,50.56422],[1.74319,50.56514],[1.7437,50.56491],[1.74153,50.56341],[1.74106,50.56367],[1.74055,50.56334],[1.74007,50.56365],[1.74148,50.56449]]]}},{"type":"Feature","properties":{"k":"PPH","s":1.903},"geometry":{"type":"Polygon","coordinates":[[[1.74067,50.56911],[1.7419,50.56897],[1.74159,50.56715],[1.74072,50.56726],[1.74077,50.5675],[1.74014,50.56768],[1.74067,50.56911]]]}},{"type":"Feature","properties":{"k":"PPH","s":0.728},"geometry":{"type":"Polygon","coordinates":[[[1.74408,50.56945],[1.74369,50.56854],[1.74319,50.56876],[1.74326,50.5689],[1.74271,50.56902],[1.74277,50.56917],[1.74216,50.56922],[1.74215,50.56942],[1.74408,50.56945]]]}},{"type":"Feature","properties":{"k":"PTR","s":1.059},"geometry":{"type":"Polygon","coordinates":[[[1.73854,50.56918],[1.73835,50.56833],[1.73665,50.56878],[1.73701,50.56946],[1.73854,50.56918]]]}},{"type":"Feature","properties":{"k":"BTH","s":1.546},"geometry":{"type":"Polygon","coordinates":[[[1.73701,50.56946],[1.73636,50.5682],[1.73486,50.56869],[1.73515,50.56939],[1.73559,50.56962],[1.73701,50.56946]]]}},{"type":"Feature","properties":{"k":"PPH","s":3.822},"geometry":{"type":"Polygon","coordinates":[[[1.73516,50.5694],[1.73486,50.56869],[1.73636,50.5682],[1.73614,50.56789],[1.73561,50.5681],[1.73452,50.56743],[1.73172,50.56892],[1.73262,50.56948],[1.73516,50.5694]]]}},{"type":"Feature","properties":{"k":"BTH","s":3.925},"geometry":{"type":"Polygon","coordinates":[[[1.73209,50.56871],[1.73512,50.5672],[1.73377,50.56624],[1.73048,50.5677],[1.73209,50.56871]]]}},{"type":"Feature","properties":{"k":"BTN","s":15.432},"geometry":{"type":"Polygon","coordinates":[[[1.72251,50.56694],[1.72116,50.56766],[1.71954,50.56827],[1.72995,50.57209],[1.73137,50.57096],[1.72851,50.56993],[1.72869,50.56966],[1.72551,50.56843],[1.72251,50.56694]]]}},{"type":"Feature","properties":{"k":"LIF","s":7.885},"geometry":{"type":"Polygon","coordinates":[[[1.73092,50.56955],[1.72596,50.56671],[1.72457,50.5661],[1.72274,50.56683],[1.72267,50.56693],[1.72551,50.56833],[1.72876,50.5696],[1.73092,50.56955]]]}},{"type":"Feature","properties":{"k":"BTH","s":7.911},"geometry":{"type":"Polygon","coordinates":[[[1.73092,50.56955],[1.73177,50.56953],[1.73232,50.5692],[1.73172,50.56892],[1.73209,50.56871],[1.73049,50.5677],[1.72579,50.56521],[1.72546,50.56566],[1.72457,50.5661],[1.72596,50.56671],[1.73092,50.56955]]]}},{"type":"Feature","properties":{"k":"ORH","s":10.654},"geometry":{"type":"Polygon","coordinates":[[[1.72667,50.56557],[1.73049,50.5677],[1.73377,50.56624],[1.72954,50.5639],[1.72667,50.56557]]]}},{"type":"Feature","properties":{"k":"BTH","s":10.162},"geometry":{"type":"Polygon","coordinates":[[[1.7248,50.56166],[1.72402,50.56248],[1.72407,50.56277],[1.72505,50.56386],[1.72562,50.56526],[1.72663,50.56389],[1.72793,50.56309],[1.72922,50.5618],[1.73058,50.56131],[1.73209,50.56109],[1.73182,50.56046],[1.7248,50.56166]]]}},{"type":"Feature","properties":{"k":"TRE","s":0.487},"geometry":{"type":"Polygon","coordinates":[[[1.72469,50.56399],[1.72536,50.56557],[1.72562,50.56526],[1.72505,50.56386],[1.72469,50.56399]]]}},{"type":"Feature","properties":{"k":"MIS","s":0.715},"geometry":{"type":"Polygon","coordinates":[[[1.72625,50.56457],[1.72579,50.56521],[1.72667,50.56557],[1.72756,50.56507],[1.72625,50.56457]]]}},{"type":"Feature","properties":{"k":"BTN","s":12.349},"geometry":{"type":"Polygon","coordinates":[[[1.72151,50.5644],[1.72158,50.56547],[1.72229,50.56674],[1.72263,50.56679],[1.72529,50.56567],[1.72461,50.56394],[1.72366,50.56262],[1.72433,50.56179],[1.72439,50.56115],[1.71978,50.56292],[1.72151,50.5644]]]}},{"type":"Feature","properties":{"k":"MIS","s":0.017},"geometry":{"type":"Polygon","coordinates":[[[1.72084,50.56385],[1.72065,50.56372],[1.72131,50.56435],[1.72084,50.56385]]]}},{"type":"Feature","properties":{"k":"BTH","s":0.007},"geometry":{"type":"MultiPolygon","coordinates":[[[[1.72146,50.56748],[1.72071,50.56778],[1.72101,50.56768],[1.72146,50.56748]]]]}},{"type":"Feature","properties":{"k":"BTH","s":0.037},"geometry":{"type":"Polygon","coordinates":[[[1.72203,50.56919],[1.72429,50.57002],[1.72413,50.56993],[1.72203,50.56919]]]}},{"type":"Feature","properties":{"k":"BTH","s":0.013},"geometry":{"type":"Polygon","coordinates":[[[1.71954,50.56827],[1.71953,50.56828],[1.72203,50.56919],[1.71954,50.56827]]]}},{"type":"Feature","properties":{"k":"BTH","s":0.222},"geometry":{"type":"Polygon","coordinates":[[[1.7152,50.55731],[1.71506,50.55732],[1.71694,50.55989],[1.7152,50.55731]]]}},{"type":"Feature","properties":{"k":"PHF","s":4.997},"geometry":{"type":"Polygon","coordinates":[[[1.71491,50.55687],[1.71695,50.55981],[1.71858,50.55873],[1.71701,50.5564],[1.71491,50.55687]]]}},{"type":"Feature","properties":{"k":"MIS","s":4.494},"geometry":{"type":"Polygon","coordinates":[[[1.71697,50.55444],[1.71674,50.55567],[1.71651,50.55574],[1.71683,50.55642],[1.71957,50.55616],[1.71894,50.55483],[1.71912,50.55363],[1.7159,50.55442],[1.71596,50.55452],[1.71697,50.55444]]]}},{"type":"Feature","properties":{"k":"BTH","s":0.773},"geometry":{"type":"Polygon","coordinates":[[[1.71682,50.55642],[1.71652,50.55574],[1.71554,50.55605],[1.71579,50.55632],[1.71461,50.55671],[1.71476,50.55692],[1.71682,50.55642]]]}},{"type":"Feature","properties":{"k":"PPH","s":0.058},"geometry":{"type":"Polygon","coordinates":[[[1.71491,50.55687],[1.71476,50.55692],[1.71506,50.55732],[1.71521,50.55731],[1.71491,50.55687]]]}},{"type":"Feature","properties":{"k":"BTH","s":0.024},"geometry":{"type":"MultiPolygon","coordinates":[[[[1.71581,50.55424],[1.71593,50.55452],[1.71594,50.55449],[1.71581,50.55424]]],[[[1.7142,50.55218],[1.71421,50.55169],[1.71415,50.55218],[1.71539,50.55227],[1.71539,50.55239],[1.7154,50.55226],[1.7142,50.55218]]]]}},{"type":"Feature","properties":{"k":"ORP","s":4.305},"geometry":{"type":"Polygon","coordinates":[[[1.7159,50.55442],[1.71912,50.55363],[1.71898,50.55238],[1.71538,50.55269],[1.7159,50.55442]]]}},{"type":"Feature","properties":{"k":"MIS","s":3.893},"geometry":{"type":"Polygon","coordinates":[[[1.71843,50.55118],[1.71422,50.55155],[1.7142,50.55218],[1.7154,50.55226],[1.71538,50.55269],[1.71898,50.55238],[1.71843,50.55118]]]}},{"type":"Feature","properties":{"k":"LIF","s":4.264},"geometry":{"type":"Polygon","coordinates":[[[1.71843,50.55118],[1.71753,50.55012],[1.71229,50.55091],[1.71229,50.5514],[1.71422,50.55155],[1.71843,50.55118]]]}},{"type":"Feature","properties":{"k":"MIS","s":0.305},"geometry":{"type":"Polygon","coordinates":[[[1.77131,50.56766],[1.77088,50.56768],[1.7713,50.56834],[1.77173,50.56822],[1.77131,50.56766]]]}},{"type":"Feature","properties":{"k":"MIS","s":0.849},"geometry":{"type":"Polygon","coordinates":[[[1.77117,50.56847],[1.76909,50.56902],[1.76917,50.56946],[1.77154,50.56891],[1.77117,50.56847]]]}},{"type":"Feature","properties":{"k":"BTH","s":0.051},"geometry":{"type":"Polygon","coordinates":[[[1.72595,50.57062],[1.72429,50.56999],[1.72429,50.57002],[1.72995,50.57209],[1.72595,50.57062]]]}},{"type":"Feature","properties":{"k":"AVP","s":0.502},"geometry":{"type":"Polygon","coordinates":[[[1.77315,50.5741],[1.77422,50.57381],[1.77342,50.57187],[1.77364,50.57395],[1.77315,50.5741]]]}},{"type":"Feature","properties":{"k":"MIS","s":3.469},"geometry":{"type":"Polygon","coordinates":[[[1.7705,50.57214],[1.77329,50.57147],[1.77253,50.57006],[1.76987,50.57073],[1.7705,50.57214]]]}},{"type":"Feature","properties":{"k":"MIS","s":11.211},"geometry":{"type":"Polygon","coordinates":[[[1.76737,50.57348],[1.76906,50.57696],[1.77242,50.57755],[1.77146,50.57528],[1.76778,50.57342],[1.76704,50.57108],[1.76884,50.5712],[1.76859,50.56938],[1.76683,50.56926],[1.76661,50.57112],[1.76737,50.57348]]]}},{"type":"Feature","properties":{"k":"PPH","s":13.804},"geometry":{"type":"MultiPolygon","coordinates":[[[[1.76884,50.5712],[1.76704,50.57108],[1.76704,50.57109],[1.76778,50.57342],[1.77146,50.57528],[1.77137,50.57508],[1.77273,50.57421],[1.77368,50.57394],[1.77329,50.57147],[1.7705,50.57214],[1.76985,50.57069],[1.7688,50.57094],[1.76884,50.5712]]]]}},{"type":"Feature","properties":{"k":"PPH","s":0.01},"geometry":{"type":"MultiPolygon","coordinates":[[[[1.7332,50.57204],[1.73298,50.57217],[1.73319,50.57207],[1.73354,50.57227],[1.7332,50.57204]]]]}},{"type":"Feature","properties":{"k":"BTH","s":3.365},"geometry":{"type":"Polygon","coordinates":[[[1.7357,50.57076],[1.73465,50.56993],[1.73152,50.5715],[1.73259,50.57235],[1.7357,50.57076]]]}},{"type":"Feature","properties":{"k":"BTH","s":7.649},"geometry":{"type":"Polygon","coordinates":[[[1.73931,50.57029],[1.73884,50.56927],[1.73523,50.56971],[1.7347,50.56996],[1.73574,50.57079],[1.7332,50.57204],[1.73467,50.57296],[1.73931,50.57029]]]}},{"type":"Feature","properties":{"k":"LIF","s":0.042},"geometry":{"type":"Polygon","coordinates":[[[1.73355,50.57226],[1.73352,50.57227],[1.73542,50.57348],[1.73355,50.57226]]]}},{"type":"Feature","properties":{"k":"BTN","s":1.205},"geometry":{"type":"Polygon","coordinates":[[[1.73555,50.57354],[1.7357,50.57404],[1.73825,50.5728],[1.73811,50.57217],[1.73555,50.57354]]]}},{"type":"Feature","properties":{"k":"MIS","s":0.45},"geometry":{"type":"Polygon","coordinates":[[[1.73575,50.57419],[1.73738,50.57353],[1.73767,50.57324],[1.73826,50.57301],[1.73825,50.5728],[1.7357,50.57404],[1.73575,50.57419]]]}},{"type":"Feature","properties":{"k":"ORH","s":0.014},"geometry":{"type":"Polygon","coordinates":[[[1.73563,50.57405],[1.73547,50.57354],[1.7357,50.57429],[1.73563,50.57405]]]}},{"type":"Feature","properties":{"k":"BFS","s":0.0},"geometry":{"type":"Polygon","coordinates":[]}},{"type":"Feature","properties":{"k":"PTR","s":0.869},"geometry":{"type":"Polygon","coordinates":[[[1.73763,50.57566],[1.73776,50.57617],[1.73849,50.57578],[1.73807,50.57428],[1.73754,50.57426],[1.73763,50.57566]]]}},{"type":"Feature","properties":{"k":"ORH","s":1.994},"geometry":{"type":"Polygon","coordinates":[[[1.74514,50.57847],[1.74452,50.57767],[1.74227,50.57778],[1.74117,50.57866],[1.74514,50.57847]]]}},{"type":"Feature","properties":{"k":"CZH","s":7.85},"geometry":{"type":"Polygon","coordinates":[[[1.73813,50.57448],[1.73887,50.57671],[1.74407,50.57335],[1.74282,50.57244],[1.74226,50.57292],[1.73813,50.57448]]]}},{"type":"Feature","properties":{"k":"LUZ","s":0.846},"geometry":{"type":"Polygon","coordinates":[[[1.73815,50.57429],[1.73813,50.57448],[1.74226,50.57292],[1.74282,50.57244],[1.7426,50.57228],[1.74213,50.57269],[1.73815,50.57429]]]}},{"type":"Feature","properties":{"k":"ORH","s":1.165},"geometry":{"type":"Polygon","coordinates":[[[1.73831,50.57317],[1.73814,50.57429],[1.74004,50.57353],[1.73914,50.57281],[1.73831,50.57317]]]}},{"type":"Feature","properties":{"k":"MIS","s":3.29},"geometry":{"type":"Polygon","coordinates":[[[1.73467,50.57296],[1.73545,50.57346],[1.7399,50.57113],[1.73834,50.57085],[1.73467,50.57296]]]}},{"type":"Feature","properties":{"k":"PPH","s":0.433},"geometry":{"type":"Polygon","coordinates":[[[1.74586,50.57311],[1.74634,50.57284],[1.74559,50.57218],[1.74511,50.5725],[1.74586,50.57311]]]}}]}