{"type":"FeatureCollection","features":[{"type":"Feature","properties":{"k":"MIS","s":0.95},"geometry":{"type":"Polygon","coordinates":[[[2.95635,50.44541],[2.96053,50.4484],[2.9607,50.44831],[2.95662,50.44524],[2.95635,50.44541]]]}},{"type":"Feature","properties":{"k":"BTH","s":12.001},"geometry":{"type":"Polygon","coordinates":[[[2.9273,50.44388],[2.92876,50.44435],[2.93663,50.44058],[2.93625,50.43978],[2.93352,50.44109],[2.93316,50.44121],[2.93279,50.44105],[2.92921,50.44274],[2.92861,50.4424],[2.92867,50.44227],[2.92755,50.44134],[2.92545,50.44223],[2.9273,50.44388]]]}},{"type":"Feature","properties":{"k":"LBF","s":2.601},"geometry":{"type":"Polygon","coordinates":[[[2.95931,50.44348],[2.96293,50.44627],[2.96318,50.44599],[2.96208,50.44514],[2.96257,50.4449],[2.96008,50.44302],[2.95931,50.44348]]]}},{"type":"Feature","properties":{"k":"PHF","s":10.633},"geometry":{"type":"Polygon","coordinates":[[[2.95955,50.44326],[2.95538,50.44031],[2.95289,50.44173],[2.95719,50.44477],[2.95955,50.44326]]]}},{"type":"Feature","properties":{"k":"BTH","s":11.201},"geometry":{"type":"Polygon","coordinates":[[[2.95339,50.4374],[2.95208,50.43816],[2.95955,50.44326],[2.96108,50.44243],[2.96092,50.4425],[2.95804,50.44011],[2.95525,50.43835],[2.95339,50.4374]]]}},{"type":"Feature","properties":{"k":"FVL","s":3.088},"geometry":{"type":"Polygon","coordinates":[[[2.95208,50.43816],[2.95111,50.43871],[2.95433,50.44084],[2.95534,50.44027],[2.95208,50.43816]]]}},{"type":"Feature","properties":{"k":"BTN","s":0.835},"geometry":{"type":"Polygon","coordinates":[[[2.94749,50.44077],[2.95339,50.4374],[2.94749,50.44054],[2.94656,50.43965],[2.94638,50.43985],[2.94749,50.44077]]]}},{"type":"Feature","properties":{"k":"BTN","s":0.0},"geometry":{"type":"Polygon","coordinates":[]}},{"type":"Feature","properties":{"k":"PTC","s":6.648},"geometry":{"type":"Polygon","coordinates":[[[2.95217,50.44204],[2.95433,50.44084],[2.95111,50.43871],[2.94901,50.43992],[2.95217,50.44204]]]}},{"type":"Feature","properties":{"k":"MDI","s":0.704},"geometry":{"type":"Polygon","coordinates":[[[2.94879,50.44004],[2.95193,50.44217],[2.95217,50.44204],[2.94901,50.43992],[2.94879,50.44004]]]}},{"type":"Feature","properties":{"k":"BTH","s":9.908},"geometry":{"type":"Polygon","coordinates":[[[2.95854,50.4496],[2.96055,50.45054],[2.96116,50.45026],[2.96262,50.45081],[2.9655,50.44942],[2.96277,50.44729],[2.95854,50.4496]]]}},{"type":"Feature","properties":{"k":"PTC","s":4.065},"geometry":{"type":"MultiPolygon","coordinates":[[[[2.96277,50.45575],[2.96385,50.45526],[2.96016,50.45191],[2.95919,50.45233],[2.96277,50.45575]]],[[[2.96092,50.45157],[2.96254,50.4509],[2.96252,50.45086],[2.96092,50.45157]]]]}},{"type":"Feature","properties":{"k":"PTC","s":8.063},"geometry":{"type":"Polygon","coordinates":[[[2.9592,50.45233],[2.96252,50.45086],[2.96122,50.45036],[2.96064,50.45067],[2.95839,50.44962],[2.95652,50.44999],[2.9548,50.45067],[2.9592,50.45233]]]}},{"type":"Feature","properties":{"k":"BTH","s":7.774},"geometry":{"type":"Polygon","coordinates":[[[2.94981,50.45029],[2.9513,50.44875],[2.95163,50.44897],[2.95193,50.44888],[2.95266,50.44832],[2.94918,50.4459],[2.94809,50.4465],[2.95054,50.44819],[2.95019,50.44837],[2.94871,50.44729],[2.9482,50.44759],[2.94903,50.44817],[2.94763,50.44906],[2.94981,50.45029]]]}},{"type":"Feature","properties":{"k":"BTH","s":1.731},"geometry":{"type":"Polygon","coordinates":[[[2.94871,50.44729],[2.95019,50.44837],[2.95054,50.44819],[2.94809,50.4465],[2.94967,50.44562],[2.9492,50.4453],[2.94721,50.44661],[2.94842,50.44746],[2.94871,50.44729]]]}},{"type":"Feature","properties":{"k":"BTN","s":12.919},"geometry":{"type":"Polygon","coordinates":[[[2.94801,50.44451],[2.94967,50.44562],[2.94918,50.4459],[2.95266,50.44832],[2.95359,50.44756],[2.95479,50.44612],[2.95044,50.44314],[2.94801,50.44451]]]}},{"type":"Feature","properties":{"k":"BTP","s":7.65},"geometry":{"type":"Polygon","coordinates":[[[2.96053,50.4484],[2.95635,50.44541],[2.95452,50.44645],[2.95875,50.44936],[2.96053,50.4484]]]}},{"type":"Feature","properties":{"k":"PTC","s":1.23},"geometry":{"type":"Polygon","coordinates":[[[2.95875,50.44936],[2.95452,50.44645],[2.95433,50.44672],[2.9584,50.44946],[2.95875,50.44936]]]}},{"type":"Feature","properties":{"k":"BTH","s":9.283},"geometry":{"type":"Polygon","coordinates":[[[2.95193,50.44897],[2.95444,50.45059],[2.95615,50.44991],[2.9584,50.44946],[2.95433,50.44672],[2.95377,50.44751],[2.95193,50.44897]]]}},{"type":"Feature","properties":{"k":"BTH","s":3.638},"geometry":{"type":"Polygon","coordinates":[[[2.96013,50.44299],[2.96207,50.44447],[2.96362,50.44365],[2.96259,50.44259],[2.96256,50.44228],[2.96243,50.44233],[2.96204,50.4419],[2.96013,50.44299]]]}},{"type":"Feature","properties":{"k":"PTR","s":0.201},"geometry":{"type":"Polygon","coordinates":[[[2.96362,50.44365],[2.96204,50.44449],[2.96218,50.44459],[2.96365,50.44379],[2.96362,50.44365]]]}},{"type":"Feature","properties":{"k":"PTC","s":4.02},"geometry":{"type":"Polygon","coordinates":[[[2.9475,50.44077],[2.95066,50.44292],[2.95193,50.44217],[2.94879,50.44004],[2.9475,50.44077]]]}},{"type":"Feature","properties":{"k":"BTH","s":0.573},"geometry":{"type":"Polygon","coordinates":[[[2.9638,50.44428],[2.96365,50.44379],[2.96218,50.44459],[2.96257,50.44489],[2.9638,50.44428]]]}},{"type":"Feature","properties":{"k":"BTH","s":1.176},"geometry":{"type":"Polygon","coordinates":[[[2.96335,50.44594],[2.9619,50.44747],[2.96205,50.44752],[2.96452,50.4461],[2.96409,50.44559],[2.96335,50.44594]]]}},{"type":"Feature","properties":{"k":"LBF","s":10.602},"geometry":{"type":"Polygon","coordinates":[[[2.95719,50.44477],[2.95289,50.44173],[2.95044,50.44314],[2.95479,50.44612],[2.95719,50.44477]]]}},{"type":"Feature","properties":{"k":"BTH","s":5.28},"geometry":{"type":"Polygon","coordinates":[[[2.94895,50.44398],[2.95066,50.44292],[2.94638,50.43985],[2.94579,50.44065],[2.94795,50.44222],[2.94711,50.44269],[2.94895,50.44398]]]}},{"type":"Feature","properties":{"k":"BTH","s":9.121},"geometry":{"type":"Polygon","coordinates":[[[2.95899,50.46826],[2.96066,50.46845],[2.96201,50.46788],[2.95963,50.4656],[2.95495,50.46762],[2.95504,50.46784],[2.95537,50.46775],[2.9563,50.46866],[2.95732,50.46857],[2.95855,50.46807],[2.95899,50.46826]]]}},{"type":"Feature","properties":{"k":"PTC","s":11.756},"geometry":{"type":"Polygon","coordinates":[[[2.96293,50.44627],[2.95931,50.44348],[2.95662,50.44524],[2.9607,50.44831],[2.96156,50.44773],[2.96293,50.44627]]]}},{"type":"Feature","properties":{"k":"BTH","s":0.569},"geometry":{"type":"Polygon","coordinates":[[[2.95713,50.46334],[2.95689,50.46311],[2.95463,50.46418],[2.95482,50.46437],[2.95713,50.46334]]]}},{"type":"Feature","properties":{"k":"BTN","s":2.034},"geometry":{"type":"Polygon","coordinates":[[[2.95463,50.46418],[2.95579,50.46364],[2.95564,50.46338],[2.95668,50.46288],[2.95585,50.46216],[2.95475,50.46259],[2.95501,50.46288],[2.95384,50.46341],[2.95463,50.46418]]]}},{"type":"Feature","properties":{"k":"BTH","s":0.225},"geometry":{"type":"Polygon","coordinates":[[[2.95667,50.46289],[2.9556,50.46342],[2.95578,50.46358],[2.95665,50.46321],[2.95667,50.46289]]]}},{"type":"Feature","properties":{"k":"BTN","s":1.72},"geometry":{"type":"Polygon","coordinates":[[[2.95769,50.46221],[2.95751,50.46203],[2.95635,50.46252],[2.95717,50.46329],[2.95942,50.46227],[2.95886,50.46174],[2.95769,50.46221]]]}},{"type":"Feature","properties":{"k":"JAC","s":0.31},"geometry":{"type":"Polygon","coordinates":[[[2.95629,50.46246],[2.95744,50.46197],[2.9572,50.46174],[2.95604,50.46222],[2.95629,50.46246]]]}},{"type":"Feature","properties":{"k":"BTH","s":1.399},"geometry":{"type":"Polygon","coordinates":[[[2.95771,50.46069],[2.95654,50.46111],[2.95769,50.46221],[2.95886,50.46174],[2.95771,50.46069]]]}},{"type":"Feature","properties":{"k":"BTH","s":4.677},"geometry":{"type":"Polygon","coordinates":[[[2.96098,50.46146],[2.95914,50.46194],[2.95946,50.46226],[2.95717,50.46329],[2.9581,50.46418],[2.9625,50.46221],[2.96098,50.46146]]]}},{"type":"Feature","properties":{"k":"BTH","s":10.646},"geometry":{"type":"Polygon","coordinates":[[[2.96147,50.45618],[2.96043,50.45673],[2.96257,50.45876],[2.96483,50.45772],[2.95907,50.45234],[2.95744,50.4517],[2.957,50.45188],[2.96147,50.45618]]]}},{"type":"Feature","properties":{"k":"MIS","s":0.745},"geometry":{"type":"Polygon","coordinates":[[[2.96487,50.4577],[2.96598,50.4572],[2.96535,50.45663],[2.96425,50.45713],[2.96487,50.4577]]]}},{"type":"Feature","properties":{"k":"LBF","s":1.395},"geometry":{"type":"Polygon","coordinates":[[[2.96535,50.45663],[2.96416,50.45555],[2.96308,50.45604],[2.96425,50.45713],[2.96535,50.45663]]]}},{"type":"Feature","properties":{"k":"PTC","s":0.355},"geometry":{"type":"Polygon","coordinates":[[[2.96386,50.45527],[2.96278,50.45576],[2.96308,50.45604],[2.96416,50.45555],[2.96386,50.45527]]]}},{"type":"Feature","properties":{"k":"PTC","s":5.419},"geometry":{"type":"Polygon","coordinates":[[[2.9637,50.45993],[2.96068,50.45703],[2.95955,50.45754],[2.96145,50.45933],[2.9603,50.45985],[2.96156,50.461],[2.9637,50.45993]]]}},{"type":"Feature","properties":{"k":"BTN","s":1.595},"geometry":{"type":"Polygon","coordinates":[[[2.96374,50.45825],[2.96483,50.45931],[2.96502,50.45922],[2.96518,50.45937],[2.96615,50.45894],[2.96484,50.45772],[2.96374,50.45825]]]}},{"type":"Feature","properties":{"k":"PTC","s":1.624},"geometry":{"type":"Polygon","coordinates":[[[2.96599,50.45721],[2.96488,50.4577],[2.96622,50.45895],[2.96734,50.45844],[2.96599,50.45721]]]}},{"type":"Feature","properties":{"k":"BTP","s":0.424},"geometry":{"type":"Polygon","coordinates":[[[2.96786,50.46463],[2.96939,50.46514],[2.96951,50.46499],[2.96842,50.46441],[2.96801,50.46444],[2.96786,50.46463]]]}},{"type":"Feature","properties":{"k":"BTH","s":16.978},"geometry":{"type":"Polygon","coordinates":[[[2.96486,50.46338],[2.96658,50.46406],[2.96908,50.46003],[2.96734,50.45844],[2.96142,50.46115],[2.96383,50.46197],[2.96295,50.46231],[2.96486,50.46338]],[[2.96515,50.46208],[2.96485,50.46189],[2.96511,50.46176],[2.96538,50.46195],[2.96515,50.46208]]]}},{"type":"Feature","properties":{"k":"AVP","s":0.066},"geometry":{"type":"Polygon","coordinates":[[[2.96538,50.46195],[2.96511,50.46176],[2.96485,50.46189],[2.96515,50.46208],[2.96538,50.46195]]]}},{"type":"Feature","properties":{"k":"BTH","s":9.044},"geometry":{"type":"Polygon","coordinates":[[[2.96615,50.46423],[2.96406,50.46329],[2.95932,50.46532],[2.96093,50.46685],[2.96595,50.46468],[2.96615,50.46423]]]}},{"type":"Feature","properties":{"k":"MIS","s":4.002},"geometry":{"type":"Polygon","coordinates":[[[2.96201,50.46788],[2.96399,50.46672],[2.96499,50.46593],[2.96601,50.46486],[2.96595,50.46468],[2.96093,50.46685],[2.96201,50.46788]]]}},{"type":"Feature","properties":{"k":"PPH","s":0.237},"geometry":{"type":"Polygon","coordinates":[[[2.94752,50.46962],[2.94613,50.46943],[2.94642,50.46978],[2.9475,50.46972],[2.94752,50.46962]]]}},{"type":"Feature","properties":{"k":"BTH","s":0.327},"geometry":{"type":"Polygon","coordinates":[[[2.94422,50.46981],[2.94601,50.46979],[2.9457,50.46951],[2.9449,50.46943],[2.94422,50.46981]]]}},{"type":"Feature","properties":{"k":"MIS","s":0.565},"geometry":{"type":"Polygon","coordinates":[[[2.93949,50.46949],[2.93948,50.46994],[2.94051,50.46994],[2.94101,50.4693],[2.94039,50.46914],[2.94004,50.46961],[2.93949,50.46949]]]}},{"type":"Feature","properties":{"k":"MIS","s":0.999},"geometry":{"type":"Polygon","coordinates":[[[2.93932,50.46997],[2.93944,50.46893],[2.93837,50.46892],[2.93803,50.47002],[2.93932,50.46997]]]}},{"type":"Feature","properties":{"k":"MIS","s":2.305},"geometry":{"type":"Polygon","coordinates":[[[2.94133,50.44212],[2.94187,50.44241],[2.94422,50.44295],[2.94425,50.44204],[2.94272,50.44154],[2.94028,50.44215],[2.94069,50.44247],[2.94133,50.44212]]]}},{"type":"Feature","properties":{"k":"BTH","s":7.094},"geometry":{"type":"Polygon","coordinates":[[[2.93774,50.44313],[2.9376,50.44333],[2.93762,50.44379],[2.9387,50.44564],[2.94141,50.44433],[2.94111,50.4441],[2.94221,50.44349],[2.94029,50.44216],[2.93774,50.44313]]]}},{"type":"Feature","properties":{"k":"BTH","s":2.646},"geometry":{"type":"Polygon","coordinates":[[[2.93909,50.44648],[2.94247,50.44478],[2.94131,50.44399],[2.94111,50.4441],[2.94143,50.44433],[2.9387,50.44564],[2.93909,50.44648]]]}},{"type":"Feature","properties":{"k":"MIS","s":8.519},"geometry":{"type":"Polygon","coordinates":[[[2.93416,50.44788],[2.93529,50.44863],[2.93874,50.44598],[2.93749,50.44381],[2.93676,50.44428],[2.93557,50.44543],[2.93415,50.44755],[2.93416,50.44788]]]}},{"type":"Feature","properties":{"k":"BTP","s":3.08},"geometry":{"type":"Polygon","coordinates":[[[2.93579,50.44898],[2.937,50.448],[2.93828,50.44811],[2.93929,50.44738],[2.93873,50.44599],[2.93528,50.44864],[2.93579,50.44898]]]}},{"type":"Feature","properties":{"k":"FVL","s":3.141},"geometry":{"type":"Polygon","coordinates":[[[2.94714,50.44813],[2.94811,50.44875],[2.94903,50.44817],[2.9482,50.44759],[2.94842,50.44746],[2.94721,50.44661],[2.94602,50.44711],[2.94674,50.44776],[2.94473,50.44852],[2.94497,50.44891],[2.94714,50.44813]]]}},{"type":"Feature","properties":{"k":"MDI","s":1.093},"geometry":{"type":"Polygon","coordinates":[[[2.9481,50.44875],[2.94754,50.44841],[2.94485,50.4498],[2.94511,50.44999],[2.94615,50.44935],[2.9466,50.44959],[2.9481,50.44875]]]}},{"type":"Feature","properties":{"k":"MIS","s":1.066},"geometry":{"type":"Polygon","coordinates":[[[2.94754,50.44841],[2.94714,50.44813],[2.94607,50.44854],[2.94632,50.44876],[2.94405,50.44983],[2.94404,50.45024],[2.94754,50.44841]]]}},{"type":"Feature","properties":{"k":"BOR","s":0.283},"geometry":{"type":"Polygon","coordinates":[[[2.94473,50.44852],[2.94674,50.44776],[2.94602,50.44711],[2.94668,50.44773],[2.94465,50.4485],[2.94476,50.44868],[2.94411,50.44893],[2.9441,50.4491],[2.94482,50.44881],[2.94494,50.44898],[2.94607,50.44854],[2.94497,50.44891],[2.94473,50.44852]]]}},{"type":"Feature","properties":{"k":"MDI","s":0.103},"geometry":{"type":"Polygon","coordinates":[[[2.94629,50.44988],[2.94632,50.44975],[2.94532,50.45029],[2.94555,50.45032],[2.94629,50.44988]]]}},{"type":"Feature","properties":{"k":"MDI","s":0.633},"geometry":{"type":"Polygon","coordinates":[[[2.9466,50.44959],[2.94637,50.4499],[2.94541,50.45047],[2.94561,50.45036],[2.94594,50.45053],[2.94682,50.44972],[2.94727,50.44987],[2.94802,50.44931],[2.94763,50.44906],[2.9466,50.44959]]]}},{"type":"Feature","properties":{"k":"PPH","s":0.215},"geometry":{"type":"Polygon","coordinates":[[[2.94514,50.45077],[2.9454,50.451],[2.94605,50.45064],[2.94561,50.45036],[2.94514,50.45077]]]}},{"type":"Feature","properties":{"k":"BOR","s":0.127},"geometry":{"type":"Polygon","coordinates":[[[2.93562,50.45022],[2.9365,50.45067],[2.93599,50.45112],[2.9366,50.45066],[2.93569,50.45024],[2.93663,50.44954],[2.93562,50.45022]]]}},{"type":"Feature","properties":{"k":"BOR","s":0.116},"geometry":{"type":"Polygon","coordinates":[[[2.93497,50.44972],[2.9347,50.44955],[2.93371,50.45029],[2.93468,50.44959],[2.9349,50.44971],[2.93415,50.4504],[2.93497,50.44972]]]}},{"type":"Feature","properties":{"k":"MIS","s":0.398},"geometry":{"type":"Polygon","coordinates":[[[2.93518,50.45172],[2.93576,50.45116],[2.93479,50.45082],[2.93463,50.45102],[2.93518,50.45172]]]}},{"type":"Feature","properties":{"k":"BTH","s":1.326},"geometry":{"type":"Polygon","coordinates":[[[2.93447,50.45057],[2.93593,50.4511],[2.9365,50.45067],[2.93562,50.45022],[2.93668,50.44951],[2.93618,50.44927],[2.93447,50.45057]]]}},{"type":"Feature","properties":{"k":"BTH","s":1.17},"geometry":{"type":"Polygon","coordinates":[[[2.93603,50.44919],[2.93532,50.44875],[2.93349,50.45008],[2.93371,50.45029],[2.93473,50.44956],[2.93497,50.44972],[2.93411,50.45044],[2.93437,50.45053],[2.93603,50.44919]]]}},{"type":"Feature","properties":{"k":"FVL","s":1.221},"geometry":{"type":"Polygon","coordinates":[[[2.93411,50.44795],[2.93349,50.45008],[2.93532,50.44875],[2.93411,50.44795]],[[2.9342,50.44932],[2.93412,50.44938],[2.93406,50.44934],[2.9342,50.44932]]]}},{"type":"Feature","properties":{"k":"PPH","s":0.853},"geometry":{"type":"Polygon","coordinates":[[[2.93768,50.4689],[2.93709,50.46932],[2.93679,50.4701],[2.93786,50.46997],[2.93826,50.46891],[2.93768,50.4689]]]}},{"type":"Feature","properties":{"k":"BTN","s":14.395},"geometry":{"type":"Polygon","coordinates":[[[2.92996,50.44515],[2.92624,50.44706],[2.92723,50.4478],[2.92769,50.44752],[2.92854,50.44816],[2.92898,50.44791],[2.92923,50.44808],[2.92828,50.44864],[2.93091,50.44928],[2.93232,50.44978],[2.9329,50.44972],[2.93319,50.44951],[2.93354,50.44757],[2.92996,50.44515]]]}},{"type":"Feature","properties":{"k":"BTH","s":2.808},"geometry":{"type":"Polygon","coordinates":[[[2.92393,50.44849],[2.92447,50.44873],[2.92597,50.44909],[2.9292,50.44912],[2.9251,50.44771],[2.92393,50.44849]]]}},{"type":"Feature","properties":{"k":"MIS","s":3.12},"geometry":{"type":"Polygon","coordinates":[[[2.92906,50.44456],[2.92539,50.4464],[2.92624,50.44705],[2.92996,50.44515],[2.92906,50.44456]]]}},{"type":"Feature","properties":{"k":"JAC","s":0.205},"geometry":{"type":"Polygon","coordinates":[[[2.9245,50.44812],[2.9251,50.44771],[2.92491,50.44763],[2.92372,50.4484],[2.92392,50.44849],[2.9245,50.44812]]]}},{"type":"Feature","properties":{"k":"JAC","s":1.215},"geometry":{"type":"Polygon","coordinates":[[[2.926,50.45412],[2.92658,50.45361],[2.92454,50.45267],[2.92172,50.4505],[2.92156,50.45063],[2.926,50.45412]]]}},{"type":"Feature","properties":{"k":"BTN","s":0.18},"geometry":{"type":"Polygon","coordinates":[[[2.92568,50.45391],[2.92278,50.45164],[2.92595,50.45426],[2.92568,50.45391]]]}},{"type":"Feature","properties":{"k":"BTH","s":0.635},"geometry":{"type":"Polygon","coordinates":[[[2.9226,50.44731],[2.92302,50.44784],[2.92388,50.44725],[2.9224,50.44663],[2.9226,50.44731]]]}},{"type":"Feature","properties":{"k":"PPH","s":1.1},"geometry":{"type":"Polygon","coordinates":[[[2.91846,50.44236],[2.91837,50.44293],[2.91717,50.44307],[2.91687,50.44297],[2.91681,50.44252],[2.91707,50.4425],[2.91705,50.44209],[2.91662,50.44211],[2.91686,50.44376],[2.91847,50.44336],[2.91858,50.44226],[2.91813,50.44219],[2.91797,50.4425],[2.91846,50.44236]]]}},{"type":"Feature","properties":{"k":"PTC","s":16.764},"geometry":{"type":"Polygon","coordinates":[[[2.92705,50.44381],[2.925,50.44187],[2.92439,50.44215],[2.92396,50.44181],[2.92305,50.44226],[2.92269,50.44197],[2.92208,50.4423],[2.92242,50.44644],[2.9242,50.44722],[2.92488,50.44633],[2.92506,50.4464],[2.92518,50.44624],[2.92539,50.4464],[2.92896,50.44451],[2.92705,50.44381]]]}},{"type":"Feature","properties":{"k":"PTC","s":1.705},"geometry":{"type":"Polygon","coordinates":[[[2.93765,50.44298],[2.94013,50.44204],[2.93973,50.44172],[2.93851,50.44228],[2.94109,50.44099],[2.94127,50.4408],[2.94438,50.4397],[2.94439,50.43955],[2.94168,50.44034],[2.94093,50.44086],[2.94101,50.44094],[2.93713,50.4428],[2.93765,50.44298]]]}},{"type":"Feature","properties":{"k":"PHF","s":9.97},"geometry":{"type":"Polygon","coordinates":[[[2.93665,50.44056],[2.92876,50.44435],[2.93042,50.44535],[2.93693,50.4421],[2.93665,50.44056]]]}},{"type":"Feature","properties":{"k":"BTN","s":5.867},"geometry":{"type":"Polygon","coordinates":[[[2.93706,50.44303],[2.93694,50.44209],[2.93042,50.44535],[2.93166,50.4462],[2.93706,50.44303]]]}},{"type":"Feature","properties":{"k":"PTC","s":5.135},"geometry":{"type":"Polygon","coordinates":[[[2.9359,50.44462],[2.93703,50.44304],[2.93166,50.4462],[2.93365,50.44752],[2.9341,50.44661],[2.9359,50.44462]]]}},{"type":"Feature","properties":{"k":"BTH","s":0.108},"geometry":{"type":"MultiPolygon","coordinates":[[[[2.93722,50.45989],[2.93755,50.4602],[2.93752,50.46009],[2.93722,50.45989]]],[[[2.93555,50.45901],[2.93422,50.4588],[2.93553,50.45904],[2.93709,50.45981],[2.93555,50.45901]]],[[[2.93331,50.45864],[2.93334,50.45864],[2.93331,50.45862],[2.93331,50.45864]]],[[[2.93311,50.45788],[2.93303,50.45775],[2.93321,50.45833],[2.93311,50.45788]]],[[[2.93227,50.45736],[2.93194,50.45729],[2.9329,50.45767],[2.93227,50.45736]]]]}},{"type":"Feature","properties":{"k":"JAC","s":0.09},"geometry":{"type":"MultiPolygon","coordinates":[[[[2.9324,50.45711],[2.93226,50.4568],[2.932,50.45719],[2.9324,50.45711]]],[[[2.93164,50.45634],[2.93147,50.45621],[2.93142,50.45628],[2.9323,50.45657],[2.93164,50.45634]]]]}},{"type":"Feature","properties":{"k":"BOR","s":0.117},"geometry":{"type":"MultiPolygon","coordinates":[[[[2.955,50.46289],[2.95496,50.46285],[2.95389,50.46338],[2.955,50.46289]]],[[[2.95475,50.46259],[2.9558,50.46213],[2.95465,50.46258],[2.95496,50.46285],[2.95475,50.46259]]]]}},{"type":"Feature","properties":{"k":"BOR","s":0.051},"geometry":{"type":"Polygon","coordinates":[[[2.95304,50.46354],[2.95364,50.46329],[2.95359,50.46325],[2.95244,50.46378],[2.95304,50.46354]]]}},{"type":"Feature","properties":{"k":"BTN","s":5.462},"geometry":{"type":"Polygon","coordinates":[[[2.95166,50.46428],[2.95195,50.4642],[2.95362,50.46554],[2.95316,50.46594],[2.95326,50.46603],[2.95784,50.46402],[2.95713,50.46334],[2.95482,50.46437],[2.95364,50.46329],[2.9524,50.46375],[2.95166,50.46428]]]}},{"type":"Feature","properties":{"k":"BOR","s":0.027},"geometry":{"type":"Polygon","coordinates":[[[2.95054,50.46494],[2.95059,50.46492],[2.95011,50.46454],[2.95054,50.46494]]]}},{"type":"Feature","properties":{"k":"BFS","s":0.107},"geometry":{"type":"Polygon","coordinates":[[[2.94945,50.46613],[2.94936,50.46608],[2.94945,50.46597],[2.94957,50.466],[2.95037,50.46553],[2.94951,50.46489],[2.95005,50.46457],[2.94945,50.46488],[2.95033,50.46552],[2.94944,50.46592],[2.94931,50.4661],[2.94916,50.46692],[2.94945,50.46613]]]}},{"type":"Feature","properties":{"k":"BTH","s":4.712},"geometry":{"type":"Polygon","coordinates":[[[2.95026,50.46721],[2.9509,50.46683],[2.95188,50.46753],[2.95378,50.46664],[2.95274,50.46581],[2.95227,50.46606],[2.95008,50.46459],[2.94951,50.46489],[2.95037,50.46553],[2.94945,50.46597],[2.94915,50.46695],[2.95026,50.46721]],[[2.95201,50.46697],[2.95159,50.46665],[2.95244,50.46619],[2.95288,50.46651],[2.95201,50.46697]]]}},{"type":"Feature","properties":{"k":"BTH","s":0.499},"geometry":{"type":"Polygon","coordinates":[[[2.94899,50.46697],[2.94884,50.46742],[2.94906,50.4674],[2.94912,50.46771],[2.94979,50.46757],[2.95011,50.4672],[2.94899,50.46697]]]}},{"type":"Feature","properties":{"k":"BFS","s":0.104},"geometry":{"type":"Polygon","coordinates":[[[2.95271,50.46725],[2.95252,50.46718],[2.95188,50.46753],[2.9509,50.46683],[2.95026,50.46721],[2.95088,50.46686],[2.95188,50.46756],[2.95253,50.4672],[2.95271,50.46728],[2.95375,50.46666],[2.95271,50.46725]]]}},{"type":"Feature","properties":{"k":"BTH","s":0.073},"geometry":{"type":"Polygon","coordinates":[[[2.95446,50.46681],[2.95416,50.46654],[2.95393,50.46664],[2.95422,50.46691],[2.95446,50.46681]]]}},{"type":"Feature","properties":{"k":"BOR","s":0.13},"geometry":{"type":"Polygon","coordinates":[[[2.95363,50.46556],[2.9519,50.46418],[2.95167,50.46431],[2.95189,50.46423],[2.95356,50.46557],[2.95321,50.46591],[2.95363,50.46556]]]}},{"type":"Feature","properties":{"k":"BTH","s":1.322},"geometry":{"type":"Polygon","coordinates":[[[2.95878,50.46493],[2.95851,50.46467],[2.95416,50.46654],[2.95446,50.46681],[2.95878,50.46493]]]}},{"type":"Feature","properties":{"k":"BTH","s":3.367},"geometry":{"type":"Polygon","coordinates":[[[2.95393,50.46664],[2.95851,50.46467],[2.95844,50.46458],[2.95784,50.46402],[2.95326,50.46603],[2.95393,50.46664]]]}},{"type":"Feature","properties":{"k":"BTH","s":3.727},"geometry":{"type":"Polygon","coordinates":[[[2.95423,50.46691],[2.95492,50.46757],[2.95956,50.46564],[2.95878,50.46493],[2.95423,50.46691]]]}},{"type":"Feature","properties":{"k":"PPH","s":0.239},"geometry":{"type":"Polygon","coordinates":[[[2.93617,50.47022],[2.93667,50.4689],[2.9363,50.4689],[2.93617,50.47022]]]}},{"type":"Feature","properties":{"k":"BTH","s":0.003},"geometry":{"type":"Polygon","coordinates":[[[2.93668,50.47018],[2.93638,50.47022],[2.93669,50.4702],[2.93668,50.47018]]]}},{"type":"Feature","properties":{"k":"BTN","s":0.004},"geometry":{"type":"Polygon","coordinates":[[[2.93669,50.4702],[2.93711,50.47016],[2.93679,50.47017],[2.93669,50.4702]]]}},{"type":"Feature","properties":{"k":"BTH","s":0.353},"geometry":{"type":"Polygon","coordinates":[[[2.94471,50.43947],[2.94626,50.43952],[2.94675,50.43895],[2.94471,50.43947]]]}},{"type":"Feature","properties":{"k":"MIS","s":1.061},"geometry":{"type":"Polygon","coordinates":[[[2.94467,50.4405],[2.94479,50.4407],[2.94512,50.44077],[2.94624,50.43954],[2.94468,50.43951],[2.94467,50.4405]]]}},{"type":"Feature","properties":{"k":"JAC","s":0.526},"geometry":{"type":"Polygon","coordinates":[[[2.94171,50.44146],[2.94203,50.44136],[2.94222,50.44127],[2.94179,50.44067],[2.94303,50.44037],[2.94301,50.44025],[2.94109,50.44089],[2.94171,50.44146]]]}},{"type":"Feature","properties":{"k":"BTH","s":6.161},"geometry":{"type":"Polygon","coordinates":[[[2.96406,50.46329],[2.96248,50.46224],[2.9581,50.46418],[2.95932,50.46532],[2.96406,50.46329]]]}}]}