{"type":"FeatureCollection","features":[{"type":"Feature","properties":{"k":"MIS","s":7.216},"geometry":{"type":"Polygon","coordinates":[[[2.45747,50.29028],[2.45749,50.28868],[2.4569,50.28807],[2.45675,50.28672],[2.4542,50.28692],[2.45468,50.29002],[2.45747,50.29028]]]}},{"type":"Feature","properties":{"k":"PPH","s":0.588},"geometry":{"type":"Polygon","coordinates":[[[2.44616,50.28557],[2.44549,50.28618],[2.44717,50.28637],[2.44741,50.28612],[2.44699,50.28608],[2.44616,50.28557]]]}},{"type":"Feature","properties":{"k":"PPH","s":2.159},"geometry":{"type":"Polygon","coordinates":[[[2.45306,50.28566],[2.45152,50.28605],[2.45221,50.28665],[2.45503,50.28646],[2.45497,50.28563],[2.45306,50.28566]]]}},{"type":"Feature","properties":{"k":"ORH","s":2.333},"geometry":{"type":"Polygon","coordinates":[[[2.45257,50.28704],[2.45202,50.28734],[2.45267,50.29043],[2.45347,50.29023],[2.45296,50.287],[2.45257,50.28704]]]}},{"type":"Feature","properties":{"k":"ORH","s":2.661},"geometry":{"type":"Polygon","coordinates":[[[2.45078,50.28832],[2.45158,50.29097],[2.45241,50.29058],[2.45178,50.28745],[2.45078,50.28832]]]}},{"type":"Feature","properties":{"k":"BOR","s":0.19},"geometry":{"type":"Polygon","coordinates":[[[2.45189,50.28774],[2.45181,50.2874],[2.45142,50.28758],[2.45078,50.28832],[2.45178,50.28745],[2.45241,50.29058],[2.45189,50.28774]]]}},{"type":"Feature","properties":{"k":"PTR","s":2.13},"geometry":{"type":"Polygon","coordinates":[[[2.44961,50.28657],[2.44932,50.2862],[2.44908,50.2862],[2.44783,50.28646],[2.44846,50.28764],[2.44873,50.28757],[2.44854,50.28724],[2.44954,50.28712],[2.45021,50.28684],[2.45108,50.28679],[2.4519,50.28631],[2.45145,50.2861],[2.45038,50.28617],[2.45023,50.28643],[2.44961,50.28657]]]}},{"type":"Feature","properties":{"k":"ORH","s":1.672},"geometry":{"type":"Polygon","coordinates":[[[2.448,50.2864],[2.44899,50.28608],[2.45199,50.28582],[2.45167,50.28507],[2.44794,50.28604],[2.448,50.2864]]]}},{"type":"Feature","properties":{"k":"PPH","s":1.941},"geometry":{"type":"Polygon","coordinates":[[[2.4501,50.28439],[2.44993,50.28485],[2.44924,50.2852],[2.4492,50.28551],[2.44768,50.28597],[2.44717,50.28637],[2.44789,50.28641],[2.44794,50.28604],[2.45167,50.28507],[2.45131,50.28416],[2.4501,50.28439]]]}},{"type":"Feature","properties":{"k":"ORH","s":3.627},"geometry":{"type":"Polygon","coordinates":[[[2.4431,50.28434],[2.44485,50.2862],[2.4455,50.28617],[2.44615,50.28557],[2.44544,50.2845],[2.44559,50.28318],[2.4431,50.28434]]]}},{"type":"Feature","properties":{"k":"BTH","s":4.367},"geometry":{"type":"Polygon","coordinates":[[[2.44585,50.28298],[2.44845,50.2825],[2.44824,50.28124],[2.44482,50.28124],[2.4451,50.28341],[2.44585,50.28298]]]}},{"type":"Feature","properties":{"k":"BFS","s":0.413},"geometry":{"type":"MultiPolygon","coordinates":[[[[2.45632,50.28329],[2.45367,50.28339],[2.45283,50.28385],[2.45375,50.2835],[2.45618,50.28338],[2.45656,50.28406],[2.45683,50.28439],[2.45632,50.28329]]],[[[2.45132,50.28416],[2.45235,50.28403],[2.45283,50.28385],[2.45132,50.28416]]]]}},{"type":"Feature","properties":{"k":"BTH","s":8.022},"geometry":{"type":"Polygon","coordinates":[[[2.4538,50.28556],[2.45708,50.28559],[2.45683,50.28439],[2.45618,50.28338],[2.45375,50.2835],[2.45281,50.2839],[2.45134,50.28422],[2.45199,50.28582],[2.4538,50.28556]]]}},{"type":"Feature","properties":{"k":"MIS","s":0.011},"geometry":{"type":"Polygon","coordinates":[[[2.45686,50.28619],[2.45716,50.28612],[2.45686,50.2861],[2.45686,50.28619]]]}},{"type":"Feature","properties":{"k":"PPH","s":0.731},"geometry":{"type":"Polygon","coordinates":[[[2.45821,50.29034],[2.45826,50.28982],[2.4581,50.28933],[2.45749,50.28868],[2.45747,50.29028],[2.45821,50.29034]]]}},{"type":"Feature","properties":{"k":"MIS","s":0.908},"geometry":{"type":"Polygon","coordinates":[[[2.45786,50.29117],[2.45813,50.2904],[2.45678,50.29027],[2.45641,50.29102],[2.45786,50.29117]]]}},{"type":"Feature","properties":{"k":"BTH","s":1.799},"geometry":{"type":"Polygon","coordinates":[[[2.45676,50.29384],[2.45693,50.29387],[2.45834,50.29278],[2.45859,50.29175],[2.45823,50.29054],[2.45676,50.29384]]]}},{"type":"Feature","properties":{"k":"BTH","s":1.6},"geometry":{"type":"Polygon","coordinates":[[[2.4557,50.29521],[2.45802,50.29665],[2.45815,50.29621],[2.45806,50.29575],[2.4578,50.29565],[2.45786,50.29541],[2.45598,50.29481],[2.4557,50.29521]]]}},{"type":"Feature","properties":{"k":"BTH","s":0.756},"geometry":{"type":"MultiPolygon","coordinates":[[[[2.44929,50.30433],[2.44986,50.30448],[2.45005,50.30432],[2.45017,50.30332],[2.44929,50.30433]]],[[[2.45333,50.29975],[2.45198,50.30128],[2.4537,50.3001],[2.45333,50.29975]]]]}},{"type":"Feature","properties":{"k":"BTH","s":6.627},"geometry":{"type":"Polygon","coordinates":[[[2.45126,50.30177],[2.45198,50.30128],[2.45333,50.29975],[2.45231,50.29878],[2.44814,50.30355],[2.44891,50.30423],[2.44929,50.30433],[2.45126,50.30177]]]}},{"type":"Feature","properties":{"k":"MIS","s":1.105},"geometry":{"type":"Polygon","coordinates":[[[2.45382,50.29974],[2.45376,50.30006],[2.4563,50.29817],[2.45581,50.29773],[2.45382,50.29974]]]}},{"type":"Feature","properties":{"k":"MIS","s":3.458},"geometry":{"type":"Polygon","coordinates":[[[2.45231,50.29878],[2.45195,50.29849],[2.44752,50.30293],[2.44733,50.30288],[2.44814,50.30355],[2.45231,50.29878]]]}},{"type":"Feature","properties":{"k":"BTH","s":5.197},"geometry":{"type":"Polygon","coordinates":[[[2.44914,50.30028],[2.44703,50.3024],[2.44752,50.30293],[2.45195,50.29849],[2.45091,50.29752],[2.44896,50.29963],[2.44889,50.3],[2.44914,50.30028]]]}},{"type":"Feature","properties":{"k":"MIS","s":2.637},"geometry":{"type":"Polygon","coordinates":[[[2.44456,50.29733],[2.44403,50.29783],[2.44506,50.2982],[2.44884,50.30014],[2.44906,50.29941],[2.44456,50.29733]]]}},{"type":"Feature","properties":{"k":"MIS","s":2.435},"geometry":{"type":"Polygon","coordinates":[[[2.44454,50.29732],[2.44908,50.29941],[2.44954,50.29888],[2.44498,50.29691],[2.44454,50.29732]]]}},{"type":"Feature","properties":{"k":"BTN","s":4.013},"geometry":{"type":"Polygon","coordinates":[[[2.44444,50.29924],[2.44825,50.30117],[2.44914,50.30028],[2.44541,50.2984],[2.44444,50.29924]]]}},{"type":"Feature","properties":{"k":"LUZ","s":1.847},"geometry":{"type":"Polygon","coordinates":[[[2.455,50.28556],[2.45507,50.28685],[2.45675,50.28672],[2.45686,50.28609],[2.45733,50.28607],[2.45707,50.28561],[2.455,50.28556]]]}},{"type":"Feature","properties":{"k":"BTH","s":0.366},"geometry":{"type":"Polygon","coordinates":[[[2.44703,50.3024],[2.44512,50.30111],[2.44607,50.30198],[2.44742,50.30283],[2.44703,50.3024]]]}},{"type":"Feature","properties":{"k":"BTN","s":3.9},"geometry":{"type":"Polygon","coordinates":[[[2.44382,50.29971],[2.44533,50.2984],[2.44441,50.29797],[2.44203,50.29753],[2.44111,50.29831],[2.44382,50.29971]]]}},{"type":"Feature","properties":{"k":"LUZ","s":0.798},"geometry":{"type":"Polygon","coordinates":[[[2.44094,50.29721],[2.44025,50.298],[2.44108,50.29834],[2.44204,50.29753],[2.44094,50.29721]]]}},{"type":"Feature","properties":{"k":"MIS","s":0.222},"geometry":{"type":"MultiPolygon","coordinates":[[[[2.44382,50.29971],[2.44228,50.29892],[2.44357,50.29991],[2.44382,50.29971]]],[[[2.44108,50.29834],[2.44218,50.29886],[2.44111,50.29831],[2.44108,50.29834]]]]}},{"type":"Feature","properties":{"k":"BTH","s":0.439},"geometry":{"type":"Polygon","coordinates":[[[2.43886,50.29752],[2.43892,50.29665],[2.43794,50.29646],[2.43922,50.29818],[2.43886,50.29752]]]}},{"type":"Feature","properties":{"k":"MIS","s":1.027},"geometry":{"type":"Polygon","coordinates":[[[2.4519,50.2816],[2.45207,50.28101],[2.45009,50.28112],[2.45022,50.28197],[2.4519,50.2816]]]}},{"type":"Feature","properties":{"k":"MIS","s":1.139},"geometry":{"type":"Polygon","coordinates":[[[2.44865,50.28123],[2.44879,50.28234],[2.45022,50.28197],[2.45009,50.28112],[2.44865,50.28123]]]}},{"type":"Feature","properties":{"k":"BTH","s":0.003},"geometry":{"type":"MultiPolygon","coordinates":[[[[2.44429,50.28117],[2.44448,50.28117],[2.44328,50.28113],[2.44429,50.28117]]]]}},{"type":"Feature","properties":{"k":"PPH","s":0.004},"geometry":{"type":"Polygon","coordinates":[[[2.43479,50.28289],[2.43504,50.28281],[2.43441,50.28299],[2.43479,50.28289]]]}},{"type":"Feature","properties":{"k":"PPH","s":6.358},"geometry":{"type":"Polygon","coordinates":[[[2.43426,50.28308],[2.43438,50.28404],[2.43325,50.2844],[2.43295,50.28466],[2.43376,50.28557],[2.43339,50.28642],[2.43509,50.28739],[2.43672,50.28449],[2.4346,50.2841],[2.43538,50.28278],[2.43426,50.28308]]]}},{"type":"Feature","properties":{"k":"MIS","s":7.311},"geometry":{"type":"Polygon","coordinates":[[[2.44029,50.28545],[2.43691,50.2842],[2.43745,50.28315],[2.4364,50.28285],[2.43538,50.28278],[2.4346,50.2841],[2.43672,50.28449],[2.43612,50.28557],[2.43988,50.28697],[2.44029,50.28545]]]}},{"type":"Feature","properties":{"k":"MIS","s":7.897},"geometry":{"type":"Polygon","coordinates":[[[2.43852,50.28334],[2.43976,50.28406],[2.44151,50.28359],[2.44108,50.28106],[2.43785,50.28166],[2.43596,50.28228],[2.43534,50.2827],[2.43852,50.28334]]]}},{"type":"Feature","properties":{"k":"MIS","s":1.466},"geometry":{"type":"Polygon","coordinates":[[[2.44348,50.28119],[2.44383,50.28396],[2.4445,50.2836],[2.44418,50.28121],[2.44348,50.28119]]]}},{"type":"Feature","properties":{"k":"BTN","s":1.367},"geometry":{"type":"Polygon","coordinates":[[[2.44383,50.28396],[2.44348,50.28118],[2.44289,50.28115],[2.44326,50.28418],[2.44383,50.28396]]]}},{"type":"Feature","properties":{"k":"MIS","s":1.06},"geometry":{"type":"Polygon","coordinates":[[[2.44245,50.28114],[2.44286,50.28434],[2.44326,50.28418],[2.44289,50.28115],[2.44245,50.28114]]]}},{"type":"Feature","properties":{"k":"PPH","s":0.984},"geometry":{"type":"Polygon","coordinates":[[[2.44308,50.28435],[2.44238,50.28462],[2.4444,50.2862],[2.44486,50.2862],[2.44308,50.28435]]]}},{"type":"Feature","properties":{"k":"PPH","s":0.149},"geometry":{"type":"Polygon","coordinates":[[[2.44143,50.28509],[2.44124,50.285],[2.44062,50.2853],[2.44125,50.28549],[2.44138,50.28542],[2.4411,50.28529],[2.44143,50.28509]]]}},{"type":"Feature","properties":{"k":"PPH","s":0.209},"geometry":{"type":"Polygon","coordinates":[[[2.43446,50.28909],[2.43392,50.28906],[2.434,50.28919],[2.43502,50.28976],[2.43446,50.28909]]]}},{"type":"Feature","properties":{"k":"BTH","s":2.71},"geometry":{"type":"Polygon","coordinates":[[[2.44484,50.29633],[2.4431,50.29582],[2.4413,50.2973],[2.44322,50.29767],[2.44484,50.29633]]]}},{"type":"Feature","properties":{"k":"PPH","s":3.777},"geometry":{"type":"Polygon","coordinates":[[[2.44763,50.29495],[2.44858,50.29553],[2.45111,50.29576],[2.4516,50.29517],[2.45068,50.295],[2.45072,50.29468],[2.44581,50.29405],[2.44645,50.29494],[2.44763,50.29495]]]}},{"type":"Feature","properties":{"k":"MIS","s":4.395},"geometry":{"type":"Polygon","coordinates":[[[2.45322,50.29585],[2.45149,50.29533],[2.4502,50.29701],[2.45091,50.29737],[2.45182,50.29824],[2.45378,50.29629],[2.45322,50.29585]]]}},{"type":"Feature","properties":{"k":"PPH","s":2.796},"geometry":{"type":"Polygon","coordinates":[[[2.45464,50.29632],[2.4567,50.2977],[2.45721,50.29703],[2.45725,50.29652],[2.45773,50.2966],[2.45561,50.29514],[2.455,50.2958],[2.45513,50.29592],[2.45464,50.29632]]]}},{"type":"Feature","properties":{"k":"PPH","s":3.635},"geometry":{"type":"Polygon","coordinates":[[[2.45529,50.29322],[2.45555,50.2927],[2.45429,50.29294],[2.45357,50.29429],[2.45227,50.29391],[2.45188,50.29442],[2.45349,50.29496],[2.455,50.2958],[2.45588,50.29483],[2.45456,50.29451],[2.45529,50.29322]]]}},{"type":"Feature","properties":{"k":"BTH","s":1.856},"geometry":{"type":"Polygon","coordinates":[[[2.4553,50.29322],[2.45456,50.29451],[2.45588,50.29483],[2.45693,50.29338],[2.4553,50.29322]]]}},{"type":"Feature","properties":{"k":"BTH","s":0.012},"geometry":{"type":"Polygon","coordinates":[[[2.45677,50.29383],[2.45673,50.29393],[2.45681,50.29396],[2.45677,50.29383]]]}},{"type":"Feature","properties":{"k":"MIS","s":1.087},"geometry":{"type":"Polygon","coordinates":[[[2.45527,50.29322],[2.45691,50.29338],[2.45726,50.29257],[2.4557,50.2924],[2.45527,50.29322]]]}},{"type":"Feature","properties":{"k":"MIS","s":0.88},"geometry":{"type":"Polygon","coordinates":[[[2.45755,50.29187],[2.45603,50.29173],[2.4557,50.2924],[2.45726,50.29257],[2.45755,50.29187]]]}},{"type":"Feature","properties":{"k":"MIS","s":0.519},"geometry":{"type":"Polygon","coordinates":[[[2.45606,50.29172],[2.45755,50.29186],[2.45772,50.29144],[2.45627,50.29129],[2.45606,50.29172]]]}},{"type":"Feature","properties":{"k":"ORH","s":4.719},"geometry":{"type":"Polygon","coordinates":[[[2.45475,50.29009],[2.45317,50.29306],[2.45555,50.2927],[2.45678,50.29027],[2.45475,50.29009]]]}},{"type":"Feature","properties":{"k":"MIS","s":0.586},"geometry":{"type":"Polygon","coordinates":[[[2.45099,50.29349],[2.45253,50.29351],[2.45271,50.29312],[2.45113,50.29295],[2.45099,50.29349]]]}},{"type":"Feature","properties":{"k":"PHF","s":4.854},"geometry":{"type":"Polygon","coordinates":[[[2.45459,50.29028],[2.45469,50.2901],[2.45284,50.29046],[2.45164,50.29105],[2.45113,50.29295],[2.45305,50.29316],[2.45459,50.29028]]]}},{"type":"Feature","properties":{"k":"CZH","s":0.635},"geometry":{"type":"Polygon","coordinates":[[[2.44445,50.29668],[2.44327,50.29768],[2.44398,50.29782],[2.44493,50.29695],[2.44445,50.29668]]]}},{"type":"Feature","properties":{"k":"JAC","s":0.175},"geometry":{"type":"Polygon","coordinates":[[[2.45274,50.29315],[2.4531,50.2932],[2.45475,50.29009],[2.45305,50.29316],[2.45271,50.29312],[2.45253,50.29351],[2.45274,50.29351],[2.45259,50.29348],[2.45274,50.29315]]]}},{"type":"Feature","properties":{"k":"PTR","s":0.035},"geometry":{"type":"Polygon","coordinates":[[[2.45106,50.28945],[2.45094,50.28934],[2.45098,50.28956],[2.45112,50.28993],[2.45106,50.28945]]]}},{"type":"Feature","properties":{"k":"MIS","s":3.126},"geometry":{"type":"Polygon","coordinates":[[[2.45296,50.287],[2.45347,50.29023],[2.45468,50.29002],[2.4542,50.28692],[2.45296,50.287]]]}},{"type":"Feature","properties":{"k":"ORH","s":2.125},"geometry":{"type":"Polygon","coordinates":[[[2.43924,50.2882],[2.43973,50.28736],[2.43791,50.28668],[2.43695,50.28825],[2.43924,50.2882]]]}},{"type":"Feature","properties":{"k":"PPH","s":0.295},"geometry":{"type":"Polygon","coordinates":[[[2.43841,50.28687],[2.43973,50.28736],[2.43983,50.28711],[2.43862,50.28665],[2.43841,50.28687]]]}},{"type":"Feature","properties":{"k":"PTR","s":0.94},"geometry":{"type":"Polygon","coordinates":[[[2.4413,50.29452],[2.44203,50.29437],[2.44319,50.29387],[2.44127,50.29345],[2.4413,50.29452]]]}},{"type":"Feature","properties":{"k":"BTN","s":4.625},"geometry":{"type":"Polygon","coordinates":[[[2.44348,50.29212],[2.44005,50.29087],[2.43908,50.29186],[2.44007,50.29248],[2.44125,50.29294],[2.44128,50.29327],[2.44232,50.29364],[2.44348,50.29212]]]}},{"type":"Feature","properties":{"k":"LBF","s":7.591},"geometry":{"type":"Polygon","coordinates":[[[2.44393,50.29217],[2.44441,50.29218],[2.44485,50.29116],[2.44307,50.29079],[2.44298,50.29],[2.44127,50.28942],[2.44192,50.28867],[2.44063,50.28837],[2.43884,50.29039],[2.44393,50.29217]]]}},{"type":"Feature","properties":{"k":"PPH","s":2.069},"geometry":{"type":"Polygon","coordinates":[[[2.4416,50.28582],[2.44049,50.28546],[2.43984,50.28729],[2.44156,50.28786],[2.4424,50.28738],[2.44186,50.28731],[2.44196,50.28705],[2.44071,50.28688],[2.4416,50.28582]]]}},{"type":"Feature","properties":{"k":"PPH","s":1.877},"geometry":{"type":"Polygon","coordinates":[[[2.44298,50.29],[2.44307,50.29079],[2.4449,50.29117],[2.445,50.29087],[2.44385,50.29058],[2.44368,50.28988],[2.44337,50.29027],[2.44313,50.29024],[2.44326,50.28951],[2.44262,50.28948],[2.44274,50.28879],[2.44192,50.28867],[2.44127,50.28942],[2.44298,50.29]]]}},{"type":"Feature","properties":{"k":"PPH","s":1.221},"geometry":{"type":"Polygon","coordinates":[[[2.43871,50.29631],[2.43918,50.29651],[2.44146,50.29457],[2.44042,50.29454],[2.43871,50.29631]]]}},{"type":"Feature","properties":{"k":"PPH","s":2.735},"geometry":{"type":"Polygon","coordinates":[[[2.4424,50.29536],[2.44152,50.29544],[2.43985,50.29686],[2.43966,50.2967],[2.43978,50.29802],[2.44025,50.298],[2.44093,50.29721],[2.44289,50.29567],[2.4424,50.29536]]]}},{"type":"Feature","properties":{"k":"PPH","s":0.458},"geometry":{"type":"Polygon","coordinates":[[[2.45077,50.28826],[2.45035,50.28853],[2.45028,50.28935],[2.45078,50.28937],[2.45098,50.28956],[2.45077,50.28826]]]}},{"type":"Feature","properties":{"k":"PPH","s":2.479},"geometry":{"type":"Polygon","coordinates":[[[2.44463,50.28919],[2.44476,50.28945],[2.44891,50.28845],[2.44873,50.28757],[2.44586,50.28833],[2.44577,50.28896],[2.44463,50.28919]]]}},{"type":"Feature","properties":{"k":"BTH","s":2.352},"geometry":{"type":"Polygon","coordinates":[[[2.44585,50.28752],[2.4459,50.2883],[2.44846,50.28764],[2.44783,50.28646],[2.44714,50.28642],[2.44585,50.28752]]]}},{"type":"Feature","properties":{"k":"PPH","s":2.339},"geometry":{"type":"Polygon","coordinates":[[[2.44501,50.28652],[2.44524,50.28669],[2.44414,50.28729],[2.44476,50.28803],[2.4453,50.28802],[2.44538,50.2883],[2.4459,50.2883],[2.44585,50.28752],[2.44715,50.28641],[2.44541,50.28625],[2.44501,50.28652]]]}},{"type":"Feature","properties":{"k":"PPH","s":0.261},"geometry":{"type":"Polygon","coordinates":[[[2.44466,50.28701],[2.44524,50.28669],[2.44501,50.28652],[2.44541,50.28625],[2.44466,50.28632],[2.44484,50.28642],[2.44447,50.28674],[2.44466,50.28701]]]}},{"type":"Feature","properties":{"k":"BTH","s":4.359},"geometry":{"type":"Polygon","coordinates":[[[2.43967,50.2883],[2.43714,50.28832],[2.43614,50.28916],[2.43884,50.29039],[2.44063,50.28837],[2.44007,50.28843],[2.43967,50.2883]]]}},{"type":"Feature","properties":{"k":"PPH","s":0.323},"geometry":{"type":"Polygon","coordinates":[[[2.445,50.29087],[2.44503,50.29048],[2.44377,50.29031],[2.44385,50.29058],[2.445,50.29087]]]}},{"type":"Feature","properties":{"k":"PPH","s":0.438},"geometry":{"type":"Polygon","coordinates":[[[2.44599,50.29099],[2.44513,50.29089],[2.44486,50.29151],[2.4461,50.2915],[2.44599,50.29099]]]}},{"type":"Feature","properties":{"k":"PPH","s":1.919},"geometry":{"type":"Polygon","coordinates":[[[2.44631,50.2898],[2.44648,50.29083],[2.44718,50.29061],[2.44745,50.29039],[2.44726,50.2892],[2.44867,50.28883],[2.44856,50.28853],[2.44582,50.28926],[2.44588,50.28982],[2.44631,50.2898]]]}},{"type":"Feature","properties":{"k":"PPH","s":0.892},"geometry":{"type":"Polygon","coordinates":[[[2.45098,50.29093],[2.4515,50.29095],[2.45103,50.29002],[2.45049,50.29042],[2.44908,50.29036],[2.44897,50.29056],[2.45098,50.29093]]]}},{"type":"Feature","properties":{"k":"PPH","s":8.385},"geometry":{"type":"Polygon","coordinates":[[[2.45274,50.29351],[2.45099,50.29349],[2.45164,50.29105],[2.44973,50.29078],[2.44984,50.29151],[2.44929,50.29157],[2.44854,50.29253],[2.44813,50.2933],[2.44796,50.2933],[2.44772,50.29427],[2.45072,50.29468],[2.45104,50.29429],[2.45188,50.29442],[2.45224,50.29388],[2.45274,50.29351]]]}},{"type":"Feature","properties":{"k":"MIS","s":3.38},"geometry":{"type":"Polygon","coordinates":[[[2.44772,50.29427],[2.44796,50.2933],[2.44813,50.2933],[2.44833,50.29286],[2.44456,50.29236],[2.44576,50.29403],[2.44772,50.29427]]]}},{"type":"Feature","properties":{"k":"BTH","s":4.479},"geometry":{"type":"Polygon","coordinates":[[[2.44455,50.29236],[2.44833,50.29286],[2.44929,50.29157],[2.44819,50.2915],[2.44768,50.29034],[2.44691,50.29081],[2.44703,50.29151],[2.44486,50.29151],[2.44455,50.29236]]]}},{"type":"Feature","properties":{"k":"MIS","s":1.295},"geometry":{"type":"Polygon","coordinates":[[[2.44496,50.29411],[2.44571,50.29416],[2.44474,50.29292],[2.44408,50.29282],[2.44346,50.29369],[2.44496,50.29411]]]}},{"type":"Feature","properties":{"k":"PPH","s":0.785},"geometry":{"type":"Polygon","coordinates":[[[2.44343,50.29372],[2.44326,50.29389],[2.44469,50.29425],[2.44544,50.29482],[2.44632,50.29494],[2.44571,50.29416],[2.44343,50.29372]]]}},{"type":"Feature","properties":{"k":"PPH","s":3.172},"geometry":{"type":"Polygon","coordinates":[[[2.44238,50.29457],[2.44242,50.29532],[2.4446,50.29597],[2.44486,50.2956],[2.44454,50.29551],[2.44491,50.29489],[2.44655,50.29523],[2.44638,50.29502],[2.44541,50.29483],[2.44468,50.29427],[2.44325,50.2939],[2.44238,50.29457]]]}},{"type":"Feature","properties":{"k":"MIS","s":1.282},"geometry":{"type":"Polygon","coordinates":[[[2.4499,50.29696],[2.44828,50.29646],[2.44798,50.29651],[2.44685,50.29608],[2.44669,50.29628],[2.45052,50.29775],[2.45076,50.29748],[2.4499,50.29696]]]}},{"type":"Feature","properties":{"k":"BTH","s":2.915},"geometry":{"type":"Polygon","coordinates":[[[2.437,50.28968],[2.43559,50.2889],[2.43519,50.28915],[2.43715,50.29029],[2.43692,50.29044],[2.43908,50.29186],[2.44003,50.29089],[2.437,50.28968]]]}},{"type":"Feature","properties":{"k":"PPH","s":0.304},"geometry":{"type":"Polygon","coordinates":[[[2.44387,50.28666],[2.44391,50.28695],[2.44452,50.2863],[2.44362,50.2861],[2.44387,50.28666]]]}},{"type":"Feature","properties":{"k":"PPH","s":2.466},"geometry":{"type":"Polygon","coordinates":[[[2.44157,50.28789],[2.4406,50.28755],[2.44,50.28826],[2.441,50.28828],[2.44268,50.28868],[2.44345,50.28864],[2.44382,50.2878],[2.4434,50.28736],[2.44249,50.28773],[2.44234,50.28758],[2.44324,50.28725],[2.44304,50.28711],[2.44157,50.28789]]]}},{"type":"Feature","properties":{"k":"ORH","s":0.548},"geometry":{"type":"Polygon","coordinates":[[[2.43938,50.2882],[2.44,50.28826],[2.4406,50.28755],[2.43984,50.28732],[2.43938,50.2882]]]}},{"type":"Feature","properties":{"k":"PPH","s":2.562},"geometry":{"type":"Polygon","coordinates":[[[2.43519,50.28923],[2.43532,50.28983],[2.43604,50.29041],[2.43597,50.29071],[2.43638,50.29135],[2.43747,50.29192],[2.4385,50.29216],[2.43898,50.29186],[2.43687,50.29047],[2.43708,50.29032],[2.43519,50.28923]]]}},{"type":"Feature","properties":{"k":"PPH","s":0.004},"geometry":{"type":"Polygon","coordinates":[[[2.44031,50.29454],[2.44025,50.29469],[2.44041,50.29454],[2.44031,50.29454]]]}},{"type":"Feature","properties":{"k":"PPH","s":1.189},"geometry":{"type":"Polygon","coordinates":[[[2.43896,50.29665],[2.43888,50.29756],[2.43924,50.29817],[2.43976,50.29802],[2.43966,50.2967],[2.43871,50.29631],[2.43879,50.29622],[2.43772,50.29617],[2.43793,50.29645],[2.43896,50.29665]]]}},{"type":"Feature","properties":{"k":"ORH","s":1.12},"geometry":{"type":"Polygon","coordinates":[[[2.43642,50.28612],[2.43593,50.28594],[2.43512,50.28741],[2.43523,50.28778],[2.43628,50.28856],[2.43667,50.28834],[2.43557,50.2876],[2.43642,50.28612]]]}},{"type":"Feature","properties":{"k":"PPH","s":0.013},"geometry":{"type":"MultiPolygon","coordinates":[[[[2.43435,50.28908],[2.43404,50.28906],[2.43408,50.28911],[2.43435,50.28908]]],[[[2.43486,50.28912],[2.43488,50.28911],[2.43448,50.28909],[2.43486,50.28912]]]]}},{"type":"Feature","properties":{"k":"LUZ","s":0.184},"geometry":{"type":"Polygon","coordinates":[[[2.43571,50.28887],[2.43614,50.28916],[2.43693,50.28838],[2.43571,50.28887]]]}},{"type":"Feature","properties":{"k":"BTH","s":2.222},"geometry":{"type":"Polygon","coordinates":[[[2.43668,50.28834],[2.43693,50.28825],[2.43789,50.28669],[2.43643,50.28613],[2.43559,50.2876],[2.43668,50.28834]]]}},{"type":"Feature","properties":{"k":"MIS","s":1.033},"geometry":{"type":"Polygon","coordinates":[[[2.43988,50.28697],[2.43612,50.28557],[2.43593,50.28594],[2.43841,50.28687],[2.43862,50.28665],[2.43984,50.28708],[2.43988,50.28697]]]}},{"type":"Feature","properties":{"k":"PHF","s":4.62},"geometry":{"type":"Polygon","coordinates":[[[2.44703,50.3024],[2.44825,50.30117],[2.44444,50.29924],[2.44362,50.29995],[2.44703,50.3024]]]}}]}