{"type":"FeatureCollection","features":[{"type":"Feature","properties":{"k":"PPH","s":2.059},"geometry":{"type":"Polygon","coordinates":[[[2.7227,50.17092],[2.72286,50.1707],[2.7217,50.17034],[2.72154,50.1705],[2.72729,50.17431],[2.72794,50.17422],[2.7227,50.17092]]]}},{"type":"Feature","properties":{"k":"PPH","s":0.695},"geometry":{"type":"Polygon","coordinates":[[[2.72848,50.17384],[2.72546,50.1725],[2.72566,50.17267],[2.72773,50.17406],[2.72848,50.17384]]]}},{"type":"Feature","properties":{"k":"BTH","s":2.0},"geometry":{"type":"Polygon","coordinates":[[[2.72654,50.17442],[2.72729,50.17431],[2.72295,50.17141],[2.72239,50.1716],[2.72654,50.17442]]]}},{"type":"Feature","properties":{"k":"BTH","s":2.46},"geometry":{"type":"Polygon","coordinates":[[[2.72471,50.1739],[2.72563,50.17386],[2.72654,50.17442],[2.72128,50.17082],[2.72077,50.1712],[2.72471,50.1739]]]}},{"type":"Feature","properties":{"k":"MIS","s":2.832},"geometry":{"type":"Polygon","coordinates":[[[2.72474,50.17468],[2.72556,50.17448],[2.72077,50.1712],[2.72025,50.1716],[2.72474,50.17468]]]}},{"type":"Feature","properties":{"k":"PPH","s":2.931},"geometry":{"type":"Polygon","coordinates":[[[2.71826,50.17497],[2.71851,50.1751],[2.71918,50.17471],[2.71911,50.17456],[2.71975,50.17475],[2.72004,50.17458],[2.72076,50.1751],[2.72299,50.17433],[2.72261,50.1741],[2.7224,50.1742],[2.72246,50.17399],[2.72144,50.1733],[2.71826,50.17497]]]}},{"type":"Feature","properties":{"k":"PPH","s":2.229},"geometry":{"type":"Polygon","coordinates":[[[2.7178,50.1747],[2.7182,50.17494],[2.71884,50.17449],[2.72144,50.1733],[2.72024,50.17249],[2.7178,50.1747]]]}},{"type":"Feature","properties":{"k":"PPH","s":2.966},"geometry":{"type":"Polygon","coordinates":[[[2.72025,50.17161],[2.71965,50.17209],[2.72372,50.17483],[2.72474,50.17468],[2.72025,50.17161]]]}},{"type":"Feature","properties":{"k":"JAC","s":0.57},"geometry":{"type":"Polygon","coordinates":[[[2.72151,50.17048],[2.7212,50.17077],[2.72239,50.1716],[2.72295,50.17141],[2.72151,50.17048]]]}},{"type":"Feature","properties":{"k":"PPH","s":5.121},"geometry":{"type":"Polygon","coordinates":[[[2.72165,50.17035],[2.72087,50.17005],[2.7176,50.17301],[2.71622,50.17392],[2.71672,50.17416],[2.71711,50.17383],[2.71727,50.17391],[2.71751,50.17369],[2.71771,50.17376],[2.71722,50.17423],[2.71753,50.17433],[2.71739,50.1745],[2.71779,50.1747],[2.72024,50.17249],[2.71965,50.17209],[2.72165,50.17035]]]}},{"type":"Feature","properties":{"k":"PPH","s":5.842},"geometry":{"type":"Polygon","coordinates":[[[2.7146,50.17304],[2.71559,50.17355],[2.71575,50.17346],[2.71619,50.17388],[2.71756,50.173],[2.72025,50.17064],[2.71917,50.17022],[2.71751,50.17173],[2.71647,50.17131],[2.7146,50.17304]]]}},{"type":"Feature","properties":{"k":"PPH","s":6.697},"geometry":{"type":"Polygon","coordinates":[[[2.70902,50.17433],[2.70777,50.17581],[2.71033,50.17547],[2.71034,50.17512],[2.71089,50.17498],[2.7109,50.17548],[2.71117,50.17549],[2.71153,50.17416],[2.71135,50.17409],[2.71164,50.17382],[2.71128,50.17367],[2.71181,50.17309],[2.7127,50.17344],[2.71262,50.17357],[2.71294,50.17378],[2.71361,50.1735],[2.7127,50.17297],[2.71287,50.17263],[2.71134,50.17193],[2.70902,50.17433]]]}},{"type":"Feature","properties":{"k":"PPH","s":0.312},"geometry":{"type":"Polygon","coordinates":[[[2.71314,50.17223],[2.71341,50.17134],[2.71247,50.17232],[2.71298,50.17257],[2.71314,50.17223]]]}},{"type":"Feature","properties":{"k":"PPH","s":0.984},"geometry":{"type":"Polygon","coordinates":[[[2.71456,50.17303],[2.7152,50.17248],[2.71335,50.17173],[2.71321,50.17238],[2.71456,50.17303]]]}},{"type":"Feature","properties":{"k":"BTH","s":2.894},"geometry":{"type":"Polygon","coordinates":[[[2.71388,50.17026],[2.71383,50.17091],[2.71335,50.17173],[2.7152,50.17247],[2.71647,50.17131],[2.71388,50.17026]]]}},{"type":"Feature","properties":{"k":"MIS","s":0.49},"geometry":{"type":"Polygon","coordinates":[[[2.71822,50.17108],[2.71391,50.16934],[2.7139,50.16948],[2.7181,50.17119],[2.71822,50.17108]]]}},{"type":"Feature","properties":{"k":"PPH","s":0.306},"geometry":{"type":"Polygon","coordinates":[[[2.71376,50.17081],[2.71378,50.1696],[2.7136,50.16956],[2.71333,50.17069],[2.71376,50.17081]]]}},{"type":"Feature","properties":{"k":"BTH","s":5.887},"geometry":{"type":"Polygon","coordinates":[[[2.71325,50.17089],[2.71361,50.16952],[2.71378,50.16957],[2.71381,50.16759],[2.71035,50.17126],[2.71121,50.17173],[2.71298,50.17257],[2.71247,50.17232],[2.71365,50.171],[2.71325,50.17089]]]}},{"type":"Feature","properties":{"k":"BTN","s":10.0},"geometry":{"type":"Polygon","coordinates":[[[2.71033,50.17126],[2.71382,50.16755],[2.71373,50.16715],[2.71138,50.16661],[2.70805,50.1702],[2.71033,50.17126]]]}},{"type":"Feature","properties":{"k":"MIS","s":0.442},"geometry":{"type":"Polygon","coordinates":[[[2.71683,50.1682],[2.71698,50.16808],[2.71376,50.16679],[2.7138,50.16698],[2.71683,50.1682]]]}},{"type":"Feature","properties":{"k":"BTH","s":1.28},"geometry":{"type":"Polygon","coordinates":[[[2.71357,50.16606],[2.71368,50.16657],[2.71718,50.16793],[2.71753,50.16765],[2.71357,50.16606]]]}},{"type":"Feature","properties":{"k":"BTH","s":12.205},"geometry":{"type":"MultiPolygon","coordinates":[[[[2.71385,50.16722],[2.71393,50.16808],[2.71917,50.17022],[2.72025,50.17064],[2.72089,50.17003],[2.7188,50.16919],[2.72095,50.16744],[2.71849,50.1665],[2.71722,50.16752],[2.7176,50.16763],[2.71686,50.16821],[2.71416,50.16713],[2.71406,50.16729],[2.71385,50.16722]]],[[[2.7139,50.16948],[2.71388,50.17026],[2.71751,50.17173],[2.7181,50.17119],[2.7139,50.16948]]]]}},{"type":"Feature","properties":{"k":"BTH","s":1.827},"geometry":{"type":"Polygon","coordinates":[[[2.71883,50.17053],[2.71917,50.17022],[2.71393,50.16808],[2.71391,50.16853],[2.71883,50.17053]]]}},{"type":"Feature","properties":{"k":"MIS","s":1.371},"geometry":{"type":"Polygon","coordinates":[[[2.71883,50.17053],[2.71391,50.16853],[2.71392,50.16891],[2.71856,50.17077],[2.71883,50.17053]]]}},{"type":"Feature","properties":{"k":"BTH","s":1.576},"geometry":{"type":"Polygon","coordinates":[[[2.71856,50.17077],[2.71392,50.16891],[2.71391,50.16934],[2.71822,50.17108],[2.71856,50.17077]]]}},{"type":"Feature","properties":{"k":"BTH","s":2.398},"geometry":{"type":"Polygon","coordinates":[[[2.72237,50.1683],[2.72128,50.16761],[2.71917,50.16932],[2.72024,50.16977],[2.72237,50.1683]]]}},{"type":"Feature","properties":{"k":"JAC","s":3.21},"geometry":{"type":"Polygon","coordinates":[[[2.72337,50.16954],[2.72237,50.1683],[2.72024,50.16977],[2.72286,50.1707],[2.72341,50.16983],[2.72337,50.16954]]]}},{"type":"Feature","properties":{"k":"ORH","s":0.73},"geometry":{"type":"Polygon","coordinates":[[[2.72128,50.16761],[2.72095,50.16744],[2.7188,50.16919],[2.71915,50.16933],[2.72128,50.16761]]]}},{"type":"Feature","properties":{"k":"ORP","s":1.044},"geometry":{"type":"Polygon","coordinates":[[[2.71357,50.16606],[2.71718,50.16751],[2.71746,50.16729],[2.71348,50.16567],[2.71357,50.16606]]]}},{"type":"Feature","properties":{"k":"MIS","s":2.692},"geometry":{"type":"Polygon","coordinates":[[[2.7133,50.16497],[2.71348,50.16567],[2.71746,50.16729],[2.71815,50.16674],[2.7133,50.16497]]]}},{"type":"Feature","properties":{"k":"CZH","s":1.797},"geometry":{"type":"Polygon","coordinates":[[[2.71511,50.1651],[2.71331,50.16468],[2.7133,50.16497],[2.71815,50.16674],[2.71848,50.16647],[2.71511,50.1651]]]}},{"type":"Feature","properties":{"k":"LIF","s":0.091},"geometry":{"type":"Polygon","coordinates":[[[2.69355,50.16529],[2.69363,50.16518],[2.69357,50.16519],[2.69303,50.16639],[2.69316,50.16648],[2.69355,50.16529]]]}},{"type":"Feature","properties":{"k":"PHF","s":11.339},"geometry":{"type":"Polygon","coordinates":[[[2.69679,50.16475],[2.69533,50.16381],[2.69399,50.16483],[2.69399,50.16515],[2.69356,50.16529],[2.69293,50.16723],[2.69419,50.16805],[2.69448,50.16797],[2.69557,50.16855],[2.69835,50.16536],[2.69679,50.16475]]]}},{"type":"Feature","properties":{"k":"PHF","s":0.07},"geometry":{"type":"Polygon","coordinates":[[[2.69463,50.1643],[2.69459,50.16427],[2.69392,50.16473],[2.69394,50.16485],[2.69463,50.1643]]]}},{"type":"Feature","properties":{"k":"BTH","s":0.0},"geometry":{"type":"Polygon","coordinates":[]}},{"type":"Feature","properties":{"k":"MIS","s":0.002},"geometry":{"type":"Polygon","coordinates":[[[2.69678,50.16093],[2.69685,50.16065],[2.6967,50.16119],[2.69678,50.16093]]]}},{"type":"Feature","properties":{"k":"BTH","s":5.53},"geometry":{"type":"Polygon","coordinates":[[[2.70139,50.16223],[2.69877,50.16164],[2.69699,50.1605],[2.6964,50.16233],[2.70002,50.16365],[2.70139,50.16223]]]}},{"type":"Feature","properties":{"k":"BTN","s":0.001},"geometry":{"type":"Polygon","coordinates":[]}},{"type":"Feature","properties":{"k":"MIS","s":15.908},"geometry":{"type":"Polygon","coordinates":[[[2.71303,50.1646],[2.708,50.16339],[2.70602,50.16304],[2.70419,50.16495],[2.71373,50.16715],[2.71303,50.1646]]]}},{"type":"Feature","properties":{"k":"MIS","s":4.93},"geometry":{"type":"Polygon","coordinates":[[[2.70463,50.16282],[2.70103,50.16665],[2.70212,50.16712],[2.70602,50.16304],[2.70463,50.16282]]]}},{"type":"Feature","properties":{"k":"BTN","s":5.045},"geometry":{"type":"Polygon","coordinates":[[[2.70316,50.16258],[2.69982,50.16609],[2.70102,50.16667],[2.70463,50.16282],[2.70316,50.16258]]]}},{"type":"Feature","properties":{"k":"BTN","s":5.584},"geometry":{"type":"Polygon","coordinates":[[[2.69983,50.16608],[2.70315,50.16256],[2.70139,50.16223],[2.69844,50.16533],[2.69983,50.16608]]]}},{"type":"Feature","properties":{"k":"MIS","s":1.667},"geometry":{"type":"Polygon","coordinates":[[[2.6996,50.16409],[2.70002,50.16365],[2.69636,50.16232],[2.6961,50.16281],[2.6996,50.16409]]]}},{"type":"Feature","properties":{"k":"BTH","s":3.979},"geometry":{"type":"Polygon","coordinates":[[[2.69562,50.16387],[2.69677,50.16462],[2.69844,50.16533],[2.6996,50.16409],[2.69612,50.16282],[2.69552,50.16366],[2.69562,50.16387]],[[2.69555,50.16366],[2.69552,50.16366],[2.6958,50.16336],[2.69555,50.16366]]]}},{"type":"Feature","properties":{"k":"BTH","s":9.456},"geometry":{"type":"Polygon","coordinates":[[[2.69835,50.16536],[2.69557,50.16855],[2.69601,50.16892],[2.69726,50.16917],[2.69778,50.16916],[2.69836,50.16893],[2.69946,50.16889],[2.70123,50.16686],[2.69835,50.16536]]]}},{"type":"Feature","properties":{"k":"BTH","s":2.543},"geometry":{"type":"Polygon","coordinates":[[[2.70397,50.16791],[2.70202,50.17014],[2.70267,50.17089],[2.70496,50.16829],[2.70397,50.16791]]]}},{"type":"Feature","properties":{"k":"BTN","s":5.532},"geometry":{"type":"Polygon","coordinates":[[[2.70086,50.16903],[2.70202,50.17013],[2.70397,50.16792],[2.70123,50.16686],[2.69946,50.16889],[2.70086,50.16903]]]}},{"type":"Feature","properties":{"k":"BOR","s":0.028},"geometry":{"type":"Polygon","coordinates":[[[2.70212,50.16712],[2.70103,50.16665],[2.70146,50.16689],[2.70212,50.16712]]]}},{"type":"Feature","properties":{"k":"BTH","s":19.593},"geometry":{"type":"Polygon","coordinates":[[[2.70572,50.1686],[2.70644,50.16962],[2.70802,50.17019],[2.71138,50.16661],[2.70419,50.16495],[2.70209,50.16715],[2.70572,50.1686]]]}},{"type":"Feature","properties":{"k":"PTC","s":2.354},"geometry":{"type":"Polygon","coordinates":[[[2.70502,50.16832],[2.70289,50.17076],[2.70338,50.17149],[2.70576,50.16874],[2.70502,50.16832]]]}},{"type":"Feature","properties":{"k":"MIS","s":1.422},"geometry":{"type":"Polygon","coordinates":[[[2.70289,50.17076],[2.70272,50.17095],[2.70345,50.17203],[2.70599,50.16917],[2.70578,50.16877],[2.70338,50.17149],[2.70289,50.17076]]]}},{"type":"Feature","properties":{"k":"PHF","s":4.593},"geometry":{"type":"Polygon","coordinates":[[[2.70512,50.17392],[2.70821,50.17038],[2.70717,50.17],[2.70718,50.16999],[2.70691,50.16991],[2.70415,50.17307],[2.70512,50.17392]]]}},{"type":"Feature","properties":{"k":"BTH","s":3.751},"geometry":{"type":"Polygon","coordinates":[[[2.70621,50.16956],[2.70599,50.16917],[2.70345,50.17203],[2.70414,50.17308],[2.70691,50.16991],[2.70621,50.16956]]]}},{"type":"Feature","properties":{"k":"MIS","s":2.014},"geometry":{"type":"Polygon","coordinates":[[[2.70955,50.17108],[2.70849,50.17233],[2.70815,50.17277],[2.70912,50.17328],[2.71064,50.17158],[2.70955,50.17108]]]}},{"type":"Feature","properties":{"k":"CZH","s":2.297},"geometry":{"type":"Polygon","coordinates":[[[2.7051,50.17396],[2.70553,50.17436],[2.70876,50.17066],[2.70822,50.17037],[2.7051,50.17396]]]}},{"type":"Feature","properties":{"k":"BTH","s":2.384},"geometry":{"type":"Polygon","coordinates":[[[2.7061,50.17464],[2.70932,50.17095],[2.70876,50.17066],[2.70555,50.17434],[2.7061,50.17464]]]}},{"type":"Feature","properties":{"k":"BTH","s":3.565},"geometry":{"type":"Polygon","coordinates":[[[2.70646,50.17555],[2.70707,50.17566],[2.70912,50.17328],[2.70814,50.17279],[2.70843,50.17244],[2.70825,50.17237],[2.70945,50.171],[2.70932,50.17095],[2.7061,50.17464],[2.70652,50.17482],[2.70646,50.17555]]]}},{"type":"Feature","properties":{"k":"BTH","s":2.626},"geometry":{"type":"Polygon","coordinates":[[[2.71109,50.17188],[2.71124,50.17188],[2.71064,50.17158],[2.70707,50.17566],[2.70777,50.17581],[2.71109,50.17188]]]}},{"type":"Feature","properties":{"k":"BTN","s":0.105},"geometry":{"type":"MultiPolygon","coordinates":[[[[2.69316,50.16648],[2.69303,50.16639],[2.69282,50.16686],[2.69291,50.16721],[2.69316,50.16648]]]]}},{"type":"Feature","properties":{"k":"BTH","s":0.987},"geometry":{"type":"Polygon","coordinates":[[[2.68342,50.17666],[2.68633,50.17339],[2.68597,50.17334],[2.6832,50.17653],[2.68342,50.17666]]]}},{"type":"Feature","properties":{"k":"BTH","s":4.386},"geometry":{"type":"Polygon","coordinates":[[[2.68342,50.17666],[2.68355,50.17673],[2.68543,50.17531],[2.68672,50.1753],[2.68755,50.17551],[2.68864,50.17433],[2.68717,50.17358],[2.68633,50.17339],[2.68342,50.17666]]]}},{"type":"Feature","properties":{"k":"MIS","s":1.019},"geometry":{"type":"Polygon","coordinates":[[[2.6856,50.17545],[2.68453,50.17608],[2.6852,50.17666],[2.68668,50.1754],[2.6856,50.17545]]]}},{"type":"Feature","properties":{"k":"BTH","s":3.836},"geometry":{"type":"Polygon","coordinates":[[[2.6915,50.17587],[2.68864,50.17433],[2.68754,50.17552],[2.69074,50.17685],[2.6915,50.17587]]]}},{"type":"Feature","properties":{"k":"BTH","s":0.056},"geometry":{"type":"Polygon","coordinates":[[[2.69087,50.17538],[2.69036,50.17506],[2.68888,50.17439],[2.69087,50.17538]]]}},{"type":"Feature","properties":{"k":"MIS","s":0.002},"geometry":{"type":"Polygon","coordinates":[[[2.69234,50.17576],[2.69207,50.17576],[2.69232,50.17578],[2.69234,50.17576]]]}},{"type":"Feature","properties":{"k":"MIS","s":0.131},"geometry":{"type":"MultiPolygon","coordinates":[[[[2.69724,50.17616],[2.69796,50.1761],[2.69673,50.17613],[2.69505,50.17592],[2.69644,50.17616],[2.69724,50.17616]]],[[[2.69872,50.17596],[2.69905,50.17582],[2.69953,50.17543],[2.69908,50.17577],[2.69797,50.1761],[2.69872,50.17596]]],[[[2.69988,50.17503],[2.69954,50.17543],[2.69993,50.17503],[2.69988,50.17503]]],[[[2.69342,50.17577],[2.69234,50.17576],[2.69232,50.17578],[2.69342,50.17577]]]]}},{"type":"Feature","properties":{"k":"MIS","s":7.662},"geometry":{"type":"Polygon","coordinates":[[[2.69916,50.17664],[2.69681,50.17684],[2.69526,50.17648],[2.69554,50.17606],[2.69408,50.1759],[2.69285,50.17771],[2.69527,50.17884],[2.69778,50.17767],[2.69859,50.1775],[2.69916,50.17664]]]}},{"type":"Feature","properties":{"k":"ORH","s":1.763},"geometry":{"type":"Polygon","coordinates":[[[2.69176,50.17734],[2.69285,50.17771],[2.69408,50.1759],[2.69272,50.1759],[2.69176,50.17734]]]}},{"type":"Feature","properties":{"k":"MIS","s":1.16},"geometry":{"type":"Polygon","coordinates":[[[2.69176,50.17734],[2.6927,50.17594],[2.69147,50.17591],[2.69081,50.17686],[2.69176,50.17734]]]}},{"type":"Feature","properties":{"k":"MIS","s":1.89},"geometry":{"type":"Polygon","coordinates":[[[2.69568,50.1788],[2.69509,50.17893],[2.69683,50.17983],[2.69809,50.17765],[2.69568,50.1788]]]}},{"type":"Feature","properties":{"k":"BTH","s":2.955},"geometry":{"type":"Polygon","coordinates":[[[2.72688,50.17993],[2.72912,50.18162],[2.72975,50.18253],[2.73049,50.18193],[2.72744,50.17908],[2.72697,50.179],[2.72688,50.17993]]]}},{"type":"Feature","properties":{"k":"LUZ","s":2.208},"geometry":{"type":"Polygon","coordinates":[[[2.69962,50.17595],[2.6986,50.1775],[2.69994,50.17732],[2.70134,50.17519],[2.7002,50.17516],[2.69962,50.17595]]]}},{"type":"Feature","properties":{"k":"PPH","s":2.246},"geometry":{"type":"Polygon","coordinates":[[[2.70792,50.17593],[2.70712,50.17576],[2.70679,50.17653],[2.70854,50.17708],[2.70949,50.17704],[2.70996,50.17625],[2.70868,50.17588],[2.70792,50.17593]]]}},{"type":"Feature","properties":{"k":"PPH","s":0.267},"geometry":{"type":"Polygon","coordinates":[[[2.7099,50.17566],[2.70889,50.17586],[2.70988,50.17623],[2.71012,50.17564],[2.7099,50.17566]]]}},{"type":"Feature","properties":{"k":"PPH","s":0.399},"geometry":{"type":"Polygon","coordinates":[[[2.71423,50.17697],[2.71463,50.17608],[2.71448,50.17602],[2.71414,50.17603],[2.71365,50.17685],[2.71423,50.17697]]]}},{"type":"Feature","properties":{"k":"PPH","s":0.078},"geometry":{"type":"Polygon","coordinates":[[[2.71478,50.17712],[2.71647,50.17709],[2.71484,50.17706],[2.71478,50.17712]]]}},{"type":"Feature","properties":{"k":"BTH","s":5.013},"geometry":{"type":"Polygon","coordinates":[[[2.71146,50.18602],[2.71133,50.18621],[2.71716,50.18677],[2.7175,50.18567],[2.71218,50.18515],[2.71169,50.18607],[2.71146,50.18602]]]}},{"type":"Feature","properties":{"k":"MIS","s":0.094},"geometry":{"type":"Polygon","coordinates":[[[2.71204,50.18512],[2.71155,50.18587],[2.7117,50.1859],[2.71218,50.18515],[2.71204,50.18512]]]}},{"type":"Feature","properties":{"k":"BTH","s":2.3},"geometry":{"type":"Polygon","coordinates":[[[2.71104,50.18661],[2.71787,50.18727],[2.71797,50.18685],[2.71133,50.18621],[2.71104,50.18661]]]}},{"type":"Feature","properties":{"k":"PTC","s":2.455},"geometry":{"type":"Polygon","coordinates":[[[2.7108,50.18702],[2.71777,50.1877],[2.71787,50.18727],[2.71104,50.18661],[2.7108,50.18702]]]}},{"type":"Feature","properties":{"k":"ORP","s":1.348},"geometry":{"type":"Polygon","coordinates":[[[2.71061,50.18738],[2.71531,50.18783],[2.71539,50.18749],[2.7108,50.18702],[2.71061,50.18738]]]}},{"type":"Feature","properties":{"k":"LUZ","s":0.003},"geometry":{"type":"Polygon","coordinates":[[[2.71381,50.18805],[2.71454,50.18809],[2.71436,50.18807],[2.71381,50.18805]]]}},{"type":"Feature","properties":{"k":"BTH","s":1.266},"geometry":{"type":"Polygon","coordinates":[[[2.7105,50.18767],[2.71103,50.18778],[2.71524,50.18808],[2.71531,50.18783],[2.71061,50.18738],[2.7105,50.18767]]]}},{"type":"Feature","properties":{"k":"MIS","s":0.837},"geometry":{"type":"Polygon","coordinates":[[[2.70529,50.17597],[2.70678,50.17654],[2.70712,50.17576],[2.70538,50.1757],[2.70529,50.17597]]]}},{"type":"Feature","properties":{"k":"BTH","s":4.164},"geometry":{"type":"Polygon","coordinates":[[[2.70806,50.18458],[2.70589,50.18366],[2.7041,50.18515],[2.70547,50.18586],[2.70649,50.18613],[2.70719,50.18574],[2.70716,50.18521],[2.7075,50.18506],[2.70751,50.18506],[2.70806,50.18458]]]}},{"type":"Feature","properties":{"k":"PTC","s":5.141},"geometry":{"type":"Polygon","coordinates":[[[2.70496,50.18227],[2.71182,50.18514],[2.71227,50.1844],[2.70571,50.18164],[2.70496,50.18227]]]}},{"type":"Feature","properties":{"k":"BTN","s":6.111},"geometry":{"type":"Polygon","coordinates":[[[2.70658,50.18079],[2.70573,50.18165],[2.71227,50.1844],[2.71291,50.18348],[2.70658,50.18079]]]}},{"type":"Feature","properties":{"k":"PTR","s":0.395},"geometry":{"type":"Polygon","coordinates":[[[2.71159,50.17833],[2.71195,50.17797],[2.71113,50.17762],[2.71048,50.17784],[2.71159,50.17833]]]}},{"type":"Feature","properties":{"k":"PPH","s":4.43},"geometry":{"type":"Polygon","coordinates":[[[2.71439,50.1771],[2.71318,50.17675],[2.71052,50.17947],[2.71193,50.18006],[2.71483,50.17707],[2.71439,50.1771]]]}},{"type":"Feature","properties":{"k":"BTH","s":6.959},"geometry":{"type":"Polygon","coordinates":[[[2.71393,50.18211],[2.71438,50.18165],[2.71106,50.18022],[2.71127,50.18],[2.7146,50.18143],[2.71479,50.18127],[2.71052,50.17947],[2.71159,50.17833],[2.71048,50.17784],[2.70922,50.17834],[2.70769,50.17945],[2.71393,50.18211]]]}},{"type":"Feature","properties":{"k":"BTH","s":4.594},"geometry":{"type":"Polygon","coordinates":[[[2.70681,50.18036],[2.70949,50.18149],[2.70996,50.18104],[2.71352,50.18256],[2.71393,50.18211],[2.70781,50.1795],[2.70724,50.17975],[2.70681,50.18036]]]}},{"type":"Feature","properties":{"k":"BTH","s":2.73},"geometry":{"type":"Polygon","coordinates":[[[2.70949,50.18149],[2.70681,50.18036],[2.70658,50.18079],[2.71291,50.18348],[2.71318,50.18305],[2.70949,50.18149]]]}},{"type":"Feature","properties":{"k":"ORP","s":1.817},"geometry":{"type":"Polygon","coordinates":[[[2.70949,50.18149],[2.713,50.18298],[2.71314,50.18279],[2.71332,50.18285],[2.71352,50.18256],[2.70996,50.18104],[2.70949,50.18149]]]}},{"type":"Feature","properties":{"k":"ORH","s":0.823},"geometry":{"type":"Polygon","coordinates":[[[2.71127,50.18],[2.71106,50.18022],[2.71438,50.18165],[2.7146,50.18143],[2.71127,50.18]]]}},{"type":"Feature","properties":{"k":"BTH","s":2.692},"geometry":{"type":"Polygon","coordinates":[[[2.71322,50.18044],[2.71491,50.18115],[2.71556,50.18063],[2.71534,50.18053],[2.71575,50.18],[2.71606,50.18012],[2.71645,50.17977],[2.71458,50.17903],[2.71322,50.18044]]]}},{"type":"Feature","properties":{"k":"PPH","s":3.726},"geometry":{"type":"Polygon","coordinates":[[[2.71426,50.17767],[2.71192,50.18007],[2.71479,50.18127],[2.71491,50.18115],[2.71322,50.18044],[2.71578,50.17764],[2.71426,50.17767]]]}},{"type":"Feature","properties":{"k":"BTH","s":4.037},"geometry":{"type":"Polygon","coordinates":[[[2.71341,50.18301],[2.72158,50.18381],[2.72169,50.1832],[2.71388,50.18242],[2.71341,50.18301]]]}},{"type":"Feature","properties":{"k":"CZH","s":4.988},"geometry":{"type":"Polygon","coordinates":[[[2.713,50.1837],[2.72142,50.18455],[2.72158,50.18381],[2.71344,50.18301],[2.713,50.1837]]]}},{"type":"Feature","properties":{"k":"MDI","s":0.653},"geometry":{"type":"Polygon","coordinates":[[[2.71426,50.17767],[2.71587,50.17769],[2.71641,50.17715],[2.71478,50.17712],[2.71426,50.17767]]]}},{"type":"Feature","properties":{"k":"PPH","s":2.342},"geometry":{"type":"Polygon","coordinates":[[[2.69681,50.17684],[2.69916,50.17664],[2.70017,50.17505],[2.69993,50.17503],[2.69932,50.17565],[2.69872,50.17596],[2.69724,50.17616],[2.69554,50.17606],[2.69526,50.17648],[2.69681,50.17684]]]}},{"type":"Feature","properties":{"k":"MIS","s":0.006},"geometry":{"type":"Polygon","coordinates":[[[2.7006,50.17465],[2.70003,50.17496],[2.70007,50.17496],[2.7006,50.17465]]]}},{"type":"Feature","properties":{"k":"BTH","s":0.001},"geometry":{"type":"Polygon","coordinates":[[[2.70125,50.17449],[2.70107,50.17445],[2.70124,50.1745],[2.70125,50.17449]]]}},{"type":"Feature","properties":{"k":"BTN","s":3.064},"geometry":{"type":"Polygon","coordinates":[[[2.70135,50.17517],[2.69994,50.17733],[2.70094,50.17709],[2.70423,50.17578],[2.70135,50.17517]]]}},{"type":"Feature","properties":{"k":"MIS","s":1.224},"geometry":{"type":"Polygon","coordinates":[[[2.70991,50.17798],[2.70718,50.17718],[2.70669,50.17766],[2.70906,50.17833],[2.70991,50.17798]]]}},{"type":"Feature","properties":{"k":"ORH","s":1.638},"geometry":{"type":"Polygon","coordinates":[[[2.70993,50.17798],[2.71108,50.17757],[2.71007,50.17715],[2.70869,50.17711],[2.70754,50.17679],[2.70717,50.17718],[2.70993,50.17798]]]}},{"type":"Feature","properties":{"k":"BTN","s":3.554},"geometry":{"type":"Polygon","coordinates":[[[2.70583,50.17645],[2.70596,50.17631],[2.70477,50.17578],[2.70247,50.17657],[2.70661,50.17772],[2.70741,50.17691],[2.70583,50.17645]]]}},{"type":"Feature","properties":{"k":"PPH","s":1.076},"geometry":{"type":"MultiPolygon","coordinates":[[[[2.71715,50.1793],[2.71514,50.17844],[2.71458,50.17903],[2.71642,50.17975],[2.71533,50.1793],[2.71546,50.17916],[2.71673,50.17968],[2.71715,50.1793]]],[[[2.71657,50.17981],[2.71666,50.17972],[2.71642,50.17975],[2.71657,50.17981]]]]}},{"type":"Feature","properties":{"k":"ORH","s":2.159},"geometry":{"type":"Polygon","coordinates":[[[2.70576,50.17843],[2.70628,50.17798],[2.70196,50.17676],[2.70107,50.17712],[2.70576,50.17843]]]}},{"type":"Feature","properties":{"k":"PPH","s":0.585},"geometry":{"type":"Polygon","coordinates":[[[2.70579,50.17554],[2.70178,50.17462],[2.70388,50.17515],[2.70365,50.17562],[2.70418,50.17571],[2.70579,50.17554]]]}},{"type":"Feature","properties":{"k":"MIS","s":1.387},"geometry":{"type":"Polygon","coordinates":[[[2.70365,50.17562],[2.70389,50.17516],[2.70101,50.17446],[2.7001,50.17497],[2.70117,50.17507],[2.70365,50.17562]]]}},{"type":"Feature","properties":{"k":"PPH","s":0.992},"geometry":{"type":"Polygon","coordinates":[[[2.71121,50.1776],[2.71199,50.17795],[2.71318,50.17675],[2.71228,50.17649],[2.71121,50.1776]]]}},{"type":"Feature","properties":{"k":"CZH","s":7.349},"geometry":{"type":"Polygon","coordinates":[[[2.72559,50.18497],[2.71298,50.18374],[2.71253,50.18442],[2.72524,50.18571],[2.72559,50.18497]]]}},{"type":"Feature","properties":{"k":"ORH","s":0.302},"geometry":{"type":"Polygon","coordinates":[[[2.70628,50.17799],[2.70637,50.17791],[2.70207,50.17671],[2.70195,50.17677],[2.70628,50.17799]]]}},{"type":"Feature","properties":{"k":"PPH","s":0.733},"geometry":{"type":"Polygon","coordinates":[[[2.70949,50.17704],[2.71018,50.17714],[2.71115,50.17754],[2.71174,50.17701],[2.70967,50.17668],[2.70949,50.17704]]]}},{"type":"Feature","properties":{"k":"BTH","s":2.748},"geometry":{"type":"Polygon","coordinates":[[[2.70908,50.17836],[2.70246,50.17657],[2.7021,50.17671],[2.70636,50.17791],[2.70576,50.17844],[2.70804,50.1791],[2.70908,50.17836]]]}},{"type":"Feature","properties":{"k":"BTN","s":1.742},"geometry":{"type":"Polygon","coordinates":[[[2.72241,50.18083],[2.72632,50.18286],[2.72637,50.18287],[2.72632,50.18217],[2.72608,50.18196],[2.72339,50.18024],[2.72241,50.18083]],[[2.72245,50.18083],[2.72275,50.18066],[2.72608,50.18242],[2.72613,50.18275],[2.72245,50.18083]]]}},{"type":"Feature","properties":{"k":"BTA","s":0.113},"geometry":{"type":"Polygon","coordinates":[[[2.72621,50.18299],[2.72626,50.18298],[2.7225,50.18095],[2.72621,50.18299]]]}},{"type":"Feature","properties":{"k":"BTA","s":0.117},"geometry":{"type":"Polygon","coordinates":[[[2.72623,50.18285],[2.72632,50.18286],[2.72253,50.18089],[2.72623,50.18285]]]}},{"type":"Feature","properties":{"k":"BTN","s":0.866},"geometry":{"type":"Polygon","coordinates":[[[2.72245,50.18083],[2.72613,50.18275],[2.72608,50.18242],[2.72275,50.18066],[2.72245,50.18083]]]}},{"type":"Feature","properties":{"k":"ORH","s":6.066},"geometry":{"type":"Polygon","coordinates":[[[2.72625,50.18329],[2.72635,50.18302],[2.72248,50.18098],[2.72209,50.1816],[2.72142,50.18455],[2.72335,50.18472],[2.72442,50.18216],[2.72625,50.18329]]]}},{"type":"Feature","properties":{"k":"BDH","s":3.896},"geometry":{"type":"Polygon","coordinates":[[[2.72589,50.18299],[2.72442,50.18216],[2.72335,50.18472],[2.72562,50.18492],[2.7262,50.18344],[2.72589,50.18299]]]}},{"type":"Feature","properties":{"k":"BTN","s":1.138},"geometry":{"type":"Polygon","coordinates":[[[2.72726,50.1848],[2.72602,50.18423],[2.72542,50.18594],[2.72907,50.18376],[2.72726,50.1848]]]}},{"type":"Feature","properties":{"k":"BTA","s":0.074},"geometry":{"type":"Polygon","coordinates":[[[2.72716,50.1835],[2.72784,50.18307],[2.72715,50.18343],[2.72647,50.18301],[2.72716,50.1835]]]}},{"type":"Feature","properties":{"k":"BTH","s":1.841},"geometry":{"type":"Polygon","coordinates":[[[2.72726,50.1848],[2.72897,50.1837],[2.7278,50.18313],[2.72602,50.18423],[2.72726,50.1848]]]}},{"type":"Feature","properties":{"k":"MIS","s":0.356},"geometry":{"type":"Polygon","coordinates":[[[2.72642,50.18319],[2.72602,50.18423],[2.72707,50.18358],[2.72642,50.18319]]]}},{"type":"Feature","properties":{"k":"BTA","s":0.039},"geometry":{"type":"Polygon","coordinates":[[[2.72677,50.18331],[2.72645,50.18312],[2.72642,50.18319],[2.72714,50.18353],[2.72677,50.18331]]]}},{"type":"Feature","properties":{"k":"MIS","s":0.577},"geometry":{"type":"Polygon","coordinates":[[[2.72715,50.18343],[2.72776,50.18303],[2.72649,50.18231],[2.72647,50.18301],[2.72715,50.18343]]]}},{"type":"Feature","properties":{"k":"PHF","s":0.0},"geometry":{"type":"Polygon","coordinates":[[[2.7317,50.18272],[2.73179,50.18278],[2.73171,50.18271],[2.7317,50.18272]]]}},{"type":"Feature","properties":{"k":"PTC","s":2.052},"geometry":{"type":"Polygon","coordinates":[[[2.72108,50.18819],[2.72358,50.18848],[2.72379,50.18827],[2.71539,50.18749],[2.71527,50.18798],[2.72108,50.18819]]]}},{"type":"Feature","properties":{"k":"LUZ","s":0.61},"geometry":{"type":"Polygon","coordinates":[[[2.72358,50.18848],[2.72108,50.18819],[2.71527,50.18798],[2.71524,50.18808],[2.72358,50.18848]]]}},{"type":"Feature","properties":{"k":"BTH","s":2.05},"geometry":{"type":"Polygon","coordinates":[[[2.71786,50.18729],[2.72429,50.18782],[2.72461,50.18751],[2.71797,50.18685],[2.71786,50.18729]]]}},{"type":"Feature","properties":{"k":"PTC","s":2.28},"geometry":{"type":"Polygon","coordinates":[[[2.71777,50.1877],[2.72379,50.18827],[2.72429,50.18782],[2.71786,50.18729],[2.71777,50.1877]]]}},{"type":"Feature","properties":{"k":"MIS","s":7.013},"geometry":{"type":"Polygon","coordinates":[[[2.7254,50.18669],[2.72532,50.18643],[2.7175,50.18567],[2.71715,50.18677],[2.72461,50.18751],[2.7254,50.18669]]]}},{"type":"Feature","properties":{"k":"BTH","s":0.005},"geometry":{"type":"MultiPolygon","coordinates":[[[[2.67915,50.17546],[2.67818,50.17579],[2.67823,50.17579],[2.67915,50.17546]]]]}},{"type":"Feature","properties":{"k":"BTH","s":0.038},"geometry":{"type":"Polygon","coordinates":[[[2.67943,50.17773],[2.67823,50.17579],[2.67819,50.1758],[2.67943,50.17773]]]}},{"type":"Feature","properties":{"k":"BTH","s":5.493},"geometry":{"type":"Polygon","coordinates":[[[2.67976,50.17825],[2.6821,50.17753],[2.68043,50.17503],[2.67824,50.17579],[2.67976,50.17825]]]}},{"type":"Feature","properties":{"k":"BTH","s":1.893},"geometry":{"type":"Polygon","coordinates":[[[2.68349,50.17679],[2.68044,50.17503],[2.6821,50.17753],[2.68349,50.17679]]]}},{"type":"Feature","properties":{"k":"BTH","s":0.53},"geometry":{"type":"Polygon","coordinates":[[[2.68304,50.17838],[2.68223,50.17753],[2.68165,50.17778],[2.68292,50.17881],[2.68304,50.17838]]]}},{"type":"Feature","properties":{"k":"BTH","s":2.041},"geometry":{"type":"Polygon","coordinates":[[[2.6852,50.17666],[2.68453,50.17608],[2.68367,50.17678],[2.68223,50.17753],[2.68308,50.17836],[2.6852,50.17666]]]}},{"type":"Feature","properties":{"k":"BTN","s":5.908},"geometry":{"type":"Polygon","coordinates":[[[2.68279,50.17628],[2.68546,50.17327],[2.68286,50.17301],[2.68089,50.17521],[2.68279,50.17628]]]}},{"type":"Feature","properties":{"k":"BTH","s":1.411},"geometry":{"type":"Polygon","coordinates":[[[2.68317,50.17654],[2.68595,50.17333],[2.68549,50.17326],[2.68279,50.17628],[2.68317,50.17654]]]}},{"type":"Feature","properties":{"k":"BTH","s":2.762},"geometry":{"type":"Polygon","coordinates":[[[2.70107,50.17713],[2.70018,50.17737],[2.70747,50.17943],[2.70804,50.1791],[2.70107,50.17713]]]}},{"type":"Feature","properties":{"k":"BTH","s":1.693},"geometry":{"type":"Polygon","coordinates":[[[2.70734,50.17962],[2.70755,50.17945],[2.70018,50.17737],[2.69983,50.17791],[2.70083,50.17818],[2.70105,50.17783],[2.70734,50.17962]]]}},{"type":"Feature","properties":{"k":"BTH","s":1.463},"geometry":{"type":"Polygon","coordinates":[[[2.70704,50.17983],[2.70734,50.17962],[2.70105,50.17783],[2.70087,50.17808],[2.70704,50.17983]]]}},{"type":"Feature","properties":{"k":"BTH","s":3.709},"geometry":{"type":"Polygon","coordinates":[[[2.69871,50.18],[2.70532,50.18189],[2.70594,50.18138],[2.69892,50.17939],[2.69864,50.17982],[2.69871,50.18]]]}},{"type":"Feature","properties":{"k":"BTH","s":6.284},"geometry":{"type":"Polygon","coordinates":[[[2.70529,50.1819],[2.69855,50.17998],[2.69824,50.18049],[2.699,50.181],[2.69877,50.18132],[2.70415,50.18289],[2.70529,50.1819]]]}},{"type":"Feature","properties":{"k":"BTH","s":3.716},"geometry":{"type":"Polygon","coordinates":[[[2.69911,50.17893],[2.70005,50.17736],[2.69809,50.17765],[2.69684,50.17983],[2.69819,50.18047],[2.69911,50.17893]]]}},{"type":"Feature","properties":{"k":"BTN","s":6.739},"geometry":{"type":"Polygon","coordinates":[[[2.69951,50.1784],[2.69892,50.17939],[2.70594,50.18138],[2.70667,50.18041],[2.69951,50.1784]]]}},{"type":"Feature","properties":{"k":"MIS","s":3.754},"geometry":{"type":"Polygon","coordinates":[[[2.70669,50.1804],[2.70706,50.17984],[2.70089,50.17808],[2.70083,50.17818],[2.69982,50.1779],[2.69951,50.1784],[2.70669,50.1804]]]}},{"type":"Feature","properties":{"k":"PHF","s":7.605},"geometry":{"type":"Polygon","coordinates":[[[2.72491,50.1864],[2.72533,50.18643],[2.72524,50.18571],[2.71253,50.18442],[2.71204,50.18513],[2.72491,50.1864]]]}},{"type":"Feature","properties":{"k":"PPH","s":0.094},"geometry":{"type":"Polygon","coordinates":[[[2.72977,50.17728],[2.72939,50.17867],[2.72957,50.17862],[2.72977,50.17728]]]}},{"type":"Feature","properties":{"k":"LUZ","s":0.002},"geometry":{"type":"Polygon","coordinates":[[[2.73016,50.17934],[2.73017,50.17934],[2.72997,50.17915],[2.73016,50.17934]]]}},{"type":"Feature","properties":{"k":"LUZ","s":0.002},"geometry":{"type":"Polygon","coordinates":[[[2.73035,50.1795],[2.73016,50.17934],[2.73033,50.1795],[2.73035,50.1795]]]}},{"type":"Feature","properties":{"k":"PPH","s":0.01},"geometry":{"type":"Polygon","coordinates":[[[2.73089,50.18002],[2.73091,50.18001],[2.73035,50.1795],[2.73089,50.18002]]]}},{"type":"Feature","properties":{"k":"CZH","s":7.789},"geometry":{"type":"Polygon","coordinates":[[[2.73128,50.18243],[2.73285,50.18351],[2.73515,50.1816],[2.73387,50.18023],[2.73179,50.18087],[2.72865,50.18338],[2.72919,50.18368],[2.73128,50.18243]]]}},{"type":"Feature","properties":{"k":"BTH","s":1.728},"geometry":{"type":"Polygon","coordinates":[[[2.72992,50.18021],[2.73116,50.18138],[2.73179,50.18087],[2.72995,50.17915],[2.72904,50.17935],[2.72992,50.18021]]]}},{"type":"Feature","properties":{"k":"BTH","s":2.509},"geometry":{"type":"Polygon","coordinates":[[[2.72744,50.17908],[2.73049,50.18193],[2.73116,50.18138],[2.72904,50.17935],[2.72744,50.17908]]]}},{"type":"Feature","properties":{"k":"BTH","s":4.191},"geometry":{"type":"Polygon","coordinates":[[[2.72865,50.18338],[2.7297,50.18256],[2.72907,50.18163],[2.72695,50.18008],[2.72698,50.18069],[2.72649,50.18211],[2.72865,50.18338]]]}},{"type":"Feature","properties":{"k":"BTH","s":0.041},"geometry":{"type":"MultiPolygon","coordinates":[[[[2.68072,50.17258],[2.68089,50.17263],[2.6803,50.17233],[2.68072,50.17258]]],[[[2.68286,50.17296],[2.68463,50.17313],[2.68179,50.17283],[2.68286,50.17296]]],[[[2.6889,50.17438],[2.68812,50.17401],[2.68888,50.17439],[2.6889,50.17438]]]]}},{"type":"Feature","properties":{"k":"BTN","s":3.123},"geometry":{"type":"Polygon","coordinates":[[[2.68286,50.17298],[2.68111,50.17273],[2.67955,50.17446],[2.68089,50.17521],[2.68286,50.17298]]]}},{"type":"Feature","properties":{"k":"BTN","s":1.479},"geometry":{"type":"Polygon","coordinates":[[[2.68111,50.17273],[2.68026,50.17237],[2.67886,50.17407],[2.67955,50.17446],[2.68111,50.17273]]]}},{"type":"Feature","properties":{"k":"PPH","s":7.735},"geometry":{"type":"Polygon","coordinates":[[[2.722,50.17849],[2.72222,50.17858],[2.72179,50.17896],[2.72195,50.17905],[2.72232,50.17876],[2.72263,50.17895],[2.72309,50.17858],[2.72435,50.17913],[2.72398,50.17941],[2.72364,50.1793],[2.723,50.17988],[2.72642,50.18209],[2.72687,50.18027],[2.72383,50.17722],[2.72317,50.17789],[2.72288,50.17773],[2.722,50.17849]]]}},{"type":"Feature","properties":{"k":"JAC","s":0.031},"geometry":{"type":"Polygon","coordinates":[[[2.72687,50.18025],[2.72663,50.17981],[2.72654,50.17988],[2.72687,50.18025]]]}},{"type":"Feature","properties":{"k":"PPH","s":11.775},"geometry":{"type":"Polygon","coordinates":[[[2.71907,50.17898],[2.71854,50.17956],[2.7176,50.17916],[2.71542,50.18091],[2.71631,50.18132],[2.7159,50.18161],[2.7151,50.18124],[2.71447,50.18184],[2.72186,50.1826],[2.72212,50.18146],[2.72073,50.18057],[2.71962,50.18009],[2.72007,50.17965],[2.71907,50.17898]],[[2.71486,50.18178],[2.71492,50.1815],[2.71528,50.18153],[2.71522,50.18182],[2.71486,50.18178]]]}},{"type":"Feature","properties":{"k":"PPH","s":1.331},"geometry":{"type":"Polygon","coordinates":[[[2.7225,50.18095],[2.72012,50.17962],[2.71962,50.18009],[2.72073,50.18057],[2.72212,50.18146],[2.72209,50.1816],[2.7225,50.18095]]]}},{"type":"Feature","properties":{"k":"PPH","s":1.953},"geometry":{"type":"Polygon","coordinates":[[[2.72219,50.17936],[2.72137,50.17995],[2.72114,50.17983],[2.72198,50.17922],[2.72154,50.17895],[2.72076,50.17958],[2.72041,50.17939],[2.72018,50.17963],[2.72249,50.18087],[2.7234,50.18024],[2.72219,50.17936]]]}},{"type":"Feature","properties":{"k":"PPH","s":0.138},"geometry":{"type":"Polygon","coordinates":[[[2.71946,50.17885],[2.71927,50.17907],[2.71973,50.17933],[2.71997,50.17916],[2.71946,50.17885]]]}},{"type":"Feature","properties":{"k":"PPH","s":0.294},"geometry":{"type":"Polygon","coordinates":[[[2.72263,50.17754],[2.72169,50.17834],[2.722,50.17849],[2.72284,50.17771],[2.72263,50.17754]]]}},{"type":"Feature","properties":{"k":"BTH","s":5.055},"geometry":{"type":"Polygon","coordinates":[[[2.70494,50.18226],[2.70426,50.18287],[2.71131,50.18588],[2.7118,50.18516],[2.70494,50.18226]]]}},{"type":"Feature","properties":{"k":"BTH","s":3.133},"geometry":{"type":"Polygon","coordinates":[[[2.70262,50.18449],[2.70253,50.18457],[2.7041,50.18515],[2.70589,50.18366],[2.70417,50.18298],[2.70244,50.1844],[2.70262,50.18448],[2.70233,50.18449],[2.70262,50.18449]]]}},{"type":"Feature","properties":{"k":"PPH","s":1.46},"geometry":{"type":"Polygon","coordinates":[[[2.72263,50.17754],[2.72317,50.17789],[2.72383,50.17722],[2.72247,50.17647],[2.72102,50.1775],[2.72115,50.17759],[2.72099,50.17771],[2.72127,50.17787],[2.72282,50.17674],[2.72309,50.17692],[2.72162,50.17814],[2.72182,50.17824],[2.72263,50.17754]]]}},{"type":"Feature","properties":{"k":"BTH","s":5.045},"geometry":{"type":"Polygon","coordinates":[[[2.70415,50.18289],[2.69877,50.18132],[2.69847,50.18166],[2.69979,50.18295],[2.70294,50.18392],[2.70415,50.18289]]]}},{"type":"Feature","properties":{"k":"BTH","s":1.069},"geometry":{"type":"Polygon","coordinates":[[[2.70123,50.18402],[2.70229,50.18447],[2.70294,50.18392],[2.69979,50.18295],[2.70123,50.18402]]]}},{"type":"Feature","properties":{"k":"PPH","s":0.227},"geometry":{"type":"Polygon","coordinates":[[[2.71692,50.17804],[2.71777,50.17849],[2.71799,50.178],[2.71692,50.17804]]]}},{"type":"Feature","properties":{"k":"PPH","s":2.379},"geometry":{"type":"Polygon","coordinates":[[[2.71516,50.17845],[2.71717,50.1793],[2.71775,50.17852],[2.71687,50.17805],[2.7174,50.17747],[2.71709,50.17719],[2.71648,50.17709],[2.71516,50.17845]]]}},{"type":"Feature","properties":{"k":"BTN","s":0.354},"geometry":{"type":"Polygon","coordinates":[[[2.71462,50.18188],[2.71445,50.18187],[2.71409,50.18224],[2.72176,50.18295],[2.7143,50.18222],[2.71462,50.18188]]]}},{"type":"Feature","properties":{"k":"BTN","s":1.21},"geometry":{"type":"Polygon","coordinates":[[[2.71392,50.18242],[2.72169,50.1832],[2.72175,50.183],[2.71409,50.18224],[2.71392,50.18242]]]}},{"type":"Feature","properties":{"k":"BTH","s":0.397},"geometry":{"type":"Polygon","coordinates":[[[2.70876,50.18486],[2.70808,50.18457],[2.70753,50.18505],[2.70809,50.18542],[2.70876,50.18486]]]}},{"type":"Feature","properties":{"k":"PPH","s":0.268},"geometry":{"type":"Polygon","coordinates":[[[2.72004,50.17912],[2.72073,50.17848],[2.72036,50.17827],[2.71973,50.17897],[2.72004,50.17912]]]}},{"type":"Feature","properties":{"k":"PPH","s":0.512},"geometry":{"type":"Polygon","coordinates":[[[2.71942,50.17656],[2.71906,50.17615],[2.71786,50.17672],[2.71841,50.17704],[2.71942,50.17656]]]}},{"type":"Feature","properties":{"k":"CZH","s":2.813},"geometry":{"type":"Polygon","coordinates":[[[2.70862,50.18602],[2.70855,50.18618],[2.7105,50.18703],[2.7113,50.18597],[2.70875,50.18486],[2.70813,50.18539],[2.70862,50.18602]]]}},{"type":"Feature","properties":{"k":"BTH","s":2.15},"geometry":{"type":"Polygon","coordinates":[[[2.71462,50.18188],[2.7143,50.18222],[2.72176,50.18295],[2.72186,50.1826],[2.71462,50.18188]]]}},{"type":"Feature","properties":{"k":"BTH","s":9.896},"geometry":{"type":"Polygon","coordinates":[[[2.72123,50.17561],[2.72113,50.17576],[2.72392,50.17727],[2.72654,50.17988],[2.72699,50.17777],[2.72767,50.17694],[2.72366,50.17498],[2.72204,50.17525],[2.72207,50.1756],[2.72123,50.17561]]]}},{"type":"Feature","properties":{"k":"PPH","s":0.287},"geometry":{"type":"Polygon","coordinates":[[[2.72284,50.17502],[2.72346,50.17488],[2.72281,50.17442],[2.72226,50.1746],[2.72284,50.17502]]]}},{"type":"Feature","properties":{"k":"PPH","s":0.001},"geometry":{"type":"Polygon","coordinates":[[[2.72858,50.17673],[2.72841,50.17674],[2.72837,50.17676],[2.72858,50.17673]]]}},{"type":"Feature","properties":{"k":"PPH","s":3.973},"geometry":{"type":"Polygon","coordinates":[[[2.72909,50.17934],[2.72997,50.17915],[2.72957,50.17868],[2.72938,50.17871],[2.72986,50.17667],[2.72807,50.17689],[2.72896,50.17777],[2.72859,50.17819],[2.72767,50.17716],[2.72707,50.17802],[2.72703,50.17888],[2.72909,50.17934]]]}}]}