{"type":"FeatureCollection","features":[{"type":"Feature","properties":{"k":"ORP","s":2.415},"geometry":{"type":"Polygon","coordinates":[[[1.63449,50.70403],[1.63459,50.70445],[1.63601,50.70609],[1.6366,50.70636],[1.6375,50.70635],[1.63718,50.70619],[1.6376,50.70585],[1.63587,50.70506],[1.63622,50.70478],[1.63481,50.70356],[1.63449,50.70403]]]}},{"type":"Feature","properties":{"k":"PPH","s":0.119},"geometry":{"type":"Polygon","coordinates":[[[1.63431,50.70341],[1.63449,50.70403],[1.63481,50.70356],[1.63431,50.70341]]]}},{"type":"Feature","properties":{"k":"PPH","s":7.647},"geometry":{"type":"Polygon","coordinates":[[[1.63632,50.70181],[1.63676,50.70139],[1.63727,50.70121],[1.6392,50.70198],[1.63924,50.70175],[1.63674,50.70081],[1.63415,50.70312],[1.6343,50.70337],[1.63498,50.70365],[1.63557,50.70326],[1.63846,50.70508],[1.63974,50.70441],[1.6393,50.70412],[1.63973,50.7037],[1.63632,50.70181]]]}},{"type":"Feature","properties":{"k":"BTH","s":1.986},"geometry":{"type":"Polygon","coordinates":[[[1.63918,50.70197],[1.63727,50.70121],[1.63676,50.70139],[1.63632,50.70181],[1.63842,50.70297],[1.63918,50.70197]]]}},{"type":"Feature","properties":{"k":"PPH","s":14.869},"geometry":{"type":"Polygon","coordinates":[[[1.63721,50.6985],[1.6365,50.69905],[1.6335,50.69829],[1.63289,50.69916],[1.63308,50.70028],[1.63295,50.70255],[1.63347,50.7026],[1.63413,50.7031],[1.63673,50.70076],[1.63922,50.7017],[1.63957,50.7008],[1.6403,50.70108],[1.64051,50.70067],[1.63974,50.70055],[1.63825,50.70002],[1.639,50.69889],[1.63757,50.69857],[1.63848,50.69901],[1.6378,50.69932],[1.63721,50.6985]]]}},{"type":"Feature","properties":{"k":"JAC","s":0.33},"geometry":{"type":"Polygon","coordinates":[[[1.64066,50.69883],[1.64038,50.69876],[1.63981,50.69882],[1.63943,50.69897],[1.63399,50.69765],[1.63394,50.69771],[1.63944,50.69901],[1.64037,50.6988],[1.6412,50.69927],[1.64066,50.69883]]]}},{"type":"Feature","properties":{"k":"JAC","s":0.047},"geometry":{"type":"Polygon","coordinates":[[[1.63855,50.6987],[1.63882,50.6987],[1.63765,50.69846],[1.63855,50.6987]]]}},{"type":"Feature","properties":{"k":"PTR","s":0.386},"geometry":{"type":"Polygon","coordinates":[[[1.63804,50.69804],[1.63765,50.69846],[1.63882,50.6987],[1.63901,50.69843],[1.63804,50.69804]]]}},{"type":"Feature","properties":{"k":"PPH","s":2.175},"geometry":{"type":"Polygon","coordinates":[[[1.63706,50.69779],[1.63731,50.6976],[1.63557,50.69729],[1.63585,50.69691],[1.63546,50.69671],[1.63553,50.6964],[1.6348,50.69611],[1.63475,50.69663],[1.63444,50.69709],[1.63466,50.69741],[1.63451,50.69765],[1.63747,50.69838],[1.63706,50.69779]]]}},{"type":"Feature","properties":{"k":"PPH","s":0.137},"geometry":{"type":"Polygon","coordinates":[[[1.63682,50.69833],[1.63745,50.69846],[1.63451,50.69765],[1.63682,50.69833]]]}},{"type":"Feature","properties":{"k":"ORH","s":1.724},"geometry":{"type":"Polygon","coordinates":[[[1.6365,50.69905],[1.63721,50.6985],[1.63394,50.69771],[1.63355,50.69824],[1.6365,50.69905]]]}},{"type":"Feature","properties":{"k":"PPH","s":0.0},"geometry":{"type":"Polygon","coordinates":[[[1.6329,50.70019],[1.63291,50.70027],[1.63291,50.70022],[1.6329,50.70019]]]}},{"type":"Feature","properties":{"k":"PTR","s":3.192},"geometry":{"type":"Polygon","coordinates":[[[1.64138,50.69521],[1.64097,50.69588],[1.64154,50.69637],[1.64173,50.69617],[1.64196,50.69626],[1.64178,50.69657],[1.64214,50.69667],[1.64231,50.69665],[1.64294,50.69528],[1.64255,50.69514],[1.64325,50.69378],[1.64274,50.69338],[1.64179,50.6937],[1.64138,50.69521]],[[1.64206,50.69599],[1.64211,50.69593],[1.6422,50.69597],[1.64206,50.69599]]]}},{"type":"Feature","properties":{"k":"BTH","s":4.623},"geometry":{"type":"Polygon","coordinates":[[[1.64564,50.69549],[1.64519,50.69519],[1.64609,50.69466],[1.64527,50.6943],[1.64371,50.69559],[1.64302,50.69537],[1.64234,50.69681],[1.6419,50.69696],[1.64146,50.69763],[1.64171,50.69772],[1.64156,50.69797],[1.64347,50.69837],[1.64371,50.69801],[1.64263,50.69743],[1.64564,50.69549]]]}},{"type":"Feature","properties":{"k":"TRE","s":1.912},"geometry":{"type":"Polygon","coordinates":[[[1.64373,50.69801],[1.64458,50.69813],[1.64516,50.69752],[1.64481,50.69719],[1.64503,50.69701],[1.64407,50.69647],[1.64269,50.69741],[1.64373,50.69801]]]}},{"type":"Feature","properties":{"k":"BOR","s":0.136},"geometry":{"type":"Polygon","coordinates":[[[1.64026,50.69867],[1.63941,50.69881],[1.63938,50.69848],[1.63921,50.69816],[1.63834,50.69746],[1.63914,50.69818],[1.63933,50.69885],[1.64067,50.6987],[1.64026,50.69867]]]}},{"type":"Feature","properties":{"k":"MIS","s":1.002},"geometry":{"type":"Polygon","coordinates":[[[1.63921,50.69816],[1.63941,50.69881],[1.64073,50.69872],[1.64099,50.69835],[1.63841,50.69749],[1.63921,50.69816]]]}},{"type":"Feature","properties":{"k":"PPH","s":0.304},"geometry":{"type":"Polygon","coordinates":[[[1.64115,50.699],[1.64139,50.69878],[1.6419,50.69881],[1.64201,50.69864],[1.64099,50.69835],[1.64074,50.6987],[1.64115,50.699]]]}},{"type":"Feature","properties":{"k":"BTA","s":0.097},"geometry":{"type":"Polygon","coordinates":[[[1.64113,50.69914],[1.64155,50.69883],[1.6419,50.69881],[1.64139,50.69878],[1.64115,50.699],[1.64069,50.69877],[1.64113,50.69914]]]}},{"type":"Feature","properties":{"k":"BTH","s":2.828},"geometry":{"type":"Polygon","coordinates":[[[1.63825,50.70002],[1.63974,50.70055],[1.64051,50.70067],[1.64118,50.69933],[1.64037,50.6988],[1.63944,50.69901],[1.639,50.69889],[1.63825,50.70002]]]}},{"type":"Feature","properties":{"k":"BTA","s":0.22},"geometry":{"type":"Polygon","coordinates":[[[1.642,50.69952],[1.64331,50.70038],[1.64494,50.70124],[1.64206,50.69948],[1.64182,50.69893],[1.64165,50.69892],[1.642,50.69952]]]}},{"type":"Feature","properties":{"k":"MIS","s":9.928},"geometry":{"type":"Polygon","coordinates":[[[1.64744,50.6972],[1.64501,50.69593],[1.64415,50.69651],[1.64505,50.69701],[1.64483,50.6972],[1.6452,50.69752],[1.64499,50.69779],[1.64661,50.69833],[1.64495,50.69961],[1.64878,50.70143],[1.64894,50.70104],[1.64851,50.70095],[1.64915,50.69955],[1.6483,50.69933],[1.64886,50.69822],[1.64744,50.6972]]]}},{"type":"Feature","properties":{"k":"MIS","s":4.183},"geometry":{"type":"Polygon","coordinates":[[[1.65127,50.69942],[1.65131,50.69971],[1.65247,50.69972],[1.65318,50.6995],[1.65299,50.69811],[1.65191,50.69822],[1.65191,50.69845],[1.64922,50.698],[1.64869,50.69882],[1.64892,50.69911],[1.65127,50.69942]]]}},{"type":"Feature","properties":{"k":"PPH","s":9.565},"geometry":{"type":"Polygon","coordinates":[[[1.64917,50.69953],[1.64932,50.69918],[1.64892,50.69911],[1.64869,50.69882],[1.64922,50.698],[1.65191,50.69845],[1.65143,50.69626],[1.65046,50.69597],[1.64918,50.69684],[1.64769,50.69627],[1.64705,50.69549],[1.64837,50.69492],[1.64807,50.69472],[1.64745,50.69484],[1.64738,50.6944],[1.64695,50.69413],[1.64519,50.69519],[1.64564,50.69549],[1.64496,50.69596],[1.64744,50.6972],[1.64886,50.69822],[1.6483,50.69931],[1.64917,50.69953]]]}},{"type":"Feature","properties":{"k":"PPH","s":0.067},"geometry":{"type":"Polygon","coordinates":[[[1.64958,50.69351],[1.64895,50.69346],[1.64934,50.6937],[1.64958,50.69351]]]}},{"type":"Feature","properties":{"k":"PPH","s":16.08},"geometry":{"type":"Polygon","coordinates":[[[1.65321,50.69487],[1.65159,50.69483],[1.64969,50.69364],[1.64939,50.69377],[1.6488,50.69344],[1.64829,50.69412],[1.64752,50.69453],[1.64747,50.69482],[1.64815,50.69472],[1.64843,50.69492],[1.64711,50.69556],[1.64769,50.69622],[1.64916,50.69679],[1.65044,50.69591],[1.65142,50.69623],[1.65444,50.6961],[1.65522,50.69683],[1.65696,50.6966],[1.65637,50.69611],[1.65726,50.69549],[1.65571,50.694],[1.65601,50.69362],[1.65687,50.69399],[1.65819,50.69291],[1.65734,50.69244],[1.65437,50.69452],[1.65321,50.69487]]]}},{"type":"Feature","properties":{"k":"PPH","s":3.876},"geometry":{"type":"Polygon","coordinates":[[[1.65531,50.69711],[1.65564,50.69776],[1.65749,50.69739],[1.65699,50.69662],[1.65518,50.69686],[1.65443,50.69614],[1.65148,50.69627],[1.65169,50.69719],[1.65432,50.69712],[1.65451,50.69727],[1.65531,50.69711]]]}},{"type":"Feature","properties":{"k":"PPH","s":1.057},"geometry":{"type":"Polygon","coordinates":[[[1.65601,50.69364],[1.65574,50.69399],[1.65679,50.69493],[1.65743,50.6947],[1.65809,50.69419],[1.65754,50.69399],[1.65733,50.69418],[1.65601,50.69364]]]}},{"type":"Feature","properties":{"k":"PPH","s":1.054},"geometry":{"type":"Polygon","coordinates":[[[1.65888,50.69448],[1.65969,50.69389],[1.65874,50.69354],[1.65816,50.69404],[1.65763,50.69381],[1.65813,50.69323],[1.65792,50.69312],[1.6569,50.69398],[1.65732,50.69413],[1.65756,50.69393],[1.65888,50.69448]]]}},{"type":"Feature","properties":{"k":"PPH","s":12.81},"geometry":{"type":"Polygon","coordinates":[[[1.6603,50.69219],[1.66121,50.69157],[1.66147,50.69114],[1.65992,50.69178],[1.66022,50.69208],[1.65974,50.69243],[1.6603,50.69323],[1.65976,50.69389],[1.65889,50.69452],[1.65813,50.69422],[1.65768,50.69464],[1.65682,50.69503],[1.65732,50.69552],[1.65644,50.69613],[1.65705,50.69663],[1.65805,50.69802],[1.65875,50.69794],[1.6607,50.69674],[1.6605,50.69613],[1.6609,50.69603],[1.6611,50.6964],[1.66205,50.6962],[1.66129,50.69462],[1.66173,50.69426],[1.6603,50.69219]]]}},{"type":"Feature","properties":{"k":"PPH","s":8.447},"geometry":{"type":"Polygon","coordinates":[[[1.66129,50.69462],[1.66189,50.69596],[1.66468,50.69589],[1.66486,50.69604],[1.66487,50.69744],[1.66532,50.69727],[1.6652,50.69682],[1.66567,50.69674],[1.66557,50.69647],[1.66594,50.6964],[1.66585,50.69622],[1.66626,50.69615],[1.6659,50.69443],[1.66391,50.69472],[1.66313,50.69285],[1.66254,50.69298],[1.66095,50.69297],[1.66173,50.69426],[1.66129,50.69462]]]}},{"type":"Feature","properties":{"k":"ORH","s":1.998},"geometry":{"type":"Polygon","coordinates":[[[1.66486,50.69604],[1.66468,50.69589],[1.66192,50.69596],[1.6624,50.69689],[1.6648,50.69674],[1.66486,50.69604]]]}},{"type":"Feature","properties":{"k":"MIS","s":0.843},"geometry":{"type":"Polygon","coordinates":[[[1.66414,50.69688],[1.66247,50.69694],[1.66257,50.6972],[1.66372,50.69721],[1.66389,50.69759],[1.66484,50.69746],[1.66474,50.69683],[1.66414,50.69688]]]}},{"type":"Feature","properties":{"k":"PPH","s":4.623},"geometry":{"type":"Polygon","coordinates":[[[1.65888,50.69956],[1.65967,50.69912],[1.65927,50.6987],[1.6595,50.69849],[1.66134,50.69777],[1.66078,50.69673],[1.65896,50.69788],[1.65803,50.69805],[1.65802,50.69887],[1.65696,50.69876],[1.65606,50.69886],[1.65703,50.70009],[1.65888,50.69956]]]}},{"type":"Feature","properties":{"k":"PPH","s":1.082},"geometry":{"type":"Polygon","coordinates":[[[1.66082,50.69871],[1.6612,50.69904],[1.66105,50.69918],[1.66332,50.69955],[1.66362,50.69917],[1.66102,50.69847],[1.66082,50.69871]]]}},{"type":"Feature","properties":{"k":"PPH","s":3.486},"geometry":{"type":"Polygon","coordinates":[[[1.66185,50.69932],[1.66155,50.7],[1.66153,50.70043],[1.66178,50.70083],[1.66155,50.70124],[1.66212,50.70178],[1.66269,50.70113],[1.66316,50.70126],[1.66438,50.70045],[1.66469,50.70001],[1.66185,50.69932]]]}},{"type":"Feature","properties":{"k":"BTA","s":0.146},"geometry":{"type":"MultiPolygon","coordinates":[[[[1.65924,50.70092],[1.65928,50.70114],[1.65958,50.70058],[1.65973,50.69988],[1.6596,50.69997],[1.65924,50.70092]]],[[[1.66048,50.6994],[1.66068,50.69899],[1.66055,50.69875],[1.66042,50.69938],[1.65973,50.69988],[1.66048,50.6994]]]]}},{"type":"Feature","properties":{"k":"MIS","s":3.247},"geometry":{"type":"Polygon","coordinates":[[[1.65736,50.7016],[1.65928,50.70114],[1.6596,50.69997],[1.66042,50.69938],[1.6605,50.69877],[1.65888,50.69967],[1.65716,50.70015],[1.65736,50.7016]]]}},{"type":"Feature","properties":{"k":"MIS","s":1.913},"geometry":{"type":"Polygon","coordinates":[[[1.65552,50.70048],[1.6558,50.70196],[1.65661,50.70206],[1.65723,50.70194],[1.65704,50.70019],[1.65552,50.70048]]]}},{"type":"Feature","properties":{"k":"MIS","s":6.868},"geometry":{"type":"Polygon","coordinates":[[[1.65339,50.69806],[1.65303,50.69812],[1.65324,50.69952],[1.65249,50.69975],[1.65271,50.70069],[1.65693,50.70012],[1.65596,50.6989],[1.65569,50.69814],[1.65474,50.69825],[1.65436,50.69734],[1.65326,50.69762],[1.65339,50.69806]]]}},{"type":"Feature","properties":{"k":"PPH","s":1.369},"geometry":{"type":"Polygon","coordinates":[[[1.65427,50.69714],[1.6517,50.69722],[1.65177,50.69807],[1.65193,50.69821],[1.65335,50.69804],[1.65321,50.69761],[1.65444,50.69726],[1.65427,50.69714]]]}},{"type":"Feature","properties":{"k":"MIS","s":2.446},"geometry":{"type":"Polygon","coordinates":[[[1.65224,50.70085],[1.6517,50.70107],[1.65176,50.70128],[1.65389,50.70127],[1.65392,50.70167],[1.65576,50.70195],[1.65548,50.70047],[1.65224,50.70085]]]}},{"type":"Feature","properties":{"k":"PPH","s":5.421},"geometry":{"type":"Polygon","coordinates":[[[1.64924,50.70226],[1.64909,50.70212],[1.64878,50.7025],[1.64927,50.7027],[1.65119,50.70208],[1.65211,50.70213],[1.65252,50.7024],[1.65335,50.70244],[1.65344,50.70205],[1.65375,50.70209],[1.65465,50.70265],[1.65519,50.70234],[1.65548,50.70244],[1.65551,50.70264],[1.65621,50.70287],[1.65656,50.70265],[1.65652,50.70317],[1.65856,50.70341],[1.65868,50.70319],[1.65823,50.70296],[1.65754,50.70288],[1.65774,50.70247],[1.65721,50.70246],[1.65674,50.70264],[1.65664,50.70253],[1.65726,50.70215],[1.65727,50.70196],[1.65661,50.7021],[1.65385,50.70168],[1.6539,50.70131],[1.6521,50.7013],[1.65118,50.70151],[1.65109,50.70127],[1.65106,50.70153],[1.64994,50.70171],[1.64973,50.70146],[1.64994,50.7018],[1.64924,50.70226]]]}},{"type":"Feature","properties":{"k":"PPH","s":1.532},"geometry":{"type":"Polygon","coordinates":[[[1.65362,50.70392],[1.65416,50.70241],[1.65371,50.70214],[1.65343,50.70216],[1.65335,50.70244],[1.65287,50.70242],[1.65242,50.70374],[1.65362,50.70392]]]}},{"type":"Feature","properties":{"k":"PPH","s":3.835},"geometry":{"type":"Polygon","coordinates":[[[1.65651,50.70318],[1.65509,50.70258],[1.65462,50.70273],[1.65412,50.70255],[1.65362,50.70392],[1.65574,50.70442],[1.65597,50.70443],[1.65628,50.70391],[1.65745,50.70427],[1.65789,50.70327],[1.65651,50.70318]]]}},{"type":"Feature","properties":{"k":"PPH","s":0.497},"geometry":{"type":"Polygon","coordinates":[[[1.65934,50.70112],[1.65736,50.7016],[1.65733,50.70173],[1.65749,50.70188],[1.65921,50.70152],[1.65934,50.70112]]]}},{"type":"Feature","properties":{"k":"PPH","s":6.783},"geometry":{"type":"Polygon","coordinates":[[[1.66151,50.70125],[1.66175,50.70084],[1.66146,50.70042],[1.6618,50.69929],[1.66077,50.69918],[1.66071,50.69944],[1.66096,50.69958],[1.6605,50.70171],[1.66003,50.7022],[1.65898,50.70269],[1.65959,50.70342],[1.66011,50.70336],[1.66199,50.7045],[1.66216,50.70445],[1.66202,50.70396],[1.66145,50.70355],[1.66209,50.70331],[1.6626,50.70369],[1.66336,50.70333],[1.66151,50.70125]]]}},{"type":"Feature","properties":{"k":"MIS","s":2.983},"geometry":{"type":"Polygon","coordinates":[[[1.66318,50.7013],[1.66267,50.70115],[1.66217,50.70177],[1.66364,50.70371],[1.66445,50.70347],[1.66348,50.70193],[1.66533,50.70085],[1.66439,50.70049],[1.66318,50.7013]]]}},{"type":"Feature","properties":{"k":"PPH","s":0.447},"geometry":{"type":"Polygon","coordinates":[[[1.66174,50.70522],[1.66258,50.7054],[1.66299,50.70571],[1.66321,50.70555],[1.66176,50.70477],[1.66128,50.70497],[1.66174,50.70522]]]}},{"type":"Feature","properties":{"k":"PPH","s":3.85},"geometry":{"type":"Polygon","coordinates":[[[1.65767,50.70482],[1.65837,50.70504],[1.65924,50.7045],[1.66015,50.70465],[1.66107,50.70461],[1.66119,50.70498],[1.66197,50.70452],[1.6601,50.70337],[1.65959,50.70344],[1.65924,50.70296],[1.65868,50.70319],[1.65855,50.70343],[1.6579,50.70328],[1.65745,50.70428],[1.65822,50.70449],[1.65767,50.70482]]]}},{"type":"Feature","properties":{"k":"PTR","s":0.29},"geometry":{"type":"Polygon","coordinates":[[[1.65958,50.70582],[1.65943,50.70574],[1.65912,50.70612],[1.65878,50.706],[1.65884,50.7059],[1.65835,50.70568],[1.65744,50.70537],[1.65793,50.70499],[1.65773,50.70496],[1.65725,50.70533],[1.65585,50.70495],[1.65826,50.70571],[1.65877,50.70592],[1.65871,50.70601],[1.6593,50.70622],[1.65958,50.70582]]]}},{"type":"Feature","properties":{"k":"PPH","s":1.061},"geometry":{"type":"Polygon","coordinates":[[[1.66237,50.708],[1.66263,50.70759],[1.66306,50.70736],[1.66104,50.70682],[1.66056,50.70728],[1.66237,50.708]]]}},{"type":"Feature","properties":{"k":"ORP","s":0.676},"geometry":{"type":"Polygon","coordinates":[[[1.65897,50.70707],[1.6583,50.70809],[1.65901,50.7083],[1.65965,50.70741],[1.65897,50.70707]]]}},{"type":"Feature","properties":{"k":"ORP","s":0.802},"geometry":{"type":"Polygon","coordinates":[[[1.65464,50.70794],[1.65542,50.70812],[1.65595,50.70703],[1.65532,50.70662],[1.65464,50.70794]]]}},{"type":"Feature","properties":{"k":"ORH","s":8.676},"geometry":{"type":"Polygon","coordinates":[[[1.65582,50.70563],[1.65532,50.70662],[1.65595,50.70703],[1.65542,50.70812],[1.65464,50.70794],[1.65401,50.70912],[1.65493,50.70951],[1.65488,50.70998],[1.65562,50.71008],[1.65662,50.7065],[1.65671,50.70756],[1.65639,50.70871],[1.65696,50.70854],[1.65755,50.70723],[1.6585,50.7074],[1.65808,50.70821],[1.65903,50.7085],[1.65982,50.70748],[1.65965,50.70741],[1.65901,50.7083],[1.6583,50.70809],[1.6593,50.70622],[1.65744,50.70544],[1.65582,50.70507],[1.65582,50.70563]]]}},{"type":"Feature","properties":{"k":"BTH","s":10.03},"geometry":{"type":"Polygon","coordinates":[[[1.65429,50.70843],[1.65572,50.70567],[1.65585,50.70453],[1.6527,50.70387],[1.65203,50.70402],[1.65186,50.70549],[1.65272,50.7056],[1.65199,50.70788],[1.65429,50.70843]]]}},{"type":"Feature","properties":{"k":"ORH","s":0.5},"geometry":{"type":"Polygon","coordinates":[[[1.6539,50.70924],[1.65429,50.70841],[1.65366,50.70823],[1.6532,50.70908],[1.6539,50.70924]]]}},{"type":"Feature","properties":{"k":"ORP","s":0.524},"geometry":{"type":"Polygon","coordinates":[[[1.6532,50.70908],[1.65366,50.70823],[1.65293,50.70806],[1.65242,50.70861],[1.6532,50.70908]]]}},{"type":"Feature","properties":{"k":"ORH","s":0.357},"geometry":{"type":"Polygon","coordinates":[[[1.65188,50.70848],[1.65242,50.70861],[1.65293,50.70806],[1.65201,50.70791],[1.65188,50.70848]]]}},{"type":"Feature","properties":{"k":"PPH","s":12.2},"geometry":{"type":"Polygon","coordinates":[[[1.65006,50.70808],[1.64794,50.70755],[1.64783,50.70806],[1.64708,50.70781],[1.64632,50.70897],[1.644,50.70872],[1.6432,50.70984],[1.6455,50.71007],[1.64636,50.71025],[1.64681,50.71056],[1.64751,50.71058],[1.64779,50.71073],[1.64898,50.70896],[1.65034,50.70836],[1.65162,50.70871],[1.6527,50.70561],[1.65185,50.70552],[1.65202,50.7038],[1.65182,50.70508],[1.6515,50.70507],[1.65137,50.70592],[1.64959,50.70563],[1.64945,50.70591],[1.65111,50.70635],[1.65006,50.70808]]]}},{"type":"Feature","properties":{"k":"PPH","s":0.821},"geometry":{"type":"Polygon","coordinates":[[[1.6509,50.70441],[1.65033,50.70441],[1.65033,50.70481],[1.65183,50.70502],[1.65188,50.70439],[1.6513,50.70435],[1.6513,50.70378],[1.651,50.70378],[1.6509,50.70441]]]}},{"type":"Feature","properties":{"k":"BTA","s":0.131},"geometry":{"type":"Polygon","coordinates":[[[1.64701,50.70211],[1.64711,50.70208],[1.64666,50.70174],[1.6452,50.70122],[1.64499,50.7012],[1.64701,50.70211]]]}},{"type":"Feature","properties":{"k":"MIS","s":1.369},"geometry":{"type":"Polygon","coordinates":[[[1.64572,50.70253],[1.64701,50.70211],[1.64646,50.70175],[1.64499,50.7012],[1.64439,50.70179],[1.64572,50.70253]]]}},{"type":"Feature","properties":{"k":"BTH","s":1.24},"geometry":{"type":"Polygon","coordinates":[[[1.64631,50.70476],[1.64685,50.7043],[1.64689,50.70398],[1.64538,50.70338],[1.64485,50.7041],[1.64631,50.70476]]]}},{"type":"Feature","properties":{"k":"PPH","s":0.317},"geometry":{"type":"Polygon","coordinates":[[[1.64568,50.70452],[1.64488,50.70415],[1.64471,50.70475],[1.64514,50.70495],[1.64568,50.70452]]]}},{"type":"Feature","properties":{"k":"PPH","s":1.425},"geometry":{"type":"Polygon","coordinates":[[[1.64477,50.70412],[1.64236,50.70323],[1.64193,50.7035],[1.64431,50.70469],[1.64397,50.70507],[1.64453,50.70533],[1.64477,50.70412]]]}},{"type":"Feature","properties":{"k":"ORH","s":1.199},"geometry":{"type":"Polygon","coordinates":[[[1.64576,50.70256],[1.64442,50.70183],[1.64365,50.70244],[1.6453,50.70333],[1.64576,50.70256]]]}},{"type":"Feature","properties":{"k":"PPH","s":5.079},"geometry":{"type":"Polygon","coordinates":[[[1.64235,50.70319],[1.64477,50.70408],[1.6453,50.70333],[1.64279,50.70202],[1.64199,50.70145],[1.64115,50.70256],[1.63976,50.70371],[1.64081,50.70419],[1.64235,50.70319]]]}},{"type":"Feature","properties":{"k":"BTH","s":9.598},"geometry":{"type":"Polygon","coordinates":[[[1.63842,50.70297],[1.63973,50.7037],[1.64116,50.70252],[1.64198,50.70141],[1.64359,50.70243],[1.64494,50.70124],[1.642,50.69952],[1.64174,50.69896],[1.64153,50.69889],[1.64036,50.70113],[1.63961,50.70086],[1.63892,50.70251],[1.63842,50.70297]]]}},{"type":"Feature","properties":{"k":"PPH","s":4.938},"geometry":{"type":"Polygon","coordinates":[[[1.63933,50.70411],[1.63979,50.7044],[1.63848,50.70514],[1.63925,50.7056],[1.63995,50.70582],[1.64103,50.70455],[1.64273,50.70535],[1.64395,50.70646],[1.64457,50.70611],[1.64344,50.7054],[1.64375,50.70521],[1.64297,50.70476],[1.64315,50.70419],[1.64187,50.70348],[1.64081,50.70419],[1.63976,50.70371],[1.63933,50.70411]]]}},{"type":"Feature","properties":{"k":"PPH","s":10.223},"geometry":{"type":"Polygon","coordinates":[[[1.64394,50.70652],[1.64268,50.7054],[1.64183,50.70495],[1.64103,50.70463],[1.63994,50.70586],[1.63843,50.70523],[1.63842,50.70507],[1.63558,50.70329],[1.63499,50.70367],[1.63628,50.70478],[1.63592,50.70505],[1.63766,50.70584],[1.63724,50.70619],[1.63751,50.70633],[1.63851,50.70623],[1.63874,50.70608],[1.6397,50.70657],[1.63971,50.70674],[1.6401,50.7069],[1.64008,50.7071],[1.64141,50.70796],[1.64394,50.70652]]]}},{"type":"Feature","properties":{"k":"PPH","s":1.267},"geometry":{"type":"Polygon","coordinates":[[[1.64317,50.70419],[1.64299,50.70476],[1.64382,50.70523],[1.64349,50.70542],[1.64458,50.7061],[1.64551,50.70554],[1.64514,50.7053],[1.64452,50.70535],[1.6439,50.70506],[1.64424,50.70471],[1.64317,50.70419]]]}},{"type":"Feature","properties":{"k":"MIS","s":4.646},"geometry":{"type":"Polygon","coordinates":[[[1.64288,50.71174],[1.64442,50.71096],[1.64577,50.71052],[1.64675,50.71055],[1.64562,50.71013],[1.64313,50.70991],[1.64153,50.70877],[1.64085,50.70925],[1.64288,50.71174]]]}},{"type":"Feature","properties":{"k":"PPH","s":0.068},"geometry":{"type":"MultiPolygon","coordinates":[[[[1.64086,50.71126],[1.6406,50.71121],[1.64177,50.71208],[1.64086,50.71126]]],[[[1.64013,50.71084],[1.64004,50.7108],[1.64036,50.71103],[1.64013,50.71084]]]]}},{"type":"Feature","properties":{"k":"PPH","s":1.93},"geometry":{"type":"Polygon","coordinates":[[[1.65097,50.71174],[1.64955,50.71067],[1.64826,50.70998],[1.64783,50.71075],[1.65045,50.71204],[1.65097,50.71174]]]}},{"type":"Feature","properties":{"k":"PPH","s":9.9},"geometry":{"type":"Polygon","coordinates":[[[1.65317,50.70919],[1.65151,50.71018],[1.64901,50.70897],[1.64826,50.70991],[1.65132,50.7119],[1.65113,50.71209],[1.65513,50.71209],[1.65574,50.71136],[1.6556,50.71066],[1.65425,50.71092],[1.65412,50.71062],[1.65339,50.71065],[1.65333,50.71015],[1.65366,50.71016],[1.65366,50.70983],[1.65405,50.70983],[1.65375,50.70949],[1.65385,50.70932],[1.65317,50.70919]]]}},{"type":"Feature","properties":{"k":"PPH","s":17.616},"geometry":{"type":"Polygon","coordinates":[[[1.6632,50.70916],[1.66011,50.70801],[1.65939,50.70862],[1.65804,50.70822],[1.65848,50.70741],[1.65755,50.70724],[1.657,50.70855],[1.65613,50.70902],[1.6559,50.71042],[1.65633,50.71018],[1.6566,50.7102],[1.65638,50.71088],[1.65671,50.7115],[1.65658,50.71167],[1.6553,50.7121],[1.65844,50.7121],[1.65897,50.71194],[1.662,50.71237],[1.66155,50.71222],[1.6632,50.70916]],[[1.65971,50.71043],[1.65885,50.71029],[1.65914,50.70911],[1.66025,50.70936],[1.65971,50.71043]]]}},{"type":"Feature","properties":{"k":"PPH","s":0.878},"geometry":{"type":"Polygon","coordinates":[[[1.65889,50.71029],[1.65971,50.71042],[1.66021,50.70937],[1.65916,50.70912],[1.65889,50.71029]]]}},{"type":"Feature","properties":{"k":"PPH","s":0.485},"geometry":{"type":"Polygon","coordinates":[[[1.66305,50.71268],[1.66382,50.71303],[1.66438,50.71238],[1.66365,50.71216],[1.66305,50.71268]]]}},{"type":"Feature","properties":{"k":"PPH","s":0.42},"geometry":{"type":"Polygon","coordinates":[[[1.66417,50.71264],[1.66382,50.71303],[1.66471,50.71344],[1.66516,50.71304],[1.66417,50.71264]]]}},{"type":"Feature","properties":{"k":"PPH","s":9.386},"geometry":{"type":"Polygon","coordinates":[[[1.66717,50.71085],[1.66432,50.70981],[1.66451,50.70955],[1.66322,50.70921],[1.66163,50.71221],[1.66304,50.71267],[1.66364,50.71215],[1.66454,50.71241],[1.66436,50.71272],[1.66516,50.71304],[1.66708,50.7117],[1.66684,50.71159],[1.66717,50.71085]]]}},{"type":"Feature","properties":{"k":"BTH","s":1.114},"geometry":{"type":"Polygon","coordinates":[[[1.66736,50.7104],[1.66451,50.70955],[1.66432,50.70981],[1.66461,50.70995],[1.66723,50.71079],[1.66736,50.7104]]]}},{"type":"Feature","properties":{"k":"BTH","s":3.395},"geometry":{"type":"Polygon","coordinates":[[[1.66855,50.71062],[1.66921,50.70961],[1.66912,50.70969],[1.66791,50.70944],[1.66504,50.70846],[1.66457,50.70944],[1.66855,50.71062]]]}},{"type":"Feature","properties":{"k":"BTH","s":0.01},"geometry":{"type":"Polygon","coordinates":[[[1.66855,50.71064],[1.66856,50.71064],[1.66913,50.70972],[1.66855,50.71064]]]}},{"type":"Feature","properties":{"k":"PPH","s":0.01},"geometry":{"type":"MultiPolygon","coordinates":[[[[1.66953,50.70919],[1.66928,50.70954],[1.66973,50.70896],[1.66953,50.70919]]]]}},{"type":"Feature","properties":{"k":"PPH","s":0.017},"geometry":{"type":"MultiPolygon","coordinates":[[[[1.66824,50.70801],[1.66815,50.70775],[1.66817,50.70795],[1.66824,50.70801]]],[[[1.66882,50.70823],[1.66878,50.70818],[1.66876,50.70818],[1.66882,50.70823]]],[[[1.66994,50.70862],[1.66943,50.70855],[1.66957,50.7086],[1.66994,50.70862]]]]}},{"type":"Feature","properties":{"k":"PPH","s":0.001},"geometry":{"type":"Polygon","coordinates":[[[1.6677,50.70737],[1.66755,50.70738],[1.66772,50.70739],[1.6677,50.70737]]]}},{"type":"Feature","properties":{"k":"PPH","s":7.932},"geometry":{"type":"Polygon","coordinates":[[[1.66504,50.70846],[1.66764,50.70936],[1.66912,50.70969],[1.66979,50.70877],[1.66827,50.70818],[1.66775,50.70749],[1.6662,50.70728],[1.66548,50.70734],[1.66371,50.70687],[1.66393,50.70737],[1.66555,50.70794],[1.66538,50.70827],[1.66376,50.70811],[1.66304,50.70746],[1.66206,50.70861],[1.66457,50.70944],[1.66504,50.70846]]]}},{"type":"Feature","properties":{"k":"BTH","s":0.191},"geometry":{"type":"Polygon","coordinates":[[[1.66414,50.70399],[1.66389,50.70407],[1.66467,50.70474],[1.66488,50.70464],[1.66414,50.70399]]]}},{"type":"Feature","properties":{"k":"BTH","s":1.245},"geometry":{"type":"Polygon","coordinates":[[[1.66512,50.70469],[1.66633,50.704],[1.66559,50.70331],[1.66411,50.70381],[1.66512,50.70469]]]}},{"type":"Feature","properties":{"k":"ORP","s":0.678},"geometry":{"type":"Polygon","coordinates":[[[1.66411,50.70381],[1.66559,50.70331],[1.66546,50.7032],[1.66366,50.70379],[1.66488,50.70464],[1.66467,50.70474],[1.66493,50.70492],[1.66602,50.70439],[1.66645,50.70411],[1.66633,50.704],[1.66512,50.70469],[1.66411,50.70381]]]}},{"type":"Feature","properties":{"k":"ORH","s":7.445},"geometry":{"type":"Polygon","coordinates":[[[1.66888,50.70214],[1.66533,50.70085],[1.66348,50.70193],[1.66445,50.70347],[1.66545,50.70317],[1.66646,50.70408],[1.66768,50.70324],[1.66756,50.70317],[1.66791,50.70289],[1.66804,50.70297],[1.66888,50.70214]]]}},{"type":"Feature","properties":{"k":"BTH","s":0.004},"geometry":{"type":"Polygon","coordinates":[[[1.66926,50.70163],[1.66919,50.70179],[1.66932,50.70161],[1.66926,50.70163]]]}},{"type":"Feature","properties":{"k":"BTH","s":1.87},"geometry":{"type":"Polygon","coordinates":[[[1.67415,50.69969],[1.67346,50.70052],[1.67458,50.70075],[1.67617,50.6987],[1.67543,50.69855],[1.67415,50.69969]]]}},{"type":"Feature","properties":{"k":"MIS","s":4.601},"geometry":{"type":"Polygon","coordinates":[[[1.67458,50.70075],[1.6766,50.70121],[1.67776,50.69767],[1.67608,50.69771],[1.67543,50.69855],[1.67617,50.6987],[1.67458,50.70075]]]}},{"type":"Feature","properties":{"k":"PPH","s":0.004},"geometry":{"type":"Polygon","coordinates":[[[1.66968,50.70106],[1.66934,50.70157],[1.66984,50.70086],[1.66968,50.70106]]]}},{"type":"Feature","properties":{"k":"PPH","s":0.452},"geometry":{"type":"Polygon","coordinates":[[[1.66992,50.69937],[1.66974,50.69984],[1.67093,50.69996],[1.67102,50.69953],[1.66992,50.69937]]]}},{"type":"Feature","properties":{"k":"MIS","s":1.395},"geometry":{"type":"Polygon","coordinates":[[[1.6683,50.6996],[1.66764,50.70032],[1.66976,50.70086],[1.67017,50.70002],[1.6683,50.6996]]]}},{"type":"Feature","properties":{"k":"PPH","s":2.355},"geometry":{"type":"Polygon","coordinates":[[[1.66676,50.70135],[1.66889,50.70212],[1.66976,50.70086],[1.6676,50.70036],[1.66676,50.70135]]]}},{"type":"Feature","properties":{"k":"PPH","s":0.598},"geometry":{"type":"Polygon","coordinates":[[[1.66361,50.69926],[1.66334,50.69957],[1.66471,50.69999],[1.6653,50.69933],[1.66361,50.69926]]]}},{"type":"Feature","properties":{"k":"ORH","s":3.68},"geometry":{"type":"Polygon","coordinates":[[[1.66824,50.69963],[1.66743,50.69937],[1.66529,50.6994],[1.66439,50.70049],[1.66673,50.70135],[1.66824,50.69963]]]}},{"type":"Feature","properties":{"k":"PPH","s":5.153},"geometry":{"type":"Polygon","coordinates":[[[1.66375,50.69916],[1.6654,50.69931],[1.6677,50.69934],[1.66774,50.69919],[1.66813,50.69923],[1.66821,50.69894],[1.66763,50.69858],[1.66592,50.69806],[1.66505,50.69764],[1.66367,50.69793],[1.66314,50.69821],[1.66229,50.69822],[1.66167,50.69864],[1.66375,50.69916]]]}},{"type":"Feature","properties":{"k":"ORH","s":2.541},"geometry":{"type":"Polygon","coordinates":[[[1.66531,50.69751],[1.66599,50.698],[1.66734,50.69838],[1.66837,50.69886],[1.67016,50.69912],[1.67032,50.69844],[1.67011,50.69822],[1.66531,50.69751]]]}},{"type":"Feature","properties":{"k":"PPH","s":1.03},"geometry":{"type":"Polygon","coordinates":[[[1.66837,50.69886],[1.66825,50.69947],[1.66971,50.69984],[1.66991,50.69934],[1.67089,50.69946],[1.67078,50.69924],[1.66837,50.69886]]]}},{"type":"Feature","properties":{"k":"PPH","s":6.475},"geometry":{"type":"Polygon","coordinates":[[[1.67083,50.69914],[1.67119,50.69888],[1.67188,50.699],[1.67169,50.69957],[1.67144,50.69969],[1.67195,50.69993],[1.67183,50.70019],[1.67201,50.70022],[1.67322,50.69901],[1.67296,50.69865],[1.67196,50.69801],[1.67108,50.69789],[1.67106,50.69772],[1.6703,50.69758],[1.67054,50.6969],[1.6689,50.69682],[1.66869,50.69704],[1.66598,50.69705],[1.66521,50.69743],[1.67011,50.69822],[1.67032,50.69844],[1.67026,50.69889],[1.67056,50.69892],[1.67051,50.69906],[1.67083,50.69914]]]}},{"type":"Feature","properties":{"k":"AVP","s":0.399},"geometry":{"type":"Polygon","coordinates":[[[1.66987,50.69616],[1.6703,50.69561],[1.66991,50.6953],[1.66946,50.69582],[1.6693,50.69618],[1.66987,50.69616]]]}},{"type":"Feature","properties":{"k":"BTA","s":0.035},"geometry":{"type":"Polygon","coordinates":[[[1.66597,50.69764],[1.66605,50.69761],[1.66521,50.69745],[1.66597,50.69764]]]}},{"type":"Feature","properties":{"k":"MIS","s":0.898},"geometry":{"type":"Polygon","coordinates":[[[1.66635,50.69514],[1.66674,50.69616],[1.66791,50.6954],[1.6675,50.6948],[1.66635,50.69514]]]}},{"type":"Feature","properties":{"k":"PPH","s":1.36},"geometry":{"type":"Polygon","coordinates":[[[1.66674,50.69356],[1.6657,50.69372],[1.66618,50.69524],[1.6675,50.6948],[1.66674,50.69356]]]}},{"type":"Feature","properties":{"k":"BTH","s":5.916},"geometry":{"type":"Polygon","coordinates":[[[1.6712,50.69683],[1.67099,50.69575],[1.67119,50.69397],[1.67,50.69441],[1.66667,50.69633],[1.66715,50.69654],[1.66693,50.69703],[1.66869,50.69702],[1.66889,50.6968],[1.66974,50.69687],[1.67005,50.69664],[1.6712,50.69683]],[[1.66991,50.6953],[1.6703,50.69561],[1.66987,50.69616],[1.66944,50.69622],[1.6693,50.69618],[1.66991,50.6953]]]}},{"type":"Feature","properties":{"k":"BTH","s":12.712},"geometry":{"type":"Polygon","coordinates":[[[1.67123,50.69397],[1.67105,50.6957],[1.67126,50.69661],[1.67176,50.69654],[1.67275,50.69714],[1.67438,50.69671],[1.67455,50.69708],[1.67585,50.69699],[1.67588,50.69601],[1.67547,50.69604],[1.6753,50.69458],[1.67454,50.69463],[1.67433,50.69377],[1.6759,50.69298],[1.67609,50.69239],[1.67598,50.69186],[1.67365,50.69276],[1.67169,50.69394],[1.67123,50.69397]],[[1.67438,50.69441],[1.67438,50.69464],[1.67381,50.69467],[1.67383,50.69445],[1.67438,50.69441]],[[1.67521,50.69589],[1.67518,50.69609],[1.67422,50.69613],[1.67425,50.69592],[1.67521,50.69589]]]}},{"type":"Feature","properties":{"k":"AVP","s":0.152},"geometry":{"type":"Polygon","coordinates":[[[1.67521,50.69589],[1.67425,50.69592],[1.67422,50.69613],[1.67518,50.69609],[1.67521,50.69589]]]}},{"type":"Feature","properties":{"k":"MIS","s":1.426},"geometry":{"type":"Polygon","coordinates":[[[1.67658,50.69535],[1.67539,50.69539],[1.67547,50.69601],[1.6769,50.69588],[1.67687,50.69533],[1.6771,50.69531],[1.67718,50.69583],[1.67702,50.69378],[1.67641,50.69382],[1.67658,50.69535]]]}},{"type":"Feature","properties":{"k":"AVP","s":0.097},"geometry":{"type":"Polygon","coordinates":[[[1.67438,50.69441],[1.67383,50.69445],[1.67381,50.69467],[1.67438,50.69464],[1.67438,50.69441]]]}},{"type":"Feature","properties":{"k":"BTH","s":1.806},"geometry":{"type":"Polygon","coordinates":[[[1.6753,50.69458],[1.67539,50.69539],[1.67658,50.69535],[1.67641,50.69382],[1.67446,50.69397],[1.67453,50.69462],[1.6753,50.69458]]]}},{"type":"Feature","properties":{"k":"BTH","s":3.5},"geometry":{"type":"Polygon","coordinates":[[[1.6772,50.69561],[1.67833,50.69549],[1.67903,50.69343],[1.67696,50.6924],[1.67718,50.69583],[1.6772,50.69561]]]}},{"type":"Feature","properties":{"k":"PTC","s":0.103},"geometry":{"type":"Polygon","coordinates":[[[1.67687,50.69533],[1.6769,50.69588],[1.67715,50.69584],[1.6771,50.69531],[1.67687,50.69533]]]}},{"type":"Feature","properties":{"k":"MIS","s":0.167},"geometry":{"type":"Polygon","coordinates":[[[1.6772,50.69583],[1.67826,50.69567],[1.67833,50.69549],[1.6772,50.69561],[1.6772,50.69583]]]}},{"type":"Feature","properties":{"k":"PPH","s":2.65},"geometry":{"type":"Polygon","coordinates":[[[1.67778,50.69706],[1.67633,50.69735],[1.67608,50.69771],[1.67776,50.69767],[1.67826,50.69567],[1.67593,50.69602],[1.67589,50.69709],[1.67778,50.69706]]]}},{"type":"Feature","properties":{"k":"BTH","s":0.025},"geometry":{"type":"Polygon","coordinates":[[[1.67946,50.68998],[1.67889,50.68995],[1.67924,50.69008],[1.67946,50.68998]]]}},{"type":"Feature","properties":{"k":"PPH","s":2.922},"geometry":{"type":"Polygon","coordinates":[[[1.67057,50.69026],[1.6715,50.69027],[1.67142,50.69068],[1.67318,50.69077],[1.67374,50.69065],[1.67338,50.69013],[1.67341,50.68967],[1.66957,50.68928],[1.66945,50.68955],[1.66795,50.69028],[1.66943,50.6896],[1.66954,50.68996],[1.66998,50.68998],[1.67057,50.69026]]]}},{"type":"Feature","properties":{"k":"PPH","s":8.294},"geometry":{"type":"Polygon","coordinates":[[[1.66833,50.69136],[1.66892,50.69128],[1.67042,50.69056],[1.67137,50.69254],[1.67212,50.69216],[1.67285,50.69213],[1.67328,50.69289],[1.67593,50.69177],[1.67526,50.69106],[1.67398,50.69066],[1.67319,50.69078],[1.67141,50.69069],[1.67147,50.69026],[1.67057,50.69026],[1.66998,50.68998],[1.66967,50.69002],[1.66943,50.6896],[1.6679,50.69038],[1.66833,50.69136]]]}},{"type":"Feature","properties":{"k":"PPH","s":5.345},"geometry":{"type":"Polygon","coordinates":[[[1.67342,50.69012],[1.67377,50.69065],[1.67528,50.69105],[1.67598,50.69175],[1.678,50.69095],[1.67924,50.69008],[1.67889,50.68995],[1.67344,50.68967],[1.67342,50.69012]]]}},{"type":"Feature","properties":{"k":"PPH","s":5.724},"geometry":{"type":"Polygon","coordinates":[[[1.67714,50.69237],[1.676,50.69184],[1.67598,50.69294],[1.67524,50.69344],[1.67437,50.69378],[1.67446,50.69397],[1.67706,50.69377],[1.67696,50.6924],[1.67903,50.69343],[1.67957,50.69006],[1.67801,50.69105],[1.67646,50.69166],[1.67729,50.6923],[1.67714,50.69237]]]}},{"type":"Feature","properties":{"k":"BTH","s":2.053},"geometry":{"type":"Polygon","coordinates":[[[1.67328,50.69289],[1.67285,50.69213],[1.67212,50.69216],[1.67095,50.6927],[1.67122,50.69389],[1.67183,50.69381],[1.67328,50.69289]]]}},{"type":"Feature","properties":{"k":"PPH","s":8.912},"geometry":{"type":"Polygon","coordinates":[[[1.66793,50.69159],[1.66543,50.69115],[1.66705,50.69404],[1.66885,50.69407],[1.67074,50.69342],[1.67016,50.69109],[1.6699,50.69085],[1.66793,50.69159]]]}},{"type":"Feature","properties":{"k":"PPH","s":1.805},"geometry":{"type":"Polygon","coordinates":[[[1.66552,50.6937],[1.66674,50.69353],[1.66543,50.69139],[1.66479,50.6919],[1.66552,50.6937]]]}},{"type":"Feature","properties":{"k":"PPH","s":3.333},"geometry":{"type":"Polygon","coordinates":[[[1.66477,50.6919],[1.6632,50.69281],[1.66392,50.6947],[1.66575,50.69442],[1.66572,50.69391],[1.66477,50.6919]]]}},{"type":"Feature","properties":{"k":"PPH","s":3.808},"geometry":{"type":"MultiPolygon","coordinates":[[[[1.66294,50.69288],[1.66381,50.69244],[1.66248,50.69103],[1.66261,50.69095],[1.6613,50.6911],[1.65971,50.69141],[1.65997,50.69172],[1.66147,50.69113],[1.66151,50.69134],[1.66036,50.6922],[1.66089,50.69296],[1.66294,50.69288]]],[[[1.65864,50.69163],[1.65879,50.69158],[1.65854,50.69163],[1.65864,50.69163]]]]}},{"type":"Feature","properties":{"k":"PPH","s":2.301},"geometry":{"type":"Polygon","coordinates":[[[1.66384,50.69242],[1.66541,50.69134],[1.66522,50.69063],[1.66251,50.69103],[1.66384,50.69242]]]}},{"type":"Feature","properties":{"k":"PTR","s":0.683},"geometry":{"type":"Polygon","coordinates":[[[1.64055,50.6932],[1.64016,50.69335],[1.64053,50.69364],[1.64111,50.69326],[1.6428,50.69292],[1.64063,50.69273],[1.64055,50.6932]]]}},{"type":"Feature","properties":{"k":"PPH","s":0.002},"geometry":{"type":"MultiPolygon","coordinates":[[[[1.63751,50.69261],[1.63773,50.69247],[1.63767,50.6925],[1.63751,50.69261]]]]}}]}