{"type":"FeatureCollection","features":[{"type":"Feature","properties":{"k":"PHF","s":1.92},"geometry":{"type":"Polygon","coordinates":[[[3.04106,50.26137],[3.04069,50.26203],[3.04345,50.26342],[3.04401,50.26285],[3.04106,50.26137]]]}},{"type":"Feature","properties":{"k":"BTH","s":0.378},"geometry":{"type":"Polygon","coordinates":[[[3.04218,50.26411],[3.04256,50.26433],[3.04266,50.26422],[3.04026,50.26275],[3.04016,50.26291],[3.04218,50.26411]]]}},{"type":"Feature","properties":{"k":"MIS","s":0.908},"geometry":{"type":"Polygon","coordinates":[[[3.04266,50.26422],[3.04267,50.26421],[3.04296,50.2639],[3.04049,50.26244],[3.04026,50.26275],[3.04266,50.26422]]]}},{"type":"Feature","properties":{"k":"PHF","s":0.004},"geometry":{"type":"Polygon","coordinates":[[[3.03929,50.26391],[3.03917,50.2641],[3.03948,50.2637],[3.03929,50.26391]]]}},{"type":"Feature","properties":{"k":"BTH","s":6.151},"geometry":{"type":"Polygon","coordinates":[[[3.04219,50.26796],[3.03855,50.2651],[3.0377,50.26706],[3.04032,50.26892],[3.04219,50.26796]]]}},{"type":"Feature","properties":{"k":"JAC","s":0.186},"geometry":{"type":"Polygon","coordinates":[[[3.04069,50.26673],[3.0408,50.26671],[3.03859,50.26502],[3.04069,50.26673]]]}},{"type":"Feature","properties":{"k":"BTH","s":3.152},"geometry":{"type":"Polygon","coordinates":[[[3.04239,50.26784],[3.04278,50.26768],[3.04077,50.26617],[3.04136,50.26556],[3.03922,50.26408],[3.03859,50.26502],[3.04239,50.26784]]]}},{"type":"Feature","properties":{"k":"MIS","s":0.325},"geometry":{"type":"Polygon","coordinates":[[[3.04059,50.26681],[3.04212,50.26791],[3.04234,50.26781],[3.04069,50.26673],[3.04059,50.26681]]]}},{"type":"Feature","properties":{"k":"BTH","s":5.087},"geometry":{"type":"Polygon","coordinates":[[[3.04089,50.2662],[3.04288,50.26765],[3.04521,50.26653],[3.04226,50.26471],[3.04089,50.2662]]]}},{"type":"Feature","properties":{"k":"BTH","s":1.552},"geometry":{"type":"Polygon","coordinates":[[[3.04096,50.26528],[3.04136,50.26556],[3.04193,50.26495],[3.03966,50.26357],[3.03922,50.26408],[3.04096,50.26528]]]}},{"type":"Feature","properties":{"k":"PTC","s":2.61},"geometry":{"type":"Polygon","coordinates":[[[3.08986,50.25728],[3.08945,50.25702],[3.08864,50.25755],[3.08961,50.25878],[3.08936,50.25937],[3.08822,50.26002],[3.08905,50.26089],[3.08982,50.25966],[3.09029,50.25799],[3.08986,50.25728]]]}},{"type":"Feature","properties":{"k":"BTN","s":1.194},"geometry":{"type":"Polygon","coordinates":[[[3.08829,50.26123],[3.0889,50.26101],[3.08829,50.26022],[3.08723,50.25947],[3.08677,50.25983],[3.08829,50.26123]]]}},{"type":"Feature","properties":{"k":"PTR","s":0.31},"geometry":{"type":"Polygon","coordinates":[[[3.08945,50.26173],[3.08972,50.26152],[3.08903,50.26109],[3.08846,50.26125],[3.08945,50.26173]]]}},{"type":"Feature","properties":{"k":"BTH","s":0.582},"geometry":{"type":"Polygon","coordinates":[[[3.04193,50.26495],[3.04215,50.26474],[3.03983,50.26338],[3.03966,50.26357],[3.04193,50.26495]]]}},{"type":"Feature","properties":{"k":"PTR","s":1.221},"geometry":{"type":"Polygon","coordinates":[[[3.04136,50.26362],[3.04016,50.26291],[3.03983,50.26338],[3.04215,50.26473],[3.04256,50.26433],[3.04136,50.26362]]]}},{"type":"Feature","properties":{"k":"BTH","s":5.214},"geometry":{"type":"Polygon","coordinates":[[[3.04656,50.26544],[3.04793,50.2641],[3.04447,50.26244],[3.04326,50.26367],[3.04656,50.26544]]]}},{"type":"Feature","properties":{"k":"MIS","s":2.779},"geometry":{"type":"Polygon","coordinates":[[[3.04575,50.26615],[3.04656,50.26544],[3.04326,50.26367],[3.04263,50.26432],[3.04575,50.26615]]]}},{"type":"Feature","properties":{"k":"BTH","s":1.558},"geometry":{"type":"Polygon","coordinates":[[[3.04266,50.26434],[3.04263,50.26432],[3.04226,50.26471],[3.04522,50.26652],[3.04575,50.26616],[3.04266,50.26434]]]}},{"type":"Feature","properties":{"k":"JAC","s":0.029},"geometry":{"type":"Polygon","coordinates":[[[3.04495,50.26745],[3.0444,50.26714],[3.04486,50.26748],[3.04495,50.26745]]]}},{"type":"Feature","properties":{"k":"PHF","s":4.069},"geometry":{"type":"Polygon","coordinates":[[[3.04945,50.26706],[3.0468,50.26541],[3.04542,50.26658],[3.04787,50.2681],[3.04945,50.26706]]]}},{"type":"Feature","properties":{"k":"CZH","s":2.56},"geometry":{"type":"Polygon","coordinates":[[[3.04756,50.2647],[3.0468,50.26541],[3.04945,50.26706],[3.0504,50.26646],[3.04756,50.2647]]]}},{"type":"Feature","properties":{"k":"CZH","s":0.807},"geometry":{"type":"Polygon","coordinates":[[[3.04818,50.26473],[3.04771,50.26453],[3.04756,50.2647],[3.04981,50.26611],[3.0504,50.26646],[3.05062,50.2663],[3.04818,50.26473]]]}},{"type":"Feature","properties":{"k":"BTH","s":1.101},"geometry":{"type":"Polygon","coordinates":[[[3.05068,50.26621],[3.05108,50.26601],[3.04809,50.26414],[3.04779,50.26444],[3.05068,50.26621]]]}},{"type":"Feature","properties":{"k":"PHF","s":3.997},"geometry":{"type":"Polygon","coordinates":[[[3.04856,50.26345],[3.05001,50.26225],[3.0473,50.261],[3.04588,50.26227],[3.04856,50.26345]]]}},{"type":"Feature","properties":{"k":"BTH","s":2.296},"geometry":{"type":"Polygon","coordinates":[[[3.04848,50.26349],[3.04492,50.26194],[3.04447,50.26244],[3.04793,50.2641],[3.04848,50.26349]]]}},{"type":"Feature","properties":{"k":"BTH","s":6.393},"geometry":{"type":"Polygon","coordinates":[[[3.04501,50.26185],[3.04822,50.25891],[3.04641,50.25809],[3.04317,50.26102],[3.04501,50.26185]]]}},{"type":"Feature","properties":{"k":"PHF","s":3.148},"geometry":{"type":"Polygon","coordinates":[[[3.04822,50.25892],[3.04502,50.26186],[3.04589,50.26226],[3.04931,50.25915],[3.04875,50.25918],[3.04822,50.25892]]]}},{"type":"Feature","properties":{"k":"BTH","s":8.769},"geometry":{"type":"Polygon","coordinates":[[[3.05399,50.25989],[3.05095,50.2593],[3.04932,50.25915],[3.0473,50.261],[3.05002,50.26224],[3.05399,50.25989]]]}},{"type":"Feature","properties":{"k":"BTN","s":10.079},"geometry":{"type":"Polygon","coordinates":[[[3.05724,50.2644],[3.05979,50.26369],[3.05401,50.26005],[3.05209,50.26119],[3.05724,50.2644]]]}},{"type":"Feature","properties":{"k":"BTH","s":10.484},"geometry":{"type":"Polygon","coordinates":[[[3.05209,50.26119],[3.04993,50.26244],[3.05488,50.26553],[3.05724,50.2644],[3.05209,50.26119]]]}},{"type":"Feature","properties":{"k":"PTC","s":1.568},"geometry":{"type":"Polygon","coordinates":[[[3.04879,50.26347],[3.05193,50.26543],[3.05241,50.26512],[3.04917,50.26309],[3.04879,50.26347]]]}},{"type":"Feature","properties":{"k":"BTN","s":4.345},"geometry":{"type":"Polygon","coordinates":[[[3.04917,50.26309],[3.05376,50.266],[3.05488,50.26553],[3.04993,50.26244],[3.04917,50.26309]]]}},{"type":"Feature","properties":{"k":"ORH","s":2.694},"geometry":{"type":"Polygon","coordinates":[[[3.05108,50.26601],[3.05193,50.26543],[3.04879,50.26347],[3.04809,50.26414],[3.05108,50.26601]]]}},{"type":"Feature","properties":{"k":"CZH","s":1.986},"geometry":{"type":"Polygon","coordinates":[[[3.05055,50.26642],[3.04982,50.26688],[3.05239,50.26848],[3.05345,50.26821],[3.05055,50.26642]]]}},{"type":"Feature","properties":{"k":"PHF","s":3.614},"geometry":{"type":"Polygon","coordinates":[[[3.05168,50.26567],[3.05055,50.26642],[3.05345,50.26821],[3.05514,50.26791],[3.05168,50.26567]]]}},{"type":"Feature","properties":{"k":"PTC","s":2.786},"geometry":{"type":"Polygon","coordinates":[[[3.05622,50.26762],[3.05234,50.26523],[3.05168,50.26567],[3.05514,50.26791],[3.05622,50.26762]]]}},{"type":"Feature","properties":{"k":"ORH","s":1.095},"geometry":{"type":"Polygon","coordinates":[[[3.05687,50.26753],[3.05436,50.26582],[3.05383,50.26609],[3.05622,50.26762],[3.05687,50.26753]]]}},{"type":"Feature","properties":{"k":"BTH","s":4.661},"geometry":{"type":"Polygon","coordinates":[[[3.05687,50.26753],[3.05913,50.26734],[3.05627,50.26491],[3.0544,50.2658],[3.05687,50.26753]]]}},{"type":"Feature","properties":{"k":"BTH","s":6.151},"geometry":{"type":"Polygon","coordinates":[[[3.05626,50.26491],[3.05914,50.26734],[3.06048,50.26748],[3.06141,50.26732],[3.05834,50.26407],[3.05626,50.26491]]]}},{"type":"Feature","properties":{"k":"BTH","s":7.805},"geometry":{"type":"Polygon","coordinates":[[[3.06318,50.26707],[3.06303,50.26669],[3.06334,50.2666],[3.06104,50.26345],[3.05835,50.26407],[3.06141,50.26732],[3.06189,50.26736],[3.06318,50.26707]]]}},{"type":"Feature","properties":{"k":"BTN","s":4.522},"geometry":{"type":"Polygon","coordinates":[[[3.05507,50.25942],[3.06131,50.26331],[3.06259,50.26293],[3.05897,50.26068],[3.0585,50.26099],[3.05552,50.25915],[3.05507,50.25942]]]}},{"type":"Feature","properties":{"k":"BTH","s":6.197},"geometry":{"type":"Polygon","coordinates":[[[3.05406,50.26004],[3.05979,50.26369],[3.06131,50.26331],[3.05507,50.25942],[3.05406,50.26004]]]}},{"type":"Feature","properties":{"k":"BTN","s":1.402},"geometry":{"type":"Polygon","coordinates":[[[3.05553,50.25915],[3.05849,50.26099],[3.05895,50.26069],[3.05602,50.25885],[3.05553,50.25915]]]}},{"type":"Feature","properties":{"k":"PTC","s":7.224},"geometry":{"type":"Polygon","coordinates":[[[3.05636,50.25864],[3.05731,50.25923],[3.05697,50.25944],[3.06258,50.26293],[3.06276,50.26285],[3.06333,50.26191],[3.05725,50.25813],[3.05636,50.25864]]]}},{"type":"Feature","properties":{"k":"BTH","s":8.033},"geometry":{"type":"Polygon","coordinates":[[[3.06329,50.26188],[3.06333,50.26191],[3.06394,50.26052],[3.05847,50.25712],[3.05724,50.25812],[3.06329,50.26188]]]}},{"type":"Feature","properties":{"k":"LIF","s":5.781},"geometry":{"type":"Polygon","coordinates":[[[3.06134,50.25695],[3.05948,50.25599],[3.05845,50.2571],[3.06156,50.25903],[3.06393,50.25744],[3.06134,50.25695]]]}},{"type":"Feature","properties":{"k":"BTN","s":3.07},"geometry":{"type":"Polygon","coordinates":[[[3.0563,50.25685],[3.05765,50.25763],[3.0594,50.25586],[3.05784,50.25511],[3.0563,50.25685]]]}},{"type":"Feature","properties":{"k":"BTH","s":0.31},"geometry":{"type":"Polygon","coordinates":[[[3.05697,50.25944],[3.05731,50.25923],[3.05635,50.25864],[3.05603,50.25885],[3.05697,50.25944]]]}},{"type":"Feature","properties":{"k":"BTN","s":2.827},"geometry":{"type":"Polygon","coordinates":[[[3.05414,50.25983],[3.05559,50.25895],[3.05285,50.25812],[3.05175,50.25936],[3.05414,50.25983]]]}},{"type":"Feature","properties":{"k":"MID","s":2.809},"geometry":{"type":"Polygon","coordinates":[[[3.05088,50.25751],[3.04943,50.2591],[3.05175,50.25936],[3.05285,50.25812],[3.05088,50.25751]]]}},{"type":"Feature","properties":{"k":"BTH","s":0.928},"geometry":{"type":"Polygon","coordinates":[[[3.0532,50.25752],[3.05136,50.25697],[3.05088,50.25751],[3.05248,50.25799],[3.0532,50.25752]]]}},{"type":"Feature","properties":{"k":"BTH","s":2.42},"geometry":{"type":"Polygon","coordinates":[[[3.05253,50.25571],[3.05137,50.25697],[3.0532,50.25752],[3.0539,50.25673],[3.05412,50.256],[3.05253,50.25571]]]}},{"type":"Feature","properties":{"k":"LIF","s":5.883},"geometry":{"type":"Polygon","coordinates":[[[3.05559,50.25895],[3.05756,50.25769],[3.05525,50.25638],[3.05419,50.25601],[3.05376,50.25707],[3.05251,50.258],[3.05559,50.25895]]]}},{"type":"Feature","properties":{"k":"LIF","s":1.87},"geometry":{"type":"Polygon","coordinates":[[[3.0542,50.25591],[3.0563,50.25685],[3.05708,50.25597],[3.05475,50.25512],[3.0542,50.25591]]]}},{"type":"Feature","properties":{"k":"MID","s":2.313},"geometry":{"type":"Polygon","coordinates":[[[3.05469,50.25377],[3.0529,50.25317],[3.05217,50.25406],[3.05486,50.25493],[3.05546,50.25422],[3.05469,50.25377]]]}},{"type":"Feature","properties":{"k":"BTH","s":3.021},"geometry":{"type":"Polygon","coordinates":[[[3.05216,50.25405],[3.05122,50.25529],[3.05413,50.25592],[3.05485,50.25494],[3.05216,50.25405]]]}},{"type":"Feature","properties":{"k":"MIS","s":3.693},"geometry":{"type":"Polygon","coordinates":[[[3.05018,50.2553],[3.05121,50.25528],[3.05171,50.25466],[3.05126,50.25449],[3.05247,50.25296],[3.05127,50.25233],[3.04928,50.25472],[3.05018,50.2553]]]}},{"type":"Feature","properties":{"k":"BTN","s":1.859},"geometry":{"type":"Polygon","coordinates":[[[3.05052,50.25201],[3.04857,50.25448],[3.04928,50.25472],[3.05127,50.25233],[3.05052,50.25201]]]}},{"type":"Feature","properties":{"k":"LIF","s":7.311},"geometry":{"type":"Polygon","coordinates":[[[3.05266,50.25301],[3.05533,50.25406],[3.05752,50.25181],[3.05619,50.25127],[3.05675,50.25074],[3.05539,50.25023],[3.05266,50.25301]]]}},{"type":"Feature","properties":{"k":"ORH","s":6.791},"geometry":{"type":"Polygon","coordinates":[[[3.05672,50.25456],[3.06055,50.25066],[3.06093,50.25078],[3.06162,50.25006],[3.06016,50.24976],[3.05964,50.25039],[3.05911,50.25017],[3.05533,50.25406],[3.05672,50.25456]]]}},{"type":"Feature","properties":{"k":"TRE","s":2.221},"geometry":{"type":"Polygon","coordinates":[[[3.05556,50.25421],[3.05475,50.25512],[3.05708,50.25597],[3.05784,50.25511],[3.05556,50.25421]]]}},{"type":"Feature","properties":{"k":"LIF","s":2.406},"geometry":{"type":"Polygon","coordinates":[[[3.0575,50.25489],[3.05943,50.2558],[3.06051,50.25467],[3.0585,50.25388],[3.0575,50.25489]]]}},{"type":"Feature","properties":{"k":"BTN","s":1.502},"geometry":{"type":"Polygon","coordinates":[[[3.0592,50.25319],[3.05852,50.25388],[3.06051,50.25467],[3.06117,50.254],[3.0592,50.25319]]]}},{"type":"Feature","properties":{"k":"BTH","s":1.781},"geometry":{"type":"Polygon","coordinates":[[[3.05721,50.25476],[3.05749,50.2549],[3.06222,50.25003],[3.06191,50.24995],[3.05721,50.25476]]]}},{"type":"Feature","properties":{"k":"BTH","s":2.17},"geometry":{"type":"Polygon","coordinates":[[[3.06055,50.25067],[3.05673,50.25456],[3.05721,50.25476],[3.0619,50.24996],[3.06093,50.25079],[3.06055,50.25067]]]}},{"type":"Feature","properties":{"k":"BTH","s":2.847},"geometry":{"type":"Polygon","coordinates":[[[3.06242,50.25265],[3.0604,50.25194],[3.05918,50.25318],[3.06117,50.254],[3.06242,50.25265]]]}},{"type":"Feature","properties":{"k":"MIS","s":0.447},"geometry":{"type":"Polygon","coordinates":[[[3.06375,50.25346],[3.06408,50.2531],[3.06295,50.25261],[3.06265,50.253],[3.06375,50.25346]]]}},{"type":"Feature","properties":{"k":"BTH","s":2.631},"geometry":{"type":"Polygon","coordinates":[[[3.06192,50.25346],[3.06102,50.25436],[3.06363,50.25543],[3.06451,50.25452],[3.06192,50.25346]]]}},{"type":"Feature","properties":{"k":"BOR","s":0.32},"geometry":{"type":"Polygon","coordinates":[[[3.0633,50.25189],[3.06364,50.25156],[3.06482,50.25144],[3.06797,50.25096],[3.06452,50.25448],[3.06333,50.25399],[3.06453,50.25452],[3.06806,50.25092],[3.06361,50.25153],[3.06323,50.2519],[3.06484,50.25242],[3.0633,50.25189]]]}},{"type":"Feature","properties":{"k":"BTH","s":0.804},"geometry":{"type":"Polygon","coordinates":[[[3.07174,50.25519],[3.072,50.25583],[3.07382,50.25638],[3.07358,50.25577],[3.07174,50.25519]]]}},{"type":"Feature","properties":{"k":"BTH","s":7.239},"geometry":{"type":"Polygon","coordinates":[[[3.0678,50.25571],[3.06703,50.2568],[3.06868,50.25763],[3.07177,50.25544],[3.07166,50.25514],[3.06914,50.25424],[3.06897,50.25446],[3.06808,50.25412],[3.06763,50.25526],[3.0678,50.25571]]]}},{"type":"Feature","properties":{"k":"BTH","s":3.46},"geometry":{"type":"Polygon","coordinates":[[[3.06868,50.25763],[3.06979,50.2584],[3.07224,50.25667],[3.07177,50.25544],[3.06868,50.25763]]]}},{"type":"Feature","properties":{"k":"BTH","s":2.632},"geometry":{"type":"Polygon","coordinates":[[[3.06979,50.2584],[3.07271,50.2604],[3.07285,50.25918],[3.07071,50.25774],[3.06979,50.2584]]]}},{"type":"Feature","properties":{"k":"BOR","s":0.159},"geometry":{"type":"Polygon","coordinates":[[[3.07135,50.25953],[3.07139,50.2595],[3.06868,50.25763],[3.06703,50.2568],[3.06865,50.25765],[3.07135,50.25953]]]}},{"type":"Feature","properties":{"k":"BTH","s":12.537},"geometry":{"type":"Polygon","coordinates":[[[3.06102,50.25436],[3.05959,50.25585],[3.06166,50.25695],[3.06412,50.25742],[3.06598,50.25834],[3.06658,50.25767],[3.06726,50.25595],[3.06432,50.25472],[3.06363,50.25543],[3.06102,50.25436]]]}},{"type":"Feature","properties":{"k":"BTH","s":5.295},"geometry":{"type":"Polygon","coordinates":[[[3.06395,50.26051],[3.06578,50.25843],[3.06393,50.25744],[3.06156,50.25903],[3.06395,50.26051]]]}},{"type":"Feature","properties":{"k":"BTN","s":19.931},"geometry":{"type":"Polygon","coordinates":[[[3.06322,50.2624],[3.06733,50.26524],[3.06865,50.26641],[3.06993,50.26652],[3.07185,50.26467],[3.06472,50.25977],[3.06412,50.26047],[3.06322,50.2624]]]}},{"type":"Feature","properties":{"k":"LUZ","s":0.301},"geometry":{"type":"Polygon","coordinates":[[[3.06274,50.26293],[3.06345,50.26403],[3.0638,50.26392],[3.06296,50.26285],[3.06274,50.26293]]]}},{"type":"Feature","properties":{"k":"JAC","s":1.143},"geometry":{"type":"Polygon","coordinates":[[[3.04893,50.24361],[3.04799,50.24367],[3.04688,50.24404],[3.04942,50.24438],[3.04977,50.24327],[3.04893,50.24361]]]}},{"type":"Feature","properties":{"k":"JAC","s":0.755},"geometry":{"type":"Polygon","coordinates":[[[3.05031,50.24449],[3.05051,50.24344],[3.04991,50.24318],[3.04944,50.24438],[3.05031,50.24449]]]}},{"type":"Feature","properties":{"k":"BTH","s":1.371},"geometry":{"type":"Polygon","coordinates":[[[3.05188,50.24534],[3.05099,50.24697],[3.05197,50.24719],[3.05277,50.24577],[3.05188,50.24534]]]}},{"type":"Feature","properties":{"k":"BTH","s":1.52},"geometry":{"type":"Polygon","coordinates":[[[3.05319,50.24745],[3.05398,50.24604],[3.05277,50.24577],[3.05212,50.24722],[3.05319,50.24745]]]}},{"type":"Feature","properties":{"k":"BOR","s":0.041},"geometry":{"type":"Polygon","coordinates":[[[3.0543,50.24793],[3.05435,50.24786],[3.05375,50.24772],[3.0543,50.24793]]]}},{"type":"Feature","properties":{"k":"BTH","s":5.536},"geometry":{"type":"Polygon","coordinates":[[[3.05828,50.24713],[3.05399,50.24604],[3.05319,50.24746],[3.05739,50.2485],[3.05828,50.24713]]]}},{"type":"Feature","properties":{"k":"PPH","s":0.312},"geometry":{"type":"Polygon","coordinates":[[[3.05394,50.24576],[3.0538,50.24598],[3.05588,50.24648],[3.05592,50.24639],[3.05394,50.24576]]]}},{"type":"Feature","properties":{"k":"PTR","s":1.849},"geometry":{"type":"Polygon","coordinates":[[[3.05436,50.244],[3.05378,50.24486],[3.05404,50.24495],[3.05362,50.24552],[3.05461,50.24583],[3.05587,50.24436],[3.05436,50.244]]]}},{"type":"Feature","properties":{"k":"PPH","s":0.0},"geometry":{"type":"Polygon","coordinates":[[[3.05754,50.24539],[3.05751,50.24537],[3.05754,50.24541],[3.05754,50.24539]]]}},{"type":"Feature","properties":{"k":"BTA","s":0.218},"geometry":{"type":"Polygon","coordinates":[[[3.06267,50.24725],[3.0622,50.24706],[3.06171,50.24729],[3.06041,50.24694],[3.05982,50.24685],[3.05926,50.2466],[3.05896,50.24658],[3.05864,50.24636],[3.05828,50.24625],[3.05893,50.24662],[3.05923,50.24664],[3.05979,50.24689],[3.06167,50.24732],[3.06219,50.24711],[3.06267,50.24728],[3.06386,50.24717],[3.06267,50.24725]]]}},{"type":"Feature","properties":{"k":"BTH","s":4.42},"geometry":{"type":"Polygon","coordinates":[[[3.06362,50.26429],[3.06273,50.26292],[3.06104,50.26345],[3.06305,50.26602],[3.06505,50.26553],[3.06453,50.26485],[3.06362,50.26429]]]}},{"type":"Feature","properties":{"k":"BTH","s":1.354},"geometry":{"type":"Polygon","coordinates":[[[3.06686,50.26495],[3.06635,50.26521],[3.0666,50.26544],[3.06539,50.2658],[3.06567,50.26615],[3.06709,50.26576],[3.06794,50.26641],[3.06855,50.26634],[3.06686,50.26495]]]}},{"type":"Feature","properties":{"k":"JAC","s":0.075},"geometry":{"type":"Polygon","coordinates":[[[3.06794,50.26641],[3.06707,50.26575],[3.06567,50.26615],[3.06707,50.26578],[3.06792,50.26643],[3.06852,50.2664],[3.06794,50.26641]]]}},{"type":"Feature","properties":{"k":"JAC","s":0.038},"geometry":{"type":"Polygon","coordinates":[[[3.06659,50.26545],[3.06661,50.26541],[3.06635,50.26521],[3.06657,50.26542],[3.06543,50.26579],[3.06659,50.26545]]]}},{"type":"Feature","properties":{"k":"BTH","s":0.497},"geometry":{"type":"Polygon","coordinates":[[[3.06482,50.26507],[3.06488,50.26514],[3.06589,50.26486],[3.0663,50.26522],[3.06686,50.26494],[3.06611,50.26443],[3.06482,50.26507]]]}},{"type":"Feature","properties":{"k":"LUZ","s":0.202},"geometry":{"type":"Polygon","coordinates":[[[3.06962,50.26688],[3.06993,50.26654],[3.0692,50.26648],[3.06899,50.26681],[3.06962,50.26688]]]}},{"type":"Feature","properties":{"k":"JAC","s":0.617},"geometry":{"type":"Polygon","coordinates":[[[3.07,50.26655],[3.06973,50.26686],[3.07142,50.26738],[3.07163,50.26695],[3.07,50.26655]]]}},{"type":"Feature","properties":{"k":"LUZ","s":0.724},"geometry":{"type":"Polygon","coordinates":[[[3.07279,50.26752],[3.07442,50.26758],[3.07442,50.26737],[3.07162,50.26697],[3.07148,50.26739],[3.07279,50.26752]]]}},{"type":"Feature","properties":{"k":"LIF","s":3.934},"geometry":{"type":"Polygon","coordinates":[[[3.06397,50.24809],[3.06388,50.24721],[3.06267,50.24728],[3.06219,50.24711],[3.06167,50.24732],[3.05893,50.24662],[3.05828,50.24625],[3.05769,50.2469],[3.06124,50.24825],[3.06135,50.24802],[3.06397,50.24809]]]}},{"type":"Feature","properties":{"k":"BTN","s":4.366},"geometry":{"type":"Polygon","coordinates":[[[3.07,50.26654],[3.07302,50.26723],[3.07435,50.26734],[3.0767,50.26725],[3.07105,50.26546],[3.07,50.26654]]]}},{"type":"Feature","properties":{"k":"BTH","s":3.616},"geometry":{"type":"Polygon","coordinates":[[[3.0685,50.26127],[3.06763,50.26179],[3.07185,50.26467],[3.07253,50.26405],[3.0685,50.26127]]]}},{"type":"Feature","properties":{"k":"BTH","s":20.73},"geometry":{"type":"Polygon","coordinates":[[[3.06632,50.25883],[3.06589,50.25856],[3.06472,50.25977],[3.06763,50.26178],[3.0685,50.26127],[3.07253,50.26405],[3.07271,50.26047],[3.06865,50.25765],[3.06701,50.25684],[3.06639,50.25806],[3.06697,50.25836],[3.06697,50.25837],[3.06632,50.25883]]]}},{"type":"Feature","properties":{"k":"PTC","s":14.646},"geometry":{"type":"Polygon","coordinates":[[[3.07785,50.25988],[3.07277,50.2584],[3.07292,50.25927],[3.0727,50.26196],[3.07681,50.26326],[3.07879,50.26062],[3.07785,50.25988]]]}},{"type":"Feature","properties":{"k":"BOR","s":0.053},"geometry":{"type":"Polygon","coordinates":[]}},{"type":"Feature","properties":{"k":"TTH","s":4.976},"geometry":{"type":"Polygon","coordinates":[[[3.07884,50.26062],[3.07777,50.26205],[3.08134,50.26326],[3.08141,50.26292],[3.08216,50.26267],[3.08257,50.26197],[3.07884,50.26062]]]}},{"type":"Feature","properties":{"k":"PHF","s":6.952},"geometry":{"type":"Polygon","coordinates":[[[3.07687,50.26325],[3.08236,50.26497],[3.08392,50.26361],[3.08398,50.26349],[3.08305,50.26331],[3.08134,50.26329],[3.07775,50.26207],[3.07687,50.26325]]]}},{"type":"Feature","properties":{"k":"BOR","s":0.176},"geometry":{"type":"Polygon","coordinates":[[[3.07687,50.26325],[3.07773,50.26204],[3.07681,50.26326],[3.08232,50.26496],[3.07687,50.26325]]]}},{"type":"Feature","properties":{"k":"BTH","s":7.645},"geometry":{"type":"Polygon","coordinates":[[[3.07462,50.26258],[3.07269,50.26196],[3.07273,50.26324],[3.07974,50.26546],[3.08083,50.26452],[3.07462,50.26258]]]}},{"type":"Feature","properties":{"k":"PHF","s":5.631},"geometry":{"type":"Polygon","coordinates":[[[3.07245,50.26422],[3.07884,50.26623],[3.07974,50.26546],[3.07273,50.26325],[3.07245,50.26422]]]}},{"type":"Feature","properties":{"k":"BTH","s":8.999},"geometry":{"type":"Polygon","coordinates":[[[3.0767,50.26724],[3.07734,50.26711],[3.07822,50.2674],[3.07936,50.26733],[3.07985,50.26712],[3.07834,50.26666],[3.07883,50.26624],[3.07246,50.26424],[3.07106,50.26546],[3.0767,50.26724]]]}},{"type":"Feature","properties":{"k":"BTH","s":0.68},"geometry":{"type":"Polygon","coordinates":[[[3.08033,50.2667],[3.07883,50.26624],[3.07834,50.26666],[3.07985,50.26712],[3.08033,50.2667]]]}},{"type":"Feature","properties":{"k":"BTH","s":2.763},"geometry":{"type":"Polygon","coordinates":[[[3.08231,50.26499],[3.08083,50.26452],[3.07883,50.26624],[3.08033,50.2667],[3.08231,50.26499]]]}},{"type":"Feature","properties":{"k":"BTN","s":1.819},"geometry":{"type":"Polygon","coordinates":[[[3.08537,50.26408],[3.08414,50.26356],[3.08273,50.26489],[3.08379,50.26539],[3.08537,50.26408]]]}},{"type":"Feature","properties":{"k":"BTN","s":2.947},"geometry":{"type":"Polygon","coordinates":[[[3.08365,50.26667],[3.08176,50.26558],[3.08027,50.26689],[3.08237,50.26773],[3.08365,50.26667]]]}},{"type":"Feature","properties":{"k":"BTH","s":1.269},"geometry":{"type":"Polygon","coordinates":[[[3.08231,50.26512],[3.08176,50.26558],[3.08365,50.26667],[3.0842,50.26608],[3.08231,50.26512]]]}},{"type":"Feature","properties":{"k":"PTC","s":2.822},"geometry":{"type":"Polygon","coordinates":[[[3.08845,50.26125],[3.08492,50.26251],[3.08552,50.26283],[3.08624,50.26271],[3.08655,50.26295],[3.08962,50.26192],[3.08845,50.26125]]]}},{"type":"Feature","properties":{"k":"PHF","s":8.427},"geometry":{"type":"Polygon","coordinates":[[[3.08119,50.26152],[3.08373,50.2623],[3.08719,50.25948],[3.08531,50.25822],[3.08119,50.26152]]]}},{"type":"Feature","properties":{"k":"PTC","s":3.986},"geometry":{"type":"Polygon","coordinates":[[[3.08374,50.26231],[3.08447,50.26257],[3.08828,50.26124],[3.08677,50.25983],[3.08374,50.26231]]]}},{"type":"Feature","properties":{"k":"BOR","s":0.073},"geometry":{"type":"Polygon","coordinates":[[[3.08628,50.25873],[3.08753,50.25791],[3.08747,50.25788],[3.08628,50.25873]]]}},{"type":"Feature","properties":{"k":"LUZ","s":1.792},"geometry":{"type":"Polygon","coordinates":[[[3.08858,50.25665],[3.08343,50.25514],[3.08333,50.25529],[3.08421,50.25548],[3.0868,50.25649],[3.08729,50.25684],[3.08807,50.25702],[3.08864,50.25755],[3.08945,50.25702],[3.08858,50.25665]]]}},{"type":"Feature","properties":{"k":"LUZ","s":3.242},"geometry":{"type":"Polygon","coordinates":[[[3.08729,50.25694],[3.08663,50.25649],[3.08409,50.25549],[3.08323,50.25537],[3.08286,50.2557],[3.08753,50.25791],[3.0884,50.25733],[3.08729,50.25694]]]}},{"type":"Feature","properties":{"k":"EPI","s":4.65},"geometry":{"type":"Polygon","coordinates":[[[3.08293,50.25573],[3.0819,50.25665],[3.08504,50.25792],[3.08622,50.25869],[3.08743,50.25786],[3.08293,50.25573]]]}},{"type":"Feature","properties":{"k":"BOR","s":0.076},"geometry":{"type":"Polygon","coordinates":[[[3.08293,50.25573],[3.08286,50.2557],[3.08183,50.25661],[3.08293,50.25573]]]}},{"type":"Feature","properties":{"k":"CZH","s":0.576},"geometry":{"type":"Polygon","coordinates":[[[3.0809,50.2562],[3.08179,50.25661],[3.08239,50.25606],[3.08151,50.25567],[3.0809,50.2562]]]}},{"type":"Feature","properties":{"k":"BTH","s":6.813},"geometry":{"type":"Polygon","coordinates":[[[3.0795,50.26087],[3.08115,50.26153],[3.08531,50.2582],[3.08365,50.25748],[3.0795,50.26087]]]}},{"type":"Feature","properties":{"k":"CZH","s":3.011},"geometry":{"type":"Polygon","coordinates":[[[3.08101,50.25962],[3.08363,50.25749],[3.08286,50.2572],[3.07878,50.26051],[3.07951,50.26086],[3.08101,50.25962]]]}},{"type":"Feature","properties":{"k":"CZH","s":3.0},"geometry":{"type":"Polygon","coordinates":[[[3.07878,50.26051],[3.08286,50.2572],[3.08212,50.25687],[3.07813,50.26011],[3.07878,50.26051]]]}},{"type":"Feature","properties":{"k":"CZH","s":6.421},"geometry":{"type":"Polygon","coordinates":[[[3.07766,50.25738],[3.0776,50.25917],[3.07813,50.26011],[3.08212,50.25687],[3.08081,50.25627],[3.08049,50.25654],[3.08002,50.2563],[3.07836,50.25763],[3.07766,50.25738]]]}},{"type":"Feature","properties":{"k":"BTH","s":10.836},"geometry":{"type":"Polygon","coordinates":[[[3.072,50.25585],[3.07277,50.2584],[3.07783,50.25983],[3.07751,50.25919],[3.07747,50.25696],[3.0736,50.25579],[3.07379,50.2563],[3.072,50.25585]]]}},{"type":"Feature","properties":{"k":"JAC","s":0.092},"geometry":{"type":"Polygon","coordinates":[[[3.07551,50.25641],[3.07747,50.25696],[3.07358,50.25575],[3.07551,50.25641]]]}},{"type":"Feature","properties":{"k":"MIS","s":0.858},"geometry":{"type":"Polygon","coordinates":[[[3.06364,50.25156],[3.0633,50.25189],[3.06459,50.25231],[3.06542,50.25134],[3.06364,50.25156]]]}},{"type":"Feature","properties":{"k":"ORH","s":3.766},"geometry":{"type":"Polygon","coordinates":[[[3.08821,50.26001],[3.08933,50.25936],[3.08957,50.25879],[3.0884,50.25733],[3.08628,50.25873],[3.08821,50.26001]]]}},{"type":"Feature","properties":{"k":"PTR","s":0.262},"geometry":{"type":"Polygon","coordinates":[[[3.05728,50.24857],[3.05698,50.24849],[3.05621,50.24886],[3.05681,50.24911],[3.05728,50.24857]]]}},{"type":"Feature","properties":{"k":"LIF","s":2.836},"geometry":{"type":"Polygon","coordinates":[[[3.05621,50.24886],[3.05407,50.24975],[3.05676,50.25073],[3.05798,50.2495],[3.05621,50.24886]]]}},{"type":"Feature","properties":{"k":"BOR","s":0.035},"geometry":{"type":"Polygon","coordinates":[[[3.05678,50.24914],[3.05801,50.24947],[3.05699,50.24917],[3.05678,50.24914]]]}},{"type":"Feature","properties":{"k":"BFS","s":0.129},"geometry":{"type":"Polygon","coordinates":[[[3.05735,50.25037],[3.05815,50.24951],[3.05801,50.24947],[3.05721,50.25031],[3.05735,50.25037]]]}},{"type":"Feature","properties":{"k":"PPH","s":0.406},"geometry":{"type":"Polygon","coordinates":[[[3.06255,50.25252],[3.06086,50.2519],[3.06138,50.25137],[3.06115,50.25129],[3.06048,50.25196],[3.06242,50.25264],[3.06255,50.25252]]]}},{"type":"Feature","properties":{"k":"LIF","s":2.096},"geometry":{"type":"Polygon","coordinates":[[[3.05169,50.25248],[3.05234,50.25283],[3.055,50.25011],[3.05425,50.24984],[3.05169,50.25248]]]}},{"type":"Feature","properties":{"k":"LIF","s":1.117},"geometry":{"type":"Polygon","coordinates":[[[3.05234,50.25283],[3.05267,50.25302],[3.05539,50.25023],[3.05502,50.25009],[3.05234,50.25283]]]}},{"type":"Feature","properties":{"k":"BTH","s":0.732},"geometry":{"type":"Polygon","coordinates":[[[3.05609,50.24831],[3.05548,50.24816],[3.0546,50.24955],[3.05637,50.24867],[3.05594,50.24856],[3.05609,50.24831]]]}},{"type":"Feature","properties":{"k":"BTH","s":0.317},"geometry":{"type":"Polygon","coordinates":[[[3.05458,50.24955],[3.05548,50.24816],[3.05525,50.2481],[3.05425,50.24962],[3.05458,50.24955]]]}},{"type":"Feature","properties":{"k":"BTN","s":1.434},"geometry":{"type":"Polygon","coordinates":[[[3.05434,50.24787],[3.05311,50.24973],[3.05423,50.24963],[3.05525,50.2481],[3.05434,50.24787]]]}},{"type":"Feature","properties":{"k":"LIF","s":0.974},"geometry":{"type":"Polygon","coordinates":[[[3.05314,50.24966],[3.0543,50.24793],[3.0537,50.24779],[3.05246,50.24969],[3.05314,50.24966]]]}},{"type":"Feature","properties":{"k":"JAC","s":0.002},"geometry":{"type":"Polygon","coordinates":[[[3.05406,50.2497],[3.05395,50.24972],[3.05407,50.24975],[3.05406,50.2497]]]}},{"type":"Feature","properties":{"k":"BOR","s":0.045},"geometry":{"type":"Polygon","coordinates":[[[3.05246,50.24969],[3.0524,50.24979],[3.05309,50.24974],[3.05246,50.24969]]]}},{"type":"Feature","properties":{"k":"BTH","s":2.19},"geometry":{"type":"Polygon","coordinates":[[[3.05236,50.24979],[3.05373,50.24771],[3.05269,50.24745],[3.05108,50.2499],[3.05236,50.24979]]]}},{"type":"Feature","properties":{"k":"LIF","s":2.135},"geometry":{"type":"Polygon","coordinates":[[[3.04905,50.2511],[3.04973,50.2516],[3.05139,50.24996],[3.04853,50.24998],[3.04905,50.2511]]]}},{"type":"Feature","properties":{"k":"LIF","s":4.906},"geometry":{"type":"Polygon","coordinates":[[[3.05169,50.25247],[3.05424,50.24985],[3.0539,50.24973],[3.05139,50.24996],[3.04974,50.25161],[3.05169,50.25247]]]}},{"type":"Feature","properties":{"k":"BTH","s":4.207},"geometry":{"type":"Polygon","coordinates":[[[3.04489,50.25258],[3.04639,50.25302],[3.04855,50.25028],[3.04841,50.2499],[3.04699,50.24991],[3.04489,50.25258]]]}},{"type":"Feature","properties":{"k":"MIS","s":0.838},"geometry":{"type":"Polygon","coordinates":[[[3.04489,50.25258],[3.04699,50.24991],[3.04653,50.24997],[3.04457,50.2525],[3.04489,50.25258]]]}},{"type":"Feature","properties":{"k":"BTH","s":4.177},"geometry":{"type":"Polygon","coordinates":[[[3.04472,50.2502],[3.04273,50.25092],[3.04344,50.25123],[3.04324,50.25143],[3.04276,50.25124],[3.04226,50.25184],[3.04456,50.2525],[3.04652,50.24997],[3.04472,50.2502]]]}},{"type":"Feature","properties":{"k":"BTN","s":0.628},"geometry":{"type":"Polygon","coordinates":[[[3.04371,50.24927],[3.04332,50.24963],[3.04464,50.25016],[3.04554,50.25002],[3.04371,50.24927]]]}},{"type":"Feature","properties":{"k":"BTN","s":0.215},"geometry":{"type":"Polygon","coordinates":[[[3.04314,50.24978],[3.04437,50.25025],[3.04464,50.25016],[3.04332,50.24963],[3.04314,50.24978]]]}},{"type":"Feature","properties":{"k":"BTN","s":0.043},"geometry":{"type":"MultiPolygon","coordinates":[[[[3.04404,50.24893],[3.04434,50.2486],[3.04342,50.24953],[3.04404,50.24893]]],[[[3.04257,50.24989],[3.04245,50.24984],[3.04245,50.24985],[3.04257,50.24989]]]]}},{"type":"Feature","properties":{"k":"BTH","s":16.789},"geometry":{"type":"Polygon","coordinates":[[[3.05196,50.24819],[3.04988,50.24769],[3.05037,50.24692],[3.0458,50.24571],[3.04538,50.24632],[3.04563,50.24676],[3.04508,50.24773],[3.04409,50.24889],[3.04663,50.24989],[3.04767,50.2498],[3.05108,50.2499],[3.05269,50.24745],[3.0525,50.24741],[3.05196,50.24819]]]}},{"type":"Feature","properties":{"k":"BTH","s":6.989},"geometry":{"type":"Polygon","coordinates":[[[3.04468,50.24533],[3.05097,50.24697],[3.05188,50.24534],[3.05255,50.24563],[3.05275,50.2454],[3.05187,50.24515],[3.05175,50.24531],[3.05021,50.24489],[3.04987,50.24537],[3.04576,50.24433],[3.04468,50.24533]]]}},{"type":"Feature","properties":{"k":"PPH","s":2.461},"geometry":{"type":"Polygon","coordinates":[[[3.05028,50.24453],[3.04599,50.24391],[3.04548,50.24408],[3.04604,50.24444],[3.04787,50.24491],[3.04987,50.24536],[3.05028,50.24453]]]}},{"type":"Feature","properties":{"k":"BTH","s":0.002},"geometry":{"type":"MultiPolygon","coordinates":[[[[3.04475,50.24575],[3.04512,50.24607],[3.0451,50.24604],[3.04475,50.24575]]]]}},{"type":"Feature","properties":{"k":"BTH","s":0.154},"geometry":{"type":"Polygon","coordinates":[[[3.04549,50.24563],[3.04518,50.24608],[3.04538,50.24632],[3.0458,50.24571],[3.04549,50.24563]]]}},{"type":"Feature","properties":{"k":"PPH","s":0.23},"geometry":{"type":"Polygon","coordinates":[[[3.04547,50.24562],[3.04455,50.24538],[3.04446,50.24547],[3.04516,50.24607],[3.04547,50.24562]]]}},{"type":"Feature","properties":{"k":"BTN","s":0.553},"geometry":{"type":"Polygon","coordinates":[[[3.04237,50.25323],[3.04305,50.25344],[3.04353,50.25281],[3.04238,50.25247],[3.04237,50.25323]]]}},{"type":"Feature","properties":{"k":"VES","s":1.388},"geometry":{"type":"Polygon","coordinates":[[[3.04373,50.25363],[3.04457,50.2525],[3.04226,50.25184],[3.04238,50.25247],[3.04355,50.25282],[3.04306,50.25345],[3.04373,50.25363]]]}},{"type":"Feature","properties":{"k":"ORP","s":1.347},"geometry":{"type":"Polygon","coordinates":[[[3.04554,50.25409],[3.04639,50.25302],[3.04514,50.25265],[3.04425,50.25375],[3.04554,50.25409]]]}},{"type":"Feature","properties":{"k":"BTN","s":8.236},"geometry":{"type":"Polygon","coordinates":[[[3.04762,50.25472],[3.04802,50.25441],[3.04857,50.25448],[3.05053,50.252],[3.04906,50.25117],[3.04855,50.25028],[3.04554,50.25409],[3.04762,50.25472]]]}},{"type":"Feature","properties":{"k":"BTN","s":2.223},"geometry":{"type":"Polygon","coordinates":[[[3.04313,50.25421],[3.04344,50.25515],[3.04427,50.25537],[3.04514,50.25405],[3.04237,50.25331],[3.0424,50.25377],[3.04313,50.25421]]]}},{"type":"Feature","properties":{"k":"BTH","s":1.373},"geometry":{"type":"Polygon","coordinates":[[[3.04471,50.25744],[3.04268,50.25648],[3.04242,50.25729],[3.04406,50.25801],[3.04471,50.25744]]]}},{"type":"Feature","properties":{"k":"JAC","s":1.414},"geometry":{"type":"Polygon","coordinates":[[[3.04525,50.25604],[3.0447,50.25559],[3.04507,50.25601],[3.0449,50.25669],[3.04454,50.25705],[3.04398,50.25682],[3.04387,50.25692],[3.04562,50.25769],[3.04633,50.25698],[3.04525,50.25604]]]}},{"type":"Feature","properties":{"k":"ORP","s":8.25},"geometry":{"type":"Polygon","coordinates":[[[3.04514,50.25404],[3.04426,50.25538],[3.04484,50.25566],[3.04635,50.25697],[3.04562,50.25769],[3.04684,50.25822],[3.04946,50.25533],[3.04829,50.25509],[3.04514,50.25404]]]}},{"type":"Feature","properties":{"k":"BTH","s":8.855},"geometry":{"type":"Polygon","coordinates":[[[3.04869,50.25905],[3.04943,50.2591],[3.05253,50.25571],[3.05119,50.25539],[3.04947,50.25532],[3.04685,50.25823],[3.04869,50.25905]]]}},{"type":"Feature","properties":{"k":"MIS","s":1.024},"geometry":{"type":"Polygon","coordinates":[[[3.0462,50.25799],[3.04472,50.25745],[3.04408,50.25801],[3.04553,50.25863],[3.0462,50.25799]]]}},{"type":"Feature","properties":{"k":"ORP","s":1.465},"geometry":{"type":"Polygon","coordinates":[[[3.04553,50.25863],[3.04242,50.25729],[3.04223,50.25781],[3.04504,50.25906],[3.04553,50.25863]]]}},{"type":"Feature","properties":{"k":"BTH","s":4.058},"geometry":{"type":"Polygon","coordinates":[[[3.04176,50.25996],[3.0433,50.26065],[3.04504,50.25906],[3.04223,50.25781],[3.04176,50.25996]]]}},{"type":"Feature","properties":{"k":"BTH","s":0.649},"geometry":{"type":"Polygon","coordinates":[[[3.04298,50.26093],[3.04317,50.26102],[3.04641,50.25809],[3.04621,50.25799],[3.04298,50.26093]]]}},{"type":"Feature","properties":{"k":"ORP","s":0.506},"geometry":{"type":"Polygon","coordinates":[[[3.04297,50.26093],[3.0433,50.26065],[3.04176,50.25996],[3.04159,50.26033],[3.04297,50.26093]]]}},{"type":"Feature","properties":{"k":"CZH","s":3.329},"geometry":{"type":"Polygon","coordinates":[[[3.04492,50.26188],[3.04155,50.26042],[3.04106,50.26137],[3.044,50.26285],[3.04492,50.26188]]]}},{"type":"Feature","properties":{"k":"PHF","s":0.002},"geometry":{"type":"Polygon","coordinates":[[[3.04049,50.26225],[3.0405,50.26225],[3.04071,50.26189],[3.04049,50.26225]]]}},{"type":"Feature","properties":{"k":"CZH","s":1.233},"geometry":{"type":"Polygon","coordinates":[[[3.05257,50.26859],[3.04982,50.26688],[3.04936,50.26718],[3.05184,50.26873],[3.05257,50.26859]]]}},{"type":"Feature","properties":{"k":"BTH","s":1.25},"geometry":{"type":"Polygon","coordinates":[[[3.0518,50.2688],[3.04975,50.26991],[3.04894,50.27011],[3.04937,50.27042],[3.05062,50.27003],[3.05119,50.26965],[3.0523,50.26928],[3.0518,50.2688]]]}},{"type":"Feature","properties":{"k":"BTH","s":4.223},"geometry":{"type":"Polygon","coordinates":[[[3.04855,50.26959],[3.04442,50.27163],[3.0429,50.27272],[3.04201,50.27307],[3.04261,50.27341],[3.04291,50.27338],[3.04885,50.27007],[3.04927,50.27002],[3.04855,50.26959]]]}},{"type":"Feature","properties":{"k":"BTH","s":2.256},"geometry":{"type":"Polygon","coordinates":[[[3.04746,50.26844],[3.04973,50.26985],[3.05074,50.26925],[3.04842,50.2678],[3.04746,50.26844]]]}},{"type":"Feature","properties":{"k":"BTH","s":1.722},"geometry":{"type":"Polygon","coordinates":[[[3.04719,50.27018],[3.04765,50.26994],[3.04364,50.26745],[3.04381,50.26738],[3.04648,50.26904],[3.04381,50.26737],[3.04313,50.26766],[3.04719,50.27018]]]}},{"type":"Feature","properties":{"k":"BTH","s":0.545},"geometry":{"type":"Polygon","coordinates":[[[3.04364,50.26745],[3.04766,50.26994],[3.04781,50.26987],[3.04381,50.26738],[3.04364,50.26745]]]}},{"type":"Feature","properties":{"k":"PTC","s":4.161},"geometry":{"type":"Polygon","coordinates":[[[3.04783,50.26988],[3.04845,50.26957],[3.04707,50.26867],[3.04776,50.26817],[3.0453,50.26662],[3.04445,50.2671],[3.04495,50.26745],[3.04438,50.26713],[3.04382,50.26737],[3.04783,50.26988]]]}},{"type":"Feature","properties":{"k":"BTH","s":5.88},"geometry":{"type":"Polygon","coordinates":[[[3.04705,50.27026],[3.04297,50.26773],[3.04139,50.26856],[3.04539,50.27106],[3.04705,50.27026]]]}},{"type":"Feature","properties":{"k":"MID","s":7.488},"geometry":{"type":"Polygon","coordinates":[[[3.04445,50.27152],[3.04056,50.26911],[3.03909,50.26984],[3.0404,50.27072],[3.03903,50.27157],[3.04065,50.27253],[3.042,50.27168],[3.04318,50.27243],[3.04445,50.27152]]]}},{"type":"Feature","properties":{"k":"LUZ","s":0.359},"geometry":{"type":"Polygon","coordinates":[[[3.03664,50.26902],[3.03646,50.26937],[3.03764,50.26865],[3.03708,50.26821],[3.03664,50.26902]]]}},{"type":"Feature","properties":{"k":"CZH","s":3.314},"geometry":{"type":"Polygon","coordinates":[[[3.04445,50.27152],[3.04539,50.27106],[3.04139,50.26856],[3.0405,50.26903],[3.04445,50.27152]]]}},{"type":"Feature","properties":{"k":"MIS","s":1.021},"geometry":{"type":"Polygon","coordinates":[[[3.03765,50.26866],[3.03889,50.26797],[3.03767,50.26705],[3.03738,50.2676],[3.0378,50.26798],[3.03708,50.2682],[3.03765,50.26866]]]}},{"type":"Feature","properties":{"k":"JAC","s":0.14},"geometry":{"type":"Polygon","coordinates":[[[3.03708,50.2682],[3.0378,50.26798],[3.03738,50.2676],[3.03708,50.2682]]]}},{"type":"Feature","properties":{"k":"JAC","s":0.198},"geometry":{"type":"Polygon","coordinates":[[[3.04816,50.27729],[3.04785,50.27743],[3.0485,50.27791],[3.0489,50.27788],[3.04816,50.27729]]]}},{"type":"Feature","properties":{"k":"PPH","s":0.44},"geometry":{"type":"Polygon","coordinates":[[[3.04961,50.27771],[3.04879,50.27708],[3.04818,50.27728],[3.04892,50.27788],[3.04961,50.27771]]]}},{"type":"Feature","properties":{"k":"LUZ","s":1.057},"geometry":{"type":"Polygon","coordinates":[[[3.05708,50.26778],[3.05911,50.26768],[3.05907,50.26735],[3.05654,50.26755],[3.05241,50.26848],[3.05261,50.26858],[3.05708,50.26778]]]}},{"type":"Feature","properties":{"k":"BTN","s":0.57},"geometry":{"type":"Polygon","coordinates":[[[3.05805,50.273],[3.05729,50.27327],[3.05746,50.27339],[3.06069,50.27269],[3.06088,50.27246],[3.05805,50.273]]]}},{"type":"Feature","properties":{"k":"PPH","s":2.0},"geometry":{"type":"Polygon","coordinates":[[[3.07351,50.2683],[3.0766,50.2686],[3.07646,50.26758],[3.07362,50.26765],[3.07351,50.2683]]]}},{"type":"Feature","properties":{"k":"MIS","s":1.092},"geometry":{"type":"Polygon","coordinates":[[[3.07959,50.26737],[3.07853,50.26744],[3.07931,50.26892],[3.08026,50.26888],[3.07991,50.26852],[3.07959,50.26737]]]}},{"type":"Feature","properties":{"k":"MIS","s":0.61},"geometry":{"type":"Polygon","coordinates":[[[3.0799,50.26834],[3.08069,50.2686],[3.08111,50.26811],[3.07973,50.26751],[3.0799,50.26834]]]}},{"type":"Feature","properties":{"k":"MIS","s":2.288},"geometry":{"type":"Polygon","coordinates":[[[3.05184,50.26873],[3.04936,50.26718],[3.04842,50.2678],[3.05074,50.26925],[3.05184,50.26873]]]}}]}