{"type":"FeatureCollection","features":[{"type":"Feature","properties":{"k":"BTH","s":0.014},"geometry":{"type":"Polygon","coordinates":[[[2.15036,50.70435],[2.15063,50.70402],[2.15029,50.7043],[2.15036,50.70435]]]}},{"type":"Feature","properties":{"k":"PTR","s":1.166},"geometry":{"type":"Polygon","coordinates":[[[2.09518,50.6737],[2.09602,50.67414],[2.09749,50.67296],[2.09679,50.67264],[2.09518,50.6737]]]}},{"type":"Feature","properties":{"k":"ORH","s":1.254},"geometry":{"type":"Polygon","coordinates":[[[2.09699,50.67337],[2.09602,50.67415],[2.09517,50.67371],[2.09495,50.67387],[2.0966,50.67476],[2.09782,50.6738],[2.09699,50.67337]]]}},{"type":"Feature","properties":{"k":"PPH","s":0.696},"geometry":{"type":"Polygon","coordinates":[[[2.08843,50.67808],[2.08866,50.67813],[2.08846,50.67857],[2.08895,50.67854],[2.08899,50.67814],[2.09029,50.67809],[2.08944,50.67739],[2.08843,50.67808]]]}},{"type":"Feature","properties":{"k":"LIF","s":0.0},"geometry":{"type":"MultiPolygon","coordinates":[]}},{"type":"Feature","properties":{"k":"BTH","s":0.333},"geometry":{"type":"MultiPolygon","coordinates":[[[[2.09236,50.67565],[2.09247,50.67569],[2.09403,50.67623],[2.0941,50.67611],[2.09463,50.67628],[2.09469,50.67619],[2.09256,50.67552],[2.09236,50.67565]]],[[[2.09235,50.67565],[2.09236,50.67566],[2.09236,50.67565],[2.09235,50.67565]]]]}},{"type":"Feature","properties":{"k":"MIS","s":0.405},"geometry":{"type":"Polygon","coordinates":[[[2.09256,50.67552],[2.09469,50.67619],[2.09482,50.676],[2.09284,50.67534],[2.09256,50.67552]]]}},{"type":"Feature","properties":{"k":"BTH","s":0.239},"geometry":{"type":"Polygon","coordinates":[[[2.09645,50.67489],[2.0966,50.67477],[2.0949,50.67392],[2.09476,50.67402],[2.09645,50.67489]]]}},{"type":"Feature","properties":{"k":"ORH","s":1.676},"geometry":{"type":"Polygon","coordinates":[[[2.09588,50.67504],[2.09565,50.67525],[2.09745,50.67603],[2.09793,50.67553],[2.09665,50.67473],[2.09645,50.67489],[2.09474,50.67402],[2.09446,50.67425],[2.09588,50.67504]]]}},{"type":"Feature","properties":{"k":"BTH","s":2.124},"geometry":{"type":"Polygon","coordinates":[[[2.09708,50.67641],[2.09745,50.67603],[2.09565,50.67525],[2.09588,50.67504],[2.09435,50.67431],[2.09341,50.67496],[2.09708,50.67641]]]}},{"type":"Feature","properties":{"k":"BTH","s":1.568},"geometry":{"type":"Polygon","coordinates":[[[2.09674,50.67673],[2.09476,50.67607],[2.09463,50.67628],[2.0941,50.67611],[2.09403,50.67623],[2.09235,50.67565],[2.09203,50.67582],[2.09384,50.67656],[2.09646,50.67715],[2.09674,50.67673]]]}},{"type":"Feature","properties":{"k":"PPH","s":0.143},"geometry":{"type":"Polygon","coordinates":[[[2.09354,50.67661],[2.09357,50.67716],[2.09383,50.67719],[2.09387,50.67657],[2.09354,50.67661]]]}},{"type":"Feature","properties":{"k":"TRE","s":0.515},"geometry":{"type":"Polygon","coordinates":[[[2.09402,50.67853],[2.09433,50.67819],[2.09287,50.67774],[2.09227,50.67784],[2.09402,50.67853]]]}},{"type":"Feature","properties":{"k":"PPH","s":1.009},"geometry":{"type":"Polygon","coordinates":[[[2.09387,50.67658],[2.09382,50.67719],[2.09224,50.67751],[2.09239,50.67771],[2.09342,50.67762],[2.09425,50.67779],[2.09486,50.67679],[2.09387,50.67658]]]}},{"type":"Feature","properties":{"k":"BTH","s":1.886},"geometry":{"type":"Polygon","coordinates":[[[2.09059,50.67668],[2.09143,50.67719],[2.0939,50.67648],[2.09203,50.67582],[2.09119,50.67615],[2.09073,50.67645],[2.09085,50.67652],[2.09059,50.67668]]]}},{"type":"Feature","properties":{"k":"BOR","s":0.033},"geometry":{"type":"Polygon","coordinates":[[[2.09046,50.67663],[2.09043,50.67666],[2.0914,50.67721],[2.09046,50.67663]]]}},{"type":"Feature","properties":{"k":"BTH","s":0.156},"geometry":{"type":"Polygon","coordinates":[[[2.09105,50.67728],[2.09136,50.67722],[2.0906,50.67676],[2.09027,50.67677],[2.09105,50.67728]]]}},{"type":"Feature","properties":{"k":"BTH","s":1.291},"geometry":{"type":"Polygon","coordinates":[[[2.09024,50.67681],[2.08945,50.67738],[2.09028,50.67808],[2.09184,50.67782],[2.09134,50.67725],[2.09105,50.67731],[2.09024,50.67681]]]}},{"type":"Feature","properties":{"k":"CHU","s":0.302},"geometry":{"type":"Polygon","coordinates":[[[2.09186,50.67778],[2.09237,50.6777],[2.09191,50.67706],[2.09142,50.67721],[2.09186,50.67778]]]}},{"type":"Feature","properties":{"k":"BOR","s":0.022},"geometry":{"type":"Polygon","coordinates":[[[2.09184,50.67782],[2.09188,50.67781],[2.09138,50.67724],[2.09184,50.67782]]]}},{"type":"Feature","properties":{"k":"BTH","s":11.564},"geometry":{"type":"Polygon","coordinates":[[[2.08871,50.6801],[2.0911,50.6806],[2.09281,50.68115],[2.09487,50.67886],[2.09227,50.67784],[2.09155,50.67802],[2.09125,50.67844],[2.08782,50.67861],[2.08674,50.67996],[2.08871,50.6801]]]}},{"type":"Feature","properties":{"k":"BTH","s":1.649},"geometry":{"type":"Polygon","coordinates":[[[2.09356,50.67764],[2.0931,50.67781],[2.09697,50.67922],[2.09748,50.6787],[2.09498,50.67785],[2.09476,50.67793],[2.09356,50.67764]]]}},{"type":"Feature","properties":{"k":"MIS","s":0.542},"geometry":{"type":"Polygon","coordinates":[[[2.09417,50.67837],[2.09679,50.67942],[2.09699,50.67923],[2.09433,50.67819],[2.09417,50.67837]]]}},{"type":"Feature","properties":{"k":"PTR","s":2.248},"geometry":{"type":"Polygon","coordinates":[[[2.09739,50.67883],[2.09679,50.67942],[2.09417,50.67837],[2.09402,50.67853],[2.09725,50.6798],[2.09813,50.68036],[2.09947,50.67896],[2.09857,50.67871],[2.09825,50.67908],[2.09739,50.67883]]]}},{"type":"Feature","properties":{"k":"PPH","s":0.62},"geometry":{"type":"Polygon","coordinates":[[[2.0947,50.67908],[2.09718,50.68013],[2.09738,50.67992],[2.09723,50.67982],[2.09487,50.67886],[2.0947,50.67908]]]}},{"type":"Feature","properties":{"k":"BTH","s":0.836},"geometry":{"type":"Polygon","coordinates":[[[2.09281,50.68115],[2.09318,50.68131],[2.09509,50.67924],[2.0947,50.67908],[2.09281,50.68115]]]}},{"type":"Feature","properties":{"k":"LBF","s":2.511},"geometry":{"type":"Polygon","coordinates":[[[2.09318,50.68132],[2.09424,50.68183],[2.0962,50.67971],[2.09508,50.67924],[2.09318,50.68132]]]}},{"type":"Feature","properties":{"k":"PHF","s":6.106},"geometry":{"type":"Polygon","coordinates":[[[2.09604,50.68263],[2.09693,50.68268],[2.0988,50.68087],[2.09739,50.67992],[2.09717,50.68013],[2.0962,50.67971],[2.09424,50.68183],[2.09604,50.68263]]]}},{"type":"Feature","properties":{"k":"BTH","s":0.152},"geometry":{"type":"Polygon","coordinates":[[[2.08847,50.67853],[2.08866,50.67813],[2.08843,50.67808],[2.08784,50.67857],[2.08847,50.67853]]]}},{"type":"Feature","properties":{"k":"BTH","s":0.006},"geometry":{"type":"Polygon","coordinates":[[[2.08685,50.67972],[2.087,50.67951],[2.08665,50.67993],[2.08685,50.67972]]]}},{"type":"Feature","properties":{"k":"BTH","s":0.003},"geometry":{"type":"Polygon","coordinates":[[[2.08667,50.68002],[2.08627,50.68059],[2.08669,50.68002],[2.08667,50.68002]]]}},{"type":"Feature","properties":{"k":"PPH","s":3.784},"geometry":{"type":"Polygon","coordinates":[[[2.08638,50.68235],[2.08632,50.68217],[2.08692,50.6817],[2.0873,50.68183],[2.08865,50.68018],[2.08669,50.68001],[2.08479,50.68253],[2.08573,50.6829],[2.08604,50.68266],[2.0865,50.68285],[2.08687,50.68256],[2.08638,50.68235]]]}},{"type":"Feature","properties":{"k":"BTH","s":1.0},"geometry":{"type":"Polygon","coordinates":[[[2.09561,50.68985],[2.09564,50.6892],[2.09425,50.68896],[2.0937,50.68998],[2.09434,50.6898],[2.09561,50.68985]]]}},{"type":"Feature","properties":{"k":"BTH","s":3.606},"geometry":{"type":"Polygon","coordinates":[[[2.09465,50.68735],[2.09228,50.68957],[2.09276,50.68975],[2.09364,50.68878],[2.09575,50.68915],[2.09714,50.68819],[2.09621,50.68774],[2.09604,50.68792],[2.09465,50.68735]]]}},{"type":"Feature","properties":{"k":"MIS","s":2.494},"geometry":{"type":"Polygon","coordinates":[[[2.09382,50.68808],[2.09466,50.68734],[2.0955,50.6877],[2.09751,50.68559],[2.09658,50.68521],[2.09364,50.688],[2.09382,50.68808]]]}},{"type":"Feature","properties":{"k":"BTN","s":1.139},"geometry":{"type":"Polygon","coordinates":[[[2.09327,50.68785],[2.09364,50.688],[2.09658,50.68521],[2.09615,50.68503],[2.09327,50.68785]]]}},{"type":"Feature","properties":{"k":"MIS","s":1.941},"geometry":{"type":"Polygon","coordinates":[[[2.09439,50.68686],[2.09521,50.68601],[2.09306,50.68515],[2.09235,50.68603],[2.09439,50.68686]]]}},{"type":"Feature","properties":{"k":"MIS","s":1.628},"geometry":{"type":"Polygon","coordinates":[[[2.08899,50.68635],[2.09112,50.68757],[2.09167,50.68679],[2.0895,50.68576],[2.08899,50.68635]]]}},{"type":"Feature","properties":{"k":"ORH","s":2.194},"geometry":{"type":"Polygon","coordinates":[[[2.09124,50.68915],[2.09327,50.68737],[2.08948,50.68794],[2.09025,50.68846],[2.09013,50.68871],[2.09124,50.68915]]]}},{"type":"Feature","properties":{"k":"MIS","s":1.074},"geometry":{"type":"Polygon","coordinates":[[[2.09156,50.68927],[2.09228,50.68957],[2.09382,50.68808],[2.09327,50.68785],[2.09156,50.68927]]]}},{"type":"Feature","properties":{"k":"ORH","s":0.003},"geometry":{"type":"MultiPolygon","coordinates":[[[[2.08878,50.68665],[2.08853,50.68686],[2.08855,50.68687],[2.08878,50.68665]]]]}},{"type":"Feature","properties":{"k":"ORH","s":0.007},"geometry":{"type":"Polygon","coordinates":[[[2.08811,50.68721],[2.08814,50.68723],[2.0884,50.68699],[2.08811,50.68721]]]}},{"type":"Feature","properties":{"k":"AVP","s":0.002},"geometry":{"type":"Polygon","coordinates":[[[2.08838,50.68699],[2.0884,50.687],[2.08851,50.68689],[2.08838,50.68699]]]}},{"type":"Feature","properties":{"k":"ORH","s":0.783},"geometry":{"type":"Polygon","coordinates":[[[2.08906,50.68639],[2.08814,50.68723],[2.0889,50.68762],[2.08981,50.68683],[2.08906,50.68639]]]}},{"type":"Feature","properties":{"k":"PTC","s":0.567},"geometry":{"type":"Polygon","coordinates":[[[2.08926,50.68782],[2.08942,50.6879],[2.09061,50.68776],[2.09095,50.68747],[2.0902,50.68704],[2.08926,50.68782]]]}},{"type":"Feature","properties":{"k":"MIS","s":5.489},"geometry":{"type":"Polygon","coordinates":[[[2.08839,50.6832],[2.08664,50.68502],[2.08899,50.68635],[2.09096,50.6843],[2.08839,50.6832]]]}},{"type":"Feature","properties":{"k":"PPH","s":1.53},"geometry":{"type":"Polygon","coordinates":[[[2.08392,50.68346],[2.08524,50.68413],[2.08627,50.68314],[2.08477,50.68254],[2.08392,50.68346]]]}},{"type":"Feature","properties":{"k":"PPH","s":0.007},"geometry":{"type":"Polygon","coordinates":[[[2.08479,50.68246],[2.08426,50.68302],[2.08428,50.68303],[2.08479,50.68246]]]}},{"type":"Feature","properties":{"k":"PPH","s":10.245},"geometry":{"type":"Polygon","coordinates":[[[2.08704,50.68257],[2.08679,50.68268],[2.08527,50.68417],[2.08664,50.68502],[2.08839,50.6832],[2.08953,50.68369],[2.09214,50.68096],[2.08867,50.68015],[2.08743,50.68168],[2.08847,50.68211],[2.08798,50.68261],[2.08745,50.68279],[2.08704,50.68257]]]}},{"type":"Feature","properties":{"k":"BTH","s":14.648},"geometry":{"type":"Polygon","coordinates":[[[2.09521,50.68601],[2.09615,50.68503],[2.09491,50.68453],[2.0966,50.6829],[2.09214,50.68096],[2.08953,50.68369],[2.09521,50.68601]]]}},{"type":"Feature","properties":{"k":"BTH","s":3.148},"geometry":{"type":"Polygon","coordinates":[[[2.09306,50.68515],[2.09096,50.6843],[2.0895,50.68576],[2.09167,50.68679],[2.09306,50.68515]],[[2.09069,50.68606],[2.09035,50.68593],[2.09149,50.68457],[2.09183,50.68471],[2.09069,50.68606]]]}},{"type":"Feature","properties":{"k":"BTN","s":1.893},"geometry":{"type":"Polygon","coordinates":[[[2.09604,50.68479],[2.09803,50.68286],[2.09659,50.68289],[2.09504,50.68442],[2.09604,50.68479]]]}},{"type":"Feature","properties":{"k":"MIS","s":2.801},"geometry":{"type":"Polygon","coordinates":[[[2.09803,50.68286],[2.09604,50.68479],[2.09504,50.68442],[2.09493,50.68453],[2.09678,50.68529],[2.09933,50.68311],[2.09796,50.68271],[2.09623,50.68276],[2.09659,50.68289],[2.09803,50.68286]]]}},{"type":"Feature","properties":{"k":"PPH","s":0.637},"geometry":{"type":"Polygon","coordinates":[[[2.09895,50.686],[2.09898,50.68581],[2.09841,50.68517],[2.09747,50.68589],[2.09852,50.6862],[2.09895,50.686]]]}},{"type":"Feature","properties":{"k":"BTN","s":1.706},"geometry":{"type":"Polygon","coordinates":[[[2.09678,50.68529],[2.09752,50.68559],[2.09995,50.68329],[2.09933,50.68311],[2.09678,50.68529]]]}},{"type":"Feature","properties":{"k":"MIS","s":3.356},"geometry":{"type":"Polygon","coordinates":[[[2.09719,50.68593],[2.09791,50.68562],[2.0986,50.68504],[2.09983,50.68594],[2.10295,50.68654],[2.10355,50.68573],[2.10201,50.68533],[2.10171,50.68576],[2.09872,50.68453],[2.09719,50.68593]]]}},{"type":"Feature","properties":{"k":"MIS","s":1.074},"geometry":{"type":"Polygon","coordinates":[[[2.10171,50.68576],[2.1028,50.68431],[2.10217,50.68407],[2.10087,50.68548],[2.10171,50.68576]]]}},{"type":"Feature","properties":{"k":"ORH","s":4.964},"geometry":{"type":"Polygon","coordinates":[[[2.10406,50.6846],[2.1053,50.68458],[2.10569,50.68411],[2.10101,50.68215],[2.0999,50.68321],[2.10406,50.6846]]]}},{"type":"Feature","properties":{"k":"PTR","s":0.344},"geometry":{"type":"Polygon","coordinates":[[[2.10476,50.68316],[2.10443,50.68351],[2.10534,50.6839],[2.10565,50.68355],[2.10476,50.68316]]]}},{"type":"Feature","properties":{"k":"BTH","s":5.816},"geometry":{"type":"Polygon","coordinates":[[[2.10672,50.68477],[2.10768,50.68518],[2.10922,50.68356],[2.1071,50.68243],[2.10655,50.6824],[2.10556,50.68197],[2.10462,50.68308],[2.10565,50.68355],[2.10535,50.68389],[2.10672,50.68477]],[[2.10682,50.68249],[2.10547,50.68389],[2.10676,50.6825],[2.10682,50.68249]]]}},{"type":"Feature","properties":{"k":"MIS","s":0.583},"geometry":{"type":"Polygon","coordinates":[[[2.10826,50.68545],[2.10797,50.6861],[2.1096,50.68608],[2.11015,50.68605],[2.10826,50.68545]]]}},{"type":"Feature","properties":{"k":"PTR","s":0.289},"geometry":{"type":"Polygon","coordinates":[[[2.10785,50.6853],[2.10741,50.68609],[2.10796,50.68609],[2.10824,50.68545],[2.10785,50.6853]]]}},{"type":"Feature","properties":{"k":"ORH","s":4.038},"geometry":{"type":"Polygon","coordinates":[[[2.10739,50.68609],[2.10783,50.6853],[2.10621,50.68473],[2.10455,50.68468],[2.10445,50.68486],[2.10514,50.68502],[2.10412,50.6866],[2.10365,50.68651],[2.10406,50.68587],[2.10354,50.68574],[2.10304,50.68654],[2.10417,50.68665],[2.10739,50.68609]]]}},{"type":"Feature","properties":{"k":"BTH","s":0.208},"geometry":{"type":"Polygon","coordinates":[[[2.10596,50.68465],[2.10618,50.68439],[2.10569,50.68411],[2.1053,50.68458],[2.10596,50.68465]]]}},{"type":"Feature","properties":{"k":"BTH","s":1.861},"geometry":{"type":"Polygon","coordinates":[[[2.10468,50.68491],[2.10445,50.68486],[2.10455,50.68468],[2.10279,50.68433],[2.10205,50.68533],[2.10406,50.68587],[2.10468,50.68491]]]}},{"type":"Feature","properties":{"k":"BTH","s":0.639},"geometry":{"type":"Polygon","coordinates":[[[2.10412,50.6866],[2.10514,50.68502],[2.10468,50.68491],[2.10369,50.68651],[2.10412,50.6866]]]}},{"type":"Feature","properties":{"k":"MIS","s":0.329},"geometry":{"type":"Polygon","coordinates":[[[2.10588,50.68644],[2.10711,50.68672],[2.1074,50.68614],[2.10588,50.68644]]]}},{"type":"Feature","properties":{"k":"PTR","s":0.287},"geometry":{"type":"Polygon","coordinates":[[[2.10711,50.68672],[2.10762,50.68684],[2.10794,50.68614],[2.10739,50.68616],[2.10711,50.68672]]]}},{"type":"Feature","properties":{"k":"MIS","s":9.176},"geometry":{"type":"Polygon","coordinates":[[[2.10584,50.68645],[2.10457,50.68667],[2.10482,50.68688],[2.11314,50.68854],[2.11399,50.68701],[2.11026,50.68607],[2.10796,50.68613],[2.10763,50.68685],[2.10584,50.68645]]]}},{"type":"Feature","properties":{"k":"PPH","s":5.432},"geometry":{"type":"Polygon","coordinates":[[[2.10582,50.68707],[2.10556,50.68773],[2.10534,50.68765],[2.1055,50.68702],[2.10482,50.68691],[2.1045,50.68783],[2.10514,50.68797],[2.10527,50.68777],[2.1055,50.68785],[2.10545,50.68804],[2.10792,50.68855],[2.10778,50.6889],[2.10952,50.68929],[2.10973,50.68867],[2.11204,50.68887],[2.11232,50.68918],[2.11273,50.68849],[2.11227,50.68833],[2.10582,50.68707]],[[2.1049,50.68751],[2.10521,50.68761],[2.10514,50.6877],[2.1049,50.68751]],[[2.10743,50.68819],[2.10895,50.68837],[2.10968,50.68864],[2.1096,50.68886],[2.10924,50.68882],[2.10914,50.68854],[2.10878,50.68845],[2.10806,50.68845],[2.10725,50.68829],[2.10666,50.68798],[2.10566,50.68787],[2.10626,50.68777],[2.10743,50.68819]]]}},{"type":"Feature","properties":{"k":"PPH","s":0.997},"geometry":{"type":"Polygon","coordinates":[[[2.10204,50.68706],[2.10228,50.687],[2.10255,50.68655],[2.10021,50.68611],[2.10006,50.68648],[2.10204,50.68706]]]}},{"type":"Feature","properties":{"k":"ORH","s":2.984},"geometry":{"type":"Polygon","coordinates":[[[2.09705,50.68826],[2.09812,50.68889],[2.09916,50.68836],[2.09964,50.68796],[2.09964,50.68781],[2.09932,50.68791],[2.09954,50.68759],[2.10065,50.68686],[2.09933,50.68632],[2.09705,50.68826]]]}},{"type":"Feature","properties":{"k":"ORH","s":0.717},"geometry":{"type":"Polygon","coordinates":[[[2.09738,50.68688],[2.09833,50.68726],[2.09934,50.68631],[2.09877,50.68647],[2.09783,50.68643],[2.09738,50.68688]]]}},{"type":"Feature","properties":{"k":"BTH","s":2.242},"geometry":{"type":"Polygon","coordinates":[[[2.09784,50.68638],[2.09748,50.68625],[2.09737,50.68591],[2.09552,50.68768],[2.09604,50.68789],[2.09621,50.68772],[2.09716,50.68818],[2.0983,50.68727],[2.09734,50.68687],[2.09784,50.68638]]]}},{"type":"Feature","properties":{"k":"AVP","s":0.319},"geometry":{"type":"Polygon","coordinates":[[[2.09812,50.68889],[2.09704,50.68826],[2.0968,50.68847],[2.09782,50.68912],[2.09812,50.68889]]]}},{"type":"Feature","properties":{"k":"ORH","s":1.313},"geometry":{"type":"Polygon","coordinates":[[[2.0973,50.68942],[2.09782,50.68912],[2.0968,50.68847],[2.09564,50.68918],[2.09562,50.68986],[2.0973,50.68942]]]}},{"type":"Feature","properties":{"k":"PPH","s":0.103},"geometry":{"type":"Polygon","coordinates":[[[2.11209,50.69042],[2.11281,50.69072],[2.11304,50.69055],[2.11209,50.69042]]]}},{"type":"Feature","properties":{"k":"PPH","s":3.913},"geometry":{"type":"MultiPolygon","coordinates":[[[[2.11763,50.69158],[2.11752,50.69146],[2.11956,50.69169],[2.12011,50.69094],[2.11956,50.69103],[2.11826,50.69087],[2.11651,50.69013],[2.11636,50.69032],[2.11539,50.6898],[2.11395,50.68951],[2.11347,50.69005],[2.11763,50.69158]],[[2.11705,50.69064],[2.117,50.69069],[2.11664,50.69054],[2.11657,50.69039],[2.11705,50.69064]],[[2.11778,50.69074],[2.1182,50.69097],[2.11724,50.69077],[2.11712,50.69065],[2.11778,50.69074]],[[2.11872,50.69113],[2.11934,50.6913],[2.11929,50.69132],[2.11837,50.69115],[2.11872,50.69113]]],[[[2.11454,50.69057],[2.11473,50.69064],[2.11441,50.6905],[2.11454,50.69057]]]]}},{"type":"Feature","properties":{"k":"PPH","s":1.537},"geometry":{"type":"Polygon","coordinates":[[[2.12186,50.69196],[2.12165,50.6908],[2.12236,50.69],[2.12171,50.68982],[2.12028,50.69117],[2.12186,50.69196]]]}},{"type":"Feature","properties":{"k":"CZH","s":4.758},"geometry":{"type":"Polygon","coordinates":[[[2.11727,50.69041],[2.11823,50.69082],[2.11966,50.69098],[2.12056,50.69069],[2.12163,50.68976],[2.11877,50.68856],[2.11727,50.69041]]]}},{"type":"Feature","properties":{"k":"PPH","s":9.884},"geometry":{"type":"Polygon","coordinates":[[[2.11789,50.68806],[2.12115,50.68949],[2.12127,50.68941],[2.12157,50.68952],[2.12326,50.68774],[2.12233,50.68733],[2.11896,50.68642],[2.1181,50.68582],[2.11785,50.68603],[2.11763,50.68593],[2.11613,50.68753],[2.11789,50.68806]]]}},{"type":"Feature","properties":{"k":"CZH","s":2.042},"geometry":{"type":"Polygon","coordinates":[[[2.1148,50.68715],[2.1161,50.68753],[2.11762,50.68591],[2.11716,50.68572],[2.1169,50.68597],[2.11609,50.68559],[2.1148,50.68715]]]}},{"type":"Feature","properties":{"k":"BTH","s":1.889},"geometry":{"type":"Polygon","coordinates":[[[2.11686,50.68782],[2.11609,50.68888],[2.11807,50.68943],[2.11877,50.68856],[2.11686,50.68782]]]}},{"type":"Feature","properties":{"k":"PPH","s":4.488},"geometry":{"type":"Polygon","coordinates":[[[2.11273,50.68849],[2.11233,50.68918],[2.11521,50.68966],[2.11727,50.69041],[2.11807,50.68943],[2.11346,50.68802],[2.11315,50.68856],[2.11273,50.68849]]]}},{"type":"Feature","properties":{"k":"PPH","s":1.499},"geometry":{"type":"Polygon","coordinates":[[[2.11385,50.68955],[2.11264,50.68941],[2.11186,50.68896],[2.11007,50.68884],[2.10998,50.68914],[2.11118,50.68918],[2.11273,50.68978],[2.11133,50.68957],[2.1112,50.68972],[2.11321,50.69023],[2.11385,50.68955]]]}},{"type":"Feature","properties":{"k":"MIS","s":2.687},"geometry":{"type":"Polygon","coordinates":[[[2.11346,50.68802],[2.11611,50.68885],[2.11686,50.68782],[2.11411,50.68705],[2.11346,50.68802]]]}},{"type":"Feature","properties":{"k":"BTH","s":1.104},"geometry":{"type":"Polygon","coordinates":[[[2.11488,50.68525],[2.11346,50.68681],[2.11424,50.68702],[2.11553,50.68557],[2.11488,50.68525]],[[2.11427,50.68692],[2.11422,50.68698],[2.1139,50.68689],[2.11427,50.68692]]]}},{"type":"Feature","properties":{"k":"MIS","s":0.696},"geometry":{"type":"Polygon","coordinates":[[[2.1148,50.68715],[2.11603,50.68579],[2.11557,50.68559],[2.11432,50.687],[2.1148,50.68715]]]}},{"type":"Feature","properties":{"k":"PTR","s":0.249},"geometry":{"type":"Polygon","coordinates":[[[2.1157,50.68472],[2.11532,50.68455],[2.11475,50.68513],[2.11511,50.6853],[2.1157,50.68472]]]}},{"type":"Feature","properties":{"k":"PPH","s":0.065},"geometry":{"type":"Polygon","coordinates":[[[2.11471,50.68438],[2.11458,50.68432],[2.11416,50.68484],[2.11471,50.68438]]]}},{"type":"Feature","properties":{"k":"PPH","s":0.357},"geometry":{"type":"Polygon","coordinates":[[[2.11471,50.68438],[2.11425,50.68488],[2.11475,50.68513],[2.11532,50.68455],[2.11465,50.68423],[2.11471,50.68438]]]}},{"type":"Feature","properties":{"k":"BTH","s":1.276},"geometry":{"type":"Polygon","coordinates":[[[2.11344,50.68682],[2.11485,50.68526],[2.11417,50.68492],[2.11265,50.68661],[2.11344,50.68682]]]}},{"type":"Feature","properties":{"k":"CZH","s":3.702},"geometry":{"type":"Polygon","coordinates":[[[2.11409,50.68496],[2.1122,50.68417],[2.11045,50.68605],[2.11255,50.68659],[2.11409,50.68496]]]}},{"type":"Feature","properties":{"k":"BTH","s":4.914},"geometry":{"type":"Polygon","coordinates":[[[2.11042,50.68606],[2.11203,50.68435],[2.1101,50.68351],[2.1097,50.68384],[2.10921,50.68357],[2.10768,50.68516],[2.11042,50.68606]]]}},{"type":"Feature","properties":{"k":"BTH","s":2.002},"geometry":{"type":"Polygon","coordinates":[[[2.11102,50.68294],[2.11057,50.68336],[2.11416,50.68484],[2.11465,50.68423],[2.11102,50.68294]]]}},{"type":"Feature","properties":{"k":"PPH","s":20.005},"geometry":{"type":"Polygon","coordinates":[[[2.10182,50.6795],[2.10148,50.67983],[2.10443,50.68101],[2.10435,50.6811],[2.10518,50.68148],[2.10314,50.68075],[2.10301,50.6809],[2.10652,50.68239],[2.10695,50.6823],[2.10727,50.68197],[2.10713,50.68173],[2.10589,50.68128],[2.10516,50.6808],[2.10543,50.68077],[2.10572,50.68102],[2.10676,50.68123],[2.10718,50.68151],[2.10739,50.68126],[2.10763,50.68135],[2.10746,50.6816],[2.10847,50.68175],[2.10802,50.6819],[2.10769,50.68231],[2.10849,50.68281],[2.10764,50.68239],[2.10738,50.68259],[2.1097,50.68381],[2.11009,50.68349],[2.11202,50.68434],[2.11223,50.68412],[2.11051,50.68337],[2.11105,50.6829],[2.11024,50.68237],[2.10914,50.68211],[2.10924,50.682],[2.11024,50.68225],[2.11132,50.68298],[2.11611,50.68486],[2.11572,50.68473],[2.11516,50.6853],[2.11591,50.6857],[2.11608,50.68557],[2.1169,50.68594],[2.11715,50.68571],[2.11785,50.68601],[2.11839,50.68553],[2.11824,50.68576],[2.1188,50.68621],[2.12008,50.68654],[2.12058,50.68682],[2.12195,50.68698],[2.12245,50.68721],[2.12253,50.68709],[2.12188,50.68667],[2.12325,50.68732],[2.12446,50.68836],[2.12554,50.68763],[2.12419,50.68766],[2.12469,50.68761],[2.12564,50.68686],[2.12518,50.68637],[2.12395,50.68749],[2.1234,50.6872],[2.12451,50.68613],[2.12435,50.68606],[2.12349,50.6869],[2.12271,50.68656],[2.12286,50.6864],[2.1213,50.68591],[2.12116,50.68609],[2.11947,50.68558],[2.11938,50.68568],[2.12108,50.68614],[2.1214,50.68636],[2.11835,50.68538],[2.11543,50.68415],[2.11578,50.68376],[2.1153,50.68356],[2.11074,50.68197],[2.11053,50.68212],[2.10794,50.68095],[2.1077,50.68123],[2.10751,50.68116],[2.10779,50.68088],[2.10618,50.68037],[2.10637,50.68011],[2.10492,50.6796],[2.10472,50.67975],[2.10361,50.67933],[2.10335,50.6796],[2.10571,50.68034],[2.10511,50.68029],[2.10512,50.68058],[2.10382,50.67994],[2.10182,50.6795]],[[2.12041,50.68641],[2.12053,50.68629],[2.12116,50.6865],[2.12105,50.68663],[2.12041,50.68641]]]}},{"type":"Feature","properties":{"k":"PTR","s":1.761},"geometry":{"type":"Polygon","coordinates":[[[2.12155,50.68565],[2.11958,50.68463],[2.11878,50.68537],[2.12115,50.68606],[2.1213,50.68591],[2.1229,50.6864],[2.12313,50.68613],[2.12155,50.68565]]]}},{"type":"Feature","properties":{"k":"MIS","s":2.847},"geometry":{"type":"Polygon","coordinates":[[[2.12075,50.68427],[2.11955,50.68397],[2.11892,50.68469],[2.11935,50.68485],[2.11958,50.68463],[2.12155,50.68565],[2.12235,50.68591],[2.12301,50.68609],[2.12314,50.68613],[2.12354,50.68563],[2.12075,50.68427]]]}},{"type":"Feature","properties":{"k":"PTR","s":0.305},"geometry":{"type":"Polygon","coordinates":[[[2.12174,50.68469],[2.12277,50.68394],[2.12256,50.68374],[2.12146,50.68454],[2.12174,50.68469]]]}},{"type":"Feature","properties":{"k":"PPH","s":0.345},"geometry":{"type":"Polygon","coordinates":[[[2.12114,50.68428],[2.12148,50.68412],[2.12232,50.68351],[2.1221,50.68328],[2.12088,50.68416],[2.12114,50.68428]]]}},{"type":"Feature","properties":{"k":"PPH","s":0.566},"geometry":{"type":"Polygon","coordinates":[[[2.1195,50.68387],[2.12009,50.68402],[2.12113,50.68325],[2.12068,50.68301],[2.12131,50.68248],[2.1195,50.68387]]]}},{"type":"Feature","properties":{"k":"CZH","s":3.446},"geometry":{"type":"Polygon","coordinates":[[[2.11777,50.68297],[2.11953,50.68385],[2.12133,50.68247],[2.12055,50.68159],[2.12018,50.68183],[2.11966,50.6815],[2.11777,50.68297]]]}},{"type":"Feature","properties":{"k":"PTR","s":3.18},"geometry":{"type":"Polygon","coordinates":[[[2.12159,50.68256],[2.12375,50.68108],[2.1224,50.67999],[2.12059,50.6815],[2.12159,50.68256]]]}},{"type":"Feature","properties":{"k":"ORP","s":1.193},"geometry":{"type":"MultiPolygon","coordinates":[[[[2.11965,50.68076],[2.12057,50.6815],[2.12176,50.68039],[2.12105,50.67998],[2.11965,50.68076]]],[[[2.12274,50.67972],[2.12272,50.67971],[2.12219,50.68012],[2.12274,50.67972]]]]}},{"type":"Feature","properties":{"k":"PTR","s":0.302},"geometry":{"type":"Polygon","coordinates":[[[2.11992,50.68107],[2.11947,50.68137],[2.12018,50.68183],[2.12053,50.6816],[2.11992,50.68107]]]}},{"type":"Feature","properties":{"k":"ORP","s":1.478},"geometry":{"type":"Polygon","coordinates":[[[2.11703,50.68264],[2.11772,50.68298],[2.11962,50.68149],[2.11947,50.68137],[2.11992,50.68107],[2.11953,50.68078],[2.11703,50.68264]]]}},{"type":"Feature","properties":{"k":"BTH","s":1.089},"geometry":{"type":"Polygon","coordinates":[[[2.11659,50.68241],[2.11678,50.68256],[2.11703,50.68264],[2.11953,50.68078],[2.11916,50.68053],[2.11659,50.68241]]]}},{"type":"Feature","properties":{"k":"BTH","s":5.387},"geometry":{"type":"Polygon","coordinates":[[[2.11586,50.68158],[2.11656,50.68244],[2.11916,50.68053],[2.11818,50.67956],[2.11645,50.68065],[2.11462,50.67966],[2.11369,50.68057],[2.11586,50.68158]]]}},{"type":"Feature","properties":{"k":"MIS","s":0.396},"geometry":{"type":"Polygon","coordinates":[[[2.11712,50.67994],[2.11621,50.68051],[2.11645,50.68065],[2.11817,50.67956],[2.11806,50.67936],[2.11712,50.67994]]]}},{"type":"Feature","properties":{"k":"BTH","s":1.384},"geometry":{"type":"Polygon","coordinates":[[[2.11793,50.6791],[2.11775,50.67887],[2.11732,50.67907],[2.1164,50.67949],[2.11594,50.67922],[2.11503,50.67987],[2.11624,50.68046],[2.11712,50.67993],[2.11683,50.67973],[2.11793,50.6791]],[[2.11704,50.67928],[2.11697,50.67924],[2.11732,50.67907],[2.11704,50.67928]]]}},{"type":"Feature","properties":{"k":"ORP","s":0.284},"geometry":{"type":"Polygon","coordinates":[[[2.11683,50.67973],[2.11712,50.67993],[2.11807,50.67935],[2.11793,50.6791],[2.11683,50.67973]]]}},{"type":"Feature","properties":{"k":"MIS","s":3.342},"geometry":{"type":"Polygon","coordinates":[[[2.11851,50.67982],[2.11935,50.68053],[2.12074,50.67975],[2.12131,50.68011],[2.12078,50.67975],[2.12102,50.67964],[2.12087,50.67938],[2.1192,50.67807],[2.1179,50.67875],[2.11851,50.67982]]]}},{"type":"Feature","properties":{"k":"PPH","s":3.237},"geometry":{"type":"Polygon","coordinates":[[[2.11543,50.67687],[2.11754,50.67823],[2.11778,50.67855],[2.1185,50.6784],[2.11903,50.67801],[2.11945,50.67791],[2.11646,50.67614],[2.11543,50.67687]]]}},{"type":"Feature","properties":{"k":"BTH","s":0.731},"geometry":{"type":"Polygon","coordinates":[[[2.11637,50.67854],[2.11694,50.67818],[2.11781,50.67885],[2.11736,50.67824],[2.11642,50.67757],[2.11563,50.67807],[2.11637,50.67854]]]}},{"type":"Feature","properties":{"k":"PPH","s":8.434},"geometry":{"type":"MultiPolygon","coordinates":[[[[2.11294,50.67554],[2.11223,50.67598],[2.11379,50.67686],[2.11441,50.67642],[2.11294,50.67554]]],[[[2.10728,50.67506],[2.1056,50.67645],[2.10897,50.6779],[2.1099,50.67699],[2.10927,50.67668],[2.11102,50.67531],[2.10919,50.67429],[2.1078,50.67534],[2.10728,50.67506]]]]}},{"type":"Feature","properties":{"k":"MIS","s":4.599},"geometry":{"type":"Polygon","coordinates":[[[2.10944,50.67916],[2.11103,50.67761],[2.11066,50.67742],[2.11231,50.67604],[2.11104,50.67532],[2.10938,50.67674],[2.1099,50.67699],[2.10813,50.67872],[2.10944,50.67916]]]}},{"type":"Feature","properties":{"k":"MIS","s":4.8},"geometry":{"type":"Polygon","coordinates":[[[2.11066,50.67742],[2.11103,50.67761],[2.10944,50.67916],[2.11086,50.6797],[2.1123,50.67822],[2.1121,50.67814],[2.11386,50.67682],[2.11231,50.67604],[2.11066,50.67742]]]}},{"type":"Feature","properties":{"k":"PTR","s":0.877},"geometry":{"type":"Polygon","coordinates":[[[2.11216,50.67816],[2.11237,50.67827],[2.1109,50.67971],[2.11123,50.67983],[2.11265,50.6784],[2.11242,50.67829],[2.11393,50.67712],[2.11368,50.67698],[2.11216,50.67816]]]}},{"type":"Feature","properties":{"k":"MIS","s":9.001},"geometry":{"type":"Polygon","coordinates":[[[2.11636,50.67856],[2.1156,50.67808],[2.1163,50.67754],[2.11441,50.67642],[2.11372,50.67696],[2.11393,50.67712],[2.11244,50.67828],[2.11269,50.67839],[2.11123,50.67983],[2.11301,50.68038],[2.11407,50.67934],[2.11503,50.67987],[2.11594,50.67922],[2.1164,50.67949],[2.11775,50.67887],[2.11694,50.67822],[2.11636,50.67856]]]}},{"type":"Feature","properties":{"k":"BTH","s":0.243},"geometry":{"type":"Polygon","coordinates":[[[2.11442,50.67954],[2.11343,50.6805],[2.11369,50.68057],[2.11462,50.67966],[2.11442,50.67954]]]}},{"type":"Feature","properties":{"k":"PTR","s":0.395},"geometry":{"type":"Polygon","coordinates":[[[2.11304,50.68039],[2.11343,50.6805],[2.1144,50.67955],[2.11406,50.67938],[2.11304,50.68039]]]}},{"type":"Feature","properties":{"k":"ORH","s":15.981},"geometry":{"type":"Polygon","coordinates":[[[2.1067,50.67826],[2.10551,50.6793],[2.10638,50.67961],[2.10611,50.67992],[2.10977,50.68135],[2.11155,50.68223],[2.11542,50.68352],[2.11638,50.68258],[2.1153,50.68152],[2.11536,50.68141],[2.11393,50.68072],[2.1067,50.67826]]]}},{"type":"Feature","properties":{"k":"PPH","s":2.651},"geometry":{"type":"Polygon","coordinates":[[[2.10207,50.67772],[2.10133,50.67863],[2.10159,50.67874],[2.1014,50.67907],[2.10195,50.67941],[2.10331,50.67957],[2.10358,50.67929],[2.10475,50.67969],[2.10491,50.67956],[2.10513,50.67962],[2.10207,50.67772]]]}},{"type":"Feature","properties":{"k":"ORH","s":9.398},"geometry":{"type":"Polygon","coordinates":[[[2.10554,50.68198],[2.09924,50.67938],[2.09824,50.68043],[2.10062,50.6819],[2.10431,50.68346],[2.10554,50.68198]]]}},{"type":"Feature","properties":{"k":"TRE","s":1.22},"geometry":{"type":"Polygon","coordinates":[[[2.09793,50.68267],[2.09941,50.68127],[2.09881,50.68088],[2.09697,50.68267],[2.09793,50.68267]]]}},{"type":"Feature","properties":{"k":"PPH","s":0.444},"geometry":{"type":"Polygon","coordinates":[[[2.09931,50.67929],[2.10009,50.6796],[2.10038,50.67933],[2.09947,50.67896],[2.09813,50.68036],[2.09824,50.68044],[2.09931,50.67929]]]}},{"type":"Feature","properties":{"k":"PPH","s":4.102},"geometry":{"type":"Polygon","coordinates":[[[2.10026,50.6756],[2.09873,50.67706],[2.10016,50.67773],[2.09924,50.67857],[2.09887,50.67859],[2.10022,50.67908],[2.09981,50.67879],[2.10044,50.67821],[2.10104,50.67848],[2.1021,50.67721],[2.10187,50.67707],[2.102,50.67698],[2.10026,50.6756]],[[2.10112,50.67724],[2.10009,50.67603],[2.10024,50.67593],[2.10124,50.67703],[2.10112,50.67724]]]}},{"type":"Feature","properties":{"k":"PPH","s":2.445},"geometry":{"type":"Polygon","coordinates":[[[2.09708,50.67709],[2.0969,50.67762],[2.09922,50.67851],[2.09942,50.67841],[2.10011,50.67774],[2.09869,50.67708],[2.09985,50.67596],[2.09944,50.67571],[2.09911,50.67596],[2.0994,50.67612],[2.09781,50.67738],[2.09708,50.67709]]]}},{"type":"Feature","properties":{"k":"PPH","s":0.111},"geometry":{"type":"Polygon","coordinates":[[[2.10027,50.67559],[2.09996,50.67537],[2.09962,50.67559],[2.10002,50.67581],[2.10027,50.67559]]]}},{"type":"Feature","properties":{"k":"ORH","s":6.993},"geometry":{"type":"Polygon","coordinates":[[[2.09284,50.67534],[2.09676,50.67674],[2.09664,50.67687],[2.09787,50.67735],[2.0994,50.67612],[2.09908,50.67596],[2.09948,50.67569],[2.09845,50.67506],[2.09796,50.67449],[2.09962,50.67559],[2.09996,50.67537],[2.10023,50.67556],[2.10099,50.67498],[2.09896,50.67369],[2.09712,50.67503],[2.09793,50.67553],[2.0971,50.67642],[2.0934,50.67497],[2.09284,50.67534]]]}},{"type":"Feature","properties":{"k":"JAC","s":0.079},"geometry":{"type":"Polygon","coordinates":[[[2.09868,50.67505],[2.09796,50.67449],[2.09803,50.67471],[2.09868,50.67505]]]}},{"type":"Feature","properties":{"k":"CHU","s":0.211},"geometry":{"type":"Polygon","coordinates":[[[2.10023,50.67556],[2.10045,50.67573],[2.10125,50.67514],[2.10103,50.67497],[2.10023,50.67556]]]}},{"type":"Feature","properties":{"k":"PTR","s":0.502},"geometry":{"type":"Polygon","coordinates":[[[2.10046,50.67573],[2.10101,50.67617],[2.10182,50.6756],[2.10133,50.67523],[2.10046,50.67573]]]}},{"type":"Feature","properties":{"k":"MIS","s":1.059},"geometry":{"type":"Polygon","coordinates":[[[2.10301,50.67629],[2.10182,50.6756],[2.10101,50.67617],[2.10201,50.67695],[2.10301,50.67629]]]}},{"type":"Feature","properties":{"k":"PTR","s":0.319},"geometry":{"type":"Polygon","coordinates":[[[2.10165,50.67542],[2.10188,50.67557],[2.10312,50.67451],[2.10291,50.6744],[2.10165,50.67542]]]}},{"type":"Feature","properties":{"k":"CHU","s":0.349},"geometry":{"type":"Polygon","coordinates":[[[2.10133,50.67514],[2.10258,50.67424],[2.10234,50.6741],[2.10106,50.67493],[2.10133,50.67514]]]}},{"type":"Feature","properties":{"k":"PPH","s":0.795},"geometry":{"type":"Polygon","coordinates":[[[2.10463,50.67724],[2.10713,50.67517],[2.10682,50.67501],[2.10435,50.67709],[2.10463,50.67724]]]}},{"type":"Feature","properties":{"k":"BTH","s":3.758},"geometry":{"type":"Polygon","coordinates":[[[2.10435,50.67709],[2.10577,50.67592],[2.10312,50.67451],[2.10188,50.67557],[2.10435,50.67709]]]}},{"type":"Feature","properties":{"k":"PPH","s":0.992},"geometry":{"type":"Polygon","coordinates":[[[2.10188,50.67707],[2.1041,50.6787],[2.10456,50.67837],[2.10221,50.67684],[2.10188,50.67707]]]}},{"type":"Feature","properties":{"k":"ORH","s":3.845},"geometry":{"type":"Polygon","coordinates":[[[2.10222,50.67684],[2.10456,50.67837],[2.10395,50.67886],[2.10516,50.67951],[2.10666,50.67825],[2.1048,50.6774],[2.10316,50.6764],[2.10222,50.67684]]]}},{"type":"Feature","properties":{"k":"MIS","s":3.369},"geometry":{"type":"Polygon","coordinates":[[[2.10464,50.67725],[2.10813,50.67872],[2.10897,50.6779],[2.1056,50.67645],[2.10464,50.67725]]]}},{"type":"Feature","properties":{"k":"BTH","s":1.018},"geometry":{"type":"Polygon","coordinates":[[[2.10339,50.67249],[2.10443,50.67166],[2.1038,50.67136],[2.10263,50.67174],[2.10227,50.67201],[2.10339,50.67249]]]}},{"type":"Feature","properties":{"k":"PPH","s":1.096},"geometry":{"type":"Polygon","coordinates":[[[2.1046,50.67269],[2.10606,50.6726],[2.10446,50.67167],[2.10342,50.6725],[2.1046,50.67269]]]}},{"type":"Feature","properties":{"k":"PPH","s":8.509},"geometry":{"type":"Polygon","coordinates":[[[2.10487,50.67277],[2.10291,50.6744],[2.10572,50.6759],[2.10682,50.67501],[2.10713,50.67517],[2.10729,50.67504],[2.10779,50.67533],[2.10916,50.67428],[2.109,50.67419],[2.10871,50.67435],[2.10636,50.67266],[2.10487,50.67277]]]}},{"type":"Feature","properties":{"k":"PHF","s":6.565},"geometry":{"type":"Polygon","coordinates":[[[2.10106,50.67493],[2.10235,50.67409],[2.10259,50.67423],[2.10133,50.67514],[2.10164,50.6754],[2.10491,50.67278],[2.10418,50.67272],[2.10367,50.67312],[2.10342,50.67291],[2.10375,50.67263],[2.10293,50.67244],[2.10183,50.67242],[2.10118,50.67219],[2.09924,50.67378],[2.10106,50.67493]]]}},{"type":"Feature","properties":{"k":"PTR","s":0.097},"geometry":{"type":"Polygon","coordinates":[[[2.09814,50.67385],[2.09857,50.67352],[2.09835,50.6734],[2.09792,50.67372],[2.09814,50.67385]]]}},{"type":"Feature","properties":{"k":"MIS","s":0.448},"geometry":{"type":"Polygon","coordinates":[[[2.09749,50.67296],[2.09699,50.67337],[2.09785,50.67381],[2.09836,50.67339],[2.09749,50.67296]]]}},{"type":"Feature","properties":{"k":"PPH","s":0.375},"geometry":{"type":"Polygon","coordinates":[[[2.09824,50.67244],[2.09695,50.67266],[2.09781,50.67308],[2.0986,50.67241],[2.09824,50.67244]]]}},{"type":"Feature","properties":{"k":"BTH","s":1.879},"geometry":{"type":"Polygon","coordinates":[[[2.09923,50.67376],[2.10118,50.67219],[2.10007,50.6724],[2.09862,50.67241],[2.09781,50.67308],[2.09882,50.67357],[2.09891,50.67349],[2.09923,50.67376]]]}},{"type":"Feature","properties":{"k":"BTH","s":0.71},"geometry":{"type":"Polygon","coordinates":[[[2.09794,50.67149],[2.0993,50.67228],[2.09986,50.67196],[2.09852,50.67116],[2.09794,50.67149]]]}},{"type":"Feature","properties":{"k":"PPH","s":0.277},"geometry":{"type":"Polygon","coordinates":[[[2.09765,50.6725],[2.09813,50.6724],[2.09734,50.67202],[2.09681,50.67256],[2.09765,50.6725]]]}},{"type":"Feature","properties":{"k":"BTH","s":0.646},"geometry":{"type":"Polygon","coordinates":[[[2.09812,50.67237],[2.0993,50.67228],[2.09794,50.67149],[2.09744,50.67195],[2.09812,50.67237]]]}},{"type":"Feature","properties":{"k":"BTH","s":2.252},"geometry":{"type":"Polygon","coordinates":[[[2.10095,50.67134],[2.10163,50.67088],[2.10281,50.67161],[2.10346,50.6711],[2.10091,50.66984],[2.09969,50.67057],[2.10095,50.67134]]]}},{"type":"Feature","properties":{"k":"MIS","s":2.372},"geometry":{"type":"Polygon","coordinates":[[[2.10281,50.67161],[2.10163,50.67088],[2.10095,50.67135],[2.09968,50.67059],[2.09852,50.67116],[2.09986,50.67196],[2.10047,50.67159],[2.10116,50.67205],[2.10281,50.67161]]]}},{"type":"Feature","properties":{"k":"ORP","s":0.573},"geometry":{"type":"Polygon","coordinates":[[[2.10016,50.67234],[2.10122,50.67209],[2.10047,50.67159],[2.09921,50.67234],[2.10016,50.67234]]]}},{"type":"Feature","properties":{"k":"MIS","s":0.327},"geometry":{"type":"Polygon","coordinates":[[[2.10211,50.67239],[2.10249,50.67239],[2.10266,50.6722],[2.10223,50.67201],[2.10237,50.6718],[2.10136,50.67216],[2.10211,50.67239]]]}},{"type":"Feature","properties":{"k":"PTC","s":0.027},"geometry":{"type":"Polygon","coordinates":[[[2.10275,50.67224],[2.10257,50.67239],[2.10305,50.67237],[2.10275,50.67224]]]}},{"type":"Feature","properties":{"k":"PPH","s":0.191},"geometry":{"type":"Polygon","coordinates":[[[2.10106,50.66971],[2.10091,50.66984],[2.10217,50.67053],[2.10233,50.67045],[2.10106,50.66971]]]}},{"type":"Feature","properties":{"k":"PPH","s":0.176},"geometry":{"type":"Polygon","coordinates":[[[2.12296,50.68033],[2.12275,50.67975],[2.1224,50.67999],[2.12375,50.68108],[2.12296,50.68033]]]}},{"type":"Feature","properties":{"k":"PTR","s":5.73},"geometry":{"type":"Polygon","coordinates":[[[2.12377,50.6811],[2.12161,50.68257],[2.12186,50.68286],[2.12232,50.6825],[2.12316,50.6833],[2.12424,50.68239],[2.1278,50.68416],[2.12871,50.68343],[2.12377,50.6811]]]}},{"type":"Feature","properties":{"k":"BTA","s":0.019},"geometry":{"type":"Polygon","coordinates":[[[2.12314,50.68613],[2.12354,50.68563],[2.1231,50.68612],[2.12314,50.68613]]]}},{"type":"Feature","properties":{"k":"PPH","s":1.977},"geometry":{"type":"Polygon","coordinates":[[[2.12481,50.68544],[2.12536,50.68514],[2.1262,50.68581],[2.12581,50.68608],[2.12629,50.68607],[2.12793,50.68488],[2.12655,50.68417],[2.12481,50.68544]]]}},{"type":"Feature","properties":{"k":"PPH","s":0.724},"geometry":{"type":"Polygon","coordinates":[[[2.12823,50.68502],[2.12793,50.68488],[2.12629,50.68607],[2.12706,50.68608],[2.12874,50.68485],[2.12859,50.68477],[2.12823,50.68502]]]}},{"type":"Feature","properties":{"k":"BTH","s":1.359},"geometry":{"type":"MultiPolygon","coordinates":[[[[2.12733,50.68456],[2.1278,50.68418],[2.12495,50.68277],[2.12451,50.6831],[2.12733,50.68456]]],[[[2.12859,50.68477],[2.12861,50.68476],[2.12854,50.68474],[2.12824,50.68502],[2.12859,50.68477]]]]}},{"type":"Feature","properties":{"k":"PPH","s":0.009},"geometry":{"type":"MultiPolygon","coordinates":[[[[2.1259,50.68205],[2.12534,50.68179],[2.12603,50.68213],[2.1263,50.68227],[2.1259,50.68205]]]]}},{"type":"Feature","properties":{"k":"PPH","s":0.0},"geometry":{"type":"Polygon","coordinates":[]}},{"type":"Feature","properties":{"k":"PPH","s":0.351},"geometry":{"type":"Polygon","coordinates":[[[2.13063,50.68577],[2.12996,50.68532],[2.1295,50.68573],[2.13007,50.6861],[2.13069,50.68576],[2.13141,50.68524],[2.13063,50.68577]]]}},{"type":"Feature","properties":{"k":"PTR","s":0.086},"geometry":{"type":"MultiPolygon","coordinates":[[[[2.12782,50.68416],[2.1282,50.68385],[2.12781,50.68416],[2.12782,50.68416]]],[[[2.1297,50.68534],[2.1299,50.68527],[2.12861,50.68476],[2.1297,50.68534]]]]}},{"type":"Feature","properties":{"k":"PPH","s":0.003},"geometry":{"type":"Polygon","coordinates":[[[2.13276,50.68748],[2.1326,50.6875],[2.13292,50.68751],[2.13276,50.68748]]]}},{"type":"Feature","properties":{"k":"PPH","s":4.272},"geometry":{"type":"Polygon","coordinates":[[[2.13146,50.68935],[2.13293,50.68756],[2.13145,50.68762],[2.13108,50.68735],[2.1298,50.68925],[2.13094,50.68957],[2.13057,50.69012],[2.13085,50.69026],[2.13033,50.69065],[2.12959,50.69043],[2.12897,50.69126],[2.12986,50.69159],[2.13099,50.69058],[2.13127,50.69009],[2.13145,50.69007],[2.13146,50.68935]]]}},{"type":"Feature","properties":{"k":"PTR","s":0.553},"geometry":{"type":"Polygon","coordinates":[[[2.12275,50.68657],[2.12346,50.68689],[2.12375,50.68661],[2.12346,50.6865],[2.12404,50.68595],[2.12356,50.68565],[2.12275,50.68657]]]}},{"type":"Feature","properties":{"k":"PPH","s":0.485},"geometry":{"type":"Polygon","coordinates":[[[2.12324,50.6893],[2.12357,50.6894],[2.12313,50.68988],[2.12341,50.69004],[2.12431,50.68901],[2.12375,50.68877],[2.12324,50.6893]]]}},{"type":"Feature","properties":{"k":"PPH","s":1.377},"geometry":{"type":"Polygon","coordinates":[[[2.12408,50.69314],[2.12412,50.69361],[2.12578,50.69387],[2.1258,50.69347],[2.12611,50.69309],[2.12479,50.6929],[2.12511,50.69241],[2.12467,50.6924],[2.12408,50.69314]]]}},{"type":"Feature","properties":{"k":"PPH","s":0.603},"geometry":{"type":"Polygon","coordinates":[[[2.12895,50.69484],[2.12943,50.69475],[2.12921,50.69435],[2.12767,50.69432],[2.12763,50.69482],[2.12895,50.69484]]]}},{"type":"Feature","properties":{"k":"LUZ","s":0.184},"geometry":{"type":"Polygon","coordinates":[[[2.13009,50.69474],[2.13034,50.69472],[2.12998,50.69388],[2.12971,50.69396],[2.13009,50.69474]]]}},{"type":"Feature","properties":{"k":"PPH","s":0.314},"geometry":{"type":"Polygon","coordinates":[[[2.13074,50.69469],[2.13036,50.6937],[2.12997,50.69386],[2.13036,50.69475],[2.13074,50.69469]]]}},{"type":"Feature","properties":{"k":"PPH","s":1.189},"geometry":{"type":"Polygon","coordinates":[[[2.13074,50.69469],[2.13036,50.69475],[2.13082,50.6953],[2.13157,50.69565],[2.13154,50.69451],[2.13103,50.69352],[2.13036,50.6937],[2.13074,50.69469]]]}},{"type":"Feature","properties":{"k":"PPH","s":0.456},"geometry":{"type":"Polygon","coordinates":[[[2.13066,50.69514],[2.13029,50.69475],[2.12911,50.69491],[2.12913,50.69525],[2.13066,50.69514]]]}},{"type":"Feature","properties":{"k":"PPH","s":0.38},"geometry":{"type":"Polygon","coordinates":[[[2.13158,50.69566],[2.13199,50.69578],[2.13194,50.69448],[2.13155,50.69454],[2.13158,50.69566]]]}},{"type":"Feature","properties":{"k":"PPH","s":3.342},"geometry":{"type":"Polygon","coordinates":[[[2.13318,50.69463],[2.13515,50.69469],[2.13503,50.69259],[2.1346,50.69242],[2.13477,50.69295],[2.13447,50.69301],[2.13395,50.69192],[2.13362,50.69193],[2.13401,50.69307],[2.13357,50.69314],[2.13329,50.69205],[2.13298,50.69218],[2.13328,50.6932],[2.13299,50.69324],[2.13318,50.69463]]]}},{"type":"Feature","properties":{"k":"PPH","s":0.803},"geometry":{"type":"Polygon","coordinates":[[[2.13294,50.69326],[2.13203,50.69338],[2.1324,50.69444],[2.13283,50.6944],[2.13288,50.69457],[2.13313,50.69459],[2.13294,50.69326]]]}},{"type":"Feature","properties":{"k":"PPH","s":0.326},"geometry":{"type":"Polygon","coordinates":[[[2.13102,50.69066],[2.13143,50.69081],[2.13206,50.69025],[2.13136,50.6901],[2.13102,50.69066]]]}},{"type":"Feature","properties":{"k":"PPH","s":1.778},"geometry":{"type":"Polygon","coordinates":[[[2.13394,50.69184],[2.13444,50.69228],[2.13517,50.69253],[2.13556,50.69093],[2.13363,50.69071],[2.13425,50.69123],[2.1339,50.69155],[2.13284,50.69188],[2.13294,50.69207],[2.13394,50.69184]]]}},{"type":"Feature","properties":{"k":"LUZ","s":0.197},"geometry":{"type":"Polygon","coordinates":[[[2.13698,50.69141],[2.13702,50.69125],[2.13556,50.69109],[2.13553,50.69126],[2.13698,50.69141]]]}},{"type":"Feature","properties":{"k":"BTH","s":1.008},"geometry":{"type":"Polygon","coordinates":[[[2.13712,50.69059],[2.13686,50.69256],[2.13737,50.6926],[2.13792,50.69096],[2.13817,50.69106],[2.13712,50.69059]]]}},{"type":"Feature","properties":{"k":"CZH","s":8.179},"geometry":{"type":"Polygon","coordinates":[[[2.13929,50.69056],[2.13733,50.68856],[2.13602,50.68918],[2.13584,50.68913],[2.13559,50.69084],[2.13704,50.691],[2.13712,50.69059],[2.13905,50.69141],[2.13841,50.69285],[2.13869,50.69295],[2.13897,50.6924],[2.14116,50.69325],[2.14231,50.69247],[2.13908,50.69066],[2.13929,50.69056]],[[2.14026,50.69182],[2.13853,50.69098],[2.13871,50.69086],[2.1404,50.69173],[2.14026,50.69182]]]}},{"type":"Feature","properties":{"k":"MIS","s":1.945},"geometry":{"type":"Polygon","coordinates":[[[2.14697,50.69493],[2.14291,50.69425],[2.14669,50.69555],[2.14778,50.69634],[2.14852,50.6959],[2.14697,50.69493]]]}},{"type":"Feature","properties":{"k":"BTH","s":0.055},"geometry":{"type":"Polygon","coordinates":[[[2.14404,50.69355],[2.14399,50.69357],[2.14569,50.69467],[2.14404,50.69355]]]}},{"type":"Feature","properties":{"k":"BTH","s":0.015},"geometry":{"type":"MultiPolygon","coordinates":[[[[2.14576,50.69469],[2.14572,50.69466],[2.14569,50.69468],[2.14576,50.69469]]],[[[2.14877,50.69385],[2.1477,50.69442],[2.14879,50.69387],[2.14877,50.69385]]]]}},{"type":"Feature","properties":{"k":"MIS","s":2.802},"geometry":{"type":"MultiPolygon","coordinates":[[[[2.13897,50.6924],[2.13869,50.69295],[2.14154,50.69396],[2.1431,50.69294],[2.14356,50.69323],[2.14292,50.69281],[2.14231,50.69247],[2.14116,50.69325],[2.13897,50.6924]]],[[[2.14209,50.69411],[2.14266,50.6942],[2.14399,50.69351],[2.14356,50.69323],[2.14209,50.69411]]]]}},{"type":"Feature","properties":{"k":"LUZ","s":0.294},"geometry":{"type":"Polygon","coordinates":[[[2.13525,50.68982],[2.13421,50.69011],[2.13557,50.69028],[2.13544,50.68984],[2.13525,50.68982]]]}},{"type":"Feature","properties":{"k":"BTH","s":0.017},"geometry":{"type":"Polygon","coordinates":[[[2.14949,50.69347],[2.14877,50.69385],[2.14879,50.69387],[2.14949,50.69347]]]}},{"type":"Feature","properties":{"k":"BTH","s":1.553},"geometry":{"type":"Polygon","coordinates":[[[2.15033,50.69463],[2.15112,50.69411],[2.1505,50.69388],[2.14782,50.69543],[2.1485,50.69589],[2.15033,50.69463]]]}},{"type":"Feature","properties":{"k":"JAC","s":0.367},"geometry":{"type":"Polygon","coordinates":[[[2.14777,50.69544],[2.15049,50.69389],[2.15033,50.69381],[2.14763,50.69535],[2.14777,50.69544]]]}},{"type":"Feature","properties":{"k":"BTN","s":3.168},"geometry":{"type":"Polygon","coordinates":[[[2.15214,50.69448],[2.15116,50.69412],[2.14778,50.69634],[2.14861,50.69706],[2.15214,50.69448]]]}},{"type":"Feature","properties":{"k":"MIS","s":5.726},"geometry":{"type":"Polygon","coordinates":[[[2.15011,50.69834],[2.15392,50.69555],[2.15093,50.69543],[2.14861,50.69706],[2.15011,50.69834]]]}},{"type":"Feature","properties":{"k":"BTH","s":0.054},"geometry":{"type":"Polygon","coordinates":[]}},{"type":"Feature","properties":{"k":"BTH","s":1.545},"geometry":{"type":"Polygon","coordinates":[[[2.15214,50.69448],[2.15092,50.69541],[2.15331,50.69548],[2.15371,50.6949],[2.14951,50.69348],[2.15214,50.69448]]]}}]}