{"type":"FeatureCollection","features":[{"type":"Feature","properties":{"k":"PPH","s":0.394},"geometry":{"type":"Polygon","coordinates":[[[1.98735,50.49521],[1.98767,50.49518],[1.98776,50.495],[1.98653,50.49449],[1.98622,50.49455],[1.98616,50.4947],[1.98735,50.49521]]]}},{"type":"Feature","properties":{"k":"ORH","s":0.811},"geometry":{"type":"Polygon","coordinates":[[[1.9759,50.48439],[1.97461,50.48277],[1.97415,50.48293],[1.97569,50.48483],[1.9759,50.48439]]]}},{"type":"Feature","properties":{"k":"BTN","s":1.254},"geometry":{"type":"Polygon","coordinates":[[[1.97549,50.48514],[1.97382,50.48308],[1.97325,50.48326],[1.97512,50.48558],[1.97549,50.48514]]]}},{"type":"Feature","properties":{"k":"BTH","s":0.692},"geometry":{"type":"Polygon","coordinates":[[[1.97549,50.48514],[1.9757,50.48485],[1.97417,50.48295],[1.97384,50.48307],[1.97549,50.48514]]]}},{"type":"Feature","properties":{"k":"BTH","s":0.024},"geometry":{"type":"Polygon","coordinates":[[[1.98017,50.48678],[1.98021,50.48671],[1.97895,50.48758],[1.98017,50.48678]]]}},{"type":"Feature","properties":{"k":"BTH","s":5.165},"geometry":{"type":"Polygon","coordinates":[[[1.97716,50.48877],[1.97736,50.48866],[1.97871,50.48775],[1.97508,50.48579],[1.97398,50.48712],[1.97716,50.48877]]]}},{"type":"Feature","properties":{"k":"ORH","s":12.928},"geometry":{"type":"Polygon","coordinates":[[[1.97382,50.49082],[1.97676,50.49217],[1.97941,50.49002],[1.97884,50.48972],[1.97856,50.48993],[1.9782,50.48975],[1.97849,50.48954],[1.97387,50.48716],[1.97327,50.48859],[1.97382,50.49082]]]}},{"type":"Feature","properties":{"k":"BFS","s":0.044},"geometry":{"type":"Polygon","coordinates":[[[1.97846,50.48944],[1.98127,50.48749],[1.97846,50.48942],[1.97846,50.48944]]]}},{"type":"Feature","properties":{"k":"PTC","s":1.931},"geometry":{"type":"Polygon","coordinates":[[[1.97771,50.48905],[1.97844,50.48943],[1.98127,50.48749],[1.98072,50.48706],[1.97771,50.48905]]]}},{"type":"Feature","properties":{"k":"BTN","s":6.066},"geometry":{"type":"Polygon","coordinates":[[[1.98112,50.49083],[1.98349,50.48925],[1.98144,50.48763],[1.97867,50.48956],[1.98112,50.49083]]]}},{"type":"Feature","properties":{"k":"BTH","s":1.449},"geometry":{"type":"Polygon","coordinates":[[[1.98599,50.49121],[1.98349,50.48925],[1.98295,50.4896],[1.98545,50.49148],[1.98599,50.49121]]]}},{"type":"Feature","properties":{"k":"PTC","s":4.464},"geometry":{"type":"Polygon","coordinates":[[[1.98168,50.49098],[1.98156,50.49107],[1.98403,50.49236],[1.98545,50.49148],[1.98295,50.4896],[1.98127,50.49073],[1.98168,50.49098]]]}},{"type":"Feature","properties":{"k":"MLG","s":1.548},"geometry":{"type":"Polygon","coordinates":[[[1.98679,50.49238],[1.98591,50.49215],[1.98548,50.49153],[1.98413,50.49241],[1.98565,50.49317],[1.98679,50.49238]]]}},{"type":"Feature","properties":{"k":"PPH","s":3.372},"geometry":{"type":"Polygon","coordinates":[[[1.97739,50.4952],[1.97691,50.49574],[1.97799,50.49605],[1.97854,50.49548],[1.97876,50.49548],[1.97971,50.49432],[1.97736,50.49379],[1.97607,50.49461],[1.97739,50.4952]]]}},{"type":"Feature","properties":{"k":"PPH","s":3.189},"geometry":{"type":"Polygon","coordinates":[[[1.97346,50.49362],[1.97373,50.49376],[1.97445,50.4934],[1.97524,50.49395],[1.97801,50.49332],[1.97451,50.49197],[1.97401,50.49242],[1.97451,50.49267],[1.97346,50.49362]]]}},{"type":"Feature","properties":{"k":"PPH","s":1.719},"geometry":{"type":"Polygon","coordinates":[[[1.977,50.49359],[1.97526,50.494],[1.97588,50.49444],[1.97521,50.49486],[1.9759,50.49541],[1.97688,50.49573],[1.97733,50.4952],[1.97602,50.49461],[1.97735,50.49377],[1.977,50.49359]]]}},{"type":"Feature","properties":{"k":"PPH","s":3.591},"geometry":{"type":"Polygon","coordinates":[[[1.97515,50.49576],[1.97475,50.49597],[1.97363,50.49531],[1.97274,50.4961],[1.97568,50.49786],[1.97689,50.49688],[1.97515,50.49576]]]}},{"type":"Feature","properties":{"k":"PPH","s":2.178},"geometry":{"type":"Polygon","coordinates":[[[1.97837,50.49694],[1.97842,50.49624],[1.97591,50.49547],[1.97432,50.4943],[1.9737,50.49444],[1.97371,50.49475],[1.97471,50.49539],[1.97544,50.49576],[1.97554,50.49567],[1.97587,50.49599],[1.97741,50.49633],[1.97837,50.49694]]]}},{"type":"Feature","properties":{"k":"PPH","s":0.444},"geometry":{"type":"Polygon","coordinates":[[[1.97769,50.49725],[1.97816,50.49687],[1.97729,50.49653],[1.97661,50.49658],[1.97769,50.49725]]]}},{"type":"Feature","properties":{"k":"PPH","s":2.563},"geometry":{"type":"Polygon","coordinates":[[[1.97956,50.4993],[1.97916,50.49905],[1.97942,50.49887],[1.97763,50.49736],[1.97704,50.4978],[1.97765,50.49824],[1.97706,50.49871],[1.9789,50.49995],[1.97956,50.4993]]]}},{"type":"Feature","properties":{"k":"PPH","s":0.28},"geometry":{"type":"Polygon","coordinates":[[[1.97637,50.49841],[1.97605,50.49819],[1.97525,50.49872],[1.9756,50.49896],[1.97637,50.49841]]]}},{"type":"Feature","properties":{"k":"JAC","s":0.428},"geometry":{"type":"Polygon","coordinates":[[[1.97582,50.50001],[1.97685,50.4994],[1.97644,50.49911],[1.97542,50.49973],[1.97582,50.50001]]]}},{"type":"Feature","properties":{"k":"BTH","s":3.424},"geometry":{"type":"Polygon","coordinates":[[[1.97673,50.50084],[1.97497,50.49962],[1.97324,50.50131],[1.9744,50.50218],[1.97673,50.50084]]]}},{"type":"Feature","properties":{"k":"BTH","s":6.288},"geometry":{"type":"Polygon","coordinates":[[[1.97316,50.50294],[1.97626,50.50475],[1.97819,50.5031],[1.97559,50.50157],[1.97316,50.50294]]]}},{"type":"Feature","properties":{"k":"MIS","s":1.437},"geometry":{"type":"Polygon","coordinates":[[[1.97711,50.50067],[1.97645,50.50107],[1.97893,50.50248],[1.97945,50.50203],[1.97711,50.50067]]]}},{"type":"Feature","properties":{"k":"CZH","s":2.049},"geometry":{"type":"Polygon","coordinates":[[[1.97559,50.50157],[1.97819,50.50311],[1.97893,50.50248],[1.97646,50.50108],[1.97559,50.50157]]]}},{"type":"Feature","properties":{"k":"PPH","s":1.916},"geometry":{"type":"Polygon","coordinates":[[[1.9792,50.50026],[1.97784,50.50111],[1.97945,50.50203],[1.98056,50.50109],[1.9792,50.50026]]]}},{"type":"Feature","properties":{"k":"PPH","s":1.695},"geometry":{"type":"Polygon","coordinates":[[[1.97837,50.49979],[1.97737,50.49911],[1.97574,50.50014],[1.97676,50.50084],[1.97837,50.49979]]]}},{"type":"Feature","properties":{"k":"PPH","s":1.223},"geometry":{"type":"Polygon","coordinates":[[[1.98015,50.50074],[1.98063,50.50034],[1.98041,50.4996],[1.97981,50.49908],[1.97895,50.49999],[1.98015,50.50074]]]}},{"type":"Feature","properties":{"k":"BTA","s":0.04},"geometry":{"type":"Polygon","coordinates":[[[1.98137,50.49973],[1.98134,50.49975],[1.98373,50.50082],[1.98137,50.49973]]]}},{"type":"Feature","properties":{"k":"MIS","s":1.315},"geometry":{"type":"Polygon","coordinates":[[[1.98268,50.50114],[1.98373,50.50082],[1.98134,50.49975],[1.98083,50.50024],[1.98268,50.50114]]]}},{"type":"Feature","properties":{"k":"MIS","s":0.504},"geometry":{"type":"Polygon","coordinates":[[[1.98265,50.50143],[1.98403,50.50101],[1.98368,50.50085],[1.98138,50.50155],[1.98162,50.50173],[1.98265,50.50143]]]}},{"type":"Feature","properties":{"k":"MIS","s":1.153},"geometry":{"type":"Polygon","coordinates":[[[1.98137,50.50153],[1.98267,50.50114],[1.98081,50.50026],[1.98028,50.50078],[1.98137,50.50153]]]}},{"type":"Feature","properties":{"k":"MIS","s":1.442},"geometry":{"type":"Polygon","coordinates":[[[1.9847,50.50151],[1.98405,50.50101],[1.98163,50.50173],[1.9821,50.50232],[1.9847,50.50151]]]}},{"type":"Feature","properties":{"k":"MIS","s":0.011},"geometry":{"type":"Polygon","coordinates":[[[1.98527,50.50114],[1.98528,50.50115],[1.98666,50.50048],[1.98527,50.50114]]]}},{"type":"Feature","properties":{"k":"BTA","s":0.036},"geometry":{"type":"Polygon","coordinates":[[[1.9847,50.50151],[1.98476,50.50148],[1.98411,50.50099],[1.9847,50.50151]]]}},{"type":"Feature","properties":{"k":"BTA","s":0.017},"geometry":{"type":"Polygon","coordinates":[[[1.98376,50.50082],[1.98368,50.50085],[1.98403,50.50101],[1.98376,50.50082]]]}},{"type":"Feature","properties":{"k":"PPH","s":1.505},"geometry":{"type":"MultiPolygon","coordinates":[[[[1.98134,50.49973],[1.98378,50.5008],[1.98441,50.5012],[1.98479,50.50147],[1.98483,50.50146],[1.98538,50.50125],[1.98389,50.50036],[1.98302,50.50004],[1.98304,50.49992],[1.98194,50.49935],[1.98134,50.49973]]]]}},{"type":"Feature","properties":{"k":"BTH","s":3.687},"geometry":{"type":"Polygon","coordinates":[[[1.98287,50.49913],[1.98196,50.49934],[1.98528,50.50114],[1.98665,50.50047],[1.98357,50.49871],[1.98287,50.49913]]]}},{"type":"Feature","properties":{"k":"MIS","s":4.739},"geometry":{"type":"Polygon","coordinates":[[[1.98315,50.49844],[1.98505,50.49949],[1.98806,50.49772],[1.98579,50.49697],[1.98315,50.49844]]]}},{"type":"Feature","properties":{"k":"BTH","s":0.9},"geometry":{"type":"Polygon","coordinates":[[[1.98486,50.49698],[1.98271,50.49824],[1.98314,50.49845],[1.98571,50.49698],[1.98486,50.49698]]]}},{"type":"Feature","properties":{"k":"PPH","s":1.007},"geometry":{"type":"Polygon","coordinates":[[[1.98043,50.4981],[1.98178,50.49923],[1.98283,50.49907],[1.98079,50.49776],[1.98043,50.4981]]]}},{"type":"Feature","properties":{"k":"PPH","s":6.802},"geometry":{"type":"Polygon","coordinates":[[[1.98215,50.49652],[1.9831,50.49656],[1.98319,50.49633],[1.98011,50.4959],[1.98015,50.49566],[1.97856,50.49549],[1.978,50.49607],[1.97847,50.49622],[1.97843,50.49653],[1.97931,50.49689],[1.97915,50.49761],[1.97813,50.49695],[1.9777,50.49728],[1.97886,50.49826],[1.97951,50.49777],[1.98036,50.49815],[1.98078,50.49774],[1.98283,50.49907],[1.98342,50.49865],[1.98133,50.49758],[1.98215,50.49652]]]}},{"type":"Feature","properties":{"k":"LIF","s":2.736},"geometry":{"type":"Polygon","coordinates":[[[1.98338,50.4966],[1.98213,50.49655],[1.98133,50.49758],[1.98268,50.49827],[1.98493,50.49689],[1.98338,50.4966]]]}},{"type":"Feature","properties":{"k":"BTA","s":0.061},"geometry":{"type":"Polygon","coordinates":[[[1.98395,50.49675],[1.98506,50.49687],[1.98338,50.4966],[1.98395,50.49675]]]}},{"type":"Feature","properties":{"k":"BTA","s":0.047},"geometry":{"type":"Polygon","coordinates":[[[1.98496,50.49693],[1.98583,50.49691],[1.98563,50.49689],[1.98496,50.49693]]]}},{"type":"Feature","properties":{"k":"PPH","s":5.487},"geometry":{"type":"Polygon","coordinates":[[[1.98474,50.49438],[1.98374,50.49659],[1.98592,50.49688],[1.98665,50.49713],[1.98811,50.4956],[1.98474,50.49438]]]}},{"type":"Feature","properties":{"k":"PPH","s":4.131},"geometry":{"type":"Polygon","coordinates":[[[1.98861,50.49749],[1.98973,50.498],[1.991,50.49694],[1.98815,50.49561],[1.98665,50.49713],[1.9884,50.4977],[1.98861,50.49749]]]}},{"type":"Feature","properties":{"k":"BTA","s":0.088},"geometry":{"type":"Polygon","coordinates":[[[1.98746,50.49743],[1.98579,50.49697],[1.98806,50.49772],[1.98746,50.49743]]]}},{"type":"Feature","properties":{"k":"BTH","s":4.521},"geometry":{"type":"Polygon","coordinates":[[[1.98805,50.49772],[1.98505,50.49949],[1.98663,50.5004],[1.98968,50.49863],[1.98805,50.49772]]]}},{"type":"Feature","properties":{"k":"BTA","s":0.14},"geometry":{"type":"Polygon","coordinates":[[[1.98871,50.49787],[1.98809,50.49767],[1.98968,50.49863],[1.98871,50.49787]]]}},{"type":"Feature","properties":{"k":"PPH","s":0.012},"geometry":{"type":"MultiPolygon","coordinates":[[[[1.98933,50.49784],[1.98899,50.49765],[1.98878,50.49757],[1.98933,50.49784]]],[[[1.99142,50.49951],[1.99082,50.49912],[1.99124,50.49941],[1.99142,50.49951]]]]}},{"type":"Feature","properties":{"k":"JAC","s":0.05},"geometry":{"type":"Polygon","coordinates":[[[1.99022,50.49882],[1.98974,50.4986],[1.99136,50.49958],[1.99022,50.49882]]]}},{"type":"Feature","properties":{"k":"BTA","s":0.0},"geometry":{"type":"Polygon","coordinates":[]}},{"type":"Feature","properties":{"k":"MIS","s":2.953},"geometry":{"type":"Polygon","coordinates":[[[1.98726,50.50076],[1.98835,50.50134],[1.99138,50.49959],[1.99038,50.49896],[1.98726,50.50076]]]}},{"type":"Feature","properties":{"k":"BTH","s":1.782},"geometry":{"type":"Polygon","coordinates":[[[1.98663,50.50041],[1.98726,50.50076],[1.99038,50.49896],[1.98974,50.4986],[1.98663,50.50041]]]}},{"type":"Feature","properties":{"k":"MIS","s":0.001},"geometry":{"type":"Polygon","coordinates":[[[1.977,50.5064],[1.97717,50.50622],[1.9772,50.50614],[1.977,50.5064]]]}},{"type":"Feature","properties":{"k":"PPH","s":0.035},"geometry":{"type":"Polygon","coordinates":[[[1.97751,50.50588],[1.97829,50.50524],[1.97721,50.50608],[1.97721,50.50618],[1.97751,50.50588]]]}},{"type":"Feature","properties":{"k":"MIS","s":0.062},"geometry":{"type":"Polygon","coordinates":[[[1.97828,50.50521],[1.98028,50.50361],[1.98027,50.50361],[1.97828,50.50521]]]}},{"type":"Feature","properties":{"k":"ORH","s":2.549},"geometry":{"type":"Polygon","coordinates":[[[1.97718,50.50612],[1.98026,50.5036],[1.97949,50.50322],[1.98127,50.50156],[1.97646,50.50583],[1.97718,50.50612]]]}},{"type":"Feature","properties":{"k":"MIS","s":3.446},"geometry":{"type":"Polygon","coordinates":[[[1.97934,50.50264],[1.97978,50.50288],[1.98127,50.50156],[1.98056,50.5011],[1.97413,50.50659],[1.97452,50.50682],[1.97934,50.50264]]]}},{"type":"Feature","properties":{"k":"PTR","s":2.515},"geometry":{"type":"Polygon","coordinates":[[[1.97496,50.50707],[1.97646,50.50583],[1.97978,50.50288],[1.97934,50.50264],[1.97452,50.50682],[1.97496,50.50707]]]}},{"type":"Feature","properties":{"k":"BTH","s":2.9},"geometry":{"type":"Polygon","coordinates":[[[1.97217,50.5035],[1.97545,50.50544],[1.97626,50.50475],[1.97315,50.50294],[1.97217,50.5035]]]}},{"type":"Feature","properties":{"k":"PPH","s":2.056},"geometry":{"type":"Polygon","coordinates":[[[1.97545,50.50544],[1.97218,50.50352],[1.97149,50.50389],[1.97492,50.5059],[1.97545,50.50544]]]}},{"type":"Feature","properties":{"k":"MIS","s":1.359},"geometry":{"type":"Polygon","coordinates":[[[1.97646,50.50583],[1.97496,50.50707],[1.97585,50.50758],[1.97717,50.50622],[1.97646,50.50583]]]}},{"type":"Feature","properties":{"k":"MIS","s":0.831},"geometry":{"type":"Polygon","coordinates":[[[1.97283,50.50744],[1.97326,50.50707],[1.97502,50.50842],[1.97534,50.50809],[1.97251,50.50663],[1.97211,50.50702],[1.97283,50.50744]]]}},{"type":"Feature","properties":{"k":"PPH","s":5.397},"geometry":{"type":"Polygon","coordinates":[[[1.96895,50.50669],[1.96817,50.50682],[1.96803,50.50646],[1.96687,50.50662],[1.96665,50.50672],[1.96897,50.51068],[1.96989,50.51022],[1.96895,50.50669]]]}},{"type":"Feature","properties":{"k":"MIS","s":10.776},"geometry":{"type":"Polygon","coordinates":[[[1.96708,50.5115],[1.96897,50.51069],[1.96897,50.51068],[1.96665,50.50672],[1.96485,50.5076],[1.96461,50.50737],[1.96145,50.5091],[1.9618,50.50948],[1.96402,50.50827],[1.96708,50.5115]]]}},{"type":"Feature","properties":{"k":"BTH","s":3.518},"geometry":{"type":"Polygon","coordinates":[[[1.96449,50.51085],[1.96559,50.51096],[1.96686,50.51145],[1.96402,50.50827],[1.96278,50.50897],[1.96449,50.51085]]]}},{"type":"Feature","properties":{"k":"BTH","s":0.94},"geometry":{"type":"Polygon","coordinates":[[[1.96391,50.51087],[1.96241,50.50917],[1.9618,50.50948],[1.96327,50.51084],[1.96391,50.51087]]]}},{"type":"Feature","properties":{"k":"BTH","s":2.913},"geometry":{"type":"Polygon","coordinates":[[[1.96155,50.51098],[1.96315,50.51084],[1.96075,50.50844],[1.95959,50.50884],[1.96155,50.51098]]]}},{"type":"Feature","properties":{"k":"PTR","s":2.096},"geometry":{"type":"Polygon","coordinates":[[[1.96315,50.50615],[1.96024,50.50773],[1.96077,50.50835],[1.96379,50.50672],[1.96315,50.50615]]]}},{"type":"Feature","properties":{"k":"ORH","s":2.595},"geometry":{"type":"Polygon","coordinates":[[[1.96141,50.50907],[1.96457,50.50734],[1.96379,50.50672],[1.96077,50.50835],[1.96141,50.50907]]]}},{"type":"Feature","properties":{"k":"JAC","s":0.806},"geometry":{"type":"Polygon","coordinates":[[[1.96506,50.50577],[1.96453,50.50533],[1.96313,50.50612],[1.96361,50.50656],[1.96506,50.50577]]]}},{"type":"Feature","properties":{"k":"MIS","s":3.129},"geometry":{"type":"Polygon","coordinates":[[[1.96508,50.50578],[1.96363,50.50658],[1.96485,50.5076],[1.96688,50.50661],[1.96666,50.50538],[1.96508,50.50578]]]}},{"type":"Feature","properties":{"k":"ORH","s":2.265},"geometry":{"type":"Polygon","coordinates":[[[1.9624,50.50556],[1.95966,50.50704],[1.96024,50.50773],[1.96313,50.50612],[1.9624,50.50556]]]}},{"type":"Feature","properties":{"k":"ORH","s":4.484},"geometry":{"type":"Polygon","coordinates":[[[1.96386,50.50471],[1.96359,50.50421],[1.96265,50.50359],[1.96107,50.50391],[1.96244,50.50445],[1.9624,50.50451],[1.95897,50.50628],[1.95963,50.50703],[1.96386,50.50471]]]}},{"type":"Feature","properties":{"k":"AVH","s":1.118},"geometry":{"type":"Polygon","coordinates":[[[1.96243,50.50552],[1.96311,50.50611],[1.96454,50.50529],[1.96386,50.50471],[1.96243,50.50552]]]}},{"type":"Feature","properties":{"k":"BTH","s":3.62},"geometry":{"type":"Polygon","coordinates":[[[1.96449,50.50309],[1.96374,50.50329],[1.96551,50.50566],[1.96665,50.50537],[1.96532,50.50284],[1.96509,50.5028],[1.96457,50.50195],[1.96417,50.50198],[1.96449,50.50309]]]}},{"type":"Feature","properties":{"k":"ORH","s":1.396},"geometry":{"type":"Polygon","coordinates":[[[1.96355,50.50408],[1.96516,50.50579],[1.96551,50.50566],[1.96374,50.50329],[1.9628,50.50354],[1.96355,50.50408]]]}},{"type":"Feature","properties":{"k":"PPH","s":1.894},"geometry":{"type":"Polygon","coordinates":[[[1.96729,50.5048],[1.96743,50.50492],[1.96807,50.50476],[1.96731,50.50248],[1.96628,50.50244],[1.96729,50.5048]]]}},{"type":"Feature","properties":{"k":"BTH","s":1.691},"geometry":{"type":"Polygon","coordinates":[[[1.97064,50.50344],[1.96834,50.50477],[1.96863,50.50545],[1.97129,50.50393],[1.97064,50.50344]]]}},{"type":"Feature","properties":{"k":"PPH","s":1.207},"geometry":{"type":"Polygon","coordinates":[[[1.96895,50.50669],[1.96811,50.50476],[1.96749,50.50493],[1.96817,50.50682],[1.96895,50.50669]]]}},{"type":"Feature","properties":{"k":"PPH","s":0.488},"geometry":{"type":"Polygon","coordinates":[[[1.9674,50.50649],[1.96792,50.50644],[1.96758,50.50526],[1.96708,50.50534],[1.9674,50.50649]]]}},{"type":"Feature","properties":{"k":"CZH","s":2.157},"geometry":{"type":"Polygon","coordinates":[[[1.97079,50.5064],[1.97204,50.50558],[1.97027,50.50457],[1.96905,50.50528],[1.97079,50.5064]]]}},{"type":"Feature","properties":{"k":"MIS","s":5.365},"geometry":{"type":"Polygon","coordinates":[[[1.96899,50.50532],[1.96865,50.50552],[1.96976,50.50865],[1.97112,50.50795],[1.97301,50.50614],[1.97204,50.50558],[1.97079,50.5064],[1.96899,50.50532]]]}},{"type":"Feature","properties":{"k":"MIS","s":5.612},"geometry":{"type":"Polygon","coordinates":[[[1.97585,50.50758],[1.97413,50.50659],[1.97492,50.5059],[1.97149,50.50389],[1.97027,50.50457],[1.97301,50.50614],[1.97251,50.50663],[1.97534,50.50809],[1.97585,50.50758]]]}},{"type":"Feature","properties":{"k":"ORH","s":3.869},"geometry":{"type":"Polygon","coordinates":[[[1.97169,50.50013],[1.97052,50.50115],[1.97295,50.50299],[1.97439,50.50217],[1.97169,50.50013]]]}},{"type":"Feature","properties":{"k":"PPH","s":7.101},"geometry":{"type":"Polygon","coordinates":[[[1.96784,50.50158],[1.96748,50.50222],[1.96834,50.50477],[1.97064,50.50344],[1.96966,50.50271],[1.97113,50.50186],[1.9691,50.50026],[1.96784,50.50158]]]}},{"type":"Feature","properties":{"k":"PPH","s":5.98},"geometry":{"type":"Polygon","coordinates":[[[1.96914,50.4993],[1.96908,50.50025],[1.97118,50.50187],[1.96966,50.50271],[1.97129,50.50393],[1.97295,50.50299],[1.97052,50.50115],[1.97169,50.50013],[1.9695,50.49846],[1.96914,50.4993]]]}},{"type":"Feature","properties":{"k":"BTH","s":3.603},"geometry":{"type":"Polygon","coordinates":[[[1.97324,50.50131],[1.97497,50.49962],[1.9735,50.49854],[1.97171,50.50014],[1.97324,50.50131]]]}},{"type":"Feature","properties":{"k":"PPH","s":3.174},"geometry":{"type":"Polygon","coordinates":[[[1.96942,50.49839],[1.97171,50.50014],[1.97298,50.49892],[1.97019,50.49767],[1.96942,50.49839]]]}},{"type":"Feature","properties":{"k":"PPH","s":4.654},"geometry":{"type":"Polygon","coordinates":[[[1.97422,50.49744],[1.97386,50.49684],[1.97251,50.49617],[1.97144,50.49713],[1.97089,50.49694],[1.97022,50.49766],[1.973,50.4989],[1.97382,50.49828],[1.97368,50.49815],[1.97422,50.49744]]]}},{"type":"Feature","properties":{"k":"PPH","s":1.934},"geometry":{"type":"Polygon","coordinates":[[[1.97049,50.49573],[1.97013,50.49559],[1.96956,50.49619],[1.96905,50.49603],[1.96856,50.49646],[1.9704,50.49732],[1.97113,50.49658],[1.97078,50.49635],[1.97116,50.49557],[1.97079,50.49548],[1.97049,50.49573]]]}},{"type":"Feature","properties":{"k":"ORP","s":1.602},"geometry":{"type":"Polygon","coordinates":[[[1.96639,50.49535],[1.96639,50.49578],[1.96768,50.49719],[1.96869,50.49632],[1.96659,50.4953],[1.96639,50.49535]]]}},{"type":"Feature","properties":{"k":"PPH","s":0.225},"geometry":{"type":"Polygon","coordinates":[[[1.96848,50.49826],[1.96805,50.4978],[1.96767,50.49798],[1.96793,50.49845],[1.96848,50.49826]]]}},{"type":"Feature","properties":{"k":"PPH","s":0.814},"geometry":{"type":"Polygon","coordinates":[[[1.9688,50.49871],[1.96852,50.49829],[1.96787,50.4985],[1.96807,50.49932],[1.96846,50.49934],[1.96855,50.49973],[1.96906,50.49969],[1.9688,50.49871]]]}},{"type":"Feature","properties":{"k":"PPH","s":0.696},"geometry":{"type":"Polygon","coordinates":[[[1.96758,50.49869],[1.96692,50.49755],[1.96672,50.49761],[1.96716,50.49884],[1.9669,50.49966],[1.96752,50.49981],[1.96758,50.49869]]]}},{"type":"Feature","properties":{"k":"MIS","s":1.329},"geometry":{"type":"Polygon","coordinates":[[[1.9659,50.49942],[1.9669,50.49966],[1.96715,50.49843],[1.96678,50.49771],[1.96616,50.49789],[1.9659,50.49942]]]}},{"type":"Feature","properties":{"k":"LUZ","s":0.889},"geometry":{"type":"Polygon","coordinates":[[[1.96609,50.4981],[1.96611,50.49764],[1.96342,50.49863],[1.96372,50.49895],[1.96609,50.4981]]]}},{"type":"Feature","properties":{"k":"BTH","s":1.205},"geometry":{"type":"Polygon","coordinates":[[[1.96608,50.49713],[1.96297,50.49832],[1.96331,50.49867],[1.96609,50.49764],[1.96608,50.49713]]]}},{"type":"Feature","properties":{"k":"PTR","s":0.172},"geometry":{"type":"Polygon","coordinates":[[[1.96672,50.49761],[1.96653,50.49768],[1.96615,50.49704],[1.96616,50.49789],[1.96672,50.49761]]]}},{"type":"Feature","properties":{"k":"AVP","s":1.171},"geometry":{"type":"Polygon","coordinates":[[[1.96757,50.49727],[1.96597,50.49551],[1.96579,50.4957],[1.96654,50.49767],[1.96757,50.49727]]]}},{"type":"Feature","properties":{"k":"PPH","s":0.417},"geometry":{"type":"Polygon","coordinates":[[[1.9657,50.49546],[1.96525,50.49527],[1.96467,50.49553],[1.96588,50.49643],[1.96559,50.4958],[1.9657,50.49546]]]}},{"type":"Feature","properties":{"k":"PTC","s":2.385},"geometry":{"type":"Polygon","coordinates":[[[1.96574,50.49721],[1.96417,50.49575],[1.96368,50.49595],[1.96233,50.49463],[1.96174,50.49472],[1.96468,50.49759],[1.96574,50.49721]]]}},{"type":"Feature","properties":{"k":"MIS","s":2.001},"geometry":{"type":"Polygon","coordinates":[[[1.96104,50.49489],[1.96298,50.4968],[1.96399,50.49775],[1.96468,50.49759],[1.96166,50.49473],[1.96104,50.49489]]]}},{"type":"Feature","properties":{"k":"LUZ","s":3.358},"geometry":{"type":"Polygon","coordinates":[[[1.9596,50.49555],[1.96155,50.49755],[1.96298,50.4968],[1.96098,50.4949],[1.9596,50.49555]]]}},{"type":"Feature","properties":{"k":"PPH","s":2.982},"geometry":{"type":"Polygon","coordinates":[[[1.96155,50.49755],[1.9596,50.49555],[1.95824,50.49594],[1.9588,50.49636],[1.95862,50.49645],[1.95982,50.4973],[1.96005,50.49718],[1.96112,50.49805],[1.96305,50.49704],[1.96374,50.49781],[1.96399,50.49775],[1.96298,50.4968],[1.96155,50.49755]]]}},{"type":"Feature","properties":{"k":"PPH","s":2.695},"geometry":{"type":"Polygon","coordinates":[[[1.96304,50.49706],[1.95968,50.49884],[1.96018,50.4987],[1.96104,50.49934],[1.96372,50.49782],[1.96304,50.49706]]]}},{"type":"Feature","properties":{"k":"TRE","s":0.05},"geometry":{"type":"Polygon","coordinates":[[[1.96372,50.49895],[1.96342,50.49863],[1.96328,50.49868],[1.96356,50.499],[1.96372,50.49895]]]}},{"type":"Feature","properties":{"k":"PPH","s":6.66},"geometry":{"type":"Polygon","coordinates":[[[1.96264,50.5035],[1.96199,50.50245],[1.96205,50.50118],[1.96223,50.50091],[1.96362,50.50088],[1.96394,50.50004],[1.964,50.49951],[1.96295,50.49834],[1.96099,50.49945],[1.96127,50.50377],[1.96264,50.5035]]]}},{"type":"Feature","properties":{"k":"ORH","s":5.025},"geometry":{"type":"Polygon","coordinates":[[[1.96402,50.4995],[1.96362,50.50088],[1.96223,50.50092],[1.96206,50.50205],[1.96408,50.50198],[1.96409,50.50148],[1.96578,50.49955],[1.96609,50.4981],[1.96361,50.499],[1.96402,50.4995]]]}},{"type":"Feature","properties":{"k":"ORH","s":1.003},"geometry":{"type":"Polygon","coordinates":[[[1.96684,50.50047],[1.96752,50.49981],[1.96591,50.49942],[1.96532,50.50014],[1.96684,50.50047]]]}},{"type":"Feature","properties":{"k":"PPH","s":1.498},"geometry":{"type":"Polygon","coordinates":[[[1.96418,50.5015],[1.96417,50.50191],[1.96495,50.50186],[1.9651,50.50137],[1.96684,50.50047],[1.96532,50.50014],[1.96418,50.5015]]]}},{"type":"Feature","properties":{"k":"PPH","s":2.092},"geometry":{"type":"Polygon","coordinates":[[[1.96742,50.50192],[1.96859,50.50063],[1.96756,50.50041],[1.96625,50.50107],[1.96634,50.50118],[1.96537,50.50219],[1.96612,50.50235],[1.96624,50.50202],[1.96653,50.5019],[1.96742,50.50192]]]}},{"type":"Feature","properties":{"k":"PTR","s":0.411},"geometry":{"type":"Polygon","coordinates":[[[1.9662,50.50237],[1.9649,50.5021],[1.9651,50.50259],[1.96627,50.50278],[1.9662,50.50237]]]}},{"type":"Feature","properties":{"k":"LUZ","s":2.074},"geometry":{"type":"Polygon","coordinates":[[[1.96213,50.50265],[1.96277,50.50352],[1.9644,50.50307],[1.96408,50.50198],[1.96211,50.5021],[1.96213,50.50265]]]}},{"type":"Feature","properties":{"k":"PTR","s":2.218},"geometry":{"type":"Polygon","coordinates":[[[1.9605,50.50402],[1.95986,50.50005],[1.95884,50.50086],[1.96029,50.50421],[1.9605,50.50402]]]}},{"type":"Feature","properties":{"k":"CZH","s":5.591},"geometry":{"type":"Polygon","coordinates":[[[1.95795,50.50418],[1.95847,50.50522],[1.96029,50.50421],[1.95884,50.50086],[1.958,50.50223],[1.9567,50.50323],[1.95795,50.50418]]]}},{"type":"Feature","properties":{"k":"MIS","s":5.049},"geometry":{"type":"Polygon","coordinates":[[[1.95662,50.50318],[1.9579,50.50222],[1.95821,50.50167],[1.95534,50.49932],[1.95438,50.4997],[1.95635,50.50123],[1.95468,50.50202],[1.95662,50.50318]]]}},{"type":"Feature","properties":{"k":"PPH","s":1.976},"geometry":{"type":"Polygon","coordinates":[[[1.95632,50.50005],[1.95823,50.50157],[1.95843,50.50127],[1.9581,50.50076],[1.95819,50.49983],[1.95732,50.49903],[1.95632,50.50005]]]}},{"type":"Feature","properties":{"k":"ORH","s":3.422},"geometry":{"type":"Polygon","coordinates":[[[1.95466,50.50203],[1.95631,50.50125],[1.95437,50.49969],[1.95249,50.50042],[1.95466,50.50203]]]}},{"type":"Feature","properties":{"k":"PPH","s":1.132},"geometry":{"type":"Polygon","coordinates":[[[1.95875,50.49937],[1.95839,50.49977],[1.95814,50.50078],[1.95842,50.50119],[1.95977,50.50004],[1.95875,50.49937]]]}},{"type":"Feature","properties":{"k":"BTH","s":2.301},"geometry":{"type":"Polygon","coordinates":[[[1.96119,50.50245],[1.96099,50.49945],[1.95986,50.50005],[1.96025,50.5025],[1.96119,50.50245]]]}},{"type":"Feature","properties":{"k":"PPH","s":0.426},"geometry":{"type":"Polygon","coordinates":[[[1.95977,50.50003],[1.96015,50.4998],[1.95923,50.49911],[1.9588,50.49932],[1.95977,50.50003]]]}},{"type":"Feature","properties":{"k":"PPH","s":3.233},"geometry":{"type":"Polygon","coordinates":[[[1.95832,50.49989],[1.95875,50.49935],[1.96111,50.49804],[1.96003,50.49719],[1.95786,50.49853],[1.95732,50.49903],[1.95832,50.49989]]]}},{"type":"Feature","properties":{"k":"BTH","s":1.541},"geometry":{"type":"Polygon","coordinates":[[[1.95416,50.49497],[1.95575,50.49667],[1.9566,50.49631],[1.95495,50.49459],[1.95416,50.49497]]]}},{"type":"Feature","properties":{"k":"PPH","s":2.727},"geometry":{"type":"Polygon","coordinates":[[[1.95439,50.49968],[1.95532,50.4993],[1.95485,50.49891],[1.95479,50.49778],[1.95555,50.49731],[1.95575,50.49675],[1.95375,50.49686],[1.95428,50.4979],[1.95317,50.4982],[1.95439,50.49968]]]}},{"type":"Feature","properties":{"k":"PPH","s":1.673},"geometry":{"type":"Polygon","coordinates":[[[1.95566,50.49823],[1.95489,50.49888],[1.95519,50.49914],[1.95879,50.49681],[1.95894,50.49666],[1.95859,50.49648],[1.95566,50.49823]]]}},{"type":"Feature","properties":{"k":"PTR","s":3.703},"geometry":{"type":"Polygon","coordinates":[[[1.9563,50.50003],[1.95784,50.49852],[1.9598,50.4973],[1.95895,50.49671],[1.95519,50.49914],[1.9563,50.50003]]]}},{"type":"Feature","properties":{"k":"BTH","s":7.17},"geometry":{"type":"Polygon","coordinates":[[[1.95043,50.49699],[1.95248,50.50042],[1.95437,50.49967],[1.95319,50.49822],[1.95245,50.49686],[1.95288,50.49572],[1.95061,50.49595],[1.95043,50.49699]]]}},{"type":"Feature","properties":{"k":"PPH","s":3.09},"geometry":{"type":"Polygon","coordinates":[[[1.95302,50.49562],[1.95064,50.49581],[1.9506,50.49594],[1.9529,50.49571],[1.95245,50.49686],[1.95567,50.49672],[1.95416,50.49497],[1.95302,50.49562]]]}},{"type":"Feature","properties":{"k":"BTH","s":1.18},"geometry":{"type":"Polygon","coordinates":[[[1.94813,50.49438],[1.94897,50.49623],[1.94969,50.49595],[1.94908,50.49444],[1.94813,50.49438]]]}},{"type":"Feature","properties":{"k":"BTH","s":6.665},"geometry":{"type":"Polygon","coordinates":[[[1.95062,50.4956],[1.94678,50.49699],[1.9457,50.49792],[1.94572,50.4987],[1.94708,50.49912],[1.94824,50.49862],[1.94993,50.49742],[1.9503,50.49697],[1.95062,50.4956]]]}},{"type":"Feature","properties":{"k":"BTH","s":3.995},"geometry":{"type":"Polygon","coordinates":[[[1.95242,50.50046],[1.95037,50.49703],[1.94991,50.49757],[1.9492,50.498],[1.95146,50.50104],[1.95242,50.50046]]]}},{"type":"Feature","properties":{"k":"PTR","s":4.45},"geometry":{"type":"Polygon","coordinates":[[[1.94895,50.49818],[1.94826,50.49869],[1.94715,50.49917],[1.95086,50.5014],[1.95139,50.50108],[1.95132,50.50084],[1.94932,50.49815],[1.94908,50.49828],[1.94895,50.49818]]]}},{"type":"Feature","properties":{"k":"MIS","s":3.827},"geometry":{"type":"Polygon","coordinates":[[[1.9498,50.50238],[1.95087,50.50144],[1.94986,50.50082],[1.9494,50.50114],[1.94623,50.49949],[1.9452,50.49978],[1.9498,50.50238]]]}},{"type":"Feature","properties":{"k":"BTH","s":0.008},"geometry":{"type":"Polygon","coordinates":[[[1.95146,50.50104],[1.95132,50.50084],[1.95139,50.50108],[1.95146,50.50104]]]}},{"type":"Feature","properties":{"k":"ORH","s":4.62},"geometry":{"type":"Polygon","coordinates":[[[1.95409,50.50347],[1.95545,50.50252],[1.95244,50.50048],[1.95086,50.50142],[1.95409,50.50347]]]}},{"type":"Feature","properties":{"k":"PPH","s":2.217},"geometry":{"type":"Polygon","coordinates":[[[1.95522,50.50413],[1.95085,50.50145],[1.95037,50.50186],[1.95485,50.50452],[1.95522,50.50413]]]}},{"type":"Feature","properties":{"k":"PPH","s":7.369},"geometry":{"type":"Polygon","coordinates":[[[1.94624,50.5036],[1.94515,50.50439],[1.94832,50.50601],[1.94848,50.50582],[1.94938,50.5064],[1.94914,50.50657],[1.95055,50.5075],[1.95105,50.50712],[1.95084,50.50654],[1.9516,50.50627],[1.94772,50.50365],[1.94716,50.50407],[1.94624,50.5036]]]}},{"type":"Feature","properties":{"k":"PPH","s":1.534},"geometry":{"type":"Polygon","coordinates":[[[1.94849,50.50584],[1.9475,50.50686],[1.9487,50.50767],[1.94939,50.50675],[1.94913,50.50657],[1.94936,50.5064],[1.94849,50.50584]]]}},{"type":"Feature","properties":{"k":"BTH","s":6.306},"geometry":{"type":"Polygon","coordinates":[[[1.95408,50.50543],[1.95485,50.50452],[1.95037,50.50186],[1.94982,50.50236],[1.95139,50.50327],[1.95039,50.50409],[1.95341,50.50587],[1.95408,50.50543]]]}},{"type":"Feature","properties":{"k":"BTH","s":1.559},"geometry":{"type":"Polygon","coordinates":[[[1.95521,50.50412],[1.95655,50.50323],[1.95545,50.50252],[1.95409,50.50347],[1.95521,50.50412]]]}},{"type":"Feature","properties":{"k":"BTH","s":0.858},"geometry":{"type":"Polygon","coordinates":[[[1.95664,50.50325],[1.95622,50.50352],[1.95739,50.50471],[1.95802,50.50439],[1.95664,50.50325]]]}},{"type":"Feature","properties":{"k":"MLF","s":0.501},"geometry":{"type":"Polygon","coordinates":[[[1.95891,50.50627],[1.95802,50.50439],[1.95739,50.50471],[1.95891,50.50627]]]}},{"type":"Feature","properties":{"k":"BTH","s":3.234},"geometry":{"type":"Polygon","coordinates":[[[1.96185,50.50476],[1.96241,50.50446],[1.96096,50.50391],[1.96061,50.50403],[1.95845,50.50524],[1.95897,50.50628],[1.96185,50.50476]]]}},{"type":"Feature","properties":{"k":"BTH","s":4.541},"geometry":{"type":"Polygon","coordinates":[[[1.95524,50.50506],[1.95479,50.50472],[1.95381,50.50571],[1.95683,50.50808],[1.95826,50.50737],[1.95524,50.50506]]]}},{"type":"Feature","properties":{"k":"PPH","s":1.832},"geometry":{"type":"Polygon","coordinates":[[[1.95479,50.50472],[1.95826,50.50737],[1.95845,50.50728],[1.9553,50.50412],[1.95479,50.50472]]]}},{"type":"Feature","properties":{"k":"BTH","s":3.652},"geometry":{"type":"Polygon","coordinates":[[[1.95938,50.50682],[1.95622,50.50352],[1.95536,50.50408],[1.95845,50.50728],[1.95938,50.50682]]]}},{"type":"Feature","properties":{"k":"PPH","s":6.745},"geometry":{"type":"Polygon","coordinates":[[[1.95466,50.51079],[1.95642,50.51067],[1.95464,50.50915],[1.95596,50.50849],[1.95302,50.50617],[1.95213,50.50666],[1.95379,50.50801],[1.95211,50.50872],[1.95466,50.51079]]]}},{"type":"Feature","properties":{"k":"ORH","s":9.491},"geometry":{"type":"Polygon","coordinates":[[[1.95302,50.50617],[1.95855,50.51072],[1.96155,50.51099],[1.95827,50.50738],[1.95683,50.50808],[1.95374,50.50576],[1.95302,50.50617]]]}},{"type":"Feature","properties":{"k":"BTH","s":1.882},"geometry":{"type":"Polygon","coordinates":[[[1.95956,50.50885],[1.96071,50.50839],[1.95936,50.50685],[1.95828,50.50738],[1.95956,50.50885]]]}},{"type":"Feature","properties":{"k":"MIS","s":3.119},"geometry":{"type":"Polygon","coordinates":[[[1.95642,50.51067],[1.95855,50.51072],[1.95596,50.50849],[1.95464,50.50915],[1.95642,50.51067]]]}},{"type":"Feature","properties":{"k":"PPH","s":0.733},"geometry":{"type":"Polygon","coordinates":[[[1.9538,50.51091],[1.95442,50.51053],[1.95372,50.51],[1.95261,50.51065],[1.9538,50.51091]]]}},{"type":"Feature","properties":{"k":"PPH","s":0.303},"geometry":{"type":"Polygon","coordinates":[[[1.9526,50.51065],[1.95371,50.50998],[1.95359,50.50986],[1.95172,50.51079],[1.9526,50.51065]]]}},{"type":"Feature","properties":{"k":"PPH","s":0.336},"geometry":{"type":"Polygon","coordinates":[[[1.95166,50.5108],[1.95353,50.50989],[1.95332,50.50972],[1.95149,50.51072],[1.95166,50.5108]]]}},{"type":"Feature","properties":{"k":"PPH","s":3.104},"geometry":{"type":"Polygon","coordinates":[[[1.94987,50.50997],[1.95147,50.51073],[1.95334,50.50971],[1.95211,50.50872],[1.9514,50.50906],[1.95011,50.5081],[1.9499,50.5083],[1.95128,50.50924],[1.95039,50.50957],[1.94987,50.50997]]]}},{"type":"Feature","properties":{"k":"PPH","s":0.176},"geometry":{"type":"Polygon","coordinates":[[[1.95199,50.50875],[1.95212,50.5087],[1.95069,50.50748],[1.95059,50.50757],[1.95199,50.50875]]]}},{"type":"Feature","properties":{"k":"PPH","s":0.357},"geometry":{"type":"Polygon","coordinates":[[[1.95138,50.50903],[1.95161,50.50893],[1.95035,50.50787],[1.9501,50.50808],[1.95138,50.50903]]]}},{"type":"Feature","properties":{"k":"PPH","s":0.102},"geometry":{"type":"Polygon","coordinates":[[[1.94999,50.50807],[1.94965,50.5078],[1.94937,50.508],[1.94972,50.5082],[1.94999,50.50807]]]}},{"type":"Feature","properties":{"k":"PPH","s":0.683},"geometry":{"type":"Polygon","coordinates":[[[1.94792,50.50927],[1.9491,50.50837],[1.94875,50.50802],[1.94815,50.50855],[1.9478,50.50843],[1.94742,50.50912],[1.94792,50.50927]]]}},{"type":"Feature","properties":{"k":"PPH","s":0.352},"geometry":{"type":"Polygon","coordinates":[[[1.94926,50.50895],[1.94868,50.50871],[1.948,50.50922],[1.94855,50.50944],[1.94926,50.50895]]]}},{"type":"Feature","properties":{"k":"MLF","s":0.877},"geometry":{"type":"Polygon","coordinates":[[[1.94943,50.50901],[1.95048,50.50958],[1.95128,50.50923],[1.9499,50.5083],[1.94943,50.50901]]]}},{"type":"Feature","properties":{"k":"PPH","s":0.601},"geometry":{"type":"Polygon","coordinates":[[[1.94947,50.51011],[1.94995,50.51038],[1.95093,50.51054],[1.94984,50.50997],[1.95039,50.50955],[1.94942,50.50903],[1.94914,50.5092],[1.94993,50.50977],[1.94947,50.51011]]]}},{"type":"Feature","properties":{"k":"PPH","s":0.78},"geometry":{"type":"Polygon","coordinates":[[[1.94839,50.51044],[1.9482,50.51062],[1.94895,50.51102],[1.94949,50.51051],[1.94926,50.51043],[1.94928,50.5101],[1.94864,50.50984],[1.94839,50.50985],[1.948,50.51026],[1.94839,50.51044]]]}},{"type":"Feature","properties":{"k":"PPH","s":0.234},"geometry":{"type":"Polygon","coordinates":[[[1.94773,50.51043],[1.94818,50.50996],[1.9478,50.50981],[1.94719,50.51021],[1.94773,50.51043]]]}},{"type":"Feature","properties":{"k":"MLF","s":1.689},"geometry":{"type":"Polygon","coordinates":[[[1.94383,50.50834],[1.94695,50.50971],[1.94731,50.50913],[1.94461,50.50803],[1.94383,50.50834]]]}},{"type":"Feature","properties":{"k":"CZH","s":2.645},"geometry":{"type":"MultiPolygon","coordinates":[[[[1.94352,50.50981],[1.94556,50.50982],[1.9474,50.51088],[1.94773,50.51048],[1.9471,50.51023],[1.94731,50.51004],[1.94404,50.50859],[1.94303,50.50951],[1.94352,50.50981]]],[[[1.94344,50.51059],[1.94361,50.5107],[1.94309,50.5102],[1.94297,50.51027],[1.94344,50.51059]]],[[[1.94694,50.51138],[1.9472,50.51109],[1.94685,50.51142],[1.94694,50.51138]]]]}},{"type":"Feature","properties":{"k":"BTH","s":2.93},"geometry":{"type":"Polygon","coordinates":[[[1.94102,50.50778],[1.94246,50.50782],[1.94365,50.5072],[1.94156,50.5061],[1.93971,50.50752],[1.94102,50.50778]]]}},{"type":"Feature","properties":{"k":"PPH","s":1.94},"geometry":{"type":"Polygon","coordinates":[[[1.94579,50.50666],[1.9445,50.50681],[1.94283,50.50773],[1.94383,50.50824],[1.94461,50.50803],[1.94512,50.50745],[1.94621,50.50699],[1.94579,50.50666]]]}},{"type":"Feature","properties":{"k":"PPH","s":0.847},"geometry":{"type":"Polygon","coordinates":[[[1.94566,50.50656],[1.9462,50.50683],[1.94623,50.50701],[1.9452,50.50742],[1.94581,50.50774],[1.9469,50.50714],[1.94668,50.50688],[1.94711,50.50661],[1.94566,50.50656]]]}},{"type":"Feature","properties":{"k":"PPH","s":1.201},"geometry":{"type":"Polygon","coordinates":[[[1.9452,50.50743],[1.94468,50.50798],[1.94731,50.5091],[1.94723,50.50855],[1.9452,50.50743]]]}},{"type":"Feature","properties":{"k":"PPH","s":1.21},"geometry":{"type":"Polygon","coordinates":[[[1.94762,50.50615],[1.94729,50.50596],[1.9476,50.50565],[1.94495,50.50428],[1.94463,50.50452],[1.9472,50.50601],[1.94688,50.50647],[1.94723,50.50661],[1.94762,50.50615]]]}},{"type":"Feature","properties":{"k":"LIF","s":3.75},"geometry":{"type":"Polygon","coordinates":[[[1.94048,50.50546],[1.94372,50.50715],[1.94511,50.5066],[1.94161,50.50452],[1.94048,50.50546]]]}},{"type":"Feature","properties":{"k":"LIF","s":2.87},"geometry":{"type":"Polygon","coordinates":[[[1.94033,50.50547],[1.93865,50.50667],[1.93706,50.50565],[1.93656,50.50601],[1.93771,50.50643],[1.93957,50.50745],[1.93972,50.50733],[1.93984,50.50741],[1.94156,50.50609],[1.94033,50.50547]]]}},{"type":"Feature","properties":{"k":"MIS","s":11.833},"geometry":{"type":"Polygon","coordinates":[[[1.93672,50.50353],[1.94034,50.5054],[1.94124,50.50489],[1.94251,50.50321],[1.94233,50.50271],[1.94205,50.50257],[1.94024,50.5017],[1.93805,50.50104],[1.93672,50.50353]]]}},{"type":"Feature","properties":{"k":"BTH","s":5.867},"geometry":{"type":"Polygon","coordinates":[[[1.9357,50.5031],[1.93497,50.50275],[1.935,50.50382],[1.93657,50.50485],[1.93711,50.50536],[1.93691,50.50555],[1.93866,50.50666],[1.9403,50.50546],[1.9357,50.5031]]]}},{"type":"Feature","properties":{"k":"PPH","s":0.513},"geometry":{"type":"Polygon","coordinates":[[[1.93649,50.50499],[1.93484,50.50387],[1.93444,50.50391],[1.93638,50.50525],[1.93649,50.50499]]]}},{"type":"Feature","properties":{"k":"ORH","s":4.363},"geometry":{"type":"Polygon","coordinates":[[[1.93622,50.50818],[1.93751,50.50804],[1.93961,50.50752],[1.93725,50.5063],[1.93412,50.5084],[1.93499,50.50893],[1.93622,50.50818]]]}},{"type":"Feature","properties":{"k":"PPH","s":0.389},"geometry":{"type":"Polygon","coordinates":[[[1.94174,50.50789],[1.94067,50.5078],[1.94163,50.50852],[1.94222,50.50789],[1.94174,50.50789]]]}},{"type":"Feature","properties":{"k":"BTH","s":3.134},"geometry":{"type":"Polygon","coordinates":[[[1.9371,50.5064],[1.93725,50.5063],[1.93586,50.50587],[1.93308,50.50778],[1.93412,50.5084],[1.9371,50.5064]]]}},{"type":"Feature","properties":{"k":"MIS","s":0.001},"geometry":{"type":"Polygon","coordinates":[[[1.92985,50.50582],[1.93012,50.50598],[1.92986,50.50581],[1.92985,50.50582]]]}},{"type":"Feature","properties":{"k":"BTH","s":3.776},"geometry":{"type":"Polygon","coordinates":[[[1.93176,50.50698],[1.93391,50.50548],[1.93128,50.50462],[1.92986,50.50581],[1.93176,50.50698]]]}},{"type":"Feature","properties":{"k":"LIF","s":0.9},"geometry":{"type":"Polygon","coordinates":[[[1.9322,50.50722],[1.93449,50.50561],[1.93385,50.50552],[1.93179,50.50696],[1.9322,50.50722]]]}},{"type":"Feature","properties":{"k":"BTH","s":2.448},"geometry":{"type":"Polygon","coordinates":[[[1.93585,50.50588],[1.93587,50.50587],[1.93454,50.5056],[1.93219,50.50723],[1.93308,50.50778],[1.93585,50.50588]]]}},{"type":"Feature","properties":{"k":"ORH","s":4.7},"geometry":{"type":"Polygon","coordinates":[[[1.93233,50.50401],[1.93163,50.50344],[1.9314,50.50359],[1.93205,50.50398],[1.93133,50.50458],[1.93354,50.50536],[1.93656,50.50601],[1.93704,50.50567],[1.93689,50.50556],[1.93444,50.50391],[1.93233,50.50401]]]}},{"type":"Feature","properties":{"k":"PPH","s":2.736},"geometry":{"type":"Polygon","coordinates":[[[1.93255,50.50177],[1.93179,50.50205],[1.93324,50.50396],[1.935,50.50382],[1.93497,50.50275],[1.93399,50.50242],[1.93384,50.50259],[1.93359,50.5026],[1.9335,50.50243],[1.93279,50.50263],[1.93244,50.50221],[1.93255,50.50177]]]}},{"type":"Feature","properties":{"k":"MIS","s":3.904},"geometry":{"type":"Polygon","coordinates":[[[1.93512,50.50122],[1.93676,50.50222],[1.93727,50.50129],[1.93426,50.49896],[1.93341,50.50026],[1.93512,50.50122]]]}},{"type":"Feature","properties":{"k":"PPH","s":18.94},"geometry":{"type":"Polygon","coordinates":[[[1.92945,50.49794],[1.9287,50.49876],[1.92852,50.49925],[1.93271,50.5015],[1.93326,50.50086],[1.93409,50.50134],[1.93499,50.50117],[1.9366,50.5022],[1.9362,50.50247],[1.93653,50.50266],[1.93691,50.50289],[1.93646,50.50325],[1.93686,50.50339],[1.93799,50.50105],[1.93864,50.50052],[1.93714,50.49948],[1.93834,50.4986],[1.93795,50.49842],[1.93626,50.49967],[1.93091,50.49528],[1.93036,50.49615],[1.92982,50.4966],[1.92945,50.49794]],[[1.93512,50.50122],[1.93341,50.50026],[1.93158,50.49851],[1.93264,50.49782],[1.93727,50.50129],[1.93676,50.50222],[1.93512,50.50122]],[[1.9309,50.49912],[1.93121,50.49941],[1.93097,50.49952],[1.93061,50.49922],[1.9309,50.49912]]]}},{"type":"Feature","properties":{"k":"MIS","s":2.449},"geometry":{"type":"Polygon","coordinates":[[[1.93158,50.49851],[1.93341,50.50026],[1.93426,50.49896],[1.93264,50.49782],[1.93158,50.49851]]]}},{"type":"Feature","properties":{"k":"BTH","s":5.314},"geometry":{"type":"Polygon","coordinates":[[[1.9314,50.50359],[1.93166,50.50342],[1.93236,50.50399],[1.93324,50.50396],[1.93179,50.50205],[1.93277,50.50162],[1.93102,50.50067],[1.92886,50.50209],[1.9314,50.50359]]]}},{"type":"Feature","properties":{"k":"BTH","s":0.033},"geometry":{"type":"Polygon","coordinates":[[[1.92886,50.50209],[1.93048,50.50305],[1.9289,50.50207],[1.92886,50.50209]]]}},{"type":"Feature","properties":{"k":"PPH","s":0.11},"geometry":{"type":"MultiPolygon","coordinates":[[[[1.9287,50.49876],[1.92869,50.49876],[1.92856,50.49911],[1.9287,50.49876]]],[[[1.92906,50.49838],[1.92943,50.49795],[1.92947,50.4978],[1.92881,50.49863],[1.92906,50.49838]]],[[[1.92969,50.49677],[1.93036,50.49614],[1.93138,50.49459],[1.93031,50.49615],[1.92967,50.49669],[1.92958,50.49742],[1.92969,50.49677]]]]}},{"type":"Feature","properties":{"k":"JAC","s":0.914},"geometry":{"type":"Polygon","coordinates":[[[1.93993,50.49732],[1.93941,50.49774],[1.94108,50.49848],[1.94163,50.49797],[1.93993,50.49732]]]}},{"type":"Feature","properties":{"k":"BTH","s":1.753},"geometry":{"type":"Polygon","coordinates":[[[1.93839,50.49856],[1.94014,50.49936],[1.94108,50.49848],[1.93939,50.49775],[1.93839,50.49856]]]}},{"type":"Feature","properties":{"k":"BTH","s":1.953},"geometry":{"type":"Polygon","coordinates":[[[1.93834,50.4986],[1.93939,50.49775],[1.93725,50.49695],[1.93638,50.49766],[1.93834,50.4986]]]}},{"type":"Feature","properties":{"k":"PPH","s":2.638},"geometry":{"type":"Polygon","coordinates":[[[1.93891,50.49695],[1.93867,50.49705],[1.93752,50.49659],[1.93487,50.49857],[1.93576,50.49927],[1.93626,50.49899],[1.9373,50.4981],[1.93638,50.49766],[1.93725,50.49695],[1.93939,50.49775],[1.93993,50.49732],[1.93891,50.49695]]]}},{"type":"Feature","properties":{"k":"PPH","s":1.087},"geometry":{"type":"Polygon","coordinates":[[[1.93899,50.50035],[1.93862,50.50064],[1.94207,50.50218],[1.94206,50.50174],[1.93899,50.50035]]]}},{"type":"Feature","properties":{"k":"ORH","s":2.979},"geometry":{"type":"Polygon","coordinates":[[[1.94004,50.50083],[1.94206,50.50174],[1.9424,50.50068],[1.94018,50.49942],[1.93899,50.50035],[1.94004,50.50083]]]}},{"type":"Feature","properties":{"k":"BTH","s":2.358},"geometry":{"type":"Polygon","coordinates":[[[1.93864,50.50052],[1.94018,50.4994],[1.93838,50.49859],[1.93714,50.49948],[1.93864,50.50052]]]}},{"type":"Feature","properties":{"k":"BTH","s":1.989},"geometry":{"type":"Polygon","coordinates":[[[1.94183,50.5002],[1.94311,50.49936],[1.94107,50.49848],[1.94022,50.49939],[1.94183,50.5002]]]}},{"type":"Feature","properties":{"k":"PPH","s":1.211},"geometry":{"type":"Polygon","coordinates":[[[1.94245,50.50062],[1.94362,50.4998],[1.94489,50.4996],[1.94351,50.49905],[1.94186,50.50021],[1.94245,50.50062]]]}},{"type":"Feature","properties":{"k":"BTH","s":4.561},"geometry":{"type":"Polygon","coordinates":[[[1.94533,50.50133],[1.94537,50.50087],[1.9436,50.49987],[1.94272,50.50046],[1.94223,50.50125],[1.94478,50.50279],[1.946,50.50183],[1.94533,50.50133]]]}},{"type":"Feature","properties":{"k":"MIS","s":11.924},"geometry":{"type":"Polygon","coordinates":[[[1.9454,50.50143],[1.94602,50.50181],[1.94478,50.50279],[1.94722,50.50409],[1.94772,50.50365],[1.94957,50.50476],[1.95137,50.50328],[1.94495,50.49965],[1.94365,50.49986],[1.9454,50.50082],[1.9454,50.50143]]]}},{"type":"Feature","properties":{"k":"BOR","s":0.372},"geometry":{"type":"Polygon","coordinates":[[[1.9457,50.49792],[1.94678,50.49699],[1.94633,50.49711],[1.94564,50.49776],[1.94521,50.49855],[1.94572,50.4987],[1.9457,50.49792]]]}},{"type":"Feature","properties":{"k":"PPH","s":0.526},"geometry":{"type":"Polygon","coordinates":[[[1.94521,50.49855],[1.94453,50.4985],[1.94444,50.4986],[1.94659,50.49931],[1.94706,50.49913],[1.94521,50.49855]]]}},{"type":"Feature","properties":{"k":"PPH","s":0.328},"geometry":{"type":"Polygon","coordinates":[[[1.94433,50.49881],[1.94627,50.49943],[1.94658,50.49931],[1.94495,50.49877],[1.94433,50.49881]]]}},{"type":"Feature","properties":{"k":"MIS","s":1.89},"geometry":{"type":"Polygon","coordinates":[[[1.94139,50.49815],[1.94489,50.4996],[1.94545,50.49975],[1.94625,50.49942],[1.94205,50.49793],[1.94139,50.49815]]]}},{"type":"Feature","properties":{"k":"PPH","s":0.783},"geometry":{"type":"Polygon","coordinates":[[[1.94107,50.49848],[1.94315,50.49937],[1.9435,50.49906],[1.94148,50.4982],[1.94107,50.49848]]]}},{"type":"Feature","properties":{"k":"MIS","s":2.609},"geometry":{"type":"Polygon","coordinates":[[[1.94526,50.49417],[1.94651,50.49705],[1.94761,50.49673],[1.94651,50.49427],[1.94526,50.49417]]]}},{"type":"Feature","properties":{"k":"PPH","s":0.438},"geometry":{"type":"Polygon","coordinates":[[[1.94615,50.49707],[1.94651,50.49705],[1.94585,50.49562],[1.94549,50.49568],[1.94615,50.49707]]]}},{"type":"Feature","properties":{"k":"PHF","s":2.626},"geometry":{"type":"Polygon","coordinates":[[[1.94677,50.49482],[1.94761,50.49673],[1.94894,50.49626],[1.94852,50.49532],[1.94811,50.49441],[1.94651,50.49427],[1.94677,50.49482]]]}},{"type":"Feature","properties":{"k":"PPH","s":0.373},"geometry":{"type":"Polygon","coordinates":[[[1.94519,50.49442],[1.94503,50.49445],[1.94549,50.49567],[1.94583,50.49561],[1.94523,50.49417],[1.94507,50.49419],[1.94519,50.49442]]]}},{"type":"Feature","properties":{"k":"CZH","s":2.448},"geometry":{"type":"Polygon","coordinates":[[[1.94274,50.49399],[1.94457,50.49393],[1.9414,50.49209],[1.94051,50.49278],[1.94274,50.49399]]]}},{"type":"Feature","properties":{"k":"BTN","s":1.672},"geometry":{"type":"Polygon","coordinates":[[[1.94238,50.49259],[1.94513,50.4908],[1.94445,50.49048],[1.94174,50.49222],[1.94238,50.49259]]]}},{"type":"Feature","properties":{"k":"ORH","s":12.556},"geometry":{"type":"Polygon","coordinates":[[[1.94792,50.49213],[1.94513,50.4908],[1.94238,50.49259],[1.94447,50.49382],[1.94547,50.49417],[1.94883,50.49438],[1.94912,50.49429],[1.95101,50.49436],[1.94792,50.49213]]]}},{"type":"Feature","properties":{"k":"MIS","s":1.522},"geometry":{"type":"Polygon","coordinates":[[[1.94582,50.49105],[1.94629,50.49126],[1.95038,50.48899],[1.95012,50.4887],[1.94582,50.49105]]]}},{"type":"Feature","properties":{"k":"MIS","s":3.539},"geometry":{"type":"Polygon","coordinates":[[[1.94927,50.48812],[1.94484,50.49059],[1.94582,50.49105],[1.95012,50.4887],[1.94927,50.48812]]]}},{"type":"Feature","properties":{"k":"PTR","s":2.405},"geometry":{"type":"Polygon","coordinates":[[[1.94489,50.49046],[1.94482,50.4906],[1.94922,50.48813],[1.94863,50.48786],[1.94434,50.49013],[1.94489,50.49046]]]}},{"type":"Feature","properties":{"k":"ORH","s":9.84},"geometry":{"type":"Polygon","coordinates":[[[1.94411,50.49026],[1.94702,50.48865],[1.94943,50.48757],[1.94852,50.48641],[1.94489,50.48741],[1.94174,50.48913],[1.94411,50.49026]]]}},{"type":"Feature","properties":{"k":"SOG","s":1.602},"geometry":{"type":"Polygon","coordinates":[[[1.94111,50.49187],[1.94174,50.49222],[1.94445,50.49048],[1.94379,50.49017],[1.94111,50.49187]]]}},{"type":"Feature","properties":{"k":"BTH","s":6.2},"geometry":{"type":"Polygon","coordinates":[[[1.94111,50.49187],[1.94373,50.49015],[1.94112,50.4889],[1.93851,50.4906],[1.94111,50.49187]]]}},{"type":"Feature","properties":{"k":"SOG","s":3.459},"geometry":{"type":"Polygon","coordinates":[[[1.93923,50.49007],[1.94112,50.4889],[1.93898,50.48788],[1.93724,50.48904],[1.93923,50.49007]]]}},{"type":"Feature","properties":{"k":"PPH","s":0.657},"geometry":{"type":"Polygon","coordinates":[[[1.93687,50.48949],[1.93715,50.48923],[1.93505,50.48817],[1.93471,50.48834],[1.93687,50.48949]]]}},{"type":"Feature","properties":{"k":"MIS","s":1.076},"geometry":{"type":"Polygon","coordinates":[[[1.93471,50.48834],[1.93432,50.48851],[1.93851,50.4906],[1.93875,50.49042],[1.93471,50.48834]]]}},{"type":"Feature","properties":{"k":"PPH","s":0.785},"geometry":{"type":"Polygon","coordinates":[[[1.93736,50.48919],[1.93695,50.48949],[1.93875,50.49042],[1.93921,50.49009],[1.93736,50.48919]]]}},{"type":"Feature","properties":{"k":"PPH","s":1.312},"geometry":{"type":"Polygon","coordinates":[[[1.93607,50.49045],[1.93779,50.49125],[1.93848,50.49064],[1.93672,50.48978],[1.93607,50.49045]]]}},{"type":"Feature","properties":{"k":"SOG","s":0.649},"geometry":{"type":"Polygon","coordinates":[[[1.93779,50.49125],[1.93607,50.49045],[1.93578,50.49078],[1.93734,50.49155],[1.93779,50.49125]]]}},{"type":"Feature","properties":{"k":"MIS","s":2.939},"geometry":{"type":"Polygon","coordinates":[[[1.93576,50.49089],[1.93479,50.49185],[1.93705,50.49304],[1.93834,50.49212],[1.93576,50.49089]]]}},{"type":"Feature","properties":{"k":"MIS","s":2.841},"geometry":{"type":"Polygon","coordinates":[[[1.94141,50.49208],[1.93847,50.4907],[1.93741,50.49164],[1.93834,50.49212],[1.93873,50.49183],[1.94051,50.49278],[1.94141,50.49208]]]}},{"type":"Feature","properties":{"k":"MIS","s":4.572},"geometry":{"type":"Polygon","coordinates":[[[1.93741,50.49278],[1.94072,50.49453],[1.94164,50.49407],[1.94272,50.49398],[1.93873,50.49183],[1.93741,50.49278]]]}},{"type":"Feature","properties":{"k":"PHF","s":1.137},"geometry":{"type":"Polygon","coordinates":[[[1.9403,50.49474],[1.94072,50.49453],[1.9374,50.49279],[1.93705,50.49304],[1.9403,50.49474]]]}},{"type":"Feature","properties":{"k":"BTH","s":1.083},"geometry":{"type":"Polygon","coordinates":[[[1.94005,50.49487],[1.94031,50.49475],[1.93478,50.49184],[1.93461,50.492],[1.94005,50.49487]]]}},{"type":"Feature","properties":{"k":"LIF","s":3.049},"geometry":{"type":"Polygon","coordinates":[[[1.93873,50.49515],[1.94005,50.49487],[1.93568,50.49256],[1.93506,50.49316],[1.93873,50.49515]]]}},{"type":"Feature","properties":{"k":"PPH","s":2.528},"geometry":{"type":"Polygon","coordinates":[[[1.9308,50.49171],[1.93325,50.4936],[1.93232,50.49413],[1.93219,50.49445],[1.93457,50.4954],[1.93534,50.49483],[1.93492,50.49466],[1.93515,50.49448],[1.93391,50.49391],[1.93398,50.4938],[1.9308,50.49171]]]}},{"type":"Feature","properties":{"k":"SOG","s":1.831},"geometry":{"type":"Polygon","coordinates":[[[1.93315,50.49332],[1.93425,50.49393],[1.93568,50.49256],[1.93462,50.492],[1.93315,50.49332]]]}},{"type":"Feature","properties":{"k":"PPH","s":6.147},"geometry":{"type":"Polygon","coordinates":[[[1.93084,50.49165],[1.93315,50.49332],[1.93478,50.49175],[1.92979,50.48946],[1.92976,50.49007],[1.93084,50.49165]],[[1.9338,50.49245],[1.93353,50.49269],[1.93342,50.49264],[1.9338,50.49245]]]}},{"type":"Feature","properties":{"k":"BTH","s":0.032},"geometry":{"type":"Polygon","coordinates":[[[1.93217,50.49445],[1.93218,50.49442],[1.93141,50.49462],[1.93217,50.49445]]]}},{"type":"Feature","properties":{"k":"PPH","s":3.017},"geometry":{"type":"Polygon","coordinates":[[[1.93025,50.48796],[1.93183,50.48867],[1.93223,50.48831],[1.93293,50.48882],[1.93348,50.48844],[1.93124,50.48728],[1.93123,50.48693],[1.93045,50.48658],[1.9293,50.48618],[1.92869,50.48641],[1.92967,50.48667],[1.93025,50.48796]]]}},{"type":"Feature","properties":{"k":"PPH","s":0.097},"geometry":{"type":"Polygon","coordinates":[[[1.93039,50.49103],[1.92983,50.49036],[1.93077,50.49166],[1.93039,50.49103]]]}},{"type":"Feature","properties":{"k":"ORH","s":8.168},"geometry":{"type":"Polygon","coordinates":[[[1.92979,50.48946],[1.93478,50.49175],[1.93615,50.49039],[1.93398,50.48945],[1.93221,50.48832],[1.93183,50.48867],[1.93025,50.48799],[1.92979,50.48946]]]}},{"type":"Feature","properties":{"k":"PTR","s":1.509},"geometry":{"type":"Polygon","coordinates":[[[1.93615,50.49039],[1.93672,50.48978],[1.93467,50.48886],[1.93387,50.48938],[1.93615,50.49039]]]}},{"type":"Feature","properties":{"k":"PPH","s":0.819},"geometry":{"type":"Polygon","coordinates":[[[1.93387,50.48938],[1.93467,50.48886],[1.93382,50.4882],[1.93299,50.48887],[1.93387,50.48938]]]}},{"type":"Feature","properties":{"k":"CZH","s":5.759},"geometry":{"type":"Polygon","coordinates":[[[1.93647,50.48772],[1.93438,50.48624],[1.93461,50.48612],[1.93244,50.48503],[1.93211,50.4853],[1.92976,50.48337],[1.92932,50.48357],[1.92925,50.48416],[1.93,50.48498],[1.93249,50.48582],[1.93405,50.48653],[1.93557,50.48798],[1.93552,50.4884],[1.93706,50.48914],[1.93761,50.48875],[1.93635,50.48806],[1.93647,50.48772]]]}},{"type":"Feature","properties":{"k":"CZH","s":0.222},"geometry":{"type":"Polygon","coordinates":[[[1.93463,50.48465],[1.93564,50.48438],[1.93538,50.48418],[1.93428,50.48448],[1.93463,50.48465]]]}},{"type":"Feature","properties":{"k":"BTH","s":0.157},"geometry":{"type":"Polygon","coordinates":[[[1.93535,50.48419],[1.93538,50.48418],[1.93502,50.48391],[1.9345,50.48442],[1.93535,50.48419]]]}},{"type":"Feature","properties":{"k":"ORH","s":0.006},"geometry":{"type":"Polygon","coordinates":[[[1.93428,50.48448],[1.9345,50.48442],[1.93441,50.48438],[1.93428,50.48448]]]}},{"type":"Feature","properties":{"k":"BTH","s":3.016},"geometry":{"type":"MultiPolygon","coordinates":[[[[1.92986,50.48332],[1.92976,50.48337],[1.93031,50.48372],[1.92986,50.48332]]],[[[1.93626,50.48564],[1.9335,50.48416],[1.93244,50.48503],[1.935,50.48632],[1.93626,50.48564]]]]}},{"type":"Feature","properties":{"k":"MIS","s":1.451},"geometry":{"type":"Polygon","coordinates":[[[1.92895,50.48593],[1.92978,50.48603],[1.9318,50.48688],[1.93236,50.48642],[1.93121,50.48588],[1.92996,50.48565],[1.92877,50.48563],[1.92857,50.48606],[1.92895,50.48593]]]}},{"type":"Feature","properties":{"k":"BTH","s":1.685},"geometry":{"type":"Polygon","coordinates":[[[1.92952,50.48622],[1.93123,50.48693],[1.93124,50.48728],[1.93348,50.48844],[1.93382,50.4882],[1.93233,50.4872],[1.92968,50.48604],[1.92898,50.48598],[1.92843,50.4863],[1.92869,50.48641],[1.92884,50.48626],[1.92952,50.48622]]]}},{"type":"Feature","properties":{"k":"CZH","s":0.003},"geometry":{"type":"Polygon","coordinates":[[[1.92803,50.48582],[1.92802,50.48569],[1.92799,50.48591],[1.92803,50.48582]]]}},{"type":"Feature","properties":{"k":"PPH","s":0.001},"geometry":{"type":"Polygon","coordinates":[[[1.92851,50.48639],[1.92846,50.48633],[1.92844,50.48635],[1.92851,50.48639]]]}},{"type":"Feature","properties":{"k":"PPH","s":0.04},"geometry":{"type":"Polygon","coordinates":[[[1.92866,50.48462],[1.92871,50.48437],[1.92812,50.48547],[1.92866,50.48462]]]}},{"type":"Feature","properties":{"k":"PTC","s":0.771},"geometry":{"type":"Polygon","coordinates":[[[1.93463,50.48465],[1.93599,50.4854],[1.93674,50.48521],[1.93564,50.48438],[1.93463,50.48465]]]}},{"type":"Feature","properties":{"k":"CZH","s":4.48},"geometry":{"type":"Polygon","coordinates":[[[1.93763,50.48668],[1.93626,50.48564],[1.935,50.48632],[1.93461,50.48612],[1.93438,50.48624],[1.93596,50.48723],[1.93647,50.48772],[1.93635,50.48806],[1.93761,50.48875],[1.9387,50.48798],[1.93763,50.48668]]]}},{"type":"Feature","properties":{"k":"CZH","s":1.523},"geometry":{"type":"Polygon","coordinates":[[[1.94212,50.48809],[1.94301,50.48758],[1.94112,50.48668],[1.94002,50.48712],[1.94212,50.48809]]]}},{"type":"Feature","properties":{"k":"BTH","s":1.444},"geometry":{"type":"MultiPolygon","coordinates":[[[[1.94012,50.48695],[1.93987,50.48663],[1.93832,50.48706],[1.93866,50.48753],[1.94012,50.48695]]],[[[1.9447,50.48577],[1.94467,50.48543],[1.9416,50.48616],[1.94171,50.48644],[1.9447,50.48577]]]]}},{"type":"Feature","properties":{"k":"PTC","s":4.453},"geometry":{"type":"MultiPolygon","coordinates":[[[[1.94124,50.48527],[1.9416,50.48616],[1.94467,50.48543],[1.9445,50.4851],[1.94396,50.48426],[1.94124,50.48527]]],[[[1.93816,50.48713],[1.93987,50.48663],[1.93919,50.48575],[1.9381,50.48623],[1.9376,50.48586],[1.93692,50.48603],[1.93816,50.48713]]]]}},{"type":"Feature","properties":{"k":"BTN","s":0.499},"geometry":{"type":"MultiPolygon","coordinates":[[[[1.93692,50.48603],[1.9376,50.48586],[1.93674,50.48521],[1.936,50.48539],[1.93692,50.48603]]],[[[1.94392,50.48418],[1.94335,50.48441],[1.94396,50.48426],[1.94392,50.48418]]]]}},{"type":"Feature","properties":{"k":"ORP","s":0.97},"geometry":{"type":"MultiPolygon","coordinates":[[[[1.94427,50.48466],[1.9461,50.48405],[1.94574,50.48345],[1.94397,50.48416],[1.94427,50.48466]]],[[[1.94628,50.48322],[1.94603,50.48333],[1.9464,50.4832],[1.94628,50.48322]]]]}},{"type":"Feature","properties":{"k":"ORP","s":1.019},"geometry":{"type":"Polygon","coordinates":[[[1.94601,50.48501],[1.9457,50.48419],[1.94428,50.48466],[1.94472,50.48538],[1.94601,50.48501]]]}},{"type":"Feature","properties":{"k":"BTH","s":2.519},"geometry":{"type":"Polygon","coordinates":[[[1.94112,50.48668],[1.94301,50.48758],[1.94491,50.48649],[1.94491,50.48598],[1.94461,50.48585],[1.94112,50.48668]]]}},{"type":"Feature","properties":{"k":"PPH","s":8.948},"geometry":{"type":"Polygon","coordinates":[[[1.94852,50.48641],[1.94943,50.48757],[1.95083,50.48711],[1.95029,50.48633],[1.95443,50.48504],[1.95427,50.48489],[1.95367,50.48487],[1.95253,50.48458],[1.94495,50.487],[1.94493,50.48648],[1.94095,50.48875],[1.94174,50.48913],[1.94489,50.48741],[1.94852,50.48641]]]}},{"type":"Feature","properties":{"k":"PPH","s":0.285},"geometry":{"type":"Polygon","coordinates":[[[1.95118,50.4815],[1.94989,50.48191],[1.95032,50.48181],[1.95074,50.48213],[1.95142,50.48179],[1.95118,50.4815]]]}},{"type":"Feature","properties":{"k":"BTH","s":3.08},"geometry":{"type":"Polygon","coordinates":[[[1.95074,50.48214],[1.95366,50.48471],[1.95491,50.48457],[1.95168,50.4817],[1.95074,50.48214]]]}},{"type":"Feature","properties":{"k":"ORP","s":1.915},"geometry":{"type":"Polygon","coordinates":[[[1.95213,50.48151],[1.95186,50.48162],[1.95168,50.4817],[1.95492,50.48457],[1.95554,50.48455],[1.95213,50.48151]]]}},{"type":"Feature","properties":{"k":"PTR","s":0.199},"geometry":{"type":"Polygon","coordinates":[[[1.95366,50.48471],[1.95379,50.48483],[1.95564,50.48466],[1.95554,50.48455],[1.95492,50.48457],[1.95491,50.48457],[1.95366,50.48471]]]}},{"type":"Feature","properties":{"k":"PPH","s":0.003},"geometry":{"type":"Polygon","coordinates":[[[1.9532,50.4807],[1.95293,50.48081],[1.95299,50.48081],[1.9532,50.4807]]]}},{"type":"Feature","properties":{"k":"PPH","s":0.005},"geometry":{"type":"Polygon","coordinates":[[[1.95824,50.48055],[1.95825,50.48056],[1.95907,50.4803],[1.95824,50.48055]]]}},{"type":"Feature","properties":{"k":"BTH","s":8.817},"geometry":{"type":"Polygon","coordinates":[[[1.9575,50.48084],[1.96065,50.4829],[1.96293,50.48549],[1.96432,50.48426],[1.95977,50.4801],[1.9575,50.48084]]]}},{"type":"Feature","properties":{"k":"PPH","s":5.171},"geometry":{"type":"Polygon","coordinates":[[[1.95376,50.48126],[1.95322,50.48166],[1.95344,50.48182],[1.9531,50.48201],[1.9525,50.48164],[1.95392,50.48275],[1.95486,50.4821],[1.95508,50.48228],[1.95488,50.48239],[1.95602,50.48307],[1.95657,50.48281],[1.95696,50.48302],[1.95752,50.48274],[1.95889,50.48327],[1.95907,50.48313],[1.95809,50.48248],[1.9581,50.48234],[1.95662,50.48154],[1.95612,50.48188],[1.95393,50.48048],[1.95319,50.48084],[1.95376,50.48126]]]}},{"type":"Feature","properties":{"k":"PPH","s":2.739},"geometry":{"type":"Polygon","coordinates":[[[1.95768,50.48437],[1.95753,50.48391],[1.95606,50.48314],[1.95528,50.48348],[1.95564,50.48379],[1.9552,50.48402],[1.95645,50.48536],[1.95845,50.48467],[1.95768,50.48437]]]}},{"type":"Feature","properties":{"k":"PPH","s":5.217},"geometry":{"type":"Polygon","coordinates":[[[1.95851,50.48648],[1.95823,50.48656],[1.95834,50.48675],[1.95757,50.48695],[1.95823,50.48801],[1.95963,50.48728],[1.96029,50.48771],[1.96079,50.48789],[1.96126,50.48787],[1.96027,50.48684],[1.95954,50.48537],[1.95861,50.48472],[1.95651,50.48538],[1.95672,50.4857],[1.9572,50.48553],[1.95778,50.4861],[1.95828,50.48617],[1.95851,50.48648]]]}},{"type":"Feature","properties":{"k":"PPH","s":6.097},"geometry":{"type":"Polygon","coordinates":[[[1.95437,50.48828],[1.95579,50.48763],[1.95608,50.48791],[1.95683,50.4877],[1.95666,50.48751],[1.95763,50.48724],[1.95626,50.48535],[1.95529,50.48575],[1.95559,50.4862],[1.95176,50.48791],[1.95206,50.48822],[1.9524,50.48798],[1.95393,50.48864],[1.95437,50.48828]]]}},{"type":"Feature","properties":{"k":"ORH","s":4.848},"geometry":{"type":"Polygon","coordinates":[[[1.95001,50.48861],[1.95562,50.4861],[1.95511,50.48563],[1.94863,50.48786],[1.95001,50.48861]]]}},{"type":"Feature","properties":{"k":"MIS","s":2.921},"geometry":{"type":"Polygon","coordinates":[[[1.95389,50.48604],[1.95511,50.48563],[1.95441,50.48505],[1.95028,50.48633],[1.95083,50.48711],[1.95389,50.48604]]]}},{"type":"Feature","properties":{"k":"PPH","s":13.293},"geometry":{"type":"Polygon","coordinates":[[[1.95033,50.48182],[1.94993,50.48192],[1.94581,50.48346],[1.94612,50.48404],[1.94581,50.48419],[1.94604,50.48503],[1.94476,50.48537],[1.94487,50.48574],[1.94505,50.48581],[1.94746,50.48544],[1.95196,50.48451],[1.95297,50.48459],[1.95379,50.48483],[1.95033,50.48182]]]}},{"type":"Feature","properties":{"k":"MIS","s":3.25},"geometry":{"type":"Polygon","coordinates":[[[1.94521,50.48589],[1.94531,50.48689],[1.95253,50.48458],[1.95155,50.48462],[1.94521,50.48589]]]}},{"type":"Feature","properties":{"k":"PPH","s":4.065},"geometry":{"type":"Polygon","coordinates":[[[1.9527,50.49064],[1.95323,50.48954],[1.95259,50.48935],[1.95294,50.48867],[1.95206,50.48827],[1.95172,50.4879],[1.95001,50.48861],[1.9507,50.4895],[1.95076,50.49032],[1.95108,50.49048],[1.95165,50.4903],[1.9527,50.49064]]]}},{"type":"Feature","properties":{"k":"PPH","s":5.786},"geometry":{"type":"Polygon","coordinates":[[[1.95318,50.49012],[1.95537,50.49127],[1.95578,50.49019],[1.95653,50.48957],[1.95603,50.48907],[1.95536,50.48941],[1.95432,50.48847],[1.95394,50.48866],[1.9524,50.488],[1.95206,50.48827],[1.95294,50.48867],[1.95259,50.48935],[1.95323,50.48954],[1.95276,50.49055],[1.9527,50.49064],[1.95165,50.4903],[1.95108,50.49048],[1.95258,50.49146],[1.95274,50.49142],[1.95318,50.49012]]]}},{"type":"Feature","properties":{"k":"BTH","s":1.757},"geometry":{"type":"Polygon","coordinates":[[[1.95497,50.49214],[1.95533,50.4913],[1.9532,50.49015],[1.95291,50.49106],[1.95497,50.49214]]]}},{"type":"Feature","properties":{"k":"ORH","s":4.34},"geometry":{"type":"Polygon","coordinates":[[[1.95076,50.49032],[1.9507,50.4895],[1.95038,50.48899],[1.94629,50.49126],[1.94772,50.49195],[1.95076,50.49032]]]}},{"type":"Feature","properties":{"k":"MIS","s":4.907},"geometry":{"type":"Polygon","coordinates":[[[1.94938,50.4931],[1.95251,50.49146],[1.95076,50.49032],[1.94771,50.49195],[1.94938,50.4931]]]}},{"type":"Feature","properties":{"k":"BTH","s":1.176},"geometry":{"type":"Polygon","coordinates":[[[1.95058,50.49562],[1.95027,50.49443],[1.94908,50.49444],[1.94969,50.49595],[1.95058,50.49562]]]}},{"type":"Feature","properties":{"k":"MLG","s":0.716},"geometry":{"type":"Polygon","coordinates":[[[1.95077,50.49546],[1.95109,50.49578],[1.95249,50.49567],[1.9511,50.49472],[1.95077,50.49546]]]}},{"type":"Feature","properties":{"k":"ORH","s":2.156},"geometry":{"type":"Polygon","coordinates":[[[1.95302,50.49562],[1.95401,50.49515],[1.95229,50.49397],[1.95113,50.49442],[1.9511,50.49472],[1.95249,50.49567],[1.95302,50.49562]]]}},{"type":"Feature","properties":{"k":"TRE","s":1.755},"geometry":{"type":"Polygon","coordinates":[[[1.95396,50.49508],[1.95515,50.49447],[1.95359,50.49346],[1.9523,50.49397],[1.95396,50.49508]]]}},{"type":"Feature","properties":{"k":"BTH","s":3.329},"geometry":{"type":"Polygon","coordinates":[[[1.95056,50.49378],[1.95368,50.49238],[1.95226,50.49154],[1.94937,50.49311],[1.95056,50.49378]]]}},{"type":"Feature","properties":{"k":"BTH","s":3.833},"geometry":{"type":"Polygon","coordinates":[[[1.95274,50.49142],[1.95229,50.49155],[1.95368,50.49238],[1.95056,50.4938],[1.95115,50.49428],[1.95416,50.49316],[1.95472,50.49273],[1.95497,50.49214],[1.95287,50.49104],[1.95274,50.49142]]]}},{"type":"Feature","properties":{"k":"MIS","s":5.293},"geometry":{"type":"Polygon","coordinates":[[[1.9584,50.49587],[1.95646,50.49372],[1.95664,50.49357],[1.95469,50.49288],[1.95359,50.49346],[1.95516,50.49448],[1.95495,50.49459],[1.9566,50.49631],[1.9584,50.49587]]]}},{"type":"Feature","properties":{"k":"PPH","s":4.985},"geometry":{"type":"Polygon","coordinates":[[[1.95648,50.49371],[1.95846,50.49586],[1.9589,50.49572],[1.95681,50.49346],[1.95873,50.49172],[1.95706,50.4913],[1.95652,50.49189],[1.95544,50.49128],[1.95473,50.49287],[1.95665,50.49357],[1.95648,50.49371]]]}},{"type":"Feature","properties":{"k":"PPH","s":0.424},"geometry":{"type":"Polygon","coordinates":[[[1.96011,50.49521],[1.95771,50.49259],[1.95762,50.49268],[1.96011,50.49521]]]}},{"type":"Feature","properties":{"k":"LUZ","s":1.551},"geometry":{"type":"Polygon","coordinates":[[[1.95683,50.49343],[1.9589,50.49571],[1.95956,50.49551],[1.95727,50.49304],[1.95683,50.49343]]]}},{"type":"Feature","properties":{"k":"BTH","s":4.832},"geometry":{"type":"Polygon","coordinates":[[[1.96211,50.49459],[1.96218,50.49399],[1.95827,50.49211],[1.95771,50.49259],[1.96011,50.49521],[1.96211,50.49459]]]}},{"type":"Feature","properties":{"k":"BTN","s":2.29},"geometry":{"type":"Polygon","coordinates":[[[1.9623,50.49317],[1.95942,50.49189],[1.95865,50.49178],[1.95827,50.49211],[1.96218,50.49399],[1.9623,50.49317]]]}},{"type":"Feature","properties":{"k":"PPH","s":1.925},"geometry":{"type":"Polygon","coordinates":[[[1.95651,50.49188],[1.95705,50.49126],[1.95941,50.49187],[1.9603,50.49225],[1.96059,50.49192],[1.95936,50.49123],[1.95784,50.49074],[1.95723,50.4909],[1.95647,50.49157],[1.95588,50.49121],[1.95544,50.49127],[1.95651,50.49188]]]}},{"type":"Feature","properties":{"k":"PPH","s":0.806},"geometry":{"type":"Polygon","coordinates":[[[1.9588,50.49105],[1.95963,50.49133],[1.96091,50.49035],[1.96044,50.4901],[1.9588,50.49105]]]}},{"type":"Feature","properties":{"k":"PPH","s":0.794},"geometry":{"type":"Polygon","coordinates":[[[1.95846,50.49094],[1.96015,50.48995],[1.95976,50.48975],[1.95934,50.48998],[1.95918,50.48989],[1.9578,50.49073],[1.95846,50.49094]]]}},{"type":"Feature","properties":{"k":"PPH","s":1.28},"geometry":{"type":"Polygon","coordinates":[[[1.95642,50.49153],[1.95746,50.4907],[1.95617,50.48992],[1.9555,50.49119],[1.95588,50.4912],[1.95642,50.49153]]]}},{"type":"Feature","properties":{"k":"AVH","s":1.022},"geometry":{"type":"Polygon","coordinates":[[[1.95746,50.4907],[1.9583,50.49027],[1.95715,50.48943],[1.95619,50.48992],[1.95746,50.4907]]]}},{"type":"Feature","properties":{"k":"PPH","s":2.183},"geometry":{"type":"Polygon","coordinates":[[[1.95437,50.48828],[1.95435,50.48849],[1.95517,50.48927],[1.95587,50.48891],[1.95656,50.4896],[1.95723,50.48927],[1.95579,50.48763],[1.95437,50.48828]]]}},{"type":"Feature","properties":{"k":"PPH","s":0.091},"geometry":{"type":"Polygon","coordinates":[[[1.95882,50.48827],[1.95942,50.48803],[1.95918,50.4879],[1.95865,50.48816],[1.95882,50.48827]]]}},{"type":"Feature","properties":{"k":"PPH","s":0.356},"geometry":{"type":"Polygon","coordinates":[[[1.95817,50.4889],[1.95805,50.48877],[1.95845,50.48855],[1.95835,50.48838],[1.95709,50.489],[1.95719,50.48924],[1.95817,50.4889]]]}},{"type":"Feature","properties":{"k":"PPH","s":1.062},"geometry":{"type":"Polygon","coordinates":[[[1.9602,50.48939],[1.96139,50.48837],[1.96022,50.48778],[1.95959,50.48807],[1.95987,50.4883],[1.95976,50.48853],[1.96032,50.489],[1.95998,50.48926],[1.9602,50.48939]]]}},{"type":"Feature","properties":{"k":"PPH","s":6.875},"geometry":{"type":"Polygon","coordinates":[[[1.96154,50.4881],[1.96328,50.48877],[1.96307,50.4889],[1.96334,50.48947],[1.96417,50.4899],[1.96445,50.48977],[1.9642,50.48949],[1.96432,50.48872],[1.96341,50.48708],[1.96142,50.48566],[1.95954,50.48538],[1.96063,50.48721],[1.96154,50.4881]]]}},{"type":"Feature","properties":{"k":"PPH","s":1.125},"geometry":{"type":"Polygon","coordinates":[[[1.96157,50.48861],[1.96075,50.48925],[1.96105,50.4894],[1.96087,50.48954],[1.9613,50.48976],[1.96154,50.48957],[1.96198,50.48978],[1.96278,50.48887],[1.96225,50.4886],[1.96203,50.48873],[1.96157,50.48861]]]}},{"type":"Feature","properties":{"k":"PPH","s":3.526},"geometry":{"type":"Polygon","coordinates":[[[1.96644,50.48957],[1.96669,50.48936],[1.96737,50.48967],[1.96741,50.49014],[1.96827,50.49035],[1.96908,50.49032],[1.96878,50.48997],[1.96895,50.48971],[1.9678,50.48922],[1.96589,50.488],[1.96393,50.48759],[1.96413,50.48812],[1.96644,50.48957]]]}},{"type":"Feature","properties":{"k":"PPH","s":1.946},"geometry":{"type":"Polygon","coordinates":[[[1.96438,50.48872],[1.96435,50.48957],[1.96526,50.4905],[1.96655,50.48969],[1.96409,50.48812],[1.96438,50.48872]]]}},{"type":"Feature","properties":{"k":"PPH","s":0.419},"geometry":{"type":"Polygon","coordinates":[[[1.96658,50.48969],[1.96628,50.48996],[1.96741,50.49014],[1.96737,50.48967],[1.9667,50.48936],[1.96645,50.48958],[1.96658,50.48969]]]}},{"type":"Feature","properties":{"k":"PPH","s":2.226},"geometry":{"type":"Polygon","coordinates":[[[1.96316,50.48931],[1.96303,50.48915],[1.96213,50.49019],[1.96276,50.49037],[1.96269,50.49051],[1.96351,50.49068],[1.96318,50.49113],[1.96363,50.49129],[1.96396,50.49109],[1.96373,50.49094],[1.96423,50.4907],[1.9647,50.49102],[1.96507,50.49079],[1.96486,50.49053],[1.9651,50.49036],[1.96448,50.48978],[1.96415,50.48996],[1.96297,50.48947],[1.96316,50.48931]]]}},{"type":"Feature","properties":{"k":"PPH","s":2.008},"geometry":{"type":"Polygon","coordinates":[[[1.96266,50.49227],[1.96296,50.49113],[1.96162,50.49066],[1.96012,50.49171],[1.96082,50.49202],[1.9611,50.49176],[1.96266,50.49227]]]}},{"type":"Feature","properties":{"k":"PPH","s":1.292},"geometry":{"type":"Polygon","coordinates":[[[1.9611,50.49176],[1.96082,50.49203],[1.96062,50.49194],[1.96036,50.49231],[1.96229,50.49316],[1.96264,50.49228],[1.9611,50.49176]]]}},{"type":"Feature","properties":{"k":"PPH","s":0.629},"geometry":{"type":"Polygon","coordinates":[[[1.96328,50.49187],[1.96358,50.49137],[1.9631,50.4912],[1.96269,50.49241],[1.96334,50.49256],[1.96374,50.49196],[1.96328,50.49187]]]}},{"type":"Feature","properties":{"k":"PPH","s":0.346},"geometry":{"type":"Polygon","coordinates":[[[1.964,50.49228],[1.96366,50.49214],[1.96335,50.49259],[1.96379,50.49278],[1.96464,50.49218],[1.96447,50.49205],[1.964,50.49228]]]}},{"type":"Feature","properties":{"k":"PPH","s":1.203},"geometry":{"type":"Polygon","coordinates":[[[1.96232,50.49366],[1.96363,50.4934],[1.96373,50.49374],[1.96432,50.49343],[1.96406,50.49303],[1.96342,50.49266],[1.96269,50.49248],[1.96232,50.49366]]]}},{"type":"Feature","properties":{"k":"PPH","s":1.287},"geometry":{"type":"Polygon","coordinates":[[[1.96232,50.49463],[1.96367,50.49594],[1.9646,50.49555],[1.96348,50.49442],[1.96232,50.49463]]]}},{"type":"Feature","properties":{"k":"PPH","s":0.721},"geometry":{"type":"Polygon","coordinates":[[[1.96225,50.49418],[1.96227,50.49459],[1.96365,50.49429],[1.9646,50.49386],[1.96447,50.49361],[1.96225,50.49418]]]}},{"type":"Feature","properties":{"k":"PPH","s":0.429},"geometry":{"type":"Polygon","coordinates":[[[1.9646,50.49555],[1.96525,50.49527],[1.96352,50.49441],[1.9646,50.49555]]]}},{"type":"Feature","properties":{"k":"PPH","s":0.697},"geometry":{"type":"Polygon","coordinates":[[[1.96355,50.49434],[1.96583,50.49544],[1.96603,50.49537],[1.96421,50.49409],[1.96355,50.49434]]]}},{"type":"Feature","properties":{"k":"BTH","s":0.745},"geometry":{"type":"Polygon","coordinates":[[[1.96676,50.49397],[1.96583,50.49477],[1.96622,50.49521],[1.96758,50.49428],[1.96676,50.49397]]]}},{"type":"Feature","properties":{"k":"PPH","s":0.945},"geometry":{"type":"Polygon","coordinates":[[[1.96666,50.49371],[1.96629,50.49348],[1.96602,50.49366],[1.96556,50.49334],[1.96476,50.49382],[1.96543,50.4946],[1.96666,50.49371]]]}},{"type":"Feature","properties":{"k":"BTH","s":1.283},"geometry":{"type":"Polygon","coordinates":[[[1.96668,50.49527],[1.96869,50.49632],[1.96897,50.49606],[1.96803,50.49566],[1.96838,50.49533],[1.96788,50.49498],[1.96829,50.49464],[1.96784,50.49436],[1.96668,50.49527]]]}},{"type":"Feature","properties":{"k":"JAC","s":0.112},"geometry":{"type":"Polygon","coordinates":[[[1.96788,50.49499],[1.96838,50.49533],[1.96802,50.49564],[1.96897,50.49606],[1.96809,50.49563],[1.96847,50.49532],[1.96795,50.49499],[1.96823,50.49467],[1.96788,50.49499]]]}},{"type":"Feature","properties":{"k":"PPH","s":1.847},"geometry":{"type":"Polygon","coordinates":[[[1.97148,50.49554],[1.97273,50.49609],[1.97394,50.49501],[1.97351,50.49474],[1.97335,50.49437],[1.9729,50.49431],[1.97148,50.49554]]]}},{"type":"Feature","properties":{"k":"PPH","s":1.067},"geometry":{"type":"Polygon","coordinates":[[[1.97232,50.49368],[1.97278,50.49396],[1.97305,50.49374],[1.97322,50.49381],[1.97449,50.49267],[1.97384,50.49236],[1.97232,50.49368]]]}},{"type":"Feature","properties":{"k":"PPH","s":0.295},"geometry":{"type":"Polygon","coordinates":[[[1.97362,50.49222],[1.97223,50.49353],[1.9724,50.4936],[1.97384,50.49235],[1.97362,50.49222]]]}},{"type":"Feature","properties":{"k":"PPH","s":1.417},"geometry":{"type":"Polygon","coordinates":[[[1.97058,50.49266],[1.97126,50.49276],[1.97184,50.49232],[1.97216,50.49246],[1.97193,50.49271],[1.97237,50.4929],[1.97328,50.49201],[1.97219,50.49156],[1.97181,50.49193],[1.97138,50.49177],[1.97058,50.49266]]]}},{"type":"Feature","properties":{"k":"PPH","s":0.72},"geometry":{"type":"Polygon","coordinates":[[[1.97005,50.48984],[1.97099,50.49021],[1.97212,50.49042],[1.97063,50.4893],[1.97005,50.48984]]]}},{"type":"Feature","properties":{"k":"PPH","s":0.966},"geometry":{"type":"Polygon","coordinates":[[[1.97022,50.49193],[1.97061,50.49206],[1.97123,50.49122],[1.9714,50.49126],[1.9718,50.49091],[1.9712,50.4908],[1.97044,50.49092],[1.96975,50.49203],[1.96998,50.4921],[1.97022,50.49193]]]}},{"type":"Feature","properties":{"k":"PPH","s":0.395},"geometry":{"type":"Polygon","coordinates":[[[1.96984,50.49121],[1.96987,50.49119],[1.96912,50.49036],[1.96809,50.49046],[1.96984,50.49121]]]}},{"type":"Feature","properties":{"k":"PPH","s":1.042},"geometry":{"type":"Polygon","coordinates":[[[1.96806,50.49223],[1.96846,50.49184],[1.96872,50.49194],[1.96954,50.49108],[1.96887,50.49078],[1.96737,50.49189],[1.96806,50.49223]]]}},{"type":"Feature","properties":{"k":"AVP","s":5.118},"geometry":{"type":"Polygon","coordinates":[[[1.97099,50.48887],[1.97274,50.48975],[1.97303,50.48976],[1.97327,50.48949],[1.97314,50.4885],[1.97331,50.48786],[1.97432,50.48645],[1.96962,50.4879],[1.97099,50.48887]]]}},{"type":"Feature","properties":{"k":"PPH","s":1.145},"geometry":{"type":"Polygon","coordinates":[[[1.97229,50.49042],[1.97295,50.48989],[1.97085,50.48885],[1.97058,50.48918],[1.97229,50.49042]]]}},{"type":"Feature","properties":{"k":"BTN","s":10.048},"geometry":{"type":"Polygon","coordinates":[[[1.97266,50.48451],[1.96695,50.48632],[1.96962,50.4879],[1.97432,50.48645],[1.97266,50.48451]]]}},{"type":"Feature","properties":{"k":"MIS","s":3.14},"geometry":{"type":"Polygon","coordinates":[[[1.97201,50.48369],[1.97432,50.48644],[1.97512,50.48558],[1.97325,50.48326],[1.97201,50.48369]]]}},{"type":"Feature","properties":{"k":"BTH","s":3.251},"geometry":{"type":"Polygon","coordinates":[[[1.96691,50.48629],[1.96545,50.48717],[1.96995,50.48875],[1.97023,50.48831],[1.96691,50.48629]]]}},{"type":"Feature","properties":{"k":"PPH","s":0.849},"geometry":{"type":"Polygon","coordinates":[[[1.96681,50.48623],[1.96644,50.48611],[1.96488,50.48583],[1.96425,50.48627],[1.96481,50.4865],[1.96684,50.48633],[1.96681,50.48623]]]}},{"type":"Feature","properties":{"k":"PPH","s":0.552},"geometry":{"type":"Polygon","coordinates":[[[1.96456,50.48518],[1.96428,50.48432],[1.96333,50.48512],[1.96365,50.48554],[1.96429,50.48508],[1.96456,50.48518]]]}},{"type":"Feature","properties":{"k":"MIS","s":10.207},"geometry":{"type":"Polygon","coordinates":[[[1.96456,50.48518],[1.96491,50.48509],[1.96533,50.48591],[1.96695,50.48632],[1.97008,50.48533],[1.96752,50.48228],[1.96427,50.48437],[1.96456,50.48518]]]}},{"type":"Feature","properties":{"k":"BTH","s":6.399},"geometry":{"type":"Polygon","coordinates":[[[1.96135,50.47955],[1.96544,50.48362],[1.96675,50.48285],[1.96311,50.47925],[1.96213,50.47928],[1.96135,50.47955]]]}},{"type":"Feature","properties":{"k":"FVP","s":6.425},"geometry":{"type":"Polygon","coordinates":[[[1.96544,50.48362],[1.96542,50.4836],[1.96541,50.48358],[1.96135,50.47955],[1.9613,50.47957],[1.95977,50.4801],[1.96436,50.48424],[1.96544,50.48362]]]}},{"type":"Feature","properties":{"k":"ORP","s":3.5},"geometry":{"type":"Polygon","coordinates":[[[1.96447,50.48059],[1.96675,50.48285],[1.9675,50.48225],[1.96441,50.47924],[1.96313,50.47927],[1.96447,50.48059]]]}},{"type":"Feature","properties":{"k":"PPH","s":3.465},"geometry":{"type":"Polygon","coordinates":[[[1.96495,50.47971],[1.96671,50.47969],[1.96777,50.48181],[1.96798,50.48104],[1.9694,50.48056],[1.9683,50.47921],[1.96457,50.47928],[1.96495,50.47971]]]}},{"type":"Feature","properties":{"k":"PTR","s":2.412},"geometry":{"type":"Polygon","coordinates":[[[1.96777,50.48181],[1.96671,50.47969],[1.96495,50.47971],[1.96441,50.47924],[1.9675,50.48225],[1.96777,50.48181]]]}},{"type":"Feature","properties":{"k":"CZH","s":9.866},"geometry":{"type":"Polygon","coordinates":[[[1.96744,50.48232],[1.97008,50.48533],[1.97266,50.48451],[1.9694,50.48056],[1.96798,50.48104],[1.96744,50.48232]]]}},{"type":"Feature","properties":{"k":"ORH","s":1.445},"geometry":{"type":"Polygon","coordinates":[[[1.97204,50.48369],[1.97325,50.48326],[1.97425,50.48289],[1.97269,50.48338],[1.97041,50.48119],[1.96912,50.4802],[1.97204,50.48369]]]}},{"type":"Feature","properties":{"k":"BTH","s":0.008},"geometry":{"type":"Polygon","coordinates":[]}},{"type":"Feature","properties":{"k":"PPH","s":0.002},"geometry":{"type":"Polygon","coordinates":[[[1.94042,50.51155],[1.94067,50.51159],[1.94049,50.51153],[1.94042,50.51155]]]}},{"type":"Feature","properties":{"k":"MIS","s":0.035},"geometry":{"type":"MultiPolygon","coordinates":[[[[1.94167,50.51116],[1.94243,50.51079],[1.94239,50.51076],[1.94167,50.51116]]],[[[1.94293,50.51106],[1.94298,50.51111],[1.94306,50.51107],[1.94293,50.51106]]]]}},{"type":"Feature","properties":{"k":"LIF","s":2.998},"geometry":{"type":"Polygon","coordinates":[[[1.94785,50.51043],[1.94706,50.51135],[1.94758,50.51159],[1.94746,50.51168],[1.94877,50.51214],[1.95042,50.51244],[1.95113,50.51179],[1.94895,50.51104],[1.94785,50.51043]]]}},{"type":"Feature","properties":{"k":"PPH","s":1.153},"geometry":{"type":"Polygon","coordinates":[[[1.9505,50.51096],[1.94972,50.5103],[1.94895,50.51104],[1.95113,50.51179],[1.95141,50.51144],[1.9505,50.51096]]]}},{"type":"Feature","properties":{"k":"PPH","s":0.359},"geometry":{"type":"Polygon","coordinates":[[[1.95127,50.5111],[1.95172,50.51082],[1.95008,50.51047],[1.95053,50.51091],[1.95098,50.51113],[1.95127,50.5111]]]}},{"type":"Feature","properties":{"k":"MIS","s":0.012},"geometry":{"type":"Polygon","coordinates":[[[1.9523,50.51284],[1.95273,50.51308],[1.95276,50.51306],[1.9523,50.51284]]]}},{"type":"Feature","properties":{"k":"BTH","s":8.991},"geometry":{"type":"Polygon","coordinates":[[[1.95565,50.51074],[1.95358,50.51096],[1.95239,50.51066],[1.95175,50.51082],[1.95117,50.51118],[1.95245,50.51202],[1.95279,50.51297],[1.95425,50.51374],[1.95842,50.51076],[1.95565,50.51074]]]}},{"type":"Feature","properties":{"k":"MIS","s":8.645},"geometry":{"type":"Polygon","coordinates":[[[1.95691,50.51347],[1.9571,50.51355],[1.95863,50.5126],[1.9592,50.51275],[1.96014,50.51211],[1.96211,50.51131],[1.96238,50.511],[1.95842,50.51076],[1.95425,50.51374],[1.95587,50.51454],[1.95691,50.51347]]]}},{"type":"Feature","properties":{"k":"MIS","s":0.015},"geometry":{"type":"MultiPolygon","coordinates":[[[[1.95866,50.51261],[1.95901,50.5127],[1.9588,50.51262],[1.95866,50.51261]]],[[[1.95816,50.51285],[1.95777,50.51313],[1.95852,50.51267],[1.95816,50.51285]]]]}},{"type":"Feature","properties":{"k":"BTH","s":0.0},"geometry":{"type":"Polygon","coordinates":[[[1.96237,50.51103],[1.96239,50.511],[1.96238,50.511],[1.96237,50.51103]]]}}]}