{"type":"FeatureCollection","features":[{"type":"Feature","properties":{"k":"PTR","s":0.347},"geometry":{"type":"Polygon","coordinates":[[[1.58676,50.68026],[1.58661,50.6798],[1.58631,50.67986],[1.58667,50.68081],[1.58721,50.68075],[1.58704,50.68021],[1.58676,50.68026]]]}},{"type":"Feature","properties":{"k":"BTN","s":2.511},"geometry":{"type":"Polygon","coordinates":[[[1.58202,50.67291],[1.58383,50.67408],[1.58546,50.67342],[1.58277,50.67236],[1.58248,50.6721],[1.58209,50.67245],[1.58202,50.67291]]]}},{"type":"Feature","properties":{"k":"MIS","s":1.03},"geometry":{"type":"Polygon","coordinates":[[[1.5827,50.67994],[1.5825,50.68009],[1.58474,50.68072],[1.58521,50.67983],[1.5827,50.67994]]]}},{"type":"Feature","properties":{"k":"MIS","s":0.009},"geometry":{"type":"Polygon","coordinates":[[[1.58265,50.68013],[1.58249,50.6801],[1.58357,50.6804],[1.58265,50.68013]]]}},{"type":"Feature","properties":{"k":"MIS","s":0.873},"geometry":{"type":"Polygon","coordinates":[[[1.57933,50.67859],[1.57915,50.67903],[1.57979,50.67924],[1.58202,50.67926],[1.58209,50.67908],[1.57933,50.67859]]]}},{"type":"Feature","properties":{"k":"PPH","s":10.533},"geometry":{"type":"Polygon","coordinates":[[[1.57947,50.68188],[1.58135,50.68199],[1.58172,50.68059],[1.58225,50.67978],[1.58183,50.67974],[1.58202,50.67926],[1.57979,50.67924],[1.57915,50.67903],[1.57888,50.6798],[1.5777,50.67973],[1.57745,50.67989],[1.57714,50.68077],[1.57758,50.68069],[1.57771,50.68103],[1.57641,50.68175],[1.57877,50.68339],[1.57947,50.68188]]]}},{"type":"Feature","properties":{"k":"MIS","s":0.356},"geometry":{"type":"Polygon","coordinates":[[[1.58037,50.68433],[1.58056,50.6834],[1.58014,50.68335],[1.57983,50.68416],[1.58037,50.68433]]]}},{"type":"Feature","properties":{"k":"MIS","s":2.639},"geometry":{"type":"Polygon","coordinates":[[[1.57947,50.68188],[1.57898,50.68324],[1.58056,50.6834],[1.58038,50.6843],[1.58091,50.68443],[1.58135,50.68199],[1.57947,50.68188]]]}},{"type":"Feature","properties":{"k":"BTN","s":2.832},"geometry":{"type":"Polygon","coordinates":[[[1.5802,50.68612],[1.58088,50.68455],[1.5797,50.6842],[1.57893,50.68369],[1.57832,50.68545],[1.5802,50.68612]]]}},{"type":"Feature","properties":{"k":"PPH","s":3.508},"geometry":{"type":"Polygon","coordinates":[[[1.57823,50.68318],[1.5779,50.68293],[1.57534,50.68329],[1.5752,50.68289],[1.57443,50.683],[1.57433,50.68367],[1.57508,50.68334],[1.57533,50.68358],[1.57531,50.68375],[1.5747,50.68395],[1.57424,50.68388],[1.57488,50.68456],[1.57516,50.68441],[1.5758,50.68458],[1.57621,50.68441],[1.57674,50.68491],[1.57823,50.68318]]]}},{"type":"Feature","properties":{"k":"MIS","s":2.854},"geometry":{"type":"Polygon","coordinates":[[[1.57504,50.68473],[1.57595,50.68474],[1.57694,50.68605],[1.57779,50.68588],[1.57832,50.68545],[1.57893,50.68369],[1.5787,50.68393],[1.5785,50.68384],[1.57815,50.68423],[1.57751,50.68399],[1.57674,50.68491],[1.57621,50.68441],[1.5758,50.68458],[1.57524,50.68446],[1.57501,50.68454],[1.57504,50.68473]]]}},{"type":"Feature","properties":{"k":"PPH","s":5.298},"geometry":{"type":"Polygon","coordinates":[[[1.57027,50.68258],[1.57028,50.68205],[1.56948,50.68195],[1.56953,50.68179],[1.57053,50.68107],[1.57071,50.68059],[1.56983,50.68051],[1.56982,50.68028],[1.57032,50.68004],[1.57014,50.67975],[1.56872,50.6798],[1.56683,50.68121],[1.56685,50.68152],[1.56879,50.6823],[1.56937,50.68274],[1.57027,50.68258]]]}},{"type":"Feature","properties":{"k":"BTA","s":0.036},"geometry":{"type":"Polygon","coordinates":[[[1.56715,50.68358],[1.56716,50.68354],[1.56658,50.68339],[1.56629,50.68345],[1.56715,50.68358]]]}},{"type":"Feature","properties":{"k":"PPH","s":0.5},"geometry":{"type":"Polygon","coordinates":[[[1.56667,50.68498],[1.56726,50.68512],[1.56764,50.68418],[1.56697,50.68405],[1.56667,50.68498]]]}},{"type":"Feature","properties":{"k":"ORP","s":3.3},"geometry":{"type":"Polygon","coordinates":[[[1.56426,50.68563],[1.56396,50.68596],[1.56443,50.68605],[1.5646,50.68587],[1.56548,50.68588],[1.56589,50.68479],[1.56667,50.68498],[1.56715,50.68358],[1.56618,50.68342],[1.56552,50.68366],[1.56401,50.68529],[1.56425,50.68534],[1.56426,50.68563]],[[1.56456,50.68542],[1.56436,50.68544],[1.56435,50.68531],[1.56456,50.68542]]]}},{"type":"Feature","properties":{"k":"MIS","s":0.433},"geometry":{"type":"Polygon","coordinates":[[[1.56519,50.68798],[1.56592,50.68843],[1.56607,50.68843],[1.56621,50.68751],[1.56519,50.68798]]]}},{"type":"Feature","properties":{"k":"ORH","s":3.7},"geometry":{"type":"Polygon","coordinates":[[[1.58591,50.67722],[1.58744,50.67799],[1.58628,50.67967],[1.58682,50.67968],[1.58812,50.67941],[1.58954,50.67846],[1.58641,50.67661],[1.58591,50.67722]]]}},{"type":"Feature","properties":{"k":"BTH","s":0.621},"geometry":{"type":"Polygon","coordinates":[[[1.56596,50.68759],[1.56619,50.68745],[1.56636,50.68631],[1.56603,50.68603],[1.56597,50.68638],[1.56572,50.68645],[1.56565,50.68748],[1.56596,50.68759]]]}},{"type":"Feature","properties":{"k":"BTP","s":3.671},"geometry":{"type":"Polygon","coordinates":[[[1.56972,50.68825],[1.56953,50.68692],[1.5663,50.68705],[1.56607,50.68843],[1.56972,50.68825]]]}},{"type":"Feature","properties":{"k":"BTH","s":5.032},"geometry":{"type":"Polygon","coordinates":[[[1.56715,50.68534],[1.56712,50.68586],[1.56661,50.68585],[1.56646,50.68635],[1.56663,50.68636],[1.5666,50.68655],[1.56641,50.68655],[1.5663,50.68705],[1.56953,50.68692],[1.56972,50.68825],[1.57074,50.6882],[1.57043,50.68699],[1.57015,50.68702],[1.5701,50.68675],[1.57036,50.68672],[1.57016,50.68582],[1.56715,50.68534]]]}},{"type":"Feature","properties":{"k":"ORH","s":2.839},"geometry":{"type":"Polygon","coordinates":[[[1.57037,50.68531],[1.57028,50.6859],[1.57061,50.68734],[1.57125,50.68731],[1.57112,50.68664],[1.5721,50.68664],[1.57227,50.68623],[1.57317,50.68625],[1.57313,50.68545],[1.57037,50.68531]]]}},{"type":"Feature","properties":{"k":"MIS","s":1.603},"geometry":{"type":"Polygon","coordinates":[[[1.57317,50.68625],[1.57555,50.6863],[1.57568,50.6861],[1.57518,50.68537],[1.57313,50.68545],[1.57317,50.68625]]]}},{"type":"Feature","properties":{"k":"BTH","s":4.647},"geometry":{"type":"Polygon","coordinates":[[[1.57227,50.68623],[1.57206,50.68638],[1.5721,50.68664],[1.5723,50.68664],[1.57247,50.68813],[1.57472,50.68799],[1.57481,50.68786],[1.5758,50.68777],[1.57569,50.68631],[1.57227,50.68623]]]}},{"type":"Feature","properties":{"k":"BTN","s":1.722},"geometry":{"type":"Polygon","coordinates":[[[1.57092,50.68818],[1.57244,50.68813],[1.57229,50.68665],[1.57115,50.68666],[1.57127,50.68733],[1.57062,50.68735],[1.57092,50.68818]]]}},{"type":"Feature","properties":{"k":"MIS","s":0.897},"geometry":{"type":"Polygon","coordinates":[[[1.57143,50.6901],[1.5674,50.69044],[1.56742,50.69075],[1.57131,50.69039],[1.57143,50.6901]]]}},{"type":"Feature","properties":{"k":"BTH","s":5.655},"geometry":{"type":"Polygon","coordinates":[[[1.56948,50.6884],[1.56883,50.68871],[1.56783,50.69042],[1.57143,50.6901],[1.57155,50.68988],[1.57157,50.68946],[1.57404,50.68813],[1.56948,50.6884]],[[1.57084,50.68846],[1.57097,50.68841],[1.57148,50.68988],[1.57133,50.69006],[1.57084,50.68846]]]}},{"type":"Feature","properties":{"k":"SGH","s":2.82},"geometry":{"type":"Polygon","coordinates":[[[1.57648,50.68917],[1.57598,50.6882],[1.57419,50.68824],[1.57321,50.68864],[1.57354,50.68888],[1.57428,50.68853],[1.57447,50.68878],[1.57364,50.68918],[1.57377,50.68997],[1.57648,50.68917]]]}},{"type":"Feature","properties":{"k":"MIS","s":0.626},"geometry":{"type":"Polygon","coordinates":[[[1.57662,50.68941],[1.57648,50.68917],[1.57377,50.68997],[1.57384,50.69024],[1.57662,50.68941]]]}},{"type":"Feature","properties":{"k":"MIS","s":4.131},"geometry":{"type":"Polygon","coordinates":[[[1.57621,50.69041],[1.57606,50.69023],[1.57677,50.68979],[1.57659,50.68942],[1.57384,50.69024],[1.5736,50.68916],[1.57446,50.68877],[1.57428,50.68854],[1.57281,50.68921],[1.57224,50.69086],[1.57267,50.69112],[1.5743,50.691],[1.57441,50.69117],[1.57621,50.69041]],[[1.57305,50.68983],[1.5731,50.69033],[1.57262,50.69037],[1.57272,50.68993],[1.57305,50.68983]]]}},{"type":"Feature","properties":{"k":"PPH","s":3.636},"geometry":{"type":"Polygon","coordinates":[[[1.57412,50.69176],[1.5743,50.69101],[1.5726,50.69111],[1.57219,50.69075],[1.57268,50.68936],[1.57343,50.68882],[1.57316,50.68863],[1.57162,50.68948],[1.57154,50.69003],[1.57099,50.69076],[1.57123,50.69151],[1.57164,50.692],[1.57412,50.69176]]]}},{"type":"Feature","properties":{"k":"PTR","s":1.12},"geometry":{"type":"Polygon","coordinates":[[[1.57274,50.69291],[1.57461,50.69263],[1.57395,50.69219],[1.57401,50.69203],[1.57227,50.6923],[1.5719,50.69249],[1.57274,50.69291]]]}},{"type":"Feature","properties":{"k":"ORH","s":0.605},"geometry":{"type":"Polygon","coordinates":[[[1.57401,50.69203],[1.5741,50.69179],[1.57155,50.692],[1.57181,50.69239],[1.57401,50.69203]]]}},{"type":"Feature","properties":{"k":"JAC","s":0.662},"geometry":{"type":"Polygon","coordinates":[[[1.56742,50.69075],[1.5674,50.69044],[1.56725,50.69046],[1.56676,50.69105],[1.5704,50.69055],[1.57069,50.69082],[1.57131,50.69039],[1.56742,50.69075]]]}},{"type":"Feature","properties":{"k":"PPH","s":1.722},"geometry":{"type":"Polygon","coordinates":[[[1.57104,50.69103],[1.57071,50.69092],[1.57048,50.69058],[1.56899,50.69069],[1.56897,50.6908],[1.56678,50.69108],[1.56606,50.69183],[1.56693,50.69175],[1.56911,50.6911],[1.57104,50.69103]]]}},{"type":"Feature","properties":{"k":"PPH","s":2.248},"geometry":{"type":"Polygon","coordinates":[[[1.56827,50.68946],[1.56873,50.6888],[1.56931,50.68846],[1.56643,50.68851],[1.56543,50.68872],[1.56542,50.68929],[1.56827,50.68946]]]}},{"type":"Feature","properties":{"k":"PPH","s":7.999},"geometry":{"type":"Polygon","coordinates":[[[1.56398,50.68998],[1.56321,50.69108],[1.56349,50.69152],[1.56322,50.69205],[1.56496,50.69214],[1.566,50.69184],[1.56725,50.69046],[1.56783,50.69041],[1.56827,50.68946],[1.56542,50.68929],[1.56543,50.68872],[1.56408,50.68907],[1.56398,50.68998]]]}},{"type":"Feature","properties":{"k":"PPH","s":0.395},"geometry":{"type":"Polygon","coordinates":[[[1.5756,50.67257],[1.57524,50.67217],[1.57441,50.67209],[1.57468,50.67274],[1.5753,50.67282],[1.5756,50.67257]]]}},{"type":"Feature","properties":{"k":"PPH","s":0.335},"geometry":{"type":"Polygon","coordinates":[[[1.57435,50.67204],[1.57397,50.67188],[1.57369,50.67194],[1.57396,50.6725],[1.57434,50.67271],[1.57455,50.67261],[1.57435,50.67204]]]}},{"type":"Feature","properties":{"k":"PPH","s":1.066},"geometry":{"type":"Polygon","coordinates":[[[1.57845,50.6698],[1.5791,50.66989],[1.5813,50.67093],[1.58019,50.6697],[1.57943,50.66938],[1.57845,50.6698]]]}},{"type":"Feature","properties":{"k":"PPH","s":2.72},"geometry":{"type":"Polygon","coordinates":[[[1.58018,50.66904],[1.57952,50.66841],[1.57844,50.66896],[1.57923,50.66939],[1.57968,50.66935],[1.58009,50.66955],[1.58254,50.67213],[1.5828,50.67214],[1.58416,50.67096],[1.58323,50.67048],[1.5821,50.67129],[1.58005,50.6692],[1.58018,50.66904]]]}},{"type":"Feature","properties":{"k":"PPH","s":1.281},"geometry":{"type":"Polygon","coordinates":[[[1.5784,50.67731],[1.57898,50.67535],[1.57773,50.67609],[1.57785,50.67617],[1.57718,50.6766],[1.5784,50.67731]]]}},{"type":"Feature","properties":{"k":"BTN","s":0.675},"geometry":{"type":"Polygon","coordinates":[[[1.58303,50.67426],[1.58368,50.6741],[1.58211,50.67315],[1.58162,50.67336],[1.58303,50.67426]]]}},{"type":"Feature","properties":{"k":"MIS","s":0.449},"geometry":{"type":"Polygon","coordinates":[[[1.58456,50.67509],[1.58461,50.67513],[1.58461,50.67452],[1.58529,50.67366],[1.58405,50.67416],[1.58456,50.67509]]]}},{"type":"Feature","properties":{"k":"MIS","s":9.99},"geometry":{"type":"Polygon","coordinates":[[[1.58242,50.67488],[1.58262,50.6755],[1.58258,50.67699],[1.5828,50.67698],[1.58294,50.67735],[1.58269,50.67739],[1.58309,50.6788],[1.58275,50.67979],[1.5857,50.67974],[1.58575,50.67956],[1.5861,50.67948],[1.58436,50.67472],[1.58398,50.67418],[1.58265,50.6746],[1.58242,50.67488]],[[1.58316,50.67793],[1.58298,50.67728],[1.5835,50.67729],[1.58367,50.67772],[1.58316,50.67793]],[[1.58369,50.67913],[1.58333,50.67915],[1.58332,50.67899],[1.58368,50.67899],[1.58369,50.67913]]]}},{"type":"Feature","properties":{"k":"PTR","s":2.182},"geometry":{"type":"Polygon","coordinates":[[[1.58656,50.67922],[1.58744,50.67799],[1.58589,50.67721],[1.58573,50.6773],[1.58464,50.67516],[1.58573,50.67845],[1.58656,50.67922]],[[1.58626,50.6787],[1.58606,50.67841],[1.58624,50.67839],[1.58626,50.6787]]]}},{"type":"Feature","properties":{"k":"MIS","s":7.601},"geometry":{"type":"Polygon","coordinates":[[[1.58573,50.6773],[1.5864,50.6766],[1.58773,50.67604],[1.58759,50.67592],[1.58982,50.67692],[1.59044,50.67622],[1.58996,50.67577],[1.58833,50.675],[1.58877,50.67451],[1.5882,50.67402],[1.58711,50.67479],[1.58652,50.67454],[1.58485,50.67428],[1.58466,50.67462],[1.5847,50.67535],[1.58573,50.6773]]]}},{"type":"Feature","properties":{"k":"PPH","s":4.58},"geometry":{"type":"Polygon","coordinates":[[[1.58485,50.67428],[1.58524,50.67441],[1.58652,50.67454],[1.58711,50.67479],[1.5882,50.67402],[1.58846,50.6742],[1.58886,50.67403],[1.58934,50.67438],[1.59079,50.67356],[1.59035,50.6734],[1.58962,50.67378],[1.5893,50.67353],[1.58978,50.67314],[1.58922,50.67293],[1.58883,50.67295],[1.58885,50.67322],[1.58835,50.67323],[1.5883,50.67297],[1.58704,50.67303],[1.58546,50.67359],[1.58485,50.67428]]]}},{"type":"Feature","properties":{"k":"MIS","s":2.213},"geometry":{"type":"Polygon","coordinates":[[[1.58909,50.67217],[1.58788,50.67118],[1.58552,50.67342],[1.58909,50.67217]]]}},{"type":"Feature","properties":{"k":"PPH","s":4.902},"geometry":{"type":"Polygon","coordinates":[[[1.58563,50.67122],[1.58405,50.67282],[1.58552,50.67337],[1.58783,50.67114],[1.58571,50.6697],[1.58464,50.67053],[1.58563,50.67122]]]}},{"type":"Feature","properties":{"k":"BTH","s":1.081},"geometry":{"type":"Polygon","coordinates":[[[1.57902,50.68639],[1.57984,50.68673],[1.5802,50.68612],[1.57823,50.68542],[1.57778,50.68588],[1.57902,50.68639]]]}},{"type":"Feature","properties":{"k":"BTP","s":2.495},"geometry":{"type":"Polygon","coordinates":[[[1.58295,50.67198],[1.58277,50.67233],[1.58405,50.67282],[1.58563,50.67122],[1.58461,50.67055],[1.58295,50.67198]]]}},{"type":"Feature","properties":{"k":"SOG","s":0.829},"geometry":{"type":"Polygon","coordinates":[[[1.58352,50.66818],[1.58232,50.66736],[1.58189,50.66769],[1.58284,50.66873],[1.58352,50.66818]]]}},{"type":"Feature","properties":{"k":"MIS","s":4.663},"geometry":{"type":"Polygon","coordinates":[[[1.58007,50.66917],[1.58158,50.67073],[1.58194,50.67058],[1.58188,50.67042],[1.58284,50.67031],[1.58299,50.67009],[1.5839,50.6698],[1.58382,50.66953],[1.58189,50.66769],[1.58007,50.66917]]]}},{"type":"Feature","properties":{"k":"PPH","s":1.363},"geometry":{"type":"MultiPolygon","coordinates":[[[[1.58113,50.66824],[1.58227,50.66735],[1.58069,50.66699],[1.58096,50.66743],[1.58056,50.66756],[1.58028,50.66692],[1.58001,50.6668],[1.57965,50.66766],[1.58113,50.66824]]],[[[1.58352,50.66812],[1.58272,50.66749],[1.58269,50.66748],[1.58352,50.66812]]]]}},{"type":"Feature","properties":{"k":"MIS","s":0.008},"geometry":{"type":"Polygon","coordinates":[[[1.58955,50.67238],[1.58981,50.67257],[1.58935,50.67219],[1.58955,50.67238]]]}},{"type":"Feature","properties":{"k":"MIS","s":0.878},"geometry":{"type":"Polygon","coordinates":[[[1.58929,50.67288],[1.59065,50.6734],[1.58926,50.6722],[1.58735,50.67294],[1.58929,50.67288]]]}},{"type":"Feature","properties":{"k":"PPH","s":7.721},"geometry":{"type":"Polygon","coordinates":[[[1.58954,50.67858],[1.59196,50.67753],[1.59125,50.67672],[1.59107,50.67604],[1.59141,50.67506],[1.59119,50.6747],[1.59145,50.67431],[1.59081,50.67389],[1.59087,50.6736],[1.58935,50.67447],[1.59069,50.67543],[1.59024,50.67572],[1.58987,50.67554],[1.58963,50.67561],[1.59044,50.67619],[1.58982,50.67692],[1.58759,50.67592],[1.58773,50.67604],[1.5864,50.6766],[1.58954,50.67858]]]}},{"type":"Feature","properties":{"k":"PPH","s":3.506},"geometry":{"type":"MultiPolygon","coordinates":[[[[1.5946,50.68061],[1.5929,50.68061],[1.59249,50.68129],[1.59423,50.68135],[1.5946,50.68061]]],[[[1.59098,50.67998],[1.58868,50.67995],[1.58849,50.67964],[1.58703,50.67973],[1.58711,50.68015],[1.58675,50.68019],[1.58704,50.68021],[1.58721,50.68075],[1.58738,50.68073],[1.58738,50.68043],[1.58817,50.68046],[1.58817,50.68077],[1.58866,50.6808],[1.58866,50.68041],[1.58971,50.68054],[1.59064,50.68126],[1.591,50.68119],[1.59098,50.67998]]]]}},{"type":"Feature","properties":{"k":"BTH","s":0.0},"geometry":{"type":"Polygon","coordinates":[]}},{"type":"Feature","properties":{"k":"JAC","s":0.178},"geometry":{"type":"Polygon","coordinates":[[[1.57685,50.69023],[1.57677,50.68985],[1.57606,50.69023],[1.57621,50.69041],[1.57685,50.69023]]]}},{"type":"Feature","properties":{"k":"BTH","s":6.22},"geometry":{"type":"Polygon","coordinates":[[[1.57779,50.68588],[1.57595,50.68624],[1.57604,50.68762],[1.57642,50.68843],[1.57864,50.68775],[1.5788,50.68789],[1.57806,50.68885],[1.57697,50.68955],[1.57717,50.69018],[1.57775,50.68997],[1.57934,50.68764],[1.57918,50.68761],[1.57971,50.68667],[1.57779,50.68588]]]}},{"type":"Feature","properties":{"k":"BTH","s":1.597},"geometry":{"type":"Polygon","coordinates":[[[1.57823,50.68868],[1.5788,50.68789],[1.57864,50.68775],[1.57642,50.68843],[1.57705,50.68951],[1.57823,50.68868]]]}},{"type":"Feature","properties":{"k":"BTH","s":1.081},"geometry":{"type":"Polygon","coordinates":[[[1.57694,50.68605],[1.57595,50.68474],[1.575,50.68474],[1.57595,50.68624],[1.57694,50.68605]]]}},{"type":"Feature","properties":{"k":"ORP","s":0.23},"geometry":{"type":"Polygon","coordinates":[[[1.56537,50.68772],[1.56545,50.68775],[1.56572,50.68645],[1.5655,50.68645],[1.56537,50.68772]]]}}]}