{"type":"FeatureCollection","features":[{"type":"Feature","properties":{"k":"BTN","s":4.956},"geometry":{"type":"Polygon","coordinates":[[[2.22677,50.42005],[2.22283,50.4179],[2.22177,50.41881],[2.22572,50.42113],[2.22677,50.42005]]]}},{"type":"Feature","properties":{"k":"BTH","s":1.028},"geometry":{"type":"Polygon","coordinates":[[[2.22286,50.42216],[2.22405,50.42276],[2.22439,50.42263],[2.22015,50.42014],[2.22002,50.42025],[2.22286,50.42216]]]}},{"type":"Feature","properties":{"k":"CZH","s":4.907},"geometry":{"type":"Polygon","coordinates":[[[2.21476,50.41747],[2.22002,50.42025],[2.22087,50.41955],[2.21536,50.41664],[2.21476,50.41747]]]}},{"type":"Feature","properties":{"k":"BTN","s":7.133},"geometry":{"type":"Polygon","coordinates":[[[2.21359,50.41874],[2.21593,50.4197],[2.2192,50.42142],[2.22014,50.42032],[2.21476,50.41747],[2.21359,50.41874]]]}},{"type":"Feature","properties":{"k":"PTC","s":9.712},"geometry":{"type":"Polygon","coordinates":[[[2.21283,50.41544],[2.20935,50.41835],[2.21302,50.41946],[2.2154,50.41645],[2.21283,50.41544]]]}},{"type":"Feature","properties":{"k":"BTH","s":1.211},"geometry":{"type":"Polygon","coordinates":[[[2.21288,50.41546],[2.2154,50.41645],[2.21565,50.4161],[2.21347,50.41491],[2.21288,50.41546]]]}},{"type":"Feature","properties":{"k":"MIS","s":0.007},"geometry":{"type":"Polygon","coordinates":[[[2.20894,50.41876],[2.2091,50.41856],[2.20861,50.41912],[2.20894,50.41876]]]}},{"type":"Feature","properties":{"k":"PPH","s":16.529},"geometry":{"type":"Polygon","coordinates":[[[2.19786,50.44074],[2.19786,50.44105],[2.1982,50.4408],[2.19869,50.44091],[2.19904,50.4414],[2.19886,50.44194],[2.20142,50.44256],[2.20227,50.44227],[2.2027,50.44234],[2.20384,50.44075],[2.20144,50.43971],[2.20316,50.43856],[2.20169,50.4382],[2.20084,50.43828],[2.1979,50.43746],[2.19728,50.43782],[2.19798,50.43831],[2.19686,50.4402],[2.19786,50.44074]]]}},{"type":"Feature","properties":{"k":"MIS","s":0.01},"geometry":{"type":"Polygon","coordinates":[[[2.19715,50.43969],[2.19734,50.43936],[2.19686,50.44014],[2.19715,50.43969]]]}},{"type":"Feature","properties":{"k":"BTA","s":0.002},"geometry":{"type":"Polygon","coordinates":[[[2.19689,50.44014],[2.19686,50.44014],[2.19683,50.4402],[2.19689,50.44014]]]}},{"type":"Feature","properties":{"k":"PPH","s":0.002},"geometry":{"type":"Polygon","coordinates":[[[2.20089,50.43827],[2.20065,50.43821],[2.20084,50.43828],[2.20089,50.43827]]]}},{"type":"Feature","properties":{"k":"PTC","s":0.0},"geometry":{"type":"Polygon","coordinates":[]}},{"type":"Feature","properties":{"k":"BTH","s":2.42},"geometry":{"type":"Polygon","coordinates":[[[2.20598,50.43609],[2.20466,50.43547],[2.20313,50.43762],[2.20452,50.43766],[2.20598,50.43609]]]}},{"type":"Feature","properties":{"k":"PPH","s":0.308},"geometry":{"type":"Polygon","coordinates":[[[2.2059,50.43861],[2.20541,50.43899],[2.20631,50.4392],[2.20663,50.43881],[2.2059,50.43861]]]}},{"type":"Feature","properties":{"k":"PPH","s":1.866},"geometry":{"type":"Polygon","coordinates":[[[2.20617,50.43756],[2.20868,50.43859],[2.20883,50.43839],[2.20829,50.43776],[2.20845,50.43757],[2.20874,50.4376],[2.20716,50.43674],[2.20617,50.43756]]]}},{"type":"Feature","properties":{"k":"PPH","s":2.067},"geometry":{"type":"Polygon","coordinates":[[[2.21161,50.43466],[2.2102,50.43614],[2.21037,50.4362],[2.21007,50.43652],[2.21031,50.43662],[2.21016,50.43684],[2.21065,50.43709],[2.21261,50.43524],[2.21161,50.43466]]]}},{"type":"Feature","properties":{"k":"PPH","s":0.974},"geometry":{"type":"Polygon","coordinates":[[[2.21412,50.43625],[2.2133,50.43582],[2.21268,50.43632],[2.2131,50.43657],[2.21215,50.43709],[2.2128,50.43736],[2.21412,50.43625]]]}},{"type":"Feature","properties":{"k":"BTH","s":1.359},"geometry":{"type":"Polygon","coordinates":[[[2.21407,50.43878],[2.21383,50.4385],[2.21327,50.43852],[2.21382,50.43833],[2.21344,50.43812],[2.21256,50.43853],[2.2128,50.43934],[2.21381,50.43939],[2.21413,50.43922],[2.21505,50.4391],[2.21481,50.43869],[2.21407,50.43878]]]}},{"type":"Feature","properties":{"k":"PPH","s":0.336},"geometry":{"type":"Polygon","coordinates":[[[2.2097,50.43875],[2.2106,50.43918],[2.21089,50.4389],[2.20983,50.43837],[2.20966,50.43845],[2.2097,50.43875]]]}},{"type":"Feature","properties":{"k":"PPH","s":0.475},"geometry":{"type":"Polygon","coordinates":[[[2.21164,50.43818],[2.211,50.43877],[2.21167,50.4391],[2.21229,50.43863],[2.21164,50.43818]]]}},{"type":"Feature","properties":{"k":"MIS","s":0.643},"geometry":{"type":"Polygon","coordinates":[[[2.21253,50.44017],[2.21389,50.44078],[2.21427,50.4404],[2.21277,50.43974],[2.21245,50.44],[2.21253,50.44017]]]}},{"type":"Feature","properties":{"k":"MIS","s":0.849},"geometry":{"type":"Polygon","coordinates":[[[2.21148,50.44088],[2.21104,50.4414],[2.21247,50.44207],[2.21303,50.44168],[2.21148,50.44088]]]}},{"type":"Feature","properties":{"k":"BTH","s":3.745},"geometry":{"type":"Polygon","coordinates":[[[2.21159,50.44076],[2.21521,50.44267],[2.21655,50.4414],[2.21435,50.44044],[2.21359,50.44119],[2.21178,50.44037],[2.21159,50.44076]]]}},{"type":"Feature","properties":{"k":"MIS","s":1.082},"geometry":{"type":"Polygon","coordinates":[[[2.21482,50.44314],[2.21513,50.44279],[2.21303,50.44168],[2.21245,50.44208],[2.21482,50.44314]]]}},{"type":"Feature","properties":{"k":"PPH","s":1.256},"geometry":{"type":"Polygon","coordinates":[[[2.21341,50.44262],[2.21102,50.44145],[2.21088,50.44217],[2.21129,50.44278],[2.21214,50.44249],[2.21306,50.44276],[2.21341,50.44262]]]}},{"type":"Feature","properties":{"k":"PPH","s":0.512},"geometry":{"type":"Polygon","coordinates":[[[2.21039,50.44273],[2.21121,50.44275],[2.21084,50.44227],[2.21014,50.4422],[2.20997,50.44194],[2.20974,50.44267],[2.21039,50.44273]]]}},{"type":"Feature","properties":{"k":"PPH","s":1.399},"geometry":{"type":"Polygon","coordinates":[[[2.21094,50.44149],[2.21057,50.44092],[2.20973,50.44081],[2.20937,50.44099],[2.20904,50.44167],[2.21085,50.44223],[2.21094,50.44149]]]}},{"type":"Feature","properties":{"k":"BTH","s":4.803},"geometry":{"type":"Polygon","coordinates":[[[2.20489,50.44082],[2.2054,50.44133],[2.20579,50.44071],[2.20631,50.44047],[2.20705,50.43964],[2.20606,50.43939],[2.20537,50.43995],[2.20449,50.43964],[2.20514,50.43913],[2.2031,50.43861],[2.20172,50.43952],[2.20489,50.44082]]]}},{"type":"Feature","properties":{"k":"BTA","s":0.073},"geometry":{"type":"Polygon","coordinates":[[[2.21504,50.44656],[2.21386,50.44635],[2.21445,50.44657],[2.215,50.4466],[2.21522,50.4468],[2.21504,50.44656]]]}},{"type":"Feature","properties":{"k":"PPH","s":0.009},"geometry":{"type":"MultiPolygon","coordinates":[[[[2.2134,50.44634],[2.214,50.44659],[2.21361,50.44639],[2.2134,50.44634]]]]}},{"type":"Feature","properties":{"k":"MIS","s":2.624},"geometry":{"type":"Polygon","coordinates":[[[2.21386,50.44635],[2.21504,50.44656],[2.21529,50.44675],[2.21575,50.44645],[2.21479,50.44559],[2.21272,50.44437],[2.21181,50.44485],[2.21386,50.44635]]]}},{"type":"Feature","properties":{"k":"LIF","s":8.354},"geometry":{"type":"Polygon","coordinates":[[[2.22083,50.41952],[2.22279,50.41787],[2.22117,50.41704],[2.22054,50.41762],[2.21607,50.41565],[2.21539,50.41665],[2.22083,50.41952]]]}},{"type":"Feature","properties":{"k":"PPH","s":1.972},"geometry":{"type":"Polygon","coordinates":[[[2.21228,50.44408],[2.21174,50.44407],[2.21177,50.44391],[2.21213,50.44393],[2.21168,50.44361],[2.21072,50.44376],[2.20845,50.44363],[2.20829,50.44381],[2.20967,50.44432],[2.21147,50.44475],[2.21228,50.44408]]]}},{"type":"Feature","properties":{"k":"JAC","s":0.208},"geometry":{"type":"Polygon","coordinates":[[[2.20961,50.44514],[2.2108,50.44534],[2.21146,50.44482],[2.21078,50.44529],[2.20988,50.44514],[2.20707,50.44418],[2.20961,50.44514]]]}},{"type":"Feature","properties":{"k":"BTH","s":2.141},"geometry":{"type":"Polygon","coordinates":[[[2.21078,50.44529],[2.21139,50.4448],[2.20754,50.44359],[2.20707,50.44418],[2.21078,50.44529]]]}},{"type":"Feature","properties":{"k":"BTH","s":1.286},"geometry":{"type":"Polygon","coordinates":[[[2.2097,50.44367],[2.20985,50.44278],[2.20832,50.4426],[2.20778,50.44355],[2.2097,50.44367]]]}},{"type":"Feature","properties":{"k":"BTA","s":0.442},"geometry":{"type":"Polygon","coordinates":[[[2.21272,50.44437],[2.21479,50.44559],[2.21241,50.44407],[2.21181,50.44485],[2.21272,50.44437]]]}},{"type":"Feature","properties":{"k":"PPH","s":3.473},"geometry":{"type":"Polygon","coordinates":[[[2.21453,50.44396],[2.21307,50.44344],[2.21241,50.44407],[2.21406,50.44504],[2.21575,50.44645],[2.21662,50.44586],[2.21453,50.44396]]]}},{"type":"Feature","properties":{"k":"PPH","s":0.175},"geometry":{"type":"Polygon","coordinates":[[[2.21542,50.44437],[2.21475,50.44396],[2.21417,50.4438],[2.21416,50.44381],[2.21532,50.44467],[2.21542,50.44437]]]}},{"type":"Feature","properties":{"k":"PPH","s":0.718},"geometry":{"type":"Polygon","coordinates":[[[2.21416,50.44381],[2.21489,50.44322],[2.21341,50.44268],[2.21327,50.44294],[2.21353,50.44287],[2.21347,50.44308],[2.21382,50.44326],[2.21341,50.44352],[2.21416,50.44381]]]}},{"type":"Feature","properties":{"k":"FLA","s":0.214},"geometry":{"type":"Polygon","coordinates":[[[2.21541,50.44338],[2.2157,50.44308],[2.21513,50.44279],[2.21482,50.44314],[2.21541,50.44338]]]}},{"type":"Feature","properties":{"k":"FLA","s":3.472},"geometry":{"type":"Polygon","coordinates":[[[2.21542,50.44437],[2.21532,50.44467],[2.21662,50.44585],[2.21828,50.44473],[2.2149,50.44322],[2.21417,50.4438],[2.21542,50.44437]]]}},{"type":"Feature","properties":{"k":"MIS","s":0.139},"geometry":{"type":"Polygon","coordinates":[[[2.21645,50.44353],[2.21628,50.44367],[2.21723,50.4441],[2.21738,50.44399],[2.21645,50.44353]]]}},{"type":"Feature","properties":{"k":"BTH","s":12.95},"geometry":{"type":"Polygon","coordinates":[[[2.22455,50.43856],[2.22184,50.43888],[2.22002,50.43848],[2.21919,50.43873],[2.21782,50.43849],[2.21711,50.43896],[2.22108,50.4407],[2.22283,50.44176],[2.22305,50.44159],[2.22323,50.44169],[2.22529,50.44001],[2.22575,50.44011],[2.22688,50.43903],[2.22455,50.43856]]]}},{"type":"Feature","properties":{"k":"MIS","s":0.162},"geometry":{"type":"Polygon","coordinates":[[[2.21734,50.44158],[2.21949,50.44246],[2.21742,50.44151],[2.21734,50.44158]]]}},{"type":"Feature","properties":{"k":"PHF","s":2.47},"geometry":{"type":"Polygon","coordinates":[[[2.2162,50.44297],[2.21772,50.44375],[2.2193,50.44259],[2.21743,50.44177],[2.2162,50.44297]]]}},{"type":"Feature","properties":{"k":"BTH","s":9.82},"geometry":{"type":"MultiPolygon","coordinates":[[[[2.22093,50.44071],[2.22152,50.44104],[2.22116,50.44082],[2.22093,50.44071]]],[[[2.21642,50.43876],[2.21539,50.43907],[2.21415,50.43923],[2.21382,50.43943],[2.21428,50.44026],[2.21949,50.44246],[2.21979,50.44223],[2.21929,50.44196],[2.22056,50.44053],[2.21642,50.43876]]]]}},{"type":"Feature","properties":{"k":"PPH","s":2.991},"geometry":{"type":"Polygon","coordinates":[[[2.21692,50.43754],[2.21656,50.43764],[2.21683,50.43799],[2.21738,50.43793],[2.21778,50.43807],[2.21994,50.43784],[2.22151,50.43737],[2.22099,50.43655],[2.21692,50.43754]]]}},{"type":"Feature","properties":{"k":"PPH","s":0.397},"geometry":{"type":"Polygon","coordinates":[[[2.21609,50.43702],[2.21655,50.43763],[2.21721,50.43747],[2.21681,50.43684],[2.21609,50.43702]]]}},{"type":"Feature","properties":{"k":"PPH","s":3.631},"geometry":{"type":"Polygon","coordinates":[[[2.21528,50.43739],[2.21552,50.43769],[2.21515,50.43781],[2.21517,50.43813],[2.2157,50.43822],[2.21642,50.43812],[2.21661,50.43807],[2.21615,50.43751],[2.2163,50.43742],[2.21606,50.43701],[2.21742,50.43668],[2.21509,50.43544],[2.21357,50.43679],[2.21538,50.43724],[2.21528,50.43739]]]}},{"type":"Feature","properties":{"k":"BTH","s":9.849},"geometry":{"type":"Polygon","coordinates":[[[2.22119,50.43575],[2.21681,50.43684],[2.21721,50.43747],[2.22348,50.43591],[2.22408,50.43664],[2.22573,50.43648],[2.22558,50.43619],[2.22798,50.43522],[2.22582,50.43384],[2.22119,50.43575]]]}},{"type":"Feature","properties":{"k":"PPH","s":1.776},"geometry":{"type":"Polygon","coordinates":[[[2.22307,50.43674],[2.2241,50.43671],[2.22347,50.43593],[2.22099,50.43655],[2.22155,50.43739],[2.22307,50.43674]]]}},{"type":"Feature","properties":{"k":"PPH","s":2.042},"geometry":{"type":"Polygon","coordinates":[[[2.22376,50.43681],[2.22311,50.43679],[2.2224,50.43715],[2.21999,50.43789],[2.21851,50.438],[2.21876,50.43842],[2.22164,50.43785],[2.22345,50.43713],[2.22689,50.43639],[2.22376,50.43681]]]}},{"type":"Feature","properties":{"k":"BTH","s":8.332},"geometry":{"type":"Polygon","coordinates":[[[2.22386,50.43454],[2.22452,50.43444],[2.22579,50.43383],[2.22298,50.43203],[2.2208,50.43138],[2.21938,50.43051],[2.21809,50.43122],[2.22386,50.43454]]]}},{"type":"Feature","properties":{"k":"MIS","s":3.823},"geometry":{"type":"Polygon","coordinates":[[[2.22505,50.43327],[2.22632,50.43108],[2.22497,50.43024],[2.22423,50.43089],[2.22381,50.43159],[2.22304,50.43197],[2.22505,50.43327]]]}},{"type":"Feature","properties":{"k":"LIF","s":1.156},"geometry":{"type":"Polygon","coordinates":[[[2.22554,50.4336],[2.2268,50.43138],[2.22632,50.43108],[2.22515,50.43335],[2.22554,50.4336]]]}},{"type":"Feature","properties":{"k":"BTH","s":3.329},"geometry":{"type":"Polygon","coordinates":[[[2.22691,50.43447],[2.22819,50.43229],[2.2268,50.43138],[2.22559,50.43361],[2.22691,50.43447]]]}},{"type":"Feature","properties":{"k":"BTH","s":2.597},"geometry":{"type":"Polygon","coordinates":[[[2.22153,50.42815],[2.2208,50.42857],[2.2217,50.42973],[2.22395,50.42818],[2.22184,50.42754],[2.22153,50.42815]]]}},{"type":"Feature","properties":{"k":"BTH","s":0.805},"geometry":{"type":"Polygon","coordinates":[[[2.22174,50.42981],[2.22215,50.42998],[2.22425,50.42863],[2.2238,50.4284],[2.22174,50.42981]]]}},{"type":"Feature","properties":{"k":"PPH","s":3.456},"geometry":{"type":"Polygon","coordinates":[[[2.22215,50.42998],[2.22174,50.42981],[2.22122,50.4301],[2.21966,50.43042],[2.22122,50.43145],[2.22293,50.43186],[2.2207,50.43088],[2.22149,50.43032],[2.22235,50.43068],[2.2249,50.42894],[2.2258,50.42941],[2.22594,50.4293],[2.22588,50.42888],[2.22414,50.42825],[2.2238,50.4284],[2.22425,50.42863],[2.22215,50.42998]]]}},{"type":"Feature","properties":{"k":"BTH","s":4.253},"geometry":{"type":"Polygon","coordinates":[[[2.2258,50.42941],[2.2249,50.42894],[2.22235,50.43068],[2.22149,50.43032],[2.2207,50.43088],[2.22304,50.43189],[2.2258,50.42941]]]}},{"type":"Feature","properties":{"k":"BTH","s":2.324},"geometry":{"type":"Polygon","coordinates":[[[2.2208,50.42857],[2.21982,50.42899],[2.21888,50.42898],[2.21961,50.43033],[2.22154,50.42985],[2.2217,50.42973],[2.2208,50.42857]]]}},{"type":"Feature","properties":{"k":"BTH","s":25.929},"geometry":{"type":"Polygon","coordinates":[[[2.20913,50.43374],[2.21168,50.4326],[2.21406,50.4308],[2.21377,50.43069],[2.21179,50.43202],[2.21051,50.43256],[2.2119,50.43175],[2.21404,50.43016],[2.21381,50.4299],[2.21715,50.42873],[2.22097,50.42665],[2.22133,50.42626],[2.22118,50.42601],[2.22224,50.42504],[2.22313,50.42328],[2.22225,50.42287],[2.22277,50.42227],[2.2222,50.4219],[2.22065,50.42372],[2.2118,50.43007],[2.20987,50.43178],[2.20817,50.43288],[2.20799,50.43337],[2.20913,50.43374]]]}},{"type":"Feature","properties":{"k":"PPH","s":1.232},"geometry":{"type":"Polygon","coordinates":[[[2.2141,50.43021],[2.21482,50.43063],[2.21632,50.42964],[2.21635,50.42904],[2.21528,50.42934],[2.2141,50.43021]]]}},{"type":"Feature","properties":{"k":"BTH","s":6.046},"geometry":{"type":"Polygon","coordinates":[[[2.21961,50.43033],[2.21888,50.42898],[2.21838,50.4289],[2.21802,50.42857],[2.21483,50.43111],[2.21628,50.43184],[2.21686,50.43151],[2.21831,50.43104],[2.21961,50.43033]]]}},{"type":"Feature","properties":{"k":"MIS","s":0.661},"geometry":{"type":"Polygon","coordinates":[[[2.21461,50.43176],[2.21564,50.4323],[2.21628,50.43185],[2.21517,50.43128],[2.21461,50.43176]]]}},{"type":"Feature","properties":{"k":"BTH","s":4.211},"geometry":{"type":"Polygon","coordinates":[[[2.22386,50.43467],[2.22359,50.43443],[2.21846,50.43145],[2.21806,50.43123],[2.21702,50.43152],[2.22309,50.43496],[2.22386,50.43467]]]}},{"type":"Feature","properties":{"k":"BTH","s":7.966},"geometry":{"type":"Polygon","coordinates":[[[2.2156,50.43241],[2.22124,50.4357],[2.22298,50.43497],[2.21702,50.43152],[2.2156,50.43241]]]}},{"type":"Feature","properties":{"k":"CZH","s":9.367},"geometry":{"type":"Polygon","coordinates":[[[2.21388,50.43372],[2.21835,50.43641],[2.22118,50.43568],[2.2156,50.43241],[2.21388,50.43372]]]}},{"type":"Feature","properties":{"k":"LIF","s":5.445},"geometry":{"type":"Polygon","coordinates":[[[2.21239,50.43447],[2.21179,50.43461],[2.21343,50.43583],[2.21378,50.43601],[2.21411,50.43572],[2.21445,50.4359],[2.21505,50.43536],[2.21737,50.43667],[2.21836,50.43642],[2.21388,50.43372],[2.21239,50.43447]]]}},{"type":"Feature","properties":{"k":"BTH","s":3.45},"geometry":{"type":"Polygon","coordinates":[[[2.21437,50.43177],[2.21335,50.43277],[2.21304,50.43247],[2.21181,50.43349],[2.21169,50.43449],[2.2123,50.43441],[2.21393,50.43355],[2.21546,50.43242],[2.21437,50.43177]]]}},{"type":"Feature","properties":{"k":"MIS","s":2.052},"geometry":{"type":"Polygon","coordinates":[[[2.20932,50.4339],[2.21233,50.43262],[2.2125,50.43272],[2.21391,50.43161],[2.21479,50.43065],[2.21408,50.43025],[2.21367,50.4306],[2.21411,50.43081],[2.21202,50.43244],[2.20914,50.43376],[2.208,50.4334],[2.20798,50.43361],[2.20932,50.4339]]]}},{"type":"Feature","properties":{"k":"PPH","s":3.001},"geometry":{"type":"Polygon","coordinates":[[[2.21153,50.43454],[2.21172,50.43346],[2.2125,50.43272],[2.21233,50.43262],[2.20936,50.43391],[2.20869,50.43413],[2.20796,50.43391],[2.2077,50.43425],[2.20872,50.43459],[2.20931,50.43426],[2.21105,50.43514],[2.21153,50.43454]]]}},{"type":"Feature","properties":{"k":"MIS","s":0.291},"geometry":{"type":"Polygon","coordinates":[[[2.20704,50.43507],[2.20753,50.43544],[2.20787,50.43514],[2.20739,50.43465],[2.20704,50.43507]]]}},{"type":"Feature","properties":{"k":"BTH","s":7.723},"geometry":{"type":"Polygon","coordinates":[[[2.20633,50.43498],[2.20679,50.43523],[2.20774,50.43404],[2.20786,50.43358],[2.20399,50.43195],[2.20331,50.43332],[2.20438,50.43389],[2.20334,50.43484],[2.20496,50.43545],[2.20567,50.43556],[2.20633,50.43498]]]}},{"type":"Feature","properties":{"k":"BOR","s":0.045},"geometry":{"type":"Polygon","coordinates":[[[2.20677,50.43526],[2.20633,50.43498],[2.20566,50.43558],[2.20633,50.43503],[2.20677,50.43526]]]}},{"type":"Feature","properties":{"k":"BTH","s":0.976},"geometry":{"type":"Polygon","coordinates":[[[2.20432,50.4313],[2.20427,50.43127],[2.20239,50.43284],[2.20331,50.43332],[2.20432,50.4313]]]}},{"type":"Feature","properties":{"k":"BTN","s":3.577},"geometry":{"type":"Polygon","coordinates":[[[2.20399,50.43195],[2.20786,50.43358],[2.20797,50.43296],[2.20846,50.43256],[2.20455,50.43104],[2.20399,50.43195]]]}},{"type":"Feature","properties":{"k":"PHF","s":4.64},"geometry":{"type":"Polygon","coordinates":[[[2.20983,50.43171],[2.20576,50.43002],[2.20455,50.43104],[2.20846,50.43256],[2.20983,50.43171]]]}},{"type":"Feature","properties":{"k":"MIS","s":2.378},"geometry":{"type":"MultiPolygon","coordinates":[[[[2.21091,50.43076],[2.20755,50.43038],[2.20669,50.42995],[2.20569,50.4297],[2.20569,50.42949],[2.20564,50.42964],[2.2057,50.42984],[2.2059,50.42991],[2.20576,50.43002],[2.20983,50.43171],[2.21091,50.43076]]],[[[2.20567,50.42883],[2.20573,50.42936],[2.20587,50.42913],[2.20567,50.42883]]]]}},{"type":"Feature","properties":{"k":"LIF","s":9.856},"geometry":{"type":"Polygon","coordinates":[[[2.21144,50.42191],[2.21141,50.42752],[2.21587,50.42427],[2.21144,50.42191]]]}},{"type":"Feature","properties":{"k":"BTH","s":4.027},"geometry":{"type":"Polygon","coordinates":[[[2.21127,50.42317],[2.20961,50.42515],[2.21006,50.42709],[2.21129,50.42754],[2.21127,50.42317]]]}},{"type":"Feature","properties":{"k":"PPH","s":3.62},"geometry":{"type":"Polygon","coordinates":[[[2.20927,50.42439],[2.20833,50.42463],[2.20789,50.42497],[2.2079,50.42521],[2.209,50.42601],[2.20871,50.42689],[2.21138,50.42788],[2.21129,50.42754],[2.21006,50.42709],[2.20961,50.42515],[2.21088,50.4235],[2.21051,50.42341],[2.20927,50.42439]]]}},{"type":"Feature","properties":{"k":"JAC","s":0.102},"geometry":{"type":"MultiPolygon","coordinates":[[[[2.20393,50.42444],[2.20312,50.42567],[2.20364,50.42494],[2.20393,50.42444]]],[[[2.20573,50.42278],[2.2041,50.42428],[2.20579,50.42282],[2.20573,50.42278]]]]}},{"type":"Feature","properties":{"k":"PPH","s":0.002},"geometry":{"type":"Polygon","coordinates":[[[2.20554,50.42225],[2.20552,50.42232],[2.20565,50.42215],[2.20554,50.42225]]]}},{"type":"Feature","properties":{"k":"PPH","s":2.171},"geometry":{"type":"Polygon","coordinates":[[[2.2112,50.42225],[2.21146,50.42158],[2.21007,50.42149],[2.20932,50.42273],[2.2109,50.42346],[2.21124,50.42311],[2.2112,50.42225]]]}},{"type":"Feature","properties":{"k":"BTH","s":11.477},"geometry":{"type":"Polygon","coordinates":[[[2.21144,50.42191],[2.21588,50.42427],[2.21828,50.42256],[2.21299,50.41973],[2.21144,50.42191]]]}},{"type":"Feature","properties":{"k":"PTC","s":6.542},"geometry":{"type":"Polygon","coordinates":[[[2.21299,50.41973],[2.21827,50.42254],[2.21917,50.42142],[2.21593,50.4197],[2.21354,50.41881],[2.21299,50.41973]]]}},{"type":"Feature","properties":{"k":"CZH","s":23.234},"geometry":{"type":"Polygon","coordinates":[[[2.21187,50.42936],[2.2118,50.43007],[2.22093,50.42341],[2.22231,50.42177],[2.22017,50.42036],[2.21828,50.42256],[2.21141,50.42753],[2.21187,50.42936]]]}},{"type":"Feature","properties":{"k":"BTH","s":6.752},"geometry":{"type":"Polygon","coordinates":[[[2.22708,50.42689],[2.22861,50.42612],[2.22347,50.42467],[2.22289,50.42557],[2.22247,50.42551],[2.22218,50.42624],[2.22594,50.42721],[2.22708,50.42689]]]}},{"type":"Feature","properties":{"k":"PPH","s":7.195},"geometry":{"type":"Polygon","coordinates":[[[2.22515,50.42348],[2.22476,50.42399],[2.22755,50.42475],[2.22914,50.42242],[2.226,50.42145],[2.22443,50.42328],[2.22515,50.42348]]]}},{"type":"Feature","properties":{"k":"CZH","s":0.087},"geometry":{"type":"Polygon","coordinates":[[[2.22277,50.42207],[2.22231,50.42177],[2.2222,50.4219],[2.22277,50.42227],[2.22277,50.42207]]]}},{"type":"Feature","properties":{"k":"BTH","s":0.16},"geometry":{"type":"Polygon","coordinates":[[[2.22288,50.42221],[2.2232,50.42259],[2.22405,50.42296],[2.22412,50.42287],[2.22288,50.42221]]]}},{"type":"Feature","properties":{"k":"PPH","s":0.105},"geometry":{"type":"Polygon","coordinates":[[[2.22891,50.43644],[2.22805,50.43659],[2.22804,50.43679],[2.22875,50.43664],[2.22891,50.43644]]]}},{"type":"Feature","properties":{"k":"MIS","s":4.66},"geometry":{"type":"Polygon","coordinates":[[[2.22522,50.42168],[2.22114,50.41933],[2.22015,50.42014],[2.22439,50.42263],[2.22522,50.42168]]]}},{"type":"Feature","properties":{"k":"BTH","s":2.725},"geometry":{"type":"Polygon","coordinates":[[[2.22572,50.42113],[2.22177,50.41881],[2.22114,50.41933],[2.22522,50.42168],[2.22572,50.42113]]]}},{"type":"Feature","properties":{"k":"PPH","s":1.197},"geometry":{"type":"Polygon","coordinates":[[[2.22825,50.42029],[2.22838,50.42022],[2.22698,50.42011],[2.22568,50.42131],[2.22635,50.42146],[2.22825,50.42029]]]}},{"type":"Feature","properties":{"k":"MIS","s":9.491},"geometry":{"type":"Polygon","coordinates":[[[2.23021,50.42366],[2.23259,50.42486],[2.23318,50.42453],[2.2335,50.42477],[2.23575,50.4235],[2.23051,50.42078],[2.23021,50.42366]]]}},{"type":"Feature","properties":{"k":"BTH","s":3.467},"geometry":{"type":"Polygon","coordinates":[[[2.2298,50.42537],[2.23005,50.42278],[2.22914,50.42242],[2.22755,50.42475],[2.2298,50.42537]]]}},{"type":"Feature","properties":{"k":"ORH","s":10.462},"geometry":{"type":"Polygon","coordinates":[[[2.22998,50.42448],[2.22973,50.42625],[2.22872,50.42659],[2.23065,50.42781],[2.23202,50.42665],[2.23008,50.42849],[2.22772,50.42998],[2.22904,50.43083],[2.22939,50.43004],[2.23378,50.42698],[2.2314,50.42512],[2.23047,50.42461],[2.23038,50.42469],[2.22998,50.42448]]]}},{"type":"Feature","properties":{"k":"CZH","s":2.608},"geometry":{"type":"Polygon","coordinates":[[[2.23011,50.4243],[2.23141,50.42496],[2.23388,50.42683],[2.23432,50.42645],[2.23259,50.42487],[2.2302,50.42367],[2.23011,50.4243]]]}},{"type":"Feature","properties":{"k":"BTH","s":3.22},"geometry":{"type":"Polygon","coordinates":[[[2.23601,50.42534],[2.235,50.42406],[2.23348,50.42481],[2.23317,50.42457],[2.23262,50.42491],[2.23434,50.42644],[2.23601,50.42534]]]}},{"type":"Feature","properties":{"k":"MIS","s":2.466},"geometry":{"type":"Polygon","coordinates":[[[2.23775,50.42653],[2.2397,50.42744],[2.24125,50.42658],[2.23956,50.42573],[2.23775,50.42653]]]}},{"type":"Feature","properties":{"k":"MIS","s":1.502},"geometry":{"type":"Polygon","coordinates":[[[2.23939,50.42403],[2.24066,50.42296],[2.24015,50.42269],[2.23976,50.42217],[2.23838,50.42363],[2.23939,50.42403]]]}},{"type":"Feature","properties":{"k":"MIS","s":5.774},"geometry":{"type":"Polygon","coordinates":[[[2.23502,50.42401],[2.23604,50.4253],[2.23847,50.4237],[2.23976,50.42217],[2.23877,50.42148],[2.23502,50.42401]]]}},{"type":"Feature","properties":{"k":"BTH","s":2.997},"geometry":{"type":"Polygon","coordinates":[[[2.23578,50.4235],[2.23882,50.42144],[2.23788,50.42086],[2.2348,50.42299],[2.23578,50.4235]]]}},{"type":"Feature","properties":{"k":"CZH","s":0.017},"geometry":{"type":"Polygon","coordinates":[[[2.23675,50.42068],[2.235,50.42186],[2.23563,50.42145],[2.23675,50.42068]]]}},{"type":"Feature","properties":{"k":"BTH","s":2.84},"geometry":{"type":"Polygon","coordinates":[[[2.24249,50.43068],[2.24274,50.43072],[2.24342,50.43024],[2.23944,50.42809],[2.23866,50.42858],[2.24249,50.43068]]]}},{"type":"Feature","properties":{"k":"MIS","s":0.75},"geometry":{"type":"Polygon","coordinates":[[[2.24245,50.43098],[2.23955,50.42937],[2.23931,50.42956],[2.2423,50.43113],[2.24245,50.43098]]]}},{"type":"Feature","properties":{"k":"BTH","s":0.0},"geometry":{"type":"Polygon","coordinates":[]}},{"type":"Feature","properties":{"k":"MIS","s":4.77},"geometry":{"type":"Polygon","coordinates":[[[2.23522,50.43036],[2.23383,50.43358],[2.23626,50.43306],[2.23729,50.43104],[2.23522,50.43036]]]}},{"type":"Feature","properties":{"k":"BTH","s":3.447},"geometry":{"type":"Polygon","coordinates":[[[2.2378,50.43517],[2.23899,50.4329],[2.23985,50.43191],[2.23799,50.4326],[2.2365,50.43454],[2.23581,50.43493],[2.2378,50.43517]]]}},{"type":"Feature","properties":{"k":"LIF","s":6.977},"geometry":{"type":"Polygon","coordinates":[[[2.23894,50.43206],[2.2422,50.43118],[2.23931,50.42956],[2.23962,50.42915],[2.23729,50.43104],[2.23626,50.43306],[2.23894,50.43206]]]}},{"type":"Feature","properties":{"k":"BTH","s":6.055},"geometry":{"type":"Polygon","coordinates":[[[2.23592,50.42937],[2.2354,50.43026],[2.23741,50.43095],[2.23962,50.42915],[2.23802,50.42825],[2.23947,50.42734],[2.23881,50.42708],[2.23731,50.42808],[2.23592,50.42937]]]}},{"type":"Feature","properties":{"k":"MIS","s":1.0},"geometry":{"type":"Polygon","coordinates":[[[2.23696,50.42793],[2.23714,50.42803],[2.23585,50.42922],[2.23522,50.43036],[2.2373,50.43105],[2.23741,50.43095],[2.2354,50.43026],[2.23657,50.42871],[2.23881,50.42708],[2.23843,50.42693],[2.23696,50.42793]]]}},{"type":"Feature","properties":{"k":"BTH","s":14.126},"geometry":{"type":"Polygon","coordinates":[[[2.23178,50.43127],[2.23161,50.43246],[2.2298,50.43509],[2.22976,50.43531],[2.22997,50.43538],[2.23151,50.43429],[2.23299,50.43374],[2.23423,50.43085],[2.23496,50.43098],[2.23585,50.42922],[2.23709,50.42803],[2.23691,50.42789],[2.23841,50.42691],[2.23775,50.42653],[2.23532,50.42763],[2.23265,50.42973],[2.23178,50.43127]]]}},{"type":"Feature","properties":{"k":"CZH","s":20.559},"geometry":{"type":"Polygon","coordinates":[[[2.23167,50.43085],[2.23245,50.42963],[2.23359,50.42865],[2.23646,50.42696],[2.23577,50.42626],[2.23837,50.42506],[2.23932,50.42423],[2.23936,50.42406],[2.23847,50.4237],[2.23496,50.42609],[2.23195,50.42849],[2.2295,50.43005],[2.22701,50.43451],[2.22876,50.43562],[2.22985,50.43415],[2.23054,50.43364],[2.2306,50.43326],[2.23106,50.43299],[2.23167,50.43085]]]}},{"type":"Feature","properties":{"k":"BTH","s":11.6},"geometry":{"type":"Polygon","coordinates":[[[2.22682,50.42808],[2.22623,50.42876],[2.22601,50.42938],[2.22497,50.43024],[2.22819,50.43229],[2.22904,50.43083],[2.22766,50.42994],[2.23007,50.42843],[2.23065,50.42781],[2.22872,50.42659],[2.22833,50.42652],[2.22706,50.427],[2.22682,50.42808]]]}},{"type":"Feature","properties":{"k":"BTH","s":5.428},"geometry":{"type":"Polygon","coordinates":[[[2.23291,50.43383],[2.2318,50.43424],[2.23077,50.43498],[2.23077,50.43522],[2.23119,50.43517],[2.23073,50.43533],[2.23097,50.43562],[2.23266,50.43487],[2.23424,50.43456],[2.23573,50.43484],[2.23593,50.43476],[2.23646,50.43442],[2.23723,50.43338],[2.2362,50.43318],[2.23291,50.43383]]]}},{"type":"Feature","properties":{"k":"BTH","s":0.714},"geometry":{"type":"Polygon","coordinates":[[[2.22965,50.43527],[2.23095,50.43348],[2.231,50.43316],[2.23072,50.43329],[2.23068,50.43362],[2.22994,50.43414],[2.22893,50.43567],[2.22965,50.43527]]]}},{"type":"Feature","properties":{"k":"BTH","s":1.828},"geometry":{"type":"Polygon","coordinates":[[[2.23086,50.43593],[2.23113,50.43618],[2.233,50.43485],[2.23102,50.43571],[2.23062,50.43532],[2.22807,50.43608],[2.22805,50.43659],[2.23086,50.43593]]]}},{"type":"Feature","properties":{"k":"BTN","s":11.444},"geometry":{"type":"Polygon","coordinates":[[[2.23424,50.43456],[2.2332,50.43484],[2.23114,50.43624],[2.23086,50.436],[2.22909,50.43638],[2.22882,50.43667],[2.22712,50.43699],[2.22226,50.43866],[2.22463,50.4385],[2.22638,50.43886],[2.22794,50.4382],[2.23043,50.4376],[2.23564,50.43488],[2.23424,50.43456]]]}},{"type":"Feature","properties":{"k":"PPH","s":0.757},"geometry":{"type":"Polygon","coordinates":[[[2.21205,50.44502],[2.21136,50.44529],[2.21134,50.44555],[2.21215,50.44562],[2.21276,50.44603],[2.21364,50.44624],[2.21205,50.44502]]]}}]}