{"type":"FeatureCollection","features":[{"type":"Feature","properties":{"k":"BTN","s":0.026},"geometry":{"type":"MultiPolygon","coordinates":[[[[2.86721,50.13488],[2.8676,50.13566],[2.86765,50.13565],[2.86721,50.13488]]],[[[2.86773,50.13434],[2.86794,50.13433],[2.86782,50.13407],[2.86773,50.13434]]]]}},{"type":"Feature","properties":{"k":"BTH","s":4.064},"geometry":{"type":"Polygon","coordinates":[[[2.85141,50.12499],[2.84928,50.12501],[2.84893,50.12672],[2.85185,50.12669],[2.85272,50.12653],[2.85141,50.12499]]]}},{"type":"Feature","properties":{"k":"BTH","s":3.896},"geometry":{"type":"Polygon","coordinates":[[[2.8706,50.11749],[2.86694,50.11901],[2.86743,50.12015],[2.86759,50.12019],[2.87062,50.11893],[2.8706,50.11749]]]}},{"type":"Feature","properties":{"k":"PTC","s":14.814},"geometry":{"type":"Polygon","coordinates":[[[2.86488,50.12206],[2.86568,50.12313],[2.86755,50.12169],[2.86668,50.11898],[2.86416,50.11588],[2.86259,50.11644],[2.8645,50.12218],[2.86488,50.12206]]]}},{"type":"Feature","properties":{"k":"BTH","s":27.05},"geometry":{"type":"Polygon","coordinates":[[[2.85748,50.12072],[2.85717,50.12168],[2.85853,50.12162],[2.85864,50.12216],[2.86123,50.12203],[2.86135,50.12241],[2.86162,50.12253],[2.86269,50.12265],[2.86317,50.12424],[2.86405,50.12408],[2.86488,50.12373],[2.86535,50.1234],[2.86449,50.12218],[2.86259,50.11644],[2.85732,50.11836],[2.85748,50.12072]]]}},{"type":"Feature","properties":{"k":"BTH","s":6.103},"geometry":{"type":"Polygon","coordinates":[[[2.86755,50.12525],[2.86864,50.12524],[2.86918,50.12487],[2.8679,50.12426],[2.86892,50.12348],[2.86833,50.12316],[2.86828,50.12281],[2.8676,50.12196],[2.86695,50.1223],[2.86484,50.12432],[2.86755,50.12525]]]}},{"type":"Feature","properties":{"k":"PTC","s":5.254},"geometry":{"type":"Polygon","coordinates":[[[2.86102,50.12553],[2.86106,50.12539],[2.86491,50.12579],[2.86546,50.1246],[2.86432,50.12435],[2.86182,50.12443],[2.86121,50.12404],[2.86118,50.12469],[2.85912,50.12468],[2.85907,50.12534],[2.86102,50.12553]]]}},{"type":"Feature","properties":{"k":"PTC","s":0.388},"geometry":{"type":"Polygon","coordinates":[[[2.8608,50.1264],[2.86126,50.12647],[2.8615,50.12544],[2.86106,50.12539],[2.8608,50.1264]]]}},{"type":"Feature","properties":{"k":"PTC","s":0.576},"geometry":{"type":"Polygon","coordinates":[[[2.86126,50.12646],[2.86188,50.12654],[2.86217,50.12551],[2.8615,50.12544],[2.86126,50.12646]]]}},{"type":"Feature","properties":{"k":"BTN","s":0.481},"geometry":{"type":"Polygon","coordinates":[[[2.86104,50.12746],[2.86099,50.12848],[2.86132,50.12847],[2.86133,50.12653],[2.86103,50.12649],[2.86104,50.12746]]]}},{"type":"Feature","properties":{"k":"BTN","s":3.475},"geometry":{"type":"Polygon","coordinates":[[[2.86134,50.12846],[2.86389,50.12831],[2.86394,50.12683],[2.86134,50.12653],[2.86134,50.12846]]]}},{"type":"Feature","properties":{"k":"BTN","s":0.704},"geometry":{"type":"Polygon","coordinates":[[[2.86389,50.12831],[2.86449,50.12828],[2.86455,50.12684],[2.86394,50.12683],[2.86389,50.12831]]]}},{"type":"Feature","properties":{"k":"OEI","s":2.415},"geometry":{"type":"Polygon","coordinates":[[[2.86706,50.12813],[2.86705,50.12728],[2.86455,50.12684],[2.86449,50.12828],[2.86706,50.12813]]]}},{"type":"Feature","properties":{"k":"CZH","s":5.182},"geometry":{"type":"Polygon","coordinates":[[[2.86195,50.12651],[2.86347,50.12649],[2.86344,50.12675],[2.86528,50.12683],[2.86696,50.12722],[2.86786,50.12548],[2.86668,50.12502],[2.86625,50.12593],[2.86217,50.12551],[2.86195,50.12651]]]}},{"type":"Feature","properties":{"k":"PTC","s":1.193},"geometry":{"type":"Polygon","coordinates":[[[2.86625,50.12593],[2.86668,50.12501],[2.86547,50.12459],[2.86491,50.12579],[2.86625,50.12593]]]}},{"type":"Feature","properties":{"k":"MIS","s":1.665},"geometry":{"type":"Polygon","coordinates":[[[2.86924,50.12323],[2.86991,50.12273],[2.86912,50.12141],[2.8698,50.12094],[2.86795,50.1218],[2.86924,50.12323]]]}},{"type":"Feature","properties":{"k":"CZH","s":4.858},"geometry":{"type":"Polygon","coordinates":[[[2.87199,50.11721],[2.87451,50.11843],[2.87404,50.11805],[2.87552,50.11697],[2.8724,50.11498],[2.87204,50.11519],[2.87199,50.11721]]]}},{"type":"Feature","properties":{"k":"BTH","s":0.025},"geometry":{"type":"Polygon","coordinates":[[[2.87552,50.11697],[2.8746,50.11764],[2.87588,50.11675],[2.87552,50.11697]]]}},{"type":"Feature","properties":{"k":"LIF","s":0.018},"geometry":{"type":"Polygon","coordinates":[[[2.87654,50.11629],[2.87654,50.11622],[2.87615,50.11651],[2.87654,50.11629]]]}},{"type":"Feature","properties":{"k":"MLC","s":2.147},"geometry":{"type":"Polygon","coordinates":[[[2.87204,50.11475],[2.87552,50.11697],[2.87619,50.11653],[2.87603,50.11659],[2.87208,50.11404],[2.87204,50.11475]]]}},{"type":"Feature","properties":{"k":"BTH","s":3.876},"geometry":{"type":"Polygon","coordinates":[[[2.87604,50.11658],[2.87654,50.11619],[2.87654,50.11575],[2.87209,50.11291],[2.87216,50.11405],[2.87604,50.11658]]]}},{"type":"Feature","properties":{"k":"BTH","s":4.454},"geometry":{"type":"Polygon","coordinates":[[[2.87507,50.11251],[2.87358,50.11372],[2.87654,50.11565],[2.87627,50.11536],[2.87654,50.11534],[2.87758,50.1144],[2.87507,50.11251]]]}},{"type":"Feature","properties":{"k":"MLC","s":3.189},"geometry":{"type":"Polygon","coordinates":[[[2.87355,50.11374],[2.87507,50.11251],[2.87352,50.11125],[2.87215,50.11232],[2.87225,50.11294],[2.87355,50.11374]]]}},{"type":"Feature","properties":{"k":"BTH","s":1.196},"geometry":{"type":"Polygon","coordinates":[[[2.86689,50.12929],[2.86669,50.13094],[2.86713,50.13095],[2.86743,50.13027],[2.86724,50.13022],[2.86777,50.12941],[2.86779,50.12921],[2.86706,50.12904],[2.86836,50.12667],[2.86814,50.12665],[2.86689,50.12929]]]}},{"type":"Feature","properties":{"k":"BTH","s":19.605},"geometry":{"type":"Polygon","coordinates":[[[2.86076,50.1285],[2.86044,50.1305],[2.86115,50.13116],[2.86153,50.13227],[2.86693,50.13199],[2.86668,50.13093],[2.86688,50.12921],[2.86816,50.12662],[2.86772,50.12651],[2.8683,50.12565],[2.86786,50.12548],[2.86701,50.1272],[2.86707,50.12813],[2.86076,50.1285]]]}},{"type":"Feature","properties":{"k":"BTH","s":5.44},"geometry":{"type":"Polygon","coordinates":[[[2.86176,50.13335],[2.86239,50.13354],[2.86591,50.13335],[2.86607,50.13328],[2.86602,50.13291],[2.86631,50.13276],[2.86653,50.13277],[2.86661,50.13335],[2.86742,50.1333],[2.86693,50.132],[2.86157,50.13227],[2.86176,50.13335]]]}},{"type":"Feature","properties":{"k":"BTH","s":3.716},"geometry":{"type":"Polygon","coordinates":[[[2.86803,50.12176],[2.87044,50.1205],[2.87027,50.12038],[2.87062,50.12018],[2.87062,50.11893],[2.8676,50.12021],[2.86803,50.12176]]]}},{"type":"Feature","properties":{"k":"BTH","s":2.306},"geometry":{"type":"Polygon","coordinates":[[[2.86547,50.13341],[2.86175,50.13361],[2.86196,50.13415],[2.86763,50.13377],[2.86743,50.13331],[2.86547,50.13341]]]}},{"type":"Feature","properties":{"k":"BTH","s":11.796},"geometry":{"type":"Polygon","coordinates":[[[2.86673,50.13684],[2.86687,50.13632],[2.86726,50.13631],[2.86732,50.1369],[2.86801,50.13686],[2.86795,50.13632],[2.86693,50.13438],[2.86787,50.13432],[2.86763,50.13377],[2.86196,50.13415],[2.86266,50.13587],[2.86331,50.13681],[2.86372,50.13703],[2.86673,50.13684]]]}},{"type":"Feature","properties":{"k":"JAC","s":0.081},"geometry":{"type":"Polygon","coordinates":[[[2.86198,50.13505],[2.86207,50.13461],[2.86168,50.13491],[2.86198,50.13505]]]}},{"type":"Feature","properties":{"k":"PTC","s":8.392},"geometry":{"type":"Polygon","coordinates":[[[2.86058,50.14075],[2.86411,50.13809],[2.86285,50.1363],[2.8586,50.13958],[2.86058,50.14075]]]}},{"type":"Feature","properties":{"k":"PTC","s":1.908},"geometry":{"type":"Polygon","coordinates":[[[2.86413,50.13807],[2.86058,50.14075],[2.86109,50.14105],[2.86438,50.13859],[2.86413,50.13807]]]}},{"type":"Feature","properties":{"k":"BTN","s":1.12},"geometry":{"type":"Polygon","coordinates":[[[2.86442,50.13848],[2.86491,50.13968],[2.86644,50.13853],[2.86634,50.13838],[2.86442,50.13848]]]}},{"type":"Feature","properties":{"k":"BTH","s":2.607},"geometry":{"type":"Polygon","coordinates":[[[2.86442,50.13848],[2.8683,50.13816],[2.8682,50.13751],[2.8639,50.13766],[2.86442,50.13848]]]}},{"type":"Feature","properties":{"k":"LIF","s":1.986},"geometry":{"type":"Polygon","coordinates":[[[2.8639,50.13767],[2.86806,50.13742],[2.86801,50.13686],[2.86351,50.1371],[2.8639,50.13767]]]}},{"type":"Feature","properties":{"k":"LBF","s":0.033},"geometry":{"type":"Polygon","coordinates":[[[2.86803,50.13632],[2.8676,50.13566],[2.86768,50.1358],[2.86803,50.13632]]]}},{"type":"Feature","properties":{"k":"BTN","s":0.096},"geometry":{"type":"Polygon","coordinates":[[[2.86806,50.1374],[2.8682,50.13746],[2.86805,50.13636],[2.86806,50.1374]]]}},{"type":"Feature","properties":{"k":"PHF","s":4.482},"geometry":{"type":"Polygon","coordinates":[[[2.8618,50.1413],[2.86235,50.14096],[2.8627,50.1412],[2.86212,50.14172],[2.86242,50.14216],[2.86513,50.14007],[2.86468,50.13954],[2.86438,50.13859],[2.86109,50.14105],[2.8618,50.1413]]]}},{"type":"Feature","properties":{"k":"BTN","s":0.075},"geometry":{"type":"Polygon","coordinates":[[[2.86018,50.14311],[2.86021,50.14313],[2.86185,50.14185],[2.86218,50.14203],[2.86184,50.14181],[2.86018,50.14311]]]}},{"type":"Feature","properties":{"k":"BTN","s":0.034},"geometry":{"type":"Polygon","coordinates":[[[2.85999,50.14303],[2.85877,50.14263],[2.86018,50.14311],[2.85999,50.14303]]]}},{"type":"Feature","properties":{"k":"PTR","s":0.01},"geometry":{"type":"Polygon","coordinates":[[[2.85811,50.14244],[2.85876,50.14266],[2.85878,50.14263],[2.85811,50.14244]]]}},{"type":"Feature","properties":{"k":"BTH","s":12.01},"geometry":{"type":"Polygon","coordinates":[[[2.8602,50.1431],[2.86204,50.14166],[2.85594,50.13792],[2.85542,50.14026],[2.85566,50.14109],[2.85838,50.14181],[2.85811,50.14244],[2.8602,50.1431]]]}},{"type":"Feature","properties":{"k":"BTH","s":4.33},"geometry":{"type":"Polygon","coordinates":[[[2.86237,50.1354],[2.85784,50.13901],[2.85866,50.13954],[2.86286,50.13629],[2.86237,50.1354]]]}},{"type":"Feature","properties":{"k":"CZH","s":3.581},"geometry":{"type":"Polygon","coordinates":[[[2.85809,50.13749],[2.85875,50.13827],[2.86237,50.13539],[2.86222,50.13498],[2.86156,50.1355],[2.86113,50.13533],[2.86207,50.13461],[2.86201,50.13445],[2.85809,50.13749]]]}},{"type":"Feature","properties":{"k":"BTH","s":3.733},"geometry":{"type":"Polygon","coordinates":[[[2.85607,50.13771],[2.85778,50.13899],[2.85873,50.13825],[2.85612,50.13521],[2.85607,50.13771]]]}},{"type":"Feature","properties":{"k":"BTH","s":7.007},"geometry":{"type":"Polygon","coordinates":[[[2.85573,50.13827],[2.85133,50.13865],[2.85037,50.13963],[2.85288,50.14079],[2.85299,50.1406],[2.85348,50.14069],[2.85377,50.14017],[2.85525,50.14054],[2.85573,50.13827]]]}},{"type":"Feature","properties":{"k":"BTH","s":5.235},"geometry":{"type":"Polygon","coordinates":[[[2.85575,50.13827],[2.85598,50.13573],[2.85307,50.13722],[2.85133,50.13865],[2.85575,50.13827]]]}},{"type":"Feature","properties":{"k":"BTH","s":2.286},"geometry":{"type":"Polygon","coordinates":[[[2.85429,50.13647],[2.85266,50.13521],[2.85133,50.13594],[2.85287,50.13716],[2.85429,50.13647]]]}},{"type":"Feature","properties":{"k":"BTN","s":0.618},"geometry":{"type":"Polygon","coordinates":[[[2.85279,50.1372],[2.85152,50.13618],[2.85113,50.13645],[2.85253,50.13754],[2.85279,50.1372]]]}},{"type":"Feature","properties":{"k":"BTH","s":0.065},"geometry":{"type":"Polygon","coordinates":[[[2.85143,50.13605],[2.85092,50.13629],[2.85109,50.13642],[2.85152,50.13612],[2.85143,50.13605]]]}},{"type":"Feature","properties":{"k":"MIS","s":0.003},"geometry":{"type":"MultiPolygon","coordinates":[[[[2.84366,50.12858],[2.8435,50.12863],[2.84385,50.12856],[2.84366,50.12858]]]]}},{"type":"Feature","properties":{"k":"PTC","s":0.003},"geometry":{"type":"MultiPolygon","coordinates":[[[[2.84695,50.13044],[2.84736,50.13069],[2.84708,50.13051],[2.84695,50.13044]]]]}},{"type":"Feature","properties":{"k":"BTN","s":6.447},"geometry":{"type":"Polygon","coordinates":[[[2.84851,50.1314],[2.85014,50.13304],[2.85138,50.13286],[2.84584,50.12788],[2.84447,50.12852],[2.84405,50.12855],[2.84851,50.1314]]]}},{"type":"Feature","properties":{"k":"BTN","s":2.047},"geometry":{"type":"Polygon","coordinates":[[[2.84909,50.13039],[2.8467,50.12744],[2.84584,50.12788],[2.8494,50.13109],[2.84909,50.13039]]]}},{"type":"Feature","properties":{"k":"PHF","s":8.967},"geometry":{"type":"Polygon","coordinates":[[[2.85138,50.13286],[2.85282,50.13268],[2.84844,50.12696],[2.84814,50.12697],[2.8467,50.12744],[2.84909,50.13039],[2.8494,50.13109],[2.85138,50.13286]]]}},{"type":"Feature","properties":{"k":"PHF","s":6.354},"geometry":{"type":"Polygon","coordinates":[[[2.85062,50.12681],[2.85477,50.13242],[2.85603,50.13217],[2.85221,50.12676],[2.85062,50.12681]]]}},{"type":"Feature","properties":{"k":"BTN","s":4.501},"geometry":{"type":"Polygon","coordinates":[[[2.85491,50.1324],[2.85636,50.13216],[2.85661,50.13092],[2.85582,50.13103],[2.85359,50.12657],[2.85221,50.12676],[2.85603,50.13217],[2.85491,50.1324]]]}},{"type":"Feature","properties":{"k":"BTH","s":10.602},"geometry":{"type":"Polygon","coordinates":[[[2.85282,50.13268],[2.85389,50.13253],[2.85436,50.13248],[2.85477,50.13242],[2.85061,50.12678],[2.8494,50.12673],[2.84848,50.12686],[2.85282,50.13268]]]}},{"type":"Feature","properties":{"k":"BTH","s":1.726},"geometry":{"type":"Polygon","coordinates":[[[2.85132,50.13595],[2.8519,50.13563],[2.84922,50.13347],[2.84855,50.13373],[2.85132,50.13595]]]}},{"type":"Feature","properties":{"k":"BTH","s":2.137},"geometry":{"type":"Polygon","coordinates":[[[2.85005,50.13314],[2.84922,50.13347],[2.8519,50.13563],[2.85266,50.13521],[2.85005,50.13314]]]}},{"type":"Feature","properties":{"k":"BTN","s":12.03},"geometry":{"type":"Polygon","coordinates":[[[2.85005,50.13314],[2.85429,50.13647],[2.856,50.13559],[2.85633,50.13222],[2.85005,50.13314]]]}},{"type":"Feature","properties":{"k":"BTH","s":8.397},"geometry":{"type":"Polygon","coordinates":[[[2.85808,50.13747],[2.86197,50.13439],[2.86144,50.1323],[2.85682,50.13595],[2.85808,50.13747]]]}},{"type":"Feature","properties":{"k":"BTH","s":15.922},"geometry":{"type":"Polygon","coordinates":[[[2.85614,50.13509],[2.85679,50.13593],[2.86145,50.13228],[2.86118,50.13189],[2.86071,50.13225],[2.8604,50.13214],[2.86114,50.13137],[2.85984,50.12986],[2.85822,50.12988],[2.85674,50.12971],[2.85675,50.13106],[2.85614,50.13509]]]}},{"type":"Feature","properties":{"k":"MIS","s":2.946},"geometry":{"type":"Polygon","coordinates":[[[2.85582,50.13103],[2.85658,50.13094],[2.85643,50.1279],[2.85469,50.12877],[2.85582,50.13103]]]}},{"type":"Feature","properties":{"k":"MIS","s":1.015},"geometry":{"type":"Polygon","coordinates":[[[2.85845,50.1285],[2.85797,50.12832],[2.8566,50.12828],[2.85668,50.12906],[2.85811,50.12905],[2.85845,50.1285]]]}},{"type":"Feature","properties":{"k":"PPH","s":3.654},"geometry":{"type":"Polygon","coordinates":[[[2.86076,50.1285],[2.86092,50.12848],[2.86093,50.12744],[2.8595,50.1274],[2.85947,50.1276],[2.85924,50.12759],[2.85889,50.12744],[2.85888,50.12691],[2.85871,50.12691],[2.85826,50.12725],[2.85841,50.1283],[2.85942,50.129],[2.86043,50.13049],[2.86076,50.1285]]]}},{"type":"Feature","properties":{"k":"PPH","s":0.374},"geometry":{"type":"Polygon","coordinates":[[[2.85841,50.1283],[2.85838,50.12769],[2.85759,50.12767],[2.85759,50.12823],[2.85841,50.1283]]]}},{"type":"Feature","properties":{"k":"PPH","s":0.929},"geometry":{"type":"Polygon","coordinates":[[[2.85722,50.12702],[2.85723,50.12713],[2.85656,50.12704],[2.85662,50.1282],[2.85759,50.12823],[2.85759,50.127],[2.85722,50.12702]]]}},{"type":"Feature","properties":{"k":"BTH","s":3.845},"geometry":{"type":"Polygon","coordinates":[[[2.85643,50.1279],[2.85636,50.12686],[2.8548,50.12604],[2.85352,50.12644],[2.85468,50.12876],[2.85643,50.1279]]]}},{"type":"Feature","properties":{"k":"JAC","s":0.076},"geometry":{"type":"Polygon","coordinates":[[[2.85878,50.12498],[2.8591,50.12497],[2.85912,50.12468],[2.85878,50.12469],[2.85878,50.12498]]]}},{"type":"Feature","properties":{"k":"PPH","s":1.045},"geometry":{"type":"Polygon","coordinates":[[[2.85861,50.12605],[2.8593,50.12618],[2.85923,50.12637],[2.8597,50.12623],[2.86078,50.12639],[2.8609,50.12577],[2.85904,50.1255],[2.85861,50.12605]]]}},{"type":"Feature","properties":{"k":"PPH","s":1.331},"geometry":{"type":"Polygon","coordinates":[[[2.8592,50.12281],[2.85966,50.12282],[2.85962,50.12239],[2.86128,50.12243],[2.86118,50.12206],[2.85826,50.12218],[2.85851,50.12279],[2.85842,50.1233],[2.8591,50.1233],[2.8592,50.12281]]]}},{"type":"Feature","properties":{"k":"PPH","s":0.262},"geometry":{"type":"Polygon","coordinates":[[[2.85814,50.12167],[2.85717,50.12171],[2.85708,50.12197],[2.85777,50.12196],[2.85781,50.1221],[2.85814,50.1221],[2.85814,50.12167]]]}},{"type":"Feature","properties":{"k":"BTN","s":0.099},"geometry":{"type":"Polygon","coordinates":[[[2.85328,50.11169],[2.85292,50.11189],[2.85341,50.11199],[2.85371,50.11187],[2.85328,50.11169]]]}},{"type":"Feature","properties":{"k":"BTH","s":0.375},"geometry":{"type":"Polygon","coordinates":[[[2.85291,50.11189],[2.85139,50.11285],[2.85147,50.11287],[2.85343,50.11202],[2.85291,50.11189]]]}},{"type":"Feature","properties":{"k":"PTC","s":23.831},"geometry":{"type":"Polygon","coordinates":[[[2.85119,50.12335],[2.85111,50.1235],[2.85077,50.12345],[2.85084,50.12329],[2.84716,50.12283],[2.84548,50.12252],[2.84497,50.12229],[2.84395,50.1273],[2.84549,50.12795],[2.84692,50.12725],[2.84893,50.12672],[2.84928,50.12501],[2.85426,50.12496],[2.85469,50.12387],[2.85307,50.12351],[2.85119,50.12335]]]}},{"type":"Feature","properties":{"k":"BTN","s":0.055},"geometry":{"type":"Polygon","coordinates":[[[2.87202,50.11901],[2.87203,50.1194],[2.87238,50.1192],[2.87202,50.11901]]]}},{"type":"Feature","properties":{"k":"PPH","s":4.284},"geometry":{"type":"Polygon","coordinates":[[[2.85569,50.12494],[2.85531,50.12472],[2.85538,50.12459],[2.85477,50.1243],[2.85521,50.12378],[2.85472,50.12388],[2.85432,50.12496],[2.85141,50.12499],[2.85272,50.12653],[2.85589,50.12567],[2.85589,50.12521],[2.85564,50.12519],[2.85569,50.12494]]]}},{"type":"Feature","properties":{"k":"CZH","s":0.019},"geometry":{"type":"Polygon","coordinates":[[[2.84395,50.1273],[2.84392,50.12743],[2.84408,50.12749],[2.84395,50.1273]]]}},{"type":"Feature","properties":{"k":"JAC","s":0.12},"geometry":{"type":"Polygon","coordinates":[[[2.84408,50.12749],[2.84549,50.12795],[2.8447,50.12762],[2.84413,50.12737],[2.84408,50.12749]]]}},{"type":"Feature","properties":{"k":"MIS","s":0.84},"geometry":{"type":"Polygon","coordinates":[[[2.84358,50.12826],[2.84343,50.1286],[2.84432,50.12847],[2.8454,50.12801],[2.84401,50.12749],[2.84358,50.12826]]]}},{"type":"Feature","properties":{"k":"MIS","s":0.041},"geometry":{"type":"Polygon","coordinates":[[[2.84401,50.12749],[2.8442,50.12754],[2.84392,50.12743],[2.84358,50.12826],[2.84401,50.12749]]]}},{"type":"Feature","properties":{"k":"BTH","s":0.004},"geometry":{"type":"Polygon","coordinates":[[[2.84497,50.12229],[2.84494,50.12228],[2.84485,50.12266],[2.84497,50.12229]]]}},{"type":"Feature","properties":{"k":"OIG","s":10.103},"geometry":{"type":"Polygon","coordinates":[[[2.84539,50.11979],[2.84494,50.12215],[2.85106,50.12317],[2.85183,50.12175],[2.84539,50.11979]]]}},{"type":"Feature","properties":{"k":"BTH","s":1.028},"geometry":{"type":"Polygon","coordinates":[[[2.85139,50.11285],[2.84936,50.11442],[2.84894,50.11494],[2.85108,50.11397],[2.85139,50.11285]]]}},{"type":"Feature","properties":{"k":"BTH","s":5.068},"geometry":{"type":"Polygon","coordinates":[[[2.85104,50.11408],[2.85134,50.1145],[2.85619,50.11258],[2.85555,50.11219],[2.85507,50.11244],[2.85377,50.11189],[2.85147,50.11287],[2.85104,50.11408]]]}},{"type":"Feature","properties":{"k":"BTN","s":12.764},"geometry":{"type":"Polygon","coordinates":[[[2.85682,50.11297],[2.85651,50.11277],[2.85157,50.11477],[2.84965,50.11514],[2.84914,50.11662],[2.85065,50.11736],[2.85712,50.11466],[2.85682,50.11297]]]}},{"type":"Feature","properties":{"k":"OIG","s":8.395},"geometry":{"type":"Polygon","coordinates":[[[2.85267,50.11655],[2.85075,50.11732],[2.85156,50.11769],[2.85233,50.11768],[2.85283,50.11843],[2.85731,50.11656],[2.85742,50.11582],[2.85711,50.11466],[2.85267,50.11655]]]}},{"type":"Feature","properties":{"k":"BTN","s":6.318},"geometry":{"type":"MultiPolygon","coordinates":[[[[2.85102,50.11847],[2.84779,50.11701],[2.84661,50.11888],[2.8501,50.11994],[2.85102,50.11847]]],[[[2.84946,50.11538],[2.84943,50.11522],[2.84875,50.11528],[2.8482,50.11628],[2.84899,50.11657],[2.84946,50.11538]]]]}},{"type":"Feature","properties":{"k":"PHF","s":5.723},"geometry":{"type":"Polygon","coordinates":[[[2.84587,50.119],[2.84569,50.11929],[2.84551,50.11923],[2.84539,50.11979],[2.85183,50.12175],[2.8522,50.12099],[2.84996,50.1203],[2.8501,50.11994],[2.84661,50.11888],[2.84587,50.119]]]}},{"type":"Feature","properties":{"k":"BTN","s":5.501},"geometry":{"type":"Polygon","coordinates":[[[2.85731,50.11657],[2.85282,50.11844],[2.85406,50.11971],[2.85721,50.11851],[2.85731,50.11657]]]}},{"type":"Feature","properties":{"k":"CZH","s":5.184},"geometry":{"type":"Polygon","coordinates":[[[2.85612,50.12168],[2.85678,50.12236],[2.85728,50.1209],[2.85721,50.11851],[2.85406,50.11971],[2.85612,50.12168]]]}},{"type":"Feature","properties":{"k":"PTC","s":10.733},"geometry":{"type":"Polygon","coordinates":[[[2.85732,50.11836],[2.86416,50.11588],[2.86257,50.11422],[2.85756,50.11599],[2.85732,50.11836]]]}},{"type":"Feature","properties":{"k":"BTH","s":4.909},"geometry":{"type":"Polygon","coordinates":[[[2.86157,50.11323],[2.8573,50.11472],[2.8576,50.11596],[2.86257,50.11422],[2.86157,50.11323]]]}},{"type":"Feature","properties":{"k":"BTH","s":12.565},"geometry":{"type":"Polygon","coordinates":[[[2.8635,50.11496],[2.86521,50.11679],[2.87054,50.11457],[2.8705,50.11201],[2.8635,50.11496]]]}},{"type":"Feature","properties":{"k":"BTH","s":2.682},"geometry":{"type":"MultiPolygon","coordinates":[[[[2.86343,50.11495],[2.86674,50.11358],[2.86592,50.11293],[2.86293,50.11441],[2.86343,50.11495]]],[[[2.87045,50.11197],[2.8703,50.11181],[2.87017,50.11173],[2.86733,50.11333],[2.87045,50.11197]]]]}},{"type":"Feature","properties":{"k":"BTH","s":4.117},"geometry":{"type":"Polygon","coordinates":[[[2.86583,50.11756],[2.86847,50.11648],[2.87055,50.11559],[2.87051,50.11459],[2.86523,50.11679],[2.86583,50.11756]]]}},{"type":"Feature","properties":{"k":"PTC","s":4.525},"geometry":{"type":"Polygon","coordinates":[[[2.87055,50.11695],[2.87048,50.11565],[2.86587,50.11757],[2.86667,50.11858],[2.87055,50.11695]]]}},{"type":"Feature","properties":{"k":"MIS","s":1.566},"geometry":{"type":"Polygon","coordinates":[[[2.86694,50.11901],[2.8706,50.11749],[2.87059,50.11699],[2.8667,50.11867],[2.86694,50.11901]]]}},{"type":"Feature","properties":{"k":"BTH","s":1.731},"geometry":{"type":"Polygon","coordinates":[[[2.87202,50.11901],[2.87249,50.11913],[2.87213,50.11889],[2.87295,50.11838],[2.87376,50.11892],[2.87451,50.11843],[2.87199,50.11721],[2.87202,50.11901]]]}},{"type":"Feature","properties":{"k":"PTC","s":0.053},"geometry":{"type":"MultiPolygon","coordinates":[[[[2.86675,50.13115],[2.86671,50.13095],[2.86713,50.13095],[2.86669,50.13094],[2.86675,50.13115]]],[[[2.86775,50.13407],[2.86782,50.13407],[2.86697,50.13222],[2.86775,50.13407]]]]}}]}