{"type":"FeatureCollection","features":[{"type":"Feature","properties":{"k":"PPH","s":5.502},"geometry":{"type":"Polygon","coordinates":[[[2.42908,50.51129],[2.42829,50.51113],[2.42811,50.51161],[2.43011,50.51231],[2.4299,50.51247],[2.43176,50.51344],[2.43276,50.5127],[2.43194,50.51226],[2.43231,50.51196],[2.43287,50.51223],[2.43311,50.51212],[2.43246,50.51179],[2.43275,50.51154],[2.43004,50.51041],[2.42908,50.51129]]]}},{"type":"Feature","properties":{"k":"BTH","s":0.004},"geometry":{"type":"Polygon","coordinates":[]}},{"type":"Feature","properties":{"k":"BTH","s":0.016},"geometry":{"type":"Polygon","coordinates":[[[2.43492,50.51314],[2.43535,50.51344],[2.43539,50.51341],[2.43474,50.513],[2.43492,50.51314]]]}},{"type":"Feature","properties":{"k":"BTH","s":3.056},"geometry":{"type":"Polygon","coordinates":[[[2.42709,50.51281],[2.43048,50.51436],[2.43175,50.51345],[2.42983,50.51246],[2.42915,50.51297],[2.42821,50.51275],[2.42709,50.51281]]]}},{"type":"Feature","properties":{"k":"BTH","s":0.491},"geometry":{"type":"Polygon","coordinates":[[[2.42747,50.51362],[2.42816,50.5137],[2.42848,50.51346],[2.42689,50.51282],[2.42747,50.51362]]]}},{"type":"Feature","properties":{"k":"BTH","s":1.961},"geometry":{"type":"Polygon","coordinates":[[[2.42908,50.51129],[2.43004,50.51041],[2.42839,50.50973],[2.42708,50.51087],[2.42908,50.51129]]]}},{"type":"Feature","properties":{"k":"BTH","s":1.803},"geometry":{"type":"Polygon","coordinates":[[[2.42811,50.51161],[2.42829,50.51113],[2.42533,50.51049],[2.42498,50.5113],[2.42811,50.51161]]]}},{"type":"Feature","properties":{"k":"MIS","s":0.037},"geometry":{"type":"MultiPolygon","coordinates":[[[[2.4234,50.51017],[2.42402,50.51024],[2.42135,50.50988],[2.42117,50.50987],[2.4234,50.51017]]],[[[2.42582,50.51056],[2.42584,50.51054],[2.42508,50.51041],[2.42582,50.51056]]]]}},{"type":"Feature","properties":{"k":"ORH","s":4.999},"geometry":{"type":"Polygon","coordinates":[[[2.42533,50.51191],[2.42264,50.51391],[2.42449,50.51488],[2.42695,50.51304],[2.4263,50.51234],[2.42533,50.51191]]]}},{"type":"Feature","properties":{"k":"BTH","s":3.798},"geometry":{"type":"Polygon","coordinates":[[[2.4214,50.5149],[2.42513,50.51181],[2.42386,50.51153],[2.42037,50.51444],[2.4214,50.5149]]]}},{"type":"Feature","properties":{"k":"BTN","s":5.9},"geometry":{"type":"Polygon","coordinates":[[[2.41695,50.51299],[2.41966,50.51413],[2.42188,50.51207],[2.42052,50.51178],[2.42066,50.5115],[2.41908,50.51125],[2.41695,50.51299]]]}},{"type":"Feature","properties":{"k":"PTR","s":2.03},"geometry":{"type":"Polygon","coordinates":[[[2.41901,50.51124],[2.42076,50.51152],[2.42105,50.51081],[2.42046,50.51071],[2.42049,50.51062],[2.42203,50.51085],[2.42202,50.511],[2.42252,50.51115],[2.42268,50.51086],[2.42333,50.51097],[2.42339,50.51073],[2.42032,50.51014],[2.41901,50.51124]]]}},{"type":"Feature","properties":{"k":"PTR","s":0.316},"geometry":{"type":"Polygon","coordinates":[[[2.42188,50.51207],[2.42198,50.51198],[2.4218,50.51176],[2.42066,50.5115],[2.42052,50.51178],[2.42188,50.51207]]]}},{"type":"Feature","properties":{"k":"MIS","s":2.012},"geometry":{"type":"MultiPolygon","coordinates":[[[[2.42032,50.51014],[2.42011,50.51031],[2.42018,50.51032],[2.42032,50.51014]]],[[[2.42339,50.51073],[2.42333,50.51097],[2.42502,50.51127],[2.4251,50.51046],[2.42065,50.50986],[2.42039,50.51008],[2.42339,50.51073]]],[[[2.42061,50.51017],[2.42038,50.51015],[2.42339,50.51073],[2.42061,50.51017]]]]}},{"type":"Feature","properties":{"k":"PPH","s":1.199},"geometry":{"type":"Polygon","coordinates":[[[2.4224,50.52496],[2.42332,50.5245],[2.42259,50.524],[2.42306,50.52367],[2.42259,50.52324],[2.4219,50.52326],[2.42193,50.52429],[2.4224,50.52496]]]}},{"type":"Feature","properties":{"k":"BTN","s":5.776},"geometry":{"type":"Polygon","coordinates":[[[2.43626,50.52371],[2.43415,50.52262],[2.43223,50.52412],[2.43345,50.52473],[2.43156,50.52606],[2.43241,50.52647],[2.43626,50.52371]]]}},{"type":"Feature","properties":{"k":"PPH","s":2.714},"geometry":{"type":"Polygon","coordinates":[[[2.41905,50.52258],[2.41944,50.52233],[2.41858,50.52186],[2.41839,50.5216],[2.41928,50.52097],[2.41947,50.52107],[2.41968,50.52092],[2.41939,50.52076],[2.41963,50.52059],[2.42087,50.52131],[2.42208,50.52042],[2.42076,50.51963],[2.4177,50.52165],[2.41905,50.52258]]]}},{"type":"Feature","properties":{"k":"BTH","s":0.003},"geometry":{"type":"Polygon","coordinates":[[[2.44356,50.5172],[2.44324,50.51706],[2.44354,50.51721],[2.44356,50.5172]]]}},{"type":"Feature","properties":{"k":"BTH","s":7.097},"geometry":{"type":"Polygon","coordinates":[[[2.44398,50.52696],[2.44053,50.52913],[2.4397,50.52855],[2.43937,50.52874],[2.44224,50.53078],[2.44312,50.53161],[2.4442,50.53116],[2.44236,50.52967],[2.44509,50.52801],[2.44398,50.52696]]]}},{"type":"Feature","properties":{"k":"PTC","s":10.465},"geometry":{"type":"Polygon","coordinates":[[[2.43549,50.5233],[2.43629,50.52365],[2.43571,50.52415],[2.43247,50.52651],[2.43156,50.52606],[2.43007,50.52747],[2.43311,50.52909],[2.43418,50.5283],[2.43467,50.52853],[2.43534,50.52806],[2.43323,50.52688],[2.43508,50.52567],[2.43834,50.52282],[2.43769,50.52243],[2.43688,50.52311],[2.43612,50.52275],[2.43549,50.5233]]]}},{"type":"Feature","properties":{"k":"PPH","s":0.571},"geometry":{"type":"Polygon","coordinates":[[[2.41988,50.52368],[2.4203,50.52405],[2.42109,50.52357],[2.42129,50.52364],[2.42144,50.52362],[2.42169,50.52378],[2.42126,50.52401],[2.42179,50.52444],[2.42171,50.52335],[2.42132,50.52361],[2.42114,50.5235],[2.42163,50.52313],[2.42028,50.52397],[2.42012,50.52383],[2.4214,50.52298],[2.42115,50.52307],[2.421,50.52295],[2.42085,50.52304],[2.421,50.52313],[2.4207,50.5233],[2.42058,50.52323],[2.41988,50.52368]]]}},{"type":"Feature","properties":{"k":"BTA","s":0.012},"geometry":{"type":"MultiPolygon","coordinates":[[[[2.41988,50.52368],[2.41954,50.52345],[2.42002,50.52383],[2.42015,50.52392],[2.41988,50.52368]]]]}},{"type":"Feature","properties":{"k":"BTH","s":1.651},"geometry":{"type":"Polygon","coordinates":[[[2.44674,50.52577],[2.44616,50.52513],[2.44355,50.52632],[2.44404,50.52673],[2.44701,50.5257],[2.44674,50.52577]]]}},{"type":"Feature","properties":{"k":"MIS","s":0.038},"geometry":{"type":"Polygon","coordinates":[[[2.41905,50.52269],[2.41876,50.52284],[2.41891,50.52295],[2.41905,50.52269]]]}},{"type":"Feature","properties":{"k":"BTH","s":6.026},"geometry":{"type":"Polygon","coordinates":[[[2.43697,50.52201],[2.43539,50.5209],[2.43491,50.51949],[2.43447,50.51907],[2.433,50.5217],[2.43443,50.52276],[2.43548,50.5233],[2.43697,50.52201]]]}},{"type":"Feature","properties":{"k":"BTH","s":2.723},"geometry":{"type":"Polygon","coordinates":[[[2.43305,50.51849],[2.43355,50.51798],[2.43395,50.51812],[2.43354,50.51866],[2.43408,50.51885],[2.43447,50.51825],[2.43498,50.5184],[2.43457,50.51904],[2.43494,50.51927],[2.43622,50.51785],[2.4351,50.51752],[2.43507,50.51751],[2.43504,50.51753],[2.43385,50.51718],[2.43303,50.51771],[2.43251,50.51829],[2.43305,50.51849]]]}},{"type":"Feature","properties":{"k":"BTH","s":0.034},"geometry":{"type":"MultiPolygon","coordinates":[[[[2.43554,50.51359],[2.43599,50.51383],[2.43664,50.51414],[2.43537,50.51343],[2.43554,50.51359]]],[[[2.43838,50.51498],[2.43844,50.51499],[2.43804,50.51483],[2.43838,50.51498]]]]}},{"type":"Feature","properties":{"k":"PPH","s":1.389},"geometry":{"type":"Polygon","coordinates":[[[2.42309,50.52179],[2.42342,50.52224],[2.42391,50.52199],[2.42372,50.52161],[2.42342,50.52161],[2.42224,50.5208],[2.42137,50.52125],[2.42133,50.52142],[2.42232,50.52209],[2.42309,50.52179]]]}},{"type":"Feature","properties":{"k":"PPH","s":0.036},"geometry":{"type":"Polygon","coordinates":[[[2.42033,50.51908],[2.42028,50.51905],[2.41959,50.51961],[2.42033,50.51908]]]}},{"type":"Feature","properties":{"k":"PPH","s":0.186},"geometry":{"type":"Polygon","coordinates":[[[2.42059,50.51873],[2.42071,50.5186],[2.42006,50.51813],[2.41979,50.51838],[2.42059,50.51873]]]}},{"type":"Feature","properties":{"k":"BTH","s":0.0},"geometry":{"type":"Polygon","coordinates":[]}},{"type":"Feature","properties":{"k":"JAC","s":0.335},"geometry":{"type":"Polygon","coordinates":[[[2.42205,50.51782],[2.42132,50.51745],[2.42087,50.51784],[2.42149,50.51816],[2.42205,50.51782]]]}},{"type":"Feature","properties":{"k":"JAC","s":0.062},"geometry":{"type":"Polygon","coordinates":[[[2.43155,50.51726],[2.43046,50.51666],[2.43152,50.51729],[2.43272,50.51784],[2.43155,50.51726]]]}},{"type":"Feature","properties":{"k":"PTC","s":6.471},"geometry":{"type":"Polygon","coordinates":[[[2.42814,50.5295],[2.43048,50.52778],[2.42775,50.52631],[2.42547,50.52777],[2.42814,50.5295]]]}},{"type":"Feature","properties":{"k":"BTN","s":1.255},"geometry":{"type":"Polygon","coordinates":[[[2.42471,50.52713],[2.42694,50.52573],[2.42649,50.52531],[2.4242,50.52679],[2.42471,50.52713]]]}},{"type":"Feature","properties":{"k":"MIS","s":1.976},"geometry":{"type":"Polygon","coordinates":[[[2.42546,50.52778],[2.42776,50.52631],[2.42695,50.52572],[2.4247,50.52714],[2.42546,50.52778]]]}},{"type":"Feature","properties":{"k":"BTN","s":9.382},"geometry":{"type":"Polygon","coordinates":[[[2.42688,50.5255],[2.42729,50.526],[2.42837,50.52654],[2.43116,50.5238],[2.42854,50.52217],[2.42575,50.52472],[2.42688,50.5255]]]}},{"type":"Feature","properties":{"k":"MIS","s":3.139},"geometry":{"type":"Polygon","coordinates":[[[2.42538,50.5244],[2.42605,50.52392],[2.42638,50.52412],[2.42854,50.52217],[2.42799,50.5214],[2.42459,50.52391],[2.42538,50.5244]]]}},{"type":"Feature","properties":{"k":"JAC","s":0.032},"geometry":{"type":"Polygon","coordinates":[[[2.42411,50.52416],[2.42423,50.52422],[2.42449,50.52396],[2.42411,50.52416]]]}},{"type":"Feature","properties":{"k":"MLG","s":0.355},"geometry":{"type":"Polygon","coordinates":[[[2.44241,50.52525],[2.44394,50.52389],[2.44369,50.52378],[2.44225,50.52513],[2.44241,50.52525]]]}},{"type":"Feature","properties":{"k":"PPH","s":1.935},"geometry":{"type":"Polygon","coordinates":[[[2.42273,50.5174],[2.42243,50.51763],[2.42275,50.51782],[2.42196,50.51841],[2.4216,50.51821],[2.42139,50.51834],[2.42172,50.51855],[2.42125,50.51861],[2.42159,50.5188],[2.42183,50.5187],[2.42289,50.51931],[2.42351,50.51877],[2.42421,50.51851],[2.42364,50.51821],[2.42385,50.51796],[2.42273,50.5174]]]}},{"type":"Feature","properties":{"k":"PTC","s":0.727},"geometry":{"type":"Polygon","coordinates":[[[2.42612,50.52554],[2.42649,50.52531],[2.42458,50.52401],[2.42423,50.52422],[2.42612,50.52554]]]}},{"type":"Feature","properties":{"k":"JAC","s":0.025},"geometry":{"type":"Polygon","coordinates":[[[2.42287,50.52492],[2.42387,50.52558],[2.4228,50.52484],[2.42287,50.52492]]]}},{"type":"Feature","properties":{"k":"BTH","s":0.254},"geometry":{"type":"Polygon","coordinates":[[[2.42169,50.52378],[2.42109,50.52357],[2.4203,50.52405],[2.42035,50.52409],[2.42086,50.52389],[2.42114,50.52408],[2.42169,50.52378]]]}},{"type":"Feature","properties":{"k":"CAR","s":0.041},"geometry":{"type":"Polygon","coordinates":[[[2.43306,50.51871],[2.43313,50.51862],[2.43269,50.51847],[2.43261,50.51856],[2.43306,50.51871]]]}},{"type":"Feature","properties":{"k":"ORH","s":2.985},"geometry":{"type":"Polygon","coordinates":[[[2.43048,50.52778],[2.42814,50.5295],[2.42887,50.52996],[2.42947,50.52962],[2.42979,50.5298],[2.43052,50.52929],[2.43078,50.52944],[2.43201,50.52857],[2.43079,50.52807],[2.43048,50.52778]]]}},{"type":"Feature","properties":{"k":"BTH","s":3.403},"geometry":{"type":"Polygon","coordinates":[[[2.44617,50.52512],[2.44672,50.52574],[2.44704,50.52566],[2.44525,50.52363],[2.44298,50.52577],[2.44356,50.52631],[2.44617,50.52512]]]}},{"type":"Feature","properties":{"k":"BTH","s":1.022},"geometry":{"type":"Polygon","coordinates":[[[2.44297,50.52577],[2.44462,50.52422],[2.44406,50.52395],[2.44252,50.52534],[2.44297,50.52577]]]}},{"type":"Feature","properties":{"k":"MLG","s":0.138},"geometry":{"type":"Polygon","coordinates":[[[2.44523,50.52364],[2.44496,50.52358],[2.44439,50.52411],[2.44462,50.52422],[2.44523,50.52364]]]}},{"type":"Feature","properties":{"k":"PPH","s":0.361},"geometry":{"type":"Polygon","coordinates":[[[2.42039,50.52291],[2.42017,50.52277],[2.41975,50.52302],[2.42035,50.52337],[2.42113,50.52285],[2.42078,50.52265],[2.42039,50.52291]]]}},{"type":"Feature","properties":{"k":"JAC","s":0.03},"geometry":{"type":"Polygon","coordinates":[[[2.43768,50.52243],[2.43765,50.52241],[2.43685,50.5231],[2.43768,50.52243]]]}},{"type":"Feature","properties":{"k":"JAC","s":0.055},"geometry":{"type":"Polygon","coordinates":[[[2.43311,50.52909],[2.43315,50.52911],[2.4342,50.52834],[2.43467,50.52853],[2.43418,50.5283],[2.43311,50.52909]]]}},{"type":"Feature","properties":{"k":"PPH","s":1.9},"geometry":{"type":"Polygon","coordinates":[[[2.42662,50.52235],[2.42728,50.5218],[2.42544,50.52071],[2.42436,50.52133],[2.42595,50.52231],[2.42662,50.52235]]]}},{"type":"Feature","properties":{"k":"PPH","s":6.007},"geometry":{"type":"Polygon","coordinates":[[[2.42846,50.52095],[2.42667,50.51987],[2.42546,50.5207],[2.4251,50.5206],[2.42661,50.51953],[2.42522,50.51881],[2.42479,50.51907],[2.42448,50.51892],[2.4229,50.52007],[2.42378,50.52041],[2.4233,50.52077],[2.42436,50.52133],[2.42544,50.52071],[2.42728,50.5218],[2.42846,50.52095]]]}},{"type":"Feature","properties":{"k":"MIS","s":6.556},"geometry":{"type":"Polygon","coordinates":[[[2.43668,50.52692],[2.4388,50.52513],[2.43923,50.52442],[2.43933,50.52364],[2.43833,50.52284],[2.43508,50.52569],[2.43668,50.52692]]]}},{"type":"Feature","properties":{"k":"BTN","s":3.394},"geometry":{"type":"Polygon","coordinates":[[[2.42706,50.5196],[2.42792,50.5201],[2.42761,50.52035],[2.42843,50.52084],[2.42873,50.52084],[2.4305,50.51963],[2.42843,50.51845],[2.42706,50.5196]]]}},{"type":"Feature","properties":{"k":"JAC","s":0.441},"geometry":{"type":"Polygon","coordinates":[[[2.43272,50.51333],[2.4342,50.5145],[2.43508,50.5156],[2.43474,50.5148],[2.43403,50.51402],[2.43264,50.51323],[2.43198,50.51375],[2.43272,50.51333]]]}},{"type":"Feature","properties":{"k":"BTN","s":5.466},"geometry":{"type":"Polygon","coordinates":[[[2.4442,50.53116],[2.4467,50.5296],[2.44509,50.52801],[2.44236,50.52967],[2.4442,50.53116]]]}},{"type":"Feature","properties":{"k":"MIS","s":0.014},"geometry":{"type":"Polygon","coordinates":[[[2.44314,50.53164],[2.44402,50.53124],[2.44312,50.53161],[2.44314,50.53164]]]}},{"type":"Feature","properties":{"k":"BTN","s":2.367},"geometry":{"type":"Polygon","coordinates":[[[2.44003,50.53476],[2.44124,50.5339],[2.4397,50.53266],[2.43833,50.53353],[2.44003,50.53476]]]}},{"type":"Feature","properties":{"k":"BTH","s":3.368},"geometry":{"type":"MultiPolygon","coordinates":[[[[2.44124,50.53285],[2.4411,50.53269],[2.44104,50.53273],[2.44124,50.53285]]],[[[2.44095,50.53367],[2.44124,50.5339],[2.44003,50.53476],[2.43833,50.53353],[2.43634,50.53457],[2.43822,50.53579],[2.43915,50.53505],[2.43947,50.53518],[2.44135,50.53396],[2.44101,50.5337],[2.44167,50.53333],[2.44095,50.53367]]]]}},{"type":"Feature","properties":{"k":"ORH","s":3.019},"geometry":{"type":"Polygon","coordinates":[[[2.44095,50.53367],[2.44167,50.53333],[2.44107,50.53266],[2.44269,50.53169],[2.4415,50.53092],[2.43982,50.53189],[2.44033,50.53223],[2.4397,50.53266],[2.44095,50.53367]]]}},{"type":"Feature","properties":{"k":"PPH","s":1.309},"geometry":{"type":"Polygon","coordinates":[[[2.44119,50.53069],[2.44192,50.53117],[2.44231,50.53089],[2.44025,50.52931],[2.43936,50.52876],[2.43899,50.52896],[2.44119,50.53069]]]}},{"type":"Feature","properties":{"k":"MIS","s":8.201},"geometry":{"type":"Polygon","coordinates":[[[2.43627,50.53081],[2.43923,50.53292],[2.44033,50.53223],[2.43982,50.53189],[2.4415,50.53092],[2.43894,50.52898],[2.43761,50.52961],[2.43627,50.53081]]]}},{"type":"Feature","properties":{"k":"PPH","s":3.08},"geometry":{"type":"Polygon","coordinates":[[[2.43723,50.52959],[2.43741,50.52968],[2.43512,50.52836],[2.43379,50.52936],[2.43453,50.52988],[2.43435,50.53005],[2.43485,50.53029],[2.43538,50.52995],[2.43656,50.53048],[2.43712,50.52999],[2.43688,50.52984],[2.43723,50.52959]]]}},{"type":"Feature","properties":{"k":"JAC","s":0.012},"geometry":{"type":"Polygon","coordinates":[[[2.43539,50.53218],[2.43603,50.53173],[2.43539,50.53217],[2.43539,50.53218]]]}},{"type":"Feature","properties":{"k":"PPH","s":2.235},"geometry":{"type":"Polygon","coordinates":[[[2.43565,50.53128],[2.43568,50.53146],[2.43659,50.53216],[2.4368,50.53205],[2.43854,50.53336],[2.43923,50.53292],[2.43627,50.53081],[2.43565,50.53128]]]}},{"type":"Feature","properties":{"k":"ORH","s":4.742},"geometry":{"type":"Polygon","coordinates":[[[2.43659,50.53216],[2.43605,50.53174],[2.43462,50.53266],[2.43546,50.53316],[2.43475,50.53365],[2.43626,50.53455],[2.43841,50.53344],[2.43843,50.53328],[2.43678,50.53206],[2.43659,50.53216]]]}},{"type":"Feature","properties":{"k":"MIS","s":0.961},"geometry":{"type":"Polygon","coordinates":[[[2.43422,50.53234],[2.43345,50.53286],[2.43475,50.53365],[2.43546,50.53316],[2.43422,50.53234]]]}},{"type":"Feature","properties":{"k":"BTH","s":7.215},"geometry":{"type":"Polygon","coordinates":[[[2.41358,50.51745],[2.413,50.51811],[2.41313,50.51837],[2.41542,50.52003],[2.4172,50.51883],[2.41838,50.51738],[2.41726,50.51695],[2.41687,50.51724],[2.41645,50.51702],[2.41592,50.51724],[2.41358,50.51745]]]}},{"type":"Feature","properties":{"k":"BTN","s":0.071},"geometry":{"type":"Polygon","coordinates":[[[2.41306,50.51842],[2.41483,50.51964],[2.41381,50.51891],[2.41306,50.51842]]]}},{"type":"Feature","properties":{"k":"PPH","s":0.001},"geometry":{"type":"Polygon","coordinates":[[[2.41302,50.51839],[2.41304,50.51845],[2.41306,50.51842],[2.41302,50.51839]]]}},{"type":"Feature","properties":{"k":"BTH","s":3.147},"geometry":{"type":"Polygon","coordinates":[[[2.43668,50.52693],[2.43507,50.52569],[2.43326,50.52689],[2.43529,50.52801],[2.43668,50.52693]]]}},{"type":"Feature","properties":{"k":"LUZ","s":0.313},"geometry":{"type":"Polygon","coordinates":[[[2.4347,50.5326],[2.43539,50.53217],[2.43489,50.53191],[2.43422,50.53234],[2.4347,50.5326]]]}},{"type":"Feature","properties":{"k":"LUZ","s":0.32},"geometry":{"type":"Polygon","coordinates":[[[2.4339,50.52961],[2.43359,50.52943],[2.4327,50.52992],[2.43321,50.53013],[2.4339,50.52961]]]}},{"type":"Feature","properties":{"k":"PPH","s":0.996},"geometry":{"type":"Polygon","coordinates":[[[2.43165,50.53003],[2.43117,50.52972],[2.4315,50.52952],[2.43106,50.52926],[2.43077,50.52945],[2.43052,50.5293],[2.42976,50.52982],[2.4309,50.5305],[2.43165,50.53003]]]}},{"type":"Feature","properties":{"k":"BTH","s":2.896},"geometry":{"type":"Polygon","coordinates":[[[2.41655,50.51665],[2.41466,50.51538],[2.41314,50.51715],[2.41364,50.51737],[2.41419,50.5174],[2.41533,50.51728],[2.4153,50.51718],[2.41604,50.51703],[2.41655,50.51665]]]}},{"type":"Feature","properties":{"k":"BTH","s":0.003},"geometry":{"type":"Polygon","coordinates":[[[2.44128,50.51595],[2.44076,50.51558],[2.44097,50.51575],[2.44128,50.51595]]]}},{"type":"Feature","properties":{"k":"MIS","s":0.321},"geometry":{"type":"Polygon","coordinates":[[[2.41655,50.51665],[2.41603,50.51704],[2.41615,50.51712],[2.41677,50.51662],[2.41621,50.51637],[2.41508,50.51545],[2.41474,50.51528],[2.41471,50.5154],[2.41655,50.51665]]]}},{"type":"Feature","properties":{"k":"MIS","s":8.098},"geometry":{"type":"Polygon","coordinates":[[[2.42145,50.51595],[2.4222,50.51529],[2.41692,50.51301],[2.41482,50.5152],[2.41665,50.51642],[2.41758,50.51546],[2.41701,50.51521],[2.41758,50.51459],[2.42145,50.51595]]]}},{"type":"Feature","properties":{"k":"BTH","s":1.54},"geometry":{"type":"Polygon","coordinates":[[[2.42388,50.51456],[2.42264,50.51391],[2.42141,50.5149],[2.42271,50.51547],[2.42388,50.51456]]]}},{"type":"Feature","properties":{"k":"BTH","s":15.366},"geometry":{"type":"Polygon","coordinates":[[[2.43745,50.51593],[2.43713,50.51633],[2.43799,50.51682],[2.4384,50.51726],[2.43823,50.51773],[2.43913,50.51815],[2.43891,50.51834],[2.43904,50.51851],[2.44147,50.52004],[2.44513,50.51809],[2.44149,50.51617],[2.44027,50.51527],[2.43974,50.51551],[2.43886,50.51516],[2.43745,50.51593]]]}},{"type":"Feature","properties":{"k":"PPH","s":0.896},"geometry":{"type":"Polygon","coordinates":[[[2.43637,50.51659],[2.4351,50.51752],[2.43622,50.51785],[2.43696,50.51719],[2.43637,50.51659]],[[2.43658,50.51727],[2.43647,50.51731],[2.4364,50.51726],[2.43649,50.51714],[2.43658,50.51727]]]}},{"type":"Feature","properties":{"k":"MIS","s":3.257},"geometry":{"type":"Polygon","coordinates":[[[2.43679,50.5148],[2.43624,50.51517],[2.43745,50.51593],[2.43874,50.51511],[2.43574,50.5137],[2.43355,50.51235],[2.43313,50.51269],[2.43679,50.5148]]]}},{"type":"Feature","properties":{"k":"BTN","s":4.065},"geometry":{"type":"Polygon","coordinates":[[[2.43241,50.5184],[2.43055,50.5197],[2.43346,50.52087],[2.43447,50.51908],[2.43313,50.51862],[2.43306,50.51871],[2.43241,50.5184]]]}},{"type":"Feature","properties":{"k":"BTH","s":3.701},"geometry":{"type":"Polygon","coordinates":[[[2.43226,50.51832],[2.43015,50.51722],[2.42844,50.51845],[2.43051,50.51963],[2.43226,50.51832]]]}},{"type":"Feature","properties":{"k":"MIS","s":0.149},"geometry":{"type":"Polygon","coordinates":[[[2.43071,50.51976],[2.43055,50.5197],[2.42943,50.52047],[2.42957,50.52055],[2.43071,50.51976]]]}},{"type":"Feature","properties":{"k":"BTH","s":11.83},"geometry":{"type":"Polygon","coordinates":[[[2.42828,50.52187],[2.42907,50.52246],[2.43101,50.52368],[2.43223,50.52412],[2.43413,50.52262],[2.43297,50.52169],[2.43345,50.52087],[2.43071,50.51976],[2.42809,50.52136],[2.42828,50.52187]]]}},{"type":"Feature","properties":{"k":"PPH","s":1.344},"geometry":{"type":"Polygon","coordinates":[[[2.42152,50.51606],[2.42055,50.51568],[2.41966,50.51633],[2.42004,50.51653],[2.41909,50.51746],[2.4194,50.51762],[2.42152,50.51606]]]}},{"type":"Feature","properties":{"k":"MIS","s":13.711},"geometry":{"type":"Polygon","coordinates":[[[2.44118,50.52468],[2.43976,50.52584],[2.43955,50.52574],[2.43985,50.52543],[2.4391,50.52504],[2.43687,50.52698],[2.43922,50.52882],[2.4397,50.52855],[2.44053,50.52913],[2.44402,50.52693],[2.44118,50.52468]]]}},{"type":"Feature","properties":{"k":"JAC","s":0.055},"geometry":{"type":"Polygon","coordinates":[[[2.42655,50.51667],[2.42627,50.51656],[2.42656,50.51671],[2.42711,50.51626],[2.42601,50.51574],[2.42698,50.51623],[2.42655,50.51667]]]}},{"type":"Feature","properties":{"k":"JAC","s":1.098},"geometry":{"type":"Polygon","coordinates":[[[2.43251,50.52425],[2.43129,50.52537],[2.43202,50.52567],[2.43345,50.52473],[2.43251,50.52425]]]}},{"type":"Feature","properties":{"k":"BTN","s":3.857},"geometry":{"type":"Polygon","coordinates":[[[2.43116,50.5238],[2.42837,50.52654],[2.4294,50.52711],[2.43244,50.52421],[2.43116,50.5238]]]}},{"type":"Feature","properties":{"k":"BTH","s":4.931},"geometry":{"type":"Polygon","coordinates":[[[2.43046,50.51666],[2.43273,50.51788],[2.43382,50.5171],[2.43363,50.51696],[2.43417,50.51664],[2.43358,50.51615],[2.43295,50.5165],[2.43221,50.51602],[2.43317,50.51542],[2.43089,50.51423],[2.43026,50.51468],[2.43152,50.51527],[2.43085,50.51606],[2.43103,50.51615],[2.43046,50.51666]]]}},{"type":"Feature","properties":{"k":"MIS","s":0.376},"geometry":{"type":"Polygon","coordinates":[[[2.43337,50.51594],[2.43319,50.51544],[2.43223,50.51602],[2.43271,50.51634],[2.43337,50.51594]]]}},{"type":"Feature","properties":{"k":"PHF","s":1.299},"geometry":{"type":"Polygon","coordinates":[[[2.43543,50.51617],[2.43385,50.51718],[2.43504,50.51753],[2.43628,50.51655],[2.43543,50.51617]]]}},{"type":"Feature","properties":{"k":"BTH","s":4.13},"geometry":{"type":"Polygon","coordinates":[[[2.43319,50.51525],[2.43341,50.51576],[2.43431,50.51659],[2.43458,50.51662],[2.43436,50.51635],[2.43528,50.51586],[2.4342,50.5145],[2.43272,50.51333],[2.43201,50.51379],[2.43175,50.51365],[2.43112,50.51406],[2.43115,50.51422],[2.43319,50.51525]]]}},{"type":"Feature","properties":{"k":"PPH","s":6.07},"geometry":{"type":"Polygon","coordinates":[[[2.42146,50.51596],[2.41756,50.51461],[2.41701,50.51521],[2.41836,50.5158],[2.41739,50.51673],[2.41886,50.51735],[2.41999,50.51651],[2.41965,50.51633],[2.42055,50.51567],[2.42153,50.51606],[2.41943,50.51765],[2.42014,50.5181],[2.42035,50.51791],[2.42026,50.51754],[2.42082,50.51686],[2.42164,50.51719],[2.42332,50.51594],[2.42329,50.51577],[2.42221,50.5153],[2.42146,50.51596]]]}},{"type":"Feature","properties":{"k":"PPH","s":1.949},"geometry":{"type":"Polygon","coordinates":[[[2.42391,50.51457],[2.42274,50.51547],[2.42451,50.51632],[2.42557,50.51547],[2.42391,50.51457]]]}},{"type":"Feature","properties":{"k":"BTN","s":0.798},"geometry":{"type":"Polygon","coordinates":[[[2.41738,50.51673],[2.41834,50.5158],[2.41758,50.51546],[2.41665,50.51642],[2.41738,50.51673]]]}},{"type":"Feature","properties":{"k":"PPH","s":0.53},"geometry":{"type":"Polygon","coordinates":[[[2.42238,50.52294],[2.42263,50.52276],[2.42214,50.52203],[2.42174,50.52229],[2.42191,50.52327],[2.42251,50.5232],[2.42238,50.52294]]]}},{"type":"Feature","properties":{"k":"MIS","s":4.187},"geometry":{"type":"Polygon","coordinates":[[[2.42558,50.51547],[2.42509,50.51584],[2.42655,50.51667],[2.42705,50.51627],[2.42601,50.51574],[2.42773,50.51465],[2.42732,50.51441],[2.42755,50.51431],[2.42751,50.51388],[2.42695,50.51304],[2.42449,50.51488],[2.42558,50.51547]]]}},{"type":"Feature","properties":{"k":"PTC","s":1.446},"geometry":{"type":"Polygon","coordinates":[[[2.4294,50.52711],[2.43005,50.52748],[2.43202,50.52567],[2.43129,50.52537],[2.4294,50.52711]]]}},{"type":"Feature","properties":{"k":"PPH","s":2.797},"geometry":{"type":"Polygon","coordinates":[[[2.43311,50.51268],[2.43259,50.51311],[2.43398,50.51397],[2.43475,50.51479],[2.43519,50.51567],[2.43678,50.5148],[2.43311,50.51268]]]}},{"type":"Feature","properties":{"k":"MIS","s":2.84},"geometry":{"type":"Polygon","coordinates":[[[2.43888,50.52893],[2.43798,50.52856],[2.43645,50.52748],[2.43512,50.52836],[2.43741,50.52968],[2.43888,50.52893]]]}},{"type":"Feature","properties":{"k":"PPH","s":3.143},"geometry":{"type":"Polygon","coordinates":[[[2.41544,50.52005],[2.41621,50.52061],[2.41721,50.51997],[2.41747,50.52042],[2.4186,50.51964],[2.41846,50.51954],[2.41867,50.51939],[2.41846,50.51926],[2.41943,50.51855],[2.41855,50.51912],[2.41842,50.51905],[2.41895,50.51864],[2.41784,50.51808],[2.41742,50.51862],[2.41544,50.52005]]]}},{"type":"Feature","properties":{"k":"BTN","s":1.638},"geometry":{"type":"Polygon","coordinates":[[[2.42747,50.51362],[2.42761,50.51404],[2.42963,50.51496],[2.43047,50.51437],[2.42848,50.51346],[2.42816,50.5137],[2.42747,50.51362]]]}},{"type":"Feature","properties":{"k":"JAC","s":0.41},"geometry":{"type":"Polygon","coordinates":[[[2.42999,50.51678],[2.43088,50.51608],[2.43152,50.51528],[2.43033,50.51467],[2.43148,50.51528],[2.43079,50.51607],[2.43038,50.51587],[2.42983,50.51639],[2.42999,50.51678]]]}},{"type":"Feature","properties":{"k":"PTC","s":0.045},"geometry":{"type":"Polygon","coordinates":[[[2.42126,50.52402],[2.42115,50.52408],[2.42181,50.52453],[2.42126,50.52402]]]}},{"type":"Feature","properties":{"k":"MIS","s":1.077},"geometry":{"type":"Polygon","coordinates":[[[2.43868,50.52849],[2.43709,50.52716],[2.43654,50.52754],[2.43829,50.52871],[2.43899,50.52896],[2.43921,50.52884],[2.43868,50.52849]]]}},{"type":"Feature","properties":{"k":"BTH","s":2.538},"geometry":{"type":"Polygon","coordinates":[[[2.41845,50.52045],[2.41824,50.5203],[2.41765,50.52073],[2.41721,50.51998],[2.41621,50.52061],[2.4177,50.52165],[2.42063,50.51971],[2.42015,50.51947],[2.41973,50.51982],[2.41952,50.51974],[2.41965,50.51963],[2.41845,50.52045]]]}},{"type":"Feature","properties":{"k":"PPH","s":0.631},"geometry":{"type":"Polygon","coordinates":[[[2.41872,50.51991],[2.41855,50.51983],[2.41959,50.51896],[2.41945,50.51888],[2.41958,50.51864],[2.41861,50.51935],[2.41859,50.51964],[2.41748,50.52043],[2.41765,50.52072],[2.41872,50.51991]]]}},{"type":"Feature","properties":{"k":"MIS","s":1.78},"geometry":{"type":"Polygon","coordinates":[[[2.4228,50.52484],[2.42387,50.52558],[2.42468,50.52513],[2.42569,50.52581],[2.42612,50.52554],[2.42411,50.52416],[2.4228,50.52484]]]}}]}