{"type":"FeatureCollection","features":[{"type":"Feature","properties":{"k":"MIS","s":5.215},"geometry":{"type":"Polygon","coordinates":[[[2.91788,50.43152],[2.91848,50.43142],[2.91815,50.43126],[2.91857,50.43109],[2.91948,50.43135],[2.92002,50.43082],[2.91895,50.43045],[2.91889,50.43032],[2.91925,50.43014],[2.91918,50.42977],[2.91871,50.42945],[2.9186,50.42953],[2.91808,50.42919],[2.91777,50.42919],[2.91605,50.43034],[2.91549,50.43006],[2.91523,50.43027],[2.91603,50.43067],[2.91527,50.43144],[2.91788,50.43152]]]}},{"type":"Feature","properties":{"k":"MIS","s":1.738},"geometry":{"type":"Polygon","coordinates":[[[2.90757,50.43716],[2.90871,50.43717],[2.90926,50.43686],[2.90944,50.4362],[2.90834,50.43592],[2.90791,50.43621],[2.90756,50.43679],[2.90676,50.43653],[2.90645,50.43667],[2.90626,50.43682],[2.90757,50.43716]]]}},{"type":"Feature","properties":{"k":"JAC","s":0.297},"geometry":{"type":"Polygon","coordinates":[[[2.90844,50.43567],[2.90972,50.43603],[2.90958,50.43567],[2.90858,50.43543],[2.90844,50.43567]]]}},{"type":"Feature","properties":{"k":"JAC","s":1.309},"geometry":{"type":"Polygon","coordinates":[[[2.90466,50.43634],[2.90626,50.43682],[2.90676,50.43653],[2.90701,50.43609],[2.90508,50.43565],[2.90466,50.43634]]]}},{"type":"Feature","properties":{"k":"MIS","s":1.295},"geometry":{"type":"Polygon","coordinates":[[[2.90381,50.43314],[2.90406,50.43278],[2.90519,50.43335],[2.90573,50.4324],[2.90277,50.4324],[2.90381,50.43314]]]}},{"type":"Feature","properties":{"k":"MIS","s":1.495},"geometry":{"type":"Polygon","coordinates":[[[2.89818,50.43315],[2.89883,50.43309],[2.89917,50.43247],[2.8972,50.43237],[2.89769,50.43356],[2.8988,50.43459],[2.89818,50.43315]]]}},{"type":"Feature","properties":{"k":"MIS","s":0.881},"geometry":{"type":"Polygon","coordinates":[[[2.89988,50.43185],[2.8999,50.43182],[2.89903,50.43133],[2.89698,50.43165],[2.89708,50.43188],[2.89988,50.43185]]]}},{"type":"Feature","properties":{"k":"MIS","s":8.101},"geometry":{"type":"Polygon","coordinates":[[[2.90571,50.43005],[2.90664,50.42954],[2.90531,50.42908],[2.90273,50.42895],[2.90214,50.42955],[2.90171,50.42935],[2.9012,50.42973],[2.89989,50.42941],[2.89915,50.42994],[2.89844,50.42968],[2.89733,50.43036],[2.89716,50.43117],[2.89777,50.43065],[2.89879,50.43101],[2.90027,50.42981],[2.90062,50.42994],[2.89923,50.43115],[2.90571,50.43005]]]}},{"type":"Feature","properties":{"k":"MIS","s":4.144},"geometry":{"type":"Polygon","coordinates":[[[2.90085,50.431],[2.90208,50.4318],[2.90519,50.43178],[2.90825,50.43201],[2.90831,50.43185],[2.90716,50.43138],[2.90717,50.43119],[2.9067,50.43182],[2.90485,50.43118],[2.90516,50.43089],[2.90395,50.43046],[2.90085,50.431]]]}},{"type":"Feature","properties":{"k":"MIS","s":0.449},"geometry":{"type":"Polygon","coordinates":[[[2.90577,50.4325],[2.9052,50.43358],[2.90555,50.43366],[2.90629,50.43239],[2.90577,50.4325]]]}},{"type":"Feature","properties":{"k":"MIS","s":2.052},"geometry":{"type":"Polygon","coordinates":[[[2.89293,50.43099],[2.89322,50.42821],[2.89165,50.43014],[2.89227,50.43038],[2.89153,50.4312],[2.89256,50.43136],[2.89293,50.43099]]]}},{"type":"Feature","properties":{"k":"BTH","s":11.48},"geometry":{"type":"Polygon","coordinates":[[[2.88835,50.43084],[2.88894,50.43011],[2.88846,50.43087],[2.89153,50.4312],[2.89227,50.43038],[2.89165,50.43014],[2.89322,50.42821],[2.89335,50.42756],[2.89301,50.42725],[2.89307,50.4263],[2.8933,50.42624],[2.89314,50.42579],[2.89209,50.42677],[2.89175,50.42675],[2.88752,50.43014],[2.88821,50.43042],[2.88774,50.43074],[2.88835,50.43084]]]}},{"type":"Feature","properties":{"k":"JAC","s":0.495},"geometry":{"type":"Polygon","coordinates":[[[2.89723,50.4315],[2.8987,50.43127],[2.8978,50.43086],[2.89794,50.43071],[2.89777,50.43065],[2.89716,50.43117],[2.89723,50.4315]]]}}]}