{"type":"FeatureCollection","features":[{"type":"Feature","properties":{"k":"PTR","s":0.054},"geometry":{"type":"Polygon","coordinates":[[[2.12589,50.36952],[2.12514,50.37007],[2.12596,50.36956],[2.12589,50.36952]]]}},{"type":"Feature","properties":{"k":"MIS","s":2.024},"geometry":{"type":"Polygon","coordinates":[[[2.12856,50.36869],[2.12813,50.36852],[2.12759,50.36905],[2.12685,50.36884],[2.12582,50.36948],[2.12642,50.36978],[2.12866,50.36974],[2.12917,50.37106],[2.12856,50.36869]]]}},{"type":"Feature","properties":{"k":"PPH","s":0.147},"geometry":{"type":"Polygon","coordinates":[[[2.12477,50.36727],[2.12557,50.36657],[2.12414,50.36772],[2.12457,50.36772],[2.12477,50.36727]]]}},{"type":"Feature","properties":{"k":"PPH","s":0.543},"geometry":{"type":"Polygon","coordinates":[[[2.12689,50.36735],[2.12832,50.3673],[2.1278,50.36667],[2.1266,50.36713],[2.12689,50.36735]]]}},{"type":"Feature","properties":{"k":"PPH","s":1.311},"geometry":{"type":"Polygon","coordinates":[[[2.12549,50.36806],[2.12515,50.36799],[2.12473,50.36837],[2.12432,50.36782],[2.12312,50.36772],[2.12321,50.36811],[2.12419,50.3691],[2.12505,50.36876],[2.12496,50.36863],[2.12549,50.36806]]]}},{"type":"Feature","properties":{"k":"BTH","s":0.002},"geometry":{"type":"MultiPolygon","coordinates":[[[[2.13197,50.36492],[2.13215,50.36483],[2.13192,50.36492],[2.13197,50.36492]]]]}},{"type":"Feature","properties":{"k":"LIF","s":2.056},"geometry":{"type":"Polygon","coordinates":[[[2.13269,50.36571],[2.13524,50.36464],[2.13407,50.36406],[2.13189,50.36502],[2.13269,50.36571]]]}},{"type":"Feature","properties":{"k":"BTH","s":0.0},"geometry":{"type":"Polygon","coordinates":[[[2.13662,50.36243],[2.13655,50.36239],[2.13658,50.36242],[2.13662,50.36243]]]}},{"type":"Feature","properties":{"k":"MIS","s":0.42},"geometry":{"type":"Polygon","coordinates":[[[2.13518,50.3628],[2.13423,50.36358],[2.13465,50.36376],[2.13559,50.36309],[2.13518,50.3628]]]}},{"type":"Feature","properties":{"k":"JAC","s":0.086},"geometry":{"type":"Polygon","coordinates":[[[2.13465,50.36376],[2.13423,50.36358],[2.13408,50.36369],[2.13439,50.36393],[2.13415,50.3641],[2.13465,50.36376]]]}},{"type":"Feature","properties":{"k":"BTH","s":5.868},"geometry":{"type":"Polygon","coordinates":[[[2.13607,50.3621],[2.13518,50.3628],[2.13559,50.36309],[2.13415,50.3641],[2.13551,50.36474],[2.1396,50.36714],[2.1406,50.36661],[2.13548,50.3636],[2.13693,50.36263],[2.13607,50.3621]]]}},{"type":"Feature","properties":{"k":"BTH","s":6.636},"geometry":{"type":"Polygon","coordinates":[[[2.14235,50.36977],[2.14482,50.36926],[2.14067,50.36666],[2.13849,50.36773],[2.14049,50.36903],[2.14129,50.36861],[2.14235,50.36977]]]}},{"type":"Feature","properties":{"k":"BTN","s":0.001},"geometry":{"type":"Polygon","coordinates":[[[2.14231,50.36761],[2.14208,50.36747],[2.1423,50.36761],[2.14231,50.36761]]]}},{"type":"Feature","properties":{"k":"BTH","s":0.502},"geometry":{"type":"Polygon","coordinates":[[[2.14482,50.36926],[2.14523,50.36926],[2.14472,50.36879],[2.14234,50.36763],[2.14482,50.36926]]]}},{"type":"Feature","properties":{"k":"ORH","s":0.033},"geometry":{"type":"Polygon","coordinates":[[[2.14732,50.37166],[2.14627,50.37045],[2.14621,50.37046],[2.14732,50.37166]]]}},{"type":"Feature","properties":{"k":"BTN","s":6.161},"geometry":{"type":"Polygon","coordinates":[[[2.14467,50.37281],[2.14652,50.37348],[2.14586,50.37435],[2.14773,50.37438],[2.14869,50.3742],[2.14824,50.37271],[2.14645,50.37072],[2.14467,50.37281]]]}},{"type":"Feature","properties":{"k":"MIS","s":5.48},"geometry":{"type":"Polygon","coordinates":[[[2.14565,50.3699],[2.14489,50.37019],[2.14385,50.37136],[2.14383,50.37214],[2.14202,50.37442],[2.14297,50.37472],[2.14645,50.37072],[2.14565,50.3699]]]}},{"type":"Feature","properties":{"k":"PPH","s":0.111},"geometry":{"type":"Polygon","coordinates":[[[2.14535,50.36954],[2.14627,50.37045],[2.14527,50.36931],[2.14503,50.36933],[2.14535,50.36954]]]}},{"type":"Feature","properties":{"k":"BTH","s":2.473},"geometry":{"type":"Polygon","coordinates":[[[2.14118,50.37157],[2.14022,50.37359],[2.14067,50.37395],[2.14137,50.37421],[2.14236,50.37199],[2.14118,50.37157]]]}},{"type":"Feature","properties":{"k":"BTH","s":2.846},"geometry":{"type":"Polygon","coordinates":[[[2.14017,50.37119],[2.13765,50.37184],[2.13863,50.37217],[2.13954,50.37276],[2.14022,50.37359],[2.14118,50.37157],[2.14017,50.37119]]]}},{"type":"Feature","properties":{"k":"BTN","s":2.048},"geometry":{"type":"Polygon","coordinates":[[[2.13628,50.37376],[2.13851,50.37221],[2.13753,50.37187],[2.13541,50.373],[2.13628,50.37376]]]}},{"type":"Feature","properties":{"k":"BTH","s":1.828},"geometry":{"type":"Polygon","coordinates":[[[2.13538,50.37297],[2.1375,50.37186],[2.13455,50.37139],[2.13538,50.37297]]]}},{"type":"Feature","properties":{"k":"MIS","s":3.106},"geometry":{"type":"Polygon","coordinates":[[[2.13593,50.36891],[2.1374,50.37062],[2.13938,50.37033],[2.13729,50.36835],[2.13593,50.36891]]]}},{"type":"Feature","properties":{"k":"PPH","s":11.075},"geometry":{"type":"Polygon","coordinates":[[[2.14218,50.36974],[2.1413,50.36861],[2.14049,50.36903],[2.14144,50.36991],[2.14026,50.37023],[2.13737,50.37064],[2.13596,50.369],[2.13558,50.36906],[2.13453,50.36966],[2.135,50.36991],[2.13481,50.37003],[2.1345,50.36971],[2.13361,50.37061],[2.13448,50.37128],[2.13763,50.37183],[2.14013,50.37117],[2.14236,50.37199],[2.14252,50.3701],[2.14235,50.36977],[2.14203,50.36949],[2.14176,50.3691],[2.14164,50.36897],[2.1416,50.36893],[2.14218,50.36974]],[[2.14203,50.37043],[2.14227,50.37131],[2.14202,50.37126],[2.14203,50.37043]]]}},{"type":"Feature","properties":{"k":"LIF","s":3.878},"geometry":{"type":"Polygon","coordinates":[[[2.13938,50.37033],[2.14139,50.36981],[2.13849,50.36773],[2.13732,50.36832],[2.13938,50.37033]]]}},{"type":"Feature","properties":{"k":"PHF","s":9.707},"geometry":{"type":"Polygon","coordinates":[[[2.13269,50.36571],[2.13345,50.36626],[2.13447,50.36644],[2.13388,50.36686],[2.13699,50.36839],[2.1396,50.36714],[2.13524,50.36464],[2.13269,50.36571]]]}},{"type":"Feature","properties":{"k":"MIS","s":2.28},"geometry":{"type":"Polygon","coordinates":[[[2.13389,50.36686],[2.1331,50.36747],[2.13593,50.36882],[2.13699,50.36839],[2.13389,50.36686]]]}},{"type":"Feature","properties":{"k":"PPH","s":5.552},"geometry":{"type":"Polygon","coordinates":[[[2.13135,50.36668],[2.13107,50.36697],[2.13152,50.36725],[2.13171,50.3671],[2.1319,50.36718],[2.13129,50.3678],[2.13192,50.3676],[2.13232,50.36807],[2.13187,50.36832],[2.13134,50.36839],[2.13176,50.36869],[2.13278,50.3679],[2.13349,50.36826],[2.13307,50.36881],[2.13462,50.36951],[2.13523,50.36916],[2.13593,50.36882],[2.13326,50.36752],[2.13325,50.36752],[2.13263,50.36745],[2.13305,50.36746],[2.13401,50.36676],[2.13333,50.36653],[2.1334,50.36623],[2.13252,50.36559],[2.13099,50.36649],[2.13135,50.36668]]]}},{"type":"Feature","properties":{"k":"VRG","s":0.27},"geometry":{"type":"Polygon","coordinates":[[[2.13447,50.36644],[2.1334,50.36623],[2.13333,50.36653],[2.13389,50.36677],[2.13447,50.36644]]]}},{"type":"Feature","properties":{"k":"PPH","s":1.533},"geometry":{"type":"Polygon","coordinates":[[[2.12973,50.36618],[2.12973,50.36646],[2.13006,50.36639],[2.13062,50.36677],[2.1317,50.3661],[2.1325,50.36557],[2.13187,50.36506],[2.12973,50.36618]]]}},{"type":"Feature","properties":{"k":"PPH","s":0.412},"geometry":{"type":"Polygon","coordinates":[[[2.12939,50.36705],[2.12968,50.36703],[2.12978,50.36672],[2.12939,50.36634],[2.12842,50.36659],[2.12848,50.36683],[2.12919,50.3667],[2.12939,50.36705]]]}},{"type":"Feature","properties":{"k":"LIF","s":4.441},"geometry":{"type":"MultiPolygon","coordinates":[[[[2.13211,50.37372],[2.13288,50.37243],[2.13063,50.3712],[2.1292,50.37118],[2.129,50.37099],[2.12926,50.37194],[2.12887,50.37226],[2.13211,50.37372]]],[[[2.12637,50.36978],[2.12642,50.36978],[2.12599,50.36957],[2.12637,50.36978]]]]}},{"type":"Feature","properties":{"k":"LIF","s":2.118},"geometry":{"type":"Polygon","coordinates":[[[2.13732,50.37632],[2.13526,50.37782],[2.13716,50.3785],[2.1377,50.37831],[2.13732,50.37632]]]}},{"type":"Feature","properties":{"k":"BTN","s":4.793},"geometry":{"type":"Polygon","coordinates":[[[2.13526,50.37782],[2.13715,50.37644],[2.13641,50.37457],[2.13328,50.37703],[2.13526,50.37782]]]}},{"type":"Feature","properties":{"k":"PPH","s":2.251},"geometry":{"type":"Polygon","coordinates":[[[2.12976,50.36992],[2.12989,50.36945],[2.12903,50.36931],[2.12894,50.36881],[2.12857,50.36873],[2.12922,50.37115],[2.1307,50.37118],[2.13105,50.37008],[2.12976,50.36992]]]}},{"type":"Feature","properties":{"k":"PPH","s":2.758},"geometry":{"type":"Polygon","coordinates":[[[2.13241,50.36829],[2.13277,50.36849],[2.13209,50.36882],[2.13194,50.36869],[2.13166,50.36883],[2.13184,50.36896],[2.13135,50.36919],[2.13161,50.36945],[2.13197,50.36926],[2.13228,50.36943],[2.13198,50.36965],[2.13351,50.37047],[2.1346,50.36951],[2.13306,50.36881],[2.13347,50.36826],[2.13279,50.36792],[2.13241,50.36829]]]}},{"type":"Feature","properties":{"k":"LIF","s":2.236},"geometry":{"type":"Polygon","coordinates":[[[2.13063,50.3712],[2.13288,50.37243],[2.13312,50.37126],[2.13131,50.37019],[2.13101,50.37037],[2.13063,50.3712]]]}},{"type":"Feature","properties":{"k":"BTH","s":6.4},"geometry":{"type":"Polygon","coordinates":[[[2.13328,50.37703],[2.1366,50.37442],[2.13627,50.37387],[2.13534,50.37307],[2.13173,50.37587],[2.13328,50.37703]]]}},{"type":"Feature","properties":{"k":"PTR","s":0.328},"geometry":{"type":"Polygon","coordinates":[[[2.13691,50.37575],[2.13715,50.37644],[2.13732,50.37632],[2.1366,50.37442],[2.1365,50.37471],[2.13691,50.37575]]]}},{"type":"Feature","properties":{"k":"BTH","s":12.73},"geometry":{"type":"Polygon","coordinates":[[[2.13731,50.37579],[2.13775,50.37792],[2.14246,50.37464],[2.14065,50.37412],[2.13969,50.37303],[2.13855,50.3722],[2.1363,50.37375],[2.13731,50.37579]]]}},{"type":"Feature","properties":{"k":"BTH","s":6.57},"geometry":{"type":"Polygon","coordinates":[[[2.13255,50.37347],[2.1315,50.37434],[2.13084,50.37531],[2.13172,50.37583],[2.13529,50.37308],[2.13429,50.37128],[2.13365,50.37076],[2.13255,50.37347]]]}},{"type":"Feature","properties":{"k":"PPH","s":0.985},"geometry":{"type":"Polygon","coordinates":[[[2.12721,50.36822],[2.12822,50.36849],[2.12836,50.36831],[2.12867,50.36837],[2.129,50.36791],[2.12859,50.36763],[2.12871,50.36735],[2.12788,50.36736],[2.12721,50.36822]]]}},{"type":"Feature","properties":{"k":"JAC","s":0.072},"geometry":{"type":"Polygon","coordinates":[[[2.12952,50.37248],[2.12948,50.37251],[2.13204,50.37369],[2.12952,50.37248]]]}},{"type":"Feature","properties":{"k":"MSW","s":0.15},"geometry":{"type":"Polygon","coordinates":[[[2.13524,50.3732],[2.1352,50.37318],[2.13185,50.37577],[2.13524,50.3732]]]}},{"type":"Feature","properties":{"k":"BTH","s":0.413},"geometry":{"type":"Polygon","coordinates":[[[2.12887,50.37226],[2.12877,50.37234],[2.13187,50.37388],[2.13204,50.37378],[2.12887,50.37226]]]}},{"type":"Feature","properties":{"k":"MSW","s":0.084},"geometry":{"type":"Polygon","coordinates":[[[2.14085,50.3758],[2.14081,50.37579],[2.13776,50.37795],[2.14085,50.3758]]]}},{"type":"Feature","properties":{"k":"PHF","s":6.836},"geometry":{"type":"Polygon","coordinates":[[[2.13989,50.38005],[2.13747,50.37872],[2.1351,50.38111],[2.13663,50.38228],[2.13724,50.38169],[2.13814,50.38184],[2.13989,50.38005]]]}},{"type":"Feature","properties":{"k":"MIS","s":1.206},"geometry":{"type":"Polygon","coordinates":[[[2.13509,50.38111],[2.13745,50.37873],[2.137,50.3785],[2.13475,50.38084],[2.13509,50.38111]]]}},{"type":"Feature","properties":{"k":"MIS","s":1.943},"geometry":{"type":"Polygon","coordinates":[[[2.13623,50.37821],[2.1341,50.38035],[2.13475,50.38084],[2.13704,50.37851],[2.13623,50.37821]]]}},{"type":"Feature","properties":{"k":"MIS","s":2.397},"geometry":{"type":"Polygon","coordinates":[[[2.13346,50.3809],[2.13615,50.37821],[2.13535,50.37795],[2.13253,50.38065],[2.13346,50.3809]]]}},{"type":"Feature","properties":{"k":"BTH","s":0.038},"geometry":{"type":"Polygon","coordinates":[[[2.13056,50.38014],[2.13026,50.38033],[2.13059,50.38016],[2.13346,50.38091],[2.13056,50.38014]]]}},{"type":"Feature","properties":{"k":"ORP","s":2.736},"geometry":{"type":"Polygon","coordinates":[[[2.13147,50.38037],[2.13253,50.38065],[2.13535,50.37795],[2.1345,50.37765],[2.13147,50.38037]]]}},{"type":"Feature","properties":{"k":"BTH","s":7.225},"geometry":{"type":"Polygon","coordinates":[[[2.13299,50.37697],[2.1323,50.37633],[2.13069,50.37539],[2.12909,50.37599],[2.12879,50.3778],[2.13053,50.37902],[2.13299,50.37697]]]}},{"type":"Feature","properties":{"k":"LIF","s":5.433},"geometry":{"type":"Polygon","coordinates":[[[2.133,50.37697],[2.12934,50.38008],[2.13025,50.38033],[2.13055,50.38013],[2.13147,50.38037],[2.1345,50.37765],[2.133,50.37697]]]}},{"type":"Feature","properties":{"k":"BTH","s":0.704},"geometry":{"type":"MultiPolygon","coordinates":[[[[2.1304,50.37894],[2.12879,50.3778],[2.12834,50.37833],[2.13041,50.37912],[2.1304,50.37894]]]]}},{"type":"Feature","properties":{"k":"BTH","s":0.412},"geometry":{"type":"Polygon","coordinates":[[[2.13829,50.38338],[2.13926,50.38402],[2.14024,50.38359],[2.13829,50.38338]]]}},{"type":"Feature","properties":{"k":"MIS","s":0.612},"geometry":{"type":"Polygon","coordinates":[[[2.13663,50.38228],[2.13722,50.38268],[2.13814,50.38184],[2.13724,50.38169],[2.13663,50.38228]]]}},{"type":"Feature","properties":{"k":"CZH","s":1.895},"geometry":{"type":"Polygon","coordinates":[[[2.13727,50.38271],[2.1377,50.38299],[2.13961,50.38323],[2.13837,50.38239],[2.14044,50.38032],[2.13998,50.3801],[2.13727,50.38271]]]}},{"type":"Feature","properties":{"k":"ORH","s":6.118},"geometry":{"type":"Polygon","coordinates":[[[2.14045,50.38032],[2.13838,50.38239],[2.13962,50.38322],[2.14114,50.3834],[2.14272,50.38171],[2.14239,50.38137],[2.14045,50.38032]]]}},{"type":"Feature","properties":{"k":"PTR","s":0.25},"geometry":{"type":"Polygon","coordinates":[[[2.14124,50.38041],[2.14109,50.38052],[2.14281,50.38149],[2.143,50.38142],[2.14124,50.38041]]]}},{"type":"Feature","properties":{"k":"CZH","s":2.323},"geometry":{"type":"Polygon","coordinates":[[[2.143,50.38161],[2.14448,50.38237],[2.14605,50.38127],[2.14445,50.38052],[2.143,50.38161]]]}},{"type":"Feature","properties":{"k":"BTH","s":0.011},"geometry":{"type":"Polygon","coordinates":[[[2.15182,50.37808],[2.15224,50.37828],[2.15188,50.37804],[2.15182,50.37808]]]}},{"type":"Feature","properties":{"k":"MIS","s":0.002},"geometry":{"type":"MultiPolygon","coordinates":[[[[2.15187,50.37805],[2.15188,50.37804],[2.15171,50.37793],[2.15187,50.37805]]]]}},{"type":"Feature","properties":{"k":"TRE","s":0.263},"geometry":{"type":"Polygon","coordinates":[[[2.15117,50.37733],[2.15094,50.37747],[2.15083,50.37725],[2.15019,50.37734],[2.15176,50.37805],[2.15117,50.37733]]]}},{"type":"Feature","properties":{"k":"ORH","s":5.911},"geometry":{"type":"Polygon","coordinates":[[[2.14727,50.37853],[2.15013,50.37989],[2.15231,50.37832],[2.14943,50.37693],[2.14727,50.37853]]]}},{"type":"Feature","properties":{"k":"BTH","s":4.066},"geometry":{"type":"Polygon","coordinates":[[[2.14713,50.37863],[2.14445,50.38052],[2.14605,50.38127],[2.14878,50.37935],[2.14713,50.37863]]]}},{"type":"Feature","properties":{"k":"BTN","s":9.854},"geometry":{"type":"Polygon","coordinates":[[[2.14669,50.37884],[2.14903,50.37723],[2.14637,50.37678],[2.14124,50.38041],[2.14625,50.37691],[2.14129,50.38044],[2.143,50.38142],[2.14669,50.37884]]]}},{"type":"Feature","properties":{"k":"MSW","s":0.098},"geometry":{"type":"Polygon","coordinates":[[[2.14326,50.37691],[2.1393,50.37969],[2.14397,50.37646],[2.14326,50.37691]]]}},{"type":"Feature","properties":{"k":"MSW","s":0.091},"geometry":{"type":"Polygon","coordinates":[[[2.13949,50.3796],[2.14384,50.37657],[2.14329,50.37692],[2.13949,50.3796]]]}},{"type":"Feature","properties":{"k":"BTH","s":9.019},"geometry":{"type":"Polygon","coordinates":[[[2.14085,50.3758],[2.13776,50.37795],[2.13791,50.37875],[2.13822,50.37913],[2.1393,50.37969],[2.14394,50.37646],[2.14085,50.3758]]]}},{"type":"Feature","properties":{"k":"MSW","s":0.214},"geometry":{"type":"Polygon","coordinates":[[[2.14625,50.37691],[2.14124,50.38041],[2.14129,50.38044],[2.14625,50.37691]]]}},{"type":"Feature","properties":{"k":"BTH","s":15.114},"geometry":{"type":"Polygon","coordinates":[[[2.14109,50.38052],[2.14637,50.37678],[2.14903,50.37723],[2.15057,50.37611],[2.15051,50.37599],[2.15028,50.37582],[2.14496,50.37504],[2.14324,50.37635],[2.14397,50.37646],[2.14384,50.37657],[2.13932,50.3797],[2.14109,50.38052]]]}},{"type":"Feature","properties":{"k":"CPL","s":0.132},"geometry":{"type":"Polygon","coordinates":[[[2.14307,50.37632],[2.14324,50.37635],[2.14477,50.37521],[2.1448,50.37516],[2.14307,50.37632]]]}},{"type":"Feature","properties":{"k":"MSW","s":0.049},"geometry":{"type":"Polygon","coordinates":[]}},{"type":"Feature","properties":{"k":"MIS","s":0.937},"geometry":{"type":"Polygon","coordinates":[[[2.14246,50.37464],[2.14085,50.3758],[2.14168,50.376],[2.14317,50.37485],[2.14246,50.37464]]]}},{"type":"Feature","properties":{"k":"BTH","s":1.685},"geometry":{"type":"Polygon","coordinates":[[[2.14307,50.37632],[2.14463,50.37525],[2.14317,50.37485],[2.14168,50.376],[2.14307,50.37632]]]}},{"type":"Feature","properties":{"k":"MSW","s":0.145},"geometry":{"type":"Polygon","coordinates":[[[2.14147,50.37446],[2.14235,50.3746],[2.14068,50.37413],[2.14074,50.37408],[2.14008,50.37357],[2.13974,50.37301],[2.13876,50.37233],[2.13969,50.37303],[2.14023,50.3738],[2.14065,50.37412],[2.14147,50.37446]]]}},{"type":"Feature","properties":{"k":"PTR","s":0.195},"geometry":{"type":"Polygon","coordinates":[[[2.14307,50.37461],[2.14297,50.37472],[2.14459,50.37517],[2.14481,50.37508],[2.14307,50.37461]]]}},{"type":"Feature","properties":{"k":"BTN","s":3.27},"geometry":{"type":"Polygon","coordinates":[[[2.14647,50.37347],[2.14467,50.37281],[2.14307,50.37461],[2.14481,50.37508],[2.14647,50.37347]]]}},{"type":"Feature","properties":{"k":"ORH","s":2.894},"geometry":{"type":"Polygon","coordinates":[[[2.1477,50.3744],[2.14582,50.37439],[2.14499,50.37501],[2.15024,50.37579],[2.14898,50.37518],[2.14862,50.37424],[2.1477,50.3744]]]}},{"type":"Feature","properties":{"k":"JAC","s":0.105},"geometry":{"type":"Polygon","coordinates":[[[2.14499,50.37501],[2.14496,50.37504],[2.15028,50.37582],[2.14499,50.37501]]]}},{"type":"Feature","properties":{"k":"TRE","s":0.712},"geometry":{"type":"Polygon","coordinates":[[[2.15061,50.37712],[2.15088,50.3769],[2.15057,50.37611],[2.14943,50.37693],[2.15,50.37723],[2.15061,50.37712]]]}}]}