{"type":"FeatureCollection","features":[{"type":"Feature","properties":{"k":"FRA","s":0.477},"geometry":{"type":"Polygon","coordinates":[[[2.93831,50.33287],[2.93744,50.33245],[2.93704,50.3329],[2.9379,50.3334],[2.93831,50.33287]]]}},{"type":"Feature","properties":{"k":"CZH","s":7.904},"geometry":{"type":"Polygon","coordinates":[[[2.92139,50.33259],[2.92374,50.33325],[2.92613,50.32973],[2.92377,50.32902],[2.92139,50.33259]]]}},{"type":"Feature","properties":{"k":"FLP","s":0.073},"geometry":{"type":"Polygon","coordinates":[[[2.93753,50.33387],[2.9373,50.33414],[2.93799,50.33414],[2.93753,50.33387]]]}},{"type":"Feature","properties":{"k":"FRA","s":0.425},"geometry":{"type":"Polygon","coordinates":[[[2.9373,50.33414],[2.93753,50.33387],[2.93799,50.33414],[2.93808,50.33413],[2.93844,50.33372],[2.93791,50.3334],[2.9375,50.33386],[2.93723,50.3337],[2.93683,50.33413],[2.9373,50.33414]]]}},{"type":"Feature","properties":{"k":"PFR","s":0.097},"geometry":{"type":"Polygon","coordinates":[[[2.93844,50.33372],[2.93808,50.33413],[2.93843,50.33413],[2.93867,50.33385],[2.93844,50.33372]]]}},{"type":"Feature","properties":{"k":"BTH","s":8.456},"geometry":{"type":"Polygon","coordinates":[[[2.93696,50.33453],[2.93586,50.33596],[2.94063,50.33784],[2.94076,50.33458],[2.93696,50.33453]]]}},{"type":"Feature","properties":{"k":"BTH","s":3.207},"geometry":{"type":"Polygon","coordinates":[[[2.94179,50.3383],[2.94191,50.33457],[2.94076,50.33458],[2.94063,50.33784],[2.94179,50.3383]]]}},{"type":"Feature","properties":{"k":"PTR","s":1.655},"geometry":{"type":"Polygon","coordinates":[[[2.94158,50.33421],[2.94154,50.33367],[2.94027,50.33359],[2.93923,50.33315],[2.93835,50.33422],[2.94158,50.33421]]]}},{"type":"Feature","properties":{"k":"PTC","s":1.121},"geometry":{"type":"Polygon","coordinates":[[[2.94391,50.33387],[2.94154,50.33366],[2.94157,50.33412],[2.94655,50.33415],[2.94654,50.334],[2.94391,50.33387]]]}},{"type":"Feature","properties":{"k":"MIS","s":0.188},"geometry":{"type":"Polygon","coordinates":[[[2.94455,50.33412],[2.94157,50.33412],[2.94655,50.33418],[2.94455,50.33412]]]}},{"type":"Feature","properties":{"k":"BTN","s":4.571},"geometry":{"type":"Polygon","coordinates":[[[2.94323,50.33886],[2.94333,50.33456],[2.94192,50.33457],[2.94179,50.33829],[2.94323,50.33886]]]}},{"type":"Feature","properties":{"k":"BTH","s":3.574},"geometry":{"type":"Polygon","coordinates":[[[2.94436,50.33456],[2.94334,50.33456],[2.94323,50.33887],[2.9442,50.33926],[2.94436,50.33456]]]}},{"type":"Feature","properties":{"k":"BTH","s":0.905},"geometry":{"type":"Polygon","coordinates":[[[2.94509,50.33385],[2.9462,50.33393],[2.94634,50.33313],[2.94683,50.33315],[2.94684,50.33303],[2.94516,50.33293],[2.94509,50.33385]]]}},{"type":"Feature","properties":{"k":"BTN","s":1.2},"geometry":{"type":"Polygon","coordinates":[[[2.94678,50.33316],[2.94668,50.33395],[2.9489,50.33412],[2.94824,50.33328],[2.94678,50.33316]]]}},{"type":"Feature","properties":{"k":"MIS","s":1.058},"geometry":{"type":"Polygon","coordinates":[[[2.94516,50.33293],[2.94684,50.33303],[2.94692,50.33218],[2.94523,50.3322],[2.94516,50.33293]]]}},{"type":"Feature","properties":{"k":"BTH","s":1.996},"geometry":{"type":"Polygon","coordinates":[[[2.94344,50.33374],[2.94509,50.33385],[2.94522,50.33229],[2.94364,50.3323],[2.94344,50.33374]]]}},{"type":"Feature","properties":{"k":"BTN","s":1.955},"geometry":{"type":"Polygon","coordinates":[[[2.92029,50.33194],[2.9208,50.33228],[2.92308,50.32881],[2.92246,50.32865],[2.92029,50.33194]]]}},{"type":"Feature","properties":{"k":"ORP","s":2.532},"geometry":{"type":"Polygon","coordinates":[[[2.91876,50.33403],[2.91836,50.33436],[2.92151,50.33627],[2.92192,50.33502],[2.91876,50.33403]]]}},{"type":"Feature","properties":{"k":"BTH","s":1.201},"geometry":{"type":"Polygon","coordinates":[[[2.92192,50.33502],[2.92159,50.33629],[2.92263,50.33685],[2.92295,50.33563],[2.92192,50.33502]]]}},{"type":"Feature","properties":{"k":"BTH","s":9.96},"geometry":{"type":"Polygon","coordinates":[[[2.91786,50.33817],[2.91962,50.33587],[2.91584,50.33366],[2.91522,50.33498],[2.91488,50.3349],[2.91426,50.33626],[2.91786,50.33817]]]}},{"type":"Feature","properties":{"k":"ORH","s":2.898},"geometry":{"type":"Polygon","coordinates":[[[2.91324,50.33453],[2.91376,50.3335],[2.91071,50.33325],[2.91007,50.33449],[2.91324,50.33453]]]}},{"type":"Feature","properties":{"k":"PTC","s":1.909},"geometry":{"type":"MultiPolygon","coordinates":[[[[2.91712,50.32268],[2.91704,50.32279],[2.91634,50.32246],[2.91461,50.32508],[2.91536,50.32529],[2.91712,50.32268]]],[[[2.91713,50.32268],[2.91645,50.32236],[2.91637,50.32246],[2.91703,50.32277],[2.91712,50.32268],[2.91713,50.32268]]]]}},{"type":"Feature","properties":{"k":"MIS","s":4.335},"geometry":{"type":"Polygon","coordinates":[[[2.9137,50.33612],[2.91439,50.33477],[2.91319,50.33453],[2.91152,50.33801],[2.91286,50.33864],[2.91399,50.33619],[2.9137,50.33612]]]}},{"type":"Feature","properties":{"k":"PTC","s":2.525},"geometry":{"type":"Polygon","coordinates":[[[2.91077,50.33774],[2.91152,50.33801],[2.91319,50.33453],[2.91221,50.33452],[2.91217,50.33462],[2.91073,50.33773],[2.91077,50.33774]]]}},{"type":"Feature","properties":{"k":"BTH","s":0.002},"geometry":{"type":"Polygon","coordinates":[]}},{"type":"Feature","properties":{"k":"BTN","s":1.897},"geometry":{"type":"Polygon","coordinates":[[[2.91356,50.33906],[2.91481,50.33653],[2.91399,50.33619],[2.91282,50.33873],[2.91356,50.33906]]]}},{"type":"Feature","properties":{"k":"PTC","s":4.376},"geometry":{"type":"MultiPolygon","coordinates":[[[[2.91648,50.33761],[2.91475,50.33667],[2.91481,50.33654],[2.9136,50.33897],[2.91517,50.33966],[2.91648,50.33761]]],[[[2.91662,50.33766],[2.91676,50.3376],[2.91668,50.33771],[2.9165,50.33761],[2.91518,50.33966],[2.91532,50.33972],[2.91526,50.33982],[2.91677,50.3376],[2.91481,50.33653],[2.91481,50.33654],[2.91662,50.33766]]],[[[2.91366,50.339],[2.91366,50.3391],[2.91526,50.33983],[2.91526,50.33982],[2.91366,50.339]]]]}},{"type":"Feature","properties":{"k":"BTH","s":3.343},"geometry":{"type":"Polygon","coordinates":[[[2.92055,50.34268],[2.92243,50.34354],[2.92342,50.34266],[2.92079,50.34116],[2.9198,50.34202],[2.92055,50.34268]]]}},{"type":"Feature","properties":{"k":"BTH","s":2.361},"geometry":{"type":"Polygon","coordinates":[[[2.9156,50.32199],[2.91371,50.32484],[2.91461,50.32508],[2.91642,50.32235],[2.9156,50.32199]]]}},{"type":"Feature","properties":{"k":"BTH","s":4.725},"geometry":{"type":"Polygon","coordinates":[[[2.93418,50.34445],[2.93344,50.34534],[2.9338,50.34555],[2.93358,50.34572],[2.93341,50.34561],[2.93336,50.34597],[2.93292,50.34631],[2.93254,50.3461],[2.93238,50.34625],[2.93466,50.34745],[2.93666,50.34577],[2.93418,50.34445]]]}},{"type":"Feature","properties":{"k":"FLA","s":1.2},"geometry":{"type":"Polygon","coordinates":[[[2.93568,50.33351],[2.93622,50.3338],[2.93663,50.33335],[2.9375,50.33386],[2.93791,50.3334],[2.93627,50.33248],[2.93568,50.33351]]]}},{"type":"Feature","properties":{"k":"BTH","s":3.275},"geometry":{"type":"Polygon","coordinates":[[[2.91261,50.3245],[2.9137,50.32483],[2.91558,50.32198],[2.91429,50.32158],[2.91261,50.3245]]]}},{"type":"Feature","properties":{"k":"BTH","s":0.003},"geometry":{"type":"Polygon","coordinates":[[[2.91932,50.32391],[2.9187,50.32354],[2.91894,50.3237],[2.91932,50.32391]]]}},{"type":"Feature","properties":{"k":"LIF","s":10.477},"geometry":{"type":"Polygon","coordinates":[[[2.91709,50.32273],[2.9149,50.32624],[2.91527,50.32631],[2.91497,50.32672],[2.91534,50.3276],[2.91706,50.32798],[2.91943,50.32426],[2.91709,50.32273]]]}},{"type":"Feature","properties":{"k":"BTH","s":4.393},"geometry":{"type":"Polygon","coordinates":[[[2.91068,50.33782],[2.91221,50.33452],[2.91203,50.33452],[2.91044,50.3345],[2.90909,50.33753],[2.90915,50.33754],[2.90916,50.33755],[2.9092,50.33755],[2.91068,50.33782]],[[2.91215,50.33462],[2.91202,50.33462],[2.91203,50.33452],[2.91215,50.33462]]]}},{"type":"Feature","properties":{"k":"PPH","s":0.309},"geometry":{"type":"Polygon","coordinates":[[[2.91044,50.3345],[2.90894,50.33751],[2.90909,50.33753],[2.91044,50.3345]]]}},{"type":"Feature","properties":{"k":"CZH","s":0.835},"geometry":{"type":"Polygon","coordinates":[[[2.909,50.33739],[2.91034,50.3345],[2.91007,50.33449],[2.90856,50.33742],[2.90894,50.33751],[2.909,50.33739]]]}},{"type":"Feature","properties":{"k":"MIS","s":0.862},"geometry":{"type":"Polygon","coordinates":[[[2.91449,50.33275],[2.91311,50.3319],[2.9128,50.33292],[2.91443,50.33305],[2.91449,50.33275]]]}},{"type":"Feature","properties":{"k":"BTN","s":4.532},"geometry":{"type":"Polygon","coordinates":[[[2.91667,50.33317],[2.918,50.33316],[2.91843,50.33155],[2.91667,50.32979],[2.91571,50.33261],[2.91667,50.33317]]]}},{"type":"Feature","properties":{"k":"PHF","s":4.161},"geometry":{"type":"Polygon","coordinates":[[[2.9157,50.33264],[2.91667,50.32979],[2.91534,50.32859],[2.91425,50.33173],[2.9157,50.33264]]]}},{"type":"Feature","properties":{"k":"BTH","s":2.834},"geometry":{"type":"Polygon","coordinates":[[[2.91534,50.32859],[2.91523,50.32848],[2.91389,50.32817],[2.91424,50.32826],[2.91333,50.33118],[2.91425,50.33173],[2.91534,50.32859]]]}},{"type":"Feature","properties":{"k":"CZH","s":2.155},"geometry":{"type":"Polygon","coordinates":[[[2.92081,50.33227],[2.92139,50.33259],[2.92368,50.32914],[2.92298,50.32896],[2.92081,50.33227]]]}},{"type":"Feature","properties":{"k":"MIS","s":3.323},"geometry":{"type":"Polygon","coordinates":[[[2.94064,50.34112],[2.93922,50.34285],[2.93873,50.34264],[2.93713,50.34477],[2.93802,50.34528],[2.94119,50.34133],[2.94064,50.34112]]]}},{"type":"Feature","properties":{"k":"BTN","s":0.004},"geometry":{"type":"Polygon","coordinates":[[[2.94349,50.3484],[2.94385,50.34792],[2.94347,50.34839],[2.94349,50.3484]]]}},{"type":"Feature","properties":{"k":"BTH","s":4.629},"geometry":{"type":"Polygon","coordinates":[[[2.93103,50.34829],[2.93257,50.34921],[2.93466,50.34745],[2.93238,50.34625],[2.931,50.34777],[2.93128,50.34792],[2.93103,50.34829]]]}},{"type":"Feature","properties":{"k":"BOR","s":0.136},"geometry":{"type":"Polygon","coordinates":[[[2.93118,50.32841],[2.9311,50.32927],[2.93254,50.32956],[2.93121,50.32923],[2.93118,50.32841]]]}},{"type":"Feature","properties":{"k":"PTC","s":0.889},"geometry":{"type":"Polygon","coordinates":[[[2.93276,50.32893],[2.9312,50.32841],[2.93121,50.32923],[2.93254,50.32956],[2.93291,50.32901],[2.93276,50.32893]]]}},{"type":"Feature","properties":{"k":"ORH","s":0.0},"geometry":{"type":"Polygon","coordinates":[]}},{"type":"Feature","properties":{"k":"BOR","s":0.097},"geometry":{"type":"Polygon","coordinates":[[[2.92298,50.32896],[2.92368,50.32914],[2.92377,50.329],[2.92309,50.3288],[2.92298,50.32896]]]}},{"type":"Feature","properties":{"k":"BTN","s":6.882},"geometry":{"type":"Polygon","coordinates":[[[2.92365,50.32587],[2.92272,50.32549],[2.9191,50.33098],[2.92029,50.33194],[2.92246,50.32865],[2.92193,50.32852],[2.92365,50.32587]]]}},{"type":"Feature","properties":{"k":"CZH","s":15.679},"geometry":{"type":"Polygon","coordinates":[[[2.91659,50.32887],[2.9191,50.33098],[2.92272,50.32549],[2.92111,50.32492],[2.91955,50.32427],[2.91659,50.32887]]]}},{"type":"Feature","properties":{"k":"CZH","s":0.447},"geometry":{"type":"Polygon","coordinates":[[[2.91714,50.32812],[2.91945,50.32423],[2.91702,50.32805],[2.91714,50.32812]]]}},{"type":"Feature","properties":{"k":"BTH","s":0.847},"geometry":{"type":"Polygon","coordinates":[[[2.94267,50.33369],[2.94343,50.33374],[2.94356,50.33232],[2.94278,50.33235],[2.94267,50.33369]]]}},{"type":"Feature","properties":{"k":"BTA","s":0.029},"geometry":{"type":"MultiPolygon","coordinates":[[[[2.94356,50.33232],[2.94356,50.33227],[2.94278,50.33235],[2.94356,50.33232]]],[[[2.94356,50.33226],[2.94279,50.3323],[2.94356,50.33227],[2.94356,50.33226]]]]}},{"type":"Feature","properties":{"k":"JAC","s":1.753},"geometry":{"type":"Polygon","coordinates":[[[2.94371,50.33218],[2.94587,50.33216],[2.94585,50.33119],[2.94367,50.33111],[2.94371,50.33218]]]}},{"type":"Feature","properties":{"k":"BTA","s":0.067},"geometry":{"type":"Polygon","coordinates":[[[2.94522,50.33229],[2.94522,50.33222],[2.94357,50.33224],[2.94522,50.33229]]]}},{"type":"Feature","properties":{"k":"MIS","s":0.35},"geometry":{"type":"Polygon","coordinates":[[[2.94499,50.33059],[2.94416,50.33058],[2.9442,50.33112],[2.94497,50.33115],[2.94499,50.33059]]]}},{"type":"Feature","properties":{"k":"BTH","s":26.896},"geometry":{"type":"Polygon","coordinates":[[[2.94246,50.34185],[2.94233,50.34196],[2.94208,50.34188],[2.94222,50.34175],[2.94119,50.34134],[2.93803,50.34529],[2.94345,50.34842],[2.94709,50.34368],[2.94667,50.34351],[2.94656,50.34363],[2.94635,50.34354],[2.94644,50.34342],[2.94246,50.34185]]]}},{"type":"Feature","properties":{"k":"BTN","s":4.331},"geometry":{"type":"MultiPolygon","coordinates":[[[[2.94711,50.34255],[2.94709,50.34338],[2.94827,50.34193],[2.94797,50.34183],[2.94947,50.34004],[2.94847,50.33968],[2.94857,50.33951],[2.94787,50.33927],[2.94725,50.33765],[2.94711,50.34255]]],[[[2.9484,50.342],[2.94758,50.34301],[2.94844,50.34198],[2.94827,50.34193],[2.9484,50.342]]]]}},{"type":"Feature","properties":{"k":"BTN","s":7.075},"geometry":{"type":"Polygon","coordinates":[[[2.9472,50.3375],[2.94673,50.3361],[2.94659,50.33458],[2.94612,50.33458],[2.94599,50.34318],[2.9469,50.34355],[2.94709,50.34332],[2.9472,50.3375]]]}},{"type":"Feature","properties":{"k":"BTN","s":11.636},"geometry":{"type":"Polygon","coordinates":[[[2.94405,50.34242],[2.94599,50.34319],[2.946,50.33457],[2.94438,50.33457],[2.94405,50.34242]]]}},{"type":"Feature","properties":{"k":"BTH","s":13.048},"geometry":{"type":"Polygon","coordinates":[[[2.94095,50.3411],[2.94405,50.34242],[2.9442,50.33926],[2.93981,50.33752],[2.93818,50.34009],[2.94095,50.3411]]]}},{"type":"Feature","properties":{"k":"ORH","s":4.801},"geometry":{"type":"Polygon","coordinates":[[[2.93795,50.33679],[2.93641,50.33897],[2.93682,50.33898],[2.93651,50.33941],[2.93818,50.34009],[2.9397,50.33748],[2.93795,50.33679]]]}},{"type":"Feature","properties":{"k":"BTH","s":4.211},"geometry":{"type":"Polygon","coordinates":[[[2.9362,50.33925],[2.93795,50.33679],[2.93602,50.33602],[2.93476,50.33822],[2.9362,50.33925]]]}},{"type":"Feature","properties":{"k":"PPH","s":11.998},"geometry":{"type":"Polygon","coordinates":[[[2.93733,50.34114],[2.93682,50.34084],[2.93776,50.34016],[2.93707,50.33974],[2.93392,50.34277],[2.93713,50.34477],[2.93873,50.34264],[2.93922,50.34285],[2.94064,50.34112],[2.93848,50.34026],[2.93819,50.34054],[2.93864,50.34109],[2.93852,50.34137],[2.93767,50.34163],[2.9371,50.3413],[2.93733,50.34114]]]}},{"type":"Feature","properties":{"k":"BTH","s":5.549},"geometry":{"type":"Polygon","coordinates":[[[2.91526,50.33983],[2.91761,50.3408],[2.91949,50.34211],[2.92081,50.34098],[2.91607,50.33864],[2.91526,50.33983]]]}},{"type":"Feature","properties":{"k":"BTH","s":5.059},"geometry":{"type":"Polygon","coordinates":[[[2.92173,50.34023],[2.91677,50.3376],[2.91607,50.33864],[2.92081,50.34098],[2.92173,50.34023]]]}},{"type":"Feature","properties":{"k":"BTH","s":10.012},"geometry":{"type":"Polygon","coordinates":[[[2.92266,50.33773],[2.91962,50.33587],[2.91786,50.33817],[2.92173,50.34023],[2.92175,50.34005],[2.92364,50.33892],[2.92266,50.33773]]]}},{"type":"Feature","properties":{"k":"PTC","s":6.377},"geometry":{"type":"Polygon","coordinates":[[[2.92705,50.33622],[2.92612,50.33739],[2.92921,50.3399],[2.93077,50.33809],[2.92705,50.33622]]]}},{"type":"Feature","properties":{"k":"BTN","s":9.3},"geometry":{"type":"Polygon","coordinates":[[[2.92226,50.34012],[2.92692,50.34277],[2.92881,50.34107],[2.92494,50.33886],[2.92468,50.33886],[2.92389,50.3395],[2.92226,50.34012]]]}},{"type":"Feature","properties":{"k":"BOR","s":0.191},"geometry":{"type":"Polygon","coordinates":[[[2.9193,50.32398],[2.91713,50.32268],[2.91943,50.32426],[2.9193,50.32398]]]}},{"type":"Feature","properties":{"k":"BTH","s":1.487},"geometry":{"type":"Polygon","coordinates":[[[2.91281,50.32134],[2.91214,50.32235],[2.91358,50.32274],[2.91429,50.32158],[2.91281,50.32134]]]}},{"type":"Feature","properties":{"k":"BOR","s":0.209},"geometry":{"type":"Polygon","coordinates":[[[2.91497,50.32672],[2.91529,50.32768],[2.91706,50.32798],[2.91534,50.3276],[2.91497,50.32672]]]}},{"type":"Feature","properties":{"k":"PHF","s":7.147},"geometry":{"type":"Polygon","coordinates":[[[2.92226,50.34012],[2.92079,50.34116],[2.92563,50.34393],[2.92692,50.34277],[2.92226,50.34012]]]}},{"type":"Feature","properties":{"k":"PPR","s":2.248},"geometry":{"type":"Polygon","coordinates":[[[2.92483,50.34462],[2.92563,50.34393],[2.92342,50.34266],[2.92243,50.34354],[2.92483,50.34462]]]}},{"type":"Feature","properties":{"k":"BTH","s":0.0},"geometry":{"type":"Polygon","coordinates":[]}},{"type":"Feature","properties":{"k":"BTH","s":5.93},"geometry":{"type":"Polygon","coordinates":[[[2.92528,50.34465],[2.92664,50.34537],[2.93046,50.34201],[2.92909,50.34123],[2.92528,50.34465]]]}},{"type":"Feature","properties":{"k":"BTH","s":6.047},"geometry":{"type":"Polygon","coordinates":[[[2.93046,50.34201],[2.92659,50.34541],[2.92794,50.3462],[2.93179,50.34277],[2.93046,50.34201]]]}},{"type":"Feature","properties":{"k":"CZH","s":15.16},"geometry":{"type":"MultiPolygon","coordinates":[[[[2.92995,50.34039],[2.93047,50.34073],[2.93017,50.34052],[2.93127,50.33969],[2.93648,50.33954],[2.93598,50.33928],[2.93522,50.33866],[2.93462,50.33923],[2.93411,50.33889],[2.9339,50.33837],[2.93103,50.33783],[2.92923,50.33989],[2.92995,50.34039]]],[[[2.93111,50.34115],[2.93148,50.34138],[2.93394,50.34272],[2.93703,50.33973],[2.93522,50.33866],[2.93685,50.33964],[2.93676,50.33973],[2.93129,50.3399],[2.93047,50.34073],[2.93111,50.34115]]]]}},{"type":"Feature","properties":{"k":"BOR","s":0.233},"geometry":{"type":"Polygon","coordinates":[[[2.93189,50.33794],[2.93197,50.33777],[2.93123,50.33761],[2.93103,50.33783],[2.9339,50.33837],[2.93189,50.33794]]]}},{"type":"Feature","properties":{"k":"JAC","s":0.088},"geometry":{"type":"Polygon","coordinates":[[[2.93509,50.33858],[2.93452,50.33919],[2.93461,50.33923],[2.93521,50.33865],[2.93509,50.33858]]]}},{"type":"Feature","properties":{"k":"MIS","s":0.328},"geometry":{"type":"Polygon","coordinates":[[[2.93536,50.33717],[2.935,50.33706],[2.93448,50.33802],[2.93476,50.33822],[2.93536,50.33717]]]}},{"type":"Feature","properties":{"k":"PPH","s":1.628},"geometry":{"type":"Polygon","coordinates":[[[2.93536,50.33717],[2.93602,50.33602],[2.9353,50.33577],[2.93403,50.33561],[2.93402,50.33582],[2.93265,50.33564],[2.93268,50.33585],[2.93501,50.33612],[2.93488,50.33645],[2.93287,50.33619],[2.93299,50.33635],[2.93478,50.3366],[2.93461,50.33695],[2.93536,50.33717]]]}},{"type":"Feature","properties":{"k":"JAC","s":0.385},"geometry":{"type":"Polygon","coordinates":[[[2.93178,50.3361],[2.93091,50.33598],[2.93071,50.33649],[2.9316,50.33664],[2.93178,50.3361]]]}},{"type":"Feature","properties":{"k":"BTN","s":1.653},"geometry":{"type":"Polygon","coordinates":[[[2.92857,50.33648],[2.92727,50.33593],[2.92705,50.33622],[2.93077,50.33809],[2.93123,50.33761],[2.92857,50.33648]]]}},{"type":"Feature","properties":{"k":"BTH","s":3.789},"geometry":{"type":"Polygon","coordinates":[[[2.9304,50.33725],[2.93114,50.33535],[2.92941,50.33508],[2.92937,50.33528],[2.92788,50.3353],[2.92727,50.33593],[2.9304,50.33725]]]}},{"type":"Feature","properties":{"k":"MIS","s":1.623},"geometry":{"type":"Polygon","coordinates":[[[2.9242,50.33771],[2.92437,50.33765],[2.92453,50.33691],[2.92295,50.33563],[2.92264,50.33684],[2.9242,50.33771]]]}},{"type":"Feature","properties":{"k":"BTH","s":1.036},"geometry":{"type":"Polygon","coordinates":[[[2.92792,50.33335],[2.92801,50.33282],[2.92926,50.3329],[2.92929,50.33249],[2.92692,50.33256],[2.92673,50.33327],[2.92792,50.33335]]]}},{"type":"Feature","properties":{"k":"BTH","s":1.291},"geometry":{"type":"Polygon","coordinates":[[[2.92693,50.33219],[2.92685,50.33185],[2.92628,50.33184],[2.92561,50.33387],[2.92645,50.3339],[2.92693,50.33219]]]}},{"type":"Feature","properties":{"k":"BTN","s":1.69},"geometry":{"type":"Polygon","coordinates":[[[2.92519,50.33183],[2.92459,50.33359],[2.92517,50.3338],[2.92561,50.33386],[2.92628,50.33184],[2.92519,50.33183]]]}},{"type":"Feature","properties":{"k":"BTN","s":3.146},"geometry":{"type":"Polygon","coordinates":[[[2.92459,50.33359],[2.92519,50.33183],[2.92685,50.33185],[2.92665,50.32989],[2.92613,50.32973],[2.92374,50.33325],[2.92459,50.33359]]]}},{"type":"Feature","properties":{"k":"PPH","s":1.093},"geometry":{"type":"Polygon","coordinates":[[[2.93727,50.33126],[2.93575,50.33087],[2.93527,50.33147],[2.93647,50.33182],[2.9372,50.33224],[2.93727,50.33126]]]}},{"type":"Feature","properties":{"k":"PPH","s":0.881},"geometry":{"type":"Polygon","coordinates":[[[2.92799,50.33029],[2.92814,50.3298],[2.92626,50.32919],[2.92593,50.32966],[2.92799,50.33029]]]}},{"type":"Feature","properties":{"k":"BTH","s":0.794},"geometry":{"type":"Polygon","coordinates":[[[2.92735,50.33186],[2.92734,50.3301],[2.92665,50.32989],[2.92685,50.33185],[2.92735,50.33186]]]}},{"type":"Feature","properties":{"k":"PTR","s":0.098},"geometry":{"type":"Polygon","coordinates":[[[2.92798,50.33053],[2.92724,50.33053],[2.92726,50.3307],[2.92798,50.3307],[2.92798,50.33053]]]}},{"type":"Feature","properties":{"k":"BTH","s":0.222},"geometry":{"type":"Polygon","coordinates":[[[2.92956,50.33055],[2.92958,50.33035],[2.92811,50.33033],[2.92813,50.33051],[2.92956,50.33055]]]}},{"type":"Feature","properties":{"k":"BTH","s":0.499},"geometry":{"type":"Polygon","coordinates":[[[2.92886,50.33007],[2.92956,50.33007],[2.92962,50.32933],[2.92892,50.32901],[2.92886,50.33007]]]}},{"type":"Feature","properties":{"k":"MIS","s":0.555},"geometry":{"type":"Polygon","coordinates":[[[2.9336,50.32934],[2.93291,50.32903],[2.93235,50.32984],[2.9331,50.33007],[2.9336,50.32934]]]}},{"type":"Feature","properties":{"k":"PPH","s":1.137},"geometry":{"type":"Polygon","coordinates":[[[2.9321,50.3298],[2.93101,50.3297],[2.93118,50.33035],[2.93284,50.33076],[2.9334,50.33024],[2.9321,50.3298]]]}},{"type":"Feature","properties":{"k":"PPH","s":0.478},"geometry":{"type":"Polygon","coordinates":[[[2.93368,50.33297],[2.93377,50.3323],[2.93284,50.33229],[2.93281,50.33293],[2.93368,50.33297]]]}},{"type":"Feature","properties":{"k":"PPH","s":0.877},"geometry":{"type":"Polygon","coordinates":[[[2.93294,50.3335],[2.93392,50.33363],[2.93446,50.33292],[2.93376,50.33296],[2.93394,50.33186],[2.93537,50.33154],[2.93384,50.33182],[2.93368,50.33297],[2.93268,50.33293],[2.93294,50.3335]]]}},{"type":"Feature","properties":{"k":"JAC","s":0.861},"geometry":{"type":"Polygon","coordinates":[[[2.93493,50.33286],[2.93526,50.33205],[2.9339,50.33204],[2.93376,50.33296],[2.93493,50.33286]]]}},{"type":"Feature","properties":{"k":"FLP","s":0.033},"geometry":{"type":"Polygon","coordinates":[[[2.93574,50.33333],[2.93605,50.33305],[2.93586,50.33294],[2.93574,50.33333]]]}},{"type":"Feature","properties":{"k":"TOM","s":0.229},"geometry":{"type":"Polygon","coordinates":[[[2.93493,50.33286],[2.93587,50.33293],[2.93612,50.33264],[2.93504,50.33259],[2.93493,50.33286]]]}},{"type":"Feature","properties":{"k":"JAC","s":0.681},"geometry":{"type":"Polygon","coordinates":[[[2.93537,50.33154],[2.93394,50.33186],[2.9339,50.33204],[2.93666,50.33202],[2.93537,50.33154]]]}},{"type":"Feature","properties":{"k":"BTA","s":0.035},"geometry":{"type":"Polygon","coordinates":[[[2.9354,50.33068],[2.93465,50.33049],[2.93462,50.33054],[2.9354,50.33068]]]}},{"type":"Feature","properties":{"k":"PPH","s":0.706},"geometry":{"type":"Polygon","coordinates":[[[2.93379,50.33096],[2.93367,50.33121],[2.93281,50.33108],[2.93277,50.33118],[2.9333,50.33124],[2.93351,50.33178],[2.93514,50.33143],[2.93379,50.33096]]]}},{"type":"Feature","properties":{"k":"BTH","s":1.068},"geometry":{"type":"Polygon","coordinates":[[[2.93284,50.33107],[2.93364,50.3312],[2.93377,50.33087],[2.93523,50.33144],[2.93562,50.3309],[2.93345,50.33035],[2.93284,50.33107]]]}},{"type":"Feature","properties":{"k":"BTA","s":0.14},"geometry":{"type":"Polygon","coordinates":[[[2.93345,50.33035],[2.93566,50.33085],[2.93342,50.33029],[2.93285,50.33102],[2.93345,50.33035]]]}},{"type":"Feature","properties":{"k":"BTA","s":0.075},"geometry":{"type":"Polygon","coordinates":[[[2.93462,50.33055],[2.93466,50.3305],[2.9331,50.33006],[2.93462,50.33055]]]}},{"type":"Feature","properties":{"k":"MIS","s":1.206},"geometry":{"type":"Polygon","coordinates":[[[2.93465,50.3305],[2.93535,50.32942],[2.93442,50.32956],[2.9336,50.32934],[2.9331,50.33006],[2.93465,50.3305]]]}},{"type":"Feature","properties":{"k":"MIS","s":0.697},"geometry":{"type":"Polygon","coordinates":[[[2.93599,50.32975],[2.93536,50.32941],[2.93465,50.33049],[2.9354,50.33068],[2.93599,50.32975]]]}},{"type":"Feature","properties":{"k":"BTH","s":0.004},"geometry":{"type":"MultiPolygon","coordinates":[[[[2.94233,50.3305],[2.9418,50.33051],[2.94217,50.33052],[2.94233,50.3305]]],[[[2.94352,50.32939],[2.94354,50.32941],[2.94365,50.32939],[2.94352,50.32939]]]]}},{"type":"Feature","properties":{"k":"MIS","s":2.695},"geometry":{"type":"Polygon","coordinates":[[[2.94151,50.33199],[2.94324,50.33195],[2.94325,50.33023],[2.94249,50.33054],[2.94091,50.33055],[2.94088,50.33188],[2.94151,50.33199]]]}},{"type":"Feature","properties":{"k":"JAC","s":1.735},"geometry":{"type":"Polygon","coordinates":[[[2.94128,50.33224],[2.94341,50.33221],[2.94335,50.33107],[2.94367,50.33105],[2.94356,50.33005],[2.94325,50.33023],[2.94324,50.33195],[2.94151,50.33199],[2.93709,50.33094],[2.93751,50.33015],[2.93685,50.3311],[2.94128,50.33224]]]}},{"type":"Feature","properties":{"k":"OAG","s":2.787},"geometry":{"type":"Polygon","coordinates":[[[2.94251,50.33369],[2.94267,50.33223],[2.94123,50.33225],[2.9402,50.33197],[2.94013,50.33348],[2.94251,50.33369]]]}},{"type":"Feature","properties":{"k":"MIS","s":1.206},"geometry":{"type":"Polygon","coordinates":[[[2.93824,50.3328],[2.94006,50.33343],[2.94016,50.33241],[2.93869,50.33248],[2.93723,50.33204],[2.93722,50.33225],[2.93824,50.3328]]]}},{"type":"Feature","properties":{"k":"BTA","s":0.133},"geometry":{"type":"Polygon","coordinates":[[[2.9402,50.33201],[2.93727,50.33126],[2.93727,50.33133],[2.9402,50.33201]]]}},{"type":"Feature","properties":{"k":"MIS","s":1.558},"geometry":{"type":"Polygon","coordinates":[[[2.94016,50.33241],[2.94019,50.33205],[2.93727,50.33133],[2.93723,50.33204],[2.93869,50.33248],[2.94016,50.33241]]]}},{"type":"Feature","properties":{"k":"PTC","s":12.233},"geometry":{"type":"Polygon","coordinates":[[[2.93421,50.34414],[2.93179,50.34277],[2.92782,50.34631],[2.93069,50.34802],[2.93244,50.34592],[2.93421,50.34414]],[[2.93262,50.34344],[2.9327,50.34349],[2.93258,50.34359],[2.93262,50.34344]],[[2.93008,50.34664],[2.92998,50.3466],[2.93004,50.34654],[2.93008,50.34664]]]}}]}