{"type":"FeatureCollection","features":[{"type":"Feature","properties":{"k":"ORH","s":0.008},"geometry":{"type":"Polygon","coordinates":[[[1.79691,50.89602],[1.7969,50.89601],[1.79598,50.89738],[1.79691,50.89602]]]}},{"type":"Feature","properties":{"k":"MIS","s":2.306},"geometry":{"type":"Polygon","coordinates":[[[1.79836,50.89824],[1.79634,50.89686],[1.79574,50.89777],[1.79618,50.89805],[1.79595,50.89845],[1.79688,50.8991],[1.79836,50.89824]]]}},{"type":"Feature","properties":{"k":"BTH","s":10.478},"geometry":{"type":"Polygon","coordinates":[[[1.79634,50.89686],[1.79836,50.89824],[1.79688,50.8991],[1.79886,50.90049],[1.79745,50.90132],[1.79847,50.90205],[1.80059,50.90077],[1.80035,50.90035],[1.80091,50.90056],[1.80127,50.90033],[1.79867,50.89842],[1.80033,50.89738],[1.79742,50.89528],[1.79634,50.89686]]]}},{"type":"Feature","properties":{"k":"BTH","s":0.936},"geometry":{"type":"Polygon","coordinates":[[[1.79552,50.89821],[1.79469,50.89954],[1.79491,50.89973],[1.79651,50.89884],[1.79552,50.89821]]]}},{"type":"Feature","properties":{"k":"BTH","s":0.047},"geometry":{"type":"Polygon","coordinates":[[[1.79388,50.90116],[1.79406,50.9006],[1.79338,50.90224],[1.79388,50.90116]]]}},{"type":"Feature","properties":{"k":"LIF","s":2.385},"geometry":{"type":"Polygon","coordinates":[[[1.79674,50.90289],[1.79762,50.90251],[1.79421,50.90031],[1.7939,50.90109],[1.79674,50.90289]]]}},{"type":"Feature","properties":{"k":"BTH","s":3.519},"geometry":{"type":"Polygon","coordinates":[[[1.79651,50.89884],[1.79491,50.89973],[1.79741,50.9013],[1.79881,50.90047],[1.79651,50.89884]]]}},{"type":"Feature","properties":{"k":"LIF","s":1.093},"geometry":{"type":"Polygon","coordinates":[[[1.79511,50.90036],[1.79802,50.90228],[1.79831,50.90209],[1.79781,50.90164],[1.79568,50.90032],[1.79552,50.90041],[1.79446,50.89974],[1.79439,50.89988],[1.79511,50.90036]]]}},{"type":"Feature","properties":{"k":"BTH","s":1.413},"geometry":{"type":"Polygon","coordinates":[[[1.79439,50.8999],[1.79421,50.90031],[1.79761,50.9025],[1.79802,50.90227],[1.79439,50.8999]]]}},{"type":"Feature","properties":{"k":"ORH","s":2.756},"geometry":{"type":"Polygon","coordinates":[[[1.80009,50.9033],[1.79839,50.90221],[1.79654,50.90311],[1.79845,50.90417],[1.80009,50.9033]]]}},{"type":"Feature","properties":{"k":"BOR","s":0.119},"geometry":{"type":"Polygon","coordinates":[[[1.79654,50.90311],[1.79647,50.90316],[1.79834,50.90422],[1.79654,50.90311]]]}},{"type":"Feature","properties":{"k":"LIF","s":3.015},"geometry":{"type":"Polygon","coordinates":[[[1.79674,50.90289],[1.79392,50.9011],[1.79342,50.90223],[1.79528,50.90365],[1.79674,50.90289]]]}},{"type":"Feature","properties":{"k":"MIS","s":0.0},"geometry":{"type":"Polygon","coordinates":[]}},{"type":"Feature","properties":{"k":"BTH","s":0.001},"geometry":{"type":"MultiPolygon","coordinates":[]}},{"type":"Feature","properties":{"k":"JAC","s":2.434},"geometry":{"type":"Polygon","coordinates":[[[1.79111,50.90632],[1.78859,50.90774],[1.79138,50.90872],[1.79116,50.90787],[1.79128,50.90643],[1.79111,50.90632]]]}},{"type":"Feature","properties":{"k":"BTH","s":0.026},"geometry":{"type":"MultiPolygon","coordinates":[[[[1.78728,50.90857],[1.78648,50.90908],[1.78654,50.90911],[1.78728,50.90857]]],[[[1.78955,50.90713],[1.78914,50.90739],[1.78954,50.90716],[1.78955,50.90713]]]]}},{"type":"Feature","properties":{"k":"BTH","s":5.299},"geometry":{"type":"Polygon","coordinates":[[[1.78591,50.90951],[1.78738,50.90996],[1.79007,50.90976],[1.79138,50.90872],[1.78859,50.90774],[1.78591,50.90951]]]}},{"type":"Feature","properties":{"k":"BTN","s":0.013},"geometry":{"type":"Polygon","coordinates":[[[1.78598,50.9094],[1.78652,50.90912],[1.78647,50.90908],[1.78598,50.9094]]]}},{"type":"Feature","properties":{"k":"ORH","s":7.394},"geometry":{"type":"Polygon","coordinates":[[[1.7953,50.9125],[1.78591,50.90951],[1.7848,50.91017],[1.79366,50.91299],[1.7953,50.9125]]]}},{"type":"Feature","properties":{"k":"BTN","s":9.145},"geometry":{"type":"Polygon","coordinates":[[[1.79189,50.90963],[1.79249,50.91002],[1.79453,50.91064],[1.79857,50.91049],[1.79316,50.90747],[1.79231,50.90807],[1.79211,50.90821],[1.79201,50.90828],[1.79138,50.90872],[1.79189,50.90963]]]}},{"type":"Feature","properties":{"k":"BTH","s":10.732},"geometry":{"type":"Polygon","coordinates":[[[1.80045,50.91121],[1.79808,50.91093],[1.79815,50.91053],[1.79525,50.91067],[1.79375,50.91048],[1.79201,50.90976],[1.79138,50.90872],[1.78904,50.91051],[1.7953,50.9125],[1.79679,50.91204],[1.79609,50.9118],[1.79604,50.9115],[1.79643,50.9112],[1.79737,50.9114],[1.79787,50.91177],[1.79894,50.9115],[1.79865,50.91128],[1.79916,50.91156],[1.80045,50.91121]]]}},{"type":"Feature","properties":{"k":"LIF","s":8.16},"geometry":{"type":"MultiPolygon","coordinates":[[[[1.80109,50.90814],[1.79539,50.90376],[1.79387,50.90472],[1.79987,50.90879],[1.80109,50.90814]]]]}},{"type":"Feature","properties":{"k":"LIF","s":17.921},"geometry":{"type":"Polygon","coordinates":[[[1.79111,50.90632],[1.79128,50.90643],[1.79857,50.91049],[1.80161,50.91059],[1.80218,50.91036],[1.79389,50.90473],[1.79111,50.90632]]]}},{"type":"Feature","properties":{"k":"BTH","s":3.989},"geometry":{"type":"Polygon","coordinates":[[[1.7934,50.90222],[1.79171,50.90597],[1.79263,50.90547],[1.79538,50.90373],[1.7934,50.90222]]]}},{"type":"Feature","properties":{"k":"ORH","s":1.979},"geometry":{"type":"Polygon","coordinates":[[[1.79543,50.90375],[1.79695,50.90496],[1.79834,50.90422],[1.79647,50.90316],[1.79543,50.90375]]]}},{"type":"Feature","properties":{"k":"LIF","s":2.305},"geometry":{"type":"Polygon","coordinates":[[[1.80009,50.9033],[1.79694,50.90498],[1.7976,50.90549],[1.80086,50.90389],[1.80009,50.9033]]]}},{"type":"Feature","properties":{"k":"LIF","s":2.295},"geometry":{"type":"Polygon","coordinates":[[[1.79834,50.90604],[1.80136,50.90463],[1.80085,50.90391],[1.7976,50.90549],[1.79834,50.90604]]]}},{"type":"Feature","properties":{"k":"ORH","s":2.458},"geometry":{"type":"Polygon","coordinates":[[[1.80415,50.90619],[1.80631,50.90641],[1.80694,50.90615],[1.80503,50.9048],[1.8032,50.9059],[1.80415,50.90619]]]}},{"type":"Feature","properties":{"k":"ORH","s":1.553},"geometry":{"type":"Polygon","coordinates":[[[1.80645,50.90691],[1.80632,50.90677],[1.80341,50.90624],[1.80322,50.90639],[1.80466,50.90756],[1.80555,50.90706],[1.80603,50.90737],[1.80645,50.90691]]]}},{"type":"Feature","properties":{"k":"BTN","s":5.635},"geometry":{"type":"Polygon","coordinates":[[[1.80139,50.90465],[1.79834,50.90605],[1.80048,50.90765],[1.80309,50.90632],[1.80139,50.90465]]]}},{"type":"Feature","properties":{"k":"BTP","s":1.183},"geometry":{"type":"Polygon","coordinates":[[[1.8013,50.90827],[1.80071,50.90856],[1.80281,50.91017],[1.80333,50.90984],[1.8013,50.90827]]]}},{"type":"Feature","properties":{"k":"BTH","s":7.883},"geometry":{"type":"Polygon","coordinates":[[[1.8023,50.91044],[1.80281,50.91017],[1.80071,50.90856],[1.8013,50.90827],[1.80333,50.90984],[1.80522,50.90819],[1.80311,50.90633],[1.80053,50.90769],[1.80114,50.90812],[1.7999,50.90881],[1.8023,50.91044]]]}},{"type":"Feature","properties":{"k":"JAC","s":0.996},"geometry":{"type":"Polygon","coordinates":[[[1.81047,50.91048],[1.81137,50.91228],[1.81177,50.91191],[1.81162,50.91168],[1.81216,50.91126],[1.81047,50.91048]]]}},{"type":"Feature","properties":{"k":"JAC","s":0.271},"geometry":{"type":"Polygon","coordinates":[[[1.80489,50.90781],[1.80519,50.90815],[1.80603,50.90737],[1.80587,50.90725],[1.80489,50.90781]]]}},{"type":"Feature","properties":{"k":"BTH","s":7.36},"geometry":{"type":"Polygon","coordinates":[[[1.8071,50.90243],[1.80715,50.90241],[1.80815,50.90054],[1.8052,50.89827],[1.80501,50.89832],[1.80502,50.89813],[1.80431,50.89846],[1.80451,50.89859],[1.80398,50.8992],[1.8033,50.89941],[1.8071,50.90243]]]}},{"type":"Feature","properties":{"k":"JAC","s":0.223},"geometry":{"type":"Polygon","coordinates":[[[1.80916,50.90316],[1.80796,50.90283],[1.80886,50.90355],[1.80916,50.90316]]]}},{"type":"Feature","properties":{"k":"JAC","s":0.153},"geometry":{"type":"Polygon","coordinates":[[[1.80607,50.90353],[1.80792,50.90389],[1.80574,50.90327],[1.80607,50.90353]]]}},{"type":"Feature","properties":{"k":"JAC","s":0.088},"geometry":{"type":"Polygon","coordinates":[[[1.80594,50.90342],[1.80557,50.9032],[1.80509,50.90329],[1.80517,50.90343],[1.80594,50.90342]]]}},{"type":"Feature","properties":{"k":"BTH","s":8.699},"geometry":{"type":"Polygon","coordinates":[[[1.80503,50.9048],[1.80694,50.90615],[1.80845,50.90405],[1.80516,50.90343],[1.80513,50.90325],[1.80557,50.9032],[1.80304,50.90146],[1.80154,50.90236],[1.80503,50.9048]]]}},{"type":"Feature","properties":{"k":"PHF","s":8.308},"geometry":{"type":"Polygon","coordinates":[[[1.80069,50.9036],[1.80189,50.90509],[1.80314,50.90594],[1.805,50.90481],[1.80002,50.90131],[1.7986,50.90208],[1.80069,50.9036]]]}},{"type":"Feature","properties":{"k":"LUZ","s":2.414},"geometry":{"type":"Polygon","coordinates":[[[1.80141,50.90034],[1.80003,50.9013],[1.80154,50.90236],[1.80304,50.90146],[1.80141,50.90034]]]}},{"type":"Feature","properties":{"k":"BOR","s":0.109},"geometry":{"type":"Polygon","coordinates":[[[1.80091,50.90056],[1.80049,50.9003],[1.80033,50.90043],[1.80059,50.90077],[1.80091,50.90056]]]}},{"type":"Feature","properties":{"k":"LIF","s":8.288},"geometry":{"type":"Polygon","coordinates":[[[1.8056,50.90323],[1.80574,50.90326],[1.80574,50.90327],[1.80846,50.90401],[1.80877,50.90356],[1.80774,50.9028],[1.80724,50.90264],[1.80303,50.89935],[1.80142,50.90033],[1.8056,50.90323]]]}},{"type":"Feature","properties":{"k":"BTH","s":2.283},"geometry":{"type":"Polygon","coordinates":[[[1.79873,50.89839],[1.79929,50.89866],[1.79927,50.89881],[1.80129,50.90027],[1.80198,50.90002],[1.80223,50.89986],[1.79954,50.89789],[1.79873,50.89839]]]}},{"type":"Feature","properties":{"k":"BTN","s":2.298},"geometry":{"type":"Polygon","coordinates":[[[1.80288,50.89923],[1.80036,50.89738],[1.79954,50.89789],[1.80223,50.89986],[1.80288,50.89923]]]}},{"type":"Feature","properties":{"k":"PTC","s":4.903},"geometry":{"type":"MultiPolygon","coordinates":[[[[1.8029,50.89921],[1.80414,50.89845],[1.80177,50.89666],[1.80045,50.89739],[1.8029,50.89921]]],[[[1.80417,50.89844],[1.80491,50.89808],[1.80249,50.89626],[1.80177,50.89666],[1.80417,50.89844]]]]}},{"type":"Feature","properties":{"k":"BTH","s":0.35},"geometry":{"type":"Polygon","coordinates":[[[1.80553,50.89852],[1.80619,50.8982],[1.80564,50.89776],[1.805,50.8981],[1.80553,50.89852]]]}},{"type":"Feature","properties":{"k":"BTH","s":8.957},"geometry":{"type":"Polygon","coordinates":[[[1.80804,50.89642],[1.8057,50.89774],[1.8062,50.8982],[1.80553,50.89853],[1.80815,50.90054],[1.80926,50.899],[1.81195,50.89955],[1.81199,50.89948],[1.80804,50.89642]]]}},{"type":"Feature","properties":{"k":"BTH","s":0.027},"geometry":{"type":"Polygon","coordinates":[[[1.81144,50.89776],[1.81185,50.89813],[1.81108,50.89729],[1.81144,50.89776]]]}},{"type":"Feature","properties":{"k":"BTH","s":4.134},"geometry":{"type":"Polygon","coordinates":[[[1.81053,50.89685],[1.80904,50.89583],[1.80796,50.89647],[1.81199,50.89948],[1.81244,50.89878],[1.81053,50.89685]]]}},{"type":"Feature","properties":{"k":"PHF","s":3.356},"geometry":{"type":"Polygon","coordinates":[[[1.80779,50.89649],[1.809,50.89574],[1.8056,50.89372],[1.8047,50.8942],[1.80779,50.89649]]]}},{"type":"Feature","properties":{"k":"BTH","s":12.567},"geometry":{"type":"Polygon","coordinates":[[[1.80555,50.89373],[1.80023,50.89104],[1.79869,50.89341],[1.80172,50.89567],[1.80555,50.89373]]]}},{"type":"Feature","properties":{"k":"BTH","s":9.012},"geometry":{"type":"Polygon","coordinates":[[[1.8047,50.89421],[1.80181,50.89576],[1.80493,50.89808],[1.80779,50.89649],[1.8047,50.89421]]]}},{"type":"Feature","properties":{"k":"MIS","s":7.225},"geometry":{"type":"Polygon","coordinates":[[[1.80036,50.89738],[1.80248,50.89624],[1.79866,50.89344],[1.79742,50.89528],[1.80036,50.89738]]]}},{"type":"Feature","properties":{"k":"LIF","s":0.086},"geometry":{"type":"Polygon","coordinates":[[[1.79865,50.89343],[1.7995,50.8921],[1.7969,50.89599],[1.79865,50.89343]]]}},{"type":"Feature","properties":{"k":"BTN","s":1.945},"geometry":{"type":"Polygon","coordinates":[[[1.83011,50.91398],[1.83046,50.91371],[1.82605,50.90971],[1.82569,50.90993],[1.83011,50.91398]]]}},{"type":"Feature","properties":{"k":"LIF","s":0.173},"geometry":{"type":"Polygon","coordinates":[[[1.8257,50.90993],[1.82602,50.90969],[1.82562,50.90932],[1.82526,50.90952],[1.8257,50.90993]]]}},{"type":"Feature","properties":{"k":"NVT","s":0.265},"geometry":{"type":"Polygon","coordinates":[[[1.82461,50.90876],[1.82458,50.90886],[1.82528,50.90951],[1.82562,50.90932],[1.82497,50.90879],[1.82461,50.90876]]]}},{"type":"Feature","properties":{"k":"JAC","s":0.281},"geometry":{"type":"Polygon","coordinates":[[[1.81776,50.90517],[1.81774,50.9051],[1.81277,50.90789],[1.81776,50.90517]]]}},{"type":"Feature","properties":{"k":"BTH","s":10.916},"geometry":{"type":"Polygon","coordinates":[[[1.81772,50.9068],[1.81776,50.90517],[1.81283,50.90795],[1.81326,50.90845],[1.81325,50.90893],[1.81466,50.90984],[1.81605,50.90895],[1.81779,50.91013],[1.81772,50.9068]]]}},{"type":"Feature","properties":{"k":"MID","s":0.847},"geometry":{"type":"Polygon","coordinates":[[[1.81847,50.90361],[1.81789,50.90386],[1.81779,50.90504],[1.81913,50.9043],[1.81847,50.90361]]]}},{"type":"Feature","properties":{"k":"JAC","s":0.523},"geometry":{"type":"Polygon","coordinates":[[[1.81774,50.9051],[1.81776,50.90517],[1.81966,50.90481],[1.81916,50.9043],[1.81774,50.9051]]]}},{"type":"Feature","properties":{"k":"BTH","s":4.311},"geometry":{"type":"Polygon","coordinates":[[[1.82126,50.90619],[1.81955,50.90749],[1.82048,50.90801],[1.82062,50.90791],[1.82265,50.90918],[1.82387,50.90863],[1.82126,50.90619]]]}},{"type":"Feature","properties":{"k":"BTH","s":4.026},"geometry":{"type":"Polygon","coordinates":[[[1.81779,50.90522],[1.81799,50.90767],[1.81952,50.9068],[1.82076,50.90572],[1.81966,50.90481],[1.81779,50.90522]]]}},{"type":"Feature","properties":{"k":"BTP","s":4.746},"geometry":{"type":"Polygon","coordinates":[[[1.818,50.90769],[1.81791,50.91045],[1.81886,50.91091],[1.81966,50.91056],[1.81823,50.90969],[1.82048,50.90802],[1.81955,50.9075],[1.82126,50.90619],[1.82076,50.90572],[1.81952,50.9068],[1.818,50.90769]]]}},{"type":"Feature","properties":{"k":"LIF","s":1.995},"geometry":{"type":"Polygon","coordinates":[[[1.81942,50.9088],[1.81823,50.90969],[1.81966,50.91056],[1.82115,50.90988],[1.81942,50.9088]]]}},{"type":"Feature","properties":{"k":"LIF","s":1.457},"geometry":{"type":"Polygon","coordinates":[[[1.82206,50.90943],[1.82019,50.90823],[1.81942,50.9088],[1.82113,50.90986],[1.82206,50.90943]]]}},{"type":"Feature","properties":{"k":"BTH","s":0.932},"geometry":{"type":"Polygon","coordinates":[[[1.82263,50.90918],[1.82061,50.90791],[1.82019,50.90823],[1.82209,50.90944],[1.82263,50.90918]]]}},{"type":"Feature","properties":{"k":"BTH","s":1.328},"geometry":{"type":"Polygon","coordinates":[[[1.82509,50.90972],[1.82422,50.90899],[1.82369,50.90888],[1.82267,50.90926],[1.82434,50.91023],[1.82509,50.90972]]]}},{"type":"Feature","properties":{"k":"ORH","s":2.267},"geometry":{"type":"Polygon","coordinates":[[[1.82551,50.91005],[1.82513,50.9097],[1.82043,50.91289],[1.82105,50.91308],[1.82551,50.91005]]]}},{"type":"Feature","properties":{"k":"BTN","s":7.393},"geometry":{"type":"Polygon","coordinates":[[[1.82433,50.91023],[1.82267,50.90926],[1.81879,50.91105],[1.81974,50.91223],[1.81938,50.91248],[1.82043,50.91289],[1.82433,50.91023]]]}},{"type":"Feature","properties":{"k":"JAC","s":0.16},"geometry":{"type":"Polygon","coordinates":[[[1.81605,50.90895],[1.81466,50.90984],[1.81605,50.909],[1.81778,50.91019],[1.81605,50.90895]]]}},{"type":"Feature","properties":{"k":"JAC","s":0.639},"geometry":{"type":"Polygon","coordinates":[[[1.8117,50.91089],[1.81319,50.90988],[1.81194,50.91024],[1.81082,50.91026],[1.8117,50.91089]]]}},{"type":"Feature","properties":{"k":"BTH","s":1.121},"geometry":{"type":"Polygon","coordinates":[[[1.81386,50.90945],[1.81173,50.91089],[1.81227,50.91115],[1.81442,50.9098],[1.81386,50.90945]]]}},{"type":"Feature","properties":{"k":"CZH","s":1.833},"geometry":{"type":"Polygon","coordinates":[[[1.81319,50.91416],[1.81465,50.91306],[1.81361,50.91229],[1.81222,50.91329],[1.81319,50.91416]]]}},{"type":"Feature","properties":{"k":"MIS","s":7.51},"geometry":{"type":"Polygon","coordinates":[[[1.81989,50.91425],[1.81901,50.91377],[1.81626,50.91291],[1.8151,50.91381],[1.81553,50.91404],[1.8149,50.91446],[1.81845,50.91645],[1.81959,50.91556],[1.81977,50.91562],[1.81976,50.91544],[1.81883,50.91499],[1.81989,50.91425]]]}},{"type":"Feature","properties":{"k":"BOR","s":0.039},"geometry":{"type":"Polygon","coordinates":[[[1.81551,50.91346],[1.81626,50.91291],[1.81548,50.91344],[1.81513,50.91379],[1.81551,50.91346]]]}},{"type":"Feature","properties":{"k":"BTH","s":2.697},"geometry":{"type":"Polygon","coordinates":[[[1.81923,50.91372],[1.82006,50.91418],[1.82096,50.91317],[1.81861,50.91232],[1.81736,50.9127],[1.81723,50.91311],[1.81923,50.91372]],[[1.81902,50.91342],[1.81893,50.91343],[1.81897,50.9134],[1.81902,50.91342]],[[1.81878,50.91352],[1.81837,50.9134],[1.8189,50.91345],[1.81878,50.91352]]]}},{"type":"Feature","properties":{"k":"BOR","s":0.025},"geometry":{"type":"Polygon","coordinates":[]}},{"type":"Feature","properties":{"k":"CZH","s":7.231},"geometry":{"type":"Polygon","coordinates":[[[1.82116,50.91874],[1.82356,50.92],[1.82395,50.91951],[1.82367,50.91884],[1.82079,50.91777],[1.81372,50.91387],[1.81326,50.91427],[1.8158,50.91591],[1.82116,50.91874]]]}},{"type":"Feature","properties":{"k":"PPH","s":2.887},"geometry":{"type":"Polygon","coordinates":[[[1.81845,50.91645],[1.82086,50.91777],[1.8218,50.91671],[1.81964,50.91555],[1.81845,50.91645]]]}},{"type":"Feature","properties":{"k":"PTR","s":0.33},"geometry":{"type":"Polygon","coordinates":[[[1.82024,50.91563],[1.81976,50.91541],[1.81977,50.91562],[1.82148,50.91645],[1.82166,50.91627],[1.82024,50.91563]]]}},{"type":"Feature","properties":{"k":"PPH","s":0.061},"geometry":{"type":"Polygon","coordinates":[[[1.82316,50.91645],[1.82297,50.91637],[1.82265,50.91663],[1.82284,50.91672],[1.82316,50.91645]]]}},{"type":"Feature","properties":{"k":"PPH","s":0.072},"geometry":{"type":"Polygon","coordinates":[[[1.82403,50.91699],[1.8235,50.91659],[1.82332,50.91672],[1.82403,50.91699]]]}},{"type":"Feature","properties":{"k":"PPH","s":1.301},"geometry":{"type":"Polygon","coordinates":[[[1.82312,50.91857],[1.82362,50.91791],[1.82285,50.91759],[1.8227,50.91773],[1.82183,50.91733],[1.82181,50.91712],[1.82161,50.91734],[1.82136,50.91727],[1.82089,50.91777],[1.82312,50.91857]],[[1.82181,50.91746],[1.82203,50.91751],[1.82193,50.91763],[1.82181,50.91746]]]}},{"type":"Feature","properties":{"k":"PTR","s":0.744},"geometry":{"type":"Polygon","coordinates":[[[1.82654,50.91988],[1.82548,50.91969],[1.82503,50.92045],[1.82606,50.92069],[1.82654,50.91988]]]}},{"type":"Feature","properties":{"k":"CZH","s":0.949},"geometry":{"type":"Polygon","coordinates":[[[1.82371,50.92012],[1.82488,50.92067],[1.82547,50.91968],[1.82421,50.91954],[1.82371,50.92012]]]}},{"type":"Feature","properties":{"k":"PPH","s":1.277},"geometry":{"type":"Polygon","coordinates":[[[1.82873,50.92063],[1.82913,50.92046],[1.82921,50.92011],[1.82995,50.9196],[1.82862,50.91907],[1.82849,50.91945],[1.8279,50.91999],[1.82873,50.92063]]]}},{"type":"Feature","properties":{"k":"PPH","s":3.25},"geometry":{"type":"Polygon","coordinates":[[[1.83588,50.92362],[1.83836,50.92108],[1.83711,50.92066],[1.8347,50.92327],[1.83543,50.9236],[1.83588,50.92362]]]}},{"type":"Feature","properties":{"k":"PPH","s":2.248},"geometry":{"type":"Polygon","coordinates":[[[1.83611,50.9203],[1.83432,50.92234],[1.83467,50.92241],[1.83467,50.92269],[1.8343,50.92308],[1.83466,50.92325],[1.83709,50.92068],[1.83611,50.9203]]]}},{"type":"Feature","properties":{"k":"PPH","s":0.85},"geometry":{"type":"Polygon","coordinates":[[[1.83336,50.91936],[1.83296,50.91989],[1.83321,50.92011],[1.83421,50.92042],[1.83286,50.92201],[1.83474,50.91984],[1.83336,50.91936]]]}},{"type":"Feature","properties":{"k":"PPH","s":0.472},"geometry":{"type":"Polygon","coordinates":[[[1.83307,50.92176],[1.8333,50.92184],[1.83499,50.91994],[1.83474,50.91984],[1.83307,50.92176]]]}},{"type":"Feature","properties":{"k":"PPH","s":0.966},"geometry":{"type":"Polygon","coordinates":[[[1.83307,50.92209],[1.83285,50.92241],[1.83318,50.92255],[1.83538,50.92006],[1.835,50.91993],[1.83307,50.92209]]]}},{"type":"Feature","properties":{"k":"PPH","s":0.915},"geometry":{"type":"Polygon","coordinates":[[[1.83425,50.91859],[1.83361,50.91882],[1.8364,50.91989],[1.83652,50.91965],[1.83425,50.91859]]]}},{"type":"Feature","properties":{"k":"PPH","s":0.485},"geometry":{"type":"Polygon","coordinates":[[[1.83347,50.91904],[1.83627,50.92007],[1.8364,50.91991],[1.83358,50.91884],[1.83347,50.91904]]]}},{"type":"Feature","properties":{"k":"PPH","s":1.355},"geometry":{"type":"Polygon","coordinates":[[[1.83463,50.9181],[1.83535,50.9186],[1.83694,50.9192],[1.83742,50.91867],[1.8344,50.91758],[1.83463,50.9181]]]}},{"type":"Feature","properties":{"k":"PPH","s":2.54},"geometry":{"type":"Polygon","coordinates":[[[1.83592,50.9164],[1.83517,50.91667],[1.83471,50.91711],[1.83776,50.9182],[1.83845,50.9174],[1.83592,50.9164]]]}},{"type":"Feature","properties":{"k":"PPH","s":0.995},"geometry":{"type":"Polygon","coordinates":[[[1.83495,50.91655],[1.83271,50.91582],[1.8325,50.91614],[1.83297,50.91655],[1.83455,50.91695],[1.83495,50.91655]]]}},{"type":"Feature","properties":{"k":"PPH","s":0.651},"geometry":{"type":"Polygon","coordinates":[[[1.82963,50.91587],[1.83125,50.91631],[1.83145,50.91607],[1.83179,50.91605],[1.82982,50.91543],[1.82963,50.91587]]]}},{"type":"Feature","properties":{"k":"PPH","s":3.826},"geometry":{"type":"Polygon","coordinates":[[[1.82957,50.92092],[1.83023,50.9214],[1.83153,50.92035],[1.83259,50.92006],[1.83303,50.91972],[1.83349,50.91878],[1.83425,50.91822],[1.83367,50.91767],[1.82957,50.92092]]]}},{"type":"Feature","properties":{"k":"PPH","s":1.437},"geometry":{"type":"Polygon","coordinates":[[[1.82825,50.91893],[1.83004,50.91953],[1.83033,50.91926],[1.83005,50.91873],[1.82787,50.91798],[1.82772,50.91851],[1.8284,50.91872],[1.82825,50.91893]]]}},{"type":"Feature","properties":{"k":"PPH","s":4.475},"geometry":{"type":"Polygon","coordinates":[[[1.82663,50.91809],[1.82684,50.91788],[1.82721,50.91801],[1.82738,50.91781],[1.83025,50.91874],[1.83055,50.91846],[1.83051,50.91792],[1.82697,50.91653],[1.82652,50.91647],[1.82578,50.91728],[1.82543,50.91717],[1.82531,50.91733],[1.82473,50.91714],[1.82463,50.91726],[1.82438,50.91718],[1.82435,50.91734],[1.82663,50.91809]]]}},{"type":"Feature","properties":{"k":"PHF","s":4.398},"geometry":{"type":"MultiPolygon","coordinates":[[[[1.82363,50.91381],[1.8213,50.91294],[1.8211,50.91308],[1.82367,50.91401],[1.82453,50.91343],[1.82452,50.91342],[1.82451,50.9134],[1.82427,50.91333],[1.82363,50.91381]]],[[[1.82452,50.9134],[1.82913,50.91477],[1.82992,50.91417],[1.82549,50.9101],[1.82527,50.91023],[1.82807,50.91274],[1.82648,50.91381],[1.82449,50.9132],[1.82433,50.91333],[1.82451,50.9134],[1.82452,50.9134]]]]}},{"type":"Feature","properties":{"k":"CAR","s":9.952},"geometry":{"type":"Polygon","coordinates":[[[1.82527,50.91023],[1.8213,50.91294],[1.82363,50.91381],[1.82449,50.9132],[1.82648,50.91381],[1.82807,50.91274],[1.82527,50.91023]]]}},{"type":"Feature","properties":{"k":"PPH","s":0.001},"geometry":{"type":"Polygon","coordinates":[[[1.83112,50.91467],[1.83122,50.91456],[1.83113,50.91463],[1.83112,50.91467]]]}},{"type":"Feature","properties":{"k":"PPH","s":10.169},"geometry":{"type":"Polygon","coordinates":[[[1.83972,50.91407],[1.83968,50.91437],[1.84077,50.91484],[1.84013,50.91563],[1.84245,50.91654],[1.84476,50.91428],[1.83969,50.91225],[1.83887,50.91229],[1.83881,50.91323],[1.83972,50.91407]]]}},{"type":"Feature","properties":{"k":"PPH","s":5.776},"geometry":{"type":"Polygon","coordinates":[[[1.84072,50.91483],[1.83967,50.91439],[1.83852,50.91442],[1.83783,50.91461],[1.83754,50.91488],[1.83771,50.9156],[1.83693,50.91576],[1.83594,50.91638],[1.83848,50.91737],[1.84072,50.91483]]]}},{"type":"Feature","properties":{"k":"PPH","s":0.427},"geometry":{"type":"Polygon","coordinates":[[[1.84098,50.91813],[1.83875,50.91725],[1.83861,50.91743],[1.84084,50.91833],[1.84098,50.91813]]]}},{"type":"Feature","properties":{"k":"MSW","s":0.848},"geometry":{"type":"Polygon","coordinates":[[[1.84195,50.91767],[1.84421,50.91859],[1.84455,50.91826],[1.84231,50.91733],[1.84195,50.91767]]]}},{"type":"Feature","properties":{"k":"PPH","s":3.801},"geometry":{"type":"Polygon","coordinates":[[[1.84098,50.91812],[1.84242,50.91655],[1.84009,50.91563],[1.83875,50.91724],[1.84098,50.91812]]]}},{"type":"Feature","properties":{"k":"PPH","s":0.775},"geometry":{"type":"Polygon","coordinates":[[[1.84588,50.91697],[1.84625,50.9166],[1.84395,50.91569],[1.84368,50.91599],[1.84588,50.91697]]]}},{"type":"Feature","properties":{"k":"PPH","s":0.411},"geometry":{"type":"Polygon","coordinates":[[[1.84395,50.91569],[1.84628,50.91662],[1.84644,50.91646],[1.84413,50.91553],[1.84395,50.91569]]]}},{"type":"Feature","properties":{"k":"MSW","s":1.306},"geometry":{"type":"Polygon","coordinates":[[[1.84231,50.91733],[1.84455,50.91826],[1.84489,50.91794],[1.84305,50.91662],[1.84231,50.91733]]]}},{"type":"Feature","properties":{"k":"PPH","s":0.484},"geometry":{"type":"Polygon","coordinates":[[[1.8462,50.92004],[1.84641,50.91986],[1.84409,50.91889],[1.84395,50.91908],[1.8462,50.92004]]]}},{"type":"Feature","properties":{"k":"PPH","s":2.231},"geometry":{"type":"Polygon","coordinates":[[[1.84755,50.91874],[1.84818,50.91813],[1.84588,50.91708],[1.84513,50.91785],[1.84617,50.91885],[1.84696,50.91851],[1.84755,50.91874]]]}},{"type":"Feature","properties":{"k":"PPH","s":0.455},"geometry":{"type":"Polygon","coordinates":[[[1.84697,50.91853],[1.84621,50.91886],[1.84682,50.91944],[1.84751,50.91876],[1.84697,50.91853]]]}},{"type":"Feature","properties":{"k":"PPH","s":3.913},"geometry":{"type":"Polygon","coordinates":[[[1.84805,50.91826],[1.84956,50.91886],[1.8513,50.91715],[1.84982,50.91654],[1.84935,50.91697],[1.84701,50.916],[1.8466,50.9164],[1.84893,50.91737],[1.84805,50.91826]]]}},{"type":"Feature","properties":{"k":"PPH","s":0.489},"geometry":{"type":"Polygon","coordinates":[[[1.84629,50.91667],[1.84611,50.91685],[1.84849,50.91784],[1.84868,50.91765],[1.84629,50.91667]]]}},{"type":"Feature","properties":{"k":"PPH","s":0.688},"geometry":{"type":"Polygon","coordinates":[[[1.84701,50.916],[1.84935,50.91697],[1.84961,50.91671],[1.84728,50.91575],[1.84701,50.916]]]}},{"type":"Feature","properties":{"k":"PPH","s":2.209},"geometry":{"type":"Polygon","coordinates":[[[1.85048,50.91586],[1.84812,50.9149],[1.84728,50.91575],[1.84963,50.9167],[1.85048,50.91586]]]}},{"type":"Feature","properties":{"k":"PPH","s":0.919},"geometry":{"type":"Polygon","coordinates":[[[1.84769,50.9152],[1.84535,50.91432],[1.84502,50.91466],[1.84728,50.91559],[1.84769,50.9152]]]}},{"type":"Feature","properties":{"k":"PPH","s":0.768},"geometry":{"type":"Polygon","coordinates":[[[1.84473,50.91501],[1.84695,50.91587],[1.84723,50.91558],[1.84495,50.91471],[1.84473,50.91501]]]}},{"type":"Feature","properties":{"k":"PPH","s":0.002},"geometry":{"type":"Polygon","coordinates":[]}},{"type":"Feature","properties":{"k":"PPH","s":1.303},"geometry":{"type":"Polygon","coordinates":[[[1.85259,50.91374],[1.85008,50.91299],[1.84966,50.91338],[1.85203,50.91436],[1.85259,50.91374]]]}},{"type":"Feature","properties":{"k":"PPH","s":3.93},"geometry":{"type":"Polygon","coordinates":[[[1.85203,50.91436],[1.84965,50.91338],[1.84845,50.91454],[1.85084,50.9155],[1.85174,50.91461],[1.85325,50.91524],[1.85379,50.91471],[1.85227,50.91411],[1.85203,50.91436]]]}},{"type":"Feature","properties":{"k":"PPH","s":1.178},"geometry":{"type":"Polygon","coordinates":[[[1.85102,50.91532],[1.85254,50.91594],[1.85325,50.91524],[1.85174,50.91461],[1.85102,50.91532]]]}},{"type":"Feature","properties":{"k":"PTR","s":0.822},"geometry":{"type":"Polygon","coordinates":[[[1.85103,50.91534],[1.85052,50.91583],[1.85203,50.91644],[1.85253,50.91595],[1.85103,50.91534]]]}},{"type":"Feature","properties":{"k":"PPH","s":0.443},"geometry":{"type":"Polygon","coordinates":[[[1.85251,50.91384],[1.85227,50.91411],[1.85378,50.9147],[1.85407,50.91444],[1.85251,50.91384]]]}},{"type":"Feature","properties":{"k":"MIS","s":0.172},"geometry":{"type":"Polygon","coordinates":[[[1.85299,50.91379],[1.85436,50.91427],[1.8582,50.9154],[1.85299,50.91379]]]}},{"type":"Feature","properties":{"k":"PPH","s":1.599},"geometry":{"type":"Polygon","coordinates":[[[1.856,50.91476],[1.85511,50.91563],[1.85625,50.91608],[1.85815,50.91542],[1.856,50.91476]]]}},{"type":"Feature","properties":{"k":"PPH","s":0.021},"geometry":{"type":"Polygon","coordinates":[[[1.85568,50.91635],[1.85752,50.91567],[1.85633,50.9161],[1.85568,50.91635]]]}},{"type":"Feature","properties":{"k":"PPH","s":0.002},"geometry":{"type":"Polygon","coordinates":[]}},{"type":"Feature","properties":{"k":"PPH","s":0.003},"geometry":{"type":"Polygon","coordinates":[[[1.85518,50.91655],[1.8557,50.91636],[1.85568,50.91635],[1.85518,50.91655]]]}},{"type":"Feature","properties":{"k":"PPH","s":1.514},"geometry":{"type":"Polygon","coordinates":[[[1.85621,50.91609],[1.85512,50.91564],[1.85385,50.91692],[1.8523,50.91629],[1.85194,50.91668],[1.85335,50.91723],[1.85621,50.91609]]]}},{"type":"Feature","properties":{"k":"PPH","s":1.179},"geometry":{"type":"Polygon","coordinates":[[[1.85071,50.91788],[1.85122,50.91801],[1.85326,50.91727],[1.85192,50.91669],[1.85071,50.91788]]]}},{"type":"Feature","properties":{"k":"PPH","s":0.769},"geometry":{"type":"Polygon","coordinates":[[[1.85203,50.91644],[1.85052,50.91583],[1.85006,50.9163],[1.85157,50.91689],[1.85203,50.91644]]]}},{"type":"Feature","properties":{"k":"MSW","s":0.47},"geometry":{"type":"Polygon","coordinates":[[[1.84953,50.9196],[1.84945,50.91948],[1.85084,50.91821],[1.85046,50.91807],[1.84911,50.9194],[1.84953,50.9196]]]}},{"type":"Feature","properties":{"k":"LUZ","s":0.569},"geometry":{"type":"Polygon","coordinates":[[[1.85243,50.91845],[1.85201,50.9189],[1.85307,50.91921],[1.85343,50.91916],[1.85369,50.91886],[1.85243,50.91845]]]}},{"type":"Feature","properties":{"k":"MSW","s":1.972},"geometry":{"type":"Polygon","coordinates":[[[1.85318,50.91941],[1.85169,50.91883],[1.85115,50.91937],[1.85213,50.91976],[1.85179,50.92006],[1.85086,50.9197],[1.85024,50.9203],[1.85163,50.92081],[1.85318,50.91941]]]}},{"type":"Feature","properties":{"k":"MSW","s":1.559},"geometry":{"type":"Polygon","coordinates":[[[1.84945,50.91948],[1.85043,50.91997],[1.85182,50.91861],[1.85084,50.91821],[1.84945,50.91948]]]}},{"type":"Feature","properties":{"k":"LUZ","s":0.383},"geometry":{"type":"Polygon","coordinates":[[[1.84998,50.92051],[1.85145,50.9211],[1.8517,50.92085],[1.85024,50.9203],[1.84998,50.92051]]]}},{"type":"Feature","properties":{"k":"LUZ","s":0.048},"geometry":{"type":"MultiPolygon","coordinates":[[[[1.8517,50.92085],[1.85267,50.91991],[1.85163,50.92081],[1.8517,50.92085]]]]}},{"type":"Feature","properties":{"k":"PPH","s":1.794},"geometry":{"type":"Polygon","coordinates":[[[1.85078,50.92314],[1.85269,50.92192],[1.85129,50.92136],[1.85011,50.92247],[1.85078,50.92314]]]}},{"type":"Feature","properties":{"k":"PPH","s":3.986},"geometry":{"type":"Polygon","coordinates":[[[1.8489,50.92162],[1.84626,50.92349],[1.84833,50.92376],[1.84855,50.92345],[1.84846,50.9237],[1.84951,50.92388],[1.8499,50.92371],[1.85063,50.92322],[1.8489,50.92162]]]}},{"type":"Feature","properties":{"k":"MIS","s":3.072},"geometry":{"type":"Polygon","coordinates":[[[1.8489,50.92162],[1.8481,50.92081],[1.84484,50.92325],[1.84626,50.92349],[1.8489,50.92162]]]}},{"type":"Feature","properties":{"k":"LUZ","s":1.0},"geometry":{"type":"Polygon","coordinates":[[[1.85043,50.91998],[1.84908,50.91943],[1.84841,50.9201],[1.84972,50.92065],[1.85043,50.91998]]]}},{"type":"Feature","properties":{"k":"MSW","s":0.521},"geometry":{"type":"Polygon","coordinates":[[[1.84372,50.91925],[1.84357,50.91938],[1.84574,50.92052],[1.846,50.92027],[1.84372,50.91925]]]}},{"type":"Feature","properties":{"k":"PPH","s":0.832},"geometry":{"type":"Polygon","coordinates":[[[1.83872,50.9205],[1.83928,50.92013],[1.837,50.91922],[1.83681,50.91946],[1.83872,50.9205]]]}},{"type":"Feature","properties":{"k":"PPH","s":0.638},"geometry":{"type":"Polygon","coordinates":[[[1.83841,50.92094],[1.83855,50.92082],[1.83665,50.91975],[1.8363,50.9202],[1.83841,50.92094]]]}},{"type":"Feature","properties":{"k":"BTH","s":0.003},"geometry":{"type":"Polygon","coordinates":[[[1.80226,50.91785],[1.80215,50.91776],[1.80213,50.91782],[1.80226,50.91785]]]}},{"type":"Feature","properties":{"k":"BTH","s":0.058},"geometry":{"type":"MultiPolygon","coordinates":[[[[1.79995,50.91729],[1.7999,50.91729],[1.80213,50.91782],[1.79995,50.91729]]],[[[1.79837,50.91728],[1.79837,50.91729],[1.7989,50.91714],[1.79837,50.91728]]]]}},{"type":"Feature","properties":{"k":"BTH","s":0.913},"geometry":{"type":"Polygon","coordinates":[[[1.79894,50.9115],[1.79787,50.91177],[1.79737,50.9114],[1.79643,50.9112],[1.79604,50.9115],[1.79609,50.9118],[1.79679,50.91204],[1.7973,50.91203],[1.79916,50.91156],[1.79865,50.91128],[1.79894,50.9115]]]}},{"type":"Feature","properties":{"k":"BTH","s":7.007},"geometry":{"type":"Polygon","coordinates":[[[1.79129,50.91338],[1.7917,50.91348],[1.79362,50.913],[1.78487,50.9102],[1.78715,50.91199],[1.79002,50.91378],[1.79103,50.91357],[1.79129,50.91338]]]}}]}