{"type":"FeatureCollection","features":[{"type":"Feature","properties":{"k":"CZH","s":0.018},"geometry":{"type":"Polygon","coordinates":[[[2.50666,50.39386],[2.50572,50.3939],[2.50608,50.3939],[2.50666,50.39386]]]}},{"type":"Feature","properties":{"k":"BTH","s":3.644},"geometry":{"type":"Polygon","coordinates":[[[2.54028,50.39583],[2.54028,50.39582],[2.53973,50.39561],[2.53996,50.39536],[2.54058,50.39535],[2.54101,50.39488],[2.53717,50.39341],[2.53602,50.39421],[2.54028,50.39583]]]}},{"type":"Feature","properties":{"k":"BTH","s":6.715},"geometry":{"type":"Polygon","coordinates":[[[2.54222,50.397],[2.54237,50.39664],[2.54028,50.39583],[2.54004,50.396],[2.53957,50.39583],[2.53973,50.39561],[2.53609,50.39419],[2.53602,50.39421],[2.53592,50.39429],[2.53551,50.39477],[2.53481,50.39502],[2.54268,50.39794],[2.54222,50.397]]]}},{"type":"Feature","properties":{"k":"ORH","s":8.225},"geometry":{"type":"Polygon","coordinates":[[[2.53406,50.39597],[2.54288,50.39927],[2.54268,50.39794],[2.53481,50.39502],[2.53442,50.39516],[2.53406,50.39597]]]}},{"type":"Feature","properties":{"k":"CZH","s":6.649},"geometry":{"type":"Polygon","coordinates":[[[2.54362,50.40044],[2.54382,50.40028],[2.54288,50.39927],[2.53387,50.3959],[2.53339,50.39647],[2.53333,50.39653],[2.53338,50.3966],[2.54362,50.40044]],[[2.53387,50.39591],[2.53422,50.39624],[2.53487,50.39653],[2.53454,50.39641],[2.53435,50.39662],[2.53339,50.39647],[2.53387,50.39591]]]}},{"type":"Feature","properties":{"k":"BTH","s":5.235},"geometry":{"type":"Polygon","coordinates":[[[2.53437,50.39932],[2.53535,50.39812],[2.5361,50.39833],[2.53608,50.39812],[2.53643,50.39783],[2.53318,50.39656],[2.53174,50.3984],[2.53437,50.39932]]]}},{"type":"Feature","properties":{"k":"BTH","s":3.55},"geometry":{"type":"Polygon","coordinates":[[[2.53384,50.3957],[2.53342,50.39453],[2.53052,50.39797],[2.53165,50.39838],[2.53384,50.3957]]]}},{"type":"Feature","properties":{"k":"BTH","s":0.02},"geometry":{"type":"MultiPolygon","coordinates":[[[[2.52595,50.38772],[2.52593,50.38771],[2.52583,50.38782],[2.52595,50.38772]]],[[[2.52536,50.38821],[2.52541,50.38822],[2.52538,50.3882],[2.52536,50.38821]]],[[[2.52659,50.38842],[2.52595,50.38835],[2.52626,50.38842],[2.52659,50.38842]]],[[[2.52903,50.38856],[2.52797,50.38863],[2.52802,50.38865],[2.52903,50.38856]]]]}},{"type":"Feature","properties":{"k":"PPR","s":0.503},"geometry":{"type":"Polygon","coordinates":[[[2.52459,50.38912],[2.5238,50.38903],[2.52311,50.38949],[2.52367,50.38983],[2.52434,50.38935],[2.52486,50.38925],[2.52442,50.38922],[2.52459,50.38912]]]}},{"type":"Feature","properties":{"k":"CZH","s":1.586},"geometry":{"type":"Polygon","coordinates":[[[2.52321,50.38789],[2.52505,50.38909],[2.52498,50.38854],[2.52567,50.38793],[2.52438,50.3872],[2.52321,50.38789]]]}},{"type":"Feature","properties":{"k":"BTH","s":0.034},"geometry":{"type":"Polygon","coordinates":[[[2.52497,50.38681],[2.52498,50.38682],[2.52502,50.38677],[2.52436,50.38648],[2.52497,50.38681]]]}},{"type":"Feature","properties":{"k":"BTH","s":1.456},"geometry":{"type":"Polygon","coordinates":[[[2.52497,50.38681],[2.52411,50.38625],[2.52243,50.38738],[2.52321,50.38789],[2.52497,50.38681]]]}},{"type":"Feature","properties":{"k":"ORH","s":4.555},"geometry":{"type":"Polygon","coordinates":[[[2.5182,50.39025],[2.51863,50.39122],[2.52347,50.38805],[2.52253,50.38744],[2.5182,50.39025]]]}},{"type":"Feature","properties":{"k":"BTH","s":8.152},"geometry":{"type":"Polygon","coordinates":[[[2.52023,50.39245],[2.52293,50.39069],[2.52459,50.38949],[2.52486,50.38925],[2.52505,50.38909],[2.52347,50.38805],[2.51861,50.39123],[2.51995,50.3921],[2.52023,50.39245]],[[2.52434,50.38935],[2.52367,50.38983],[2.52311,50.38949],[2.5238,50.38903],[2.52459,50.38912],[2.52442,50.38922],[2.52486,50.38925],[2.52434,50.38935]]]}},{"type":"Feature","properties":{"k":"CZH","s":0.001},"geometry":{"type":"Polygon","coordinates":[[[2.51809,50.38987],[2.51799,50.38953],[2.51808,50.38988],[2.51809,50.38987]]]}},{"type":"Feature","properties":{"k":"ORH","s":7.854},"geometry":{"type":"Polygon","coordinates":[[[2.51538,50.39188],[2.51809,50.39029],[2.51762,50.3886],[2.51709,50.38789],[2.51329,50.39029],[2.51538,50.39188]]]}},{"type":"Feature","properties":{"k":"MIS","s":0.002},"geometry":{"type":"Polygon","coordinates":[]}},{"type":"Feature","properties":{"k":"MIS","s":2.243},"geometry":{"type":"Polygon","coordinates":[[[2.52616,50.406],[2.52764,50.40424],[2.52625,50.40377],[2.52504,50.40517],[2.52616,50.406]]]}},{"type":"Feature","properties":{"k":"PPH","s":1.445},"geometry":{"type":"Polygon","coordinates":[[[2.52195,50.4035],[2.52092,50.40407],[2.5218,50.40478],[2.52265,50.40435],[2.52371,50.40493],[2.52389,50.40467],[2.52195,50.4035]]]}},{"type":"Feature","properties":{"k":"BTH","s":1.682},"geometry":{"type":"Polygon","coordinates":[[[2.52625,50.40375],[2.52489,50.4033],[2.5241,50.40453],[2.52513,50.40511],[2.52625,50.40375]]]}},{"type":"Feature","properties":{"k":"PHF","s":3.237},"geometry":{"type":"Polygon","coordinates":[[[2.52347,50.40195],[2.52157,50.40319],[2.52394,50.40445],[2.52479,50.40315],[2.52347,50.40195]]]}},{"type":"Feature","properties":{"k":"PPH","s":8.215},"geometry":{"type":"Polygon","coordinates":[[[2.5228,50.406],[2.52371,50.40493],[2.52265,50.40435],[2.52179,50.40479],[2.52,50.40336],[2.51868,50.40415],[2.51915,50.40477],[2.51999,50.40745],[2.52033,50.40731],[2.52057,50.4074],[2.5228,50.406]],[[2.52094,50.40686],[2.52062,50.40698],[2.52176,50.40599],[2.52094,50.40686]],[[2.52063,50.40683],[2.52052,50.40684],[2.5213,50.40615],[2.52063,50.40683]]]}},{"type":"Feature","properties":{"k":"BTH","s":6.458},"geometry":{"type":"Polygon","coordinates":[[[2.51302,50.4076],[2.51905,50.40474],[2.51899,50.40459],[2.51813,50.40378],[2.51265,50.40639],[2.51302,50.4076]]]}},{"type":"Feature","properties":{"k":"MIS","s":2.202},"geometry":{"type":"Polygon","coordinates":[[[2.51271,50.40454],[2.51282,50.40598],[2.51265,50.40639],[2.51378,50.40585],[2.51369,50.40442],[2.51414,50.40295],[2.51301,50.4035],[2.51271,50.40454]]]}},{"type":"Feature","properties":{"k":"BTN","s":7.344},"geometry":{"type":"Polygon","coordinates":[[[2.51378,50.40585],[2.51821,50.40373],[2.51687,50.40269],[2.5164,50.40185],[2.51414,50.40295],[2.51369,50.40442],[2.51378,50.40585]]]}},{"type":"Feature","properties":{"k":"PPH","s":1.651},"geometry":{"type":"Polygon","coordinates":[[[2.51893,50.40234],[2.51858,50.40214],[2.51816,50.4023],[2.51798,50.40215],[2.51687,50.40264],[2.51824,50.40371],[2.51891,50.40336],[2.51879,50.40292],[2.51894,50.40294],[2.5191,50.40222],[2.51893,50.40234]]]}},{"type":"Feature","properties":{"k":"PPH","s":0.445},"geometry":{"type":"Polygon","coordinates":[[[2.5168,50.39843],[2.51624,50.39796],[2.51576,50.39841],[2.51649,50.39902],[2.5168,50.39843]]]}},{"type":"Feature","properties":{"k":"PPH","s":3.159},"geometry":{"type":"Polygon","coordinates":[[[2.51543,50.3999],[2.51491,50.39941],[2.51604,50.39878],[2.5154,50.39818],[2.51268,50.39971],[2.51378,50.40091],[2.51543,50.3999]]]}},{"type":"Feature","properties":{"k":"PTR","s":3.102},"geometry":{"type":"Polygon","coordinates":[[[2.51389,50.40096],[2.5132,50.40296],[2.51623,50.40151],[2.51525,50.40014],[2.51389,50.40096]]]}},{"type":"Feature","properties":{"k":"ORH","s":3.934},"geometry":{"type":"MultiPolygon","coordinates":[[[[2.51174,50.39865],[2.50989,50.39674],[2.5119,50.39913],[2.51325,50.40034],[2.51267,50.3997],[2.51539,50.39817],[2.51451,50.39711],[2.51174,50.39865]]],[[[2.50776,50.39659],[2.50868,50.39665],[2.50821,50.39659],[2.50776,50.39659]]]]}},{"type":"Feature","properties":{"k":"BTH","s":0.001},"geometry":{"type":"Polygon","coordinates":[]}},{"type":"Feature","properties":{"k":"CZH","s":0.529},"geometry":{"type":"Polygon","coordinates":[[[2.50897,50.4111],[2.51,50.41116],[2.50913,50.41034],[2.50812,50.41127],[2.50897,50.4111]]]}},{"type":"Feature","properties":{"k":"CZH","s":6.829},"geometry":{"type":"Polygon","coordinates":[[[2.51179,50.41148],[2.51344,50.41231],[2.51363,50.41004],[2.51213,50.40882],[2.50913,50.41034],[2.51,50.41116],[2.51179,50.41148]]]}},{"type":"Feature","properties":{"k":"PTR","s":3.276},"geometry":{"type":"Polygon","coordinates":[[[2.51364,50.41249],[2.51384,50.41245],[2.5161,50.4107],[2.51426,50.40956],[2.51367,50.41003],[2.51348,50.41234],[2.51364,50.41249]]]}},{"type":"Feature","properties":{"k":"MIS","s":0.679},"geometry":{"type":"Polygon","coordinates":[[[2.51304,50.413],[2.51359,50.41258],[2.51317,50.41218],[2.51207,50.41166],[2.51234,50.41233],[2.51304,50.413]]]}},{"type":"Feature","properties":{"k":"MIS","s":1.265},"geometry":{"type":"MultiPolygon","coordinates":[[[[2.51634,50.41333],[2.51715,50.41274],[2.51515,50.41159],[2.51474,50.4119],[2.51634,50.41333]]]]}},{"type":"Feature","properties":{"k":"LIF","s":0.91},"geometry":{"type":"Polygon","coordinates":[[[2.5174,50.41416],[2.51981,50.41251],[2.51984,50.41299],[2.52012,50.41279],[2.52011,50.41192],[2.51717,50.41398],[2.5174,50.41416]]]}},{"type":"Feature","properties":{"k":"BTH","s":3.189},"geometry":{"type":"Polygon","coordinates":[[[2.52011,50.41079],[2.51634,50.41333],[2.51717,50.41398],[2.52013,50.4119],[2.52011,50.41079]]]}},{"type":"Feature","properties":{"k":"PTC","s":3.298},"geometry":{"type":"Polygon","coordinates":[[[2.51515,50.41158],[2.51576,50.41193],[2.52018,50.40855],[2.52008,50.40782],[2.51515,50.41158]]]}},{"type":"Feature","properties":{"k":"CAR","s":5.06},"geometry":{"type":"Polygon","coordinates":[[[2.52007,50.4088],[2.51592,50.41193],[2.51726,50.41268],[2.51999,50.41087],[2.52007,50.4088]]]}},{"type":"Feature","properties":{"k":"MLG","s":0.794},"geometry":{"type":"Polygon","coordinates":[[[2.52018,50.40855],[2.51576,50.41193],[2.51713,50.41276],[2.51726,50.41268],[2.51592,50.41193],[2.52007,50.4088],[2.51999,50.41087],[2.52018,50.40855]]]}},{"type":"Feature","properties":{"k":"MIS","s":3.143},"geometry":{"type":"Polygon","coordinates":[[[2.51995,50.40754],[2.51961,50.40672],[2.51526,50.40878],[2.51627,50.40929],[2.51995,50.40754]]]}},{"type":"Feature","properties":{"k":"MLG","s":3.68},"geometry":{"type":"Polygon","coordinates":[[[2.51526,50.40878],[2.51961,50.40672],[2.51937,50.40612],[2.51345,50.40893],[2.51367,50.41003],[2.51526,50.40878]]]}},{"type":"Feature","properties":{"k":"PPH","s":3.921},"geometry":{"type":"Polygon","coordinates":[[[2.51995,50.40754],[2.51627,50.40929],[2.51526,50.40878],[2.51426,50.40956],[2.5161,50.4107],[2.52002,50.40777],[2.51995,50.40754]]]}},{"type":"Feature","properties":{"k":"PPH","s":0.753},"geometry":{"type":"Polygon","coordinates":[[[2.51339,50.409],[2.51316,50.4083],[2.51214,50.40882],[2.51355,50.40994],[2.51339,50.409]]]}},{"type":"Feature","properties":{"k":"MLG","s":1.678},"geometry":{"type":"Polygon","coordinates":[[[2.5144,50.40695],[2.51302,50.4076],[2.51345,50.40893],[2.51482,50.40828],[2.5144,50.40695]]]}},{"type":"Feature","properties":{"k":"MPC","s":2.551},"geometry":{"type":"Polygon","coordinates":[[[2.5146,50.40755],[2.5192,50.40537],[2.51905,50.40474],[2.5144,50.40695],[2.5146,50.40755]]]}},{"type":"Feature","properties":{"k":"PTR","s":3.02},"geometry":{"type":"Polygon","coordinates":[[[2.51937,50.40611],[2.5192,50.40537],[2.5146,50.40755],[2.51482,50.40828],[2.51937,50.40611]]]}},{"type":"Feature","properties":{"k":"BTH","s":0.608},"geometry":{"type":"Polygon","coordinates":[[[2.52019,50.40984],[2.52019,50.41013],[2.52297,50.40915],[2.52276,50.40893],[2.52019,50.40984]]]}},{"type":"Feature","properties":{"k":"MLG","s":1.094},"geometry":{"type":"Polygon","coordinates":[[[2.52152,50.40799],[2.52026,50.40845],[2.52017,50.40985],[2.52276,50.40893],[2.52152,50.40799]],[[2.52151,50.40809],[2.52258,50.4089],[2.52132,50.40935],[2.5206,50.40843],[2.52151,50.40809]]]}},{"type":"Feature","properties":{"k":"BTH","s":3.771},"geometry":{"type":"Polygon","coordinates":[[[2.52664,50.41189],[2.52287,50.4133],[2.52355,50.41367],[2.52471,50.41393],[2.52765,50.41295],[2.52664,50.41189]]]}},{"type":"Feature","properties":{"k":"MIS","s":1.168},"geometry":{"type":"Polygon","coordinates":[[[2.52142,50.41292],[2.52112,50.41352],[2.5233,50.41414],[2.52351,50.41367],[2.52142,50.41292]]]}},{"type":"Feature","properties":{"k":"MIS","s":3.879},"geometry":{"type":"Polygon","coordinates":[[[2.52144,50.41289],[2.52237,50.41312],[2.52649,50.41165],[2.52621,50.41136],[2.52526,50.41094],[2.5214,50.41232],[2.52167,50.41251],[2.52144,50.41289]]]}},{"type":"Feature","properties":{"k":"LIF","s":0.932},"geometry":{"type":"Polygon","coordinates":[[[2.52523,50.4121],[2.52254,50.41309],[2.52287,50.41329],[2.52663,50.41189],[2.52649,50.41166],[2.52523,50.4121]]]}},{"type":"Feature","properties":{"k":"MIS","s":2.041},"geometry":{"type":"Polygon","coordinates":[[[2.52381,50.40992],[2.52018,50.4112],[2.52017,50.41149],[2.52056,50.41177],[2.52431,50.4104],[2.52381,50.40992]]]}},{"type":"Feature","properties":{"k":"MIS","s":1.877},"geometry":{"type":"Polygon","coordinates":[[[2.52431,50.4104],[2.52057,50.41176],[2.52116,50.41216],[2.52499,50.41081],[2.52431,50.4104]]]}},{"type":"Feature","properties":{"k":"BTH","s":0.706},"geometry":{"type":"Polygon","coordinates":[[[2.52116,50.41216],[2.5214,50.41232],[2.52526,50.41094],[2.52499,50.41081],[2.52116,50.41216]]]}},{"type":"Feature","properties":{"k":"MIS","s":2.673},"geometry":{"type":"Polygon","coordinates":[[[2.52379,50.40992],[2.52299,50.40915],[2.52019,50.41014],[2.52019,50.41119],[2.52379,50.40992]]]}},{"type":"Feature","properties":{"k":"BTH","s":1.358},"geometry":{"type":"Polygon","coordinates":[[[2.52023,50.41359],[2.52097,50.41359],[2.52155,50.41249],[2.52021,50.41166],[2.52023,50.41359]]]}},{"type":"Feature","properties":{"k":"PPH","s":0.089},"geometry":{"type":"Polygon","coordinates":[[[2.52112,50.41352],[2.52142,50.41292],[2.52276,50.41326],[2.52144,50.41289],[2.52162,50.41247],[2.52112,50.41352]]]}},{"type":"Feature","properties":{"k":"MIS","s":0.08},"geometry":{"type":"Polygon","coordinates":[[[2.51985,50.41317],[2.51991,50.41334],[2.52012,50.41318],[2.52011,50.4128],[2.51985,50.41317]]]}},{"type":"Feature","properties":{"k":"ORP","s":0.096},"geometry":{"type":"Polygon","coordinates":[[[2.52016,50.4137],[2.52013,50.41319],[2.51991,50.41335],[2.52005,50.41376],[2.5205,50.41426],[2.52016,50.4137]]]}},{"type":"Feature","properties":{"k":"BTH","s":0.276},"geometry":{"type":"Polygon","coordinates":[[[2.5207,50.41436],[2.52097,50.41359],[2.52023,50.41359],[2.5207,50.41436]]]}},{"type":"Feature","properties":{"k":"PPH","s":0.028},"geometry":{"type":"MultiPolygon","coordinates":[[[[2.52087,50.41386],[2.52093,50.41371],[2.52089,50.41379],[2.52087,50.41386]]],[[[2.52102,50.41354],[2.5233,50.41415],[2.5233,50.41414],[2.52102,50.41354]]]]}},{"type":"Feature","properties":{"k":"BTH","s":2.463},"geometry":{"type":"Polygon","coordinates":[[[2.50954,50.39238],[2.51068,50.39268],[2.51395,50.3908],[2.51329,50.39029],[2.50954,50.39238]]]}},{"type":"Feature","properties":{"k":"PTR","s":0.013},"geometry":{"type":"Polygon","coordinates":[[[2.50954,50.39238],[2.51028,50.39195],[2.50972,50.39224],[2.50954,50.39238]]]}},{"type":"Feature","properties":{"k":"CAR","s":1.022},"geometry":{"type":"Polygon","coordinates":[[[2.5206,50.40843],[2.52132,50.40935],[2.52258,50.4089],[2.52151,50.40809],[2.5206,50.40843]]]}},{"type":"Feature","properties":{"k":"MIS","s":1.418},"geometry":{"type":"Polygon","coordinates":[[[2.5237,50.40972],[2.52488,50.40929],[2.52376,50.40821],[2.52254,50.40863],[2.5237,50.40972]]]}},{"type":"Feature","properties":{"k":"BTN","s":1.435},"geometry":{"type":"Polygon","coordinates":[[[2.52254,50.40863],[2.52358,50.40827],[2.52138,50.40698],[2.52071,50.40742],[2.52254,50.40863]]]}},{"type":"Feature","properties":{"k":"PPH","s":7.683},"geometry":{"type":"Polygon","coordinates":[[[2.52551,50.40757],[2.52669,50.40655],[2.52404,50.40466],[2.52281,50.40607],[2.52138,50.40698],[2.52359,50.40827],[2.52551,50.40757]]]}},{"type":"Feature","properties":{"k":"MIS","s":0.149},"geometry":{"type":"Polygon","coordinates":[[[2.52653,50.40627],[2.52689,50.40654],[2.52702,50.40639],[2.5263,50.40584],[2.52616,50.406],[2.52653,50.40627]]]}},{"type":"Feature","properties":{"k":"MIS","s":3.029},"geometry":{"type":"Polygon","coordinates":[[[2.52995,50.40466],[2.52769,50.40744],[2.52832,50.40821],[2.53083,50.40497],[2.52995,50.40466]]]}},{"type":"Feature","properties":{"k":"PHF","s":3.609},"geometry":{"type":"Polygon","coordinates":[[[2.53095,50.40502],[2.52832,50.40821],[2.52854,50.40833],[2.52942,50.40858],[2.53207,50.40541],[2.53095,50.40502]]]}},{"type":"Feature","properties":{"k":"MIS","s":0.001},"geometry":{"type":"Polygon","coordinates":[[[2.50963,50.3923],[2.50972,50.39224],[2.50949,50.39236],[2.50963,50.3923]]]}},{"type":"Feature","properties":{"k":"BTH","s":0.172},"geometry":{"type":"MultiPolygon","coordinates":[[[[2.50898,50.39373],[2.50947,50.3936],[2.50664,50.39383],[2.50898,50.39373]]],[[[2.51106,50.3932],[2.51015,50.39347],[2.51117,50.39331],[2.51106,50.3932]]]]}},{"type":"Feature","properties":{"k":"PTC","s":3.002},"geometry":{"type":"Polygon","coordinates":[[[2.53207,50.40541],[2.52942,50.40858],[2.53044,50.40884],[2.53298,50.40573],[2.53207,50.40541]]]}},{"type":"Feature","properties":{"k":"PHF","s":5.539},"geometry":{"type":"Polygon","coordinates":[[[2.52841,50.40836],[2.52671,50.40656],[2.52551,50.40757],[2.52376,50.40821],[2.52488,50.40929],[2.5237,50.40972],[2.52398,50.40999],[2.52841,50.40836]]]}},{"type":"Feature","properties":{"k":"MLG","s":7.991},"geometry":{"type":"Polygon","coordinates":[[[2.52924,50.40904],[2.52924,50.40862],[2.52842,50.40836],[2.52399,50.41],[2.52456,50.41053],[2.52637,50.41137],[2.53024,50.41008],[2.52924,50.40904]]]}},{"type":"Feature","properties":{"k":"LUZ","s":3.474},"geometry":{"type":"Polygon","coordinates":[[[2.52872,50.41149],[2.52963,50.41169],[2.53087,50.4125],[2.53165,50.41174],[2.53024,50.41008],[2.52777,50.41091],[2.52872,50.41149]]]}},{"type":"Feature","properties":{"k":"PPH","s":0.446},"geometry":{"type":"Polygon","coordinates":[[[2.52996,50.41287],[2.53049,50.41457],[2.53082,50.41469],[2.53024,50.41277],[2.52996,50.41287]]]}},{"type":"Feature","properties":{"k":"PPH","s":0.361},"geometry":{"type":"Polygon","coordinates":[[[2.53083,50.41255],[2.53024,50.41277],[2.53082,50.41467],[2.53062,50.41299],[2.53083,50.41255]]]}},{"type":"Feature","properties":{"k":"BTH","s":0.236},"geometry":{"type":"Polygon","coordinates":[[[2.52616,50.41351],[2.52645,50.41367],[2.52774,50.41309],[2.52765,50.41298],[2.52616,50.41351]]]}},{"type":"Feature","properties":{"k":"BTH","s":5.471},"geometry":{"type":"Polygon","coordinates":[[[2.51122,50.39333],[2.50884,50.3938],[2.50518,50.39394],[2.50507,50.39416],[2.50773,50.39654],[2.50933,50.39667],[2.50693,50.39449],[2.51197,50.39399],[2.51122,50.39333]]]}},{"type":"Feature","properties":{"k":"BTH","s":5.444},"geometry":{"type":"Polygon","coordinates":[[[2.50991,50.39419],[2.50693,50.39449],[2.50933,50.39667],[2.51189,50.39637],[2.50991,50.39419]]]}},{"type":"Feature","properties":{"k":"BTH","s":1.377},"geometry":{"type":"Polygon","coordinates":[[[2.51111,50.39661],[2.51001,50.39673],[2.51146,50.39835],[2.51225,50.39791],[2.51111,50.39661]]]}},{"type":"Feature","properties":{"k":"TTP","s":4.46},"geometry":{"type":"Polygon","coordinates":[[[2.53461,50.41068],[2.5299,50.40948],[2.53055,50.41042],[2.53215,50.41193],[2.53289,50.41233],[2.53461,50.41068]]]}},{"type":"Feature","properties":{"k":"MIS","s":0.019},"geometry":{"type":"Polygon","coordinates":[]}},{"type":"Feature","properties":{"k":"LIF","s":2.263},"geometry":{"type":"Polygon","coordinates":[[[2.53593,50.4102],[2.53759,50.40734],[2.53702,50.40715],[2.53481,50.40987],[2.53593,50.4102]]]}},{"type":"Feature","properties":{"k":"BTH","s":3.433},"geometry":{"type":"Polygon","coordinates":[[[2.53481,50.40987],[2.53702,50.40715],[2.53583,50.40673],[2.53341,50.40967],[2.53481,50.40987]]]}},{"type":"Feature","properties":{"k":"MPC","s":2.95},"geometry":{"type":"Polygon","coordinates":[[[2.53325,50.40973],[2.52941,50.40867],[2.52927,50.40886],[2.5299,50.40948],[2.53461,50.41068],[2.53527,50.41005],[2.53325,50.40973]]]}},{"type":"Feature","properties":{"k":"BTH","s":7.495},"geometry":{"type":"Polygon","coordinates":[[[2.53007,50.40471],[2.53759,50.40734],[2.53588,50.41024],[2.5366,50.41064],[2.53771,50.40927],[2.53792,50.40692],[2.53588,50.40619],[2.53609,50.40585],[2.53063,50.40394],[2.53007,50.40471]]]}},{"type":"Feature","properties":{"k":"LIF","s":5.328},"geometry":{"type":"Polygon","coordinates":[[[2.53341,50.40967],[2.53583,50.40673],[2.53408,50.40611],[2.53161,50.40914],[2.53341,50.40967]]]}},{"type":"Feature","properties":{"k":"PTC","s":3.433},"geometry":{"type":"Polygon","coordinates":[[[2.53161,50.40914],[2.53408,50.40611],[2.53299,50.40572],[2.53045,50.40884],[2.53161,50.40914]]]}},{"type":"Feature","properties":{"k":"LIF","s":0.013},"geometry":{"type":"Polygon","coordinates":[[[2.53796,50.4064],[2.53797,50.40669],[2.53801,50.40575],[2.53796,50.4064]]]}},{"type":"Feature","properties":{"k":"MIS","s":0.002},"geometry":{"type":"Polygon","coordinates":[[[2.53796,50.40571],[2.53801,50.40574],[2.53801,50.40564],[2.53796,50.40571]]]}},{"type":"Feature","properties":{"k":"BTH","s":4.278},"geometry":{"type":"Polygon","coordinates":[[[2.5379,50.40692],[2.5379,50.40562],[2.53961,50.40417],[2.53783,50.40347],[2.53588,50.40619],[2.5379,50.40692]]]}},{"type":"Feature","properties":{"k":"PHF","s":5.059},"geometry":{"type":"Polygon","coordinates":[[[2.54192,50.40276],[2.53932,50.40178],[2.53874,50.40249],[2.53339,50.40058],[2.53323,50.4008],[2.53855,50.40266],[2.53783,50.40347],[2.53961,50.40417],[2.54192,50.40276]]]}},{"type":"Feature","properties":{"k":"CZH","s":4.001},"geometry":{"type":"Polygon","coordinates":[[[2.53871,50.40247],[2.53932,50.40178],[2.53401,50.3998],[2.53339,50.40058],[2.53871,50.40247]]]}},{"type":"Feature","properties":{"k":"ORP","s":0.298},"geometry":{"type":"Polygon","coordinates":[[[2.53375,50.39978],[2.53334,50.39964],[2.53326,50.39972],[2.53357,50.39983],[2.5334,50.40005],[2.53272,50.39982],[2.53262,50.4],[2.53327,50.40021],[2.53294,50.40054],[2.53323,50.40066],[2.53375,50.39978]]]}},{"type":"Feature","properties":{"k":"BTH","s":8.535},"geometry":{"type":"Polygon","coordinates":[[[2.5428,50.40171],[2.54306,50.40125],[2.54271,50.40104],[2.54362,50.40044],[2.53679,50.39789],[2.53572,50.39907],[2.5428,50.40171]]]}},{"type":"Feature","properties":{"k":"MIS","s":4.463},"geometry":{"type":"Polygon","coordinates":[[[2.53483,50.39877],[2.53444,50.39925],[2.54253,50.40231],[2.5428,50.40171],[2.53483,50.39877]]]}},{"type":"Feature","properties":{"k":"MIS","s":4.244},"geometry":{"type":"Polygon","coordinates":[[[2.54251,50.4023],[2.53441,50.3993],[2.53401,50.3998],[2.54192,50.40276],[2.54251,50.4023]]]}},{"type":"Feature","properties":{"k":"BTH","s":0.0},"geometry":{"type":"Polygon","coordinates":[]}},{"type":"Feature","properties":{"k":"BTH","s":1.905},"geometry":{"type":"Polygon","coordinates":[[[2.54237,50.39664],[2.54294,50.39562],[2.54115,50.39493],[2.54028,50.39583],[2.54237,50.39664]]]}},{"type":"Feature","properties":{"k":"MIS","s":2.004},"geometry":{"type":"Polygon","coordinates":[[[2.51281,50.39598],[2.51104,50.39408],[2.50992,50.39419],[2.51189,50.39636],[2.51281,50.39598]]]}},{"type":"Feature","properties":{"k":"LUZ","s":1.5},"geometry":{"type":"Polygon","coordinates":[[[2.51338,50.39575],[2.51277,50.39461],[2.51197,50.39399],[2.51104,50.39408],[2.51281,50.39598],[2.51338,50.39575]]]}},{"type":"Feature","properties":{"k":"PPH","s":2.609},"geometry":{"type":"Polygon","coordinates":[[[2.51111,50.39661],[2.51225,50.39791],[2.51427,50.39677],[2.5135,50.39585],[2.51111,50.39661]]]}},{"type":"Feature","properties":{"k":"MIS","s":1.017},"geometry":{"type":"Polygon","coordinates":[[[2.51427,50.39677],[2.51146,50.39835],[2.51174,50.39865],[2.51452,50.3971],[2.51427,50.39677]]]}},{"type":"Feature","properties":{"k":"PPH","s":4.335},"geometry":{"type":"Polygon","coordinates":[[[2.5132,50.39513],[2.51397,50.39621],[2.51471,50.39611],[2.51402,50.39627],[2.5157,50.39832],[2.51612,50.39797],[2.51578,50.39782],[2.51688,50.39676],[2.51408,50.3946],[2.5132,50.39513]]]}},{"type":"Feature","properties":{"k":"BTN","s":9.005},"geometry":{"type":"Polygon","coordinates":[[[2.51756,50.39686],[2.52041,50.3957],[2.51685,50.39298],[2.51435,50.39443],[2.51756,50.39686]]]}},{"type":"Feature","properties":{"k":"LIF","s":8.852},"geometry":{"type":"Polygon","coordinates":[[[2.51918,50.39476],[2.52065,50.39401],[2.51999,50.39229],[2.51843,50.39121],[2.5181,50.39029],[2.51538,50.39188],[2.51918,50.39476]]]}},{"type":"Feature","properties":{"k":"BTH","s":6.495},"geometry":{"type":"Polygon","coordinates":[[[2.51168,50.39359],[2.51277,50.39445],[2.51318,50.39513],[2.51685,50.39298],[2.51506,50.39164],[2.51168,50.39359]]]}},{"type":"Feature","properties":{"k":"BTH","s":3.498},"geometry":{"type":"Polygon","coordinates":[[[2.51397,50.39092],[2.51137,50.39253],[2.5113,50.39267],[2.5116,50.39295],[2.51189,50.39286],[2.51159,50.39305],[2.51162,50.39333],[2.51081,50.3926],[2.51068,50.39267],[2.51168,50.39359],[2.51506,50.39163],[2.51395,50.39079],[2.51092,50.39254],[2.51102,50.39262],[2.51397,50.39092]]]}},{"type":"Feature","properties":{"k":"MIS","s":5.319},"geometry":{"type":"Polygon","coordinates":[[[2.52091,50.39445],[2.52142,50.39485],[2.52276,50.39418],[2.52253,50.3932],[2.5228,50.39167],[2.52335,50.3911],[2.52293,50.39069],[2.52023,50.39245],[2.52091,50.39445]]]}},{"type":"Feature","properties":{"k":"PPH","s":0.756},"geometry":{"type":"Polygon","coordinates":[[[2.52259,50.39356],[2.52471,50.39335],[2.52474,50.39302],[2.52261,50.39299],[2.52259,50.39356]]]}},{"type":"Feature","properties":{"k":"PPH","s":1.658},"geometry":{"type":"Polygon","coordinates":[[[2.52311,50.39507],[2.5234,50.39493],[2.52297,50.3945],[2.52431,50.39406],[2.52459,50.39335],[2.52259,50.39356],[2.52296,50.39415],[2.52178,50.39472],[2.52243,50.39506],[2.52281,50.39485],[2.52311,50.39507]]]}},{"type":"Feature","properties":{"k":"PPH","s":1.189},"geometry":{"type":"Polygon","coordinates":[[[2.52775,50.39543],[2.52801,50.39569],[2.5308,50.39273],[2.53044,50.39259],[2.52775,50.39543]]]}},{"type":"Feature","properties":{"k":"BTH","s":1.587},"geometry":{"type":"Polygon","coordinates":[[[2.5289,50.39389],[2.52832,50.39355],[2.52715,50.39478],[2.52775,50.39543],[2.53044,50.39259],[2.53022,50.39251],[2.5289,50.39389]]]}},{"type":"Feature","properties":{"k":"ORH","s":0.768},"geometry":{"type":"Polygon","coordinates":[[[2.52784,50.39326],[2.52664,50.39434],[2.52715,50.39478],[2.52833,50.39354],[2.52784,50.39326]]]}},{"type":"Feature","properties":{"k":"PPH","s":1.22},"geometry":{"type":"Polygon","coordinates":[[[2.52534,50.39467],[2.52548,50.39458],[2.52577,50.39476],[2.52692,50.39398],[2.52548,50.39317],[2.5252,50.39383],[2.52534,50.39467]]]}},{"type":"Feature","properties":{"k":"PPH","s":0.328},"geometry":{"type":"Polygon","coordinates":[[[2.52732,50.39507],[2.52656,50.39443],[2.52649,50.39445],[2.52625,50.39462],[2.52709,50.39521],[2.52732,50.39507]]]}},{"type":"Feature","properties":{"k":"PPH","s":0.072},"geometry":{"type":"Polygon","coordinates":[[[2.52679,50.39538],[2.52716,50.39519],[2.52681,50.39514],[2.52647,50.39532],[2.52663,50.39545],[2.52679,50.39538]]]}},{"type":"Feature","properties":{"k":"PPH","s":0.237},"geometry":{"type":"Polygon","coordinates":[[[2.52735,50.39515],[2.52661,50.39554],[2.5267,50.3958],[2.52629,50.39581],[2.52651,50.39597],[2.52756,50.39533],[2.52735,50.39515]]]}},{"type":"Feature","properties":{"k":"BTN","s":6.583},"geometry":{"type":"Polygon","coordinates":[[[2.53342,50.39453],[2.53221,50.3933],[2.5291,50.39667],[2.53052,50.39797],[2.53342,50.39453]]]}},{"type":"Feature","properties":{"k":"PPH","s":4.557},"geometry":{"type":"Polygon","coordinates":[[[2.52762,50.3954],[2.52643,50.3961],[2.52983,50.39879],[2.53073,50.39909],[2.5314,50.39829],[2.53052,50.39797],[2.52762,50.3954]]]}},{"type":"Feature","properties":{"k":"PTR","s":1.671},"geometry":{"type":"Polygon","coordinates":[[[2.52408,50.39679],[2.52389,50.39686],[2.52425,50.39731],[2.52598,50.3963],[2.52482,50.39546],[2.52397,50.39594],[2.52392,50.39604],[2.52394,50.39605],[2.52404,50.39614],[2.52398,50.39617],[2.5242,50.39634],[2.52382,50.3965],[2.52408,50.39679]]]}},{"type":"Feature","properties":{"k":"PPH","s":1.083},"geometry":{"type":"Polygon","coordinates":[[[2.52392,50.39516],[2.52513,50.39456],[2.52497,50.39422],[2.52455,50.39396],[2.52298,50.3945],[2.52392,50.39516]]]}},{"type":"Feature","properties":{"k":"ORH","s":0.839},"geometry":{"type":"Polygon","coordinates":[[[2.51982,50.39492],[2.52007,50.39478],[2.52065,50.39522],[2.52081,50.39512],[2.52028,50.39471],[2.52076,50.39444],[2.52065,50.39401],[2.51918,50.39476],[2.52041,50.3957],[2.52068,50.39557],[2.51982,50.39492]]]}},{"type":"Feature","properties":{"k":"PPH","s":0.338},"geometry":{"type":"Polygon","coordinates":[[[2.51909,50.39633],[2.52062,50.39727],[2.52085,50.39717],[2.51941,50.39622],[2.51909,50.39633]]]}},{"type":"Feature","properties":{"k":"PTR","s":0.346},"geometry":{"type":"Polygon","coordinates":[[[2.52005,50.39593],[2.51973,50.39608],[2.5211,50.39708],[2.52133,50.39698],[2.52005,50.39593]]]}},{"type":"Feature","properties":{"k":"PPH","s":0.426},"geometry":{"type":"Polygon","coordinates":[[[2.52017,50.39901],[2.51979,50.39861],[2.51869,50.39943],[2.51885,50.39957],[2.52017,50.39901]]]}},{"type":"Feature","properties":{"k":"BTH","s":6.539},"geometry":{"type":"Polygon","coordinates":[[[2.52135,50.39843],[2.52111,50.39814],[2.52057,50.3983],[2.52101,50.39884],[2.52025,50.39911],[2.52016,50.39902],[2.51884,50.39957],[2.52056,50.40098],[2.52167,50.40165],[2.52372,50.40096],[2.5215,50.39837],[2.52135,50.39843]]]}},{"type":"Feature","properties":{"k":"VRG","s":0.088},"geometry":{"type":"Polygon","coordinates":[[[2.51967,50.4014],[2.5193,50.40162],[2.51953,50.40178],[2.5199,50.40156],[2.51967,50.4014]]]}},{"type":"Feature","properties":{"k":"PPH","s":1.772},"geometry":{"type":"Polygon","coordinates":[[[2.51934,50.39998],[2.51861,50.4004],[2.51925,50.40088],[2.5198,50.40049],[2.52043,50.40099],[2.51967,50.4014],[2.52024,50.40181],[2.51955,50.40218],[2.51996,50.40236],[2.52034,50.40212],[2.52063,50.40232],[2.52166,50.4017],[2.51934,50.39998]]]}},{"type":"Feature","properties":{"k":"PHF","s":1.417},"geometry":{"type":"Polygon","coordinates":[[[2.5248,50.40316],[2.52491,50.40241],[2.52372,50.40096],[2.52276,50.40129],[2.5248,50.40316]]]}},{"type":"Feature","properties":{"k":"PPR","s":1.663},"geometry":{"type":"Polygon","coordinates":[[[2.52346,50.39952],[2.52276,50.3998],[2.52491,50.40241],[2.52495,50.40125],[2.52346,50.39952]]]}},{"type":"Feature","properties":{"k":"PPH","s":2.498},"geometry":{"type":"Polygon","coordinates":[[[2.52503,50.39967],[2.52338,50.398],[2.52244,50.39834],[2.52495,50.40125],[2.52503,50.39967]]]}},{"type":"Feature","properties":{"k":"PPH","s":1.766},"geometry":{"type":"Polygon","coordinates":[[[2.52496,50.39841],[2.52376,50.39713],[2.52285,50.39749],[2.52504,50.39967],[2.52496,50.39841]]]}},{"type":"Feature","properties":{"k":"BTH","s":7.542},"geometry":{"type":"Polygon","coordinates":[[[2.52541,50.39789],[2.52494,50.39814],[2.52516,50.39869],[2.52515,50.39995],[2.52802,50.40092],[2.52918,50.39957],[2.52535,50.39673],[2.52466,50.39714],[2.52541,50.39789]]]}},{"type":"Feature","properties":{"k":"BTH","s":8.914},"geometry":{"type":"Polygon","coordinates":[[[2.53431,50.3993],[2.5314,50.39829],[2.53073,50.39909],[2.52983,50.39879],[2.52643,50.3961],[2.52535,50.39673],[2.5292,50.39955],[2.53308,50.40084],[2.53323,50.40066],[2.53294,50.40054],[2.53327,50.40021],[2.53262,50.4],[2.53272,50.39982],[2.5334,50.40005],[2.53357,50.39983],[2.53326,50.39972],[2.53334,50.39964],[2.53375,50.39978],[2.53344,50.40022],[2.53431,50.3993]]]}},{"type":"Feature","properties":{"k":"ORH","s":5.417},"geometry":{"type":"Polygon","coordinates":[[[2.5292,50.39955],[2.52802,50.40092],[2.53194,50.40218],[2.53308,50.40084],[2.5292,50.39955]]]}},{"type":"Feature","properties":{"k":"BTN","s":5.314},"geometry":{"type":"Polygon","coordinates":[[[2.52521,50.40007],[2.52512,50.4001],[2.52507,50.40105],[2.53125,50.40309],[2.53184,50.40237],[2.53174,50.40222],[2.52521,50.40007]]]}},{"type":"Feature","properties":{"k":"BTH","s":3.125},"geometry":{"type":"Polygon","coordinates":[[[2.52766,50.40422],[2.52848,50.4032],[2.52504,50.40208],[2.52489,50.4033],[2.52766,50.40422]]]}},{"type":"Feature","properties":{"k":"MIS","s":4.829},"geometry":{"type":"Polygon","coordinates":[[[2.5305,50.40399],[2.53125,50.40309],[2.52507,50.40105],[2.52504,50.40205],[2.52971,50.4036],[2.52961,50.40372],[2.5305,50.40399]]]}},{"type":"Feature","properties":{"k":"BTH","s":6.329},"geometry":{"type":"Polygon","coordinates":[[[2.5277,50.40741],[2.5305,50.40399],[2.52848,50.4032],[2.5263,50.40584],[2.52702,50.40639],[2.52689,50.40654],[2.5277,50.40741]]]}}]}