{"type":"FeatureCollection","features":[{"type":"Feature","properties":{"k":"AVP","s":0.4},"geometry":{"type":"Polygon","coordinates":[[[2.48056,50.18945],[2.47999,50.18924],[2.4787,50.18967],[2.47931,50.18987],[2.48056,50.18945]]]}},{"type":"Feature","properties":{"k":"BTN","s":8.781},"geometry":{"type":"Polygon","coordinates":[[[2.49789,50.17785],[2.49368,50.17534],[2.49335,50.17762],[2.49283,50.17834],[2.49505,50.17975],[2.49789,50.17785]]]}},{"type":"Feature","properties":{"k":"BTH","s":1.692},"geometry":{"type":"Polygon","coordinates":[[[2.48494,50.19137],[2.48289,50.19043],[2.48342,50.19013],[2.48189,50.18904],[2.48103,50.18936],[2.48349,50.19116],[2.48494,50.19137]]]}},{"type":"Feature","properties":{"k":"MIS","s":0.38},"geometry":{"type":"Polygon","coordinates":[[[2.48342,50.19013],[2.48366,50.18999],[2.48218,50.18892],[2.4819,50.18904],[2.48342,50.19013]]]}},{"type":"Feature","properties":{"k":"BTH","s":3.875},"geometry":{"type":"Polygon","coordinates":[[[2.48258,50.18651],[2.4804,50.18808],[2.48252,50.18872],[2.48326,50.1884],[2.48457,50.18727],[2.48258,50.18651]]]}},{"type":"Feature","properties":{"k":"MIS","s":3.292},"geometry":{"type":"Polygon","coordinates":[[[2.48346,50.18664],[2.4841,50.18525],[2.48029,50.18424],[2.48136,50.18523],[2.48072,50.18565],[2.48346,50.18664]]]}},{"type":"Feature","properties":{"k":"BTH","s":5.152},"geometry":{"type":"Polygon","coordinates":[[[2.48675,50.18529],[2.48495,50.1871],[2.48711,50.18775],[2.48999,50.18529],[2.48675,50.18529]]]}},{"type":"Feature","properties":{"k":"BTH","s":1.815},"geometry":{"type":"Polygon","coordinates":[[[2.4838,50.18811],[2.48331,50.18845],[2.48473,50.18948],[2.48694,50.1879],[2.4861,50.18768],[2.48474,50.18879],[2.4838,50.18811]]]}},{"type":"Feature","properties":{"k":"BTH","s":1.405},"geometry":{"type":"Polygon","coordinates":[[[2.4838,50.18811],[2.48475,50.18878],[2.48612,50.18765],[2.48489,50.18729],[2.4838,50.18811]]]}},{"type":"Feature","properties":{"k":"MIS","s":1.473},"geometry":{"type":"Polygon","coordinates":[[[2.48218,50.18892],[2.48366,50.18999],[2.48473,50.18948],[2.48331,50.18845],[2.48218,50.18892]]]}},{"type":"Feature","properties":{"k":"BTN","s":4.156},"geometry":{"type":"Polygon","coordinates":[[[2.47834,50.18718],[2.47784,50.18732],[2.4804,50.18808],[2.48258,50.18651],[2.48052,50.18577],[2.47834,50.18718]]]}},{"type":"Feature","properties":{"k":"PHF","s":0.023},"geometry":{"type":"Polygon","coordinates":[[[2.47816,50.18717],[2.47709,50.18756],[2.47784,50.18732],[2.47816,50.18717]]]}},{"type":"Feature","properties":{"k":"BTH","s":9.615},"geometry":{"type":"Polygon","coordinates":[[[2.4787,50.18967],[2.47999,50.18924],[2.48056,50.18945],[2.48252,50.18872],[2.47784,50.18732],[2.47472,50.18848],[2.4741,50.18889],[2.47831,50.19018],[2.47931,50.18987],[2.4787,50.18967]]]}},{"type":"Feature","properties":{"k":"MIS","s":5.329},"geometry":{"type":"Polygon","coordinates":[[[2.48358,50.1849],[2.4833,50.18365],[2.48011,50.18077],[2.47951,50.18116],[2.48145,50.18279],[2.47955,50.18356],[2.48007,50.18404],[2.48358,50.1849]]]}},{"type":"Feature","properties":{"k":"PPH","s":7.256},"geometry":{"type":"MultiPolygon","coordinates":[[[[2.4833,50.18365],[2.48432,50.18341],[2.4836,50.18188],[2.48328,50.18031],[2.48262,50.17884],[2.4813,50.17973],[2.48015,50.1808],[2.4833,50.18365]]],[[[2.48245,50.17864],[2.48259,50.17878],[2.48254,50.17868],[2.48245,50.17864]]]]}},{"type":"Feature","properties":{"k":"BTH","s":8.802},"geometry":{"type":"Polygon","coordinates":[[[2.47984,50.17468],[2.4798,50.17409],[2.47968,50.17413],[2.47972,50.17469],[2.47995,50.17517],[2.48195,50.17622],[2.48582,50.17513],[2.48306,50.17315],[2.47981,50.17418],[2.47984,50.17468]]]}},{"type":"Feature","properties":{"k":"PPH","s":3.496},"geometry":{"type":"Polygon","coordinates":[[[2.49747,50.1716],[2.49855,50.17243],[2.50016,50.17328],[2.50148,50.1714],[2.4996,50.17107],[2.49963,50.17135],[2.49747,50.1716]]]}},{"type":"Feature","properties":{"k":"PPH","s":0.656},"geometry":{"type":"Polygon","coordinates":[[[2.49959,50.17098],[2.49778,50.17111],[2.49744,50.17156],[2.49963,50.17135],[2.49959,50.17098]]]}},{"type":"Feature","properties":{"k":"BTH","s":0.1},"geometry":{"type":"MultiPolygon","coordinates":[[[[2.47943,50.1904],[2.47866,50.19027],[2.47936,50.19041],[2.48096,50.19127],[2.48132,50.19125],[2.47943,50.1904]]],[[[2.48451,50.19133],[2.48501,50.1914],[2.48495,50.19137],[2.48451,50.19133]]],[[[2.48296,50.19115],[2.48139,50.19125],[2.48393,50.19123],[2.48296,50.19115]]]]}},{"type":"Feature","properties":{"k":"PPH","s":0.228},"geometry":{"type":"Polygon","coordinates":[[[2.49834,50.17024],[2.498,50.17023],[2.4978,50.17097],[2.49822,50.171],[2.49834,50.17024]]]}},{"type":"Feature","properties":{"k":"PPH","s":0.405},"geometry":{"type":"Polygon","coordinates":[[[2.49922,50.17039],[2.49944,50.17038],[2.49945,50.1701],[2.49873,50.17022],[2.49869,50.17106],[2.49928,50.17101],[2.49922,50.17039]]]}},{"type":"Feature","properties":{"k":"PPH","s":0.344},"geometry":{"type":"Polygon","coordinates":[[[2.4981,50.16961],[2.49801,50.17007],[2.49894,50.17007],[2.49886,50.1696],[2.4981,50.16961]]]}},{"type":"Feature","properties":{"k":"PPH","s":0.0},"geometry":{"type":"Polygon","coordinates":[]}},{"type":"Feature","properties":{"k":"PTR","s":1.142},"geometry":{"type":"Polygon","coordinates":[[[2.50026,50.17009],[2.49953,50.1701],[2.49958,50.17063],[2.50175,50.171],[2.50201,50.17049],[2.50026,50.17009]]]}},{"type":"Feature","properties":{"k":"PPH","s":0.537},"geometry":{"type":"Polygon","coordinates":[[[2.50055,50.17002],[2.5012,50.17018],[2.50186,50.16919],[2.50132,50.16908],[2.50055,50.17002]]]}},{"type":"Feature","properties":{"k":"PPH","s":0.75},"geometry":{"type":"Polygon","coordinates":[[[2.4987,50.16937],[2.50016,50.16923],[2.50001,50.16835],[2.49941,50.16839],[2.4987,50.16937]]]}},{"type":"Feature","properties":{"k":"PPH","s":1.658},"geometry":{"type":"Polygon","coordinates":[[[2.50015,50.16992],[2.50056,50.17001],[2.50143,50.16894],[2.5019,50.16896],[2.50223,50.16851],[2.50185,50.16828],[2.50131,50.16824],[2.50106,50.16898],[2.49969,50.1694],[2.49867,50.1694],[2.49851,50.16958],[2.4989,50.16958],[2.49911,50.17004],[2.50015,50.16992]]]}},{"type":"Feature","properties":{"k":"PPH","s":0.001},"geometry":{"type":"Polygon","coordinates":[[[2.48865,50.1644],[2.48858,50.16442],[2.48864,50.16442],[2.48865,50.1644]]]}},{"type":"Feature","properties":{"k":"PPH","s":2.122},"geometry":{"type":"Polygon","coordinates":[[[2.48534,50.16603],[2.4867,50.16575],[2.48978,50.16641],[2.48911,50.16579],[2.48854,50.16596],[2.48833,50.16578],[2.48833,50.16562],[2.48871,50.16545],[2.48813,50.16456],[2.48534,50.16603]]]}},{"type":"Feature","properties":{"k":"PPH","s":0.322},"geometry":{"type":"Polygon","coordinates":[[[2.4856,50.16577],[2.48759,50.16472],[2.48608,50.16528],[2.4853,50.1658],[2.48514,50.16611],[2.4856,50.16577]]]}},{"type":"Feature","properties":{"k":"PPH","s":0.625},"geometry":{"type":"Polygon","coordinates":[[[2.48543,50.16668],[2.48606,50.16607],[2.48651,50.16629],[2.4875,50.16599],[2.4862,50.16584],[2.48519,50.16619],[2.48492,50.16652],[2.48543,50.16668]]]}},{"type":"Feature","properties":{"k":"PPH","s":6.146},"geometry":{"type":"Polygon","coordinates":[[[2.48856,50.16623],[2.48766,50.16606],[2.48667,50.16632],[2.48639,50.16654],[2.48514,50.16827],[2.48462,50.16871],[2.48717,50.16979],[2.48856,50.16623]]]}},{"type":"Feature","properties":{"k":"PPH","s":5.991},"geometry":{"type":"Polygon","coordinates":[[[2.48754,50.16893],[2.49067,50.17024],[2.4906,50.16897],[2.48986,50.16652],[2.48861,50.16624],[2.48754,50.16893]]]}},{"type":"Feature","properties":{"k":"PPH","s":1.129},"geometry":{"type":"Polygon","coordinates":[[[2.49047,50.16686],[2.49134,50.16726],[2.49176,50.16641],[2.49028,50.16607],[2.48977,50.16581],[2.48949,50.16598],[2.49047,50.16686]]]}},{"type":"Feature","properties":{"k":"PPH","s":0.783},"geometry":{"type":"Polygon","coordinates":[[[2.49313,50.1669],[2.49328,50.16701],[2.49299,50.16763],[2.49249,50.16747],[2.49226,50.16765],[2.49311,50.16804],[2.4938,50.16727],[2.49317,50.16807],[2.49348,50.1682],[2.49416,50.16739],[2.49313,50.1669]]]}},{"type":"Feature","properties":{"k":"PPH","s":0.325},"geometry":{"type":"Polygon","coordinates":[[[2.49405,50.16843],[2.4945,50.16857],[2.49508,50.16783],[2.49469,50.16769],[2.49405,50.16843]]]}},{"type":"Feature","properties":{"k":"PPH","s":0.32},"geometry":{"type":"Polygon","coordinates":[[[2.49492,50.16834],[2.49511,50.16841],[2.49559,50.16778],[2.49477,50.16758],[2.4947,50.16768],[2.49509,50.16783],[2.49452,50.16857],[2.49468,50.16863],[2.49492,50.16834]]]}},{"type":"Feature","properties":{"k":"PPH","s":0.326},"geometry":{"type":"Polygon","coordinates":[[[2.49546,50.16858],[2.49603,50.16788],[2.4956,50.16778],[2.4949,50.16869],[2.49515,50.16876],[2.49531,50.16854],[2.49546,50.16858]]]}},{"type":"Feature","properties":{"k":"PPH","s":1.615},"geometry":{"type":"Polygon","coordinates":[[[2.49535,50.16984],[2.49602,50.16925],[2.49556,50.16901],[2.49515,50.16937],[2.49483,50.16922],[2.49522,50.16888],[2.49487,50.16881],[2.49422,50.16941],[2.49428,50.17009],[2.49527,50.17076],[2.49585,50.16999],[2.49535,50.16984]]]}},{"type":"Feature","properties":{"k":"PPH","s":5.736},"geometry":{"type":"Polygon","coordinates":[[[2.49165,50.17104],[2.49207,50.17094],[2.49222,50.17064],[2.49196,50.16987],[2.49205,50.16928],[2.49121,50.16883],[2.49228,50.16775],[2.49109,50.1673],[2.49043,50.16802],[2.49077,50.16911],[2.49083,50.17081],[2.49009,50.17301],[2.49027,50.17419],[2.49205,50.17188],[2.4913,50.17163],[2.49165,50.17104]]]}},{"type":"Feature","properties":{"k":"PPH","s":3.144},"geometry":{"type":"Polygon","coordinates":[[[2.49336,50.16885],[2.49375,50.16846],[2.4935,50.16834],[2.49237,50.1694],[2.49207,50.16929],[2.49196,50.16987],[2.4922,50.17077],[2.49165,50.17104],[2.49131,50.17163],[2.49205,50.17188],[2.49284,50.1717],[2.49404,50.16923],[2.49336,50.16885]],[[2.49225,50.16938],[2.49215,50.16987],[2.49202,50.16981],[2.4921,50.16932],[2.49225,50.16938]],[[2.49144,50.17154],[2.49198,50.17097],[2.49227,50.17091],[2.49186,50.1717],[2.49144,50.17154]]]}},{"type":"Feature","properties":{"k":"BTH","s":10.915},"geometry":{"type":"Polygon","coordinates":[[[2.49368,50.1753],[2.49544,50.17635],[2.49808,50.17223],[2.49715,50.1715],[2.49531,50.17089],[2.49505,50.17101],[2.49415,50.17305],[2.49368,50.1753]]]}},{"type":"Feature","properties":{"k":"BTH","s":5.687},"geometry":{"type":"Polygon","coordinates":[[[2.49207,50.17189],[2.49028,50.17419],[2.49396,50.17294],[2.49481,50.17132],[2.49478,50.1709],[2.49452,50.17048],[2.49363,50.16996],[2.49274,50.17174],[2.49207,50.17189]]]}},{"type":"Feature","properties":{"k":"PPH","s":28.368},"geometry":{"type":"Polygon","coordinates":[[[2.48115,50.17175],[2.47962,50.17207],[2.4794,50.17228],[2.47924,50.17354],[2.47968,50.17413],[2.48307,50.17316],[2.48494,50.17236],[2.48535,50.17196],[2.48951,50.17488],[2.48992,50.17458],[2.49013,50.17424],[2.48999,50.1731],[2.49073,50.1711],[2.49069,50.17025],[2.48754,50.16893],[2.48717,50.16979],[2.48467,50.16874],[2.48332,50.17043],[2.48204,50.17137],[2.48115,50.17175]]]}},{"type":"Feature","properties":{"k":"BTH","s":9.493},"geometry":{"type":"Polygon","coordinates":[[[2.48535,50.17196],[2.48494,50.17236],[2.48307,50.17316],[2.48774,50.17633],[2.48951,50.17488],[2.48535,50.17196]]]}},{"type":"Feature","properties":{"k":"BTH","s":3.184},"geometry":{"type":"Polygon","coordinates":[[[2.48753,50.17662],[2.48772,50.17643],[2.48691,50.17586],[2.48282,50.17707],[2.48349,50.17777],[2.48337,50.17786],[2.48753,50.17662]]]}},{"type":"Feature","properties":{"k":"MIS","s":3.348},"geometry":{"type":"Polygon","coordinates":[[[2.48197,50.17622],[2.48282,50.17707],[2.48691,50.17586],[2.48581,50.17514],[2.48197,50.17622]]]}},{"type":"Feature","properties":{"k":"MIS","s":13.757},"geometry":{"type":"Polygon","coordinates":[[[2.48311,50.17808],[2.48319,50.17831],[2.48511,50.17915],[2.48613,50.17992],[2.48595,50.18013],[2.48665,50.18068],[2.48714,50.18152],[2.48828,50.18185],[2.4888,50.18239],[2.48928,50.18257],[2.49134,50.18111],[2.48593,50.17713],[2.4835,50.17784],[2.48311,50.17808]]]}},{"type":"Feature","properties":{"k":"BTH","s":4.757},"geometry":{"type":"Polygon","coordinates":[[[2.48593,50.17713],[2.49134,50.18111],[2.49191,50.18069],[2.49183,50.18035],[2.48707,50.1768],[2.48593,50.17713]]]}},{"type":"Feature","properties":{"k":"ORH","s":7.048},"geometry":{"type":"Polygon","coordinates":[[[2.49172,50.17938],[2.49245,50.1786],[2.4886,50.17575],[2.48756,50.17664],[2.48707,50.1768],[2.49183,50.18035],[2.49172,50.17938]]]}},{"type":"Feature","properties":{"k":"MIS","s":0.843},"geometry":{"type":"Polygon","coordinates":[[[2.49027,50.18191],[2.49217,50.1819],[2.49193,50.18079],[2.49027,50.18191]]]}},{"type":"Feature","properties":{"k":"BTH","s":1.313},"geometry":{"type":"Polygon","coordinates":[[[2.49594,50.18029],[2.49285,50.17837],[2.49251,50.17871],[2.49562,50.18062],[2.49594,50.18029]]]}},{"type":"Feature","properties":{"k":"BTH","s":5.975},"geometry":{"type":"Polygon","coordinates":[[[2.49188,50.17937],[2.49184,50.17981],[2.49241,50.182],[2.49332,50.18248],[2.49446,50.18128],[2.49562,50.18062],[2.49262,50.17877],[2.49188,50.17937]]]}},{"type":"Feature","properties":{"k":"PPH","s":1.974},"geometry":{"type":"Polygon","coordinates":[[[2.48648,50.18558],[2.48656,50.18527],[2.48461,50.18528],[2.48423,50.18688],[2.48484,50.18708],[2.48648,50.18558]]]}},{"type":"Feature","properties":{"k":"BTH","s":5.407},"geometry":{"type":"Polygon","coordinates":[[[2.49324,50.17735],[2.48976,50.17479],[2.48862,50.17576],[2.49245,50.1786],[2.49324,50.17735]]]}},{"type":"Feature","properties":{"k":"PPH","s":5.166},"geometry":{"type":"Polygon","coordinates":[[[2.49193,50.17403],[2.4915,50.17384],[2.49034,50.17425],[2.48975,50.17478],[2.49325,50.17735],[2.49363,50.17433],[2.49295,50.17431],[2.49289,50.17492],[2.49194,50.1749],[2.49193,50.17403]]]}},{"type":"Feature","properties":{"k":"PPH","s":3.916},"geometry":{"type":"Polygon","coordinates":[[[2.50053,50.1736],[2.50033,50.17353],[2.49889,50.17527],[2.49873,50.17605],[2.49884,50.17525],[2.50024,50.17349],[2.49964,50.1731],[2.49695,50.17728],[2.49795,50.17788],[2.49805,50.17781],[2.49823,50.17751],[2.49854,50.1769],[2.49875,50.17605],[2.50053,50.1736]]]}},{"type":"Feature","properties":{"k":"BTH","s":6.877},"geometry":{"type":"Polygon","coordinates":[[[2.49809,50.17224],[2.49546,50.1764],[2.49695,50.17728],[2.49944,50.17344],[2.49925,50.17338],[2.49948,50.173],[2.49809,50.17224]]]}},{"type":"Feature","properties":{"k":"BTH","s":0.708},"geometry":{"type":"Polygon","coordinates":[[[2.49798,50.1779],[2.49838,50.17813],[2.49893,50.17711],[2.49912,50.17575],[2.49798,50.1779]]]}},{"type":"Feature","properties":{"k":"PTC","s":1.835},"geometry":{"type":"Polygon","coordinates":[[[2.49594,50.18029],[2.49708,50.17913],[2.49838,50.17813],[2.49789,50.17785],[2.49505,50.17975],[2.49594,50.18029]]]}},{"type":"Feature","properties":{"k":"CZH","s":1.916},"geometry":{"type":"Polygon","coordinates":[[[2.48921,50.18278],[2.49243,50.18283],[2.49217,50.1819],[2.49027,50.18191],[2.48921,50.18278]]]}},{"type":"Feature","properties":{"k":"BTH","s":5.93},"geometry":{"type":"Polygon","coordinates":[[[2.48921,50.18278],[2.48841,50.18418],[2.48728,50.18505],[2.49041,50.18508],[2.49255,50.18325],[2.49242,50.18284],[2.48921,50.18278]]]}},{"type":"Feature","properties":{"k":"CZH","s":2.23},"geometry":{"type":"Polygon","coordinates":[[[2.48551,50.18413],[2.48678,50.18503],[2.48735,50.18493],[2.48822,50.18423],[2.48691,50.18322],[2.48559,50.18391],[2.48551,50.18413]]]}},{"type":"Feature","properties":{"k":"MIS","s":1.511},"geometry":{"type":"Polygon","coordinates":[[[2.48872,50.18347],[2.4892,50.18259],[2.48687,50.18162],[2.48624,50.18113],[2.48595,50.18129],[2.48872,50.18347]]]}},{"type":"Feature","properties":{"k":"MIS","s":2.174},"geometry":{"type":"Polygon","coordinates":[[[2.48823,50.18424],[2.48863,50.18366],[2.48579,50.18139],[2.48516,50.18183],[2.48823,50.18424]]]}},{"type":"Feature","properties":{"k":"MIS","s":2.178},"geometry":{"type":"Polygon","coordinates":[[[2.48549,50.18396],[2.48691,50.18322],[2.48474,50.18138],[2.48433,50.18155],[2.48549,50.18396]]]}},{"type":"Feature","properties":{"k":"PPH","s":3.846},"geometry":{"type":"Polygon","coordinates":[[[2.48863,50.18366],[2.48865,50.18344],[2.48591,50.18129],[2.48638,50.181],[2.48548,50.18015],[2.48498,50.17988],[2.4844,50.18035],[2.48357,50.18],[2.48353,50.17917],[2.48283,50.1792],[2.48367,50.18163],[2.48383,50.18172],[2.48474,50.18138],[2.48516,50.18182],[2.48579,50.18139],[2.48863,50.18366]]]}},{"type":"Feature","properties":{"k":"PPH","s":1.867},"geometry":{"type":"Polygon","coordinates":[[[2.48357,50.18487],[2.4866,50.18515],[2.48534,50.18408],[2.48537,50.18489],[2.48473,50.18487],[2.48484,50.18419],[2.48433,50.18343],[2.4833,50.18365],[2.48357,50.18487]]]}},{"type":"Feature","properties":{"k":"PPH","s":0.749},"geometry":{"type":"Polygon","coordinates":[[[2.48418,50.18685],[2.48457,50.18531],[2.4841,50.18525],[2.48346,50.18664],[2.48418,50.18685]]]}},{"type":"Feature","properties":{"k":"PPH","s":0.921},"geometry":{"type":"Polygon","coordinates":[[[2.49742,50.16989],[2.49716,50.16977],[2.49632,50.17068],[2.49602,50.17059],[2.49576,50.17091],[2.49682,50.17128],[2.49757,50.1704],[2.49716,50.17028],[2.49742,50.16989]]]}}]}