{"type":"FeatureCollection","features":[{"type":"Feature","properties":{"k":"MIS","s":1.155},"geometry":{"type":"MultiPolygon","coordinates":[[[[1.62169,50.37705],[1.62335,50.37706],[1.62257,50.37597],[1.62136,50.37616],[1.62169,50.37705]]],[[[1.6234,50.37712],[1.62337,50.37709],[1.62342,50.37718],[1.6234,50.37712]]]]}},{"type":"Feature","properties":{"k":"BTH","s":1.334},"geometry":{"type":"MultiPolygon","coordinates":[[[[1.62996,50.38558],[1.62999,50.38598],[1.63023,50.38565],[1.62996,50.38558]]],[[[1.62752,50.38757],[1.62822,50.38809],[1.62845,50.3877],[1.62957,50.38755],[1.63026,50.38727],[1.63038,50.38706],[1.62952,50.38669],[1.62752,50.38757]]]]}},{"type":"Feature","properties":{"k":"ORP","s":7.283},"geometry":{"type":"Polygon","coordinates":[[[1.59148,50.39062],[1.59317,50.38818],[1.5897,50.38675],[1.5876,50.38988],[1.59148,50.39062]],[[1.58881,50.38994],[1.59064,50.38731],[1.59114,50.38751],[1.58935,50.39002],[1.58881,50.38994]],[[1.5919,50.3878],[1.59016,50.39017],[1.58968,50.39007],[1.59142,50.38761],[1.5919,50.3878]]]}},{"type":"Feature","properties":{"k":"BTN","s":1.118},"geometry":{"type":"Polygon","coordinates":[[[1.5919,50.3878],[1.59142,50.38761],[1.58968,50.39007],[1.59016,50.39017],[1.5919,50.3878]]]}},{"type":"Feature","properties":{"k":"JAC","s":0.165},"geometry":{"type":"Polygon","coordinates":[[[1.59148,50.39062],[1.59158,50.39065],[1.59321,50.3882],[1.59148,50.39062]]]}},{"type":"Feature","properties":{"k":"ORP","s":4.856},"geometry":{"type":"Polygon","coordinates":[[[1.58354,50.38907],[1.5841,50.38935],[1.58599,50.38963],[1.58678,50.38848],[1.58693,50.3877],[1.58622,50.38683],[1.58506,50.38682],[1.58354,50.38907]]]}},{"type":"Feature","properties":{"k":"ORP","s":0.479},"geometry":{"type":"Polygon","coordinates":[[[1.58658,50.38719],[1.5868,50.38747],[1.58716,50.38749],[1.58697,50.38791],[1.58692,50.38809],[1.58767,50.38674],[1.58688,50.38664],[1.58658,50.38719]]]}},{"type":"Feature","properties":{"k":"ORP","s":5.177},"geometry":{"type":"Polygon","coordinates":[[[1.5876,50.38988],[1.5897,50.38675],[1.58918,50.38629],[1.58811,50.38605],[1.58605,50.38964],[1.5876,50.38988]],[[1.5892,50.38646],[1.58902,50.38639],[1.5893,50.38643],[1.5892,50.38646]]]}},{"type":"Feature","properties":{"k":"BTN","s":1.267},"geometry":{"type":"Polygon","coordinates":[[[1.59064,50.38731],[1.58881,50.38994],[1.58935,50.39002],[1.59114,50.38751],[1.59064,50.38731]]]}},{"type":"Feature","properties":{"k":"ORH","s":1.852},"geometry":{"type":"Polygon","coordinates":[[[1.58629,50.38551],[1.58506,50.38682],[1.58622,50.38683],[1.58629,50.38668],[1.58693,50.38655],[1.58688,50.38664],[1.58767,50.38674],[1.5881,50.38604],[1.58629,50.38551]]]}},{"type":"Feature","properties":{"k":"PPH","s":1.773},"geometry":{"type":"Polygon","coordinates":[[[1.59025,50.38303],[1.58988,50.38293],[1.58953,50.38333],[1.58863,50.38312],[1.58864,50.38293],[1.58829,50.38282],[1.58753,50.3839],[1.58959,50.38424],[1.59015,50.38356],[1.59025,50.38303]]]}},{"type":"Feature","properties":{"k":"PPH","s":0.905},"geometry":{"type":"Polygon","coordinates":[[[1.5934,50.38494],[1.59385,50.38467],[1.59266,50.38443],[1.59316,50.3838],[1.59236,50.3836],[1.59213,50.38399],[1.59235,50.38405],[1.5919,50.38468],[1.5934,50.38494]]]}},{"type":"Feature","properties":{"k":"PPH","s":9.672},"geometry":{"type":"Polygon","coordinates":[[[1.5899,50.38613],[1.59025,50.38623],[1.59015,50.38667],[1.59086,50.38702],[1.59206,50.38573],[1.59579,50.38729],[1.59648,50.38646],[1.59612,50.38627],[1.59585,50.38656],[1.59238,50.38539],[1.59281,50.38497],[1.59202,50.38482],[1.59182,50.38499],[1.59139,50.38471],[1.5909,50.38463],[1.59065,50.38472],[1.59043,50.38452],[1.58749,50.38399],[1.58644,50.38542],[1.58938,50.38628],[1.5899,50.38613]]]}},{"type":"Feature","properties":{"k":"BTA","s":0.268},"geometry":{"type":"Polygon","coordinates":[[[1.62139,50.37721],[1.62139,50.37811],[1.62148,50.37719],[1.62342,50.37718],[1.62335,50.37706],[1.62169,50.37705],[1.62139,50.37721]]]}},{"type":"Feature","properties":{"k":"MIS","s":2.913},"geometry":{"type":"Polygon","coordinates":[[[1.62356,50.37871],[1.62345,50.37887],[1.62155,50.37844],[1.62143,50.37866],[1.62355,50.37911],[1.62429,50.37838],[1.62342,50.37718],[1.62148,50.37719],[1.62127,50.37808],[1.62356,50.37871]]]}},{"type":"Feature","properties":{"k":"BTH","s":2.721},"geometry":{"type":"Polygon","coordinates":[[[1.62709,50.37866],[1.6267,50.37887],[1.62638,50.37938],[1.62651,50.38013],[1.62845,50.38019],[1.62897,50.37839],[1.62709,50.37866]]]}},{"type":"Feature","properties":{"k":"PTR","s":0.001},"geometry":{"type":"Polygon","coordinates":[]}},{"type":"Feature","properties":{"k":"MIS","s":0.69},"geometry":{"type":"Polygon","coordinates":[[[1.63033,50.38148],[1.62996,50.3806],[1.62922,50.38055],[1.62917,50.38147],[1.63033,50.38148]]]}},{"type":"Feature","properties":{"k":"BTH","s":0.003},"geometry":{"type":"Polygon","coordinates":[[[1.6324,50.38188],[1.63165,50.38188],[1.63203,50.38189],[1.6324,50.38188]]]}},{"type":"Feature","properties":{"k":"MIS","s":1.568},"geometry":{"type":"Polygon","coordinates":[[[1.63308,50.38269],[1.63324,50.38199],[1.63059,50.3819],[1.63057,50.3826],[1.63308,50.38269]]]}},{"type":"Feature","properties":{"k":"BTA","s":0.031},"geometry":{"type":"Polygon","coordinates":[[[1.63308,50.38269],[1.63321,50.3822],[1.63324,50.38199],[1.63308,50.38269]]]}},{"type":"Feature","properties":{"k":"PPH","s":0.006},"geometry":{"type":"Polygon","coordinates":[[[1.63328,50.3828],[1.63323,50.38265],[1.63319,50.38283],[1.63328,50.3828]]]}},{"type":"Feature","properties":{"k":"MIS","s":0.999},"geometry":{"type":"Polygon","coordinates":[[[1.63061,50.38312],[1.63072,50.38402],[1.63339,50.38311],[1.63334,50.38298],[1.63061,50.38312]]]}},{"type":"Feature","properties":{"k":"BTA","s":0.1},"geometry":{"type":"Polygon","coordinates":[[[1.63104,50.38387],[1.6309,50.38399],[1.6334,50.38316],[1.63104,50.38387]]]}},{"type":"Feature","properties":{"k":"MIS","s":3.083},"geometry":{"type":"Polygon","coordinates":[[[1.62118,50.378],[1.62126,50.37716],[1.61842,50.37733],[1.61842,50.37807],[1.61964,50.378],[1.61953,50.37913],[1.61977,50.3795],[1.62019,50.37938],[1.62118,50.378]]]}},{"type":"Feature","properties":{"k":"BTA","s":0.142},"geometry":{"type":"Polygon","coordinates":[[[1.62118,50.378],[1.62029,50.37916],[1.62016,50.37945],[1.62116,50.37822],[1.62138,50.3775],[1.62126,50.37716],[1.62118,50.378]]]}},{"type":"Feature","properties":{"k":"PPH","s":0.858},"geometry":{"type":"Polygon","coordinates":[[[1.60911,50.38201],[1.60959,50.38042],[1.60899,50.38034],[1.60844,50.38192],[1.60911,50.38201]]]}},{"type":"Feature","properties":{"k":"BTA","s":1.107},"geometry":{"type":"Polygon","coordinates":[[[1.58734,50.38581],[1.58918,50.38629],[1.58962,50.38671],[1.59066,50.38706],[1.59615,50.38963],[1.59633,50.38973],[1.5961,50.39019],[1.59445,50.39049],[1.59338,50.39083],[1.59297,50.39074],[1.59264,50.39097],[1.59029,50.3903],[1.58408,50.38939],[1.59018,50.39036],[1.59266,50.39103],[1.59303,50.39078],[1.59349,50.39085],[1.59615,50.39022],[1.59642,50.38972],[1.59631,50.38965],[1.5932,50.38813],[1.59009,50.38675],[1.58973,50.38669],[1.58938,50.38628],[1.58734,50.38581]]]}},{"type":"Feature","properties":{"k":"PPH","s":5.761},"geometry":{"type":"Polygon","coordinates":[[[1.58778,50.39298],[1.58788,50.39282],[1.58824,50.3929],[1.58826,50.39308],[1.58904,50.39322],[1.58936,50.39033],[1.58864,50.39023],[1.58818,50.39036],[1.58785,50.39012],[1.58706,50.38998],[1.58618,50.39258],[1.58778,50.39298]]]}},{"type":"Feature","properties":{"k":"PPH","s":0.083},"geometry":{"type":"Polygon","coordinates":[]}},{"type":"Feature","properties":{"k":"PTR","s":1.998},"geometry":{"type":"Polygon","coordinates":[[[1.59371,50.39503],[1.59573,50.39639],[1.59663,50.39572],[1.5942,50.39445],[1.59371,50.39503]]]}},{"type":"Feature","properties":{"k":"PPH","s":1.364},"geometry":{"type":"Polygon","coordinates":[[[1.59701,50.39478],[1.59682,50.39504],[1.59444,50.39416],[1.5942,50.39445],[1.59663,50.39572],[1.59767,50.39504],[1.59701,50.39478]]]}},{"type":"Feature","properties":{"k":"MIS","s":1.734},"geometry":{"type":"Polygon","coordinates":[[[1.59106,50.39076],[1.59112,50.39338],[1.59206,50.39334],[1.59186,50.39206],[1.59216,50.39107],[1.59106,50.39076]]]}},{"type":"Feature","properties":{"k":"PPH","s":1.456},"geometry":{"type":"Polygon","coordinates":[[[1.59456,50.39213],[1.59535,50.39121],[1.59378,50.39152],[1.59241,50.39118],[1.59202,50.3919],[1.59456,50.39213]]]}},{"type":"Feature","properties":{"k":"MIS","s":2.627},"geometry":{"type":"Polygon","coordinates":[[[1.59222,50.39324],[1.59295,50.39418],[1.59456,50.39213],[1.59202,50.3919],[1.59222,50.39324]]]}},{"type":"Feature","properties":{"k":"MIS","s":3.976},"geometry":{"type":"Polygon","coordinates":[[[1.59379,50.3949],[1.59693,50.39086],[1.59519,50.3914],[1.5934,50.3936],[1.59315,50.39418],[1.59379,50.3949]]]}},{"type":"Feature","properties":{"k":"PPH","s":1.662},"geometry":{"type":"Polygon","coordinates":[[[1.59397,50.39139],[1.59663,50.39074],[1.59618,50.39025],[1.59331,50.39091],[1.59297,50.39081],[1.59274,50.39105],[1.59397,50.39139]]]}},{"type":"Feature","properties":{"k":"ORP","s":5.442},"geometry":{"type":"Polygon","coordinates":[[[1.59158,50.39065],[1.59264,50.39097],[1.59297,50.39074],[1.59338,50.39083],[1.5961,50.39019],[1.59633,50.38973],[1.59321,50.3882],[1.59158,50.39065]]]}},{"type":"Feature","properties":{"k":"AVP","s":6.867},"geometry":{"type":"Polygon","coordinates":[[[1.59545,50.38769],[1.59579,50.38729],[1.59206,50.38573],[1.59102,50.38687],[1.59642,50.38934],[1.59797,50.38805],[1.59741,50.38776],[1.59676,50.3883],[1.59545,50.38769]]]}},{"type":"Feature","properties":{"k":"BTA","s":0.338},"geometry":{"type":"Polygon","coordinates":[[[1.59343,50.38818],[1.59656,50.3897],[1.59347,50.38813],[1.59096,50.38711],[1.59343,50.38818]]]}},{"type":"Feature","properties":{"k":"LUZ","s":1.9},"geometry":{"type":"Polygon","coordinates":[[[1.5965,50.38964],[1.59803,50.39073],[1.59854,50.3906],[1.59795,50.3903],[1.59746,50.38976],[1.59861,50.38887],[1.59835,50.38874],[1.59714,50.38971],[1.59221,50.38735],[1.59102,50.38687],[1.59086,50.38702],[1.5965,50.38964]]]}},{"type":"Feature","properties":{"k":"PPH","s":13.127},"geometry":{"type":"Polygon","coordinates":[[[1.5971,50.39081],[1.59719,50.39104],[1.5968,50.39116],[1.59565,50.39267],[1.60124,50.39486],[1.60195,50.39339],[1.60319,50.3923],[1.60225,50.39149],[1.60106,50.39235],[1.60087,50.3923],[1.59936,50.39058],[1.59801,50.39083],[1.5971,50.39081]]]}},{"type":"Feature","properties":{"k":"MIS","s":5.872},"geometry":{"type":"Polygon","coordinates":[[[1.60125,50.39487],[1.59568,50.39266],[1.59515,50.39331],[1.59809,50.39434],[1.59755,50.39521],[1.60052,50.39637],[1.60125,50.39487]]]}},{"type":"Feature","properties":{"k":"MIS","s":2.0},"geometry":{"type":"Polygon","coordinates":[[[1.59809,50.39434],[1.59515,50.39331],[1.59466,50.3939],[1.59693,50.39492],[1.59701,50.39478],[1.59754,50.39499],[1.59809,50.39434]]]}},{"type":"Feature","properties":{"k":"MIS","s":5.203},"geometry":{"type":"Polygon","coordinates":[[[1.59973,50.39792],[1.60052,50.39641],[1.5974,50.39519],[1.59577,50.3964],[1.59636,50.39664],[1.5965,50.39651],[1.59674,50.39661],[1.59658,50.39672],[1.59973,50.39792]]]}},{"type":"Feature","properties":{"k":"PPH","s":3.365},"geometry":{"type":"Polygon","coordinates":[[[1.60702,50.39824],[1.60646,50.3986],[1.60612,50.39924],[1.60982,50.40021],[1.6094,50.39842],[1.60863,50.39856],[1.60702,50.39824]]]}},{"type":"Feature","properties":{"k":"PPH","s":0.028},"geometry":{"type":"MultiPolygon","coordinates":[[[[1.61183,50.3999],[1.61178,50.39991],[1.61248,50.40015],[1.61279,50.40018],[1.61283,50.40014],[1.61183,50.3999]]],[[[1.61145,50.40008],[1.61165,50.39992],[1.61159,50.39992],[1.61145,50.40008]]]]}},{"type":"Feature","properties":{"k":"PPH","s":0.25},"geometry":{"type":"Polygon","coordinates":[[[1.62268,50.39265],[1.62256,50.39316],[1.62346,50.39319],[1.62358,50.39307],[1.62268,50.39265]]]}},{"type":"Feature","properties":{"k":"PPH","s":2.454},"geometry":{"type":"Polygon","coordinates":[[[1.60815,50.38455],[1.60742,50.38508],[1.60636,50.3849],[1.60571,50.38562],[1.60691,50.38609],[1.60726,50.38596],[1.60802,50.38625],[1.60918,50.38502],[1.60848,50.38479],[1.60856,50.38469],[1.60815,50.38455]]]}},{"type":"Feature","properties":{"k":"PPH","s":2.944},"geometry":{"type":"Polygon","coordinates":[[[1.60954,50.38629],[1.61073,50.38666],[1.61113,50.38639],[1.6118,50.38669],[1.61231,50.38639],[1.61142,50.38606],[1.61264,50.3844],[1.61155,50.38421],[1.60954,50.38629]]]}},{"type":"Feature","properties":{"k":"MIS","s":2.357},"geometry":{"type":"Polygon","coordinates":[[[1.61295,50.38895],[1.61356,50.38918],[1.61685,50.38561],[1.61632,50.38543],[1.61295,50.38895]]]}},{"type":"Feature","properties":{"k":"ORP","s":3.097},"geometry":{"type":"Polygon","coordinates":[[[1.6204,50.38606],[1.62051,50.3876],[1.62119,50.38772],[1.62274,50.38765],[1.62248,50.3863],[1.62264,50.38592],[1.62236,50.38522],[1.6222,50.3852],[1.62196,50.38606],[1.6204,50.38606]]]}},{"type":"Feature","properties":{"k":"PPH","s":14.224},"geometry":{"type":"Polygon","coordinates":[[[1.61753,50.3864],[1.61792,50.38533],[1.6173,50.38518],[1.61655,50.38614],[1.61919,50.38728],[1.61699,50.38645],[1.61416,50.3894],[1.61666,50.39034],[1.61809,50.38883],[1.62006,50.38945],[1.62171,50.38777],[1.62026,50.3876],[1.62017,50.38554],[1.61985,50.38556],[1.61981,50.38523],[1.61907,50.38533],[1.61881,50.38655],[1.61753,50.3864]]]}},{"type":"Feature","properties":{"k":"MIS","s":2.884},"geometry":{"type":"Polygon","coordinates":[[[1.61918,50.38923],[1.61773,50.39074],[1.61844,50.391],[1.61918,50.39023],[1.62026,50.39058],[1.621,50.38981],[1.62052,50.38962],[1.62231,50.38771],[1.6217,50.38781],[1.62007,50.38947],[1.61918,50.38923]]]}},{"type":"Feature","properties":{"k":"MIS","s":2.409},"geometry":{"type":"Polygon","coordinates":[[[1.61958,50.39132],[1.62017,50.39147],[1.6203,50.39098],[1.62282,50.38844],[1.62285,50.38775],[1.62235,50.38766],[1.62052,50.38962],[1.621,50.3898],[1.61958,50.39132]]]}},{"type":"Feature","properties":{"k":"BTA","s":0.283},"geometry":{"type":"Polygon","coordinates":[[[1.62282,50.38844],[1.6203,50.39098],[1.62013,50.39118],[1.62017,50.39147],[1.61956,50.39134],[1.62022,50.39152],[1.62019,50.39119],[1.6229,50.38847],[1.62298,50.38775],[1.62264,50.38766],[1.62235,50.38766],[1.6229,50.38783],[1.62282,50.38844]]]}},{"type":"Feature","properties":{"k":"MIS","s":0.417},"geometry":{"type":"Polygon","coordinates":[[[1.61973,50.39041],[1.61899,50.39118],[1.61955,50.39133],[1.62024,50.39059],[1.61973,50.39041]]]}},{"type":"Feature","properties":{"k":"MIS","s":0.432},"geometry":{"type":"Polygon","coordinates":[[[1.61899,50.39118],[1.6197,50.3904],[1.61918,50.39023],[1.61844,50.391],[1.61899,50.39118]]]}},{"type":"Feature","properties":{"k":"MIS","s":1.633},"geometry":{"type":"Polygon","coordinates":[[[1.61771,50.39073],[1.61916,50.38923],[1.61811,50.38888],[1.61669,50.39036],[1.61771,50.39073]]]}},{"type":"Feature","properties":{"k":"PPH","s":1.947},"geometry":{"type":"Polygon","coordinates":[[[1.61356,50.38918],[1.61415,50.38939],[1.61697,50.38644],[1.61642,50.38618],[1.6165,50.38607],[1.61356,50.38918]]]}},{"type":"Feature","properties":{"k":"PPH","s":1.425},"geometry":{"type":"Polygon","coordinates":[[[1.6149,50.38668],[1.61428,50.38643],[1.61256,50.38844],[1.61311,50.38868],[1.6149,50.38668]]]}},{"type":"Feature","properties":{"k":"PPH","s":7.286},"geometry":{"type":"Polygon","coordinates":[[[1.61176,50.39417],[1.61333,50.3946],[1.6141,50.39464],[1.6147,50.39538],[1.6152,50.39513],[1.61542,50.39492],[1.61492,50.39455],[1.61481,50.39424],[1.61534,50.39367],[1.61568,50.39371],[1.61641,50.3934],[1.6169,50.39212],[1.61651,50.39215],[1.61596,50.39263],[1.61527,50.39288],[1.61401,50.39267],[1.61349,50.39316],[1.61186,50.39256],[1.61057,50.39414],[1.611,50.39439],[1.61038,50.39505],[1.61075,50.39531],[1.61176,50.39417]]]}},{"type":"Feature","properties":{"k":"PPH","s":1.649},"geometry":{"type":"Polygon","coordinates":[[[1.61209,50.39505],[1.61277,50.3953],[1.61309,50.39515],[1.61387,50.39515],[1.61472,50.39541],[1.61418,50.39469],[1.61328,50.39461],[1.61176,50.39418],[1.61115,50.39489],[1.61189,50.3952],[1.61209,50.39505]]]}},{"type":"Feature","properties":{"k":"PPH","s":27.928},"geometry":{"type":"Polygon","coordinates":[[[1.61168,50.38863],[1.60738,50.39298],[1.61036,50.39501],[1.61097,50.3944],[1.6105,50.39411],[1.61184,50.39249],[1.61353,50.39307],[1.61397,50.39265],[1.61529,50.39286],[1.61692,50.39191],[1.61662,50.39263],[1.6167,50.393],[1.61732,50.39298],[1.61571,50.39479],[1.6171,50.39434],[1.61955,50.39143],[1.61775,50.39086],[1.61385,50.38942],[1.61374,50.38951],[1.61168,50.38863]],[[1.6173,50.39142],[1.61701,50.39179],[1.61726,50.39146],[1.6173,50.39142]]]}},{"type":"Feature","properties":{"k":"PPH","s":0.211},"geometry":{"type":"MultiPolygon","coordinates":[[[[1.62075,50.39285],[1.62083,50.39273],[1.62081,50.39273],[1.62075,50.39285]]],[[[1.62018,50.39332],[1.62039,50.3934],[1.62073,50.39288],[1.62003,50.39277],[1.62018,50.39332]]]]}},{"type":"Feature","properties":{"k":"MIS","s":1.915},"geometry":{"type":"Polygon","coordinates":[[[1.62003,50.39157],[1.61967,50.39146],[1.61731,50.39426],[1.61828,50.39391],[1.61964,50.39312],[1.62003,50.39157]]]}},{"type":"Feature","properties":{"k":"BTA","s":0.3},"geometry":{"type":"Polygon","coordinates":[[[1.61828,50.39391],[1.61731,50.39426],[1.61958,50.39144],[1.61717,50.39434],[1.61832,50.39395],[1.6197,50.39315],[1.61969,50.39298],[1.61828,50.39391]]]}},{"type":"Feature","properties":{"k":"PPH","s":8.409},"geometry":{"type":"Polygon","coordinates":[[[1.6209,50.39372],[1.62015,50.39334],[1.61997,50.39306],[1.618,50.39425],[1.61606,50.39482],[1.61755,50.39624],[1.61826,50.39594],[1.62015,50.39659],[1.62141,50.39575],[1.6209,50.39372]]]}},{"type":"Feature","properties":{"k":"PPH","s":0.0},"geometry":{"type":"Polygon","coordinates":[]}},{"type":"Feature","properties":{"k":"PPH","s":0.919},"geometry":{"type":"Polygon","coordinates":[[[1.6125,50.39761],[1.61366,50.39729],[1.61438,50.39728],[1.61493,50.39698],[1.61227,50.39674],[1.6125,50.39761]]]}},{"type":"Feature","properties":{"k":"PPH","s":1.007},"geometry":{"type":"Polygon","coordinates":[[[1.6122,50.39643],[1.61226,50.39674],[1.61529,50.39692],[1.61263,50.39614],[1.6122,50.39643]]]}},{"type":"Feature","properties":{"k":"PPH","s":1.704},"geometry":{"type":"Polygon","coordinates":[[[1.61166,50.3962],[1.61216,50.39623],[1.61331,50.39547],[1.61465,50.39539],[1.61385,50.39517],[1.61311,50.39517],[1.61277,50.39532],[1.61208,50.39507],[1.61189,50.39522],[1.61119,50.39493],[1.61079,50.39537],[1.61166,50.3962]]]}},{"type":"Feature","properties":{"k":"PPH","s":11.877},"geometry":{"type":"Polygon","coordinates":[[[1.60606,50.39634],[1.60637,50.39633],[1.60643,50.39603],[1.60982,50.39697],[1.60989,50.39811],[1.61226,50.39754],[1.612,50.39655],[1.61213,50.39628],[1.61157,50.39621],[1.61077,50.39538],[1.6074,50.39303],[1.60716,50.39318],[1.6073,50.39301],[1.60688,50.3928],[1.6062,50.39469],[1.60606,50.39634]],[[1.6104,50.39565],[1.60978,50.39604],[1.60948,50.39591],[1.60916,50.39529],[1.60941,50.3951],[1.6104,50.39565]]]}},{"type":"Feature","properties":{"k":"PPH","s":2.466},"geometry":{"type":"Polygon","coordinates":[[[1.62537,50.39164],[1.62612,50.38994],[1.62523,50.38972],[1.62484,50.38917],[1.62343,50.39023],[1.62537,50.39164]]]}},{"type":"Feature","properties":{"k":"BTA","s":0.023},"geometry":{"type":"Polygon","coordinates":[[[1.62178,50.38774],[1.6217,50.38781],[1.62231,50.38771],[1.62178,50.38774]]]}},{"type":"Feature","properties":{"k":"BTA","s":0.007},"geometry":{"type":"MultiPolygon","coordinates":[[[[1.62708,50.38842],[1.62707,50.38844],[1.62726,50.38836],[1.62708,50.38842]]],[[[1.62712,50.38908],[1.6271,50.38911],[1.62738,50.38897],[1.62712,50.38908]]]]}},{"type":"Feature","properties":{"k":"BTA","s":0.426},"geometry":{"type":"Polygon","coordinates":[[[1.62248,50.38621],[1.62269,50.38673],[1.6226,50.38712],[1.62274,50.38765],[1.62293,50.38767],[1.62272,50.3862],[1.62292,50.38597],[1.6228,50.38535],[1.62252,50.38527],[1.62264,50.38592],[1.62248,50.38621]]]}},{"type":"Feature","properties":{"k":"MIS","s":0.794},"geometry":{"type":"Polygon","coordinates":[[[1.62996,50.3846],[1.62991,50.38548],[1.63029,50.38557],[1.63075,50.38494],[1.63094,50.38403],[1.6307,50.38402],[1.62996,50.3846]]]}},{"type":"Feature","properties":{"k":"BTA","s":0.058},"geometry":{"type":"MultiPolygon","coordinates":[[[[1.63075,50.38494],[1.63102,50.38398],[1.63094,50.38403],[1.63075,50.38494]]],[[[1.62991,50.38552],[1.63027,50.38561],[1.63029,50.38557],[1.62991,50.38552]]]]}},{"type":"Feature","properties":{"k":"BTA","s":0.011},"geometry":{"type":"Polygon","coordinates":[[[1.63023,50.38565],[1.63026,50.38561],[1.62996,50.38553],[1.63023,50.38565]]]}},{"type":"Feature","properties":{"k":"BTA","s":0.096},"geometry":{"type":"Polygon","coordinates":[[[1.62979,50.38748],[1.62836,50.38774],[1.62822,50.38809],[1.6284,50.38778],[1.62981,50.38752],[1.63035,50.38726],[1.63037,50.3871],[1.62979,50.38748]]]}},{"type":"Feature","properties":{"k":"MIS","s":3.355},"geometry":{"type":"Polygon","coordinates":[[[1.6227,50.39064],[1.62472,50.38915],[1.62398,50.38877],[1.62298,50.38861],[1.62045,50.39108],[1.62044,50.39146],[1.62066,50.39124],[1.6227,50.39064]]]}},{"type":"Feature","properties":{"k":"BTA","s":0.045},"geometry":{"type":"MultiPolygon","coordinates":[[[[1.63113,50.3839],[1.63106,50.38396],[1.6333,50.38321],[1.63113,50.3839]]],[[[1.63085,50.38468],[1.63105,50.38396],[1.63102,50.38398],[1.63085,50.38468]]]]}},{"type":"Feature","properties":{"k":"PPH","s":1.948},"geometry":{"type":"Polygon","coordinates":[[[1.59809,50.3872],[1.59651,50.38646],[1.59549,50.38768],[1.59677,50.38829],[1.59809,50.3872]]]}},{"type":"Feature","properties":{"k":"BTA","s":0.119},"geometry":{"type":"Polygon","coordinates":[[[1.59807,50.38804],[1.59746,50.38772],[1.59797,50.38805],[1.59642,50.38934],[1.59807,50.38804]]]}},{"type":"Feature","properties":{"k":"PPH","s":3.976},"geometry":{"type":"Polygon","coordinates":[[[1.62511,50.39159],[1.62332,50.39032],[1.62266,50.3908],[1.62131,50.39113],[1.62139,50.39138],[1.62106,50.39175],[1.62139,50.39191],[1.62171,50.39161],[1.62308,50.39223],[1.62313,50.39236],[1.62274,50.39255],[1.62365,50.39297],[1.62511,50.39159]]]}},{"type":"Feature","properties":{"k":"BTA","s":0.002},"geometry":{"type":"MultiPolygon","coordinates":[[[[1.62501,50.39207],[1.62519,50.39211],[1.62515,50.39209],[1.62501,50.39207]]],[[[1.62471,50.39207],[1.62491,50.39206],[1.62486,50.39205],[1.62471,50.39207]]],[[[1.62395,50.39271],[1.62412,50.39255],[1.62396,50.39269],[1.62395,50.39271]]]]}},{"type":"Feature","properties":{"k":"BTA","s":0.002},"geometry":{"type":"MultiPolygon","coordinates":[[[[1.62839,50.38784],[1.62837,50.38794],[1.62845,50.38778],[1.62839,50.38784]]]]}},{"type":"Feature","properties":{"k":"AVP","s":2.614},"geometry":{"type":"Polygon","coordinates":[[[1.60383,50.39386],[1.60622,50.39454],[1.60688,50.3928],[1.60626,50.39236],[1.60507,50.39337],[1.60646,50.39378],[1.6064,50.39392],[1.60489,50.39349],[1.60466,50.39368],[1.6063,50.39419],[1.60626,50.39434],[1.60448,50.39382],[1.60625,50.39234],[1.6059,50.39207],[1.60383,50.39386]]]}},{"type":"Feature","properties":{"k":"BTA","s":0.275},"geometry":{"type":"Polygon","coordinates":[[[1.60383,50.39386],[1.60377,50.39392],[1.60618,50.39468],[1.60621,50.39454],[1.60383,50.39386]]]}},{"type":"Feature","properties":{"k":"BTH","s":3.347},"geometry":{"type":"Polygon","coordinates":[[[1.6053,50.39563],[1.6059,50.39475],[1.60243,50.39348],[1.60177,50.39468],[1.6053,50.39563]]]}},{"type":"Feature","properties":{"k":"PPH","s":3.221},"geometry":{"type":"Polygon","coordinates":[[[1.60482,50.39119],[1.60384,50.39076],[1.60323,50.39105],[1.60234,50.39036],[1.60034,50.3917],[1.60107,50.39233],[1.60226,50.39147],[1.60323,50.39229],[1.60482,50.39119]]]}},{"type":"Feature","properties":{"k":"BTH","s":4.005},"geometry":{"type":"Polygon","coordinates":[[[1.59661,50.38632],[1.59807,50.38696],[1.60025,50.38439],[1.59886,50.38379],[1.59661,50.38632]]]}},{"type":"Feature","properties":{"k":"BTA","s":0.016},"geometry":{"type":"Polygon","coordinates":[[[1.60375,50.39392],[1.60379,50.39388],[1.6034,50.39372],[1.60375,50.39392]]]}},{"type":"Feature","properties":{"k":"BTA","s":0.179},"geometry":{"type":"Polygon","coordinates":[[[1.60447,50.39423],[1.60246,50.39343],[1.60386,50.39407],[1.6059,50.39475],[1.60447,50.39423]]]}},{"type":"Feature","properties":{"k":"BTN","s":4.14},"geometry":{"type":"Polygon","coordinates":[[[1.60675,50.39815],[1.60721,50.39806],[1.60769,50.39835],[1.60834,50.39843],[1.6096,50.3982],[1.60979,50.39798],[1.60982,50.39697],[1.60692,50.39615],[1.60675,50.39815]]]}},{"type":"Feature","properties":{"k":"PPH","s":14.135},"geometry":{"type":"Polygon","coordinates":[[[1.60173,50.39468],[1.60028,50.39774],[1.60312,50.39843],[1.60354,50.39772],[1.60428,50.39791],[1.60407,50.39864],[1.60455,50.39874],[1.60549,50.39868],[1.60663,50.39836],[1.6069,50.39615],[1.60649,50.39603],[1.60643,50.39634],[1.60604,50.39635],[1.60615,50.39486],[1.60591,50.39484],[1.60532,50.39568],[1.60173,50.39468]]]}},{"type":"Feature","properties":{"k":"MIS","s":1.096},"geometry":{"type":"Polygon","coordinates":[[[1.60375,50.39392],[1.60588,50.39205],[1.60541,50.39176],[1.60424,50.39266],[1.60448,50.39279],[1.60336,50.39376],[1.60375,50.39392]]]}},{"type":"Feature","properties":{"k":"ORH","s":1.803},"geometry":{"type":"Polygon","coordinates":[[[1.60538,50.39175],[1.60508,50.39127],[1.60307,50.39274],[1.60254,50.39332],[1.6034,50.39369],[1.60444,50.39278],[1.60421,50.39266],[1.60538,50.39175]]]}},{"type":"Feature","properties":{"k":"BTA","s":0.061},"geometry":{"type":"Polygon","coordinates":[[[1.60249,50.39339],[1.60333,50.39375],[1.6034,50.39369],[1.60249,50.39339]]]}},{"type":"Feature","properties":{"k":"BTA","s":0.263},"geometry":{"type":"Polygon","coordinates":[[[1.62045,50.39108],[1.62066,50.39099],[1.62298,50.38861],[1.62398,50.38877],[1.62443,50.38907],[1.62476,50.38911],[1.62401,50.38873],[1.62294,50.38856],[1.6204,50.39105],[1.6204,50.3915],[1.62045,50.39108]]]}},{"type":"Feature","properties":{"k":"AVP","s":0.929},"geometry":{"type":"Polygon","coordinates":[[[1.5954,50.38638],[1.59571,50.38605],[1.59357,50.38511],[1.59316,50.38552],[1.5954,50.38638]]]}},{"type":"Feature","properties":{"k":"PPH","s":6.285},"geometry":{"type":"Polygon","coordinates":[[[1.59782,50.3836],[1.59646,50.38317],[1.59544,50.38436],[1.5945,50.38405],[1.59391,50.38478],[1.5948,50.3851],[1.59452,50.3854],[1.59658,50.38635],[1.59891,50.38373],[1.59802,50.38339],[1.59782,50.3836]]]}},{"type":"Feature","properties":{"k":"PPH","s":0.971},"geometry":{"type":"Polygon","coordinates":[[[1.60081,50.3872],[1.60063,50.3867],[1.60121,50.38592],[1.60107,50.38522],[1.5997,50.38714],[1.60064,50.38762],[1.60081,50.3872]]]}},{"type":"Feature","properties":{"k":"BTA","s":0.072},"geometry":{"type":"Polygon","coordinates":[[[1.59797,50.387],[1.59803,50.38694],[1.59658,50.38635],[1.59797,50.387]]]}},{"type":"Feature","properties":{"k":"BTA","s":0.073},"geometry":{"type":"Polygon","coordinates":[[[1.59886,50.38379],[1.60024,50.38433],[1.60023,50.38427],[1.59886,50.38379]]]}},{"type":"Feature","properties":{"k":"PPH","s":36.158},"geometry":{"type":"Polygon","coordinates":[[[1.61901,50.37282],[1.6182,50.37282],[1.61648,50.3725],[1.61308,50.37065],[1.61197,50.37035],[1.61117,50.37038],[1.61067,50.37048],[1.60787,50.3721],[1.60738,50.37457],[1.60775,50.37521],[1.60867,50.37557],[1.61025,50.37554],[1.61028,50.37701],[1.61116,50.37693],[1.61114,50.37608],[1.61221,50.3759],[1.61302,50.376],[1.61574,50.37491],[1.61595,50.37364],[1.61743,50.37362],[1.61855,50.37422],[1.61754,50.37462],[1.61725,50.37502],[1.61822,50.37547],[1.62121,50.37342],[1.62034,50.37343],[1.61901,50.37282]]]}}]}