{"type":"FeatureCollection","features":[{"type":"Feature","properties":{"k":"PPH","s":0.138},"geometry":{"type":"Polygon","coordinates":[[[1.97788,50.31481],[1.97801,50.31475],[1.9777,50.31454],[1.97752,50.314],[1.97727,50.31423],[1.97788,50.31481]]]}},{"type":"Feature","properties":{"k":"CZH","s":1.529},"geometry":{"type":"Polygon","coordinates":[[[2.02018,50.33579],[2.02076,50.33489],[2.01892,50.33435],[2.01835,50.33523],[2.02018,50.33579]]]}},{"type":"Feature","properties":{"k":"BFS","s":0.148},"geometry":{"type":"Polygon","coordinates":[[[1.97722,50.31511],[1.97785,50.31555],[1.97828,50.31705],[1.97778,50.31733],[1.97834,50.31834],[1.97783,50.31733],[1.97832,50.31706],[1.97789,50.31553],[1.97658,50.31443],[1.97722,50.31511]]]}},{"type":"Feature","properties":{"k":"PPH","s":0.002},"geometry":{"type":"MultiPolygon","coordinates":[]}},{"type":"Feature","properties":{"k":"PPH","s":2.597},"geometry":{"type":"Polygon","coordinates":[[[1.99106,50.32267],[1.99082,50.32306],[1.99461,50.32444],[1.99563,50.32405],[1.99464,50.32347],[1.99235,50.32277],[1.99106,50.32267]]]}},{"type":"Feature","properties":{"k":"PPH","s":2.333},"geometry":{"type":"Polygon","coordinates":[[[1.9968,50.32367],[1.99655,50.32336],[1.99286,50.32214],[1.99236,50.32276],[1.99437,50.32332],[1.99571,50.32403],[1.9968,50.32367]]]}},{"type":"Feature","properties":{"k":"PPH","s":0.899},"geometry":{"type":"Polygon","coordinates":[[[1.99141,50.32187],[1.99106,50.32266],[1.99233,50.32278],[1.99286,50.32214],[1.99141,50.32187]]]}},{"type":"Feature","properties":{"k":"MIS","s":13.381},"geometry":{"type":"Polygon","coordinates":[[[1.98994,50.32756],[1.99461,50.32444],[1.99215,50.32345],[1.99077,50.3231],[1.98854,50.32213],[1.98763,50.32303],[1.99054,50.32419],[1.98749,50.32694],[1.98994,50.32756]]]}},{"type":"Feature","properties":{"k":"BTH","s":5.393},"geometry":{"type":"Polygon","coordinates":[[[1.98455,50.32609],[1.98599,50.32653],[1.98632,50.32619],[1.98658,50.32629],[1.98931,50.32378],[1.98763,50.32303],[1.98455,50.32609]]]}},{"type":"Feature","properties":{"k":"ORH","s":4.824},"geometry":{"type":"MultiPolygon","coordinates":[[[[1.98118,50.32487],[1.98229,50.32545],[1.98594,50.32189],[1.98477,50.32136],[1.98118,50.32487]]]]}},{"type":"Feature","properties":{"k":"BTN","s":3.225},"geometry":{"type":"Polygon","coordinates":[[[1.98565,50.32218],[1.98229,50.32545],[1.98311,50.32572],[1.98691,50.32206],[1.98609,50.32175],[1.98565,50.32218]]]}},{"type":"Feature","properties":{"k":"ORH","s":5.661},"geometry":{"type":"Polygon","coordinates":[[[1.98545,50.32343],[1.98311,50.32572],[1.98451,50.32607],[1.98854,50.32213],[1.9875,50.32153],[1.98545,50.32343]]]}},{"type":"Feature","properties":{"k":"JAC","s":0.562},"geometry":{"type":"Polygon","coordinates":[[[1.98655,50.32118],[1.98602,50.32165],[1.98691,50.32206],[1.9875,50.32153],[1.98655,50.32118]]]}},{"type":"Feature","properties":{"k":"MIS","s":5.634},"geometry":{"type":"MultiPolygon","coordinates":[[[[1.98226,50.31874],[1.98104,50.31862],[1.98242,50.31903],[1.98628,50.32059],[1.98769,50.32079],[1.98764,50.32096],[1.98621,50.32095],[1.98707,50.32123],[1.99079,50.32304],[1.99142,50.32187],[1.99052,50.32173],[1.98946,50.32087],[1.98774,50.32048],[1.98583,50.32026],[1.98226,50.31874]]],[[[1.97945,50.31776],[1.97918,50.31786],[1.97965,50.31772],[1.97921,50.31573],[1.9789,50.31587],[1.97945,50.31776]]]]}},{"type":"Feature","properties":{"k":"PPH","s":2.421},"geometry":{"type":"Polygon","coordinates":[[[1.98278,50.32045],[1.98594,50.32189],[1.98657,50.32116],[1.98323,50.31992],[1.98233,50.31977],[1.98209,50.31996],[1.98299,50.32026],[1.98278,50.32045]]]}},{"type":"Feature","properties":{"k":"BTA","s":0.053},"geometry":{"type":"Polygon","coordinates":[[[1.98287,50.31892],[1.98292,50.3189],[1.98172,50.31827],[1.98287,50.31892]]]}},{"type":"Feature","properties":{"k":"PTR","s":0.355},"geometry":{"type":"Polygon","coordinates":[[[1.98172,50.31827],[1.98109,50.31859],[1.98226,50.31874],[1.98426,50.31952],[1.98172,50.31827]]]}},{"type":"Feature","properties":{"k":"BFS","s":0.003},"geometry":{"type":"Polygon","coordinates":[[[1.97849,50.31845],[1.97837,50.31832],[1.97837,50.31836],[1.97849,50.31845]]]}},{"type":"Feature","properties":{"k":"BTH","s":4.023},"geometry":{"type":"Polygon","coordinates":[[[1.97806,50.3232],[1.98214,50.31992],[1.98102,50.31955],[1.97703,50.32276],[1.97806,50.3232]]]}},{"type":"Feature","properties":{"k":"BTN","s":5.452},"geometry":{"type":"Polygon","coordinates":[[[1.97703,50.32276],[1.98102,50.31955],[1.9794,50.31911],[1.97552,50.32218],[1.97703,50.32276]]]}},{"type":"Feature","properties":{"k":"BTH","s":3.545},"geometry":{"type":"Polygon","coordinates":[[[1.9821,50.31995],[1.97806,50.3232],[1.97896,50.32361],[1.98299,50.32026],[1.9821,50.31995]]]}},{"type":"Feature","properties":{"k":"MIS","s":8.758},"geometry":{"type":"Polygon","coordinates":[[[1.97896,50.32361],[1.98118,50.32487],[1.98477,50.32136],[1.98278,50.32045],[1.97896,50.32361]]]}},{"type":"Feature","properties":{"k":"BTH","s":5.402},"geometry":{"type":"Polygon","coordinates":[[[1.97895,50.32369],[1.97668,50.32566],[1.97741,50.32609],[1.97718,50.32643],[1.97828,50.32706],[1.98085,50.32477],[1.97895,50.32369]]]}},{"type":"Feature","properties":{"k":"PPH","s":0.007},"geometry":{"type":"Polygon","coordinates":[[[1.97782,50.32681],[1.97814,50.32705],[1.97817,50.32701],[1.97782,50.32681]]]}},{"type":"Feature","properties":{"k":"MIS","s":4.116},"geometry":{"type":"Polygon","coordinates":[[[1.97959,50.32811],[1.98063,50.3289],[1.98393,50.326],[1.98248,50.32559],[1.97959,50.32811]]]}},{"type":"Feature","properties":{"k":"PPH","s":0.279},"geometry":{"type":"Polygon","coordinates":[[[1.97875,50.31511],[1.9789,50.31587],[1.97921,50.31573],[1.97908,50.31515],[1.97788,50.31481],[1.97875,50.31511]]]}},{"type":"Feature","properties":{"k":"BTN","s":1.408},"geometry":{"type":"Polygon","coordinates":[[[1.98246,50.32561],[1.98184,50.32534],[1.97965,50.32722],[1.98024,50.32753],[1.98246,50.32561]]]}},{"type":"Feature","properties":{"k":"MIS","s":1.812},"geometry":{"type":"Polygon","coordinates":[[[1.98246,50.32829],[1.9848,50.32624],[1.98393,50.326],[1.98176,50.32788],[1.98246,50.32829]]]}},{"type":"Feature","properties":{"k":"PHF","s":3.629},"geometry":{"type":"Polygon","coordinates":[[[1.98931,50.32378],[1.98627,50.32661],[1.98749,50.32694],[1.99054,50.32419],[1.98931,50.32378]]]}},{"type":"Feature","properties":{"k":"ORH","s":1.3},"geometry":{"type":"Polygon","coordinates":[[[1.98988,50.32762],[1.98668,50.32682],[1.98873,50.32834],[1.98988,50.32762]]]}},{"type":"Feature","properties":{"k":"PTC","s":0.406},"geometry":{"type":"Polygon","coordinates":[[[1.98894,50.3287],[1.98877,50.32852],[1.98735,50.32939],[1.98748,50.32964],[1.98894,50.3287]]]}},{"type":"Feature","properties":{"k":"PTC","s":3.383},"geometry":{"type":"Polygon","coordinates":[[[1.98574,50.33022],[1.98868,50.32841],[1.98764,50.32764],[1.98462,50.32958],[1.98574,50.33022]]]}},{"type":"Feature","properties":{"k":"PTC","s":7.153},"geometry":{"type":"Polygon","coordinates":[[[1.98462,50.32958],[1.98764,50.32764],[1.98624,50.32668],[1.9848,50.32624],[1.98247,50.32829],[1.98462,50.32958]]]}},{"type":"Feature","properties":{"k":"BTH","s":5.282},"geometry":{"type":"Polygon","coordinates":[[[1.98176,50.32788],[1.98063,50.3289],[1.98421,50.3311],[1.98574,50.33022],[1.98176,50.32788]]]}},{"type":"Feature","properties":{"k":"CZH","s":3.363},"geometry":{"type":"Polygon","coordinates":[[[1.98894,50.3287],[1.98748,50.32964],[1.98845,50.33156],[1.99028,50.33034],[1.98894,50.3287]]]}},{"type":"Feature","properties":{"k":"BTH","s":2.923},"geometry":{"type":"Polygon","coordinates":[[[1.98845,50.33156],[1.98735,50.32939],[1.98607,50.33015],[1.98719,50.33241],[1.98845,50.33156]]]}},{"type":"Feature","properties":{"k":"PTC","s":1.288},"geometry":{"type":"Polygon","coordinates":[[[1.99028,50.33034],[1.98719,50.33241],[1.98739,50.33281],[1.99051,50.33069],[1.99028,50.33034]]]}},{"type":"Feature","properties":{"k":"PHF","s":0.002},"geometry":{"type":"Polygon","coordinates":[]}},{"type":"Feature","properties":{"k":"BTN","s":2.366},"geometry":{"type":"Polygon","coordinates":[[[1.99867,50.33329],[1.99578,50.33293],[1.99539,50.3333],[1.99865,50.33466],[1.99867,50.33329]]]}},{"type":"Feature","properties":{"k":"LIF","s":2.719},"geometry":{"type":"Polygon","coordinates":[[[1.99881,50.33434],[1.99873,50.33479],[1.99934,50.33515],[2.00246,50.33526],[2.003,50.33427],[1.99881,50.33434]]]}},{"type":"Feature","properties":{"k":"CZH","s":2.955},"geometry":{"type":"Polygon","coordinates":[[[1.99881,50.33434],[2.003,50.33427],[2.00302,50.33369],[2.00162,50.33381],[2.00161,50.33321],[1.99877,50.33329],[1.99881,50.33434]]]}},{"type":"Feature","properties":{"k":"PTR","s":0.359},"geometry":{"type":"Polygon","coordinates":[[[2.00165,50.33319],[2.00158,50.33274],[2.00061,50.33269],[2.00078,50.33322],[2.00165,50.33319]]]}},{"type":"Feature","properties":{"k":"MIS","s":1.975},"geometry":{"type":"Polygon","coordinates":[[[2.00068,50.33323],[2.00058,50.33276],[2.0009,50.33146],[2.00026,50.33138],[2.00039,50.33098],[2.00001,50.33093],[1.9995,50.33189],[1.99933,50.33235],[1.99946,50.33318],[1.99877,50.33328],[2.00068,50.33323]]]}},{"type":"Feature","properties":{"k":"FLP","s":1.309},"geometry":{"type":"Polygon","coordinates":[[[2.00061,50.33268],[2.00194,50.33275],[2.0023,50.33162],[2.00095,50.33145],[2.00061,50.33268]]]}},{"type":"Feature","properties":{"k":"PPH","s":4.17},"geometry":{"type":"Polygon","coordinates":[[[1.99688,50.33202],[1.99613,50.33171],[1.99681,50.33114],[1.99718,50.33051],[1.99645,50.33018],[1.99625,50.33032],[1.99598,50.33018],[1.99635,50.32991],[1.99606,50.32985],[1.995,50.33042],[1.99536,50.33081],[1.9948,50.33104],[1.99566,50.33152],[1.99578,50.33293],[1.99746,50.33313],[1.99776,50.33225],[1.99796,50.33232],[1.9982,50.33206],[1.99743,50.33172],[1.99834,50.33023],[1.99806,50.33015],[1.99688,50.33202]]]}},{"type":"Feature","properties":{"k":"BTH","s":7.798},"geometry":{"type":"Polygon","coordinates":[[[1.99566,50.33152],[1.9948,50.33104],[1.99536,50.33081],[1.99451,50.32998],[1.99344,50.32951],[1.99101,50.33124],[1.99332,50.33248],[1.99537,50.3333],[1.99578,50.33293],[1.99566,50.33152]]]}},{"type":"Feature","properties":{"k":"BTH","s":7.428},"geometry":{"type":"Polygon","coordinates":[[[1.99096,50.33117],[1.99432,50.32887],[1.99007,50.32767],[1.98885,50.32842],[1.99096,50.33117]]]}},{"type":"Feature","properties":{"k":"BTH","s":2.49},"geometry":{"type":"Polygon","coordinates":[[[1.99272,50.32835],[1.99414,50.32742],[1.99272,50.3264],[1.99085,50.32782],[1.99272,50.32835]]]}},{"type":"Feature","properties":{"k":"CZH","s":1.169},"geometry":{"type":"Polygon","coordinates":[[[1.99223,50.32605],[1.99014,50.32762],[1.99084,50.32782],[1.99272,50.3264],[1.99223,50.32605]]]}},{"type":"Feature","properties":{"k":"PPH","s":8.903},"geometry":{"type":"Polygon","coordinates":[[[1.99224,50.32604],[1.99414,50.32742],[1.99315,50.32804],[1.99358,50.32827],[1.99375,50.32815],[1.99401,50.32832],[1.9943,50.32818],[1.99451,50.32855],[1.99475,50.32851],[1.99516,50.32872],[1.99602,50.32825],[1.99545,50.32786],[1.99541,50.3276],[1.99569,50.32748],[1.99679,50.3282],[1.99654,50.32835],[1.99681,50.32831],[1.99704,50.32862],[1.99817,50.32775],[1.99438,50.32468],[1.99224,50.32604]]]}},{"type":"Feature","properties":{"k":"BTH","s":11.098},"geometry":{"type":"Polygon","coordinates":[[[1.99879,50.32569],[1.99776,50.32499],[1.9969,50.32375],[1.99434,50.32472],[1.99817,50.32775],[1.99983,50.32878],[2.00074,50.32784],[2.00177,50.32743],[2.00098,50.32669],[1.99879,50.32569]]]}},{"type":"Feature","properties":{"k":"MIS","s":2.599},"geometry":{"type":"Polygon","coordinates":[[[1.99957,50.32968],[1.99953,50.32923],[1.99977,50.32876],[1.99819,50.32775],[1.99673,50.32888],[1.99765,50.32947],[1.99785,50.32933],[1.99957,50.32968]]]}},{"type":"Feature","properties":{"k":"PPH","s":3.181},"geometry":{"type":"Polygon","coordinates":[[[2.00069,50.32801],[2.00011,50.32863],[2.00168,50.33008],[2.00288,50.32967],[2.00235,50.32871],[2.00211,50.32744],[2.00069,50.32801]]]}},{"type":"Feature","properties":{"k":"BOR","s":0.063},"geometry":{"type":"Polygon","coordinates":[[[2.00102,50.32768],[2.00073,50.32784],[1.99986,50.3288],[2.00077,50.32786],[2.00179,50.32745],[2.00102,50.32768]]]}},{"type":"Feature","properties":{"k":"PPH","s":0.027},"geometry":{"type":"MultiPolygon","coordinates":[[[[2.00098,50.32666],[2.00104,50.32663],[2.00097,50.32665],[2.00084,50.32662],[2.00098,50.32666]]],[[[2.00487,50.32601],[2.00427,50.32604],[2.00404,50.3262],[2.00487,50.32601]]]]}},{"type":"Feature","properties":{"k":"BTH","s":3.655},"geometry":{"type":"Polygon","coordinates":[[[2.00666,50.32833],[2.00741,50.3279],[2.00644,50.3265],[2.00558,50.32606],[2.00512,50.32601],[2.0027,50.32652],[2.00141,50.32653],[2.00101,50.32667],[2.00165,50.32727],[2.00421,50.32665],[2.00569,50.32716],[2.00666,50.32833]]]}},{"type":"Feature","properties":{"k":"JAC","s":0.318},"geometry":{"type":"Polygon","coordinates":[[[2.00456,50.32694],[2.00546,50.3271],[2.00664,50.32847],[2.00743,50.32794],[2.00666,50.32833],[2.00555,50.32705],[2.00421,50.32665],[2.00456,50.32694]]]}},{"type":"Feature","properties":{"k":"PPH","s":1.607},"geometry":{"type":"Polygon","coordinates":[[[2.00808,50.32882],[2.00733,50.32804],[2.00588,50.32936],[2.00638,50.32951],[2.00611,50.32975],[2.00649,50.33003],[2.00703,50.32994],[2.00673,50.32969],[2.00808,50.32882]]]}},{"type":"Feature","properties":{"k":"PPH","s":1.828},"geometry":{"type":"Polygon","coordinates":[[[2.00158,50.33044],[2.00134,50.33069],[2.00425,50.33119],[2.00294,50.32966],[2.00206,50.33001],[2.00264,50.33078],[2.00192,50.33001],[2.0016,50.33013],[2.00128,50.3298],[2.001,50.33],[2.00158,50.33044]]]}},{"type":"Feature","properties":{"k":"PPH","s":0.748},"geometry":{"type":"Polygon","coordinates":[[[2.00308,50.3322],[2.00393,50.33135],[2.00339,50.33112],[2.00258,50.3321],[2.0025,50.33278],[2.00301,50.3328],[2.00308,50.3322]]]}},{"type":"Feature","properties":{"k":"PPH","s":0.428},"geometry":{"type":"Polygon","coordinates":[[[2.00249,50.33278],[2.00257,50.33209],[2.00288,50.33171],[2.0023,50.33162],[2.00194,50.33275],[2.00249,50.33278]]]}},{"type":"Feature","properties":{"k":"JAC","s":2.483},"geometry":{"type":"Polygon","coordinates":[[[2.00383,50.33259],[2.00328,50.33262],[2.00331,50.33308],[2.00361,50.33364],[2.00486,50.33396],[2.00606,50.33253],[2.00425,50.3321],[2.00383,50.33259]]]}},{"type":"Feature","properties":{"k":"PPH","s":3.07},"geometry":{"type":"Polygon","coordinates":[[[2.00705,50.32994],[2.0062,50.33068],[2.00791,50.33114],[2.00936,50.32981],[2.00906,50.32966],[2.00927,50.32949],[2.00809,50.32883],[2.00673,50.32971],[2.00705,50.32994]]]}},{"type":"Feature","properties":{"k":"JAC","s":0.803},"geometry":{"type":"Polygon","coordinates":[[[2.01042,50.33051],[2.01239,50.33084],[2.00999,50.32972],[2.00954,50.33012],[2.01042,50.33051]]]}},{"type":"Feature","properties":{"k":"PPH","s":0.636},"geometry":{"type":"Polygon","coordinates":[[[2.00818,50.33141],[2.00778,50.33194],[2.00903,50.33247],[2.00924,50.33185],[2.00818,50.33141]]]}},{"type":"Feature","properties":{"k":"PPH","s":1.49},"geometry":{"type":"Polygon","coordinates":[[[2.00913,50.33315],[2.01021,50.33372],[2.01055,50.33326],[2.00698,50.33172],[2.00663,50.33215],[2.00913,50.33315]]]}},{"type":"Feature","properties":{"k":"BTH","s":0.795},"geometry":{"type":"Polygon","coordinates":[[[2.01014,50.33298],[2.01071,50.33306],[2.01045,50.33256],[2.00924,50.33185],[2.00903,50.33247],[2.01014,50.33298]]]}},{"type":"Feature","properties":{"k":"CZH","s":3.102},"geometry":{"type":"Polygon","coordinates":[[[2.01042,50.33051],[2.00954,50.33012],[2.00905,50.33056],[2.01024,50.33099],[2.00948,50.33188],[2.01079,50.33276],[2.01239,50.33084],[2.01042,50.33051]]]}},{"type":"Feature","properties":{"k":"CZH","s":3.067},"geometry":{"type":"Polygon","coordinates":[[[2.01222,50.33104],[2.01079,50.33276],[2.01119,50.33316],[2.01217,50.33359],[2.01374,50.33176],[2.01222,50.33104]]]}},{"type":"Feature","properties":{"k":"MIS","s":1.451},"geometry":{"type":"Polygon","coordinates":[[[2.01432,50.33261],[2.0134,50.33218],[2.0122,50.33359],[2.0132,50.334],[2.01432,50.33261]]]}},{"type":"Feature","properties":{"k":"JAC","s":0.322},"geometry":{"type":"Polygon","coordinates":[[[2.01453,50.33235],[2.01372,50.33181],[2.0134,50.33218],[2.01432,50.33261],[2.01453,50.33235]]]}},{"type":"Feature","properties":{"k":"CZH","s":6.153},"geometry":{"type":"MultiPolygon","coordinates":[[[[2.00869,50.32913],[2.00847,50.32897],[2.00858,50.32906],[2.00869,50.32913]]],[[[2.00893,50.32925],[2.00931,50.32941],[2.0087,50.32913],[2.00893,50.32925]]],[[[2.01528,50.33257],[2.01722,50.33361],[2.01702,50.33386],[2.01647,50.33377],[2.01504,50.33295],[2.01449,50.3324],[2.0132,50.334],[2.01702,50.33481],[2.0179,50.33337],[2.01628,50.33246],[2.01551,50.33153],[2.01474,50.33099],[2.01401,50.33154],[2.01396,50.33152],[2.01528,50.33257]]]]}},{"type":"Feature","properties":{"k":"JAC","s":0.333},"geometry":{"type":"Polygon","coordinates":[[[2.01236,50.33113],[2.01374,50.33176],[2.01392,50.33156],[2.01237,50.33086],[2.01222,50.33104],[2.01236,50.33113]]]}},{"type":"Feature","properties":{"k":"JAC","s":0.779},"geometry":{"type":"Polygon","coordinates":[[[2.01497,50.33237],[2.01396,50.33152],[2.01371,50.33179],[2.01453,50.33235],[2.01504,50.33295],[2.01635,50.33372],[2.01702,50.33386],[2.01722,50.33361],[2.01497,50.33237]],[[2.01516,50.33293],[2.01548,50.33273],[2.01684,50.33352],[2.01651,50.33374],[2.01516,50.33293]]]}},{"type":"Feature","properties":{"k":"BTN","s":6.883},"geometry":{"type":"Polygon","coordinates":[[[2.01758,50.3388],[2.01563,50.33734],[2.01842,50.33533],[2.01619,50.33468],[2.01393,50.33632],[2.01384,50.33732],[2.01383,50.33738],[2.0137,50.3387],[2.01579,50.33772],[2.01777,50.33901],[2.0181,50.33876],[2.01794,50.3386],[2.01758,50.3388]]]}},{"type":"Feature","properties":{"k":"BTH","s":7.925},"geometry":{"type":"Polygon","coordinates":[[[2.01758,50.3388],[2.01773,50.33872],[2.02157,50.33628],[2.01842,50.33533],[2.01575,50.33726],[2.01573,50.33728],[2.01758,50.3388]]]}},{"type":"Feature","properties":{"k":"BTH","s":0.081},"geometry":{"type":"Polygon","coordinates":[[[1.97452,50.31529],[1.97609,50.31461],[1.97173,50.31647],[1.97452,50.31529]]]}},{"type":"Feature","properties":{"k":"CZH","s":2.375},"geometry":{"type":"Polygon","coordinates":[[[2.01836,50.33521],[2.01893,50.33434],[2.02077,50.33489],[2.02091,50.33463],[2.0179,50.33337],[2.01702,50.33481],[2.01836,50.33521]]]}},{"type":"Feature","properties":{"k":"JAC","s":0.361},"geometry":{"type":"Polygon","coordinates":[[[2.02217,50.33528],[2.02075,50.33491],[2.02058,50.33516],[2.02202,50.33556],[2.02217,50.33528]]]}},{"type":"Feature","properties":{"k":"MIS","s":0.242},"geometry":{"type":"Polygon","coordinates":[[[2.02223,50.33518],[2.02172,50.33509],[2.02175,50.33488],[2.02094,50.33464],[2.02075,50.33491],[2.02217,50.33528],[2.02223,50.33518]]]}},{"type":"Feature","properties":{"k":"PTC","s":1.276},"geometry":{"type":"Polygon","coordinates":[[[2.01806,50.33854],[2.01821,50.33869],[2.01856,50.33843],[2.01886,50.33859],[2.02166,50.33665],[2.02193,50.33639],[2.02157,50.33628],[2.01806,50.33854]]]}},{"type":"Feature","properties":{"k":"BOR","s":0.023},"geometry":{"type":"Polygon","coordinates":[[[2.01794,50.3386],[2.0181,50.33876],[2.01821,50.33869],[2.01794,50.3386]]]}},{"type":"Feature","properties":{"k":"PTC","s":0.007},"geometry":{"type":"Polygon","coordinates":[[[2.01239,50.33899],[2.01198,50.33925],[2.0124,50.33903],[2.01239,50.33899]]]}},{"type":"Feature","properties":{"k":"BTH","s":0.061},"geometry":{"type":"Polygon","coordinates":[[[2.00994,50.339],[2.0094,50.33875],[2.01061,50.33939],[2.01129,50.33962],[2.00994,50.339]]]}},{"type":"Feature","properties":{"k":"BTH","s":2.593},"geometry":{"type":"Polygon","coordinates":[[[2.00876,50.33842],[2.01124,50.33683],[2.01007,50.3362],[2.00779,50.33764],[2.00876,50.33842]]]}},{"type":"Feature","properties":{"k":"BTH","s":2.056},"geometry":{"type":"Polygon","coordinates":[[[2.01373,50.33597],[2.00934,50.33872],[2.00993,50.339],[2.01379,50.3365],[2.01373,50.33597]]]}},{"type":"Feature","properties":{"k":"MIS","s":3.859},"geometry":{"type":"Polygon","coordinates":[[[2.00993,50.339],[2.01129,50.33962],[2.01363,50.33838],[2.01377,50.3366],[2.00993,50.339]]]}},{"type":"Feature","properties":{"k":"BTH","s":2.876},"geometry":{"type":"Polygon","coordinates":[[[2.0124,50.33382],[2.01371,50.33569],[2.01389,50.33635],[2.01618,50.33469],[2.01407,50.33434],[2.0124,50.33382]]]}},{"type":"Feature","properties":{"k":"BTH","s":6.455},"geometry":{"type":"Polygon","coordinates":[[[2.00971,50.33434],[2.01053,50.3348],[2.00919,50.33566],[2.01131,50.33679],[2.01342,50.33546],[2.01259,50.33426],[2.01237,50.33435],[2.01183,50.33372],[2.01197,50.33361],[2.01077,50.33319],[2.00971,50.33434]]]}},{"type":"Feature","properties":{"k":"BTN","s":3.507},"geometry":{"type":"Polygon","coordinates":[[[2.01009,50.33619],[2.00863,50.33538],[2.00604,50.33658],[2.00779,50.33764],[2.01009,50.33619]]]}},{"type":"Feature","properties":{"k":"MIS","s":5.656},"geometry":{"type":"Polygon","coordinates":[[[2.01013,50.33381],[2.00752,50.33259],[2.00645,50.33227],[2.0052,50.33355],[2.00879,50.33513],[2.01013,50.33381]]]}},{"type":"Feature","properties":{"k":"LIF","s":3.001},"geometry":{"type":"Polygon","coordinates":[[[2.0076,50.3358],[2.00879,50.33513],[2.0052,50.33355],[2.0046,50.33436],[2.0076,50.3358]]]}},{"type":"Feature","properties":{"k":"BTN","s":2.299},"geometry":{"type":"Polygon","coordinates":[[[2.00489,50.33396],[2.00431,50.33381],[2.00347,50.33492],[2.00283,50.33472],[2.00244,50.33558],[2.0039,50.33548],[2.00599,50.33655],[2.00657,50.33626],[2.00409,50.33507],[2.00489,50.33396]]]}},{"type":"Feature","properties":{"k":"PTC","s":7.386},"geometry":{"type":"Polygon","coordinates":[[[1.97314,50.3214],[1.97175,50.32264],[1.97744,50.32427],[1.97634,50.326],[1.97895,50.32369],[1.97314,50.3214]]]}},{"type":"Feature","properties":{"k":"BTH","s":3.34},"geometry":{"type":"Polygon","coordinates":[[[1.97079,50.3207],[1.97061,50.32097],[1.96889,50.32183],[1.97174,50.32264],[1.9731,50.3214],[1.97079,50.3207]]]}},{"type":"Feature","properties":{"k":"BTN","s":0.148},"geometry":{"type":"Polygon","coordinates":[[[1.97174,50.31921],[1.97296,50.3181],[1.97152,50.31935],[1.97086,50.32065],[1.97174,50.31921]]]}},{"type":"Feature","properties":{"k":"BTH","s":5.186},"geometry":{"type":"Polygon","coordinates":[[[1.9794,50.31911],[1.97834,50.31834],[1.97409,50.32166],[1.97552,50.32218],[1.9794,50.31911]]]}},{"type":"Feature","properties":{"k":"LBF","s":14.958},"geometry":{"type":"Polygon","coordinates":[[[1.97184,50.3192],[1.97098,50.32067],[1.97257,50.32108],[1.97409,50.32166],[1.97788,50.31869],[1.97737,50.31748],[1.97574,50.31657],[1.97415,50.31741],[1.97184,50.3192]]]}},{"type":"Feature","properties":{"k":"BTH","s":9.279},"geometry":{"type":"Polygon","coordinates":[[[1.97415,50.31741],[1.97574,50.31657],[1.97737,50.31748],[1.97788,50.31869],[1.97834,50.31834],[1.97778,50.31733],[1.97828,50.31705],[1.97785,50.31555],[1.97656,50.31441],[1.97179,50.31651],[1.97356,50.31759],[1.97297,50.3181],[1.97308,50.31819],[1.97415,50.31741]]]}},{"type":"Feature","properties":{"k":"MIS","s":3.334},"geometry":{"type":"Polygon","coordinates":[[[1.98184,50.32534],[1.98085,50.32477],[1.97828,50.32706],[1.97961,50.32809],[1.98024,50.32753],[1.97965,50.32722],[1.98184,50.32534]]]}}]}