{"type":"FeatureCollection","features":[{"type":"Feature","properties":{"k":"BTH","s":0.037},"geometry":{"type":"Polygon","coordinates":[[[2.78976,50.50123],[2.78959,50.50094],[2.78978,50.50174],[2.78995,50.50153],[2.78976,50.50123]]]}},{"type":"Feature","properties":{"k":"MIS","s":0.003},"geometry":{"type":"Polygon","coordinates":[[[2.7894,50.50067],[2.78951,50.50085],[2.78953,50.50084],[2.7894,50.50067]]]}},{"type":"Feature","properties":{"k":"TTH","s":4.043},"geometry":{"type":"Polygon","coordinates":[[[2.78849,50.49956],[2.7891,50.50018],[2.78995,50.50153],[2.79174,50.5009],[2.79004,50.49848],[2.78893,50.49889],[2.78849,50.49956]]]}},{"type":"Feature","properties":{"k":"BTH","s":0.004},"geometry":{"type":"Polygon","coordinates":[[[2.78896,50.50353],[2.78914,50.50393],[2.78898,50.50353],[2.78896,50.50353]]]}},{"type":"Feature","properties":{"k":"BTA","s":0.06},"geometry":{"type":"Polygon","coordinates":[[[2.79018,50.50485],[2.79028,50.50572],[2.79029,50.50478],[2.79018,50.50485]]]}},{"type":"Feature","properties":{"k":"PTC","s":0.022},"geometry":{"type":"Polygon","coordinates":[[[2.79085,50.50755],[2.79076,50.50756],[2.7909,50.5078],[2.79085,50.50755]]]}},{"type":"Feature","properties":{"k":"LUZ","s":0.043},"geometry":{"type":"Polygon","coordinates":[[[2.79065,50.5071],[2.79051,50.50712],[2.79076,50.50756],[2.79065,50.5071]]]}},{"type":"Feature","properties":{"k":"JAC","s":0.002},"geometry":{"type":"Polygon","coordinates":[[[2.79391,50.50951],[2.79367,50.50933],[2.79357,50.50936],[2.79391,50.50951]]]}},{"type":"Feature","properties":{"k":"CZH","s":0.007},"geometry":{"type":"Polygon","coordinates":[[[2.79425,50.50977],[2.7939,50.50951],[2.79445,50.50995],[2.79425,50.50977]]]}},{"type":"Feature","properties":{"k":"CZH","s":0.005},"geometry":{"type":"Polygon","coordinates":[[[2.79537,50.51062],[2.79522,50.51058],[2.79524,50.51073],[2.79537,50.51062]]]}},{"type":"Feature","properties":{"k":"SAI","s":0.0},"geometry":{"type":"MultiPolygon","coordinates":[]}},{"type":"Feature","properties":{"k":"MIS","s":1.876},"geometry":{"type":"Polygon","coordinates":[[[2.79756,50.51149],[2.79612,50.51087],[2.79546,50.51066],[2.79524,50.51073],[2.79473,50.51166],[2.79707,50.5121],[2.79756,50.51149]]]}},{"type":"Feature","properties":{"k":"BTH","s":2.788},"geometry":{"type":"Polygon","coordinates":[[[2.79406,50.51301],[2.79637,50.51349],[2.79707,50.5121],[2.79473,50.51166],[2.79406,50.51301]]]}},{"type":"Feature","properties":{"k":"PTC","s":2.704},"geometry":{"type":"Polygon","coordinates":[[[2.79338,50.51435],[2.79564,50.51482],[2.79637,50.51349],[2.79413,50.51302],[2.79338,50.51435]]]}},{"type":"Feature","properties":{"k":"PHF","s":0.001},"geometry":{"type":"Polygon","coordinates":[[[2.79562,50.51485],[2.79563,50.51491],[2.79565,50.51486],[2.79562,50.51485]]]}},{"type":"Feature","properties":{"k":"BTH","s":1.622},"geometry":{"type":"Polygon","coordinates":[[[2.79786,50.528],[2.79886,50.52703],[2.79765,50.5264],[2.79651,50.52748],[2.79713,50.5277],[2.79702,50.52782],[2.79812,50.52821],[2.79819,50.5281],[2.79786,50.528]]]}},{"type":"Feature","properties":{"k":"MIS","s":0.015},"geometry":{"type":"Polygon","coordinates":[[[2.78204,50.48151],[2.78202,50.48152],[2.78305,50.48239],[2.78204,50.48151]]]}},{"type":"Feature","properties":{"k":"BTH","s":4.641},"geometry":{"type":"Polygon","coordinates":[[[2.78202,50.478],[2.78329,50.48142],[2.7848,50.48135],[2.78338,50.47732],[2.78202,50.478]]]}},{"type":"Feature","properties":{"k":"BTH","s":5.068},"geometry":{"type":"Polygon","coordinates":[[[2.77986,50.47967],[2.78199,50.48149],[2.78329,50.48142],[2.78202,50.478],[2.77979,50.47933],[2.77986,50.47967]]]}},{"type":"Feature","properties":{"k":"MIS","s":0.028},"geometry":{"type":"Polygon","coordinates":[[[2.7796,50.47945],[2.77986,50.47967],[2.77979,50.47933],[2.7796,50.47945]]]}},{"type":"Feature","properties":{"k":"PTC","s":0.007},"geometry":{"type":"Polygon","coordinates":[[[2.78304,50.4824],[2.78371,50.48297],[2.78372,50.48297],[2.78304,50.4824]]]}},{"type":"Feature","properties":{"k":"BTP","s":0.0},"geometry":{"type":"Polygon","coordinates":[]}},{"type":"Feature","properties":{"k":"BTH","s":0.003},"geometry":{"type":"Polygon","coordinates":[[[2.78394,50.477],[2.78462,50.47665],[2.78348,50.47722],[2.78394,50.477]]]}},{"type":"Feature","properties":{"k":"BTH","s":2.811},"geometry":{"type":"Polygon","coordinates":[[[2.79265,50.52364],[2.79205,50.52419],[2.79509,50.52614],[2.79592,50.52545],[2.79265,50.52364]]]}},{"type":"Feature","properties":{"k":"BTH","s":0.288},"geometry":{"type":"Polygon","coordinates":[[[2.79527,50.51581],[2.79518,50.51598],[2.79709,50.51637],[2.79738,50.51625],[2.79527,50.51581]]]}},{"type":"Feature","properties":{"k":"PTC","s":2.258},"geometry":{"type":"Polygon","coordinates":[[[2.79526,50.51582],[2.79738,50.51625],[2.79907,50.51551],[2.79575,50.51487],[2.79526,50.51582]]]}},{"type":"Feature","properties":{"k":"BTP","s":4.11},"geometry":{"type":"Polygon","coordinates":[[[2.80508,50.51755],[2.80041,50.51728],[2.8006,50.51853],[2.80438,50.51871],[2.80508,50.51755]]]}},{"type":"Feature","properties":{"k":"BTH","s":1.346},"geometry":{"type":"Polygon","coordinates":[[[2.80059,50.51852],[2.80068,50.51899],[2.80397,50.5192],[2.80438,50.51873],[2.80059,50.51852]]]}},{"type":"Feature","properties":{"k":"MIS","s":0.869},"geometry":{"type":"Polygon","coordinates":[[[2.80088,50.52313],[2.80199,50.52322],[2.80176,50.52261],[2.80055,50.52196],[2.80088,50.52313]]]}},{"type":"Feature","properties":{"k":"BTH","s":2.869},"geometry":{"type":"Polygon","coordinates":[[[2.80115,50.52101],[2.80068,50.52169],[2.80187,50.52179],[2.80376,50.51984],[2.80082,50.51977],[2.80115,50.52101]]]}},{"type":"Feature","properties":{"k":"CZH","s":0.554},"geometry":{"type":"Polygon","coordinates":[[[2.80532,50.51828],[2.80563,50.51758],[2.80508,50.51755],[2.80438,50.51871],[2.80494,50.51874],[2.80532,50.51828]]]}},{"type":"Feature","properties":{"k":"PTC","s":1.892},"geometry":{"type":"Polygon","coordinates":[[[2.80453,50.51924],[2.80068,50.51899],[2.80081,50.51975],[2.80384,50.51983],[2.80453,50.51924]]]}},{"type":"Feature","properties":{"k":"CZH","s":0.229},"geometry":{"type":"Polygon","coordinates":[[[2.8047,50.51906],[2.80496,50.51876],[2.80438,50.51873],[2.80397,50.5192],[2.80453,50.51924],[2.8047,50.51906]]]}},{"type":"Feature","properties":{"k":"CAR","s":3.496},"geometry":{"type":"Polygon","coordinates":[[[2.80022,50.5152],[2.80021,50.5157],[2.80606,50.51597],[2.80623,50.51526],[2.80093,50.51494],[2.80022,50.5152]]]}},{"type":"Feature","properties":{"k":"PTC","s":6.996},"geometry":{"type":"Polygon","coordinates":[[[2.80604,50.51598],[2.80023,50.5157],[2.80041,50.51728],[2.80563,50.51758],[2.80604,50.51598]]]}},{"type":"Feature","properties":{"k":"LUZ","s":0.123},"geometry":{"type":"Polygon","coordinates":[[[2.80529,50.51888],[2.80474,50.51943],[2.80529,50.51945],[2.80529,50.51888]],[[2.80523,50.51931],[2.80521,50.51942],[2.80505,50.51941],[2.80523,50.51931]]]}},{"type":"Feature","properties":{"k":"LBF","s":1.158},"geometry":{"type":"Polygon","coordinates":[[[2.80407,50.49877],[2.8071,50.49841],[2.80704,50.49807],[2.80397,50.49846],[2.8026,50.49884],[2.80277,50.49912],[2.80407,50.49877]]]}},{"type":"Feature","properties":{"k":"BTN","s":4.599},"geometry":{"type":"Polygon","coordinates":[[[2.80325,50.50008],[2.80738,50.49945],[2.8073,50.49898],[2.80963,50.49883],[2.80956,50.49843],[2.8071,50.49858],[2.80707,50.49841],[2.80407,50.49877],[2.80277,50.49912],[2.80325,50.50008]]]}},{"type":"Feature","properties":{"k":"MIS","s":0.289},"geometry":{"type":"Polygon","coordinates":[[[2.80984,50.4992],[2.80982,50.49905],[2.80736,50.4992],[2.80738,50.49934],[2.80984,50.4992]]]}},{"type":"Feature","properties":{"k":"JAC","s":0.127},"geometry":{"type":"Polygon","coordinates":[[[2.80963,50.49883],[2.80732,50.49901],[2.80981,50.49885],[2.80975,50.49842],[2.80956,50.49843],[2.80963,50.49883]]]}},{"type":"Feature","properties":{"k":"ORP","s":0.723},"geometry":{"type":"Polygon","coordinates":[[[2.80878,50.49805],[2.80969,50.49797],[2.80967,50.49776],[2.807,50.49797],[2.8071,50.49841],[2.80861,50.4983],[2.80878,50.49805]]]}},{"type":"Feature","properties":{"k":"BTH","s":1.097},"geometry":{"type":"Polygon","coordinates":[[[2.807,50.49797],[2.80968,50.49777],[2.80961,50.49734],[2.80688,50.49751],[2.807,50.49797]]]}},{"type":"Feature","properties":{"k":"MIS","s":0.782},"geometry":{"type":"Polygon","coordinates":[[[2.80419,50.49589],[2.80386,50.49502],[2.80369,50.49458],[2.80282,50.49414],[2.80366,50.49594],[2.80419,50.49589]]]}},{"type":"Feature","properties":{"k":"LUZ","s":0.572},"geometry":{"type":"Polygon","coordinates":[[[2.79772,50.49101],[2.7975,50.49113],[2.79775,50.49134],[2.79857,50.49113],[2.79747,50.49029],[2.79697,50.4905],[2.79772,50.49101]]]}},{"type":"Feature","properties":{"k":"BTH","s":0.233},"geometry":{"type":"Polygon","coordinates":[[[2.79773,50.48847],[2.79757,50.48858],[2.79899,50.48953],[2.79912,50.48941],[2.79773,50.48847]]]}},{"type":"Feature","properties":{"k":"LUZ","s":0.487},"geometry":{"type":"Polygon","coordinates":[[[2.79712,50.48888],[2.79831,50.48979],[2.79785,50.49008],[2.79811,50.49023],[2.79883,50.48967],[2.79825,50.48944],[2.79855,50.48941],[2.79889,50.48963],[2.79899,50.48953],[2.79847,50.48918],[2.79803,50.48942],[2.79729,50.4889],[2.79767,50.48867],[2.79817,50.48898],[2.79757,50.48858],[2.79712,50.48888]]]}},{"type":"Feature","properties":{"k":"PTC","s":0.313},"geometry":{"type":"Polygon","coordinates":[[[2.79729,50.4889],[2.79803,50.48942],[2.79847,50.48918],[2.79767,50.48867],[2.79729,50.4889]]]}},{"type":"Feature","properties":{"k":"JAC","s":0.408},"geometry":{"type":"Polygon","coordinates":[[[2.79946,50.48927],[2.79802,50.48828],[2.79778,50.48845],[2.79912,50.48941],[2.79946,50.48927]]]}},{"type":"Feature","properties":{"k":"BTH","s":1.888},"geometry":{"type":"Polygon","coordinates":[[[2.80647,50.51427],[2.8067,50.51325],[2.80535,50.51315],[2.80324,50.51401],[2.80647,50.51427]]]}},{"type":"Feature","properties":{"k":"CZH","s":3.463},"geometry":{"type":"Polygon","coordinates":[[[2.801,50.51493],[2.80622,50.51524],[2.80647,50.51427],[2.8033,50.51402],[2.801,50.51493]]]}},{"type":"Feature","properties":{"k":"LUZ","s":1.137},"geometry":{"type":"Polygon","coordinates":[[[2.79972,50.51373],[2.80129,50.51403],[2.80101,50.51355],[2.80144,50.51283],[2.80027,50.51276],[2.79972,50.51373]]]}},{"type":"Feature","properties":{"k":"MIS","s":1.639},"geometry":{"type":"Polygon","coordinates":[[[2.79972,50.51373],[2.79988,50.51513],[2.80047,50.51501],[2.80237,50.51411],[2.80217,50.51397],[2.80129,50.51403],[2.79972,50.51373]]]}},{"type":"Feature","properties":{"k":"LUZ","s":1.709},"geometry":{"type":"Polygon","coordinates":[[[2.7997,50.51505],[2.79602,50.5143],[2.79575,50.51487],[2.79907,50.51551],[2.7997,50.51505]]]}},{"type":"Feature","properties":{"k":"BTH","s":2.999},"geometry":{"type":"Polygon","coordinates":[[[2.79954,50.51386],[2.79654,50.51327],[2.79602,50.5143],[2.7997,50.51505],[2.79954,50.51386]]]}},{"type":"Feature","properties":{"k":"MIS","s":2.137},"geometry":{"type":"Polygon","coordinates":[[[2.79654,50.51324],[2.79953,50.51382],[2.79963,50.51338],[2.79719,50.51201],[2.79654,50.51324]]]}},{"type":"Feature","properties":{"k":"BTH","s":4.944},"geometry":{"type":"Polygon","coordinates":[[[2.79764,50.5115],[2.79726,50.51201],[2.79966,50.51336],[2.80062,50.51201],[2.79906,50.51159],[2.7998,50.51031],[2.79563,50.51069],[2.79764,50.5115]]]}},{"type":"Feature","properties":{"k":"JAC","s":0.074},"geometry":{"type":"Polygon","coordinates":[[[2.7984,50.51046],[2.79556,50.51067],[2.79564,50.51069],[2.7984,50.51046]]]}},{"type":"Feature","properties":{"k":"JAC","s":0.02},"geometry":{"type":"Polygon","coordinates":[[[2.80956,50.5006],[2.80778,50.50057],[2.80778,50.50059],[2.80956,50.5006]]]}},{"type":"Feature","properties":{"k":"MIS","s":0.232},"geometry":{"type":"Polygon","coordinates":[[[2.80776,50.50041],[2.80778,50.50059],[2.80956,50.50062],[2.80959,50.50043],[2.80776,50.50041]]]}},{"type":"Feature","properties":{"k":"BDH","s":3.103},"geometry":{"type":"Polygon","coordinates":[[[2.8098,50.49939],[2.80806,50.49945],[2.80796,50.49942],[2.8074,50.49945],[2.80453,50.49989],[2.80463,50.50017],[2.80342,50.50039],[2.8035,50.50057],[2.80583,50.50014],[2.80583,50.50031],[2.80776,50.50002],[2.80779,50.50041],[2.80958,50.50043],[2.8098,50.49939]]]}},{"type":"Feature","properties":{"k":"MIS","s":0.921},"geometry":{"type":"Polygon","coordinates":[[[2.80371,50.50104],[2.80581,50.50067],[2.80583,50.50014],[2.8035,50.50057],[2.80371,50.50104]]]}},{"type":"Feature","properties":{"k":"MIS","s":1.038},"geometry":{"type":"Polygon","coordinates":[[[2.80371,50.50104],[2.80376,50.50115],[2.80781,50.50059],[2.80776,50.50002],[2.80583,50.50031],[2.80581,50.50067],[2.80371,50.50104]]]}},{"type":"Feature","properties":{"k":"JAC","s":0.385},"geometry":{"type":"Polygon","coordinates":[[[2.79906,50.50307],[2.80167,50.50237],[2.80157,50.50221],[2.79893,50.50292],[2.79906,50.50307]]]}},{"type":"Feature","properties":{"k":"BTH","s":2.859},"geometry":{"type":"Polygon","coordinates":[[[2.80084,50.50106],[2.79813,50.50178],[2.79893,50.50292],[2.80157,50.50221],[2.80084,50.50106]]]}},{"type":"Feature","properties":{"k":"BDH","s":4.401},"geometry":{"type":"Polygon","coordinates":[[[2.80384,50.50181],[2.80389,50.50164],[2.80304,50.49975],[2.80047,50.50043],[2.80166,50.50236],[2.80384,50.50181]]]}},{"type":"Feature","properties":{"k":"BTH","s":6.093},"geometry":{"type":"Polygon","coordinates":[[[2.80087,50.49952],[2.8007,50.49926],[2.79692,50.5001],[2.79813,50.50178],[2.80084,50.50106],[2.80047,50.50043],[2.80304,50.49975],[2.8027,50.49909],[2.80087,50.49952]]]}},{"type":"Feature","properties":{"k":"BTH","s":0.668},"geometry":{"type":"Polygon","coordinates":[[[2.79933,50.50371],[2.79813,50.50188],[2.79775,50.50203],[2.79895,50.50382],[2.79933,50.50371]]]}},{"type":"Feature","properties":{"k":"BTH","s":2.823},"geometry":{"type":"Polygon","coordinates":[[[2.79775,50.50203],[2.79809,50.50184],[2.79647,50.5024],[2.79857,50.50495],[2.79952,50.50486],[2.79775,50.50203]]]}},{"type":"Feature","properties":{"k":"CAR","s":0.012},"geometry":{"type":"Polygon","coordinates":[[[2.79684,50.50441],[2.79668,50.50446],[2.7968,50.5046],[2.79684,50.50441]]]}},{"type":"Feature","properties":{"k":"CHU","s":0.009},"geometry":{"type":"Polygon","coordinates":[[[2.79694,50.50477],[2.79707,50.50492],[2.79708,50.50481],[2.79694,50.50477]]]}},{"type":"Feature","properties":{"k":"CEL","s":0.013},"geometry":{"type":"Polygon","coordinates":[[[2.79687,50.50457],[2.7968,50.5046],[2.79694,50.50477],[2.79687,50.50457]]]}},{"type":"Feature","properties":{"k":"PTC","s":0.155},"geometry":{"type":"Polygon","coordinates":[[[2.7963,50.50458],[2.79659,50.50491],[2.79706,50.50494],[2.79668,50.50446],[2.7963,50.50458]]]}},{"type":"Feature","properties":{"k":"MIS","s":2.464},"geometry":{"type":"Polygon","coordinates":[[[2.79842,50.50545],[2.79832,50.50504],[2.79519,50.5049],[2.79302,50.50546],[2.79321,50.50583],[2.79842,50.50545]]]}},{"type":"Feature","properties":{"k":"BTH","s":0.051},"geometry":{"type":"Polygon","coordinates":[[[2.79044,50.50669],[2.79028,50.50671],[2.79051,50.50712],[2.79044,50.50669]]]}},{"type":"Feature","properties":{"k":"MIS","s":0.056},"geometry":{"type":"Polygon","coordinates":[[[2.79023,50.50601],[2.79028,50.50671],[2.79045,50.50669],[2.79023,50.50601]]]}},{"type":"Feature","properties":{"k":"FVL","s":1.794},"geometry":{"type":"Polygon","coordinates":[[[2.79311,50.50564],[2.79302,50.50546],[2.7952,50.5049],[2.79423,50.50473],[2.79028,50.50572],[2.79036,50.50625],[2.79311,50.50564]]]}},{"type":"Feature","properties":{"k":"BTH","s":2.152},"geometry":{"type":"Polygon","coordinates":[[[2.79147,50.50543],[2.79423,50.50473],[2.79233,50.50432],[2.79029,50.50478],[2.79033,50.50571],[2.79147,50.50543]]]}},{"type":"Feature","properties":{"k":"BTH","s":1.687},"geometry":{"type":"Polygon","coordinates":[[[2.79015,50.50482],[2.79233,50.50432],[2.79032,50.50374],[2.78903,50.50354],[2.78927,50.50418],[2.79015,50.50482]]]}},{"type":"Feature","properties":{"k":"BTH","s":0.006},"geometry":{"type":"Polygon","coordinates":[[[2.79649,50.50486],[2.79655,50.50487],[2.79641,50.50471],[2.79649,50.50486]]]}},{"type":"Feature","properties":{"k":"BTH","s":4.282},"geometry":{"type":"Polygon","coordinates":[[[2.79524,50.50485],[2.79659,50.50491],[2.79287,50.5005],[2.79191,50.50084],[2.79524,50.50485]]]}},{"type":"Feature","properties":{"k":"PTC","s":4.832},"geometry":{"type":"Polygon","coordinates":[[[2.79791,50.50411],[2.79647,50.50241],[2.79581,50.50264],[2.79374,50.50019],[2.79287,50.5005],[2.7963,50.50458],[2.79791,50.50411]]]}},{"type":"Feature","properties":{"k":"LUZ","s":1.701},"geometry":{"type":"Polygon","coordinates":[[[2.79647,50.50241],[2.79441,50.49995],[2.79374,50.50019],[2.79581,50.50264],[2.79647,50.50241]]]}},{"type":"Feature","properties":{"k":"BTH","s":4.063},"geometry":{"type":"Polygon","coordinates":[[[2.79647,50.50241],[2.79812,50.50184],[2.79638,50.49945],[2.79455,50.50011],[2.79647,50.50241]]]}},{"type":"Feature","properties":{"k":"BTH","s":1.695},"geometry":{"type":"Polygon","coordinates":[[[2.7933,50.50448],[2.79409,50.50465],[2.79111,50.50112],[2.79061,50.50127],[2.7933,50.50448]]]}},{"type":"Feature","properties":{"k":"BTH","s":2.976},"geometry":{"type":"Polygon","coordinates":[[[2.79525,50.50485],[2.79188,50.50085],[2.79111,50.50112],[2.79409,50.50466],[2.79525,50.50485]]]}},{"type":"Feature","properties":{"k":"ORH","s":2.355},"geometry":{"type":"Polygon","coordinates":[[[2.79317,50.50436],[2.79062,50.50127],[2.78995,50.50154],[2.79154,50.50391],[2.79307,50.50444],[2.79317,50.50436]]]}},{"type":"Feature","properties":{"k":"ORH","s":0.647},"geometry":{"type":"Polygon","coordinates":[[[2.79086,50.50383],[2.7896,50.50232],[2.78932,50.50285],[2.78999,50.50363],[2.79086,50.50383]]]}},{"type":"Feature","properties":{"k":"LBF","s":0.262},"geometry":{"type":"Polygon","coordinates":[[[2.78997,50.50362],[2.78932,50.50284],[2.78897,50.50348],[2.78997,50.50362]]]}},{"type":"Feature","properties":{"k":"JAC","s":0.092},"geometry":{"type":"Polygon","coordinates":[[[2.79095,50.52387],[2.79012,50.52444],[2.79031,50.52452],[2.79095,50.52387]]]}},{"type":"Feature","properties":{"k":"CAR","s":3.665},"geometry":{"type":"Polygon","coordinates":[[[2.78903,50.47563],[2.78851,50.47412],[2.78736,50.4751],[2.78833,50.47782],[2.78973,50.47771],[2.78903,50.47563]]]}},{"type":"Feature","properties":{"k":"BTH","s":6.805},"geometry":{"type":"Polygon","coordinates":[[[2.79072,50.47431],[2.79005,50.47286],[2.78851,50.47412],[2.78974,50.47774],[2.7916,50.47764],[2.79072,50.47431]]]}},{"type":"Feature","properties":{"k":"MIS","s":4.113},"geometry":{"type":"Polygon","coordinates":[[[2.79201,50.48006],[2.79182,50.47905],[2.78662,50.47938],[2.78698,50.48037],[2.79201,50.48006]]]}},{"type":"Feature","properties":{"k":"BTH","s":2.067},"geometry":{"type":"Polygon","coordinates":[[[2.78645,50.4789],[2.78662,50.47937],[2.79181,50.47904],[2.79174,50.47855],[2.78645,50.4789]]]}},{"type":"Feature","properties":{"k":"BTN","s":3.889},"geometry":{"type":"Polygon","coordinates":[[[2.78645,50.4789],[2.79174,50.47855],[2.7916,50.47765],[2.78615,50.47805],[2.78645,50.4789]]]}},{"type":"Feature","properties":{"k":"ORH","s":4.003},"geometry":{"type":"Polygon","coordinates":[[[2.78551,50.47626],[2.78615,50.47805],[2.78834,50.47786],[2.78736,50.4751],[2.78551,50.47626]]]}},{"type":"Feature","properties":{"k":"BTN","s":8.96},"geometry":{"type":"Polygon","coordinates":[[[2.7848,50.48135],[2.78728,50.48122],[2.78551,50.47626],[2.78339,50.47732],[2.7848,50.48135]]]}},{"type":"Feature","properties":{"k":"BTH","s":2.312},"geometry":{"type":"Polygon","coordinates":[[[2.79163,50.49081],[2.79162,50.49037],[2.78559,50.49153],[2.78598,50.49199],[2.79163,50.49081]]]}},{"type":"Feature","properties":{"k":"LUZ","s":2.75},"geometry":{"type":"Polygon","coordinates":[[[2.79136,50.48983],[2.78526,50.49104],[2.78559,50.49153],[2.7916,50.49037],[2.79136,50.48983]]]}},{"type":"Feature","properties":{"k":"BTH","s":3.71},"geometry":{"type":"Polygon","coordinates":[[[2.79139,50.48982],[2.79108,50.48912],[2.78488,50.49034],[2.78527,50.49104],[2.79139,50.48982]]]}},{"type":"Feature","properties":{"k":"PTC","s":8.676},"geometry":{"type":"Polygon","coordinates":[[[2.78489,50.49034],[2.79108,50.48912],[2.79078,50.48837],[2.78864,50.48864],[2.78864,50.48746],[2.78469,50.48797],[2.78489,50.49034]]]}},{"type":"Feature","properties":{"k":"BTH","s":0.01},"geometry":{"type":"Polygon","coordinates":[[[2.78607,50.4922],[2.78682,50.49318],[2.78652,50.49276],[2.78607,50.4922]]]}},{"type":"Feature","properties":{"k":"LUZ","s":0.002},"geometry":{"type":"Polygon","coordinates":[[[2.78581,50.49186],[2.78605,50.49219],[2.78597,50.49206],[2.78581,50.49186]]]}},{"type":"Feature","properties":{"k":"LUZ","s":2.849},"geometry":{"type":"Polygon","coordinates":[[[2.78802,50.49156],[2.78823,50.49195],[2.78836,50.49218],[2.78898,50.49225],[2.79079,50.49506],[2.79204,50.4944],[2.7905,50.49326],[2.78977,50.49303],[2.78943,50.49257],[2.78939,50.49229],[2.79058,50.49108],[2.78802,50.49156]],[[2.78893,50.49176],[2.78897,50.49175],[2.78887,50.49218],[2.78851,50.49216],[2.78823,50.49195],[2.78893,50.49176]]]}},{"type":"Feature","properties":{"k":"MIS","s":3.073},"geometry":{"type":"Polygon","coordinates":[[[2.78836,50.49218],[2.78802,50.49156],[2.78761,50.49165],[2.7887,50.49362],[2.78974,50.49551],[2.79079,50.49506],[2.78898,50.49225],[2.78836,50.49218]]]}},{"type":"Feature","properties":{"k":"CZH","s":3.708},"geometry":{"type":"Polygon","coordinates":[[[2.78709,50.4935],[2.7877,50.49497],[2.78912,50.49438],[2.78761,50.49165],[2.78598,50.49199],[2.78709,50.4935]]]}},{"type":"Feature","properties":{"k":"AVP","s":0.05},"geometry":{"type":"Polygon","coordinates":[[[2.78974,50.49551],[2.78978,50.49559],[2.79039,50.49527],[2.78974,50.49551]]]}},{"type":"Feature","properties":{"k":"BTH","s":1.645},"geometry":{"type":"Polygon","coordinates":[[[2.7877,50.49497],[2.78804,50.49624],[2.78968,50.49539],[2.78912,50.49438],[2.7877,50.49497]]]}},{"type":"Feature","properties":{"k":"PTC","s":1.858},"geometry":{"type":"Polygon","coordinates":[[[2.78879,50.49862],[2.78895,50.49882],[2.78988,50.49848],[2.78888,50.49622],[2.78811,50.49663],[2.78879,50.49862]]]}},{"type":"Feature","properties":{"k":"TTH","s":0.573},"geometry":{"type":"Polygon","coordinates":[[[2.7921,50.4977],[2.79234,50.49761],[2.79058,50.49517],[2.79039,50.49527],[2.7921,50.4977]]]}},{"type":"Feature","properties":{"k":"BDH","s":2.687},"geometry":{"type":"Polygon","coordinates":[[[2.79234,50.49761],[2.79352,50.49719],[2.79148,50.4947],[2.79058,50.49517],[2.79234,50.49761]]]}},{"type":"Feature","properties":{"k":"PPH","s":1.818},"geometry":{"type":"Polygon","coordinates":[[[2.79352,50.49719],[2.79424,50.49694],[2.79204,50.4944],[2.79148,50.4947],[2.79352,50.49719]]]}},{"type":"Feature","properties":{"k":"OIG","s":4.358},"geometry":{"type":"Polygon","coordinates":[[[2.78985,50.49575],[2.7889,50.49624],[2.78988,50.49848],[2.7921,50.4977],[2.79039,50.49527],[2.78985,50.49575]]]}},{"type":"Feature","properties":{"k":"LUZ","s":6.113},"geometry":{"type":"Polygon","coordinates":[[[2.79174,50.5009],[2.79441,50.49995],[2.79247,50.49762],[2.79004,50.49848],[2.79174,50.5009]]]}},{"type":"Feature","properties":{"k":"TTH","s":4.79},"geometry":{"type":"Polygon","coordinates":[[[2.79247,50.49761],[2.79455,50.50011],[2.79638,50.49945],[2.79435,50.49697],[2.79247,50.49761]]]}},{"type":"Feature","properties":{"k":"BTH","s":0.651},"geometry":{"type":"Polygon","coordinates":[[[2.79511,50.49766],[2.79801,50.49687],[2.79782,50.49662],[2.79488,50.49747],[2.79511,50.49766]]]}},{"type":"Feature","properties":{"k":"TTH","s":1.105},"geometry":{"type":"Polygon","coordinates":[[[2.79481,50.49737],[2.79577,50.4971],[2.79466,50.49588],[2.79379,50.49622],[2.79481,50.49737]]]}},{"type":"Feature","properties":{"k":"BTH","s":3.627},"geometry":{"type":"Polygon","coordinates":[[[2.79551,50.49498],[2.79424,50.49541],[2.79577,50.4971],[2.79481,50.49737],[2.7949,50.49747],[2.7979,50.4966],[2.79696,50.49544],[2.79551,50.49498]]]}},{"type":"Feature","properties":{"k":"PPH","s":1.771},"geometry":{"type":"Polygon","coordinates":[[[2.79468,50.49428],[2.7946,50.49365],[2.79296,50.49408],[2.79424,50.49541],[2.79551,50.49498],[2.79468,50.49428]]]}},{"type":"Feature","properties":{"k":"TTH","s":1.703},"geometry":{"type":"Polygon","coordinates":[[[2.79296,50.49408],[2.79206,50.49431],[2.79379,50.49622],[2.79466,50.49588],[2.79296,50.49408]]]}},{"type":"Feature","properties":{"k":"BDH","s":2.125},"geometry":{"type":"Polygon","coordinates":[[[2.80165,50.49469],[2.8022,50.49593],[2.80183,50.496],[2.80191,50.4962],[2.80365,50.49593],[2.80281,50.49412],[2.80206,50.49409],[2.80165,50.49469]]]}},{"type":"Feature","properties":{"k":"LUZ","s":0.284},"geometry":{"type":"Polygon","coordinates":[[[2.80216,50.49589],[2.80164,50.49467],[2.80142,50.49488],[2.80188,50.49597],[2.80216,50.49589]]]}},{"type":"Feature","properties":{"k":"BTH","s":2.467},"geometry":{"type":"Polygon","coordinates":[[[2.79698,50.49546],[2.7979,50.4966],[2.80079,50.49572],[2.80008,50.49481],[2.79865,50.49541],[2.79698,50.49546]]]}},{"type":"Feature","properties":{"k":"TTH","s":0.799},"geometry":{"type":"Polygon","coordinates":[[[2.80096,50.49606],[2.80079,50.49572],[2.79782,50.49662],[2.79801,50.49687],[2.80096,50.49606]]]}},{"type":"Feature","properties":{"k":"BTH","s":5.735},"geometry":{"type":"Polygon","coordinates":[[[2.79913,50.49816],[2.80005,50.49794],[2.80045,50.4986],[2.80212,50.49815],[2.80081,50.49615],[2.79511,50.49772],[2.79549,50.49816],[2.79863,50.4974],[2.79913,50.49816]]]}},{"type":"Feature","properties":{"k":"TTH","s":1.153},"geometry":{"type":"Polygon","coordinates":[[[2.79885,50.49776],[2.7986,50.49735],[2.79549,50.49816],[2.79578,50.49856],[2.79885,50.49776]]]}},{"type":"Feature","properties":{"k":"MIS","s":1.039},"geometry":{"type":"Polygon","coordinates":[[[2.79604,50.49891],[2.7991,50.49812],[2.79885,50.49776],[2.79578,50.49856],[2.79604,50.49891]]]}},{"type":"Feature","properties":{"k":"MIS","s":5.501},"geometry":{"type":"Polygon","coordinates":[[[2.79692,50.5001],[2.80253,50.4988],[2.80212,50.49815],[2.80045,50.4986],[2.80005,50.49794],[2.79603,50.49891],[2.79692,50.5001]]]}},{"type":"Feature","properties":{"k":"LBF","s":0.488},"geometry":{"type":"Polygon","coordinates":[[[2.80069,50.49923],[2.80087,50.49952],[2.8027,50.49909],[2.80253,50.4988],[2.80069,50.49923]]]}},{"type":"Feature","properties":{"k":"ORP","s":3.976},"geometry":{"type":"Polygon","coordinates":[[[2.80704,50.49807],[2.80688,50.4975],[2.80526,50.49769],[2.80357,50.49755],[2.8023,50.49701],[2.80145,50.49608],[2.80097,50.49623],[2.8026,50.49884],[2.80397,50.49846],[2.80704,50.49807]],[[2.80151,50.49617],[2.80161,50.49632],[2.80112,50.49644],[2.80103,50.49628],[2.80151,50.49617]]]}},{"type":"Feature","properties":{"k":"MIS","s":2.117},"geometry":{"type":"Polygon","coordinates":[[[2.80284,50.49699],[2.8038,50.49732],[2.80483,50.49748],[2.8042,50.4959],[2.802,50.49622],[2.80284,50.49699]]]}},{"type":"Feature","properties":{"k":"ORH","s":3.591},"geometry":{"type":"Polygon","coordinates":[[[2.78756,50.4821],[2.78728,50.48122],[2.78206,50.48148],[2.78305,50.48239],[2.78756,50.4821]]]}},{"type":"Feature","properties":{"k":"BTH","s":8.938},"geometry":{"type":"Polygon","coordinates":[[[2.78777,50.48275],[2.79214,50.48245],[2.79201,50.48007],[2.78698,50.48037],[2.78777,50.48275]]]}},{"type":"Feature","properties":{"k":"MIS","s":1.867},"geometry":{"type":"Polygon","coordinates":[[[2.78783,50.48274],[2.78804,50.48333],[2.79005,50.48321],[2.79001,50.48291],[2.7907,50.48286],[2.79076,50.48314],[2.79219,50.48306],[2.79214,50.48245],[2.78783,50.48274]]]}},{"type":"Feature","properties":{"k":"MIS","s":1.936},"geometry":{"type":"Polygon","coordinates":[[[2.78792,50.48364],[2.78476,50.48384],[2.78509,50.4841],[2.79217,50.48376],[2.79218,50.48339],[2.78792,50.48364]]]}},{"type":"Feature","properties":{"k":"BTH","s":1.721},"geometry":{"type":"Polygon","coordinates":[[[2.78804,50.48333],[2.78448,50.48357],[2.78476,50.48384],[2.79184,50.48341],[2.7918,50.4831],[2.78804,50.48333]]]}},{"type":"Feature","properties":{"k":"ORH","s":4.078},"geometry":{"type":"Polygon","coordinates":[[[2.78441,50.48357],[2.78804,50.48333],[2.78756,50.4821],[2.78305,50.48239],[2.78441,50.48357]]]}},{"type":"Feature","properties":{"k":"BTH","s":0.006},"geometry":{"type":"MultiPolygon","coordinates":[[[[2.78371,50.48297],[2.78424,50.48343],[2.78372,50.48296],[2.78371,50.48297]]]]}},{"type":"Feature","properties":{"k":"BTH","s":5.779},"geometry":{"type":"Polygon","coordinates":[[[2.78471,50.48797],[2.7886,50.48748],[2.78856,50.48586],[2.78474,50.48575],[2.78471,50.48797]]]}},{"type":"Feature","properties":{"k":"BTH","s":3.786},"geometry":{"type":"Polygon","coordinates":[[[2.78865,50.48585],[2.78864,50.48864],[2.79045,50.48841],[2.7904,50.48583],[2.78865,50.48585]]]}},{"type":"Feature","properties":{"k":"MIS","s":1.803},"geometry":{"type":"Polygon","coordinates":[[[2.78698,50.48577],[2.7887,50.48575],[2.78872,50.4847],[2.78593,50.48484],[2.78698,50.48577]]]}},{"type":"Feature","properties":{"k":"BTH","s":2.455},"geometry":{"type":"Polygon","coordinates":[[[2.79211,50.48457],[2.79213,50.4843],[2.78846,50.48451],[2.78826,50.48398],[2.78509,50.4841],[2.78593,50.48484],[2.79211,50.48457]]]}},{"type":"Feature","properties":{"k":"BTH","s":1.537},"geometry":{"type":"Polygon","coordinates":[[[2.78826,50.48398],[2.78846,50.48451],[2.79184,50.48431],[2.79212,50.48422],[2.79217,50.48377],[2.78916,50.48394],[2.78899,50.48408],[2.78891,50.48395],[2.78826,50.48398]]]}},{"type":"Feature","properties":{"k":"BTH","s":2.298},"geometry":{"type":"Polygon","coordinates":[[[2.79196,50.48576],[2.79211,50.48457],[2.78948,50.4847],[2.78947,50.48576],[2.79196,50.48576]]]}},{"type":"Feature","properties":{"k":"ORH","s":2.817},"geometry":{"type":"Polygon","coordinates":[[[2.79198,50.48584],[2.7904,50.48583],[2.79045,50.48841],[2.79092,50.48833],[2.79189,50.4878],[2.79198,50.48584]]]}},{"type":"Feature","properties":{"k":"BTH","s":0.028},"geometry":{"type":"MultiPolygon","coordinates":[[[[2.79482,50.48749],[2.79479,50.48747],[2.79452,50.48766],[2.79482,50.48749]]],[[[2.7972,50.48869],[2.79725,50.48867],[2.79562,50.48785],[2.7972,50.48869]]]]}},{"type":"Feature","properties":{"k":"LBF","s":1.654},"geometry":{"type":"Polygon","coordinates":[[[2.7959,50.49178],[2.79625,50.49149],[2.79616,50.49134],[2.79669,50.49111],[2.79768,50.49137],[2.79695,50.49074],[2.79669,50.49092],[2.79549,50.49005],[2.79457,50.49079],[2.7959,50.49178]]]}}]}