{"type":"FeatureCollection","features":[{"type":"Feature","properties":{"k":"JAC","s":0.262},"geometry":{"type":"Polygon","coordinates":[[[2.93371,50.08881],[2.93452,50.08897],[2.93438,50.08856],[2.93356,50.08836],[2.93371,50.08881]]]}},{"type":"Feature","properties":{"k":"JAC","s":0.321},"geometry":{"type":"Polygon","coordinates":[[[2.93567,50.08966],[2.93571,50.08957],[2.93465,50.08949],[2.9346,50.08929],[2.93387,50.08929],[2.93393,50.08973],[2.93434,50.08977],[2.93441,50.08961],[2.93567,50.08966]]]}},{"type":"Feature","properties":{"k":"BOR","s":0.023},"geometry":{"type":"Polygon","coordinates":[[[2.9345,50.08727],[2.93457,50.08706],[2.9338,50.08701],[2.93453,50.08708],[2.9345,50.08727]]]}},{"type":"Feature","properties":{"k":"BTH","s":4.006},"geometry":{"type":"Polygon","coordinates":[[[2.93454,50.08727],[2.93672,50.08718],[2.93683,50.08537],[2.93399,50.08549],[2.9338,50.08701],[2.93451,50.08705],[2.93454,50.08727]]]}},{"type":"Feature","properties":{"k":"PTC","s":0.539},"geometry":{"type":"Polygon","coordinates":[[[2.9307,50.08443],[2.92985,50.08562],[2.9304,50.08568],[2.93099,50.08449],[2.9307,50.08443]]]}},{"type":"Feature","properties":{"k":"BTH","s":0.564},"geometry":{"type":"Polygon","coordinates":[[[2.93222,50.08478],[2.93116,50.08453],[2.93068,50.08535],[2.93155,50.08532],[2.93222,50.08478]]]}},{"type":"Feature","properties":{"k":"BTH","s":0.008},"geometry":{"type":"Polygon","coordinates":[[[2.93212,50.08486],[2.93222,50.08478],[2.93229,50.08457],[2.93281,50.08462],[2.93224,50.08456],[2.93212,50.08486]]]}},{"type":"Feature","properties":{"k":"BTH","s":2.353},"geometry":{"type":"Polygon","coordinates":[[[2.93717,50.08282],[2.93652,50.08155],[2.93428,50.08201],[2.93457,50.08306],[2.93717,50.08282]]]}},{"type":"Feature","properties":{"k":"BTN","s":0.022},"geometry":{"type":"Polygon","coordinates":[[[2.93958,50.0825],[2.93999,50.08276],[2.9384,50.08168],[2.93958,50.0825]]]}},{"type":"Feature","properties":{"k":"BTH","s":0.837},"geometry":{"type":"Polygon","coordinates":[[[2.93962,50.08253],[2.93805,50.08279],[2.93825,50.08332],[2.94024,50.08293],[2.93962,50.08253]]]}},{"type":"Feature","properties":{"k":"TTH","s":0.289},"geometry":{"type":"Polygon","coordinates":[[[2.94053,50.08313],[2.94033,50.083],[2.93825,50.08332],[2.93831,50.08348],[2.94053,50.08313]]]}},{"type":"Feature","properties":{"k":"JAC","s":0.339},"geometry":{"type":"Polygon","coordinates":[[[2.93829,50.08349],[2.93835,50.08366],[2.94075,50.08328],[2.94053,50.08313],[2.93829,50.08349]]]}},{"type":"Feature","properties":{"k":"LBF","s":2.941},"geometry":{"type":"Polygon","coordinates":[[[2.94075,50.08381],[2.94117,50.08355],[2.94094,50.08339],[2.93842,50.08378],[2.93887,50.08505],[2.94215,50.08461],[2.94075,50.08381]]]}},{"type":"Feature","properties":{"k":"BTN","s":3.215},"geometry":{"type":"Polygon","coordinates":[[[2.93923,50.086],[2.94346,50.08562],[2.94215,50.08461],[2.93887,50.08505],[2.93923,50.086]]]}},{"type":"Feature","properties":{"k":"BTH","s":0.03},"geometry":{"type":"MultiPolygon","coordinates":[[[[2.94204,50.08451],[2.9417,50.08425],[2.94088,50.08388],[2.94204,50.08451]]],[[[2.94326,50.08547],[2.94327,50.08546],[2.94204,50.08451],[2.94326,50.08547]]]]}},{"type":"Feature","properties":{"k":"TTH","s":0.271},"geometry":{"type":"Polygon","coordinates":[[[2.93842,50.08378],[2.94094,50.08339],[2.94074,50.08328],[2.93835,50.08366],[2.93842,50.08378]]]}},{"type":"Feature","properties":{"k":"BTH","s":0.008},"geometry":{"type":"Polygon","coordinates":[[[2.94075,50.08328],[2.94087,50.08335],[2.94001,50.08277],[2.94075,50.08328]]]}},{"type":"Feature","properties":{"k":"BTN","s":2.109},"geometry":{"type":"Polygon","coordinates":[[[2.94992,50.08627],[2.94725,50.0846],[2.94652,50.08515],[2.94941,50.08679],[2.94992,50.08627]]]}},{"type":"Feature","properties":{"k":"PPH","s":0.001},"geometry":{"type":"Polygon","coordinates":[[[2.9434,50.08556],[2.94327,50.08546],[2.94326,50.08547],[2.9434,50.08556]]]}},{"type":"Feature","properties":{"k":"BTH","s":7.369},"geometry":{"type":"Polygon","coordinates":[[[2.94651,50.08515],[2.94667,50.08499],[2.94537,50.08585],[2.94521,50.08666],[2.94409,50.08609],[2.94398,50.08616],[2.94377,50.08593],[2.94464,50.08729],[2.94838,50.08843],[2.94942,50.0868],[2.94651,50.08515]]]}},{"type":"Feature","properties":{"k":"PHF","s":4.219},"geometry":{"type":"Polygon","coordinates":[[[2.94448,50.09118],[2.94608,50.08772],[2.94472,50.08731],[2.94315,50.09089],[2.94448,50.09118]]]}},{"type":"Feature","properties":{"k":"PHF","s":10.651},"geometry":{"type":"Polygon","coordinates":[[[2.93956,50.08785],[2.93961,50.09041],[2.94315,50.09089],[2.94464,50.08729],[2.93956,50.08785]]]}},{"type":"Feature","properties":{"k":"PTC","s":6.77},"geometry":{"type":"Polygon","coordinates":[[[2.94346,50.08562],[2.93923,50.086],[2.93955,50.087],[2.93956,50.08785],[2.94464,50.08729],[2.94346,50.08562]]]}},{"type":"Feature","properties":{"k":"BTN","s":4.578},"geometry":{"type":"Polygon","coordinates":[[[2.93877,50.08501],[2.934,50.0852],[2.93399,50.08549],[2.93683,50.08537],[2.93672,50.08718],[2.93947,50.08706],[2.93877,50.08501]]]}},{"type":"Feature","properties":{"k":"BTN","s":5.228},"geometry":{"type":"Polygon","coordinates":[[[2.93449,50.08727],[2.93438,50.08856],[2.93465,50.08949],[2.93668,50.0896],[2.93674,50.08763],[2.93948,50.08752],[2.93948,50.08706],[2.93449,50.08727]]]}},{"type":"Feature","properties":{"k":"BTN","s":4.023},"geometry":{"type":"Polygon","coordinates":[[[2.93758,50.0876],[2.93766,50.09021],[2.93948,50.09037],[2.93948,50.08752],[2.93758,50.0876]]]}},{"type":"Feature","properties":{"k":"MIS","s":1.825},"geometry":{"type":"Polygon","coordinates":[[[2.93712,50.09008],[2.93766,50.0902],[2.93758,50.0876],[2.93674,50.08763],[2.93662,50.09019],[2.9371,50.0902],[2.93712,50.09008]]]}},{"type":"Feature","properties":{"k":"BTH","s":0.592},"geometry":{"type":"Polygon","coordinates":[[[2.93832,50.09043],[2.93818,50.09073],[2.93791,50.09083],[2.93832,50.09121],[2.93974,50.09057],[2.93832,50.09043]]]}},{"type":"Feature","properties":{"k":"LBF","s":4.99},"geometry":{"type":"Polygon","coordinates":[[[2.93988,50.0906],[2.94314,50.094],[2.94406,50.09122],[2.93988,50.0906]]]}},{"type":"Feature","properties":{"k":"BTN","s":1.592},"geometry":{"type":"Polygon","coordinates":[[[2.93705,50.09401],[2.9373,50.09437],[2.94172,50.0926],[2.94141,50.09227],[2.93705,50.09401]]]}},{"type":"Feature","properties":{"k":"PHF","s":4.329},"geometry":{"type":"Polygon","coordinates":[[[2.93705,50.09401],[2.94141,50.09227],[2.94053,50.09135],[2.93635,50.09301],[2.93705,50.09401]]]}},{"type":"Feature","properties":{"k":"PTC","s":4.608},"geometry":{"type":"Polygon","coordinates":[[[2.93832,50.09121],[2.93791,50.09083],[2.93527,50.09168],[2.93635,50.09301],[2.94053,50.09135],[2.93981,50.09061],[2.93832,50.09121]]]}},{"type":"Feature","properties":{"k":"BOR","s":0.407},"geometry":{"type":"Polygon","coordinates":[[[2.93825,50.09528],[2.9375,50.09429],[2.9373,50.09437],[2.93822,50.09553],[2.93911,50.09599],[2.93931,50.09591],[2.93825,50.09528]]]}},{"type":"Feature","properties":{"k":"BTH","s":6.123},"geometry":{"type":"Polygon","coordinates":[[[2.93409,50.09637],[2.93512,50.09699],[2.93593,50.09813],[2.93638,50.09844],[2.93949,50.09628],[2.9385,50.09586],[2.93799,50.09546],[2.93409,50.09637]]]}},{"type":"Feature","properties":{"k":"CZH","s":2.701},"geometry":{"type":"Polygon","coordinates":[[[2.9443,50.0953],[2.9404,50.09684],[2.94093,50.09749],[2.94445,50.09614],[2.94467,50.09568],[2.9443,50.0953]]]}},{"type":"Feature","properties":{"k":"BTH","s":4.314},"geometry":{"type":"Polygon","coordinates":[[[2.94429,50.09528],[2.94334,50.0943],[2.93911,50.09599],[2.93992,50.09638],[2.94038,50.09685],[2.94429,50.09528]]]}},{"type":"Feature","properties":{"k":"OIG","s":7.578},"geometry":{"type":"Polygon","coordinates":[[[2.93825,50.09528],[2.93931,50.09591],[2.94312,50.09439],[2.94151,50.09268],[2.9375,50.09429],[2.93825,50.09528]]]}},{"type":"Feature","properties":{"k":"BOR","s":0.4},"geometry":{"type":"Polygon","coordinates":[[[2.94312,50.09439],[2.94334,50.0943],[2.94172,50.0926],[2.94151,50.09268],[2.94312,50.09439]]]}},{"type":"Feature","properties":{"k":"BTN","s":3.445},"geometry":{"type":"Polygon","coordinates":[[[2.94507,50.09147],[2.9439,50.0948],[2.94469,50.0956],[2.94552,50.09385],[2.94611,50.0917],[2.94507,50.09147]]]}},{"type":"Feature","properties":{"k":"BTH","s":5.673},"geometry":{"type":"Polygon","coordinates":[[[2.94417,50.09712],[2.94431,50.09832],[2.94657,50.09869],[2.94745,50.09613],[2.94478,50.09575],[2.94417,50.09712]]]}},{"type":"Feature","properties":{"k":"BTN","s":1.618},"geometry":{"type":"Polygon","coordinates":[[[2.94685,50.09785],[2.94786,50.09805],[2.94864,50.09631],[2.94745,50.09613],[2.94685,50.09785]]]}},{"type":"Feature","properties":{"k":"BTH","s":9.955},"geometry":{"type":"Polygon","coordinates":[[[2.94801,50.09617],[2.95167,50.09456],[2.94685,50.09376],[2.94715,50.09177],[2.94622,50.0917],[2.94563,50.09378],[2.94481,50.09571],[2.94801,50.09617]]]}},{"type":"Feature","properties":{"k":"BTN","s":5.801},"geometry":{"type":"Polygon","coordinates":[[[2.95014,50.09429],[2.9501,50.09153],[2.94715,50.09177],[2.94685,50.09376],[2.95014,50.09429]]]}},{"type":"Feature","properties":{"k":"PTC","s":2.615},"geometry":{"type":"Polygon","coordinates":[[[2.94507,50.09145],[2.94407,50.0912],[2.94314,50.094],[2.94391,50.09481],[2.94507,50.09145]]]}},{"type":"Feature","properties":{"k":"BTN","s":5.934},"geometry":{"type":"Polygon","coordinates":[[[2.94731,50.09032],[2.94795,50.08926],[2.94786,50.08899],[2.94663,50.08869],[2.9463,50.08931],[2.94581,50.08922],[2.94616,50.08844],[2.94811,50.08895],[2.94838,50.08843],[2.94608,50.08772],[2.94448,50.09118],[2.94618,50.09154],[2.94731,50.09032]]]}},{"type":"Feature","properties":{"k":"PTC","s":1.853},"geometry":{"type":"Polygon","coordinates":[[[2.94715,50.0906],[2.94629,50.09154],[2.94842,50.09162],[2.95006,50.09141],[2.94978,50.09122],[2.94715,50.0906]]]}},{"type":"Feature","properties":{"k":"PTC","s":0.364},"geometry":{"type":"Polygon","coordinates":[[[2.94733,50.09045],[2.94715,50.0906],[2.94978,50.09122],[2.94996,50.09109],[2.94733,50.09045]]]}},{"type":"Feature","properties":{"k":"PTC","s":1.133},"geometry":{"type":"Polygon","coordinates":[[[2.9477,50.08992],[2.94733,50.09045],[2.94995,50.09108],[2.9504,50.09078],[2.9477,50.08992]]]}},{"type":"Feature","properties":{"k":"BTN","s":2.142},"geometry":{"type":"Polygon","coordinates":[[[2.94841,50.08855],[2.9477,50.08992],[2.9504,50.09078],[2.95148,50.0899],[2.94841,50.08855]],[[2.94872,50.08919],[2.94826,50.08984],[2.95029,50.09053],[2.95017,50.0907],[2.94773,50.08992],[2.94784,50.08972],[2.94813,50.08981],[2.94851,50.08921],[2.94821,50.08907],[2.94846,50.0886],[2.94948,50.08904],[2.94941,50.08913],[2.9503,50.0894],[2.95021,50.0895],[2.95144,50.08991],[2.95111,50.08996],[2.94872,50.08919]]]}},{"type":"Feature","properties":{"k":"BTN","s":1.269},"geometry":{"type":"Polygon","coordinates":[[[2.94846,50.0886],[2.94821,50.08907],[2.94851,50.08921],[2.94813,50.08981],[2.94784,50.08972],[2.94773,50.08992],[2.95017,50.0907],[2.95029,50.09053],[2.94826,50.08984],[2.94872,50.08919],[2.95111,50.08996],[2.95144,50.08991],[2.94846,50.0886]]]}},{"type":"Feature","properties":{"k":"MIS","s":0.399},"geometry":{"type":"Polygon","coordinates":[[[2.95308,50.09064],[2.95148,50.0899],[2.95125,50.09013],[2.95266,50.09078],[2.95308,50.09064]]]}},{"type":"Feature","properties":{"k":"ORH","s":2.874},"geometry":{"type":"Polygon","coordinates":[[[2.95519,50.09449],[2.95394,50.09058],[2.9532,50.09074],[2.95401,50.09432],[2.95519,50.09449]]]}},{"type":"Feature","properties":{"k":"BTN","s":6.399},"geometry":{"type":"Polygon","coordinates":[[[2.95387,50.09372],[2.9532,50.09075],[2.95109,50.09135],[2.95126,50.09447],[2.95169,50.09454],[2.95272,50.09409],[2.954,50.09427],[2.95387,50.09372]]]}},{"type":"Feature","properties":{"k":"BTN","s":6.71},"geometry":{"type":"Polygon","coordinates":[[[2.95275,50.09409],[2.94801,50.09618],[2.95093,50.09664],[2.9555,50.09471],[2.95566,50.09456],[2.95275,50.09409]]]}},{"type":"Feature","properties":{"k":"BTN","s":0.764},"geometry":{"type":"MultiPolygon","coordinates":[[[[2.95568,50.09456],[2.95101,50.09669],[2.95591,50.09478],[2.9571,50.0953],[2.95568,50.09456]]],[[[2.95215,50.09742],[2.95183,50.09722],[2.95204,50.09736],[2.95215,50.09742]]]]}},{"type":"Feature","properties":{"k":"BTH","s":0.076},"geometry":{"type":"MultiPolygon","coordinates":[[[[2.95761,50.0949],[2.9571,50.0953],[2.95714,50.09532],[2.95761,50.0949]]],[[[2.95873,50.09419],[2.95919,50.09386],[2.95911,50.09372],[2.95868,50.09406],[2.95873,50.09419]]]]}},{"type":"Feature","properties":{"k":"BTH","s":0.004},"geometry":{"type":"Polygon","coordinates":[[[2.95701,50.09534],[2.95707,50.09538],[2.95714,50.09532],[2.95701,50.09534]]]}},{"type":"Feature","properties":{"k":"PTC","s":0.168},"geometry":{"type":"Polygon","coordinates":[[[2.95985,50.09259],[2.95894,50.09212],[2.95946,50.09284],[2.95985,50.09259]]]}},{"type":"Feature","properties":{"k":"PTC","s":0.001},"geometry":{"type":"Polygon","coordinates":[[[2.95952,50.09286],[2.95958,50.09281],[2.95952,50.09282],[2.95952,50.09286]]]}},{"type":"Feature","properties":{"k":"BTH","s":8.104},"geometry":{"type":"Polygon","coordinates":[[[2.9571,50.0953],[2.95911,50.09372],[2.95899,50.09354],[2.95946,50.09291],[2.95882,50.09206],[2.95653,50.0939],[2.95504,50.09042],[2.95415,50.09055],[2.95398,50.09069],[2.95518,50.09445],[2.95575,50.09455],[2.9571,50.0953]]]}},{"type":"Feature","properties":{"k":"BTN","s":4.534},"geometry":{"type":"Polygon","coordinates":[[[2.95652,50.09389],[2.95878,50.09202],[2.95832,50.09099],[2.95757,50.09039],[2.9574,50.09039],[2.95756,50.09058],[2.95566,50.09189],[2.95652,50.09389]]]}},{"type":"Feature","properties":{"k":"PTC","s":1.679},"geometry":{"type":"Polygon","coordinates":[[[2.95504,50.09042],[2.95566,50.09189],[2.95756,50.09058],[2.95747,50.09039],[2.95504,50.09042]]]}},{"type":"Feature","properties":{"k":"LIF","s":1.033},"geometry":{"type":"Polygon","coordinates":[[[2.9566,50.08725],[2.95615,50.08656],[2.9547,50.08738],[2.95531,50.08799],[2.9566,50.08725]]]}},{"type":"Feature","properties":{"k":"BTH","s":3.261},"geometry":{"type":"Polygon","coordinates":[[[2.95752,50.09028],[2.95851,50.09023],[2.9566,50.08725],[2.95522,50.08804],[2.95752,50.09028]]]}},{"type":"Feature","properties":{"k":"BTN","s":3.862},"geometry":{"type":"Polygon","coordinates":[[[2.95739,50.09025],[2.95428,50.0872],[2.95333,50.08778],[2.95281,50.08745],[2.95379,50.08674],[2.95352,50.08645],[2.95228,50.08743],[2.95642,50.09026],[2.95739,50.09025]]]}},{"type":"Feature","properties":{"k":"PTR","s":0.07},"geometry":{"type":"Polygon","coordinates":[[[2.95531,50.08799],[2.9547,50.08738],[2.95461,50.08743],[2.95531,50.08799]]]}},{"type":"Feature","properties":{"k":"BTH","s":14.593},"geometry":{"type":"Polygon","coordinates":[[[2.95228,50.08743],[2.95307,50.08678],[2.95102,50.08548],[2.94919,50.08716],[2.94841,50.08855],[2.95308,50.09064],[2.95484,50.09032],[2.95642,50.09026],[2.95228,50.08743]]]}},{"type":"Feature","properties":{"k":"BTH","s":1.261},"geometry":{"type":"Polygon","coordinates":[[[2.95352,50.08645],[2.95174,50.08515],[2.95153,50.08483],[2.95102,50.08548],[2.95307,50.08678],[2.95352,50.08645]]]}},{"type":"Feature","properties":{"k":"BTN","s":0.0},"geometry":{"type":"Polygon","coordinates":[]}},{"type":"Feature","properties":{"k":"ORH","s":0.002},"geometry":{"type":"Polygon","coordinates":[[[2.95139,50.08488],[2.95116,50.08518],[2.95134,50.08498],[2.95139,50.08488]]]}},{"type":"Feature","properties":{"k":"BTN","s":0.001},"geometry":{"type":"Polygon","coordinates":[[[2.95115,50.08521],[2.95106,50.08532],[2.95116,50.08521],[2.95115,50.08521]]]}},{"type":"Feature","properties":{"k":"LIF","s":0.0},"geometry":{"type":"Polygon","coordinates":[[[2.95221,50.09746],[2.95215,50.09742],[2.95214,50.09742],[2.95221,50.09746]]]}},{"type":"Feature","properties":{"k":"BTH","s":10.128},"geometry":{"type":"Polygon","coordinates":[[[2.95144,50.10045],[2.95174,50.09965],[2.95376,50.09833],[2.95093,50.09671],[2.94864,50.09632],[2.94788,50.09801],[2.94931,50.0992],[2.95144,50.10045]]]}},{"type":"Feature","properties":{"k":"PTC","s":3.502},"geometry":{"type":"Polygon","coordinates":[[[2.9497,50.10322],[2.94997,50.10293],[2.94936,50.10263],[2.94971,50.1024],[2.94873,50.10187],[2.94979,50.10056],[2.94944,50.10027],[2.94989,50.09962],[2.95136,50.10064],[2.95144,50.10045],[2.94931,50.0992],[2.9474,50.10191],[2.9497,50.10322]]]}},{"type":"Feature","properties":{"k":"BTH","s":0.024},"geometry":{"type":"Polygon","coordinates":[[[2.94874,50.10392],[2.94832,50.10379],[2.94894,50.10406],[2.94874,50.10392]]]}},{"type":"Feature","properties":{"k":"BTN","s":1.408},"geometry":{"type":"Polygon","coordinates":[[[2.94712,50.10185],[2.94469,50.10085],[2.94461,50.10168],[2.94682,50.1024],[2.94712,50.10185]]]}},{"type":"Feature","properties":{"k":"BTH","s":1.361},"geometry":{"type":"Polygon","coordinates":[[[2.94682,50.1024],[2.94461,50.10168],[2.94466,50.10219],[2.94714,50.10327],[2.94754,50.10263],[2.94682,50.1024]]]}},{"type":"Feature","properties":{"k":"LBF","s":1.868},"geometry":{"type":"Polygon","coordinates":[[[2.94783,50.10221],[2.94714,50.10327],[2.949,50.10399],[2.94965,50.10328],[2.94783,50.10221]]]}},{"type":"Feature","properties":{"k":"BTN","s":9.495},"geometry":{"type":"Polygon","coordinates":[[[2.94738,50.10191],[2.94931,50.09917],[2.94788,50.09801],[2.9469,50.09783],[2.94657,50.09869],[2.94431,50.09834],[2.94463,50.10073],[2.94738,50.10191]],[[2.94438,50.09867],[2.94541,50.09886],[2.94453,50.09968],[2.94438,50.09867]]]}},{"type":"Feature","properties":{"k":"ORH","s":6.341},"geometry":{"type":"Polygon","coordinates":[[[2.94445,50.09614],[2.94093,50.09749],[2.94198,50.09872],[2.94346,50.10003],[2.94454,50.10065],[2.94424,50.09841],[2.94406,50.09838],[2.94408,50.09733],[2.94445,50.09614]]]}},{"type":"Feature","properties":{"k":"BTH","s":2.329},"geometry":{"type":"Polygon","coordinates":[[[2.94073,50.09967],[2.93967,50.10068],[2.94254,50.10123],[2.94307,50.10056],[2.94073,50.09967]]]}},{"type":"Feature","properties":{"k":"LUZ","s":1.988},"geometry":{"type":"Polygon","coordinates":[[[2.94457,50.10078],[2.94343,50.10008],[2.94188,50.0988],[2.94076,50.09963],[2.94458,50.10104],[2.94457,50.10078]]]}},{"type":"Feature","properties":{"k":"ORP","s":1.436},"geometry":{"type":"Polygon","coordinates":[[[2.93949,50.09928],[2.94132,50.09809],[2.94083,50.0976],[2.93846,50.09899],[2.93949,50.09928]]]}},{"type":"Feature","properties":{"k":"BTH","s":0.898},"geometry":{"type":"Polygon","coordinates":[[[2.94132,50.09809],[2.93953,50.09929],[2.94029,50.0995],[2.94168,50.09851],[2.94132,50.09809]]]}},{"type":"Feature","properties":{"k":"BTH","s":0.389},"geometry":{"type":"Polygon","coordinates":[[[2.94188,50.09873],[2.94168,50.09851],[2.94029,50.0995],[2.94067,50.09961],[2.94188,50.09873]]]}},{"type":"Feature","properties":{"k":"BTH","s":4.558},"geometry":{"type":"Polygon","coordinates":[[[2.93949,50.09628],[2.93638,50.09844],[2.93846,50.09899],[2.94083,50.0976],[2.93949,50.09628]]]}},{"type":"Feature","properties":{"k":"BTH","s":3.237},"geometry":{"type":"Polygon","coordinates":[[[2.94063,50.09966],[2.93456,50.09805],[2.93431,50.0986],[2.94006,50.10021],[2.94063,50.09966]]]}},{"type":"Feature","properties":{"k":"BTH","s":13.197},"geometry":{"type":"Polygon","coordinates":[[[2.93689,50.10273],[2.94121,50.10291],[2.94152,50.10255],[2.93804,50.10227],[2.94006,50.10021],[2.93431,50.0986],[2.93453,50.10212],[2.93689,50.10273]]]}},{"type":"Feature","properties":{"k":"BTH","s":0.543},"geometry":{"type":"MultiPolygon","coordinates":[[[[2.94473,50.10305],[2.94472,50.10303],[2.94276,50.10297],[2.94473,50.10305]]],[[[2.93441,50.10262],[2.93689,50.10273],[2.93453,50.10212],[2.93441,50.10262]]]]}},{"type":"Feature","properties":{"k":"BTH","s":4.208},"geometry":{"type":"Polygon","coordinates":[[[2.94457,50.10104],[2.94309,50.10053],[2.94226,50.10157],[2.93927,50.10107],[2.93846,50.10187],[2.94176,50.10224],[2.94218,50.10169],[2.94455,50.10238],[2.94457,50.10104]]]}},{"type":"Feature","properties":{"k":"MIS","s":3.365},"geometry":{"type":"Polygon","coordinates":[[[2.94176,50.10224],[2.93846,50.10187],[2.93804,50.10227],[2.94153,50.10255],[2.94121,50.10291],[2.94472,50.10303],[2.94455,50.10238],[2.94218,50.10169],[2.94176,50.10224]]]}},{"type":"Feature","properties":{"k":"MIS","s":0.375},"geometry":{"type":"Polygon","coordinates":[[[2.93214,50.08486],[2.93383,50.08501],[2.93386,50.08474],[2.93229,50.08457],[2.93214,50.08486]]]}},{"type":"Feature","properties":{"k":"PTC","s":0.956},"geometry":{"type":"Polygon","coordinates":[[[2.93134,50.0855],[2.93377,50.0855],[2.93383,50.085],[2.93209,50.08487],[2.93134,50.0855]]]}},{"type":"Feature","properties":{"k":"PTR","s":0.498},"geometry":{"type":"Polygon","coordinates":[[[2.92756,50.08834],[2.92763,50.08791],[2.9272,50.09009],[2.92762,50.09007],[2.92777,50.08865],[2.92756,50.08834]]]}},{"type":"Feature","properties":{"k":"BTH","s":1.545},"geometry":{"type":"Polygon","coordinates":[[[2.93405,50.08478],[2.934,50.0852],[2.9388,50.085],[2.93865,50.08461],[2.93405,50.08478]]]}},{"type":"Feature","properties":{"k":"PPH","s":2.371},"geometry":{"type":"Polygon","coordinates":[[[2.92571,50.08669],[2.92582,50.08776],[2.92671,50.08781],[2.92672,50.08766],[2.92824,50.08767],[2.92853,50.08755],[2.92841,50.08654],[2.92571,50.08669]]]}},{"type":"Feature","properties":{"k":"PPH","s":1.187},"geometry":{"type":"Polygon","coordinates":[[[2.93201,50.08777],[2.93093,50.08769],[2.93095,50.08846],[2.93036,50.08845],[2.9304,50.08886],[2.93195,50.08882],[2.93178,50.08887],[2.9318,50.08914],[2.93197,50.08914],[2.93201,50.08777]]]}},{"type":"Feature","properties":{"k":"PPH","s":0.202},"geometry":{"type":"Polygon","coordinates":[[[2.93208,50.08838],[2.93207,50.08874],[2.9328,50.08872],[2.93277,50.08837],[2.93208,50.08838]]]}},{"type":"Feature","properties":{"k":"BTH","s":21.367},"geometry":{"type":"Polygon","coordinates":[[[2.92436,50.10095],[2.92672,50.10251],[2.9276,50.10183],[2.92956,50.10309],[2.93135,50.10093],[2.93316,50.09954],[2.92692,50.09733],[2.92436,50.10095]]]}},{"type":"Feature","properties":{"k":"CZH","s":5.713},"geometry":{"type":"Polygon","coordinates":[[[2.93791,50.08283],[2.9346,50.08311],[2.93411,50.0841],[2.93403,50.08478],[2.93865,50.08461],[2.93791,50.08283]]]}},{"type":"Feature","properties":{"k":"BTN","s":7.559},"geometry":{"type":"Polygon","coordinates":[[[2.91816,50.09065],[2.9223,50.08841],[2.92204,50.08756],[2.92108,50.08686],[2.91681,50.08927],[2.91816,50.09065]]]}},{"type":"Feature","properties":{"k":"PTC","s":1.53},"geometry":{"type":"Polygon","coordinates":[[[2.92458,50.08427],[2.92424,50.08398],[2.92039,50.08615],[2.92073,50.08646],[2.92458,50.08427]]]}},{"type":"Feature","properties":{"k":"BTH","s":0.023},"geometry":{"type":"MultiPolygon","coordinates":[[[[2.92828,50.0847],[2.92829,50.08434],[2.92824,50.0847],[2.92828,50.0847]]]]}},{"type":"Feature","properties":{"k":"BTH","s":2.026},"geometry":{"type":"Polygon","coordinates":[[[2.92828,50.0847],[2.92578,50.08482],[2.92602,50.08507],[2.92572,50.08587],[2.92834,50.08575],[2.92828,50.0847]]]}},{"type":"Feature","properties":{"k":"BTH","s":1.867},"geometry":{"type":"Polygon","coordinates":[[[2.93358,50.0931],[2.93382,50.09213],[2.93229,50.09204],[2.93228,50.09292],[2.93259,50.09411],[2.933,50.09406],[2.93358,50.0931]]]}},{"type":"Feature","properties":{"k":"MIS","s":3.497},"geometry":{"type":"Polygon","coordinates":[[[2.93082,50.09175],[2.93082,50.0944],[2.93291,50.09511],[2.93221,50.09277],[2.93142,50.09161],[2.93082,50.09175]]]}},{"type":"Feature","properties":{"k":"BTH","s":0.0},"geometry":{"type":"Polygon","coordinates":[[[2.92581,50.08481],[2.92578,50.08481],[2.92578,50.08482],[2.92581,50.08481]]]}},{"type":"Feature","properties":{"k":"PTC","s":9.203},"geometry":{"type":"Polygon","coordinates":[[[2.92223,50.0876],[2.92259,50.08908],[2.92331,50.08899],[2.9226,50.08909],[2.9231,50.09135],[2.92354,50.09192],[2.92551,50.09122],[2.92538,50.08971],[2.92594,50.08969],[2.92591,50.08781],[2.92223,50.0876]]]}},{"type":"Feature","properties":{"k":"PTC","s":0.426},"geometry":{"type":"Polygon","coordinates":[[[2.92611,50.09242],[2.92698,50.09283],[2.92745,50.09235],[2.92679,50.09206],[2.92611,50.09242]]]}},{"type":"Feature","properties":{"k":"PTC","s":2.254},"geometry":{"type":"Polygon","coordinates":[[[2.92894,50.09341],[2.92982,50.09157],[2.92815,50.09193],[2.92807,50.09246],[2.92745,50.09235],[2.92698,50.09284],[2.92884,50.09367],[2.92894,50.09341]]]}},{"type":"Feature","properties":{"k":"BTN","s":8.788},"geometry":{"type":"Polygon","coordinates":[[[2.93316,50.09954],[2.93408,50.0988],[2.93431,50.09824],[2.92781,50.09596],[2.92692,50.09733],[2.93316,50.09954]]]}},{"type":"Feature","properties":{"k":"ORP","s":0.663},"geometry":{"type":"Polygon","coordinates":[[[2.93524,50.09723],[2.93501,50.09716],[2.93458,50.09802],[2.93621,50.09842],[2.93524,50.09723]]]}},{"type":"Feature","properties":{"k":"PPH","s":0.539},"geometry":{"type":"Polygon","coordinates":[[[2.93079,50.09173],[2.93046,50.0908],[2.9294,50.09108],[2.92991,50.09152],[2.93079,50.09173]]]}},{"type":"Feature","properties":{"k":"BTH","s":9.94},"geometry":{"type":"Polygon","coordinates":[[[2.92779,50.09595],[2.93435,50.09825],[2.93479,50.09733],[2.93477,50.09692],[2.93318,50.09578],[2.92864,50.09428],[2.92779,50.09595]]]}},{"type":"Feature","properties":{"k":"PTC","s":5.015},"geometry":{"type":"Polygon","coordinates":[[[2.93291,50.09511],[2.93082,50.0944],[2.93082,50.09174],[2.92989,50.09155],[2.92864,50.09428],[2.93318,50.09578],[2.93291,50.09511]]]}},{"type":"Feature","properties":{"k":"BTH","s":9.998},"geometry":{"type":"Polygon","coordinates":[[[2.93743,50.09468],[2.93592,50.09256],[2.93383,50.09286],[2.93302,50.09431],[2.93318,50.09557],[2.93409,50.09637],[2.93799,50.09546],[2.93743,50.09468]]]}},{"type":"Feature","properties":{"k":"BTH","s":0.708},"geometry":{"type":"Polygon","coordinates":[[[2.93561,50.09214],[2.93393,50.09237],[2.93383,50.09286],[2.93592,50.09256],[2.93561,50.09214]]]}},{"type":"Feature","properties":{"k":"PTC","s":2.569},"geometry":{"type":"Polygon","coordinates":[[[2.93418,50.09068],[2.93527,50.09168],[2.93818,50.09073],[2.93783,50.09039],[2.93462,50.09019],[2.93477,50.09065],[2.93418,50.09068]]]}},{"type":"Feature","properties":{"k":"PPH","s":0.319},"geometry":{"type":"Polygon","coordinates":[[[2.93571,50.08957],[2.93561,50.08991],[2.93611,50.08978],[2.93624,50.09019],[2.93662,50.09021],[2.93667,50.0896],[2.93571,50.08957]]]}},{"type":"Feature","properties":{"k":"JAC","s":0.186},"geometry":{"type":"Polygon","coordinates":[[[2.93415,50.09081],[2.93398,50.09073],[2.93396,50.09133],[2.93467,50.09132],[2.93415,50.09081]]]}},{"type":"Feature","properties":{"k":"PPH","s":0.678},"geometry":{"type":"Polygon","coordinates":[[[2.93169,50.09108],[2.93126,50.09096],[2.93137,50.09132],[2.93239,50.09161],[2.93256,50.09065],[2.93155,50.0906],[2.93169,50.09108]]]}},{"type":"Feature","properties":{"k":"BTH","s":0.017},"geometry":{"type":"Polygon","coordinates":[[[2.92142,50.09994],[2.922,50.10013],[2.92087,50.09967],[2.92142,50.09994]]]}},{"type":"Feature","properties":{"k":"BTH","s":1.197},"geometry":{"type":"Polygon","coordinates":[[[2.92307,50.09143],[2.92294,50.09072],[2.92079,50.09197],[2.92127,50.09245],[2.92307,50.09143]]]}},{"type":"Feature","properties":{"k":"PTC","s":1.139},"geometry":{"type":"Polygon","coordinates":[[[2.92087,50.09341],[2.92188,50.09306],[2.92079,50.09197],[2.91991,50.09245],[2.92087,50.09341]]]}},{"type":"Feature","properties":{"k":"PHF","s":12.042},"geometry":{"type":"Polygon","coordinates":[[[2.92182,50.09333],[2.92649,50.09551],[2.92777,50.0959],[2.92883,50.09367],[2.92622,50.09249],[2.92487,50.09162],[2.92363,50.09206],[2.92182,50.09333]]]}},{"type":"Feature","properties":{"k":"BTH","s":1.215},"geometry":{"type":"Polygon","coordinates":[[[2.9234,50.09201],[2.92308,50.09143],[2.92127,50.09245],[2.92188,50.09306],[2.9234,50.09201]]]}},{"type":"Feature","properties":{"k":"BTH","s":1.123},"geometry":{"type":"Polygon","coordinates":[[[2.92292,50.09073],[2.92285,50.09033],[2.91963,50.09216],[2.91991,50.09245],[2.92292,50.09073]]]}},{"type":"Feature","properties":{"k":"BTH","s":13.494},"geometry":{"type":"Polygon","coordinates":[[[2.92111,50.09606],[2.92614,50.09846],[2.92777,50.0959],[2.92649,50.09551],[2.92182,50.09333],[2.92111,50.09606]]]}},{"type":"Feature","properties":{"k":"PTC","s":6.095},"geometry":{"type":"Polygon","coordinates":[[[2.92087,50.09613],[2.92103,50.09605],[2.92169,50.09356],[2.92112,50.09364],[2.92104,50.09351],[2.92021,50.0937],[2.91896,50.09464],[2.92113,50.0954],[2.92036,50.09656],[2.91769,50.09806],[2.92021,50.09935],[2.92087,50.09613]]]}},{"type":"Feature","properties":{"k":"BTH","s":3.447},"geometry":{"type":"Polygon","coordinates":[[[2.91963,50.09216],[2.92285,50.09033],[2.92256,50.0893],[2.91881,50.09132],[2.91963,50.09216]]]}},{"type":"Feature","properties":{"k":"BTH","s":3.228},"geometry":{"type":"Polygon","coordinates":[[[2.92256,50.0893],[2.9223,50.08841],[2.91816,50.09065],[2.91881,50.09132],[2.92256,50.0893]]]}},{"type":"Feature","properties":{"k":"BTH","s":2.431},"geometry":{"type":"Polygon","coordinates":[[[2.93958,50.08251],[2.93746,50.08078],[2.93695,50.08146],[2.93654,50.08157],[2.93717,50.08282],[2.93958,50.08251]]]}},{"type":"Feature","properties":{"k":"BTH","s":3.667},"geometry":{"type":"Polygon","coordinates":[[[2.92039,50.08615],[2.91613,50.08857],[2.91681,50.08927],[2.92108,50.08686],[2.92039,50.08615]]]}},{"type":"Feature","properties":{"k":"BTH","s":2.72},"geometry":{"type":"Polygon","coordinates":[[[2.92719,50.09005],[2.92756,50.08793],[2.92591,50.08782],[2.92593,50.0904],[2.92719,50.09005]]]}},{"type":"Feature","properties":{"k":"PPH","s":1.468},"geometry":{"type":"Polygon","coordinates":[[[2.92847,50.09045],[2.92731,50.09083],[2.9283,50.09186],[2.92982,50.09154],[2.92847,50.09045]]]}},{"type":"Feature","properties":{"k":"BTH","s":7.597},"geometry":{"type":"Polygon","coordinates":[[[2.93027,50.10243],[2.93411,50.10333],[2.93428,50.10232],[2.93414,50.0994],[2.93356,50.09932],[2.93132,50.10106],[2.93027,50.10243]]]}},{"type":"Feature","properties":{"k":"BTN","s":12.63},"geometry":{"type":"Polygon","coordinates":[[[2.92123,50.09616],[2.92103,50.09634],[2.92028,50.09939],[2.92209,50.10016],[2.92431,50.10093],[2.92614,50.09846],[2.92123,50.09616]]]}},{"type":"Feature","properties":{"k":"BOR","s":0.139},"geometry":{"type":"Polygon","coordinates":[[[2.92841,50.08654],[2.92832,50.08604],[2.92568,50.08624],[2.92827,50.08614],[2.92841,50.08654]]]}},{"type":"Feature","properties":{"k":"MIS","s":0.01},"geometry":{"type":"MultiPolygon","coordinates":[[[[2.9374,50.08072],[2.93725,50.08097],[2.93727,50.08095],[2.9374,50.08072]]],[[[2.93657,50.08154],[2.93652,50.08155],[2.93654,50.08157],[2.93657,50.08154]]]]}},{"type":"Feature","properties":{"k":"BTH","s":8.613},"geometry":{"type":"MultiPolygon","coordinates":[[[[2.92189,50.08735],[2.92564,50.08774],[2.9256,50.08622],[2.92588,50.0854],[2.92459,50.08428],[2.92079,50.08651],[2.92189,50.08735]]]]}},{"type":"Feature","properties":{"k":"BTH","s":0.023},"geometry":{"type":"Polygon","coordinates":[[[2.92068,50.09345],[2.92081,50.09342],[2.9208,50.0934],[2.91979,50.09239],[2.92068,50.09345]]]}},{"type":"Feature","properties":{"k":"PTC","s":0.929},"geometry":{"type":"Polygon","coordinates":[[[2.92571,50.08669],[2.92834,50.08655],[2.92826,50.0861],[2.92568,50.08624],[2.92571,50.08669]]]}}]}