{"type":"FeatureCollection","features":[{"type":"Feature","properties":{"k":"BTH","s":0.001},"geometry":{"type":"Polygon","coordinates":[[[3.04626,50.08715],[3.0464,50.08709],[3.04625,50.08714],[3.04626,50.08715]]]}},{"type":"Feature","properties":{"k":"PTR","s":0.0},"geometry":{"type":"Polygon","coordinates":[]}},{"type":"Feature","properties":{"k":"PPH","s":0.002},"geometry":{"type":"Polygon","coordinates":[]}},{"type":"Feature","properties":{"k":"BTN","s":0.0},"geometry":{"type":"Polygon","coordinates":[]}},{"type":"Feature","properties":{"k":"PTR","s":0.0},"geometry":{"type":"Polygon","coordinates":[]}},{"type":"Feature","properties":{"k":"JAC","s":0.06},"geometry":{"type":"Polygon","coordinates":[[[3.04503,50.08177],[3.0457,50.08342],[3.04574,50.08338],[3.04503,50.08177]]]}},{"type":"Feature","properties":{"k":"LUZ","s":0.005},"geometry":{"type":"Polygon","coordinates":[[[3.04997,50.08909],[3.05002,50.08921],[3.05009,50.08914],[3.04997,50.08909]]]}},{"type":"Feature","properties":{"k":"LUZ","s":0.023},"geometry":{"type":"Polygon","coordinates":[[[3.04963,50.09038],[3.04961,50.09017],[3.04952,50.09042],[3.04954,50.09072],[3.04963,50.09038]]]}},{"type":"Feature","properties":{"k":"BTN","s":0.058},"geometry":{"type":"Polygon","coordinates":[[[3.04699,50.09671],[3.04702,50.09595],[3.04685,50.09716],[3.04699,50.09671]]]}},{"type":"Feature","properties":{"k":"BTN","s":0.009},"geometry":{"type":"MultiPolygon","coordinates":[[[[3.04706,50.09573],[3.04705,50.09576],[3.04706,50.09577],[3.04706,50.09573]]],[[[3.04745,50.09471],[3.04731,50.09488],[3.04752,50.09474],[3.04745,50.09471]]]]}},{"type":"Feature","properties":{"k":"BTH","s":0.0},"geometry":{"type":"Polygon","coordinates":[]}},{"type":"Feature","properties":{"k":"BTH","s":0.0},"geometry":{"type":"Polygon","coordinates":[]}},{"type":"Feature","properties":{"k":"MIS","s":0.041},"geometry":{"type":"Polygon","coordinates":[[[3.05741,50.10909],[3.05707,50.10906],[3.05708,50.1092],[3.05741,50.10909]]]}},{"type":"Feature","properties":{"k":"BTH","s":2.321},"geometry":{"type":"Polygon","coordinates":[[[3.05743,50.11157],[3.05775,50.10997],[3.05569,50.11002],[3.05551,50.11134],[3.05743,50.11157]]]}},{"type":"Feature","properties":{"k":"BTH","s":0.612},"geometry":{"type":"Polygon","coordinates":[[[3.0581,50.11207],[3.05768,50.11253],[3.05697,50.11255],[3.05817,50.11306],[3.05857,50.11166],[3.05811,50.11167],[3.0581,50.11207]]]}},{"type":"Feature","properties":{"k":"BTH","s":1.942},"geometry":{"type":"Polygon","coordinates":[[[3.06114,50.11319],[3.06093,50.11127],[3.05954,50.11152],[3.05981,50.11313],[3.06114,50.11319]]]}},{"type":"Feature","properties":{"k":"BTN","s":1.835},"geometry":{"type":"Polygon","coordinates":[[[3.06234,50.11322],[3.06208,50.11117],[3.06094,50.11128],[3.06116,50.11318],[3.06234,50.11322]]]}},{"type":"Feature","properties":{"k":"BTN","s":3.367},"geometry":{"type":"Polygon","coordinates":[[[3.05861,50.11156],[3.06061,50.11122],[3.06098,50.11015],[3.05788,50.10998],[3.05758,50.11157],[3.05861,50.11156]]]}},{"type":"Feature","properties":{"k":"BTN","s":8.871},"geometry":{"type":"Polygon","coordinates":[[[3.05707,50.10904],[3.0574,50.10905],[3.05751,50.1099],[3.06053,50.11005],[3.06047,50.1085],[3.05992,50.10843],[3.06131,50.10657],[3.06302,50.10485],[3.06164,50.10425],[3.05863,50.10827],[3.05711,50.10816],[3.05707,50.10904]]]}},{"type":"Feature","properties":{"k":"BTH","s":1.63},"geometry":{"type":"Polygon","coordinates":[[[3.05863,50.10827],[3.05982,50.10668],[3.05864,50.10663],[3.05748,50.10799],[3.05706,50.10804],[3.05863,50.10827]]]}},{"type":"Feature","properties":{"k":"PTC","s":0.584},"geometry":{"type":"Polygon","coordinates":[[[3.05909,50.10658],[3.061,50.104],[3.06073,50.10397],[3.05871,50.10655],[3.05909,50.10658]]]}},{"type":"Feature","properties":{"k":"MIS","s":1.521},"geometry":{"type":"Polygon","coordinates":[[[3.06103,50.10401],[3.05908,50.1066],[3.05983,50.10665],[3.06163,50.10427],[3.06103,50.10401]]]}},{"type":"Feature","properties":{"k":"BTH","s":0.001},"geometry":{"type":"Polygon","coordinates":[[[3.05953,50.10365],[3.05977,50.1037],[3.05977,50.10369],[3.05953,50.10365]]]}},{"type":"Feature","properties":{"k":"MIS","s":0.626},"geometry":{"type":"Polygon","coordinates":[[[3.05517,50.10324],[3.05412,50.10362],[3.05409,50.10382],[3.05565,50.10342],[3.0559,50.10366],[3.05722,50.10331],[3.05517,50.10324]]]}},{"type":"Feature","properties":{"k":"MIS","s":0.425},"geometry":{"type":"Polygon","coordinates":[[[3.05565,50.10342],[3.05409,50.10382],[3.05417,50.1041],[3.05533,50.10389],[3.0559,50.10366],[3.05565,50.10342]]]}},{"type":"Feature","properties":{"k":"MIS","s":0.046},"geometry":{"type":"Polygon","coordinates":[[[3.05398,50.10366],[3.05402,50.10412],[3.05417,50.1041],[3.05413,50.10363],[3.05398,50.10366]]]}},{"type":"Feature","properties":{"k":"JAC","s":1.085},"geometry":{"type":"Polygon","coordinates":[[[3.06556,50.09792],[3.06527,50.09802],[3.06889,50.10189],[3.06916,50.1018],[3.06556,50.09792]]]}},{"type":"Feature","properties":{"k":"BTN","s":8.998},"geometry":{"type":"Polygon","coordinates":[[[3.07289,50.09862],[3.07353,50.09935],[3.07513,50.09885],[3.07319,50.09787],[3.07234,50.09713],[3.06641,50.09885],[3.06763,50.10017],[3.07289,50.09862]]]}},{"type":"Feature","properties":{"k":"BTP","s":14.781},"geometry":{"type":"Polygon","coordinates":[[[3.06916,50.1018],[3.06889,50.10189],[3.06527,50.09802],[3.06478,50.09816],[3.06789,50.1017],[3.06865,50.10205],[3.07097,50.10398],[3.07144,50.10353],[3.07223,50.1034],[3.07309,50.1035],[3.07452,50.10339],[3.07602,50.10388],[3.07493,50.103],[3.07206,50.0998],[3.06836,50.10096],[3.06916,50.1018]]]}},{"type":"Feature","properties":{"k":"BTH","s":3.996},"geometry":{"type":"Polygon","coordinates":[[[3.07351,50.09934],[3.07288,50.09863],[3.06764,50.10017],[3.06835,50.10096],[3.07351,50.09934]]]}},{"type":"Feature","properties":{"k":"BTH","s":5.177},"geometry":{"type":"Polygon","coordinates":[[[3.07452,50.10339],[3.07309,50.1035],[3.07185,50.10341],[3.07144,50.10353],[3.07097,50.10398],[3.07182,50.10491],[3.0727,50.10471],[3.07443,50.10487],[3.0765,50.1048],[3.07589,50.10382],[3.07452,50.10339]]]}},{"type":"Feature","properties":{"k":"BTN","s":5.958},"geometry":{"type":"Polygon","coordinates":[[[3.06639,50.1022],[3.06591,50.10201],[3.06423,50.1028],[3.06485,50.1032],[3.06724,50.10398],[3.06852,50.10398],[3.06951,50.10351],[3.07034,50.10344],[3.06843,50.10204],[3.06816,50.10193],[3.06639,50.1022]]]}},{"type":"Feature","properties":{"k":"CZH","s":8.361},"geometry":{"type":"Polygon","coordinates":[[[3.06017,50.1081],[3.06535,50.10837],[3.06472,50.10652],[3.06408,50.10569],[3.06302,50.10485],[3.06131,50.10657],[3.06017,50.1081]]]}},{"type":"Feature","properties":{"k":"MIS","s":0.168},"geometry":{"type":"Polygon","coordinates":[[[3.06915,50.10562],[3.0691,50.10549],[3.0675,50.1055],[3.06768,50.10563],[3.06915,50.10562]]]}},{"type":"Feature","properties":{"k":"BTH","s":4.235},"geometry":{"type":"Polygon","coordinates":[[[3.06621,50.10538],[3.06475,50.10499],[3.06604,50.10664],[3.06679,50.10877],[3.06872,50.10845],[3.06769,50.10659],[3.06671,50.10656],[3.06681,50.10586],[3.06621,50.10538]]]}},{"type":"Feature","properties":{"k":"MIS","s":0.675},"geometry":{"type":"Polygon","coordinates":[[[3.06539,50.10912],[3.06539,50.10889],[3.06202,50.1087],[3.06194,50.10896],[3.06539,50.10912]]]}},{"type":"Feature","properties":{"k":"LBF","s":2.008},"geometry":{"type":"Polygon","coordinates":[[[3.06405,50.10881],[3.0654,50.10887],[3.06535,50.10837],[3.06017,50.1081],[3.05992,50.10843],[3.06405,50.10881]]]}},{"type":"Feature","properties":{"k":"BTH","s":4.654},"geometry":{"type":"Polygon","coordinates":[[[3.06459,50.11013],[3.06538,50.10981],[3.06538,50.10912],[3.06194,50.10897],[3.06199,50.1087],[3.06048,50.10851],[3.06053,50.11005],[3.06459,50.11013]]]}},{"type":"Feature","properties":{"k":"BTH","s":2.044},"geometry":{"type":"Polygon","coordinates":[[[3.0638,50.11089],[3.06397,50.1103],[3.06098,50.11015],[3.06061,50.11122],[3.0638,50.11089]]]}},{"type":"Feature","properties":{"k":"MIS","s":5.107},"geometry":{"type":"Polygon","coordinates":[[[3.06497,50.11096],[3.06466,50.11096],[3.06466,50.11085],[3.06215,50.11117],[3.06243,50.11321],[3.06558,50.11301],[3.06497,50.11096]]]}},{"type":"Feature","properties":{"k":"MIS","s":0.341},"geometry":{"type":"Polygon","coordinates":[[[3.06578,50.11227],[3.06553,50.11114],[3.06515,50.11118],[3.06542,50.1123],[3.06578,50.11227]]]}},{"type":"Feature","properties":{"k":"LBF","s":2.143},"geometry":{"type":"Polygon","coordinates":[[[3.06849,50.11095],[3.06838,50.11024],[3.06729,50.11044],[3.0677,50.11291],[3.06873,50.11294],[3.06849,50.11095]]]}},{"type":"Feature","properties":{"k":"PPH","s":0.235},"geometry":{"type":"Polygon","coordinates":[[[3.06694,50.11011],[3.06699,50.11034],[3.06757,50.11032],[3.06866,50.11003],[3.06694,50.11011]]]}},{"type":"Feature","properties":{"k":"MIS","s":4.024},"geometry":{"type":"Polygon","coordinates":[[[3.06714,50.10992],[3.06886,50.10982],[3.0713,50.10939],[3.07004,50.10823],[3.0668,50.10877],[3.06714,50.10992]]]}},{"type":"Feature","properties":{"k":"JAC","s":2.083},"geometry":{"type":"Polygon","coordinates":[[[3.06838,50.11024],[3.06842,50.11047],[3.07235,50.11049],[3.07383,50.11163],[3.07411,50.11164],[3.0715,50.10962],[3.06838,50.11024]]]}},{"type":"Feature","properties":{"k":"JAC","s":0.118},"geometry":{"type":"Polygon","coordinates":[[[3.06857,50.11047],[3.06842,50.11047],[3.06856,50.11152],[3.06857,50.11047]]]}},{"type":"Feature","properties":{"k":"CZH","s":0.938},"geometry":{"type":"Polygon","coordinates":[[[3.07061,50.11299],[3.07022,50.11229],[3.06866,50.11226],[3.06874,50.11294],[3.07061,50.11299]]]}},{"type":"Feature","properties":{"k":"BTH","s":0.75},"geometry":{"type":"Polygon","coordinates":[[[3.07022,50.11229],[3.06985,50.11162],[3.06857,50.1116],[3.06866,50.11226],[3.07022,50.11229]]]}},{"type":"Feature","properties":{"k":"PPH","s":2.148},"geometry":{"type":"Polygon","coordinates":[[[3.09388,50.11288],[3.08886,50.11195],[3.08876,50.11225],[3.08992,50.11274],[3.08958,50.11338],[3.08975,50.11348],[3.0903,50.11282],[3.09106,50.11299],[3.09113,50.1128],[3.09213,50.11288],[3.09199,50.11315],[3.09295,50.11349],[3.09388,50.11288]]]}},{"type":"Feature","properties":{"k":"JAC","s":0.449},"geometry":{"type":"Polygon","coordinates":[[[3.08784,50.11453],[3.08766,50.11463],[3.08779,50.11481],[3.09004,50.11388],[3.08983,50.11373],[3.08784,50.11453]]]}},{"type":"Feature","properties":{"k":"JAC","s":0.664},"geometry":{"type":"Polygon","coordinates":[[[3.08941,50.11345],[3.08742,50.11432],[3.08784,50.11453],[3.08984,50.11372],[3.08941,50.11345]]]}},{"type":"Feature","properties":{"k":"BDH","s":6.022},"geometry":{"type":"Polygon","coordinates":[[[3.09281,50.11559],[3.09004,50.11388],[3.08779,50.11481],[3.08949,50.11692],[3.09281,50.11559]],[[3.09221,50.11554],[3.09193,50.11541],[3.09168,50.11499],[3.09242,50.11545],[3.09221,50.11554]]]}},{"type":"Feature","properties":{"k":"JNO","s":0.172},"geometry":{"type":"Polygon","coordinates":[[[3.09187,50.11537],[3.09221,50.11554],[3.0924,50.11549],[3.0924,50.11535],[3.09168,50.11499],[3.09187,50.11537]]]}},{"type":"Feature","properties":{"k":"BTH","s":1.885},"geometry":{"type":"Polygon","coordinates":[[[3.0949,50.11306],[3.09388,50.11288],[3.09135,50.11453],[3.09206,50.11496],[3.0949,50.11306]]]}},{"type":"Feature","properties":{"k":"MIS","s":1.097},"geometry":{"type":"Polygon","coordinates":[[[3.0903,50.11282],[3.08976,50.11345],[3.09058,50.11402],[3.09194,50.1132],[3.0903,50.11282]]]}},{"type":"Feature","properties":{"k":"BTH","s":5.569},"geometry":{"type":"Polygon","coordinates":[[[3.09372,50.11593],[3.09749,50.11349],[3.09489,50.11307],[3.09204,50.11499],[3.09372,50.11593]]]}},{"type":"Feature","properties":{"k":"BTH","s":14.132},"geometry":{"type":"Polygon","coordinates":[[[3.09967,50.11456],[3.09902,50.11432],[3.09894,50.11424],[3.10373,50.11126],[3.10212,50.11095],[3.1015,50.11067],[3.09384,50.11586],[3.09611,50.11687],[3.09967,50.11456]]]}},{"type":"Feature","properties":{"k":"BTH","s":1.872},"geometry":{"type":"MultiPolygon","coordinates":[[[[3.09792,50.11592],[3.09731,50.11631],[3.09816,50.11656],[3.10044,50.11506],[3.09975,50.11476],[3.09792,50.11592]]],[[[3.09621,50.11704],[3.09696,50.11736],[3.09756,50.11695],[3.09688,50.11659],[3.09621,50.11704]]]]}},{"type":"Feature","properties":{"k":"BTH","s":0.8},"geometry":{"type":"Polygon","coordinates":[[[3.09818,50.11655],[3.09876,50.11674],[3.09923,50.11643],[3.09968,50.11663],[3.10029,50.11612],[3.09941,50.11573],[3.09818,50.11655]]]}},{"type":"Feature","properties":{"k":"BTH","s":0.586},"geometry":{"type":"Polygon","coordinates":[[[3.09724,50.11629],[3.09992,50.11465],[3.09969,50.11456],[3.096,50.11694],[3.09625,50.11701],[3.09724,50.11629]]]}},{"type":"Feature","properties":{"k":"BTH","s":0.872},"geometry":{"type":"MultiPolygon","coordinates":[[[[3.09871,50.11813],[3.09922,50.11779],[3.09757,50.11695],[3.09697,50.11737],[3.09871,50.11813]]]]}},{"type":"Feature","properties":{"k":"JAC","s":0.283},"geometry":{"type":"Polygon","coordinates":[[[3.10043,50.11695],[3.09923,50.11643],[3.09876,50.11674],[3.10043,50.11695]]]}},{"type":"Feature","properties":{"k":"BTH","s":9.444},"geometry":{"type":"Polygon","coordinates":[[[3.0923,50.12097],[3.09268,50.12084],[3.09248,50.12057],[3.09497,50.11982],[3.09568,50.1202],[3.09683,50.11999],[3.09595,50.11921],[3.09706,50.11837],[3.09777,50.11875],[3.09857,50.11821],[3.09643,50.11725],[3.09084,50.11956],[3.0923,50.12097]]]}},{"type":"Feature","properties":{"k":"LIF","s":4.872},"geometry":{"type":"Polygon","coordinates":[[[3.09026,50.11862],[3.09084,50.11956],[3.09643,50.11725],[3.09507,50.11666],[3.09026,50.11862]]]}},{"type":"Feature","properties":{"k":"BDH","s":6.398},"geometry":{"type":"Polygon","coordinates":[[[3.08949,50.11692],[3.09025,50.11863],[3.09504,50.11665],[3.0929,50.11565],[3.08949,50.11692]]]}},{"type":"Feature","properties":{"k":"BDH","s":2.833},"geometry":{"type":"Polygon","coordinates":[[[3.09032,50.11899],[3.08646,50.12051],[3.08729,50.12112],[3.09091,50.11975],[3.09032,50.11899]]]}},{"type":"Feature","properties":{"k":"BTH","s":4.91},"geometry":{"type":"Polygon","coordinates":[[[3.09091,50.11975],[3.08729,50.12112],[3.08864,50.12176],[3.08961,50.12173],[3.09013,50.12208],[3.09244,50.12121],[3.09091,50.11975]]]}},{"type":"Feature","properties":{"k":"BTH","s":0.743},"geometry":{"type":"Polygon","coordinates":[[[3.09017,50.1221],[3.09052,50.12236],[3.09282,50.12149],[3.09244,50.12122],[3.09017,50.1221]]]}},{"type":"Feature","properties":{"k":"CZH","s":2.682},"geometry":{"type":"Polygon","coordinates":[[[3.09282,50.12149],[3.09052,50.12236],[3.09147,50.1234],[3.09396,50.12244],[3.09282,50.12149]]]}},{"type":"Feature","properties":{"k":"JAC","s":0.795},"geometry":{"type":"Polygon","coordinates":[[[3.09147,50.1234],[3.09174,50.12369],[3.09427,50.12272],[3.09396,50.12244],[3.09147,50.1234]]]}},{"type":"Feature","properties":{"k":"MIS","s":0.547},"geometry":{"type":"Polygon","coordinates":[[[3.09069,50.1257],[3.09036,50.12468],[3.08975,50.12467],[3.09026,50.12586],[3.09069,50.1257]]]}},{"type":"Feature","properties":{"k":"BTH","s":3.36},"geometry":{"type":"Polygon","coordinates":[[[3.09014,50.12589],[3.08974,50.12467],[3.08953,50.12454],[3.08703,50.12501],[3.08729,50.12653],[3.09014,50.12589]]]}},{"type":"Feature","properties":{"k":"MIS","s":0.746},"geometry":{"type":"Polygon","coordinates":[[[3.09201,50.12514],[3.09198,50.12508],[3.0912,50.12475],[3.09038,50.12469],[3.0907,50.1257],[3.09201,50.12514]]]}},{"type":"Feature","properties":{"k":"BTH","s":3.346},"geometry":{"type":"Polygon","coordinates":[[[3.09284,50.1248],[3.09422,50.12412],[3.09454,50.12412],[3.09514,50.12439],[3.09627,50.1243],[3.09562,50.12412],[3.09427,50.12272],[3.09174,50.12369],[3.09284,50.1248]]]}},{"type":"Feature","properties":{"k":"JAC","s":0.638},"geometry":{"type":"Polygon","coordinates":[[[3.1005,50.11695],[3.10161,50.1167],[3.10029,50.11612],[3.09968,50.11663],[3.1005,50.11695]]]}},{"type":"Feature","properties":{"k":"BTH","s":2.681},"geometry":{"type":"Polygon","coordinates":[[[3.10161,50.1167],[3.10341,50.11617],[3.10063,50.11493],[3.09941,50.11573],[3.10161,50.1167]]]}},{"type":"Feature","properties":{"k":"JAC","s":0.101},"geometry":{"type":"Polygon","coordinates":[[[3.09992,50.11465],[3.09975,50.11476],[3.10044,50.11506],[3.10061,50.11494],[3.09992,50.11465]]]}},{"type":"Feature","properties":{"k":"BTN","s":0.345},"geometry":{"type":"Polygon","coordinates":[[[3.10341,50.11617],[3.10359,50.11611],[3.10067,50.1148],[3.10049,50.11487],[3.10341,50.11617]]]}},{"type":"Feature","properties":{"k":"LIF","s":6.023},"geometry":{"type":"Polygon","coordinates":[[[3.10039,50.11432],[3.1009,50.11456],[3.10066,50.1148],[3.10359,50.11611],[3.10491,50.11546],[3.10371,50.11421],[3.10302,50.11258],[3.10039,50.11432]]]}},{"type":"Feature","properties":{"k":"BTN","s":0.928},"geometry":{"type":"Polygon","coordinates":[[[3.10282,50.11231],[3.10003,50.11413],[3.10039,50.11432],[3.10309,50.11254],[3.10293,50.11225],[3.10282,50.11231]]]}},{"type":"Feature","properties":{"k":"PTC","s":0.016},"geometry":{"type":"Polygon","coordinates":[[[3.07443,50.12909],[3.07427,50.12925],[3.07457,50.12915],[3.07443,50.12909]]]}},{"type":"Feature","properties":{"k":"BTH","s":4.955},"geometry":{"type":"Polygon","coordinates":[[[3.10204,50.10971],[3.10391,50.10994],[3.1038,50.10987],[3.10425,50.10953],[3.10445,50.10908],[3.10064,50.10816],[3.10016,50.10795],[3.09941,50.1076],[3.09897,50.10741],[3.09819,50.108],[3.09994,50.1089],[3.10204,50.10971]]]}},{"type":"Feature","properties":{"k":"BTH","s":2.485},"geometry":{"type":"Polygon","coordinates":[[[3.1059,50.10956],[3.10567,50.10764],[3.10341,50.10785],[3.10354,50.1087],[3.1059,50.10956]]]}},{"type":"Feature","properties":{"k":"MIS","s":0.124},"geometry":{"type":"Polygon","coordinates":[[[3.07587,50.12847],[3.07574,50.12874],[3.07679,50.12837],[3.07587,50.12847]]]}},{"type":"Feature","properties":{"k":"BTH","s":6.016},"geometry":{"type":"Polygon","coordinates":[[[3.09678,50.10929],[3.09817,50.108],[3.09557,50.1066],[3.09311,50.10901],[3.09678,50.10929]]]}},{"type":"Feature","properties":{"k":"CZH","s":1.071},"geometry":{"type":"Polygon","coordinates":[[[3.09058,50.10823],[3.0915,50.10738],[3.09006,50.10694],[3.08981,50.1082],[3.09058,50.10823]]]}},{"type":"Feature","properties":{"k":"PTC","s":6.847},"geometry":{"type":"Polygon","coordinates":[[[3.09442,50.10608],[3.0931,50.1059],[3.09021,50.10879],[3.09311,50.10901],[3.09557,50.1066],[3.09442,50.10608]]]}},{"type":"Feature","properties":{"k":"CZH","s":4.568},"geometry":{"type":"Polygon","coordinates":[[[3.08589,50.1208],[3.08262,50.12142],[3.08185,50.12289],[3.08709,50.12191],[3.08589,50.1208]]]}},{"type":"Feature","properties":{"k":"MIS","s":1.857},"geometry":{"type":"Polygon","coordinates":[[[3.0828,50.12051],[3.08262,50.12142],[3.08589,50.1208],[3.08501,50.12012],[3.0828,50.12051]]]}},{"type":"Feature","properties":{"k":"CZH","s":2.16},"geometry":{"type":"Polygon","coordinates":[[[3.09252,50.10631],[3.09296,50.10584],[3.09272,50.10559],[3.08958,50.10464],[3.08914,50.10529],[3.09252,50.10631]]]}},{"type":"Feature","properties":{"k":"BTH","s":2.152},"geometry":{"type":"Polygon","coordinates":[[[3.09252,50.10631],[3.08921,50.10531],[3.08883,50.10603],[3.09188,50.10697],[3.09252,50.10631]]]}},{"type":"Feature","properties":{"k":"PPH","s":0.0},"geometry":{"type":"Polygon","coordinates":[]}},{"type":"Feature","properties":{"k":"BTN","s":0.953},"geometry":{"type":"Polygon","coordinates":[[[3.10392,50.1103],[3.10425,50.10954],[3.10391,50.10995],[3.10269,50.10979],[3.10231,50.11022],[3.10392,50.11101],[3.10392,50.1103]]]}},{"type":"Feature","properties":{"k":"BTH","s":4.609},"geometry":{"type":"MultiPolygon","coordinates":[[[[3.09678,50.10929],[3.10029,50.10958],[3.10181,50.11079],[3.10392,50.11125],[3.10392,50.11101],[3.10231,50.11022],[3.10268,50.10979],[3.10092,50.1093],[3.09818,50.10801],[3.09678,50.10929]]]]}},{"type":"Feature","properties":{"k":"BTH","s":1.575},"geometry":{"type":"Polygon","coordinates":[[[3.10301,50.11195],[3.10353,50.11172],[3.10362,50.11192],[3.10427,50.11159],[3.10428,50.11141],[3.10373,50.11126],[3.09959,50.11393],[3.10003,50.11413],[3.10304,50.1122],[3.10301,50.11195]]]}},{"type":"Feature","properties":{"k":"BTN","s":4.158},"geometry":{"type":"Polygon","coordinates":[[[3.1015,50.11067],[3.10044,50.1099],[3.09623,50.11328],[3.09728,50.11345],[3.1015,50.11067]]]}},{"type":"Feature","properties":{"k":"MIS","s":2.734},"geometry":{"type":"Polygon","coordinates":[[[3.07943,50.12096],[3.08265,50.12038],[3.08233,50.11919],[3.08,50.11963],[3.07988,50.11986],[3.07989,50.11986],[3.07943,50.12096]]]}},{"type":"Feature","properties":{"k":"JAC","s":0.305},"geometry":{"type":"Polygon","coordinates":[[[3.08265,50.11825],[3.0826,50.11827],[3.08249,50.11901],[3.0834,50.11883],[3.08265,50.11825]]]}},{"type":"Feature","properties":{"k":"BTH","s":0.235},"geometry":{"type":"Polygon","coordinates":[[[3.08255,50.11934],[3.08374,50.11911],[3.08349,50.1189],[3.08247,50.11908],[3.08255,50.11934]]]}},{"type":"Feature","properties":{"k":"PTR","s":0.417},"geometry":{"type":"Polygon","coordinates":[[[3.08414,50.11943],[3.08374,50.11911],[3.08255,50.11934],[3.08267,50.1197],[3.08414,50.11943]]]}},{"type":"Feature","properties":{"k":"BTH","s":14.348},"geometry":{"type":"Polygon","coordinates":[[[3.08646,50.12051],[3.09033,50.11898],[3.08893,50.1163],[3.08546,50.1176],[3.08293,50.11588],[3.08304,50.11778],[3.08646,50.12051]]]}},{"type":"Feature","properties":{"k":"ORH","s":14.881},"geometry":{"type":"Polygon","coordinates":[[[3.06505,50.09808],[3.06556,50.09792],[3.06641,50.09885],[3.07234,50.09713],[3.07223,50.09703],[3.07132,50.09638],[3.07107,50.09647],[3.07078,50.09622],[3.06968,50.09465],[3.06425,50.09619],[3.06505,50.09808]]]}},{"type":"Feature","properties":{"k":"BTH","s":11.945},"geometry":{"type":"Polygon","coordinates":[[[3.06748,50.09179],[3.06357,50.09373],[3.06425,50.09619],[3.06968,50.09465],[3.06748,50.09179]]]}},{"type":"Feature","properties":{"k":"MIS","s":2.602},"geometry":{"type":"Polygon","coordinates":[[[3.0671,50.0914],[3.06369,50.09313],[3.06332,50.0937],[3.06358,50.09522],[3.06478,50.09816],[3.06505,50.09808],[3.06391,50.09526],[3.06357,50.09373],[3.06748,50.09179],[3.0671,50.0914]]]}},{"type":"Feature","properties":{"k":"CZH","s":3.571},"geometry":{"type":"Polygon","coordinates":[[[3.09006,50.10694],[3.0915,50.10738],[3.09188,50.10698],[3.0888,50.10603],[3.08823,50.10869],[3.08967,50.10879],[3.09006,50.10694]]]}},{"type":"Feature","properties":{"k":"CZH","s":0.16},"geometry":{"type":"Polygon","coordinates":[[[3.08668,50.0757],[3.08657,50.07624],[3.08703,50.07552],[3.08672,50.07543],[3.08668,50.0757]]]}},{"type":"Feature","properties":{"k":"LUZ","s":0.186},"geometry":{"type":"Polygon","coordinates":[[[3.08672,50.07543],[3.087,50.07543],[3.08666,50.07445],[3.08672,50.07543]]]}},{"type":"Feature","properties":{"k":"BTH","s":0.042},"geometry":{"type":"MultiPolygon","coordinates":[[[[3.10578,50.10731],[3.10588,50.10765],[3.10572,50.10646],[3.10566,50.10636],[3.10578,50.10731]]],[[[3.10595,50.10819],[3.10598,50.10889],[3.10598,50.1087],[3.10595,50.10819]]],[[[3.10603,50.1096],[3.10595,50.10942],[3.10595,50.10958],[3.10603,50.1096]]]]}},{"type":"Feature","properties":{"k":"PPH","s":0.316},"geometry":{"type":"MultiPolygon","coordinates":[[[[3.06567,50.07615],[3.06004,50.0755],[3.06014,50.0756],[3.06567,50.07615]]],[[[3.06836,50.07491],[3.06657,50.07575],[3.06837,50.07494],[3.06836,50.07491]]]]}},{"type":"Feature","properties":{"k":"BTN","s":4.705},"geometry":{"type":"Polygon","coordinates":[[[3.07786,50.12336],[3.08179,50.12267],[3.0826,50.12098],[3.07899,50.12162],[3.07786,50.12336]]]}},{"type":"Feature","properties":{"k":"BTH","s":1.592},"geometry":{"type":"Polygon","coordinates":[[[3.07943,50.12096],[3.07897,50.12162],[3.08263,50.12097],[3.08265,50.12038],[3.07943,50.12096]]]}},{"type":"Feature","properties":{"k":"BTH","s":2.806},"geometry":{"type":"Polygon","coordinates":[[[3.08351,50.12567],[3.08378,50.12707],[3.08611,50.12674],[3.08585,50.12524],[3.08351,50.12567]]]}},{"type":"Feature","properties":{"k":"BTH","s":1.434},"geometry":{"type":"Polygon","coordinates":[[[3.08351,50.12567],[3.08233,50.1259],[3.0824,50.12722],[3.08378,50.12707],[3.08351,50.12567]]]}},{"type":"Feature","properties":{"k":"BTN","s":5.333},"geometry":{"type":"Polygon","coordinates":[[[3.07684,50.12829],[3.08224,50.12724],[3.08217,50.12621],[3.07548,50.12745],[3.07573,50.12805],[3.07684,50.12829]]]}},{"type":"Feature","properties":{"k":"AVP","s":0.312},"geometry":{"type":"Polygon","coordinates":[[[3.07804,50.07357],[3.07792,50.07414],[3.0763,50.07585],[3.07497,50.07568],[3.07622,50.07591],[3.07655,50.07581],[3.07805,50.07415],[3.07804,50.07357]]]}},{"type":"Feature","properties":{"k":"BTN","s":6.623},"geometry":{"type":"Polygon","coordinates":[[[3.10128,50.10561],[3.10181,50.10536],[3.10185,50.10615],[3.10508,50.10579],[3.10436,50.10489],[3.10271,50.10503],[3.10043,50.10287],[3.09927,50.10231],[3.09932,50.10299],[3.09877,50.10366],[3.10128,50.10561]]]}},{"type":"Feature","properties":{"k":"BTH","s":15.294},"geometry":{"type":"Polygon","coordinates":[[[3.08954,50.12454],[3.08878,50.12404],[3.08893,50.12363],[3.08767,50.12274],[3.0871,50.12191],[3.08184,50.12289],[3.08178,50.12364],[3.08232,50.1259],[3.08954,50.12454]]]}},{"type":"Feature","properties":{"k":"BTH","s":11.235},"geometry":{"type":"Polygon","coordinates":[[[3.09623,50.11328],[3.10044,50.1099],[3.1003,50.10979],[3.09973,50.10956],[3.0967,50.10934],[3.09319,50.11275],[3.09623,50.11328]]]}},{"type":"Feature","properties":{"k":"BTH","s":5.028},"geometry":{"type":"Polygon","coordinates":[[[3.09319,50.11275],[3.0967,50.10934],[3.0949,50.10922],[3.09159,50.11251],[3.09319,50.11275]]]}},{"type":"Feature","properties":{"k":"BTP","s":13.204},"geometry":{"type":"Polygon","coordinates":[[[3.09614,50.10555],[3.09689,50.10586],[3.09828,50.10694],[3.09979,50.10771],[3.10082,50.10813],[3.10354,50.1087],[3.10328,50.10702],[3.10044,50.10613],[3.10134,50.10564],[3.09869,50.1036],[3.09605,50.10518],[3.09639,50.10537],[3.09614,50.10555]]]}},{"type":"Feature","properties":{"k":"BTH","s":2.805},"geometry":{"type":"Polygon","coordinates":[[[3.09807,50.10795],[3.09884,50.10735],[3.09681,50.10593],[3.09603,50.10556],[3.09508,50.10634],[3.09807,50.10795]]]}},{"type":"Feature","properties":{"k":"JAC","s":0.095},"geometry":{"type":"Polygon","coordinates":[[[3.09614,50.10555],[3.09639,50.10537],[3.09605,50.10518],[3.09576,50.10536],[3.09614,50.10555]]]}},{"type":"Feature","properties":{"k":"CZH","s":0.307},"geometry":{"type":"MultiPolygon","coordinates":[[[[3.07738,50.07459],[3.07634,50.0758],[3.07792,50.07414],[3.07798,50.07352],[3.07738,50.07459]]],[[[3.07497,50.07568],[3.07622,50.07584],[3.07477,50.0755],[3.07497,50.07568]]]]}},{"type":"Feature","properties":{"k":"MIS","s":1.002},"geometry":{"type":"Polygon","coordinates":[[[3.10328,50.10702],[3.10316,50.10602],[3.10184,50.10617],[3.10044,50.10613],[3.10328,50.10702]]]}},{"type":"Feature","properties":{"k":"BTN","s":0.123},"geometry":{"type":"Polygon","coordinates":[[[3.10364,50.11195],[3.10375,50.11219],[3.10423,50.1119],[3.10419,50.11166],[3.10364,50.11195]]]}},{"type":"Feature","properties":{"k":"MIS","s":1.224},"geometry":{"type":"Polygon","coordinates":[[[3.0828,50.12051],[3.08501,50.12012],[3.08415,50.11943],[3.08266,50.11971],[3.0828,50.12051]]]}},{"type":"Feature","properties":{"k":"MIS","s":1.283},"geometry":{"type":"Polygon","coordinates":[[[3.0827,50.11312],[3.08153,50.11262],[3.08115,50.11386],[3.08229,50.11434],[3.0827,50.11312]]]}},{"type":"Feature","properties":{"k":"BTN","s":1.603},"geometry":{"type":"Polygon","coordinates":[[[3.10271,50.10503],[3.10437,50.10485],[3.10427,50.10465],[3.10307,50.10477],[3.10278,50.1034],[3.10187,50.10366],[3.10043,50.10287],[3.10271,50.10503]]]}},{"type":"Feature","properties":{"k":"BTH","s":5.071},"geometry":{"type":"Polygon","coordinates":[[[3.07412,50.12668],[3.07553,50.12631],[3.07657,50.12547],[3.07746,50.12383],[3.07288,50.12511],[3.07412,50.12668]]]}},{"type":"Feature","properties":{"k":"PTC","s":15.363},"geometry":{"type":"Polygon","coordinates":[[[3.0766,50.12559],[3.07588,50.1263],[3.07544,50.12707],[3.07546,50.12745],[3.08217,50.1262],[3.08211,50.12496],[3.08165,50.12363],[3.08181,50.12267],[3.07786,50.12336],[3.0766,50.12559]]]}},{"type":"Feature","properties":{"k":"BTH","s":3.373},"geometry":{"type":"Polygon","coordinates":[[[3.10316,50.10602],[3.10341,50.10785],[3.10566,50.10765],[3.10559,50.10651],[3.10512,50.10579],[3.10316,50.10602]]]}},{"type":"Feature","properties":{"k":"BTH","s":8.728},"geometry":{"type":"Polygon","coordinates":[[[3.08646,50.11725],[3.08886,50.11632],[3.08732,50.11428],[3.08673,50.11448],[3.08572,50.11402],[3.08561,50.11426],[3.08513,50.11405],[3.08456,50.11442],[3.0843,50.11495],[3.08331,50.11478],[3.08305,50.11567],[3.08646,50.11725]]]}},{"type":"Feature","properties":{"k":"BTH","s":1.47},"geometry":{"type":"Polygon","coordinates":[[[3.08728,50.12653],[3.08703,50.12501],[3.08585,50.12524],[3.0862,50.12673],[3.08728,50.12653]]]}},{"type":"Feature","properties":{"k":"BTN","s":8.604},"geometry":{"type":"Polygon","coordinates":[[[3.07159,50.12339],[3.07265,50.12482],[3.07773,50.12344],[3.07906,50.12137],[3.07159,50.12339]]]}},{"type":"Feature","properties":{"k":"BTN","s":16.14},"geometry":{"type":"Polygon","coordinates":[[[3.07133,50.12252],[3.07101,50.12263],[3.07156,50.12338],[3.07906,50.12137],[3.07978,50.11982],[3.07881,50.11904],[3.07013,50.1214],[3.07065,50.12207],[3.07094,50.12198],[3.07133,50.12252]]]}},{"type":"Feature","properties":{"k":"BTP","s":1.276},"geometry":{"type":"Polygon","coordinates":[[[3.07288,50.12511],[3.07751,50.12382],[3.07773,50.12344],[3.07266,50.12486],[3.07288,50.12511]]]}},{"type":"Feature","properties":{"k":"BTH","s":0.202},"geometry":{"type":"Polygon","coordinates":[[[3.08244,50.07891],[3.08212,50.07897],[3.0847,50.07954],[3.08244,50.07891]]]}},{"type":"Feature","properties":{"k":"BTH","s":0.05},"geometry":{"type":"Polygon","coordinates":[[[3.08524,50.0796],[3.08468,50.07947],[3.08507,50.07963],[3.08606,50.07962],[3.08524,50.0796]]]}},{"type":"Feature","properties":{"k":"BTN","s":0.005},"geometry":{"type":"Polygon","coordinates":[[[3.08606,50.07966],[3.08619,50.07966],[3.0862,50.07961],[3.08606,50.07966]]]}},{"type":"Feature","properties":{"k":"LIF","s":0.121},"geometry":{"type":"Polygon","coordinates":[[[3.08635,50.07916],[3.08629,50.0779],[3.08608,50.07962],[3.08635,50.07916]]]}},{"type":"Feature","properties":{"k":"JAC","s":0.076},"geometry":{"type":"Polygon","coordinates":[[[3.08628,50.07718],[3.08622,50.07757],[3.08622,50.07783],[3.08657,50.07624],[3.08628,50.07718]]]}},{"type":"Feature","properties":{"k":"ORP","s":0.017},"geometry":{"type":"Polygon","coordinates":[[[3.08672,50.07624],[3.08665,50.07624],[3.08647,50.07682],[3.08672,50.07624]]]}},{"type":"Feature","properties":{"k":"MIS","s":0.349},"geometry":{"type":"Polygon","coordinates":[[[3.08136,50.07864],[3.07896,50.07916],[3.08107,50.07884],[3.08209,50.07896],[3.0826,50.07888],[3.08136,50.07864]]]}},{"type":"Feature","properties":{"k":"PTC","s":0.003},"geometry":{"type":"MultiPolygon","coordinates":[[[[3.07792,50.07984],[3.07786,50.07984],[3.07787,50.07988],[3.07792,50.07984]]],[[[3.07794,50.07972],[3.07794,50.07967],[3.07793,50.07968],[3.07794,50.07972]]]]}},{"type":"Feature","properties":{"k":"ORP","s":0.071},"geometry":{"type":"Polygon","coordinates":[[[3.07865,50.08065],[3.07858,50.08096],[3.07876,50.08105],[3.07892,50.08069],[3.07846,50.08055],[3.07865,50.08065]]]}},{"type":"Feature","properties":{"k":"JAC","s":0.02},"geometry":{"type":"MultiPolygon","coordinates":[[[[3.07877,50.07919],[3.07872,50.07914],[3.07855,50.07921],[3.07877,50.07919]]],[[[3.07792,50.07984],[3.07796,50.0795],[3.07785,50.07967],[3.07792,50.07984]]]]}},{"type":"Feature","properties":{"k":"BTH","s":0.111},"geometry":{"type":"Polygon","coordinates":[[[3.07837,50.08164],[3.0785,50.08169],[3.07876,50.08106],[3.07857,50.08097],[3.07837,50.08164]]]}},{"type":"Feature","properties":{"k":"LUZ","s":3.31},"geometry":{"type":"Polygon","coordinates":[[[3.07025,50.08917],[3.0696,50.08906],[3.06765,50.08939],[3.06672,50.08971],[3.06694,50.09048],[3.07234,50.08951],[3.07125,50.0891],[3.07025,50.08917]]]}},{"type":"Feature","properties":{"k":"BTH","s":7.833},"geometry":{"type":"Polygon","coordinates":[[[3.07942,50.11131],[3.07894,50.1108],[3.07779,50.11099],[3.07596,50.11089],[3.0758,50.11117],[3.07934,50.11403],[3.08025,50.11354],[3.08028,50.11353],[3.08114,50.1139],[3.08155,50.11238],[3.07942,50.11131]]]}},{"type":"Feature","properties":{"k":"BTN","s":2.534},"geometry":{"type":"Polygon","coordinates":[[[3.08134,50.10995],[3.07687,50.11021],[3.07679,50.1104],[3.07596,50.11051],[3.07596,50.11083],[3.07781,50.11096],[3.08147,50.11025],[3.08134,50.10995]]]}},{"type":"Feature","properties":{"k":"BOR","s":0.21},"geometry":{"type":"Polygon","coordinates":[[[3.07781,50.11096],[3.07596,50.11088],[3.07782,50.11101],[3.08148,50.11025],[3.07781,50.11096]]]}},{"type":"Feature","properties":{"k":"MIS","s":1.46},"geometry":{"type":"Polygon","coordinates":[[[3.07663,50.10967],[3.07645,50.11027],[3.08077,50.10997],[3.08065,50.10968],[3.07663,50.10967]]]}},{"type":"Feature","properties":{"k":"JAC","s":0.144},"geometry":{"type":"Polygon","coordinates":[[[3.0793,50.10902],[3.07892,50.10894],[3.07899,50.10957],[3.07924,50.10957],[3.0793,50.10902]]]}},{"type":"Feature","properties":{"k":"JAC","s":0.281},"geometry":{"type":"Polygon","coordinates":[[[3.07901,50.10967],[3.08067,50.10968],[3.08064,50.10957],[3.0796,50.10956],[3.07961,50.10912],[3.0793,50.10902],[3.07923,50.10957],[3.07901,50.10967]]]}},{"type":"Feature","properties":{"k":"PEP","s":0.863},"geometry":{"type":"Polygon","coordinates":[[[3.08273,50.10863],[3.0829,50.10956],[3.08376,50.10962],[3.08387,50.10856],[3.08273,50.10863]]]}},{"type":"Feature","properties":{"k":"BOR","s":0.013},"geometry":{"type":"Polygon","coordinates":[[[3.08155,50.11238],[3.08153,50.11262],[3.08159,50.11238],[3.0812,50.11222],[3.08155,50.11238]]]}},{"type":"Feature","properties":{"k":"JAC","s":0.067},"geometry":{"type":"Polygon","coordinates":[[[3.08212,50.11208],[3.08255,50.11194],[3.08245,50.11177],[3.08198,50.11198],[3.08212,50.11208]]]}},{"type":"Feature","properties":{"k":"JAC","s":0.218},"geometry":{"type":"Polygon","coordinates":[[[3.0837,50.11117],[3.08346,50.11088],[3.08275,50.11123],[3.08306,50.11148],[3.0837,50.11117]]]}},{"type":"Feature","properties":{"k":"VRG","s":0.219},"geometry":{"type":"Polygon","coordinates":[[[3.08067,50.10773],[3.08058,50.10775],[3.08113,50.10806],[3.08161,50.10808],[3.08144,50.10768],[3.08067,50.10773]]]}},{"type":"Feature","properties":{"k":"PTR","s":0.2},"geometry":{"type":"Polygon","coordinates":[[[3.08149,50.10698],[3.08167,50.10741],[3.0822,50.10733],[3.08203,50.10689],[3.08149,50.10698]]]}},{"type":"Feature","properties":{"k":"PPH","s":0.15},"geometry":{"type":"Polygon","coordinates":[[[3.08182,50.10627],[3.08174,50.10604],[3.08116,50.10614],[3.08137,50.10655],[3.08182,50.10627]]]}},{"type":"Feature","properties":{"k":"BTH","s":2.051},"geometry":{"type":"Polygon","coordinates":[[[3.07809,50.10472],[3.0783,50.10507],[3.08119,50.10459],[3.08114,50.10444],[3.08017,50.1045],[3.08116,50.10441],[3.08064,50.10333],[3.07809,50.10472]]]}},{"type":"Feature","properties":{"k":"PTC","s":7.801},"geometry":{"type":"Polygon","coordinates":[[[3.07599,50.10383],[3.0765,50.1048],[3.0778,50.10462],[3.08059,50.10323],[3.07953,50.10154],[3.07507,50.10311],[3.07599,50.10383]]]}},{"type":"Feature","properties":{"k":"CZH","s":13.003},"geometry":{"type":"Polygon","coordinates":[[[3.07507,50.10311],[3.07953,50.10154],[3.07924,50.10109],[3.07833,50.10099],[3.07789,50.1008],[3.07623,50.09915],[3.07516,50.09886],[3.07206,50.0998],[3.07507,50.10311]]]}},{"type":"Feature","properties":{"k":"BTN","s":15.07},"geometry":{"type":"Polygon","coordinates":[[[3.07149,50.09643],[3.07337,50.09791],[3.07466,50.0986],[3.07639,50.09917],[3.07815,50.10088],[3.07912,50.10097],[3.07788,50.09853],[3.07765,50.09713],[3.07642,50.09477],[3.07149,50.09643]]]}},{"type":"Feature","properties":{"k":"BTH","s":16.299},"geometry":{"type":"Polygon","coordinates":[[[3.07803,50.09846],[3.07983,50.10181],[3.08082,50.10143],[3.08287,50.10206],[3.0836,50.1021],[3.08529,50.1016],[3.08597,50.10155],[3.08583,50.10082],[3.08453,50.10055],[3.08468,50.09911],[3.08256,50.09884],[3.0815,50.0991],[3.07989,50.09803],[3.07788,50.09713],[3.07803,50.09846]]]}},{"type":"Feature","properties":{"k":"BTN","s":0.005},"geometry":{"type":"Polygon","coordinates":[[[3.08614,50.09363],[3.08575,50.0936],[3.08612,50.09366],[3.08614,50.09363]]]}},{"type":"Feature","properties":{"k":"BTH","s":0.039},"geometry":{"type":"Polygon","coordinates":[[[3.08686,50.09371],[3.08771,50.09407],[3.08698,50.09369],[3.0867,50.09367],[3.08686,50.09371]]]}},{"type":"Feature","properties":{"k":"ORH","s":0.012},"geometry":{"type":"Polygon","coordinates":[[[3.08857,50.0959],[3.08832,50.09533],[3.08844,50.09568],[3.08857,50.0959]]]}},{"type":"Feature","properties":{"k":"JAC","s":0.0},"geometry":{"type":"Polygon","coordinates":[]}},{"type":"Feature","properties":{"k":"LUZ","s":0.007},"geometry":{"type":"Polygon","coordinates":[[[3.08905,50.09711],[3.08909,50.0971],[3.08894,50.09675],[3.08905,50.09711]]]}},{"type":"Feature","properties":{"k":"PTC","s":17.601},"geometry":{"type":"Polygon","coordinates":[[[3.0977,50.09835],[3.09739,50.09791],[3.09285,50.10104],[3.09343,50.10355],[3.09426,50.10428],[3.09455,50.10407],[3.09443,50.10395],[3.09474,50.10383],[3.09487,50.10397],[3.09432,50.10426],[3.09543,50.10538],[3.09855,50.10364],[3.09907,50.10327],[3.0992,50.10286],[3.09657,50.10086],[3.09541,50.10155],[3.09653,50.10083],[3.09535,50.09989],[3.0977,50.09835]]]}},{"type":"Feature","properties":{"k":"PTC","s":2.174},"geometry":{"type":"Polygon","coordinates":[[[3.09657,50.10086],[3.0992,50.10286],[3.09923,50.10176],[3.09751,50.10025],[3.09657,50.10086]]]}},{"type":"Feature","properties":{"k":"BTH","s":1.482},"geometry":{"type":"Polygon","coordinates":[[[3.09951,50.10098],[3.09845,50.09967],[3.09751,50.10025],[3.09923,50.10176],[3.09951,50.10098]]]}},{"type":"Feature","properties":{"k":"BTH","s":0.032},"geometry":{"type":"Polygon","coordinates":[[[3.09855,50.09959],[3.09845,50.09967],[3.0989,50.1001],[3.09855,50.09959]]]}},{"type":"Feature","properties":{"k":"BTN","s":0.0},"geometry":{"type":"Polygon","coordinates":[[[3.09699,50.09733],[3.09699,50.09732],[3.09692,50.09735],[3.09699,50.09733]]]}},{"type":"Feature","properties":{"k":"BTH","s":6.152},"geometry":{"type":"Polygon","coordinates":[[[3.08032,50.11355],[3.07864,50.11442],[3.08236,50.11732],[3.08295,50.1153],[3.08268,50.11525],[3.0828,50.11496],[3.08208,50.11463],[3.08242,50.11445],[3.08032,50.11355]]]}},{"type":"Feature","properties":{"k":"BTH","s":2.678},"geometry":{"type":"Polygon","coordinates":[[[3.07936,50.11405],[3.07586,50.11121],[3.0754,50.11176],[3.07601,50.11232],[3.07861,50.11442],[3.07936,50.11405]]]}},{"type":"Feature","properties":{"k":"BTH","s":8.7},"geometry":{"type":"Polygon","coordinates":[[[3.07496,50.11216],[3.07205,50.11356],[3.07502,50.11595],[3.07787,50.11446],[3.07496,50.11216]]]}},{"type":"Feature","properties":{"k":"BTH","s":4.632},"geometry":{"type":"Polygon","coordinates":[[[3.07657,50.11718],[3.07943,50.11568],[3.07792,50.11446],[3.07502,50.11595],[3.07657,50.11718]]]}},{"type":"Feature","properties":{"k":"BTH","s":0.114},"geometry":{"type":"Polygon","coordinates":[[[3.07794,50.11825],[3.08076,50.11679],[3.08072,50.11676],[3.07794,50.11825]]]}},{"type":"Feature","properties":{"k":"BTH","s":3.893},"geometry":{"type":"Polygon","coordinates":[[[3.07659,50.11717],[3.0779,50.11821],[3.08072,50.11676],[3.07937,50.11571],[3.07659,50.11717]]]}},{"type":"Feature","properties":{"k":"BTH","s":4.06},"geometry":{"type":"Polygon","coordinates":[[[3.07933,50.1194],[3.0814,50.11833],[3.08175,50.11759],[3.08076,50.11679],[3.07793,50.11825],[3.07933,50.1194]]]}},{"type":"Feature","properties":{"k":"BTH","s":0.47},"geometry":{"type":"Polygon","coordinates":[[[3.08139,50.11834],[3.07935,50.11939],[3.07968,50.11966],[3.07987,50.11968],[3.08139,50.11834]]]}},{"type":"Feature","properties":{"k":"BTH","s":2.253},"geometry":{"type":"Polygon","coordinates":[[[3.06313,50.11426],[3.06269,50.11361],[3.05949,50.11551],[3.05999,50.11608],[3.06313,50.11426]]]}},{"type":"Feature","properties":{"k":"BTH","s":2.752},"geometry":{"type":"Polygon","coordinates":[[[3.06104,50.11666],[3.06369,50.11509],[3.06313,50.11426],[3.05999,50.11609],[3.06104,50.11666]]]}},{"type":"Feature","properties":{"k":"LBF","s":7.85},"geometry":{"type":"Polygon","coordinates":[[[3.05805,50.11395],[3.05948,50.11551],[3.06266,50.11362],[3.06239,50.11324],[3.05981,50.11313],[3.05954,50.11152],[3.05857,50.11166],[3.05817,50.11307],[3.05697,50.11255],[3.05641,50.11326],[3.05805,50.11395]]]}},{"type":"Feature","properties":{"k":"BTN","s":10.392},"geometry":{"type":"Polygon","coordinates":[[[3.08974,50.10918],[3.08892,50.11196],[3.09158,50.11252],[3.0949,50.10922],[3.09078,50.10893],[3.09069,50.10924],[3.08974,50.10918]]]}},{"type":"Feature","properties":{"k":"LBF","s":3.841},"geometry":{"type":"Polygon","coordinates":[[[3.07235,50.11049],[3.06857,50.11047],[3.0687,50.11152],[3.07374,50.11157],[3.07235,50.11049]]]}},{"type":"Feature","properties":{"k":"CZH","s":1.659},"geometry":{"type":"Polygon","coordinates":[[[3.07098,50.113],[3.07299,50.11306],[3.07457,50.11236],[3.07083,50.1123],[3.07098,50.113]]]}},{"type":"Feature","properties":{"k":"BTH","s":1.933},"geometry":{"type":"Polygon","coordinates":[[[3.07474,50.11213],[3.07422,50.11172],[3.0707,50.11164],[3.07083,50.1123],[3.07467,50.11231],[3.07474,50.11213]]]}},{"type":"Feature","properties":{"k":"BTN","s":1.979},"geometry":{"type":"Polygon","coordinates":[[[3.07433,50.11078],[3.07534,50.11165],[3.07578,50.11112],[3.07573,50.11085],[3.0735,50.10925],[3.0726,50.10944],[3.07433,50.11078]]]}},{"type":"Feature","properties":{"k":"ORP","s":0.998},"geometry":{"type":"Polygon","coordinates":[[[3.07261,50.10919],[3.0746,50.10881],[3.07418,50.10836],[3.0717,50.10888],[3.07225,50.10921],[3.07261,50.10919]]]}},{"type":"Feature","properties":{"k":"JAC","s":2.0},"geometry":{"type":"Polygon","coordinates":[[[3.07352,50.10754],[3.07063,50.10805],[3.07159,50.10879],[3.07417,50.10834],[3.07352,50.10754]]]}},{"type":"Feature","properties":{"k":"MIS","s":1.204},"geometry":{"type":"Polygon","coordinates":[[[3.07006,50.10822],[3.06769,50.10659],[3.06872,50.10845],[3.07006,50.10822]]]}},{"type":"Feature","properties":{"k":"BTH","s":5.664},"geometry":{"type":"Polygon","coordinates":[[[3.07063,50.10805],[3.07352,50.10754],[3.07229,50.10563],[3.06859,50.10631],[3.07063,50.10805]]]}},{"type":"Feature","properties":{"k":"MIS","s":0.274},"geometry":{"type":"Polygon","coordinates":[[[3.06999,50.10547],[3.06933,50.10548],[3.06936,50.10562],[3.07035,50.10554],[3.07178,50.10504],[3.06999,50.10547]]]}},{"type":"Feature","properties":{"k":"BTH","s":1.743},"geometry":{"type":"Polygon","coordinates":[[[3.0686,50.10631],[3.07229,50.10563],[3.07182,50.10508],[3.07036,50.10554],[3.06936,50.10562],[3.06924,50.10585],[3.06915,50.10562],[3.0677,50.10565],[3.0686,50.10631]]]}},{"type":"Feature","properties":{"k":"BTH","s":4.008},"geometry":{"type":"Polygon","coordinates":[[[3.07335,50.10485],[3.07266,50.10477],[3.0721,50.10489],[3.07222,50.10539],[3.07459,50.10866],[3.07479,50.10882],[3.07565,50.10878],[3.07335,50.10485]]]}},{"type":"Feature","properties":{"k":"PTC","s":5.4},"geometry":{"type":"Polygon","coordinates":[[[3.07565,50.10878],[3.07739,50.10879],[3.07516,50.10494],[3.07335,50.10485],[3.07565,50.10878]]]}},{"type":"Feature","properties":{"k":"BTH","s":3.549},"geometry":{"type":"Polygon","coordinates":[[[3.07818,50.10791],[3.07662,50.10486],[3.07516,50.10494],[3.07708,50.1082],[3.07855,50.10794],[3.07818,50.10791]]]}},{"type":"Feature","properties":{"k":"BTH","s":1.26},"geometry":{"type":"Polygon","coordinates":[[[3.08122,50.1046],[3.07829,50.10508],[3.07853,50.10556],[3.0814,50.10513],[3.08122,50.1046]]]}},{"type":"Feature","properties":{"k":"VRG","s":0.235},"geometry":{"type":"Polygon","coordinates":[[[3.08088,50.1055],[3.08081,50.10523],[3.08006,50.10534],[3.08074,50.10543],[3.08102,50.1058],[3.08161,50.10571],[3.08151,50.10544],[3.08088,50.1055]]]}},{"type":"Feature","properties":{"k":"BTN","s":4.755},"geometry":{"type":"Polygon","coordinates":[[[3.07895,50.10865],[3.07965,50.10836],[3.07853,50.10618],[3.08102,50.1058],[3.08084,50.10549],[3.08006,50.10534],[3.07853,50.10556],[3.0781,50.10473],[3.07663,50.10485],[3.07818,50.10791],[3.0785,50.10786],[3.07811,50.10711],[3.07895,50.10865]]]}},{"type":"Feature","properties":{"k":"BTH","s":4.21},"geometry":{"type":"Polygon","coordinates":[[[3.08116,50.10614],[3.08174,50.10604],[3.08161,50.10571],[3.07853,50.10618],[3.07965,50.10836],[3.07999,50.10823],[3.07985,50.10796],[3.08058,50.10774],[3.08144,50.10768],[3.08149,50.10784],[3.08218,50.10788],[3.08233,50.10777],[3.08225,50.10743],[3.08167,50.10741],[3.08116,50.10614]]]}},{"type":"Feature","properties":{"k":"JAC","s":0.391},"geometry":{"type":"Polygon","coordinates":[[[3.07967,50.10879],[3.08048,50.10873],[3.07999,50.10823],[3.07895,50.10865],[3.07903,50.10881],[3.07967,50.10879]]]}},{"type":"Feature","properties":{"k":"PPH","s":0.269},"geometry":{"type":"Polygon","coordinates":[[[3.07815,50.10856],[3.07845,50.10851],[3.07879,50.10881],[3.07842,50.10797],[3.07789,50.10806],[3.07815,50.10856]]]}},{"type":"Feature","properties":{"k":"MIS","s":1.3},"geometry":{"type":"Polygon","coordinates":[[[3.07892,50.10894],[3.07702,50.10894],[3.07661,50.10966],[3.079,50.10967],[3.07892,50.10894]]]}},{"type":"Feature","properties":{"k":"BTH","s":2.716},"geometry":{"type":"Polygon","coordinates":[[[3.07587,50.11093],[3.07593,50.1104],[3.07641,50.10985],[3.07678,50.1089],[3.07513,50.10895],[3.0735,50.10925],[3.07587,50.11093]]]}},{"type":"Feature","properties":{"k":"JAC","s":0.113},"geometry":{"type":"Polygon","coordinates":[[[3.04716,50.07255],[3.04813,50.07275],[3.04803,50.07265],[3.04491,50.0721],[3.04716,50.07255]]]}},{"type":"Feature","properties":{"k":"ORH","s":0.214},"geometry":{"type":"Polygon","coordinates":[[[3.04985,50.07313],[3.05025,50.07322],[3.05005,50.07301],[3.04803,50.07265],[3.04985,50.07313]]]}},{"type":"Feature","properties":{"k":"PHF","s":0.911},"geometry":{"type":"Polygon","coordinates":[[[3.05377,50.075],[3.05535,50.07502],[3.05516,50.07481],[3.05342,50.0747],[3.05082,50.07314],[3.05005,50.07301],[3.05025,50.07322],[3.0508,50.07337],[3.05377,50.075]]]}},{"type":"Feature","properties":{"k":"BTH","s":0.108},"geometry":{"type":"Polygon","coordinates":[[[3.05594,50.07503],[3.05516,50.07481],[3.05535,50.07502],[3.05674,50.0752],[3.05594,50.07503]]]}},{"type":"Feature","properties":{"k":"LBF","s":0.098},"geometry":{"type":"Polygon","coordinates":[[[3.05794,50.07534],[3.05833,50.07538],[3.05668,50.07512],[3.05794,50.07534]]]}},{"type":"Feature","properties":{"k":"BTH","s":0.097},"geometry":{"type":"Polygon","coordinates":[[[3.05854,50.0754],[3.06002,50.07557],[3.05826,50.0753],[3.05854,50.0754]]]}},{"type":"Feature","properties":{"k":"BTH","s":0.664},"geometry":{"type":"Polygon","coordinates":[[[3.03847,50.073],[3.03824,50.07305],[3.03924,50.07568],[3.03966,50.07558],[3.03847,50.073]]]}},{"type":"Feature","properties":{"k":"BTH","s":0.557},"geometry":{"type":"Polygon","coordinates":[[[3.03966,50.07558],[3.03924,50.07568],[3.03961,50.07666],[3.04037,50.07697],[3.03966,50.07558]]]}},{"type":"Feature","properties":{"k":"BTN","s":0.001},"geometry":{"type":"Polygon","coordinates":[[[3.04184,50.08],[3.04185,50.08009],[3.04188,50.08007],[3.04184,50.08]]]}},{"type":"Feature","properties":{"k":"ORP","s":0.001},"geometry":{"type":"Polygon","coordinates":[[[3.09468,50.09661],[3.09442,50.09661],[3.09468,50.09662],[3.09468,50.09661]]]}},{"type":"Feature","properties":{"k":"AVP","s":0.003},"geometry":{"type":"Polygon","coordinates":[[[3.09314,50.09649],[3.09337,50.09656],[3.09297,50.09641],[3.09314,50.09649]]]}},{"type":"Feature","properties":{"k":"SOG","s":0.001},"geometry":{"type":"MultiPolygon","coordinates":[[[[3.09145,50.09663],[3.09152,50.09651],[3.09141,50.09665],[3.09145,50.09663]]]]}},{"type":"Feature","properties":{"k":"BTH","s":0.443},"geometry":{"type":"Polygon","coordinates":[[[3.08311,50.07256],[3.08167,50.07365],[3.07968,50.07211],[3.07952,50.07216],[3.08166,50.07378],[3.08246,50.07313],[3.08331,50.07272],[3.08311,50.07256]]]}},{"type":"Feature","properties":{"k":"LBF","s":0.191},"geometry":{"type":"Polygon","coordinates":[[[3.08331,50.07272],[3.08373,50.07233],[3.08416,50.0725],[3.0843,50.07243],[3.08372,50.07209],[3.08311,50.07256],[3.08331,50.07272]]]}},{"type":"Feature","properties":{"k":"LBF","s":0.027},"geometry":{"type":"MultiPolygon","coordinates":[[[[3.08448,50.07255],[3.08458,50.07259],[3.0843,50.07243],[3.08448,50.07255]]],[[[3.08574,50.07326],[3.08521,50.07296],[3.08563,50.07332],[3.08574,50.07326]]]]}},{"type":"Feature","properties":{"k":"MIS","s":0.007},"geometry":{"type":"MultiPolygon","coordinates":[[[[3.08594,50.07338],[3.08575,50.07327],[3.08605,50.07353],[3.08594,50.07338]]]]}},{"type":"Feature","properties":{"k":"JAC","s":0.064},"geometry":{"type":"MultiPolygon","coordinates":[[[[3.08563,50.07332],[3.08631,50.07389],[3.08605,50.07353],[3.08563,50.07332]]],[[[3.08653,50.07445],[3.08665,50.07445],[3.08643,50.07405],[3.08653,50.07445]]]]}},{"type":"Feature","properties":{"k":"JAC","s":0.084},"geometry":{"type":"Polygon","coordinates":[[[3.0717,50.09516],[3.07258,50.09578],[3.07193,50.09507],[3.0717,50.09516]]]}},{"type":"Feature","properties":{"k":"BTH","s":2.294},"geometry":{"type":"Polygon","coordinates":[[[3.07309,50.12936],[3.07345,50.12923],[3.07364,50.12947],[3.07414,50.12929],[3.07424,50.12858],[3.0703,50.12891],[3.07348,50.13014],[3.07368,50.12994],[3.07309,50.12936]]]}},{"type":"Feature","properties":{"k":"BTH","s":10.148},"geometry":{"type":"Polygon","coordinates":[[[3.07319,50.12057],[3.07881,50.11904],[3.0774,50.11791],[3.07333,50.11901],[3.07064,50.11974],[3.07048,50.11979],[3.06927,50.12012],[3.07013,50.1214],[3.07319,50.12057]]]}},{"type":"Feature","properties":{"k":"BTH","s":3.431},"geometry":{"type":"Polygon","coordinates":[[[3.06885,50.11738],[3.06998,50.11911],[3.0718,50.1186],[3.0695,50.11612],[3.06885,50.11738]]]}},{"type":"Feature","properties":{"k":"BTH","s":2.722},"geometry":{"type":"Polygon","coordinates":[[[3.07035,50.11551],[3.0703,50.11547],[3.06956,50.11607],[3.0718,50.1186],[3.07282,50.11832],[3.07035,50.11551]]]}},{"type":"Feature","properties":{"k":"BTH","s":0.598},"geometry":{"type":"Polygon","coordinates":[[[3.07048,50.11533],[3.0703,50.11547],[3.07283,50.11833],[3.07302,50.11827],[3.07048,50.11533]]]}},{"type":"Feature","properties":{"k":"PHF","s":7.059},"geometry":{"type":"Polygon","coordinates":[[[3.06927,50.12012],[3.0774,50.11791],[3.07602,50.11682],[3.07552,50.11694],[3.07256,50.11774],[3.07302,50.11826],[3.06884,50.11945],[3.06927,50.12012]]]}},{"type":"Feature","properties":{"k":"BTH","s":8.755},"geometry":{"type":"Polygon","coordinates":[[[3.07602,50.11682],[3.07193,50.11358],[3.07049,50.11531],[3.07266,50.11771],[3.07602,50.11682]]]}},{"type":"Feature","properties":{"k":"BTH","s":7.915},"geometry":{"type":"Polygon","coordinates":[[[3.0679,50.11611],[3.06942,50.11601],[3.07065,50.11493],[3.07164,50.11372],[3.07299,50.11306],[3.0677,50.11291],[3.0679,50.11611]]]}},{"type":"Feature","properties":{"k":"PTR","s":0.411},"geometry":{"type":"Polygon","coordinates":[[[3.06812,50.1165],[3.06925,50.11638],[3.06941,50.11602],[3.0679,50.11612],[3.06812,50.1165]]]}},{"type":"Feature","properties":{"k":"MIS","s":2.417},"geometry":{"type":"Polygon","coordinates":[[[3.06345,50.11471],[3.06635,50.1145],[3.06609,50.11356],[3.0628,50.11377],[3.06345,50.11471]]]}},{"type":"Feature","properties":{"k":"JAC","s":1.78},"geometry":{"type":"Polygon","coordinates":[[[3.06542,50.1123],[3.06558,50.11301],[3.06243,50.11321],[3.0628,50.11377],[3.06609,50.11356],[3.06578,50.11227],[3.06542,50.1123]]]}},{"type":"Feature","properties":{"k":"BTH","s":0.911},"geometry":{"type":"Polygon","coordinates":[[[3.06646,50.11491],[3.06635,50.1145],[3.06345,50.11471],[3.06369,50.11509],[3.06646,50.11491]]]}},{"type":"Feature","properties":{"k":"PTC","s":5.028},"geometry":{"type":"Polygon","coordinates":[[[3.06233,50.1174],[3.06447,50.11614],[3.06672,50.11596],[3.06646,50.11491],[3.06369,50.11509],[3.06104,50.11666],[3.06233,50.1174]]]}},{"type":"Feature","properties":{"k":"MIS","s":1.174},"geometry":{"type":"Polygon","coordinates":[[[3.06436,50.11619],[3.06233,50.1174],[3.06271,50.11762],[3.06456,50.11647],[3.06676,50.11616],[3.06672,50.11596],[3.06436,50.11619]]]}},{"type":"Feature","properties":{"k":"BTH","s":0.001},"geometry":{"type":"Polygon","coordinates":[[[3.06666,50.11985],[3.06676,50.11988],[3.06656,50.11978],[3.06666,50.11985]]]}},{"type":"Feature","properties":{"k":"PTC","s":3.571},"geometry":{"type":"Polygon","coordinates":[[[3.06694,50.12289],[3.06626,50.12204],[3.06507,50.12354],[3.06657,50.12502],[3.06815,50.12446],[3.06694,50.12289]]]}},{"type":"Feature","properties":{"k":"PTC","s":6.174},"geometry":{"type":"Polygon","coordinates":[[[3.06815,50.12446],[3.07017,50.12376],[3.06726,50.12],[3.06626,50.12204],[3.06815,50.12446]]]}},{"type":"Feature","properties":{"k":"PTC","s":9.109},"geometry":{"type":"Polygon","coordinates":[[[3.07238,50.12574],[3.07072,50.12355],[3.06591,50.12527],[3.06766,50.12685],[3.07238,50.12574]]]}},{"type":"Feature","properties":{"k":"LBF","s":3.637},"geometry":{"type":"Polygon","coordinates":[[[3.0689,50.12795],[3.07075,50.12881],[3.07342,50.12857],[3.07364,50.12804],[3.07399,50.12791],[3.07305,50.12733],[3.0689,50.12795]]]}},{"type":"Feature","properties":{"k":"BTN","s":5.9},"geometry":{"type":"Polygon","coordinates":[[[3.07309,50.12733],[3.07238,50.12574],[3.06688,50.12703],[3.06885,50.12794],[3.07309,50.12733]]]}},{"type":"Feature","properties":{"k":"PTC","s":4.226},"geometry":{"type":"Polygon","coordinates":[[[3.06803,50.12904],[3.07072,50.12883],[3.0669,50.12703],[3.06478,50.12752],[3.06803,50.12904]]]}},{"type":"Feature","properties":{"k":"PTC","s":1.042},"geometry":{"type":"Polygon","coordinates":[[[3.06591,50.12527],[3.06657,50.12502],[3.06507,50.12354],[3.0646,50.12411],[3.06591,50.12527]]]}},{"type":"Feature","properties":{"k":"PHF","s":4.576},"geometry":{"type":"Polygon","coordinates":[[[3.06477,50.12751],[3.06766,50.12685],[3.06577,50.12515],[3.06299,50.12656],[3.06477,50.12751]]]}},{"type":"Feature","properties":{"k":"PHF","s":2.597},"geometry":{"type":"Polygon","coordinates":[[[3.06299,50.12656],[3.06577,50.12515],[3.0646,50.12411],[3.06388,50.12497],[3.06226,50.12604],[3.06299,50.12656]]]}},{"type":"Feature","properties":{"k":"BTH","s":0.012},"geometry":{"type":"MultiPolygon","coordinates":[[[[3.06426,50.12443],[3.06444,50.12421],[3.06383,50.12489],[3.06426,50.12443]]]]}},{"type":"Feature","properties":{"k":"PTR","s":0.082},"geometry":{"type":"Polygon","coordinates":[[[3.07469,50.07563],[3.07453,50.07544],[3.07332,50.07508],[3.07469,50.07563]]]}},{"type":"Feature","properties":{"k":"PTC","s":3.703},"geometry":{"type":"Polygon","coordinates":[[[3.07029,50.12891],[3.0681,50.12908],[3.06958,50.12987],[3.07265,50.13094],[3.07348,50.13014],[3.07029,50.12891]]]}},{"type":"Feature","properties":{"k":"BTH","s":0.222},"geometry":{"type":"Polygon","coordinates":[[[3.06971,50.12993],[3.0674,50.12879],[3.06955,50.12994],[3.07237,50.13083],[3.06971,50.12993]]]}},{"type":"Feature","properties":{"k":"LBF","s":0.011},"geometry":{"type":"Polygon","coordinates":[[[3.0723,50.13087],[3.07262,50.13097],[3.07264,50.13095],[3.0723,50.13087]]]}},{"type":"Feature","properties":{"k":"BTH","s":0.178},"geometry":{"type":"Polygon","coordinates":[[[3.07828,50.08283],[3.0785,50.0817],[3.07836,50.08164],[3.078,50.08278],[3.07828,50.08283]]]}},{"type":"Feature","properties":{"k":"LIF","s":0.236},"geometry":{"type":"Polygon","coordinates":[[[3.0772,50.08496],[3.07726,50.08436],[3.07696,50.08428],[3.07701,50.08493],[3.07658,50.08613],[3.0772,50.08496]]]}},{"type":"Feature","properties":{"k":"PTC","s":0.281},"geometry":{"type":"Polygon","coordinates":[[[3.07635,50.08607],[3.07676,50.0865],[3.07576,50.08718],[3.07571,50.08725],[3.07584,50.08735],[3.07606,50.08739],[3.07701,50.0866],[3.07658,50.08613],[3.07635,50.08607]]]}},{"type":"Feature","properties":{"k":"CZH","s":0.0},"geometry":{"type":"Polygon","coordinates":[]}},{"type":"Feature","properties":{"k":"BTN","s":0.027},"geometry":{"type":"Polygon","coordinates":[[[3.07711,50.08871],[3.07695,50.08869],[3.07708,50.08895],[3.07711,50.08871]]]}},{"type":"Feature","properties":{"k":"BTN","s":13.226},"geometry":{"type":"Polygon","coordinates":[[[3.07642,50.09477],[3.07554,50.0934],[3.07423,50.09212],[3.06895,50.09361],[3.07049,50.0956],[3.07193,50.09507],[3.07277,50.09596],[3.07642,50.09477]]]}},{"type":"Feature","properties":{"k":"BTH","s":0.347},"geometry":{"type":"Polygon","coordinates":[[[3.07858,50.07305],[3.07959,50.07228],[3.07946,50.07218],[3.07806,50.07324],[3.07798,50.07352],[3.07814,50.07364],[3.07858,50.07305]]]}},{"type":"Feature","properties":{"k":"LIF","s":0.022},"geometry":{"type":"MultiPolygon","coordinates":[[[[3.07034,50.0742],[3.06984,50.07417],[3.07001,50.0742],[3.07034,50.0742]]]]}},{"type":"Feature","properties":{"k":"BTN","s":0.382},"geometry":{"type":"Polygon","coordinates":[[[3.07699,50.08428],[3.07726,50.08435],[3.07729,50.084],[3.07823,50.08289],[3.07796,50.08279],[3.07731,50.08353],[3.07699,50.08428]]]}},{"type":"Feature","properties":{"k":"BTN","s":0.126},"geometry":{"type":"Polygon","coordinates":[[[3.07689,50.08869],[3.07711,50.08871],[3.07695,50.08831],[3.07606,50.08739],[3.07584,50.08735],[3.07658,50.08794],[3.07689,50.08869]]]}},{"type":"Feature","properties":{"k":"BTH","s":15.456},"geometry":{"type":"Polygon","coordinates":[[[3.06711,50.09128],[3.06895,50.09361],[3.07423,50.09212],[3.07391,50.09067],[3.07311,50.08978],[3.07234,50.08951],[3.06694,50.09048],[3.06711,50.09128]]]}}]}