{"type":"FeatureCollection","features":[{"type":"Feature","properties":{"k":"BTH","s":1.471},"geometry":{"type":"Polygon","coordinates":[[[2.27592,50.69436],[2.27632,50.69438],[2.27628,50.6926],[2.27556,50.69257],[2.27527,50.69507],[2.27585,50.69494],[2.27592,50.69436]]]}},{"type":"Feature","properties":{"k":"LIF","s":1.531},"geometry":{"type":"Polygon","coordinates":[[[2.27527,50.69507],[2.2755,50.69315],[2.27453,50.69312],[2.27431,50.69526],[2.27527,50.69507]]]}},{"type":"Feature","properties":{"k":"BTN","s":4.394},"geometry":{"type":"Polygon","coordinates":[[[2.27401,50.69676],[2.2772,50.69688],[2.27658,50.69486],[2.27405,50.69538],[2.27386,50.69562],[2.2732,50.69575],[2.27314,50.69635],[2.27387,50.69627],[2.27401,50.69676]]]}},{"type":"Feature","properties":{"k":"BTA","s":0.133},"geometry":{"type":"Polygon","coordinates":[[[2.2753,50.69678],[2.27401,50.69676],[2.27642,50.69695],[2.27721,50.69693],[2.2753,50.69678]]]}},{"type":"Feature","properties":{"k":"BTA","s":0.153},"geometry":{"type":"Polygon","coordinates":[[[2.27241,50.69676],[2.26914,50.69621],[2.26904,50.69571],[2.26909,50.69625],[2.27241,50.69676]]]}},{"type":"Feature","properties":{"k":"BTA","s":0.031},"geometry":{"type":"Polygon","coordinates":[[[2.26919,50.69572],[2.26915,50.69572],[2.26917,50.6962],[2.26977,50.69629],[2.26922,50.69618],[2.26919,50.69572]]]}},{"type":"Feature","properties":{"k":"PTR","s":0.225},"geometry":{"type":"Polygon","coordinates":[[[2.26919,50.69572],[2.26922,50.69618],[2.26977,50.69626],[2.26977,50.69571],[2.26919,50.69572]]]}},{"type":"Feature","properties":{"k":"BTH","s":12.555},"geometry":{"type":"Polygon","coordinates":[[[2.26759,50.69631],[2.267,50.70044],[2.26966,50.69945],[2.27157,50.69926],[2.27228,50.69771],[2.27241,50.69676],[2.26909,50.69625],[2.26904,50.69571],[2.26823,50.69566],[2.26806,50.69633],[2.26759,50.69631]]]}},{"type":"Feature","properties":{"k":"PPH","s":3.659},"geometry":{"type":"Polygon","coordinates":[[[2.26446,50.69686],[2.26412,50.69663],[2.2638,50.69672],[2.26383,50.69694],[2.26308,50.69724],[2.26367,50.69757],[2.26415,50.69724],[2.26578,50.69813],[2.26637,50.69662],[2.26695,50.6963],[2.26805,50.69633],[2.26822,50.69566],[2.26647,50.69564],[2.26659,50.69591],[2.26533,50.6962],[2.26509,50.69579],[2.2646,50.69586],[2.26477,50.69613],[2.26454,50.6962],[2.26495,50.69641],[2.26446,50.69686]]]}},{"type":"Feature","properties":{"k":"BTH","s":3.899},"geometry":{"type":"Polygon","coordinates":[[[2.26711,50.69948],[2.26756,50.69629],[2.26695,50.6963],[2.26637,50.69662],[2.26578,50.69813],[2.26415,50.69724],[2.26367,50.69757],[2.26711,50.69948]]]}},{"type":"Feature","properties":{"k":"PPH","s":2.283},"geometry":{"type":"Polygon","coordinates":[[[2.26512,50.69993],[2.26551,50.69991],[2.26536,50.69865],[2.26567,50.69868],[2.2632,50.69732],[2.26209,50.69764],[2.26289,50.69776],[2.26283,50.69797],[2.26351,50.69819],[2.26512,50.69993]]]}},{"type":"Feature","properties":{"k":"BTA","s":0.036},"geometry":{"type":"Polygon","coordinates":[[[2.26839,50.69557],[2.26839,50.69553],[2.26732,50.6955],[2.26839,50.69557]]]}},{"type":"Feature","properties":{"k":"BTH","s":4.82},"geometry":{"type":"Polygon","coordinates":[[[2.26847,50.69389],[2.26496,50.69307],[2.2645,50.69429],[2.26732,50.6955],[2.26839,50.69553],[2.26847,50.69389]]]}},{"type":"Feature","properties":{"k":"MIS","s":0.42},"geometry":{"type":"Polygon","coordinates":[[[2.26523,50.6947],[2.26441,50.69442],[2.26397,50.69505],[2.26491,50.6951],[2.26523,50.6947]]]}},{"type":"Feature","properties":{"k":"PPH","s":2.516},"geometry":{"type":"Polygon","coordinates":[[[2.26383,50.69511],[2.26436,50.69434],[2.26246,50.69331],[2.26185,50.69469],[2.26282,50.69491],[2.26245,50.69558],[2.26253,50.69587],[2.26328,50.69583],[2.26333,50.69559],[2.26358,50.69551],[2.26343,50.69503],[2.26383,50.69511]],[[2.26284,50.69488],[2.26316,50.69495],[2.26283,50.6949],[2.26284,50.69488]]]}},{"type":"Feature","properties":{"k":"BTH","s":14.601},"geometry":{"type":"Polygon","coordinates":[[[2.26611,50.69225],[2.26496,50.69307],[2.27089,50.69445],[2.27111,50.69037],[2.26765,50.68954],[2.26611,50.69225]]]}},{"type":"Feature","properties":{"k":"BTH","s":0.542},"geometry":{"type":"Polygon","coordinates":[[[2.26929,50.69562],[2.26935,50.6941],[2.26894,50.694],[2.26884,50.69562],[2.26929,50.69562]]]}},{"type":"Feature","properties":{"k":"BTN","s":6.788},"geometry":{"type":"Polygon","coordinates":[[[2.2709,50.69528],[2.27108,50.69557],[2.27222,50.6955],[2.27268,50.69527],[2.2729,50.69244],[2.27272,50.69243],[2.27286,50.69078],[2.27116,50.69038],[2.2709,50.69528]]]}},{"type":"Feature","properties":{"k":"BTN","s":2.407},"geometry":{"type":"Polygon","coordinates":[[[2.27303,50.69528],[2.27343,50.69537],[2.27431,50.69526],[2.27453,50.69312],[2.27309,50.69307],[2.27303,50.69528]]]}},{"type":"Feature","properties":{"k":"OIG","s":1.159},"geometry":{"type":"Polygon","coordinates":[[[2.2755,50.69315],[2.27556,50.69257],[2.27312,50.69245],[2.27309,50.69307],[2.2755,50.69315]]]}},{"type":"Feature","properties":{"k":"BTH","s":4.002},"geometry":{"type":"Polygon","coordinates":[[[2.26799,50.68919],[2.27294,50.69042],[2.2732,50.68939],[2.26895,50.68831],[2.26799,50.68919]]]}},{"type":"Feature","properties":{"k":"MIS","s":1.639},"geometry":{"type":"Polygon","coordinates":[[[2.26765,50.68954],[2.27286,50.69077],[2.27294,50.69042],[2.26799,50.68919],[2.26765,50.68954]]]}},{"type":"Feature","properties":{"k":"BTH","s":10.249},"geometry":{"type":"Polygon","coordinates":[[[2.27419,50.686],[2.27209,50.68504],[2.2707,50.68618],[2.26964,50.68752],[2.26985,50.68761],[2.26967,50.68781],[2.26945,50.68774],[2.26895,50.68831],[2.2732,50.68939],[2.27419,50.686]]]}},{"type":"Feature","properties":{"k":"BTH","s":0.206},"geometry":{"type":"Polygon","coordinates":[[[2.27209,50.68482],[2.27395,50.68576],[2.27415,50.6857],[2.27417,50.68566],[2.2699,50.68391],[2.26952,50.6838],[2.27209,50.68482]]]}},{"type":"Feature","properties":{"k":"LIF","s":15.822},"geometry":{"type":"Polygon","coordinates":[[[2.27065,50.68608],[2.27214,50.6849],[2.26703,50.68289],[2.2652,50.68713],[2.26899,50.68814],[2.27065,50.68608]]]}},{"type":"Feature","properties":{"k":"BTH","s":10.084},"geometry":{"type":"Polygon","coordinates":[[[2.26702,50.68288],[2.26332,50.68141],[2.26226,50.68246],[2.26225,50.68277],[2.26492,50.68393],[2.26466,50.68418],[2.26379,50.68383],[2.264,50.68366],[2.26224,50.68298],[2.2616,50.68311],[2.26127,50.68371],[2.26586,50.68561],[2.26702,50.68288]]]}},{"type":"Feature","properties":{"k":"MIS","s":1.933},"geometry":{"type":"Polygon","coordinates":[[[2.26586,50.68561],[2.26112,50.68365],[2.26098,50.68412],[2.26565,50.68603],[2.26586,50.68561]]]}},{"type":"Feature","properties":{"k":"BTH","s":22.59},"geometry":{"type":"Polygon","coordinates":[[[2.26081,50.68416],[2.26063,50.6846],[2.26077,50.686],[2.26052,50.68739],[2.26058,50.68981],[2.26104,50.69087],[2.26137,50.69106],[2.26106,50.69184],[2.26079,50.69179],[2.26036,50.69251],[2.26251,50.69328],[2.26564,50.68605],[2.26081,50.68416]]]}},{"type":"Feature","properties":{"k":"PHF","s":15.697},"geometry":{"type":"Polygon","coordinates":[[[2.26252,50.69329],[2.26438,50.69431],[2.26495,50.69293],[2.26599,50.69224],[2.26763,50.68942],[2.26899,50.68814],[2.2652,50.68713],[2.26252,50.69329]]]}},{"type":"Feature","properties":{"k":"MIS","s":1.314},"geometry":{"type":"Polygon","coordinates":[[[2.25876,50.69095],[2.25765,50.69017],[2.25727,50.69129],[2.26077,50.69159],[2.25876,50.69095]]]}},{"type":"Feature","properties":{"k":"PTC","s":13.866},"geometry":{"type":"Polygon","coordinates":[[[2.25531,50.68579],[2.25706,50.68816],[2.25791,50.6902],[2.25882,50.6909],[2.2608,50.69145],[2.26091,50.6908],[2.26039,50.68988],[2.26038,50.68739],[2.25352,50.68395],[2.25531,50.68579]]]}},{"type":"Feature","properties":{"k":"LIF","s":5.002},"geometry":{"type":"Polygon","coordinates":[[[2.25415,50.68306],[2.26061,50.68633],[2.26065,50.6853],[2.25465,50.68234],[2.25415,50.68306]]]}},{"type":"Feature","properties":{"k":"BTN","s":5.0},"geometry":{"type":"Polygon","coordinates":[[[2.25465,50.68234],[2.26065,50.6853],[2.26052,50.68463],[2.26067,50.68418],[2.25522,50.68151],[2.25465,50.68234]]]}},{"type":"Feature","properties":{"k":"PHF","s":6.236},"geometry":{"type":"Polygon","coordinates":[[[2.26061,50.68633],[2.25415,50.68306],[2.25352,50.68395],[2.26038,50.68739],[2.26061,50.68633]]]}},{"type":"Feature","properties":{"k":"BTH","s":7.998},"geometry":{"type":"Polygon","coordinates":[[[2.25646,50.68745],[2.25546,50.68613],[2.25344,50.68404],[2.25243,50.68556],[2.25176,50.68742],[2.25632,50.68805],[2.25646,50.68745]]]}},{"type":"Feature","properties":{"k":"PTC","s":3.663},"geometry":{"type":"Polygon","coordinates":[[[2.25334,50.684],[2.25111,50.6834],[2.25028,50.68561],[2.25216,50.68588],[2.25334,50.684]]]}},{"type":"Feature","properties":{"k":"MIS","s":3.837},"geometry":{"type":"Polygon","coordinates":[[[2.24801,50.68291],[2.24747,50.68451],[2.24941,50.6848],[2.24953,50.68446],[2.25066,50.68462],[2.2511,50.6834],[2.24801,50.68291]]]}},{"type":"Feature","properties":{"k":"BTN","s":5.932},"geometry":{"type":"Polygon","coordinates":[[[2.25176,50.68709],[2.25216,50.68588],[2.25028,50.68561],[2.25066,50.68462],[2.24953,50.68446],[2.24917,50.68543],[2.24725,50.68512],[2.24689,50.68642],[2.25176,50.68709]]]}},{"type":"Feature","properties":{"k":"PHF","s":4.001},"geometry":{"type":"Polygon","coordinates":[[[2.24669,50.68741],[2.25145,50.68813],[2.25176,50.68709],[2.24689,50.68642],[2.24669,50.68741]]]}},{"type":"Feature","properties":{"k":"BTH","s":16.811},"geometry":{"type":"Polygon","coordinates":[[[2.25506,50.69199],[2.25688,50.69218],[2.25759,50.68994],[2.2573,50.68883],[2.25662,50.68773],[2.25588,50.68956],[2.25633,50.68805],[2.25176,50.68742],[2.25084,50.69059],[2.25535,50.69121],[2.25506,50.69199]]]}},{"type":"Feature","properties":{"k":"BTN","s":2.522},"geometry":{"type":"Polygon","coordinates":[[[2.25024,50.69225],[2.25039,50.69266],[2.25316,50.69281],[2.25332,50.69185],[2.25059,50.69147],[2.25024,50.69225]]]}},{"type":"Feature","properties":{"k":"PPH","s":1.576},"geometry":{"type":"Polygon","coordinates":[[[2.25017,50.69265],[2.25009,50.69216],[2.25044,50.69146],[2.2505,50.69134],[2.25045,50.69129],[2.2489,50.69113],[2.24866,50.69254],[2.25017,50.69265]],[[2.24926,50.69168],[2.24984,50.69155],[2.25044,50.69146],[2.24926,50.69168]],[[2.24882,50.69174],[2.2492,50.69166],[2.24921,50.69169],[2.24882,50.69174]]]}},{"type":"Feature","properties":{"k":"PPH","s":0.955},"geometry":{"type":"Polygon","coordinates":[[[2.24896,50.69325],[2.25002,50.69344],[2.25037,50.69294],[2.25014,50.69265],[2.24856,50.69254],[2.24833,50.69286],[2.24896,50.69325]]]}},{"type":"Feature","properties":{"k":"PPH","s":6.034},"geometry":{"type":"Polygon","coordinates":[[[2.25329,50.69217],[2.25315,50.69285],[2.25038,50.69272],[2.25042,50.69317],[2.24949,50.69389],[2.24952,50.69431],[2.24924,50.6943],[2.24927,50.69524],[2.25097,50.69501],[2.25186,50.69523],[2.25204,50.69471],[2.2524,50.69474],[2.2525,50.69428],[2.25223,50.69426],[2.2524,50.69325],[2.25401,50.69338],[2.25418,50.69256],[2.25488,50.69264],[2.25496,50.69233],[2.25329,50.69217]]]}},{"type":"Feature","properties":{"k":"BTN","s":9.053},"geometry":{"type":"Polygon","coordinates":[[[2.25415,50.69495],[2.25395,50.69558],[2.25514,50.69606],[2.25513,50.69638],[2.25638,50.69651],[2.25705,50.69339],[2.25671,50.69289],[2.25419,50.69256],[2.25401,50.69338],[2.25276,50.69327],[2.2524,50.69475],[2.25415,50.69495]]]}},{"type":"Feature","properties":{"k":"BTH","s":3.453},"geometry":{"type":"Polygon","coordinates":[[[2.25084,50.6906],[2.25061,50.69134],[2.25333,50.69178],[2.25329,50.69217],[2.25495,50.69233],[2.25531,50.6912],[2.25084,50.6906]]]}},{"type":"Feature","properties":{"k":"BTH","s":0.967},"geometry":{"type":"Polygon","coordinates":[[[2.25542,50.69272],[2.25671,50.69288],[2.25687,50.6922],[2.25505,50.69201],[2.25492,50.6925],[2.25542,50.69272]]]}},{"type":"Feature","properties":{"k":"BTH","s":1.742},"geometry":{"type":"Polygon","coordinates":[[[2.25998,50.69331],[2.26019,50.69254],[2.25699,50.69223],[2.25682,50.69285],[2.25998,50.69331]]]}},{"type":"Feature","properties":{"k":"MDI","s":0.202},"geometry":{"type":"Polygon","coordinates":[[[2.25698,50.6921],[2.25696,50.69218],[2.26022,50.6925],[2.25698,50.6921]]]}},{"type":"Feature","properties":{"k":"PTC","s":2.296},"geometry":{"type":"Polygon","coordinates":[[[2.26026,50.69242],[2.26077,50.69159],[2.25727,50.69129],[2.25698,50.6921],[2.26026,50.69242]]]}},{"type":"Feature","properties":{"k":"BTH","s":0.184},"geometry":{"type":"Polygon","coordinates":[[[2.26132,50.6911],[2.261,50.69091],[2.26078,50.69178],[2.26103,50.69183],[2.26132,50.6911]]]}},{"type":"Feature","properties":{"k":"CPL","s":1.028},"geometry":{"type":"Polygon","coordinates":[[[2.26114,50.6947],[2.26179,50.69476],[2.26246,50.69331],[2.26032,50.69254],[2.26026,50.69265],[2.26178,50.6932],[2.26114,50.6947]]]}},{"type":"Feature","properties":{"k":"BTH","s":2.031},"geometry":{"type":"Polygon","coordinates":[[[2.25996,50.69459],[2.26114,50.6947],[2.26178,50.6932],[2.26026,50.69265],[2.25996,50.69459]]]}},{"type":"Feature","properties":{"k":"PHF","s":2.709},"geometry":{"type":"Polygon","coordinates":[[[2.2599,50.6937],[2.2571,50.69336],[2.25687,50.69454],[2.25975,50.69487],[2.2599,50.6937]]]}},{"type":"Feature","properties":{"k":"PHF","s":1.002},"geometry":{"type":"Polygon","coordinates":[[[2.2571,50.69336],[2.2599,50.6937],[2.25995,50.69335],[2.25929,50.69322],[2.25677,50.69288],[2.2571,50.69336]]]}},{"type":"Feature","properties":{"k":"PPH","s":4.021},"geometry":{"type":"Polygon","coordinates":[[[2.25653,50.69613],[2.25828,50.69623],[2.25848,50.69677],[2.25924,50.69705],[2.25989,50.69686],[2.2596,50.69638],[2.26041,50.69627],[2.26023,50.69562],[2.25989,50.69527],[2.25731,50.695],[2.2574,50.6946],[2.25687,50.69454],[2.25653,50.69613]]]}},{"type":"Feature","properties":{"k":"PPH","s":1.624},"geometry":{"type":"Polygon","coordinates":[[[2.26173,50.69521],[2.25996,50.69507],[2.2604,50.6958],[2.26161,50.69589],[2.26158,50.69606],[2.26253,50.69587],[2.26245,50.69558],[2.26284,50.6949],[2.26187,50.6947],[2.26173,50.69521]]]}},{"type":"Feature","properties":{"k":"MIS","s":2.114},"geometry":{"type":"Polygon","coordinates":[[[2.25439,50.69875],[2.2562,50.69874],[2.25606,50.69797],[2.25561,50.69804],[2.2555,50.69752],[2.25343,50.69766],[2.25339,50.69854],[2.25439,50.69875]]]}},{"type":"Feature","properties":{"k":"MIS","s":0.521},"geometry":{"type":"Polygon","coordinates":[[[2.25265,50.69848],[2.25273,50.69766],[2.25205,50.69753],[2.25162,50.69807],[2.25265,50.69848]]]}},{"type":"Feature","properties":{"k":"PPH","s":0.293},"geometry":{"type":"Polygon","coordinates":[[[2.24395,50.69506],[2.24383,50.69503],[2.24389,50.69527],[2.24529,50.69569],[2.24544,50.69547],[2.24395,50.69506]]]}},{"type":"Feature","properties":{"k":"LIF","s":1.99},"geometry":{"type":"Polygon","coordinates":[[[2.24879,50.69176],[2.24889,50.69114],[2.24596,50.69078],[2.24582,50.69179],[2.24879,50.69176]]]}},{"type":"Feature","properties":{"k":"LIF","s":1.298},"geometry":{"type":"Polygon","coordinates":[[[2.24869,50.69234],[2.24879,50.69176],[2.24574,50.69178],[2.24562,50.69235],[2.24869,50.69234]]]}},{"type":"Feature","properties":{"k":"PHF","s":5.018},"geometry":{"type":"Polygon","coordinates":[[[2.24423,50.69258],[2.24525,50.69282],[2.2458,50.69076],[2.24395,50.68976],[2.24229,50.69257],[2.24423,50.69258]]]}},{"type":"Feature","properties":{"k":"PPH","s":3.516},"geometry":{"type":"Polygon","coordinates":[[[2.24312,50.69403],[2.24308,50.69438],[2.24331,50.69445],[2.24319,50.69488],[2.24351,50.69498],[2.24422,50.69479],[2.24464,50.69447],[2.24524,50.69285],[2.24453,50.69263],[2.24339,50.69256],[2.24325,50.69334],[2.24162,50.69328],[2.24156,50.69339],[2.2422,50.6936],[2.24227,50.69391],[2.24312,50.69403]]]}},{"type":"Feature","properties":{"k":"PPH","s":2.951},"geometry":{"type":"Polygon","coordinates":[[[2.23999,50.69293],[2.23961,50.69393],[2.23838,50.69377],[2.23819,50.6943],[2.23989,50.69447],[2.24095,50.69483],[2.24097,50.69464],[2.24156,50.69479],[2.24188,50.6942],[2.24217,50.69425],[2.24217,50.69369],[2.241,50.69341],[2.23999,50.69293]]]}},{"type":"Feature","properties":{"k":"BTN","s":1.107},"geometry":{"type":"Polygon","coordinates":[[[2.2433,50.69298],[2.24337,50.69256],[2.23973,50.69272],[2.24034,50.69308],[2.2433,50.69298]]]}},{"type":"Feature","properties":{"k":"JAC","s":0.649},"geometry":{"type":"Polygon","coordinates":[[[2.24323,50.69332],[2.2433,50.69298],[2.24034,50.69308],[2.24097,50.69332],[2.24323,50.69332]]]}},{"type":"Feature","properties":{"k":"PTC","s":6.174},"geometry":{"type":"Polygon","coordinates":[[[2.23712,50.6909],[2.23605,50.69192],[2.2393,50.69261],[2.24071,50.69023],[2.23784,50.68967],[2.23712,50.6909]]]}},{"type":"Feature","properties":{"k":"MIS","s":3.776},"geometry":{"type":"Polygon","coordinates":[[[2.23838,50.69377],[2.23961,50.69393],[2.23999,50.69293],[2.23702,50.69223],[2.23639,50.69402],[2.23814,50.69429],[2.23838,50.69377]]]}},{"type":"Feature","properties":{"k":"PPH","s":1.576},"geometry":{"type":"Polygon","coordinates":[[[2.23324,50.69743],[2.23363,50.69699],[2.23467,50.69668],[2.23622,50.69645],[2.23667,50.69678],[2.23705,50.6965],[2.23679,50.69637],[2.237,50.69613],[2.23685,50.6959],[2.23615,50.69613],[2.23353,50.69653],[2.23242,50.69736],[2.2325,50.69746],[2.23324,50.69743]]]}},{"type":"Feature","properties":{"k":"ORP","s":2.494},"geometry":{"type":"Polygon","coordinates":[[[2.23364,50.69648],[2.23673,50.69586],[2.23707,50.69524],[2.23503,50.69487],[2.23391,50.69577],[2.23364,50.69648]]]}},{"type":"Feature","properties":{"k":"PHF","s":5.992},"geometry":{"type":"Polygon","coordinates":[[[2.23198,50.69654],[2.23232,50.69722],[2.23358,50.69624],[2.23367,50.69579],[2.23311,50.6955],[2.23402,50.69453],[2.23199,50.69371],[2.22975,50.6954],[2.23198,50.69654]]]}},{"type":"Feature","properties":{"k":"BTH","s":0.804},"geometry":{"type":"Polygon","coordinates":[[[2.2306,50.69588],[2.22898,50.69715],[2.22945,50.69739],[2.2311,50.69612],[2.2306,50.69588]]]}},{"type":"Feature","properties":{"k":"PPH","s":2.375},"geometry":{"type":"Polygon","coordinates":[[[2.22947,50.6974],[2.2311,50.69823],[2.23213,50.69734],[2.23197,50.69669],[2.23112,50.69613],[2.22947,50.6974]]]}},{"type":"Feature","properties":{"k":"BTH","s":0.087},"geometry":{"type":"Polygon","coordinates":[[[2.2264,50.69582],[2.22562,50.69542],[2.22771,50.69651],[2.2264,50.69582]]]}},{"type":"Feature","properties":{"k":"BTH","s":2.403},"geometry":{"type":"Polygon","coordinates":[[[2.2293,50.69524],[2.22733,50.69422],[2.22603,50.69501],[2.22819,50.69613],[2.2293,50.69524]]]}},{"type":"Feature","properties":{"k":"BTN","s":0.979},"geometry":{"type":"Polygon","coordinates":[[[2.22778,50.69645],[2.22817,50.69614],[2.22603,50.695],[2.22558,50.69531],[2.22778,50.69645]]]}},{"type":"Feature","properties":{"k":"BTH","s":2.084},"geometry":{"type":"Polygon","coordinates":[[[2.22931,50.69525],[2.22771,50.69651],[2.22897,50.69715],[2.23059,50.69588],[2.22931,50.69525]]]}},{"type":"Feature","properties":{"k":"BTH","s":4.403},"geometry":{"type":"Polygon","coordinates":[[[2.22904,50.69308],[2.2274,50.69418],[2.22975,50.6954],[2.23199,50.69371],[2.22904,50.69308]]]}},{"type":"Feature","properties":{"k":"CAR","s":2.774},"geometry":{"type":"Polygon","coordinates":[[[2.22695,50.69247],[2.22393,50.69471],[2.22464,50.69517],[2.22819,50.69281],[2.22695,50.69247]]]}},{"type":"Feature","properties":{"k":"MIS","s":2.786},"geometry":{"type":"Polygon","coordinates":[[[2.22313,50.6942],[2.22393,50.69471],[2.22695,50.69248],[2.22566,50.69216],[2.22313,50.6942]]]}},{"type":"Feature","properties":{"k":"BTN","s":1.905},"geometry":{"type":"Polygon","coordinates":[[[2.22312,50.69412],[2.22567,50.69206],[2.22459,50.69195],[2.22239,50.69371],[2.22312,50.69412]]]}},{"type":"Feature","properties":{"k":"BTN","s":1.017},"geometry":{"type":"Polygon","coordinates":[[[2.22584,50.69201],[2.22674,50.69094],[2.2265,50.69032],[2.22484,50.69185],[2.22584,50.69201]]]}},{"type":"Feature","properties":{"k":"BTN","s":0.605},"geometry":{"type":"Polygon","coordinates":[[[2.22659,50.69225],[2.22704,50.69173],[2.22674,50.69094],[2.22584,50.69201],[2.22659,50.69225]]]}},{"type":"Feature","properties":{"k":"ORH","s":0.6},"geometry":{"type":"Polygon","coordinates":[[[2.22828,50.69142],[2.22679,50.69085],[2.22729,50.69205],[2.22828,50.69142]]]}},{"type":"Feature","properties":{"k":"PHF","s":3.046},"geometry":{"type":"Polygon","coordinates":[[[2.22828,50.69271],[2.23025,50.69142],[2.23114,50.69061],[2.23015,50.69019],[2.22729,50.69205],[2.22745,50.69244],[2.22828,50.69271]]]}},{"type":"Feature","properties":{"k":"BTH","s":7.643},"geometry":{"type":"Polygon","coordinates":[[[2.23345,50.69169],[2.23514,50.69211],[2.2351,50.69171],[2.23493,50.69149],[2.23444,50.69135],[2.23187,50.69092],[2.22914,50.69293],[2.23183,50.69357],[2.23379,50.69434],[2.23345,50.69169]]]}},{"type":"Feature","properties":{"k":"MIS","s":1.208},"geometry":{"type":"Polygon","coordinates":[[[2.23517,50.6937],[2.23514,50.69271],[2.23354,50.69233],[2.23368,50.69339],[2.23517,50.6937]]]}},{"type":"Feature","properties":{"k":"PTC","s":1.013},"geometry":{"type":"Polygon","coordinates":[[[2.23515,50.69371],[2.23371,50.69342],[2.23381,50.69435],[2.23482,50.69468],[2.23515,50.69371]]]}},{"type":"Feature","properties":{"k":"BTH","s":1.957},"geometry":{"type":"Polygon","coordinates":[[[2.23538,50.69386],[2.23639,50.69402],[2.23702,50.69223],[2.23604,50.69202],[2.23535,50.69241],[2.23538,50.69386]]]}},{"type":"Feature","properties":{"k":"ORH","s":0.498},"geometry":{"type":"Polygon","coordinates":[[[2.23506,50.6923],[2.23349,50.69199],[2.23354,50.69233],[2.23516,50.69271],[2.23506,50.6923]]]}},{"type":"Feature","properties":{"k":"BTH","s":3.005},"geometry":{"type":"Polygon","coordinates":[[[2.23505,50.69143],[2.23466,50.68999],[2.23396,50.68898],[2.23189,50.69091],[2.23505,50.69143]]]}},{"type":"Feature","properties":{"k":"PTC","s":0.844},"geometry":{"type":"Polygon","coordinates":[[[2.23265,50.68621],[2.23116,50.68741],[2.23189,50.68774],[2.23271,50.68693],[2.23265,50.68621]]]}},{"type":"Feature","properties":{"k":"BTH","s":4.858},"geometry":{"type":"Polygon","coordinates":[[[2.23302,50.68743],[2.23269,50.68707],[2.23189,50.68774],[2.23062,50.68717],[2.22803,50.68931],[2.22984,50.69001],[2.23302,50.68743]]]}},{"type":"Feature","properties":{"k":"PTC","s":3.69},"geometry":{"type":"Polygon","coordinates":[[[2.22984,50.69001],[2.23117,50.69054],[2.23371,50.68852],[2.23302,50.68743],[2.22984,50.69001]]]}},{"type":"Feature","properties":{"k":"BTH","s":4.192},"geometry":{"type":"Polygon","coordinates":[[[2.22679,50.69085],[2.22828,50.69142],[2.23012,50.6902],[2.22634,50.68873],[2.22618,50.68885],[2.22679,50.69085]]]}},{"type":"Feature","properties":{"k":"PTC","s":2.652},"geometry":{"type":"Polygon","coordinates":[[[2.22552,50.68802],[2.22599,50.68851],[2.22634,50.68864],[2.22904,50.68644],[2.22805,50.686],[2.22552,50.68802]]]}},{"type":"Feature","properties":{"k":"BTH","s":2.892},"geometry":{"type":"Polygon","coordinates":[[[2.22904,50.68644],[2.22633,50.68865],[2.22747,50.68909],[2.2301,50.68694],[2.22904,50.68644]]]}},{"type":"Feature","properties":{"k":"PTC","s":1.347},"geometry":{"type":"Polygon","coordinates":[[[2.23062,50.68717],[2.2301,50.68694],[2.22748,50.68909],[2.22803,50.68931],[2.23062,50.68717]]]}},{"type":"Feature","properties":{"k":"PPH","s":4.291},"geometry":{"type":"Polygon","coordinates":[[[2.23264,50.68621],[2.23267,50.68558],[2.23212,50.68507],[2.23127,50.68591],[2.22873,50.68474],[2.22753,50.68571],[2.23004,50.68691],[2.23099,50.68611],[2.2321,50.68665],[2.23264,50.68621]]]}},{"type":"Feature","properties":{"k":"PPH","s":0.002},"geometry":{"type":"Polygon","coordinates":[[[2.22681,50.68535],[2.22728,50.68558],[2.2269,50.68538],[2.22681,50.68535]]]}},{"type":"Feature","properties":{"k":"MLG","s":0.039},"geometry":{"type":"Polygon","coordinates":[[[2.22947,50.6842],[2.22957,50.68392],[2.22944,50.68416],[2.22848,50.68399],[2.22833,50.68434],[2.2285,50.68402],[2.22947,50.6842]]]}},{"type":"Feature","properties":{"k":"BTH","s":2.46},"geometry":{"type":"Polygon","coordinates":[[[2.22872,50.68473],[2.23053,50.68557],[2.23184,50.68454],[2.22957,50.68392],[2.22947,50.6842],[2.2285,50.68402],[2.22833,50.68434],[2.22885,50.6845],[2.22872,50.68473]]]}},{"type":"Feature","properties":{"k":"PPH","s":0.016},"geometry":{"type":"Polygon","coordinates":[[[2.22865,50.68359],[2.22859,50.68363],[2.2292,50.6837],[2.22865,50.68359]]]}},{"type":"Feature","properties":{"k":"PPH","s":0.64},"geometry":{"type":"Polygon","coordinates":[[[2.23164,50.68474],[2.23054,50.68557],[2.23128,50.68591],[2.23212,50.68507],[2.23164,50.68474]]]}},{"type":"Feature","properties":{"k":"AVH","s":1.068},"geometry":{"type":"Polygon","coordinates":[[[2.23004,50.68691],[2.23116,50.68741],[2.23209,50.68665],[2.23099,50.68611],[2.23004,50.68691]]]}},{"type":"Feature","properties":{"k":"PPR","s":7.312},"geometry":{"type":"Polygon","coordinates":[[[2.23455,50.68586],[2.2328,50.68556],[2.23319,50.68715],[2.23352,50.6875],[2.2346,50.68773],[2.23807,50.68438],[2.23534,50.68388],[2.23455,50.68586]]]}},{"type":"Feature","properties":{"k":"PPH","s":5.434},"geometry":{"type":"Polygon","coordinates":[[[2.23384,50.68221],[2.23417,50.68376],[2.23463,50.68423],[2.23511,50.68438],[2.23498,50.68465],[2.23411,50.68377],[2.23393,50.68335],[2.23356,50.68335],[2.23349,50.68383],[2.23328,50.68416],[2.23307,50.68411],[2.23287,50.68454],[2.23259,50.68455],[2.23241,50.68431],[2.23189,50.68476],[2.2328,50.68556],[2.23455,50.68586],[2.23574,50.68317],[2.23531,50.68308],[2.23546,50.68239],[2.23384,50.68221]]]}},{"type":"Feature","properties":{"k":"BTN","s":2.443},"geometry":{"type":"Polygon","coordinates":[[[2.23787,50.68435],[2.24018,50.682],[2.23903,50.68179],[2.23676,50.68414],[2.23787,50.68435]]]}},{"type":"Feature","properties":{"k":"MIS","s":0.436},"geometry":{"type":"Polygon","coordinates":[[[2.2403,50.68211],[2.24038,50.68204],[2.24018,50.682],[2.23787,50.68435],[2.23807,50.68438],[2.2403,50.68211]]]}},{"type":"Feature","properties":{"k":"BTH","s":7.853},"geometry":{"type":"Polygon","coordinates":[[[2.24455,50.68462],[2.23965,50.68366],[2.23801,50.68525],[2.24377,50.68632],[2.24455,50.68462]]]}},{"type":"Feature","properties":{"k":"BTH","s":5.378},"geometry":{"type":"Polygon","coordinates":[[[2.23801,50.68525],[2.23734,50.68591],[2.24649,50.68757],[2.24665,50.68684],[2.23801,50.68525]]]}},{"type":"Feature","properties":{"k":"BTH","s":9.393},"geometry":{"type":"Polygon","coordinates":[[[2.23537,50.68783],[2.23552,50.68813],[2.23494,50.68871],[2.23474,50.68922],[2.23523,50.69039],[2.23536,50.69166],[2.23594,50.69189],[2.23695,50.69087],[2.23826,50.68847],[2.23928,50.68733],[2.23643,50.6868],[2.23537,50.68783]]]}},{"type":"Feature","properties":{"k":"BTN","s":10.586},"geometry":{"type":"Polygon","coordinates":[[[2.24211,50.6879],[2.23934,50.69262],[2.23979,50.69272],[2.24225,50.69257],[2.24413,50.68929],[2.24464,50.68938],[2.24514,50.68846],[2.24211,50.6879]]]}},{"type":"Feature","properties":{"k":"BTH","s":5.997},"geometry":{"type":"Polygon","coordinates":[[[2.23784,50.68967],[2.24071,50.69023],[2.24209,50.68791],[2.23929,50.68741],[2.23828,50.68858],[2.23784,50.68967]]]}},{"type":"Feature","properties":{"k":"BTH","s":6.996},"geometry":{"type":"Polygon","coordinates":[[[2.24649,50.68757],[2.23734,50.68591],[2.23643,50.6868],[2.23925,50.68732],[2.23936,50.68714],[2.24628,50.68845],[2.24649,50.68757]]]}},{"type":"Feature","properties":{"k":"AVP","s":1.003},"geometry":{"type":"Polygon","coordinates":[[[2.23925,50.68732],[2.24602,50.68857],[2.24628,50.68847],[2.23936,50.68714],[2.23925,50.68732]]]}},{"type":"Feature","properties":{"k":"ORH","s":1.029},"geometry":{"type":"Polygon","coordinates":[[[2.24612,50.68965],[2.24618,50.6887],[2.24514,50.68846],[2.24464,50.68938],[2.24612,50.68965]]]}},{"type":"Feature","properties":{"k":"BTH","s":7.494},"geometry":{"type":"Polygon","coordinates":[[[2.24653,50.68823],[2.24599,50.69071],[2.24974,50.69116],[2.25045,50.68884],[2.24653,50.68823]]]}},{"type":"Feature","properties":{"k":"PHF","s":3.194},"geometry":{"type":"Polygon","coordinates":[[[2.25145,50.68813],[2.24669,50.68741],[2.24653,50.68823],[2.25127,50.68894],[2.25145,50.68813]]]}},{"type":"Feature","properties":{"k":"LIF","s":5.173},"geometry":{"type":"Polygon","coordinates":[[[2.24383,50.68633],[2.24665,50.68685],[2.24733,50.68444],[2.2449,50.68402],[2.24383,50.68633]]]}},{"type":"Feature","properties":{"k":"PTC","s":3.916},"geometry":{"type":"Polygon","coordinates":[[[2.24332,50.68215],[2.24235,50.68419],[2.24455,50.68462],[2.24548,50.68256],[2.24332,50.68215]]]}},{"type":"Feature","properties":{"k":"BTH","s":0.65},"geometry":{"type":"Polygon","coordinates":[[[2.24587,50.6837],[2.24636,50.68267],[2.24561,50.68256],[2.24513,50.68355],[2.24587,50.6837]]]}},{"type":"Feature","properties":{"k":"BTN","s":0.486},"geometry":{"type":"Polygon","coordinates":[[[2.24691,50.68277],[2.24636,50.68267],[2.24587,50.6837],[2.24641,50.68381],[2.24691,50.68277]]]}},{"type":"Feature","properties":{"k":"BTH","s":0.959},"geometry":{"type":"Polygon","coordinates":[[[2.24787,50.68292],[2.24691,50.68277],[2.24641,50.68382],[2.2475,50.68403],[2.24787,50.68292]]]}},{"type":"Feature","properties":{"k":"MIS","s":0.901},"geometry":{"type":"Polygon","coordinates":[[[2.24513,50.68355],[2.24491,50.68402],[2.24735,50.68444],[2.2475,50.68403],[2.24513,50.68355]]]}},{"type":"Feature","properties":{"k":"MIS","s":0.763},"geometry":{"type":"Polygon","coordinates":[[[2.24725,50.68512],[2.24876,50.68535],[2.24898,50.68474],[2.24747,50.68453],[2.24725,50.68512]]]}},{"type":"Feature","properties":{"k":"BTH","s":5.401},"geometry":{"type":"Polygon","coordinates":[[[2.24303,50.68195],[2.24752,50.68282],[2.24763,50.68251],[2.24794,50.68256],[2.24847,50.68144],[2.24421,50.68067],[2.24303,50.68195]]]}},{"type":"Feature","properties":{"k":"BTH","s":6.609},"geometry":{"type":"Polygon","coordinates":[[[2.24887,50.67989],[2.24413,50.67904],[2.244,50.67918],[2.24424,50.67927],[2.24369,50.6798],[2.24346,50.67972],[2.24277,50.68042],[2.24847,50.68144],[2.24887,50.67989]]]}},{"type":"Feature","properties":{"k":"PHF","s":2.644},"geometry":{"type":"Polygon","coordinates":[[[2.24895,50.67977],[2.24924,50.67856],[2.24904,50.6785],[2.24921,50.67837],[2.24856,50.67744],[2.24667,50.67944],[2.24895,50.67977]]]}},{"type":"Feature","properties":{"k":"BTH","s":0.329},"geometry":{"type":"MultiPolygon","coordinates":[[[[2.24846,50.67733],[2.24645,50.6794],[2.24666,50.67944],[2.24846,50.67733]]],[[[2.24479,50.67911],[2.24418,50.679],[2.24417,50.67901],[2.24479,50.67911]]]]}},{"type":"Feature","properties":{"k":"BTH","s":1.916},"geometry":{"type":"Polygon","coordinates":[[[2.24159,50.6795],[2.24247,50.67953],[2.24407,50.67817],[2.2417,50.67809],[2.24159,50.6795]]]}},{"type":"Feature","properties":{"k":"MIS","s":0.05},"geometry":{"type":"Polygon","coordinates":[[[2.24157,50.67803],[2.23705,50.67788],[2.23913,50.67797],[2.24157,50.67803]]]}},{"type":"Feature","properties":{"k":"PPH","s":0.228},"geometry":{"type":"Polygon","coordinates":[[[2.23162,50.68119],[2.23124,50.68114],[2.2309,50.68193],[2.23119,50.68199],[2.23162,50.68119]]]}},{"type":"Feature","properties":{"k":"PPH","s":0.535},"geometry":{"type":"Polygon","coordinates":[[[2.23284,50.6829],[2.23382,50.6829],[2.23374,50.68257],[2.2329,50.68207],[2.23284,50.6829]]]}},{"type":"Feature","properties":{"k":"PTC","s":4.936},"geometry":{"type":"Polygon","coordinates":[[[2.23051,50.68401],[2.23194,50.6845],[2.23242,50.68413],[2.23274,50.68324],[2.23262,50.68229],[2.2309,50.68193],[2.23127,50.68083],[2.23148,50.68077],[2.23111,50.68071],[2.23065,50.68173],[2.2308,50.68266],[2.2295,50.68261],[2.22919,50.68383],[2.23051,50.68401]]]}},{"type":"Feature","properties":{"k":"BTH","s":0.003},"geometry":{"type":"Polygon","coordinates":[[[2.22312,50.6942],[2.22375,50.6946],[2.22313,50.6942],[2.22312,50.6942]]]}},{"type":"Feature","properties":{"k":"PHF","s":3.436},"geometry":{"type":"Polygon","coordinates":[[[2.23713,50.68134],[2.23742,50.67789],[2.23616,50.67784],[2.23597,50.68133],[2.23713,50.68134]]]}},{"type":"Feature","properties":{"k":"BTN","s":0.001},"geometry":{"type":"Polygon","coordinates":[[[2.24945,50.67825],[2.24947,50.67822],[2.24937,50.67828],[2.24945,50.67825]]]}},{"type":"Feature","properties":{"k":"MIS","s":0.797},"geometry":{"type":"Polygon","coordinates":[[[2.24917,50.67939],[2.24908,50.67969],[2.2523,50.68021],[2.25244,50.67993],[2.24917,50.67939]]]}},{"type":"Feature","properties":{"k":"BTH","s":7.212},"geometry":{"type":"Polygon","coordinates":[[[2.24943,50.6815],[2.25041,50.68171],[2.25022,50.68206],[2.2492,50.68184],[2.24932,50.68168],[2.24856,50.68153],[2.24804,50.68283],[2.25073,50.68325],[2.2523,50.68021],[2.24908,50.67969],[2.24857,50.68151],[2.24933,50.68164],[2.24943,50.6815]]]}},{"type":"Feature","properties":{"k":"BTN","s":7.97},"geometry":{"type":"Polygon","coordinates":[[[2.25243,50.67995],[2.25072,50.68325],[2.25324,50.6839],[2.25352,50.68384],[2.2553,50.68128],[2.25243,50.67995]]]}},{"type":"Feature","properties":{"k":"ORH","s":2.377},"geometry":{"type":"Polygon","coordinates":[[[2.2533,50.68037],[2.25529,50.68128],[2.25576,50.68045],[2.25286,50.67912],[2.25243,50.67995],[2.2533,50.68037]]]}},{"type":"Feature","properties":{"k":"CPL","s":4.466},"geometry":{"type":"Polygon","coordinates":[[[2.25913,50.67985],[2.25681,50.67872],[2.25568,50.68076],[2.25747,50.68167],[2.25896,50.68047],[2.25861,50.68027],[2.25913,50.67985]]]}},{"type":"Feature","properties":{"k":"PTC","s":3.997},"geometry":{"type":"Polygon","coordinates":[[[2.26113,50.6835],[2.25567,50.68076],[2.25522,50.68151],[2.26067,50.68418],[2.26113,50.6835]]]}},{"type":"Feature","properties":{"k":"PHF","s":7.31},"geometry":{"type":"Polygon","coordinates":[[[2.25747,50.68167],[2.26113,50.6835],[2.26266,50.68197],[2.26261,50.68161],[2.25948,50.68007],[2.25747,50.68167]]]}},{"type":"Feature","properties":{"k":"EPE","s":0.236},"geometry":{"type":"Polygon","coordinates":[[[2.26014,50.67966],[2.25968,50.67942],[2.25918,50.67982],[2.25963,50.68005],[2.26014,50.67966]]]}},{"type":"Feature","properties":{"k":"MIS","s":1.622},"geometry":{"type":"Polygon","coordinates":[[[2.26137,50.67935],[2.25986,50.6786],[2.25865,50.67956],[2.25918,50.67982],[2.25968,50.67942],[2.26014,50.67966],[2.25963,50.68005],[2.26015,50.68031],[2.26137,50.67935]]]}},{"type":"Feature","properties":{"k":"PTC","s":1.361},"geometry":{"type":"Polygon","coordinates":[[[2.26245,50.67989],[2.26137,50.67935],[2.26014,50.68032],[2.26123,50.68087],[2.26245,50.67989]]]}},{"type":"Feature","properties":{"k":"LIF","s":3.975},"geometry":{"type":"Polygon","coordinates":[[[2.25681,50.67863],[2.25865,50.67956],[2.25986,50.6786],[2.25896,50.67816],[2.25957,50.67764],[2.25743,50.67659],[2.25681,50.67863]]]}},{"type":"Feature","properties":{"k":"BTH","s":1.325},"geometry":{"type":"Polygon","coordinates":[[[2.26319,50.68135],[2.26395,50.68064],[2.26245,50.67989],[2.26161,50.68056],[2.26319,50.68135]]]}},{"type":"Feature","properties":{"k":"PHF","s":0.632},"geometry":{"type":"Polygon","coordinates":[[[2.26123,50.68086],[2.26294,50.68167],[2.26321,50.68137],[2.26162,50.68056],[2.26123,50.68086]]]}},{"type":"Feature","properties":{"k":"MIS","s":0.0},"geometry":{"type":"Polygon","coordinates":[[[2.23476,50.67796],[2.23486,50.67797],[2.23486,50.67796],[2.23476,50.67796]]]}},{"type":"Feature","properties":{"k":"ORH","s":0.009},"geometry":{"type":"Polygon","coordinates":[[[2.23705,50.67788],[2.23705,50.67786],[2.23617,50.67782],[2.23705,50.67788]]]}},{"type":"Feature","properties":{"k":"MIS","s":0.006},"geometry":{"type":"Polygon","coordinates":[[[2.23616,50.67784],[2.23617,50.67782],[2.23562,50.6778],[2.23616,50.67784]]]}},{"type":"Feature","properties":{"k":"BTH","s":0.003},"geometry":{"type":"Polygon","coordinates":[]}},{"type":"Feature","properties":{"k":"MIS","s":1.899},"geometry":{"type":"Polygon","coordinates":[[[2.24303,50.68195],[2.24421,50.68067],[2.2427,50.68041],[2.24136,50.68186],[2.24303,50.68195]]]}},{"type":"Feature","properties":{"k":"CZH","s":0.201},"geometry":{"type":"Polygon","coordinates":[[[2.23781,50.68128],[2.23711,50.68145],[2.23802,50.68158],[2.23875,50.68093],[2.23781,50.68128]]]}},{"type":"Feature","properties":{"k":"JAC","s":0.117},"geometry":{"type":"Polygon","coordinates":[[[2.23383,50.6822],[2.23341,50.68214],[2.23349,50.68175],[2.23325,50.68219],[2.23374,50.68256],[2.23383,50.6822]]]}},{"type":"Feature","properties":{"k":"MIS","s":1.26},"geometry":{"type":"Polygon","coordinates":[[[2.23547,50.68236],[2.23611,50.6814],[2.23349,50.68175],[2.23341,50.68213],[2.23547,50.68236]]]}},{"type":"Feature","properties":{"k":"PHF","s":4.284},"geometry":{"type":"Polygon","coordinates":[[[2.23887,50.68079],[2.23913,50.67797],[2.23742,50.67789],[2.23713,50.68134],[2.23887,50.68079]]]}},{"type":"Feature","properties":{"k":"CZH","s":4.193},"geometry":{"type":"Polygon","coordinates":[[[2.23987,50.6802],[2.24137,50.67977],[2.24156,50.67808],[2.23913,50.67797],[2.23887,50.68079],[2.23987,50.6802]]]}},{"type":"Feature","properties":{"k":"BTH","s":3.118},"geometry":{"type":"Polygon","coordinates":[[[2.23842,50.68141],[2.2382,50.68159],[2.24061,50.68184],[2.24215,50.68024],[2.2402,50.6802],[2.23819,50.68135],[2.23842,50.68141]]]}},{"type":"Feature","properties":{"k":"BTH","s":3.792},"geometry":{"type":"Polygon","coordinates":[[[2.23588,50.68133],[2.23616,50.67784],[2.23523,50.67778],[2.23515,50.67798],[2.23487,50.67796],[2.23468,50.68038],[2.2349,50.68041],[2.23457,50.68125],[2.23381,50.68119],[2.23376,50.68164],[2.23588,50.68133]]]}},{"type":"Feature","properties":{"k":"PPH","s":3.179},"geometry":{"type":"Polygon","coordinates":[[[2.25694,50.70156],[2.25769,50.70053],[2.25939,50.69975],[2.25931,50.69886],[2.25866,50.69923],[2.25879,50.69941],[2.25716,50.70008],[2.25607,50.69992],[2.25526,50.70129],[2.25694,50.70156]]]}},{"type":"Feature","properties":{"k":"PPH","s":5.152},"geometry":{"type":"Polygon","coordinates":[[[2.25621,50.69882],[2.25486,50.69881],[2.25459,50.69928],[2.25394,50.69922],[2.25387,50.69984],[2.25398,50.70008],[2.25577,50.70042],[2.25607,50.69992],[2.25716,50.70008],[2.25851,50.69946],[2.25842,50.69936],[2.25931,50.69886],[2.25945,50.69896],[2.25981,50.69882],[2.25959,50.69867],[2.25855,50.69913],[2.25849,50.69874],[2.25876,50.69859],[2.25771,50.699],[2.25739,50.69847],[2.25704,50.69861],[2.25666,50.6978],[2.2564,50.69786],[2.25616,50.69735],[2.25594,50.69741],[2.25621,50.69882]]]}},{"type":"Feature","properties":{"k":"PPH","s":3.578},"geometry":{"type":"Polygon","coordinates":[[[2.26392,50.70103],[2.26379,50.70236],[2.26456,50.70205],[2.2654,50.70134],[2.26553,50.70036],[2.26408,50.70034],[2.26399,50.70004],[2.26524,50.69999],[2.26351,50.69819],[2.26331,50.69855],[2.26287,50.69852],[2.26281,50.69873],[2.26347,50.69943],[2.26392,50.70103]]]}},{"type":"Feature","properties":{"k":"PPH","s":4.603},"geometry":{"type":"Polygon","coordinates":[[[2.26365,50.6997],[2.26281,50.69873],[2.26166,50.69929],[2.26189,50.69951],[2.26127,50.69956],[2.26113,50.69985],[2.26129,50.70035],[2.26303,50.70048],[2.26292,50.70081],[2.26216,50.70073],[2.26214,50.70088],[2.26205,50.70185],[2.26283,50.70195],[2.26283,50.70241],[2.26379,50.70236],[2.26392,50.70118],[2.26365,50.6997]]]}},{"type":"Feature","properties":{"k":"MDI","s":0.006},"geometry":{"type":"Polygon","coordinates":[[[2.26187,50.70154],[2.26204,50.70154],[2.26204,50.7015],[2.26187,50.70154]]]}},{"type":"Feature","properties":{"k":"PPH","s":1.524},"geometry":{"type":"Polygon","coordinates":[[[2.23468,50.67795],[2.23395,50.67961],[2.23327,50.67953],[2.23316,50.67982],[2.23293,50.67978],[2.2329,50.68012],[2.23468,50.68038],[2.23487,50.67796],[2.23468,50.67795]]]}},{"type":"Feature","properties":{"k":"MIS","s":1.116},"geometry":{"type":"Polygon","coordinates":[[[2.23284,50.68089],[2.23459,50.68113],[2.23487,50.68041],[2.23289,50.68013],[2.23284,50.68089]]]}},{"type":"Feature","properties":{"k":"MIS","s":0.655},"geometry":{"type":"Polygon","coordinates":[[[2.23271,50.68098],[2.23269,50.68052],[2.23182,50.68024],[2.23195,50.67966],[2.23145,50.68041],[2.2311,50.6805],[2.23111,50.68071],[2.23271,50.68098]]]}},{"type":"Feature","properties":{"k":"PTC","s":2.843},"geometry":{"type":"Polygon","coordinates":[[[2.2656,50.70034],[2.26546,50.70131],[2.26686,50.70147],[2.26711,50.69948],[2.26536,50.69865],[2.2656,50.70034]]]}},{"type":"Feature","properties":{"k":"PPH","s":0.0},"geometry":{"type":"Polygon","coordinates":[]}},{"type":"Feature","properties":{"k":"PHF","s":0.654},"geometry":{"type":"MultiPolygon","coordinates":[[[[2.25356,50.67668],[2.2535,50.67676],[2.25352,50.67677],[2.25356,50.67668]]],[[[2.25718,50.67714],[2.25733,50.67654],[2.25662,50.6762],[2.25572,50.67645],[2.25564,50.67646],[2.25718,50.67714]]]]}},{"type":"Feature","properties":{"k":"BTH","s":9.82},"geometry":{"type":"Polygon","coordinates":[[[2.25244,50.67992],[2.25359,50.67771],[2.25651,50.67907],[2.25719,50.67716],[2.25564,50.67647],[2.25364,50.67662],[2.25309,50.67735],[2.25023,50.67823],[2.24967,50.67811],[2.24948,50.67832],[2.25068,50.67851],[2.25105,50.67823],[2.25194,50.67842],[2.25129,50.67887],[2.25047,50.67873],[2.25055,50.67857],[2.24967,50.67859],[2.24939,50.67876],[2.24917,50.67938],[2.25244,50.67992]]]}},{"type":"Feature","properties":{"k":"BTN","s":3.98},"geometry":{"type":"Polygon","coordinates":[[[2.25286,50.67912],[2.25576,50.68045],[2.25651,50.67907],[2.25359,50.67771],[2.25286,50.67912]]]}},{"type":"Feature","properties":{"k":"BTA","s":0.19},"geometry":{"type":"Polygon","coordinates":[[[2.25435,50.69883],[2.25621,50.69882],[2.25439,50.69875],[2.25337,50.69853],[2.25435,50.69883]]]}},{"type":"Feature","properties":{"k":"PPH","s":1.025},"geometry":{"type":"Polygon","coordinates":[[[2.25818,50.70095],[2.26112,50.70106],[2.2612,50.7008],[2.26104,50.70022],[2.25988,50.70065],[2.25833,50.70085],[2.25778,50.70055],[2.25752,50.70072],[2.25818,50.70095]]]}},{"type":"Feature","properties":{"k":"PPH","s":0.686},"geometry":{"type":"Polygon","coordinates":[[[2.26017,50.70115],[2.26111,50.70114],[2.25787,50.70095],[2.25746,50.70125],[2.26014,50.70131],[2.26017,50.70115]]]}},{"type":"Feature","properties":{"k":"MIS","s":4.822},"geometry":{"type":"Polygon","coordinates":[[[2.23613,50.6814],[2.23548,50.68236],[2.23531,50.68308],[2.23574,50.68317],[2.23534,50.68388],[2.23676,50.68414],[2.23903,50.68179],[2.23613,50.6814]]]}}]}