{"type":"FeatureCollection","features":[{"type":"Feature","properties":{"k":"PTC","s":2.627},"geometry":{"type":"Polygon","coordinates":[[[2.97174,50.2097],[2.97061,50.21027],[2.97217,50.21155],[2.97386,50.21147],[2.97362,50.21108],[2.97427,50.21144],[2.97444,50.21137],[2.97174,50.2097]]]}},{"type":"Feature","properties":{"k":"MIS","s":1.877},"geometry":{"type":"Polygon","coordinates":[[[2.96939,50.21151],[2.97169,50.21324],[2.9726,50.21274],[2.97107,50.21156],[2.96939,50.21151]]]}},{"type":"Feature","properties":{"k":"BTH","s":0.463},"geometry":{"type":"Polygon","coordinates":[[[2.97164,50.21159],[2.97108,50.21157],[2.9726,50.21274],[2.97292,50.21256],[2.97164,50.21159]]]}},{"type":"Feature","properties":{"k":"PHF","s":5.092},"geometry":{"type":"Polygon","coordinates":[[[2.9743,50.21522],[2.97597,50.21424],[2.97251,50.21159],[2.97164,50.21159],[2.97292,50.21256],[2.97169,50.21324],[2.97296,50.21421],[2.97374,50.21379],[2.9739,50.21391],[2.97308,50.21429],[2.9743,50.21522]]]}},{"type":"Feature","properties":{"k":"MIS","s":0.501},"geometry":{"type":"Polygon","coordinates":[[[2.97078,50.21264],[2.96938,50.21335],[2.96968,50.21364],[2.97114,50.2129],[2.97078,50.21264]]]}},{"type":"Feature","properties":{"k":"PTR","s":0.014},"geometry":{"type":"Polygon","coordinates":[[[2.96972,50.21317],[2.9697,50.21314],[2.96924,50.21336],[2.96972,50.21317]]]}},{"type":"Feature","properties":{"k":"PTR","s":0.114},"geometry":{"type":"Polygon","coordinates":[[[2.97078,50.21264],[2.97067,50.21256],[2.96964,50.21308],[2.96972,50.21317],[2.97078,50.21264]]]}},{"type":"Feature","properties":{"k":"PTC","s":0.878},"geometry":{"type":"Polygon","coordinates":[[[2.96919,50.21148],[2.96854,50.21145],[2.96999,50.2129],[2.97067,50.21256],[2.96919,50.21148]]]}},{"type":"Feature","properties":{"k":"BTN","s":0.35},"geometry":{"type":"Polygon","coordinates":[[[2.9698,50.21299],[2.96999,50.2129],[2.96854,50.21145],[2.96822,50.21144],[2.9698,50.21299]]]}},{"type":"Feature","properties":{"k":"MIS","s":0.801},"geometry":{"type":"Polygon","coordinates":[[[2.9697,50.21314],[2.96799,50.21144],[2.96756,50.21142],[2.96933,50.21333],[2.9697,50.21314]]]}},{"type":"Feature","properties":{"k":"MIS","s":0.291},"geometry":{"type":"Polygon","coordinates":[[[2.96796,50.21143],[2.96964,50.21308],[2.9698,50.21299],[2.96821,50.21143],[2.96796,50.21143]]]}},{"type":"Feature","properties":{"k":"CZH","s":4.339},"geometry":{"type":"Polygon","coordinates":[[[2.96592,50.21135],[2.96819,50.21471],[2.96977,50.21399],[2.96755,50.21143],[2.96592,50.21135]]]}},{"type":"Feature","properties":{"k":"BTN","s":3.127},"geometry":{"type":"Polygon","coordinates":[[[2.96507,50.21132],[2.96716,50.21522],[2.96819,50.21471],[2.96581,50.21135],[2.96507,50.21132]]]}},{"type":"Feature","properties":{"k":"BTN","s":2.873},"geometry":{"type":"Polygon","coordinates":[[[2.96507,50.21132],[2.96368,50.21126],[2.96474,50.21387],[2.96621,50.21344],[2.96507,50.21132]]]}},{"type":"Feature","properties":{"k":"BTN","s":4.496},"geometry":{"type":"Polygon","coordinates":[[[2.96443,50.20839],[2.96271,50.2091],[2.96426,50.21121],[2.96655,50.21131],[2.96443,50.20839]]]}},{"type":"Feature","properties":{"k":"PTC","s":1.728},"geometry":{"type":"Polygon","coordinates":[[[2.9638,50.21158],[2.96319,50.21159],[2.96318,50.21124],[2.96268,50.21123],[2.96266,50.21311],[2.96429,50.21277],[2.9638,50.21158]]]}},{"type":"Feature","properties":{"k":"LIF","s":5.328},"geometry":{"type":"Polygon","coordinates":[[[2.96252,50.21128],[2.96071,50.21115],[2.96066,50.21432],[2.96256,50.2151],[2.96252,50.21128]]]}},{"type":"Feature","properties":{"k":"BTN","s":1.893},"geometry":{"type":"Polygon","coordinates":[[[2.96475,50.21388],[2.96429,50.21277],[2.96266,50.21311],[2.96271,50.21448],[2.96475,50.21388]]]}},{"type":"Feature","properties":{"k":"BTH","s":5.802},"geometry":{"type":"Polygon","coordinates":[[[2.96271,50.21448],[2.96272,50.21512],[2.96521,50.21617],[2.96716,50.21522],[2.96621,50.21344],[2.96271,50.21448]]]}},{"type":"Feature","properties":{"k":"BTN","s":2.247},"geometry":{"type":"Polygon","coordinates":[[[2.96716,50.21522],[2.96521,50.21617],[2.96629,50.21662],[2.96902,50.21525],[2.96833,50.21466],[2.96716,50.21522]]]}},{"type":"Feature","properties":{"k":"PHF","s":11.281},"geometry":{"type":"Polygon","coordinates":[[[2.96408,50.21903],[2.96665,50.21683],[2.96239,50.2151],[2.96188,50.21528],[2.96049,50.21651],[2.96086,50.2167],[2.96073,50.21684],[2.96032,50.21665],[2.95971,50.21719],[2.96408,50.21903]]]}},{"type":"Feature","properties":{"k":"BTH","s":5.368},"geometry":{"type":"Polygon","coordinates":[[[2.96145,50.22125],[2.96403,50.21901],[2.96207,50.21819],[2.95928,50.22058],[2.96145,50.22125]]]}},{"type":"Feature","properties":{"k":"BTH","s":4.506},"geometry":{"type":"Polygon","coordinates":[[[2.96314,50.22197],[2.96575,50.21973],[2.96403,50.21901],[2.96145,50.22125],[2.96314,50.22197]]]}},{"type":"Feature","properties":{"k":"BTH","s":8.487},"geometry":{"type":"Polygon","coordinates":[[[2.96443,50.22273],[2.96503,50.22305],[2.96781,50.22061],[2.96805,50.22071],[2.97079,50.21852],[2.96821,50.21747],[2.96553,50.21963],[2.96722,50.22036],[2.96443,50.22273]]]}},{"type":"Feature","properties":{"k":"BTH","s":3.91},"geometry":{"type":"Polygon","coordinates":[[[2.96408,50.21903],[2.96553,50.21963],[2.96821,50.21747],[2.96666,50.21683],[2.96408,50.21903]]]}},{"type":"Feature","properties":{"k":"PHF","s":7.833},"geometry":{"type":"Polygon","coordinates":[[[2.97346,50.21961],[2.97079,50.21852],[2.96805,50.22071],[2.97037,50.22169],[2.97065,50.2214],[2.97085,50.22149],[2.97073,50.22176],[2.97109,50.22184],[2.97363,50.21983],[2.97346,50.21961]]]}},{"type":"Feature","properties":{"k":"MIS","s":0.082},"geometry":{"type":"Polygon","coordinates":[[[2.97392,50.21976],[2.9737,50.21994],[2.97415,50.21994],[2.97434,50.21978],[2.97407,50.21964],[2.97392,50.21976]]]}},{"type":"Feature","properties":{"k":"LIF","s":4.167},"geometry":{"type":"Polygon","coordinates":[[[2.9746,50.21726],[2.97419,50.217],[2.97118,50.21862],[2.97154,50.21875],[2.9719,50.21854],[2.97226,50.21875],[2.97197,50.21893],[2.97286,50.2193],[2.97688,50.21704],[2.97655,50.21682],[2.97571,50.21723],[2.97534,50.21689],[2.9746,50.21726]]]}},{"type":"Feature","properties":{"k":"BTH","s":8.793},"geometry":{"type":"Polygon","coordinates":[[[2.97418,50.217],[2.97438,50.21712],[2.9758,50.21639],[2.9739,50.21499],[2.96865,50.21759],[2.97118,50.21863],[2.97418,50.217]]]}},{"type":"Feature","properties":{"k":"CZH","s":0.64},"geometry":{"type":"Polygon","coordinates":[[[2.97237,50.21575],[2.97219,50.21562],[2.96843,50.2175],[2.96865,50.21759],[2.97237,50.21575]]]}},{"type":"Feature","properties":{"k":"PTC","s":1.837},"geometry":{"type":"Polygon","coordinates":[[[2.96895,50.21535],[2.96636,50.21665],[2.9674,50.21708],[2.96961,50.21596],[2.96895,50.21535]]]}},{"type":"Feature","properties":{"k":"PTC","s":4.082},"geometry":{"type":"Polygon","coordinates":[[[2.97296,50.21429],[2.9674,50.21708],[2.96843,50.2175],[2.97371,50.21486],[2.97296,50.21429]]]}},{"type":"Feature","properties":{"k":"BTN","s":0.605},"geometry":{"type":"Polygon","coordinates":[[[2.96996,50.21403],[2.97022,50.21433],[2.97193,50.2135],[2.97155,50.21321],[2.96996,50.21403]]]}},{"type":"Feature","properties":{"k":"CZH","s":0.641},"geometry":{"type":"Polygon","coordinates":[[[2.96963,50.21366],[2.96996,50.21403],[2.97155,50.2132],[2.97114,50.2129],[2.96963,50.21366]]]}},{"type":"Feature","properties":{"k":"MIS","s":0.721},"geometry":{"type":"Polygon","coordinates":[[[2.97193,50.2135],[2.97044,50.21423],[2.97095,50.21459],[2.97243,50.21388],[2.97193,50.2135]]]}},{"type":"Feature","properties":{"k":"CZH","s":1.19},"geometry":{"type":"Polygon","coordinates":[[[2.97243,50.21388],[2.97025,50.21493],[2.97078,50.21537],[2.97297,50.21429],[2.97243,50.21388]]]}},{"type":"Feature","properties":{"k":"CZH","s":0.273},"geometry":{"type":"Polygon","coordinates":[[[2.9739,50.21499],[2.97371,50.21486],[2.97219,50.21562],[2.97237,50.21575],[2.9739,50.21499]]]}},{"type":"Feature","properties":{"k":"PTC","s":0.504},"geometry":{"type":"Polygon","coordinates":[[[2.97896,50.21343],[2.97886,50.21336],[2.97492,50.21571],[2.97503,50.21579],[2.97896,50.21343]]]}},{"type":"Feature","properties":{"k":"PTC","s":2.65},"geometry":{"type":"Polygon","coordinates":[[[2.97886,50.21336],[2.9782,50.21287],[2.9743,50.21522],[2.97492,50.21571],[2.97886,50.21336]]]}},{"type":"Feature","properties":{"k":"PPH","s":0.236},"geometry":{"type":"MultiPolygon","coordinates":[[[[2.97571,50.21723],[2.97572,50.21722],[2.97547,50.21699],[2.97643,50.21674],[2.97605,50.21652],[2.97534,50.21688],[2.97571,50.21723]]],[[[2.97591,50.21716],[2.97601,50.21711],[2.97572,50.21722],[2.97591,50.21716]]],[[[2.97655,50.21682],[2.97592,50.21699],[2.97603,50.2171],[2.97655,50.21682]]]]}},{"type":"Feature","properties":{"k":"MIS","s":0.29},"geometry":{"type":"Polygon","coordinates":[[[2.97439,50.21713],[2.9746,50.21726],[2.97605,50.21652],[2.9758,50.21639],[2.97439,50.21713]]]}},{"type":"Feature","properties":{"k":"PTC","s":0.148},"geometry":{"type":"Polygon","coordinates":[[[2.97588,50.21832],[2.97607,50.21842],[2.977,50.21788],[2.97682,50.21779],[2.97588,50.21832]]]}},{"type":"Feature","properties":{"k":"PTC","s":0.174},"geometry":{"type":"Polygon","coordinates":[[[2.97498,50.21883],[2.97528,50.21899],[2.97607,50.21842],[2.97588,50.21832],[2.97498,50.21883]]]}},{"type":"Feature","properties":{"k":"BTH","s":2.318},"geometry":{"type":"Polygon","coordinates":[[[2.97682,50.21779],[2.97754,50.21739],[2.97688,50.21704],[2.97286,50.2193],[2.97362,50.21961],[2.97682,50.21779]]]}},{"type":"Feature","properties":{"k":"BTN","s":0.46},"geometry":{"type":"Polygon","coordinates":[[[2.97494,50.21885],[2.97362,50.21961],[2.97434,50.21978],[2.97524,50.21902],[2.97494,50.21885]]]}},{"type":"Feature","properties":{"k":"LIF","s":0.104},"geometry":{"type":"Polygon","coordinates":[[[2.97682,50.21779],[2.977,50.21788],[2.9777,50.21747],[2.97754,50.21739],[2.97682,50.21779]]]}},{"type":"Feature","properties":{"k":"BTH","s":6.569},"geometry":{"type":"Polygon","coordinates":[[[2.97597,50.21424],[2.9782,50.21287],[2.97624,50.21137],[2.97251,50.21159],[2.97597,50.21424]]]}},{"type":"Feature","properties":{"k":"MIS","s":0.679},"geometry":{"type":"Polygon","coordinates":[[[2.95665,50.22999],[2.95708,50.22968],[2.95555,50.22877],[2.95514,50.22908],[2.95665,50.22999]]]}},{"type":"Feature","properties":{"k":"PPH","s":1.587},"geometry":{"type":"Polygon","coordinates":[[[2.95142,50.21008],[2.95136,50.21021],[2.95331,50.20993],[2.95349,50.21053],[2.95491,50.21066],[2.95457,50.2093],[2.95142,50.21008]]]}},{"type":"Feature","properties":{"k":"LBF","s":3.172},"geometry":{"type":"Polygon","coordinates":[[[2.95782,50.21096],[2.95624,50.20889],[2.95458,50.2093],[2.95491,50.21064],[2.95782,50.21096]]]}},{"type":"Feature","properties":{"k":"BTH","s":3.352},"geometry":{"type":"Polygon","coordinates":[[[2.95642,50.21306],[2.95748,50.2136],[2.95832,50.21372],[2.95826,50.21108],[2.95685,50.21095],[2.95706,50.21215],[2.95539,50.21282],[2.95642,50.21306]]]}},{"type":"Feature","properties":{"k":"BTN","s":5.337},"geometry":{"type":"Polygon","coordinates":[[[2.95826,50.21109],[2.95832,50.21368],[2.95929,50.2138],[2.96066,50.21432],[2.96071,50.21115],[2.95826,50.21109]]]}},{"type":"Feature","properties":{"k":"BTH","s":10.5},"geometry":{"type":"Polygon","coordinates":[[[2.95618,50.20754],[2.957,50.20871],[2.95624,50.20889],[2.95782,50.21096],[2.9617,50.21112],[2.95859,50.20691],[2.95618,50.20754]]]}},{"type":"Feature","properties":{"k":"BTH","s":0.038},"geometry":{"type":"MultiPolygon","coordinates":[[[[2.95667,50.20736],[2.95629,50.20668],[2.95659,50.20738],[2.95667,50.20736]]],[[[2.95857,50.20689],[2.95857,50.20688],[2.95729,50.20723],[2.95857,50.20689]]]]}},{"type":"Feature","properties":{"k":"CZH","s":1.74},"geometry":{"type":"Polygon","coordinates":[[[2.95975,50.20661],[2.95859,50.20692],[2.95982,50.20854],[2.9609,50.20808],[2.95975,50.20661]]]}},{"type":"Feature","properties":{"k":"PTC","s":5.081},"geometry":{"type":"Polygon","coordinates":[[[2.93631,50.20972],[2.93497,50.21066],[2.93858,50.21229],[2.94095,50.21184],[2.93631,50.20972]]]}},{"type":"Feature","properties":{"k":"BTN","s":2.315},"geometry":{"type":"Polygon","coordinates":[[[2.9512,50.204],[2.95129,50.20252],[2.94881,50.20332],[2.94981,50.20459],[2.9512,50.204]],[[2.95113,50.20395],[2.95102,50.20402],[2.95091,50.20394],[2.95113,50.20395]]]}},{"type":"Feature","properties":{"k":"MIS","s":0.774},"geometry":{"type":"Polygon","coordinates":[[[2.95252,50.20529],[2.95194,50.20387],[2.95133,50.20406],[2.95191,50.20546],[2.95252,50.20529]]]}},{"type":"Feature","properties":{"k":"BTH","s":1.375},"geometry":{"type":"Polygon","coordinates":[[[2.96093,50.20807],[2.96643,50.20577],[2.96623,50.20561],[2.96136,50.20774],[2.96008,50.20649],[2.95984,50.20657],[2.96093,50.20807]]]}},{"type":"Feature","properties":{"k":"BTH","s":6.028},"geometry":{"type":"Polygon","coordinates":[[[2.96173,50.20773],[2.95982,50.20854],[2.9617,50.21112],[2.96426,50.21121],[2.96173,50.20773]]]}},{"type":"Feature","properties":{"k":"PTC","s":10.045},"geometry":{"type":"Polygon","coordinates":[[[2.96639,50.20578],[2.96173,50.20773],[2.96271,50.2091],[2.96443,50.20839],[2.96504,50.20921],[2.96881,50.20763],[2.96639,50.20578]]]}},{"type":"Feature","properties":{"k":"BTN","s":1.054},"geometry":{"type":"Polygon","coordinates":[[[2.97126,50.20938],[2.97014,50.20861],[2.96918,50.20909],[2.97015,50.2099],[2.97126,50.20938]]]}},{"type":"Feature","properties":{"k":"PTC","s":11.705},"geometry":{"type":"Polygon","coordinates":[[[2.96504,50.20921],[2.96655,50.21131],[2.97217,50.21155],[2.96917,50.20908],[2.9701,50.20856],[2.96997,50.20847],[2.96963,50.20862],[2.96938,50.20847],[2.96968,50.20826],[2.96881,50.20763],[2.96504,50.20921]]]}},{"type":"Feature","properties":{"k":"MIS","s":0.52},"geometry":{"type":"Polygon","coordinates":[[[2.97062,50.21028],[2.97174,50.20969],[2.97126,50.20938],[2.97015,50.2099],[2.97062,50.21028]]]}},{"type":"Feature","properties":{"k":"BTN","s":8.016},"geometry":{"type":"Polygon","coordinates":[[[2.94501,50.20467],[2.94595,50.20549],[2.94563,50.20564],[2.9459,50.20592],[2.94506,50.20625],[2.94565,50.20682],[2.94723,50.20614],[2.94883,50.20522],[2.94621,50.20207],[2.9465,50.20195],[2.94398,50.19894],[2.94332,50.19925],[2.94839,50.2053],[2.94709,50.20379],[2.94501,50.20467]]]}},{"type":"Feature","properties":{"k":"BTN","s":3.721},"geometry":{"type":"Polygon","coordinates":[[[2.94621,50.20207],[2.94883,50.20522],[2.94981,50.20459],[2.94736,50.20162],[2.94621,50.20207]]]}},{"type":"Feature","properties":{"k":"OIG","s":13.596},"geometry":{"type":"Polygon","coordinates":[[[2.94495,50.19845],[2.94768,50.20171],[2.9512,50.20053],[2.95055,50.19867],[2.94962,50.19693],[2.94495,50.19845]]]}},{"type":"Feature","properties":{"k":"LBF","s":1.484},"geometry":{"type":"Polygon","coordinates":[[[2.93553,50.20484],[2.93266,50.20366],[2.93193,50.204],[2.93475,50.20517],[2.93553,50.20484]]]}},{"type":"Feature","properties":{"k":"BTN","s":0.326},"geometry":{"type":"Polygon","coordinates":[[[2.93568,50.20476],[2.93283,50.20359],[2.93266,50.20366],[2.93553,50.20484],[2.93568,50.20476]]]}},{"type":"Feature","properties":{"k":"BTH","s":0.465},"geometry":{"type":"Polygon","coordinates":[[[2.93283,50.20359],[2.93568,50.20476],[2.9359,50.20465],[2.93307,50.20348],[2.93283,50.20359]]]}},{"type":"Feature","properties":{"k":"BTN","s":0.261},"geometry":{"type":"Polygon","coordinates":[[[2.9332,50.20342],[2.93307,50.20348],[2.9359,50.20465],[2.93604,50.20458],[2.9332,50.20342]]]}},{"type":"Feature","properties":{"k":"BTH","s":0.305},"geometry":{"type":"Polygon","coordinates":[[[2.93336,50.20335],[2.9332,50.20342],[2.93604,50.20458],[2.93619,50.20451],[2.93336,50.20335]]]}},{"type":"Feature","properties":{"k":"PTC","s":4.997},"geometry":{"type":"Polygon","coordinates":[[[2.93813,50.20967],[2.93936,50.20857],[2.93793,50.20861],[2.93632,50.20972],[2.94095,50.21185],[2.94257,50.21137],[2.94122,50.21076],[2.93813,50.20967]]]}},{"type":"Feature","properties":{"k":"BTH","s":6.318},"geometry":{"type":"Polygon","coordinates":[[[2.95471,50.20788],[2.95655,50.20739],[2.95441,50.20332],[2.95293,50.20365],[2.95471,50.20788]]]}},{"type":"Feature","properties":{"k":"PTC","s":1.744},"geometry":{"type":"Polygon","coordinates":[[[2.95194,50.20387],[2.9528,50.20592],[2.95375,50.20563],[2.95293,50.20365],[2.95194,50.20387]]]}},{"type":"Feature","properties":{"k":"BTH","s":2.566},"geometry":{"type":"Polygon","coordinates":[[[2.95144,50.20925],[2.95104,50.20934],[2.9511,50.20973],[2.95528,50.20862],[2.95473,50.2079],[2.95138,50.20881],[2.95144,50.20925]]]}},{"type":"Feature","properties":{"k":"BTH","s":7.988},"geometry":{"type":"Polygon","coordinates":[[[2.94108,50.20385],[2.93717,50.20585],[2.9375,50.20596],[2.93917,50.20736],[2.94335,50.20519],[2.94108,50.20385]]]}},{"type":"Feature","properties":{"k":"BTH","s":3.995},"geometry":{"type":"Polygon","coordinates":[[[2.96314,50.22197],[2.96443,50.22273],[2.96722,50.22036],[2.96575,50.21973],[2.96314,50.22197]]]}},{"type":"Feature","properties":{"k":"BTH","s":7.129},"geometry":{"type":"Polygon","coordinates":[[[2.96763,50.22521],[2.97108,50.22204],[2.96904,50.22114],[2.96623,50.22358],[2.96763,50.22521]]]}},{"type":"Feature","properties":{"k":"BTH","s":3.345},"geometry":{"type":"Polygon","coordinates":[[[2.96617,50.22354],[2.96903,50.22113],[2.96784,50.22062],[2.96504,50.22305],[2.96617,50.22354]]]}},{"type":"Feature","properties":{"k":"BTN","s":0.772},"geometry":{"type":"Polygon","coordinates":[[[2.9614,50.22727],[2.96198,50.22756],[2.96298,50.2266],[2.96396,50.22723],[2.96413,50.22709],[2.96245,50.22632],[2.9614,50.22727]]]}},{"type":"Feature","properties":{"k":"BTH","s":1.096},"geometry":{"type":"Polygon","coordinates":[[[2.96475,50.22657],[2.96306,50.22577],[2.96245,50.22632],[2.96413,50.22709],[2.96475,50.22657]]]}},{"type":"Feature","properties":{"k":"BTH","s":4.316},"geometry":{"type":"Polygon","coordinates":[[[2.96697,50.2247],[2.96641,50.22381],[2.96581,50.22349],[2.96319,50.22583],[2.96475,50.22657],[2.96697,50.2247]]]}},{"type":"Feature","properties":{"k":"BTN","s":0.235},"geometry":{"type":"Polygon","coordinates":[[[2.95061,50.20528],[2.94992,50.20546],[2.95041,50.20587],[2.95082,50.20575],[2.95061,50.20528]]]}},{"type":"Feature","properties":{"k":"BTH","s":6.193},"geometry":{"type":"Polygon","coordinates":[[[2.93962,50.20247],[2.94099,50.20364],[2.94541,50.20176],[2.94442,50.20057],[2.93962,50.20247]]]}},{"type":"Feature","properties":{"k":"BTH","s":1.406},"geometry":{"type":"Polygon","coordinates":[[[2.94709,50.20379],[2.94679,50.2034],[2.94317,50.20493],[2.94364,50.20522],[2.94709,50.20379]]]}},{"type":"Feature","properties":{"k":"BTH","s":3.278},"geometry":{"type":"Polygon","coordinates":[[[2.94316,50.20491],[2.94676,50.20336],[2.94607,50.20255],[2.94209,50.20426],[2.94316,50.20491]]]}},{"type":"Feature","properties":{"k":"LIF","s":0.003},"geometry":{"type":"Polygon","coordinates":[[[2.95089,50.19953],[2.95077,50.19915],[2.95085,50.19947],[2.95089,50.19953]]]}},{"type":"Feature","properties":{"k":"BTH","s":7.386},"geometry":{"type":"Polygon","coordinates":[[[2.9348,50.2052],[2.93193,50.204],[2.93053,50.20476],[2.92813,50.20551],[2.93152,50.2069],[2.9348,50.2052]]]}},{"type":"Feature","properties":{"k":"BTN","s":3.84},"geometry":{"type":"Polygon","coordinates":[[[2.93966,50.20271],[2.9387,50.20189],[2.93473,50.20391],[2.93616,50.20451],[2.93966,50.20271]]]}},{"type":"Feature","properties":{"k":"CZH","s":2.203},"geometry":{"type":"Polygon","coordinates":[[[2.95139,50.20124],[2.9512,50.20053],[2.94749,50.20178],[2.948,50.20238],[2.95139,50.20124]]]}},{"type":"Feature","properties":{"k":"BTH","s":2.116},"geometry":{"type":"Polygon","coordinates":[[[2.941,50.20364],[2.94099,50.20364],[2.94161,50.204],[2.9458,50.20221],[2.94541,50.20176],[2.941,50.20364]]]}},{"type":"Feature","properties":{"k":"PTC","s":1.475},"geometry":{"type":"Polygon","coordinates":[[[2.94352,50.20318],[2.94161,50.204],[2.94205,50.20426],[2.94606,50.20256],[2.9458,50.20221],[2.94352,50.20318]]]}},{"type":"Feature","properties":{"k":"BTN","s":1.171},"geometry":{"type":"Polygon","coordinates":[[[2.95095,50.20572],[2.95191,50.20546],[2.95133,50.20406],[2.9504,50.20441],[2.95095,50.20572]]]}},{"type":"Feature","properties":{"k":"PTC","s":7.448},"geometry":{"type":"Polygon","coordinates":[[[2.94332,50.19925],[2.93777,50.20119],[2.93962,50.20247],[2.94442,50.20057],[2.94332,50.19925]]]}},{"type":"Feature","properties":{"k":"BTH","s":2.884},"geometry":{"type":"Polygon","coordinates":[[[2.95141,50.20124],[2.948,50.20238],[2.94881,50.20332],[2.95128,50.20252],[2.95141,50.20124]]]}},{"type":"Feature","properties":{"k":"BTN","s":2.733},"geometry":{"type":"Polygon","coordinates":[[[2.9473,50.20155],[2.94477,50.19854],[2.94396,50.19893],[2.9465,50.20195],[2.9473,50.20155]]]}},{"type":"Feature","properties":{"k":"PTC","s":0.002},"geometry":{"type":"Polygon","coordinates":[]}},{"type":"Feature","properties":{"k":"BTH","s":0.005},"geometry":{"type":"Polygon","coordinates":[[[2.94109,50.20002],[2.94007,50.20037],[2.94061,50.2002],[2.94109,50.20002]]]}},{"type":"Feature","properties":{"k":"BTN","s":10.224},"geometry":{"type":"Polygon","coordinates":[[[2.96123,50.2274],[2.96581,50.22349],[2.96374,50.2224],[2.95912,50.22655],[2.96123,50.2274]]]}},{"type":"Feature","properties":{"k":"BTH","s":5.958},"geometry":{"type":"Polygon","coordinates":[[[2.93331,50.20599],[2.93152,50.2069],[2.93256,50.20732],[2.94029,50.20332],[2.93959,50.2027],[2.93331,50.20599]]]}},{"type":"Feature","properties":{"k":"BTN","s":6.577},"geometry":{"type":"Polygon","coordinates":[[[2.93395,50.20791],[2.93655,50.20658],[2.93668,50.20622],[2.93717,50.20585],[2.94112,50.20384],[2.94029,50.20332],[2.9326,50.20732],[2.93395,50.20791]]]}},{"type":"Feature","properties":{"k":"JAC","s":0.135},"geometry":{"type":"Polygon","coordinates":[[[2.9504,50.20443],[2.95083,50.20575],[2.95095,50.20572],[2.9504,50.20443]]]}},{"type":"Feature","properties":{"k":"LIF","s":4.077},"geometry":{"type":"Polygon","coordinates":[[[2.93472,50.20392],[2.9387,50.20189],[2.93749,50.2013],[2.93336,50.20335],[2.93472,50.20392]]]}},{"type":"Feature","properties":{"k":"BTH","s":0.238},"geometry":{"type":"Polygon","coordinates":[[[2.92558,50.20677],[2.92589,50.20621],[2.92753,50.20567],[2.9269,50.20568],[2.92579,50.20623],[2.92528,50.20673],[2.92558,50.20677]]]}},{"type":"Feature","properties":{"k":"PTC","s":0.653},"geometry":{"type":"Polygon","coordinates":[[[2.92547,50.20677],[2.92509,50.20672],[2.92348,50.20777],[2.92245,50.20863],[2.92259,50.20888],[2.92457,50.20728],[2.92547,50.20677]]]}},{"type":"Feature","properties":{"k":"BTH","s":1.77},"geometry":{"type":"Polygon","coordinates":[[[2.9249,50.20742],[2.92271,50.20909],[2.92308,50.20975],[2.92565,50.20776],[2.9249,50.20742]]]}},{"type":"Feature","properties":{"k":"BTH","s":2.858},"geometry":{"type":"Polygon","coordinates":[[[2.92323,50.2099],[2.92326,50.21102],[2.92685,50.20829],[2.92586,50.20786],[2.92323,50.2099]]]}},{"type":"Feature","properties":{"k":"BTH","s":11.208},"geometry":{"type":"Polygon","coordinates":[[[2.92599,50.20617],[2.92554,50.20686],[2.92463,50.2073],[2.92894,50.20923],[2.93191,50.20715],[2.92805,50.20553],[2.92599,50.20617]]]}},{"type":"Feature","properties":{"k":"BTH","s":1.004},"geometry":{"type":"Polygon","coordinates":[[[2.9348,50.20824],[2.93659,50.20841],[2.93507,50.20734],[2.93395,50.20791],[2.9348,50.20824]]]}},{"type":"Feature","properties":{"k":"PTC","s":7.133},"geometry":{"type":"Polygon","coordinates":[[[2.93629,50.20974],[2.93793,50.20861],[2.9347,50.20828],[2.9338,50.20792],[2.93168,50.20938],[2.93479,50.21079],[2.93629,50.20974]]]}},{"type":"Feature","properties":{"k":"BTH","s":0.531},"geometry":{"type":"Polygon","coordinates":[[[2.93353,50.2078],[2.9314,50.20925],[2.93168,50.20938],[2.9338,50.20792],[2.93353,50.2078]]]}},{"type":"Feature","properties":{"k":"BTH","s":4.384},"geometry":{"type":"Polygon","coordinates":[[[2.93085,50.209],[2.93128,50.2092],[2.93337,50.20773],[2.93191,50.20722],[2.9278,50.21007],[2.92874,50.2105],[2.93085,50.209]]]}},{"type":"Feature","properties":{"k":"BTH","s":8.395},"geometry":{"type":"Polygon","coordinates":[[[2.93547,50.21274],[2.93811,50.21236],[2.93085,50.209],[2.92949,50.20997],[2.93547,50.21274]]]}},{"type":"Feature","properties":{"k":"BTH","s":3.805},"geometry":{"type":"Polygon","coordinates":[[[2.93544,50.21275],[2.92945,50.21001],[2.92874,50.2105],[2.93433,50.21308],[2.93544,50.21275]]]}},{"type":"Feature","properties":{"k":"BTH","s":10.896},"geometry":{"type":"Polygon","coordinates":[[[2.92646,50.21102],[2.93079,50.21431],[2.93433,50.21308],[2.9278,50.21007],[2.92646,50.21102]]]}},{"type":"Feature","properties":{"k":"BTN","s":4.469},"geometry":{"type":"Polygon","coordinates":[[[2.94979,50.21412],[2.95069,50.21555],[2.95136,50.21718],[2.95247,50.21812],[2.95322,50.21733],[2.95031,50.21329],[2.94979,50.21412]]]}},{"type":"Feature","properties":{"k":"BTH","s":0.211},"geometry":{"type":"Polygon","coordinates":[[[2.94874,50.21587],[2.94867,50.21596],[2.95097,50.2168],[2.94874,50.21587]]]}},{"type":"Feature","properties":{"k":"BTH","s":3.503},"geometry":{"type":"Polygon","coordinates":[[[2.94755,50.21708],[2.95056,50.2182],[2.95131,50.21735],[2.95097,50.2168],[2.94867,50.21596],[2.94755,50.21708]]]}},{"type":"Feature","properties":{"k":"PPH","s":2.376},"geometry":{"type":"Polygon","coordinates":[[[2.95539,50.21705],[2.95469,50.21707],[2.95418,50.21772],[2.95327,50.21788],[2.95292,50.21767],[2.95247,50.21812],[2.95351,50.21882],[2.95515,50.21742],[2.95555,50.21719],[2.95643,50.21702],[2.95715,50.21642],[2.95746,50.21612],[2.95702,50.2159],[2.95539,50.21705]]]}},{"type":"Feature","properties":{"k":"BTH","s":1.006},"geometry":{"type":"Polygon","coordinates":[[[2.95454,50.21928],[2.95343,50.2206],[2.95416,50.22087],[2.9553,50.21951],[2.95454,50.21928]]]}},{"type":"Feature","properties":{"k":"BTH","s":1.222},"geometry":{"type":"Polygon","coordinates":[[[2.95519,50.2203],[2.95577,50.21964],[2.9553,50.21952],[2.95296,50.22227],[2.95339,50.22242],[2.95519,50.2203]]]}},{"type":"Feature","properties":{"k":"BTH","s":10.453},"geometry":{"type":"Polygon","coordinates":[[[2.9496,50.21932],[2.94665,50.21822],[2.94622,50.21916],[2.9501,50.22058],[2.95021,50.22045],[2.95088,50.22069],[2.94905,50.22286],[2.94967,50.22308],[2.95343,50.21891],[2.95132,50.21734],[2.9496,50.21932]]]}},{"type":"Feature","properties":{"k":"BTH","s":3.005},"geometry":{"type":"Polygon","coordinates":[[[2.94622,50.21916],[2.94579,50.22025],[2.94709,50.22044],[2.94948,50.2213],[2.9501,50.22058],[2.94622,50.21916]]]}},{"type":"Feature","properties":{"k":"BTH","s":1.614},"geometry":{"type":"Polygon","coordinates":[[[2.94771,50.21795],[2.94692,50.21765],[2.94665,50.21822],[2.9496,50.21932],[2.95003,50.21881],[2.94771,50.21795]]]}},{"type":"Feature","properties":{"k":"POT","s":0.212},"geometry":{"type":"Polygon","coordinates":[[[2.94452,50.22015],[2.94568,50.22002],[2.94574,50.2199],[2.94413,50.22],[2.94452,50.22015]]]}},{"type":"Feature","properties":{"k":"JAC","s":0.202},"geometry":{"type":"Polygon","coordinates":[[[2.94413,50.22],[2.94381,50.22005],[2.94578,50.22075],[2.94576,50.22062],[2.94413,50.22]]]}},{"type":"Feature","properties":{"k":"PPH","s":0.202},"geometry":{"type":"Polygon","coordinates":[[[2.94452,50.22015],[2.94576,50.22062],[2.94569,50.22029],[2.94521,50.22016],[2.94539,50.22007],[2.94452,50.22015]]]}},{"type":"Feature","properties":{"k":"BTH","s":3.435},"geometry":{"type":"Polygon","coordinates":[[[2.9442,50.22146],[2.94598,50.22215],[2.9458,50.22076],[2.9438,50.22005],[2.94131,50.22032],[2.9442,50.22146]]]}},{"type":"Feature","properties":{"k":"PPH","s":0.37},"geometry":{"type":"Polygon","coordinates":[[[2.94098,50.22035],[2.94409,50.22157],[2.9442,50.22146],[2.94131,50.22032],[2.94098,50.22035]]]}},{"type":"Feature","properties":{"k":"PTC","s":26.075},"geometry":{"type":"Polygon","coordinates":[[[2.94046,50.22045],[2.94087,50.22025],[2.94538,50.21981],[2.93631,50.21644],[2.93178,50.21904],[2.93946,50.22201],[2.94046,50.22045]]]}},{"type":"Feature","properties":{"k":"PHF","s":15.748},"geometry":{"type":"Polygon","coordinates":[[[2.93631,50.21644],[2.94553,50.21979],[2.94575,50.2193],[2.946,50.21935],[2.94662,50.21801],[2.93822,50.21496],[2.93631,50.21644]]]}},{"type":"Feature","properties":{"k":"BTH","s":6.682},"geometry":{"type":"Polygon","coordinates":[[[2.9394,50.21376],[2.93691,50.21259],[2.93517,50.21287],[2.93344,50.21344],[2.93762,50.21535],[2.9394,50.21376]]]}},{"type":"Feature","properties":{"k":"PTR","s":0.321},"geometry":{"type":"Polygon","coordinates":[[[2.95708,50.22968],[2.95727,50.22955],[2.95576,50.22862],[2.95555,50.22877],[2.95708,50.22968]]]}},{"type":"Feature","properties":{"k":"PPR","s":0.001},"geometry":{"type":"Polygon","coordinates":[]}},{"type":"Feature","properties":{"k":"PHF","s":4.986},"geometry":{"type":"Polygon","coordinates":[[[2.95366,50.23164],[2.9548,50.23106],[2.95444,50.23083],[2.95475,50.23063],[2.95502,50.23094],[2.95594,50.23045],[2.95321,50.2288],[2.95137,50.23017],[2.95366,50.23164]]]}},{"type":"Feature","properties":{"k":"PPR","s":1.952},"geometry":{"type":"Polygon","coordinates":[[[2.95595,50.23045],[2.95665,50.22999],[2.95387,50.2283],[2.95321,50.22879],[2.95595,50.23045]]]}},{"type":"Feature","properties":{"k":"BTH","s":2.433},"geometry":{"type":"Polygon","coordinates":[[[2.9536,50.22847],[2.95258,50.22786],[2.9503,50.22956],[2.95135,50.23014],[2.9536,50.22847]]]}},{"type":"Feature","properties":{"k":"MIS","s":0.845},"geometry":{"type":"Polygon","coordinates":[[[2.94901,50.22981],[2.9496,50.22923],[2.94921,50.22901],[2.95011,50.22814],[2.94977,50.228],[2.94829,50.22945],[2.94901,50.22981]]]}},{"type":"Feature","properties":{"k":"BTH","s":0.231},"geometry":{"type":"MultiPolygon","coordinates":[[[[2.9496,50.22923],[2.94901,50.22981],[2.94925,50.2299],[2.94985,50.22937],[2.9496,50.22923]]],[[[2.94829,50.22945],[2.94806,50.22967],[2.94886,50.22976],[2.94829,50.22945]]]]}},{"type":"Feature","properties":{"k":"BTH","s":0.0},"geometry":{"type":"Polygon","coordinates":[]}},{"type":"Feature","properties":{"k":"PPH","s":0.612},"geometry":{"type":"Polygon","coordinates":[[[2.94512,50.2269],[2.94552,50.22706],[2.94666,50.22538],[2.94638,50.22525],[2.94512,50.2269]]]}},{"type":"Feature","properties":{"k":"MIS","s":1.585},"geometry":{"type":"Polygon","coordinates":[[[2.94638,50.22525],[2.94474,50.2247],[2.94502,50.22554],[2.94438,50.22663],[2.94512,50.2269],[2.94638,50.22525]]]}},{"type":"Feature","properties":{"k":"BTH","s":0.746},"geometry":{"type":"Polygon","coordinates":[[[2.94087,50.22471],[2.94075,50.22491],[2.94448,50.22633],[2.94461,50.22613],[2.94087,50.22471]]]}},{"type":"Feature","properties":{"k":"MIS","s":0.063},"geometry":{"type":"MultiPolygon","coordinates":[[[[2.94216,50.2258],[2.94428,50.22662],[2.94431,50.22659],[2.94216,50.2258]]],[[[2.94172,50.2264],[2.94213,50.22583],[2.9417,50.2264],[2.94172,50.2264]]]]}},{"type":"Feature","properties":{"k":"BTH","s":7.348},"geometry":{"type":"Polygon","coordinates":[[[2.93443,50.2251],[2.93881,50.22741],[2.94025,50.22554],[2.93645,50.22409],[2.93443,50.2251]]]}},{"type":"Feature","properties":{"k":"BTN","s":0.29},"geometry":{"type":"Polygon","coordinates":[[[2.93944,50.22524],[2.94025,50.22554],[2.94048,50.22516],[2.93968,50.22488],[2.93944,50.22524]]]}},{"type":"Feature","properties":{"k":"PTC","s":0.012},"geometry":{"type":"Polygon","coordinates":[[[2.9417,50.22643],[2.94172,50.2264],[2.94073,50.22613],[2.9417,50.22643]]]}},{"type":"Feature","properties":{"k":"BTH","s":0.993},"geometry":{"type":"Polygon","coordinates":[[[2.94075,50.22491],[2.94055,50.2252],[2.94431,50.22659],[2.94448,50.22633],[2.94075,50.22491]]]}},{"type":"Feature","properties":{"k":"MIS","s":1.05},"geometry":{"type":"Polygon","coordinates":[[[2.94217,50.22578],[2.94055,50.2252],[2.94012,50.22594],[2.94171,50.2264],[2.94217,50.22578]]]}},{"type":"Feature","properties":{"k":"BTN","s":1.961},"geometry":{"type":"Polygon","coordinates":[[[2.93837,50.2231],[2.94112,50.22411],[2.9416,50.22332],[2.93926,50.22241],[2.93837,50.2231]]]}},{"type":"Feature","properties":{"k":"PPH","s":0.735},"geometry":{"type":"Polygon","coordinates":[[[2.93884,50.22501],[2.93944,50.22524],[2.93968,50.22488],[2.94048,50.22516],[2.9407,50.22477],[2.93939,50.22428],[2.93884,50.22501]]]}},{"type":"Feature","properties":{"k":"BTH","s":1.6},"geometry":{"type":"Polygon","coordinates":[[[2.93882,50.225],[2.93939,50.22428],[2.93749,50.22356],[2.93643,50.22409],[2.93882,50.225]]]}},{"type":"Feature","properties":{"k":"BTH","s":1.882},"geometry":{"type":"Polygon","coordinates":[[[2.93749,50.22356],[2.9407,50.22477],[2.9411,50.22411],[2.93836,50.22311],[2.93749,50.22356]]]}},{"type":"Feature","properties":{"k":"BTH","s":11.659},"geometry":{"type":"Polygon","coordinates":[[[2.94409,50.22157],[2.94098,50.22035],[2.94041,50.22063],[2.9393,50.22242],[2.94463,50.22442],[2.94586,50.22267],[2.94598,50.22215],[2.9442,50.22146],[2.94409,50.22157]]]}},{"type":"Feature","properties":{"k":"BTH","s":4.441},"geometry":{"type":"Polygon","coordinates":[[[2.94491,50.22538],[2.94458,50.22452],[2.94185,50.22349],[2.94165,50.2238],[2.94143,50.22374],[2.94087,50.22471],[2.94461,50.22613],[2.94491,50.22538]]]}},{"type":"Feature","properties":{"k":"BTN","s":2.765},"geometry":{"type":"Polygon","coordinates":[[[2.94743,50.22373],[2.94568,50.2231],[2.94483,50.22426],[2.94474,50.2247],[2.94638,50.22525],[2.94743,50.22373]]]}},{"type":"Feature","properties":{"k":"BTN","s":2.825},"geometry":{"type":"Polygon","coordinates":[[[2.94615,50.22184],[2.94571,50.22306],[2.94819,50.22394],[2.949,50.22289],[2.94615,50.22184]]]}},{"type":"Feature","properties":{"k":"BTH","s":2.052},"geometry":{"type":"Polygon","coordinates":[[[2.94948,50.2213],[2.94717,50.22047],[2.94704,50.22078],[2.94582,50.22059],[2.94593,50.22097],[2.94886,50.22205],[2.94948,50.2213]]]}},{"type":"Feature","properties":{"k":"BTH","s":2.038},"geometry":{"type":"Polygon","coordinates":[[[2.93704,50.21256],[2.93949,50.21369],[2.94053,50.21233],[2.94041,50.21224],[2.94013,50.21238],[2.93962,50.21216],[2.93911,50.21226],[2.93933,50.21239],[2.93908,50.21258],[2.93863,50.21234],[2.93704,50.21256]]]}},{"type":"Feature","properties":{"k":"BTH","s":0.208},"geometry":{"type":"Polygon","coordinates":[[[2.93704,50.21257],[2.93691,50.21259],[2.9394,50.21376],[2.93949,50.21369],[2.93704,50.21257]]]}},{"type":"Feature","properties":{"k":"BTN","s":0.723},"geometry":{"type":"Polygon","coordinates":[[[2.93497,50.21066],[2.93475,50.21081],[2.93811,50.21236],[2.93858,50.21229],[2.93497,50.21066]]]}},{"type":"Feature","properties":{"k":"JAC","s":0.562},"geometry":{"type":"Polygon","coordinates":[[[2.95266,50.22786],[2.95331,50.22741],[2.95247,50.22689],[2.95187,50.22741],[2.95266,50.22786]]]}},{"type":"Feature","properties":{"k":"BTN","s":3.378},"geometry":{"type":"Polygon","coordinates":[[[2.95266,50.22786],[2.95359,50.2284],[2.95701,50.22588],[2.95589,50.22543],[2.95266,50.22786]]]}},{"type":"Feature","properties":{"k":"JAC","s":0.602},"geometry":{"type":"Polygon","coordinates":[[[2.9521,50.22632],[2.95181,50.22644],[2.95331,50.22741],[2.95389,50.22696],[2.9521,50.22632]]]}},{"type":"Feature","properties":{"k":"JAC","s":0.167},"geometry":{"type":"Polygon","coordinates":[[[2.95257,50.22524],[2.95213,50.2256],[2.95295,50.22595],[2.95304,50.22584],[2.9527,50.22573],[2.95257,50.22524]]]}},{"type":"Feature","properties":{"k":"BTH","s":0.799},"geometry":{"type":"Polygon","coordinates":[[[2.95303,50.22585],[2.95416,50.22492],[2.95336,50.22461],[2.95257,50.22524],[2.9527,50.22573],[2.95303,50.22585]]]}},{"type":"Feature","properties":{"k":"ORP","s":3.022},"geometry":{"type":"Polygon","coordinates":[[[2.95589,50.22543],[2.95345,50.22454],[2.95336,50.22461],[2.95416,50.22492],[2.95288,50.22603],[2.9521,50.22632],[2.95389,50.22696],[2.95589,50.22543]]]}},{"type":"Feature","properties":{"k":"BTH","s":9.555},"geometry":{"type":"Polygon","coordinates":[[[2.95578,50.22862],[2.95727,50.22955],[2.96034,50.22709],[2.95836,50.22634],[2.95802,50.2266],[2.95783,50.22636],[2.95794,50.22618],[2.9571,50.22587],[2.95387,50.2283],[2.95514,50.22908],[2.95578,50.22862]]]}},{"type":"Feature","properties":{"k":"BTH","s":0.126},"geometry":{"type":"Polygon","coordinates":[[[2.95964,50.22787],[2.95981,50.22795],[2.96043,50.22755],[2.96017,50.22741],[2.95964,50.22787]]]}},{"type":"Feature","properties":{"k":"BTH","s":0.208},"geometry":{"type":"Polygon","coordinates":[[[2.96046,50.22719],[2.96017,50.22741],[2.96043,50.22755],[2.96086,50.22726],[2.96183,50.2277],[2.96198,50.22756],[2.96161,50.22738],[2.96046,50.22719]]]}},{"type":"Feature","properties":{"k":"MID","s":3.059},"geometry":{"type":"Polygon","coordinates":[[[2.96122,50.22465],[2.95973,50.22408],[2.95775,50.22605],[2.95912,50.22655],[2.96122,50.22465]]]}},{"type":"Feature","properties":{"k":"BTN","s":3.936},"geometry":{"type":"Polygon","coordinates":[[[2.95529,50.22372],[2.95435,50.2248],[2.95775,50.22605],[2.9588,50.225],[2.95529,50.22372]]]}},{"type":"Feature","properties":{"k":"BTH","s":4.031},"geometry":{"type":"Polygon","coordinates":[[[2.9588,50.225],[2.95973,50.22408],[2.95568,50.22258],[2.95486,50.22354],[2.9588,50.225]]]}},{"type":"Feature","properties":{"k":"PTC","s":5.994},"geometry":{"type":"Polygon","coordinates":[[[2.95754,50.22029],[2.95754,50.22017],[2.95577,50.21964],[2.95339,50.22242],[2.95472,50.22292],[2.95339,50.22445],[2.95375,50.22458],[2.95754,50.22029]]]}},{"type":"Feature","properties":{"k":"BTH","s":6.956},"geometry":{"type":"Polygon","coordinates":[[[2.95767,50.2203],[2.95568,50.22258],[2.95828,50.22355],[2.96067,50.22109],[2.95767,50.2203]]]}},{"type":"Feature","properties":{"k":"PTC","s":8.135},"geometry":{"type":"Polygon","coordinates":[[[2.96374,50.2224],[2.96067,50.22109],[2.95828,50.22355],[2.96122,50.22465],[2.96374,50.2224]]]}},{"type":"Feature","properties":{"k":"JAC","s":2.113},"geometry":{"type":"Polygon","coordinates":[[[2.95643,50.21702],[2.95555,50.21719],[2.95515,50.21742],[2.95355,50.21884],[2.95441,50.21912],[2.95776,50.21627],[2.95746,50.21612],[2.95643,50.21702]]]}},{"type":"Feature","properties":{"k":"JAC","s":0.999},"geometry":{"type":"Polygon","coordinates":[[[2.95475,50.21922],[2.95803,50.2164],[2.95776,50.21627],[2.95441,50.21912],[2.95475,50.21922]]]}},{"type":"Feature","properties":{"k":"PTC","s":5.084},"geometry":{"type":"Polygon","coordinates":[[[2.95535,50.21939],[2.95554,50.21917],[2.95685,50.21957],[2.95962,50.21717],[2.95803,50.2164],[2.95475,50.21922],[2.95535,50.21939]]]}},{"type":"Feature","properties":{"k":"BTH","s":6.827},"geometry":{"type":"Polygon","coordinates":[[[2.95748,50.21946],[2.95722,50.21937],[2.95687,50.21986],[2.95928,50.22058],[2.96207,50.21819],[2.95972,50.21719],[2.9575,50.21912],[2.95796,50.21917],[2.95791,50.21936],[2.95748,50.21946]]]}},{"type":"Feature","properties":{"k":"PTC","s":0.718},"geometry":{"type":"Polygon","coordinates":[[[2.95998,50.21686],[2.95825,50.21597],[2.95785,50.21631],[2.95962,50.21717],[2.95998,50.21686]]]}},{"type":"Feature","properties":{"k":"BTH","s":3.927},"geometry":{"type":"Polygon","coordinates":[[[2.96213,50.21499],[2.9603,50.21423],[2.95825,50.21597],[2.95999,50.21685],[2.96213,50.21499]]]}},{"type":"Feature","properties":{"k":"BTH","s":1.948},"geometry":{"type":"Polygon","coordinates":[[[2.95825,50.21597],[2.96027,50.21423],[2.95996,50.21437],[2.95843,50.2145],[2.95679,50.21522],[2.95825,50.21597]]]}},{"type":"Feature","properties":{"k":"JAC","s":1.279},"geometry":{"type":"Polygon","coordinates":[[[2.95544,50.21535],[2.95438,50.21605],[2.95322,50.21734],[2.95449,50.2161],[2.95651,50.2149],[2.95789,50.21442],[2.95821,50.2145],[2.95996,50.21437],[2.96016,50.21418],[2.95903,50.21379],[2.95544,50.21535]]]}},{"type":"Feature","properties":{"k":"JAC","s":0.631},"geometry":{"type":"Polygon","coordinates":[[[2.95785,50.21631],[2.95825,50.21597],[2.95679,50.21522],[2.95653,50.21539],[2.95661,50.2157],[2.95785,50.21631]]]}},{"type":"Feature","properties":{"k":"BTH","s":14.602},"geometry":{"type":"Polygon","coordinates":[[[2.95754,50.21362],[2.95622,50.21303],[2.95524,50.21283],[2.95521,50.21293],[2.95156,50.2128],[2.95031,50.21328],[2.95316,50.21724],[2.95438,50.21605],[2.95544,50.21535],[2.95893,50.21378],[2.95754,50.21362]]]}},{"type":"Feature","properties":{"k":"JAC","s":0.139},"geometry":{"type":"Polygon","coordinates":[[[2.94939,50.2141],[2.9493,50.21445],[2.94991,50.21465],[2.9496,50.2141],[2.94939,50.2141]]]}},{"type":"Feature","properties":{"k":"PPH","s":1.364},"geometry":{"type":"Polygon","coordinates":[[[2.94889,50.21552],[2.95079,50.2163],[2.94991,50.21465],[2.9493,50.21445],[2.94889,50.21552]]]}},{"type":"Feature","properties":{"k":"PPH","s":2.05},"geometry":{"type":"Polygon","coordinates":[[[2.93813,50.20967],[2.94056,50.21058],[2.9412,50.20987],[2.93897,50.20886],[2.93813,50.20967]]]}},{"type":"Feature","properties":{"k":"PPH","s":1.919},"geometry":{"type":"Polygon","coordinates":[[[2.94031,50.20937],[2.94054,50.20925],[2.94239,50.21033],[2.94331,50.20969],[2.94135,50.20844],[2.94005,50.20921],[2.94031,50.20937]]]}},{"type":"Feature","properties":{"k":"BTH","s":1.51},"geometry":{"type":"Polygon","coordinates":[[[2.93508,50.20734],[2.9366,50.20841],[2.93821,50.20855],[2.93593,50.2069],[2.93508,50.20734]]]}},{"type":"Feature","properties":{"k":"BTH","s":12.978},"geometry":{"type":"Polygon","coordinates":[[[2.93826,50.20858],[2.94117,50.20841],[2.94302,50.20799],[2.94541,50.20679],[2.94439,50.20582],[2.94335,50.20519],[2.93917,50.20736],[2.93718,50.20585],[2.93655,50.20658],[2.93593,50.2069],[2.93826,50.20858]]]}},{"type":"Feature","properties":{"k":"BTH","s":1.453},"geometry":{"type":"Polygon","coordinates":[[[2.94904,50.20585],[2.95045,50.20725],[2.95137,50.20677],[2.94988,50.2055],[2.94904,50.20585]]]}},{"type":"Feature","properties":{"k":"BTN","s":3.328},"geometry":{"type":"Polygon","coordinates":[[[2.94903,50.20585],[2.9498,50.20542],[2.94929,50.20503],[2.94766,50.20606],[2.95019,50.2084],[2.95088,50.20815],[2.95103,50.20782],[2.94903,50.20585]]]}},{"type":"Feature","properties":{"k":"BTH","s":0.599},"geometry":{"type":"Polygon","coordinates":[[[2.95177,50.20722],[2.95138,50.20677],[2.95045,50.20725],[2.95103,50.20782],[2.95177,50.20722]]]}},{"type":"Feature","properties":{"k":"BTN","s":1.087},"geometry":{"type":"Polygon","coordinates":[[[2.95252,50.20529],[2.95041,50.20587],[2.95102,50.2064],[2.9528,50.20592],[2.95252,50.20529]]]}},{"type":"Feature","properties":{"k":"LBF","s":5.754},"geometry":{"type":"Polygon","coordinates":[[[2.95375,50.20563],[2.95105,50.2064],[2.95185,50.20722],[2.95104,50.20793],[2.95091,50.20885],[2.9547,50.20789],[2.95375,50.20563]]]}},{"type":"Feature","properties":{"k":"BTH","s":2.756},"geometry":{"type":"Polygon","coordinates":[[[2.957,50.20871],[2.95618,50.20754],[2.95473,50.20792],[2.95528,50.20862],[2.95213,50.20946],[2.95236,50.20984],[2.957,50.20871]]]}},{"type":"Feature","properties":{"k":"JAC","s":0.075},"geometry":{"type":"Polygon","coordinates":[[[2.95147,50.21004],[2.95128,50.2097],[2.95208,50.20951],[2.95236,50.20984],[2.95213,50.20946],[2.95118,50.20971],[2.95147,50.21004]]]}},{"type":"Feature","properties":{"k":"JAC","s":0.121},"geometry":{"type":"Polygon","coordinates":[[[2.95031,50.21326],[2.95171,50.21279],[2.95164,50.2127],[2.95031,50.21326]]]}},{"type":"Feature","properties":{"k":"JAC","s":0.28},"geometry":{"type":"Polygon","coordinates":[[[2.95521,50.21293],[2.95524,50.21283],[2.95193,50.21268],[2.95164,50.2127],[2.95521,50.21293]]]}},{"type":"Feature","properties":{"k":"BTN","s":3.021},"geometry":{"type":"Polygon","coordinates":[[[2.93063,50.22404],[2.93197,50.22455],[2.9351,50.22294],[2.93373,50.22243],[2.93063,50.22404]]]}},{"type":"Feature","properties":{"k":"PHF","s":2.757},"geometry":{"type":"Polygon","coordinates":[[[2.92623,50.21947],[2.92974,50.22108],[2.9304,50.22043],[2.92623,50.21865],[2.92623,50.21947]]]}},{"type":"Feature","properties":{"k":"BTH","s":9.852},"geometry":{"type":"Polygon","coordinates":[[[2.92409,50.21264],[2.92655,50.21477],[2.92807,50.21449],[2.93082,50.21433],[2.92644,50.211],[2.92409,50.21264]]]}},{"type":"Feature","properties":{"k":"PHF","s":8.201},"geometry":{"type":"Polygon","coordinates":[[[2.92363,50.21294],[2.92894,50.20922],[2.92685,50.20829],[2.92326,50.21102],[2.92363,50.21294]]]}},{"type":"Feature","properties":{"k":"BTH","s":2.246},"geometry":{"type":"Polygon","coordinates":[[[2.92358,50.21304],[2.92357,50.21324],[2.92426,50.21455],[2.92492,50.21428],[2.9256,50.21498],[2.92655,50.21477],[2.92409,50.21267],[2.92358,50.21304]]]}},{"type":"Feature","properties":{"k":"BTH","s":0.371},"geometry":{"type":"Polygon","coordinates":[[[2.92534,50.21627],[2.92634,50.21728],[2.92674,50.2169],[2.92534,50.21627]]]}},{"type":"Feature","properties":{"k":"BTH","s":2.03},"geometry":{"type":"Polygon","coordinates":[[[2.93368,50.21554],[2.93106,50.21432],[2.92959,50.21452],[2.93275,50.21599],[2.93368,50.21554]]]}},{"type":"Feature","properties":{"k":"PHF","s":4.431},"geometry":{"type":"Polygon","coordinates":[[[2.93115,50.21951],[2.92651,50.21737],[2.92635,50.21752],[2.92693,50.21823],[2.92623,50.21865],[2.9304,50.22043],[2.93115,50.21951]]]}},{"type":"Feature","properties":{"k":"BTH","s":8.845},"geometry":{"type":"Polygon","coordinates":[[[2.93183,50.21886],[2.93272,50.21841],[2.9258,50.21526],[2.92485,50.21567],[2.92534,50.21627],[2.92674,50.2169],[2.92637,50.21723],[2.92651,50.21737],[2.93115,50.21951],[2.93183,50.21886]]]}},{"type":"Feature","properties":{"k":"BTN","s":0.004},"geometry":{"type":"MultiPolygon","coordinates":[[[[2.92636,50.21744],[2.92624,50.21738],[2.92632,50.21748],[2.92636,50.21744]]],[[[2.92618,50.21727],[2.92612,50.21724],[2.92616,50.21729],[2.92618,50.21727]]]]}},{"type":"Feature","properties":{"k":"PTC","s":2.344},"geometry":{"type":"Polygon","coordinates":[[[2.93005,50.22098],[2.92939,50.22155],[2.93284,50.2229],[2.93373,50.22243],[2.93005,50.22098]]]}},{"type":"Feature","properties":{"k":"ORH","s":2.401},"geometry":{"type":"Polygon","coordinates":[[[2.92939,50.22155],[2.92869,50.2222],[2.93184,50.22342],[2.93282,50.2229],[2.92939,50.22155]]]}},{"type":"Feature","properties":{"k":"PPH","s":1.912},"geometry":{"type":"Polygon","coordinates":[[[2.95245,50.2279],[2.95159,50.2273],[2.94959,50.22916],[2.95027,50.22954],[2.95245,50.2279]]]}},{"type":"Feature","properties":{"k":"PPH","s":0.445},"geometry":{"type":"Polygon","coordinates":[[[2.95285,50.22501],[2.95345,50.22454],[2.95311,50.2244],[2.95286,50.22486],[2.95259,50.22481],[2.95211,50.2253],[2.95152,50.22517],[2.9516,50.2254],[2.95213,50.2256],[2.95285,50.22501]]]}},{"type":"Feature","properties":{"k":"PPH","s":0.369},"geometry":{"type":"Polygon","coordinates":[[[2.95128,50.22706],[2.95101,50.22694],[2.94977,50.228],[2.95011,50.22814],[2.95128,50.22706]]]}},{"type":"Feature","properties":{"k":"BTN","s":1.413},"geometry":{"type":"Polygon","coordinates":[[[2.95216,50.22113],[2.95153,50.22091],[2.94967,50.22308],[2.95029,50.22331],[2.95216,50.22113]]]}},{"type":"Feature","properties":{"k":"PPH","s":0.017},"geometry":{"type":"Polygon","coordinates":[[[2.94964,50.22749],[2.94919,50.22735],[2.95007,50.22769],[2.94964,50.22749]]]}},{"type":"Feature","properties":{"k":"BTH","s":30.662},"geometry":{"type":"Polygon","coordinates":[[[2.94018,50.21313],[2.93827,50.21491],[2.94662,50.21801],[2.94685,50.21755],[2.94854,50.21602],[2.94933,50.21383],[2.94792,50.21173],[2.94665,50.21043],[2.94396,50.21237],[2.94543,50.21316],[2.94359,50.21448],[2.94018,50.21313]]]}},{"type":"Feature","properties":{"k":"POT","s":0.224},"geometry":{"type":"Polygon","coordinates":[[[2.94796,50.21172],[2.94808,50.2119],[2.9494,50.21154],[2.94938,50.21135],[2.94796,50.21172]]]}},{"type":"Feature","properties":{"k":"PPH","s":0.438},"geometry":{"type":"Polygon","coordinates":[[[2.94553,50.21114],[2.94436,50.21045],[2.94422,50.21055],[2.94496,50.21101],[2.94477,50.21132],[2.9445,50.21136],[2.94484,50.21159],[2.94386,50.21233],[2.94553,50.21114]]]}},{"type":"Feature","properties":{"k":"PPH","s":6.048},"geometry":{"type":"Polygon","coordinates":[[[2.94359,50.21448],[2.94536,50.2132],[2.94247,50.21162],[2.94122,50.21209],[2.94188,50.21254],[2.94151,50.21275],[2.94102,50.21242],[2.94141,50.21228],[2.94118,50.21211],[2.94018,50.21313],[2.94359,50.21448]]]}},{"type":"Feature","properties":{"k":"PPH","s":0.096},"geometry":{"type":"Polygon","coordinates":[[[2.94171,50.21199],[2.94247,50.21162],[2.94236,50.21155],[2.94156,50.21188],[2.94171,50.21199]]]}},{"type":"Feature","properties":{"k":"BTH","s":7.241},"geometry":{"type":"Polygon","coordinates":[[[2.93762,50.21535],[2.93344,50.21344],[2.93106,50.21432],[2.93587,50.21657],[2.93762,50.21535]]]}},{"type":"Feature","properties":{"k":"ORH","s":1.618},"geometry":{"type":"Polygon","coordinates":[[[2.93284,50.21611],[2.93498,50.21707],[2.93587,50.21657],[2.93365,50.21556],[2.93284,50.21611]]]}},{"type":"Feature","properties":{"k":"BTH","s":12.433},"geometry":{"type":"Polygon","coordinates":[[[2.92602,50.21517],[2.92581,50.21526],[2.93272,50.21841],[2.93498,50.21707],[2.93285,50.21611],[2.93248,50.21639],[2.93235,50.21627],[2.93275,50.21599],[2.9296,50.21452],[2.92796,50.21458],[2.9257,50.21503],[2.92602,50.21517]]]}},{"type":"Feature","properties":{"k":"BTH","s":3.803},"geometry":{"type":"Polygon","coordinates":[[[2.95454,50.21929],[2.95341,50.21894],[2.95166,50.22095],[2.95216,50.22113],[2.95029,50.22331],[2.95092,50.22354],[2.95454,50.21929]]]}},{"type":"Feature","properties":{"k":"BTN","s":6.297},"geometry":{"type":"Polygon","coordinates":[[[2.93672,50.2221],[2.931,50.21989],[2.93005,50.22098],[2.9351,50.22294],[2.93672,50.2221]]]}},{"type":"Feature","properties":{"k":"BTN","s":0.001},"geometry":{"type":"Polygon","coordinates":[[[2.9479,50.19746],[2.94752,50.19758],[2.94779,50.1975],[2.9479,50.19746]]]}},{"type":"Feature","properties":{"k":"BTN","s":2.817},"geometry":{"type":"Polygon","coordinates":[[[2.95296,50.22227],[2.95165,50.22381],[2.95339,50.22445],[2.95472,50.22292],[2.95296,50.22227]]]}},{"type":"Feature","properties":{"k":"BTN","s":0.495},"geometry":{"type":"Polygon","coordinates":[[[2.95402,50.22454],[2.95434,50.22481],[2.95529,50.22372],[2.95486,50.22354],[2.95402,50.22454]]]}},{"type":"Feature","properties":{"k":"BTH","s":3.013},"geometry":{"type":"Polygon","coordinates":[[[2.94915,50.22295],[2.94828,50.22399],[2.95014,50.22464],[2.95136,50.22486],[2.95204,50.224],[2.94915,50.22295]]]}},{"type":"Feature","properties":{"k":"JAC","s":0.715},"geometry":{"type":"Polygon","coordinates":[[[2.95292,50.22465],[2.95303,50.22438],[2.95204,50.22401],[2.95136,50.22486],[2.95239,50.22504],[2.95269,50.22483],[2.95246,50.22478],[2.95258,50.22458],[2.95292,50.22465]]]}},{"type":"Feature","properties":{"k":"PTC","s":0.339},"geometry":{"type":"Polygon","coordinates":[[[2.92623,50.21947],[2.92962,50.22118],[2.92974,50.22108],[2.92623,50.21947]]]}},{"type":"Feature","properties":{"k":"BTH","s":2.254},"geometry":{"type":"Polygon","coordinates":[[[2.95416,50.22087],[2.95343,50.2206],[2.95092,50.22354],[2.95165,50.22381],[2.95416,50.22087]]]}},{"type":"Feature","properties":{"k":"MIS","s":0.814},"geometry":{"type":"Polygon","coordinates":[[[2.94924,50.22899],[2.94958,50.22917],[2.9516,50.22725],[2.95129,50.22706],[2.94924,50.22899]]]}},{"type":"Feature","properties":{"k":"BTH","s":1.534},"geometry":{"type":"Polygon","coordinates":[[[2.94593,50.22097],[2.94618,50.22179],[2.94828,50.22258],[2.94886,50.22205],[2.94593,50.22097]]]}},{"type":"Feature","properties":{"k":"BTH","s":1.467},"geometry":{"type":"Polygon","coordinates":[[[2.95088,50.22069],[2.95021,50.22045],[2.9484,50.22261],[2.94905,50.22286],[2.95088,50.22069]]]}},{"type":"Feature","properties":{"k":"BTH","s":7.075},"geometry":{"type":"Polygon","coordinates":[[[2.931,50.21989],[2.93875,50.22284],[2.93897,50.22271],[2.93946,50.22201],[2.93178,50.21904],[2.931,50.21989]]]}},{"type":"Feature","properties":{"k":"BTH","s":0.482},"geometry":{"type":"Polygon","coordinates":[[[2.92869,50.2222],[2.92851,50.22233],[2.93163,50.22352],[2.93184,50.22342],[2.92869,50.2222]]]}},{"type":"Feature","properties":{"k":"BTH","s":6.468},"geometry":{"type":"Polygon","coordinates":[[[2.93414,50.22519],[2.9387,50.22286],[2.93672,50.2221],[2.93196,50.22455],[2.93414,50.22519]]]}}]}