{"type":"FeatureCollection","features":[{"type":"Feature","properties":{"k":"LIF","s":15.414},"geometry":{"type":"Polygon","coordinates":[[[2.84984,50.20239],[2.85127,50.19983],[2.84681,50.19779],[2.84385,50.19897],[2.84317,50.1995],[2.8477,50.20171],[2.84984,50.20239]]]}},{"type":"Feature","properties":{"k":"PTC","s":13.179},"geometry":{"type":"Polygon","coordinates":[[[2.85598,50.218],[2.85842,50.21653],[2.85234,50.21322],[2.85017,50.21481],[2.85598,50.218]]]}},{"type":"Feature","properties":{"k":"BTH","s":2.962},"geometry":{"type":"Polygon","coordinates":[[[2.84159,50.20094],[2.84094,50.20148],[2.84517,50.2035],[2.84593,50.20296],[2.84159,50.20094]]]}},{"type":"Feature","properties":{"k":"JAC","s":0.247},"geometry":{"type":"Polygon","coordinates":[[[2.83244,50.21776],[2.83234,50.21778],[2.83347,50.21916],[2.834,50.21932],[2.83426,50.21913],[2.83342,50.21884],[2.83244,50.21776]]]}},{"type":"Feature","properties":{"k":"BTA","s":0.342},"geometry":{"type":"Polygon","coordinates":[[[2.8333,50.21919],[2.83454,50.21971],[2.83427,50.22032],[2.83442,50.22062],[2.83464,50.21968],[2.83383,50.21922],[2.8334,50.21917],[2.83237,50.21788],[2.83214,50.21785],[2.8333,50.21919]]]}},{"type":"Feature","properties":{"k":"BTA","s":0.037},"geometry":{"type":"Polygon","coordinates":[[[2.83404,50.21928],[2.834,50.21932],[2.83479,50.21965],[2.83404,50.21928]]]}},{"type":"Feature","properties":{"k":"BTN","s":6.671},"geometry":{"type":"Polygon","coordinates":[[[2.84517,50.2035],[2.84094,50.20148],[2.83957,50.2025],[2.84315,50.2049],[2.84517,50.2035]]]}},{"type":"Feature","properties":{"k":"PHF","s":2.077},"geometry":{"type":"Polygon","coordinates":[[[2.84642,50.20263],[2.84202,50.20054],[2.84159,50.20094],[2.84593,50.20297],[2.84642,50.20263]]]}},{"type":"Feature","properties":{"k":"CZH","s":6.982},"geometry":{"type":"Polygon","coordinates":[[[2.84409,50.20432],[2.84982,50.20629],[2.85091,50.20507],[2.84561,50.20326],[2.84409,50.20432]]]}},{"type":"Feature","properties":{"k":"MIS","s":0.84},"geometry":{"type":"Polygon","coordinates":[[[2.83173,50.22926],[2.83445,50.22995],[2.83402,50.22939],[2.83202,50.22888],[2.83173,50.22926]]]}},{"type":"Feature","properties":{"k":"BTH","s":6.912},"geometry":{"type":"Polygon","coordinates":[[[2.83144,50.21959],[2.83368,50.22122],[2.83423,50.22093],[2.83457,50.21975],[2.8333,50.21919],[2.83213,50.21784],[2.83164,50.21796],[2.82879,50.22101],[2.82961,50.22148],[2.83144,50.21959]]]}},{"type":"Feature","properties":{"k":"BTN","s":4.591},"geometry":{"type":"Polygon","coordinates":[[[2.83164,50.21795],[2.82666,50.21926],[2.82771,50.21994],[2.82879,50.22101],[2.83164,50.21795]]]}},{"type":"Feature","properties":{"k":"JAC","s":0.474},"geometry":{"type":"Polygon","coordinates":[[[2.83353,50.22882],[2.83288,50.22846],[2.83251,50.22902],[2.83401,50.22939],[2.83353,50.22882]]]}},{"type":"Feature","properties":{"k":"MIS","s":5.731},"geometry":{"type":"Polygon","coordinates":[[[2.83085,50.2177],[2.83117,50.21735],[2.83023,50.21676],[2.82846,50.21699],[2.82761,50.21682],[2.82684,50.21646],[2.82542,50.21857],[2.82593,50.21878],[2.83085,50.2177]]]}},{"type":"Feature","properties":{"k":"LIF","s":0.173},"geometry":{"type":"Polygon","coordinates":[[[2.82475,50.2187],[2.82454,50.21905],[2.82431,50.21898],[2.82414,50.21923],[2.82535,50.21894],[2.82475,50.2187]]]}},{"type":"Feature","properties":{"k":"BTH","s":0.619},"geometry":{"type":"Polygon","coordinates":[[[2.82538,50.21856],[2.82681,50.21642],[2.82655,50.21643],[2.82555,50.21784],[2.8253,50.21776],[2.82497,50.21839],[2.82538,50.21856]]]}},{"type":"Feature","properties":{"k":"PHF","s":0.021},"geometry":{"type":"MultiPolygon","coordinates":[[[[2.81732,50.22546],[2.81549,50.22703],[2.81635,50.22632],[2.81732,50.22546]]]]}},{"type":"Feature","properties":{"k":"BTH","s":7.437},"geometry":{"type":"Polygon","coordinates":[[[2.83173,50.22926],[2.8301,50.23141],[2.83379,50.23239],[2.83509,50.23073],[2.83445,50.22995],[2.83173,50.22926]]]}},{"type":"Feature","properties":{"k":"BTH","s":0.666},"geometry":{"type":"Polygon","coordinates":[[[2.83905,50.21613],[2.83844,50.21628],[2.84094,50.21714],[2.84117,50.21684],[2.83905,50.21613]]]}},{"type":"Feature","properties":{"k":"JAC","s":0.313},"geometry":{"type":"Polygon","coordinates":[[[2.83844,50.21628],[2.8382,50.21633],[2.84084,50.21726],[2.84094,50.21714],[2.83844,50.21628]]]}},{"type":"Feature","properties":{"k":"MIS","s":0.345},"geometry":{"type":"Polygon","coordinates":[[[2.8382,50.21633],[2.83793,50.2164],[2.84075,50.21739],[2.84085,50.21727],[2.8382,50.21633]]]}},{"type":"Feature","properties":{"k":"BTN","s":1.153},"geometry":{"type":"Polygon","coordinates":[[[2.83793,50.2164],[2.8371,50.2166],[2.84051,50.21776],[2.84075,50.21739],[2.83793,50.2164]]]}},{"type":"Feature","properties":{"k":"PTC","s":8.17},"geometry":{"type":"Polygon","coordinates":[[[2.81486,50.22759],[2.82236,50.2304],[2.82294,50.2293],[2.81603,50.22659],[2.81486,50.22759]]]}},{"type":"Feature","properties":{"k":"BTH","s":20.648},"geometry":{"type":"Polygon","coordinates":[[[2.83187,50.21743],[2.84134,50.21516],[2.8424,50.21461],[2.84252,50.21449],[2.84234,50.21442],[2.84295,50.21364],[2.84011,50.21263],[2.83515,50.21525],[2.83221,50.21425],[2.83011,50.21538],[2.83109,50.2158],[2.83011,50.21646],[2.83187,50.21743]]]}},{"type":"Feature","properties":{"k":"BTH","s":1.967},"geometry":{"type":"MultiPolygon","coordinates":[[[[2.83594,50.23295],[2.83625,50.23303],[2.83626,50.23302],[2.83594,50.23295]]],[[[2.83509,50.23073],[2.83378,50.2324],[2.83536,50.2328],[2.83616,50.23194],[2.83509,50.23073]]]]}},{"type":"Feature","properties":{"k":"EPI","s":12.004},"geometry":{"type":"Polygon","coordinates":[[[2.82294,50.2293],[2.82386,50.22732],[2.81786,50.225],[2.81603,50.22659],[2.82294,50.2293]]]}},{"type":"Feature","properties":{"k":"BTN","s":17.136},"geometry":{"type":"Polygon","coordinates":[[[2.8301,50.23141],[2.82787,50.2344],[2.83401,50.23595],[2.83619,50.23307],[2.8301,50.23141]]]}},{"type":"Feature","properties":{"k":"PPH","s":0.501},"geometry":{"type":"Polygon","coordinates":[[[2.83419,50.236],[2.83472,50.2354],[2.83639,50.23309],[2.83625,50.23303],[2.83401,50.23595],[2.83419,50.236]]]}},{"type":"Feature","properties":{"k":"BTH","s":13.003},"geometry":{"type":"Polygon","coordinates":[[[2.82441,50.22422],[2.82652,50.2219],[2.82787,50.22033],[2.82604,50.21937],[2.82364,50.21995],[2.82151,50.22305],[2.82059,50.22266],[2.82058,50.22267],[2.82162,50.22311],[2.82173,50.22299],[2.82228,50.2232],[2.8222,50.22329],[2.82441,50.22422]]]}},{"type":"Feature","properties":{"k":"BTH","s":2.437},"geometry":{"type":"Polygon","coordinates":[[[2.82787,50.2344],[2.82761,50.23475],[2.83376,50.23644],[2.83419,50.236],[2.82787,50.2344]]]}},{"type":"Feature","properties":{"k":"BTH","s":10.464},"geometry":{"type":"Polygon","coordinates":[[[2.82738,50.23468],[2.82865,50.233],[2.82218,50.2309],[2.82124,50.23266],[2.82738,50.23468]]]}},{"type":"Feature","properties":{"k":"PTC","s":5.496},"geometry":{"type":"Polygon","coordinates":[[[2.84202,50.20053],[2.84641,50.20262],[2.8477,50.20171],[2.84317,50.1995],[2.84202,50.20053]]]}},{"type":"Feature","properties":{"k":"BTH","s":0.23},"geometry":{"type":"Polygon","coordinates":[[[2.81656,50.23305],[2.81639,50.23298],[2.81633,50.23305],[2.81991,50.23435],[2.81656,50.23305]]]}},{"type":"Feature","properties":{"k":"BTH","s":7.32},"geometry":{"type":"Polygon","coordinates":[[[2.82135,50.23225],[2.81807,50.23098],[2.81639,50.23298],[2.81991,50.23435],[2.82135,50.23225]]]}},{"type":"Feature","properties":{"k":"BTH","s":7.396},"geometry":{"type":"Polygon","coordinates":[[[2.82766,50.22536],[2.82847,50.22461],[2.82901,50.22487],[2.82943,50.2246],[2.82972,50.22474],[2.83054,50.22432],[2.82624,50.22223],[2.82652,50.2219],[2.82442,50.22423],[2.82766,50.22536]]]}},{"type":"Feature","properties":{"k":"PTC","s":1.029},"geometry":{"type":"Polygon","coordinates":[[[2.82152,50.23192],[2.81834,50.23068],[2.81807,50.23098],[2.82137,50.23221],[2.82152,50.23192]]]}},{"type":"Feature","properties":{"k":"BTH","s":3.968},"geometry":{"type":"Polygon","coordinates":[[[2.82784,50.22038],[2.82624,50.22223],[2.82795,50.22306],[2.82826,50.22281],[2.829,50.22317],[2.82972,50.22235],[2.82899,50.22205],[2.82941,50.22159],[2.82894,50.22143],[2.82784,50.22038]]]}},{"type":"Feature","properties":{"k":"PTC","s":4.072},"geometry":{"type":"Polygon","coordinates":[[[2.82153,50.23192],[2.82226,50.23053],[2.8194,50.22942],[2.81834,50.23068],[2.82153,50.23192]]]}},{"type":"Feature","properties":{"k":"BOR","s":0.013},"geometry":{"type":"Polygon","coordinates":[[[2.82972,50.22235],[2.82901,50.22204],[2.82942,50.2216],[2.82899,50.22205],[2.82972,50.22235]]]}},{"type":"Feature","properties":{"k":"JAC","s":0.137},"geometry":{"type":"Polygon","coordinates":[[[2.82972,50.22474],[2.82986,50.22481],[2.83023,50.22456],[2.8305,50.2247],[2.83072,50.22455],[2.83054,50.22432],[2.82972,50.22474]]]}},{"type":"Feature","properties":{"k":"BTH","s":8.218},"geometry":{"type":"Polygon","coordinates":[[[2.8194,50.22941],[2.81748,50.22868],[2.81449,50.23227],[2.81543,50.23408],[2.8194,50.22941]]]}},{"type":"Feature","properties":{"k":"PPH","s":2.624},"geometry":{"type":"Polygon","coordinates":[[[2.8332,50.22631],[2.83219,50.22561],[2.83006,50.2267],[2.83159,50.22774],[2.8332,50.22631]]]}},{"type":"Feature","properties":{"k":"PPH","s":1.19},"geometry":{"type":"Polygon","coordinates":[[[2.83238,50.22805],[2.8339,50.22668],[2.83322,50.22632],[2.83158,50.22776],[2.83238,50.22805]]]}},{"type":"Feature","properties":{"k":"PPH","s":0.508},"geometry":{"type":"Polygon","coordinates":[[[2.83618,50.22716],[2.83592,50.22698],[2.83576,50.22709],[2.83551,50.22697],[2.83462,50.22755],[2.83512,50.22787],[2.83618,50.22716]]]}},{"type":"Feature","properties":{"k":"BTH","s":3.013},"geometry":{"type":"Polygon","coordinates":[[[2.81389,50.23161],[2.81449,50.23227],[2.81747,50.22869],[2.81664,50.22835],[2.81389,50.23161]]]}},{"type":"Feature","properties":{"k":"JAC","s":0.048},"geometry":{"type":"Polygon","coordinates":[[[2.82986,50.22682],[2.82985,50.22667],[2.82962,50.22709],[2.82916,50.22697],[2.82966,50.22715],[2.82986,50.22682]]]}},{"type":"Feature","properties":{"k":"BTH","s":2.568},"geometry":{"type":"Polygon","coordinates":[[[2.81389,50.23161],[2.81664,50.22834],[2.81588,50.22805],[2.81336,50.23098],[2.81389,50.23161]]]}},{"type":"Feature","properties":{"k":"MIS","s":1.676},"geometry":{"type":"Polygon","coordinates":[[[2.84487,50.21426],[2.84603,50.214],[2.84406,50.21306],[2.84321,50.21472],[2.84487,50.21426]]]}},{"type":"Feature","properties":{"k":"BTH","s":7.486},"geometry":{"type":"Polygon","coordinates":[[[2.82966,50.22715],[2.82916,50.22697],[2.82774,50.22956],[2.83054,50.23047],[2.83224,50.22822],[2.8299,50.22671],[2.82966,50.22715]]]}},{"type":"Feature","properties":{"k":"JAC","s":0.152},"geometry":{"type":"Polygon","coordinates":[[[2.83673,50.2256],[2.83656,50.2255],[2.8361,50.22584],[2.83623,50.22614],[2.83673,50.2256]]]}},{"type":"Feature","properties":{"k":"BTH","s":8.17},"geometry":{"type":"Polygon","coordinates":[[[2.82917,50.22693],[2.82874,50.22683],[2.82892,50.22645],[2.82428,50.2271],[2.82366,50.22821],[2.82773,50.22958],[2.82917,50.22693]]]}},{"type":"Feature","properties":{"k":"BTH","s":19.05},"geometry":{"type":"Polygon","coordinates":[[[2.82058,50.22267],[2.81786,50.225],[2.82386,50.22732],[2.82399,50.22707],[2.82444,50.22698],[2.82876,50.2264],[2.82862,50.22597],[2.82757,50.22538],[2.8253,50.22466],[2.82215,50.22334],[2.82207,50.22343],[2.82058,50.22267]]]}},{"type":"Feature","properties":{"k":"PTC","s":16.589},"geometry":{"type":"Polygon","coordinates":[[[2.82865,50.23299],[2.83054,50.23048],[2.82367,50.22822],[2.82221,50.23088],[2.82865,50.23299]]]}},{"type":"Feature","properties":{"k":"BTN","s":2.784},"geometry":{"type":"Polygon","coordinates":[[[2.85356,50.20749],[2.85609,50.20598],[2.85528,50.20519],[2.85239,50.20694],[2.85356,50.20749]]]}},{"type":"Feature","properties":{"k":"BTH","s":7.637},"geometry":{"type":"Polygon","coordinates":[[[2.8556,50.20854],[2.85023,50.20603],[2.84913,50.20735],[2.85366,50.20954],[2.8556,50.20854]]]}},{"type":"Feature","properties":{"k":"PTC","s":2.903},"geometry":{"type":"Polygon","coordinates":[[[2.85302,50.21004],[2.85377,50.20959],[2.84913,50.20735],[2.8487,50.20796],[2.85302,50.21004]]]}},{"type":"Feature","properties":{"k":"ORP","s":7.504},"geometry":{"type":"Polygon","coordinates":[[[2.84791,50.20888],[2.84671,50.21011],[2.85162,50.21243],[2.8536,50.21164],[2.84791,50.20888]]]}},{"type":"Feature","properties":{"k":"BTH","s":6.096},"geometry":{"type":"Polygon","coordinates":[[[2.84863,50.20804],[2.84792,50.20888],[2.85361,50.21162],[2.85495,50.21099],[2.84863,50.20804]]]}},{"type":"Feature","properties":{"k":"PTC","s":11.398},"geometry":{"type":"Polygon","coordinates":[[[2.84838,50.20813],[2.84981,50.20629],[2.84409,50.20432],[2.84185,50.2059],[2.84838,50.20813]]]}},{"type":"Feature","properties":{"k":"BTN","s":11.35},"geometry":{"type":"Polygon","coordinates":[[[2.85574,50.21156],[2.86092,50.21442],[2.86176,50.21242],[2.86132,50.21221],[2.86158,50.21206],[2.86133,50.21192],[2.86187,50.21142],[2.86013,50.21057],[2.85901,50.20972],[2.85574,50.21156]]]}},{"type":"Feature","properties":{"k":"PPH","s":0.306},"geometry":{"type":"Polygon","coordinates":[[[2.83758,50.22525],[2.83798,50.22553],[2.83869,50.22499],[2.83809,50.22481],[2.83758,50.22525]]]}},{"type":"Feature","properties":{"k":"BTH","s":1.398},"geometry":{"type":"Polygon","coordinates":[[[2.84138,50.22649],[2.84041,50.22573],[2.83911,50.22662],[2.84021,50.22729],[2.84138,50.22649]]]}},{"type":"Feature","properties":{"k":"MIS","s":1.884},"geometry":{"type":"Polygon","coordinates":[[[2.8404,50.2242],[2.83977,50.22464],[2.84027,50.22492],[2.84,50.2252],[2.84009,50.22535],[2.84111,50.22615],[2.84235,50.22533],[2.8404,50.2242]]]}},{"type":"Feature","properties":{"k":"PPH","s":0.755},"geometry":{"type":"Polygon","coordinates":[[[2.8388,50.22432],[2.83858,50.22414],[2.83823,50.22432],[2.83859,50.22444],[2.83814,50.22473],[2.83849,50.22484],[2.83905,50.22464],[2.83938,50.22424],[2.83992,50.22453],[2.84042,50.22417],[2.83978,50.22378],[2.8388,50.22432]]]}},{"type":"Feature","properties":{"k":"BTH","s":6.345},"geometry":{"type":"Polygon","coordinates":[[[2.85823,50.20913],[2.85729,50.20842],[2.85806,50.20808],[2.85743,50.20746],[2.85302,50.21004],[2.85496,50.211],[2.85823,50.20913]]]}},{"type":"Feature","properties":{"k":"PHF","s":2.778},"geometry":{"type":"Polygon","coordinates":[[[2.85564,50.20851],[2.85743,50.20746],[2.85649,50.20638],[2.8541,50.20776],[2.85564,50.20851]]]}},{"type":"Feature","properties":{"k":"PTC","s":1.205},"geometry":{"type":"Polygon","coordinates":[[[2.85483,50.20673],[2.85356,50.20749],[2.8541,50.20776],[2.85649,50.20638],[2.85609,50.20598],[2.85483,50.20673]]]}},{"type":"Feature","properties":{"k":"BTH","s":0.728},"geometry":{"type":"MultiPolygon","coordinates":[[[[2.85729,50.20717],[2.85748,50.20736],[2.85801,50.20706],[2.85754,50.20668],[2.85705,50.20677],[2.8561,50.2059],[2.85633,50.20578],[2.85563,50.20501],[2.85528,50.20519],[2.85729,50.20717]]],[[[2.8572,50.20426],[2.85694,50.20407],[2.85684,50.20438],[2.8572,50.20426]]]]}},{"type":"Feature","properties":{"k":"JAC","s":0.071},"geometry":{"type":"Polygon","coordinates":[[[2.83814,50.22473],[2.83857,50.22446],[2.83842,50.22438],[2.83791,50.22466],[2.83814,50.22473]]]}},{"type":"Feature","properties":{"k":"BOR","s":0.041},"geometry":{"type":"Polygon","coordinates":[[[2.83763,50.22286],[2.83849,50.22345],[2.83856,50.22341],[2.83763,50.22286]]]}},{"type":"Feature","properties":{"k":"PTC","s":2.438},"geometry":{"type":"Polygon","coordinates":[[[2.83505,50.22193],[2.83674,50.22256],[2.837,50.22237],[2.83743,50.2225],[2.83828,50.22159],[2.83575,50.2209],[2.83505,50.22193]]]}},{"type":"Feature","properties":{"k":"JAC","s":0.1},"geometry":{"type":"Polygon","coordinates":[[[2.835,50.22195],[2.83675,50.22259],[2.837,50.2224],[2.83742,50.22251],[2.837,50.22237],[2.83674,50.22256],[2.83505,50.22193],[2.83577,50.22087],[2.835,50.22195]]]}},{"type":"Feature","properties":{"k":"PTC","s":10.654},"geometry":{"type":"Polygon","coordinates":[[[2.83856,50.22341],[2.84329,50.22123],[2.84419,50.22059],[2.84018,50.21875],[2.83937,50.22035],[2.83764,50.22256],[2.83763,50.22286],[2.83856,50.22341]],[[2.83898,50.22244],[2.83807,50.22311],[2.83798,50.22305],[2.83898,50.22244]]]}},{"type":"Feature","properties":{"k":"BTH","s":5.897},"geometry":{"type":"Polygon","coordinates":[[[2.84514,50.22536],[2.84558,50.22562],[2.84654,50.22473],[2.84191,50.22197],[2.83907,50.22339],[2.83925,50.22349],[2.84069,50.22266],[2.84514,50.22536]]]}},{"type":"Feature","properties":{"k":"BTN","s":6.683},"geometry":{"type":"Polygon","coordinates":[[[2.8445,50.2266],[2.84558,50.22562],[2.84069,50.22266],[2.83925,50.22349],[2.8445,50.2266]]]}},{"type":"Feature","properties":{"k":"CEL","s":10.349},"geometry":{"type":"Polygon","coordinates":[[[2.84861,50.2235],[2.84883,50.22318],[2.84447,50.2206],[2.84363,50.22123],[2.84191,50.22196],[2.84669,50.22469],[2.84861,50.2235]]]}},{"type":"Feature","properties":{"k":"BTH","s":2.517},"geometry":{"type":"Polygon","coordinates":[[[2.83297,50.20769],[2.83585,50.20999],[2.83659,50.20948],[2.83376,50.20719],[2.83297,50.20769]]]}},{"type":"Feature","properties":{"k":"PTC","s":8.634},"geometry":{"type":"Polygon","coordinates":[[[2.84924,50.22252],[2.85056,50.22154],[2.84605,50.21908],[2.84447,50.2206],[2.84883,50.22318],[2.84924,50.22252]]]}},{"type":"Feature","properties":{"k":"BTH","s":0.0},"geometry":{"type":"MultiPolygon","coordinates":[[[[2.84913,50.22279],[2.84915,50.22275],[2.84914,50.22275],[2.84913,50.22279]]]]}},{"type":"Feature","properties":{"k":"BTH","s":0.016},"geometry":{"type":"Polygon","coordinates":[]}},{"type":"Feature","properties":{"k":"BTN","s":10.697},"geometry":{"type":"Polygon","coordinates":[[[2.86031,50.21553],[2.86075,50.21449],[2.86036,50.2142],[2.85565,50.21164],[2.85331,50.21267],[2.85945,50.21605],[2.86031,50.21553]]]}},{"type":"Feature","properties":{"k":"BTH","s":3.751},"geometry":{"type":"Polygon","coordinates":[[[2.8319,50.20839],[2.83481,50.21071],[2.83585,50.20999],[2.83297,50.20769],[2.8319,50.20839]]]}},{"type":"Feature","properties":{"k":"LIF","s":5.224},"geometry":{"type":"Polygon","coordinates":[[[2.85234,50.21322],[2.85849,50.21657],[2.85945,50.21605],[2.85331,50.21267],[2.85234,50.21322]]]}},{"type":"Feature","properties":{"k":"PTC","s":0.0},"geometry":{"type":"Polygon","coordinates":[[[2.83237,50.20795],[2.83228,50.20801],[2.83237,50.20796],[2.83237,50.20795]]]}},{"type":"Feature","properties":{"k":"PPH","s":3.147},"geometry":{"type":"Polygon","coordinates":[[[2.83854,50.23034],[2.83917,50.23063],[2.83934,50.23048],[2.83833,50.22979],[2.83557,50.23121],[2.83602,50.23176],[2.83695,50.23235],[2.83854,50.23118],[2.83848,50.23099],[2.83803,50.23094],[2.83776,50.23073],[2.83854,50.23034]]]}},{"type":"Feature","properties":{"k":"BTN","s":4.25},"geometry":{"type":"Polygon","coordinates":[[[2.83557,50.23121],[2.83786,50.23004],[2.83521,50.22841],[2.83391,50.22907],[2.83557,50.23121]]]}},{"type":"Feature","properties":{"k":"PHF","s":2.777},"geometry":{"type":"Polygon","coordinates":[[[2.84309,50.22736],[2.84374,50.2272],[2.8445,50.2266],[2.84235,50.22533],[2.84111,50.22615],[2.84309,50.22736]]]}},{"type":"Feature","properties":{"k":"PHF","s":0.161},"geometry":{"type":"Polygon","coordinates":[[[2.83114,50.21254],[2.83124,50.21264],[2.83394,50.21117],[2.83114,50.21254]]]}},{"type":"Feature","properties":{"k":"BTA","s":0.009},"geometry":{"type":"Polygon","coordinates":[[[2.82684,50.21639],[2.82655,50.21643],[2.82673,50.21643],[2.82684,50.21639]]]}},{"type":"Feature","properties":{"k":"BTA","s":0.084},"geometry":{"type":"Polygon","coordinates":[[[2.8318,50.21745],[2.83187,50.21743],[2.83042,50.21657],[2.83008,50.2165],[2.8318,50.21745]]]}},{"type":"Feature","properties":{"k":"JAC","s":0.005},"geometry":{"type":"MultiPolygon","coordinates":[]}},{"type":"Feature","properties":{"k":"BTA","s":0.123},"geometry":{"type":"Polygon","coordinates":[[[2.84009,50.22853],[2.84122,50.22921],[2.8392,50.22797],[2.84009,50.22853]]]}},{"type":"Feature","properties":{"k":"BTH","s":3.781},"geometry":{"type":"Polygon","coordinates":[[[2.8392,50.22797],[2.84128,50.22916],[2.84253,50.22764],[2.84289,50.22745],[2.84139,50.22649],[2.8392,50.22797]]]}},{"type":"Feature","properties":{"k":"MIS","s":1.495},"geometry":{"type":"Polygon","coordinates":[[[2.83918,50.22798],[2.84022,50.2273],[2.83909,50.22662],[2.83871,50.2268],[2.83778,50.22648],[2.83741,50.22681],[2.83918,50.22798]]]}},{"type":"Feature","properties":{"k":"BTN","s":11.717},"geometry":{"type":"Polygon","coordinates":[[[2.84594,50.21073],[2.84396,50.21005],[2.83851,50.20819],[2.83666,50.20947],[2.84457,50.21218],[2.84594,50.21073]]]}},{"type":"Feature","properties":{"k":"BTH","s":6.658},"geometry":{"type":"Polygon","coordinates":[[[2.84704,50.21435],[2.84477,50.21494],[2.84781,50.21638],[2.85155,50.2136],[2.85092,50.21325],[2.84704,50.21435]]]}},{"type":"Feature","properties":{"k":"BTH","s":21.586},"geometry":{"type":"Polygon","coordinates":[[[2.84751,50.21684],[2.84682,50.21782],[2.85187,50.22058],[2.85598,50.218],[2.85017,50.21481],[2.84751,50.21684]]]}},{"type":"Feature","properties":{"k":"BTH","s":0.477},"geometry":{"type":"Polygon","coordinates":[[[2.83511,50.21854],[2.83404,50.21928],[2.83482,50.21961],[2.83515,50.21921],[2.83511,50.21854]]]}},{"type":"Feature","properties":{"k":"BTH","s":0.011},"geometry":{"type":"Polygon","coordinates":[[[2.85139,50.2211],[2.85274,50.22019],[2.85137,50.22109],[2.85139,50.2211]]]}},{"type":"Feature","properties":{"k":"PPH","s":5.2},"geometry":{"type":"Polygon","coordinates":[[[2.83391,50.22907],[2.83521,50.22841],[2.83786,50.23004],[2.83957,50.22903],[2.83885,50.2286],[2.83836,50.22886],[2.83742,50.22839],[2.8366,50.22885],[2.83462,50.22755],[2.83501,50.2273],[2.8341,50.22681],[2.83369,50.22716],[2.8339,50.22724],[2.83362,50.2275],[2.83341,50.22741],[2.83259,50.22821],[2.83391,50.22907]]]}},{"type":"Feature","properties":{"k":"BTH","s":6.388},"geometry":{"type":"Polygon","coordinates":[[[2.85194,50.22063],[2.84682,50.21783],[2.84605,50.21908],[2.85054,50.22153],[2.85194,50.22063]]]}},{"type":"Feature","properties":{"k":"PHF","s":13.897},"geometry":{"type":"Polygon","coordinates":[[[2.84429,50.22055],[2.84551,50.21949],[2.84667,50.2178],[2.8423,50.21578],[2.84096,50.21731],[2.8402,50.21875],[2.84429,50.22055]]]}},{"type":"Feature","properties":{"k":"BTN","s":9.021},"geometry":{"type":"Polygon","coordinates":[[[2.83749,50.21804],[2.83537,50.21911],[2.8348,50.22015],[2.83609,50.22054],[2.83583,50.22089],[2.83828,50.22159],[2.83926,50.22032],[2.84012,50.21853],[2.84001,50.21873],[2.83749,50.21804]]]}},{"type":"Feature","properties":{"k":"BTH","s":9.848},"geometry":{"type":"Polygon","coordinates":[[[2.84406,50.21306],[2.84603,50.214],[2.84829,50.2135],[2.85093,50.21269],[2.84631,50.21052],[2.84406,50.21306]]]}},{"type":"Feature","properties":{"k":"BTH","s":6.968},"geometry":{"type":"Polygon","coordinates":[[[2.83342,50.21884],[2.83426,50.21913],[2.83517,50.2185],[2.83584,50.21872],[2.83688,50.21828],[2.83811,50.21745],[2.83927,50.21813],[2.84012,50.21838],[2.84042,50.2179],[2.83677,50.21669],[2.83244,50.21776],[2.83342,50.21884]]]}},{"type":"Feature","properties":{"k":"AVP","s":0.496},"geometry":{"type":"Polygon","coordinates":[[[2.83709,50.2166],[2.83677,50.21668],[2.84043,50.2179],[2.8405,50.21776],[2.83709,50.2166]]]}},{"type":"Feature","properties":{"k":"BTH","s":0.485},"geometry":{"type":"Polygon","coordinates":[[[2.85239,50.20693],[2.85263,50.20678],[2.85047,50.20572],[2.85032,50.20594],[2.85239,50.20693]]]}},{"type":"Feature","properties":{"k":"JAC","s":0.264},"geometry":{"type":"Polygon","coordinates":[[[2.83853,50.21832],[2.84001,50.21873],[2.84012,50.21853],[2.83876,50.2182],[2.83853,50.21832]]]}},{"type":"Feature","properties":{"k":"PTC","s":9.787},"geometry":{"type":"Polygon","coordinates":[[[2.83011,50.21538],[2.8372,50.21164],[2.83472,50.21079],[2.83124,50.21264],[2.83144,50.21284],[2.83082,50.21326],[2.8312,50.21356],[2.82913,50.2147],[2.83011,50.21538]]]}},{"type":"Feature","properties":{"k":"MIS","s":3.238},"geometry":{"type":"Polygon","coordinates":[[[2.85047,50.20572],[2.85263,50.20678],[2.85417,50.20582],[2.85148,50.20454],[2.85047,50.20572]]]}},{"type":"Feature","properties":{"k":"MIS","s":0.734},"geometry":{"type":"Polygon","coordinates":[[[2.84135,50.21635],[2.84008,50.21592],[2.83913,50.21614],[2.84116,50.21682],[2.84135,50.21635]]]}},{"type":"Feature","properties":{"k":"BTA","s":0.457},"geometry":{"type":"Polygon","coordinates":[[[2.83032,50.21665],[2.82842,50.21688],[2.82719,50.21644],[2.82684,50.21646],[2.82761,50.21682],[2.82846,50.21699],[2.83023,50.21676],[2.83117,50.21735],[2.83032,50.21665]]]}},{"type":"Feature","properties":{"k":"PHF","s":9.996},"geometry":{"type":"Polygon","coordinates":[[[2.84005,50.21266],[2.84011,50.21263],[2.8372,50.21164],[2.83222,50.21425],[2.83515,50.21525],[2.84005,50.21266]]]}},{"type":"Feature","properties":{"k":"BTH","s":19.125},"geometry":{"type":"Polygon","coordinates":[[[2.83851,50.20819],[2.84594,50.21073],[2.84838,50.20813],[2.84183,50.2059],[2.83851,50.20819]]]}},{"type":"Feature","properties":{"k":"BTA","s":0.117},"geometry":{"type":"Polygon","coordinates":[[[2.8391,50.22802],[2.83918,50.22798],[2.83741,50.22681],[2.8391,50.22802]]]}},{"type":"Feature","properties":{"k":"BTN","s":5.954},"geometry":{"type":"Polygon","coordinates":[[[2.84778,50.21637],[2.84477,50.21494],[2.84299,50.21533],[2.84276,50.21527],[2.84231,50.21578],[2.84667,50.2178],[2.84725,50.21683],[2.84778,50.21637]]]}},{"type":"Feature","properties":{"k":"BTN","s":4.377},"geometry":{"type":"Polygon","coordinates":[[[2.83492,50.2108],[2.83805,50.21185],[2.83927,50.21038],[2.83667,50.20949],[2.83492,50.2108]]]}},{"type":"Feature","properties":{"k":"PTC","s":0.882},"geometry":{"type":"Polygon","coordinates":[[[2.85663,50.20424],[2.85681,50.20416],[2.85682,50.20399],[2.85654,50.20412],[2.85628,50.20383],[2.85399,50.20264],[2.8528,50.20229],[2.85272,50.20242],[2.85663,50.20424]]]}},{"type":"Feature","properties":{"k":"BTH","s":7.833},"geometry":{"type":"Polygon","coordinates":[[[2.83805,50.21185],[2.84317,50.21357],[2.8436,50.21307],[2.84394,50.21298],[2.84453,50.21217],[2.83927,50.21038],[2.83805,50.21185]]]}},{"type":"Feature","properties":{"k":"BTN","s":1.825},"geometry":{"type":"Polygon","coordinates":[[[2.85592,50.20455],[2.85663,50.20424],[2.85272,50.20242],[2.8525,50.20282],[2.85592,50.20455]]]}},{"type":"Feature","properties":{"k":"PHF","s":5.149},"geometry":{"type":"Polygon","coordinates":[[[2.85148,50.20454],[2.85417,50.20582],[2.85615,50.20472],[2.85247,50.20299],[2.85148,50.20454]]]}},{"type":"Feature","properties":{"k":"BTH","s":8.681},"geometry":{"type":"Polygon","coordinates":[[[2.84562,50.20325],[2.85089,50.20506],[2.85207,50.20322],[2.84777,50.20172],[2.84562,50.20325]]]}},{"type":"Feature","properties":{"k":"BTH","s":5.385},"geometry":{"type":"Polygon","coordinates":[[[2.85214,50.20316],[2.85331,50.20109],[2.85342,50.20081],[2.85128,50.19983],[2.84984,50.20239],[2.85214,50.20316]]]}},{"type":"Feature","properties":{"k":"LIF","s":0.229},"geometry":{"type":"Polygon","coordinates":[[[2.82119,50.23275],[2.82674,50.23448],[2.82124,50.23266],[2.82119,50.23275]]]}}]}