{"type":"FeatureCollection","features":[{"type":"Feature","properties":{"k":"PPH","s":0.197},"geometry":{"type":"Polygon","coordinates":[[[1.9387,50.77053],[1.93697,50.77004],[1.93685,50.77013],[1.93856,50.77064],[1.9387,50.77053]]]}},{"type":"Feature","properties":{"k":"BTA","s":0.043},"geometry":{"type":"Polygon","coordinates":[[[1.93614,50.76468],[1.93671,50.76469],[1.93563,50.76439],[1.93614,50.76468]]]}},{"type":"Feature","properties":{"k":"BTH","s":2.972},"geometry":{"type":"Polygon","coordinates":[[[1.94012,50.76859],[1.94117,50.76886],[1.94206,50.76938],[1.94331,50.76846],[1.94296,50.76828],[1.94388,50.7674],[1.94352,50.76727],[1.94258,50.76806],[1.94126,50.76734],[1.94043,50.76788],[1.94067,50.76813],[1.94012,50.76859]]]}},{"type":"Feature","properties":{"k":"PPH","s":4.009},"geometry":{"type":"Polygon","coordinates":[[[1.94187,50.76648],[1.94106,50.76713],[1.94022,50.76648],[1.93942,50.76735],[1.939,50.76723],[1.93885,50.76782],[1.94001,50.76823],[1.93991,50.76834],[1.93883,50.76788],[1.93856,50.76874],[1.93872,50.7688],[1.939,50.76856],[1.9397,50.76887],[1.9406,50.76813],[1.94039,50.76788],[1.94121,50.76733],[1.94258,50.76806],[1.94356,50.76722],[1.94187,50.76648]]]}},{"type":"Feature","properties":{"k":"BTA","s":0.058},"geometry":{"type":"Polygon","coordinates":[[[1.94172,50.76628],[1.94161,50.76629],[1.94291,50.76693],[1.94172,50.76628]]]}},{"type":"Feature","properties":{"k":"PPH","s":1.216},"geometry":{"type":"Polygon","coordinates":[[[1.94185,50.76647],[1.93932,50.76536],[1.93925,50.76574],[1.94117,50.76702],[1.94185,50.76647]]]}},{"type":"Feature","properties":{"k":"PPH","s":0.378},"geometry":{"type":"Polygon","coordinates":[[[1.93923,50.76576],[1.93905,50.76707],[1.93909,50.76708],[1.93983,50.76625],[1.93923,50.76576]]]}},{"type":"Feature","properties":{"k":"PPH","s":0.388},"geometry":{"type":"Polygon","coordinates":[[[1.93906,50.76713],[1.93941,50.76733],[1.9402,50.76646],[1.93987,50.7662],[1.93906,50.76713]]]}},{"type":"Feature","properties":{"k":"ORH","s":0.253},"geometry":{"type":"Polygon","coordinates":[[[1.93838,50.76862],[1.93864,50.76764],[1.93782,50.76835],[1.93838,50.76862]]]}},{"type":"Feature","properties":{"k":"BTH","s":0.86},"geometry":{"type":"Polygon","coordinates":[[[1.9375,50.76977],[1.93889,50.77018],[1.93941,50.76938],[1.93835,50.76911],[1.9375,50.76977]]]}},{"type":"Feature","properties":{"k":"PPH","s":0.454},"geometry":{"type":"Polygon","coordinates":[[[1.93443,50.7696],[1.93482,50.76978],[1.93595,50.76904],[1.93545,50.76882],[1.93443,50.7696]]]}},{"type":"Feature","properties":{"k":"BOR","s":0.026},"geometry":{"type":"Polygon","coordinates":[[[1.9342,50.76701],[1.9351,50.76641],[1.93506,50.76639],[1.9342,50.76701]]]}},{"type":"Feature","properties":{"k":"ORH","s":1.688},"geometry":{"type":"Polygon","coordinates":[[[1.93265,50.76541],[1.93208,50.76599],[1.93423,50.76696],[1.93506,50.76639],[1.9338,50.76575],[1.93289,50.7654],[1.93265,50.76541]]]}},{"type":"Feature","properties":{"k":"ORP","s":0.894},"geometry":{"type":"Polygon","coordinates":[[[1.93167,50.76635],[1.93361,50.76722],[1.93415,50.76706],[1.93423,50.76696],[1.93202,50.76604],[1.93167,50.76635]]]}},{"type":"Feature","properties":{"k":"BTH","s":1.206},"geometry":{"type":"Polygon","coordinates":[[[1.93476,50.76786],[1.9329,50.76698],[1.93228,50.76751],[1.93419,50.76839],[1.93476,50.76786]]]}},{"type":"Feature","properties":{"k":"MIS","s":0.548},"geometry":{"type":"Polygon","coordinates":[[[1.93211,50.76589],[1.93095,50.76547],[1.93053,50.76594],[1.93161,50.76633],[1.93211,50.76589]]]}},{"type":"Feature","properties":{"k":"MIS","s":0.54},"geometry":{"type":"Polygon","coordinates":[[[1.93152,50.76679],[1.93202,50.76661],[1.93051,50.76597],[1.9302,50.76631],[1.93152,50.76679]]]}},{"type":"Feature","properties":{"k":"PTR","s":0.03},"geometry":{"type":"Polygon","coordinates":[[[1.93161,50.76633],[1.93053,50.76594],[1.93051,50.76597],[1.93161,50.76633]]]}},{"type":"Feature","properties":{"k":"BTH","s":1.628},"geometry":{"type":"Polygon","coordinates":[[[1.93234,50.76745],[1.93151,50.76692],[1.93125,50.76683],[1.93108,50.76702],[1.93065,50.76688],[1.92959,50.76774],[1.9316,50.76816],[1.93234,50.76745]]]}},{"type":"Feature","properties":{"k":"PPH","s":1.393},"geometry":{"type":"Polygon","coordinates":[[[1.93288,50.76926],[1.93326,50.76899],[1.93161,50.76816],[1.92959,50.76774],[1.92893,50.76794],[1.93111,50.76856],[1.93288,50.76926]]]}},{"type":"Feature","properties":{"k":"AVP","s":0.156},"geometry":{"type":"Polygon","coordinates":[[[1.93163,50.7688],[1.93154,50.76887],[1.93291,50.76949],[1.93303,50.76939],[1.93163,50.7688]]]}},{"type":"Feature","properties":{"k":"BTA","s":0.06},"geometry":{"type":"Polygon","coordinates":[[[1.93303,50.76939],[1.93308,50.76936],[1.93208,50.76892],[1.93163,50.7688],[1.93303,50.76939]]]}},{"type":"Feature","properties":{"k":"MIS","s":0.121},"geometry":{"type":"MultiPolygon","coordinates":[[[[1.93063,50.77132],[1.93041,50.77133],[1.93113,50.7717],[1.93063,50.77132]]],[[[1.9292,50.7714],[1.92945,50.77171],[1.92973,50.77135],[1.9292,50.7714]]]]}},{"type":"Feature","properties":{"k":"BTH","s":6.176},"geometry":{"type":"Polygon","coordinates":[[[1.93494,50.77041],[1.93363,50.76953],[1.93324,50.76972],[1.93148,50.76888],[1.92898,50.77009],[1.93065,50.77127],[1.93243,50.77087],[1.93507,50.77074],[1.93494,50.77041]]]}},{"type":"Feature","properties":{"k":"BTA","s":0.065},"geometry":{"type":"Polygon","coordinates":[[[1.93494,50.77041],[1.93515,50.7707],[1.935,50.77039],[1.93408,50.76978],[1.93494,50.77041]]]}},{"type":"Feature","properties":{"k":"BTH","s":3.764},"geometry":{"type":"Polygon","coordinates":[[[1.93075,50.77132],[1.93245,50.77238],[1.93445,50.77216],[1.93525,50.77121],[1.93522,50.77085],[1.93502,50.77082],[1.93243,50.77091],[1.93075,50.77132]]]}},{"type":"Feature","properties":{"k":"BTH","s":0.633},"geometry":{"type":"Polygon","coordinates":[[[1.93367,50.77304],[1.93445,50.77216],[1.93245,50.77238],[1.93367,50.77304]]]}},{"type":"Feature","properties":{"k":"BTH","s":0.073},"geometry":{"type":"Polygon","coordinates":[[[1.93125,50.77166],[1.93113,50.7717],[1.93228,50.77231],[1.93125,50.77166]]]}},{"type":"Feature","properties":{"k":"BTH","s":0.912},"geometry":{"type":"Polygon","coordinates":[[[1.92678,50.77198],[1.92772,50.773],[1.9285,50.77258],[1.92758,50.77163],[1.92678,50.77198]]]}},{"type":"Feature","properties":{"k":"PPH","s":0.963},"geometry":{"type":"Polygon","coordinates":[[[1.92764,50.7716],[1.92851,50.77258],[1.92921,50.7722],[1.92941,50.77178],[1.92913,50.7714],[1.92764,50.7716]]]}},{"type":"Feature","properties":{"k":"BTH","s":1.497},"geometry":{"type":"Polygon","coordinates":[[[1.93053,50.77126],[1.92892,50.7701],[1.92905,50.77004],[1.92824,50.7697],[1.92767,50.77022],[1.92927,50.77132],[1.93053,50.77126]]]}},{"type":"Feature","properties":{"k":"LIF","s":0.0},"geometry":{"type":"MultiPolygon","coordinates":[]}},{"type":"Feature","properties":{"k":"MIS","s":2.176},"geometry":{"type":"Polygon","coordinates":[[[1.92734,50.77166],[1.9293,50.77134],[1.92719,50.76998],[1.92593,50.77085],[1.92734,50.77166]]]}},{"type":"Feature","properties":{"k":"BTH","s":1.011},"geometry":{"type":"Polygon","coordinates":[[[1.92518,50.77167],[1.92635,50.77199],[1.92734,50.77166],[1.92583,50.7708],[1.92543,50.77106],[1.92575,50.77123],[1.92518,50.77167]]]}},{"type":"Feature","properties":{"k":"BTH","s":4.411},"geometry":{"type":"Polygon","coordinates":[[[1.92244,50.77081],[1.92278,50.77114],[1.92383,50.77164],[1.92482,50.77183],[1.92575,50.77123],[1.92541,50.77105],[1.92578,50.77077],[1.92482,50.77017],[1.92231,50.76933],[1.9234,50.76826],[1.92321,50.76817],[1.9221,50.76925],[1.92186,50.76916],[1.92142,50.76952],[1.92307,50.77037],[1.92244,50.77081]]]}},{"type":"Feature","properties":{"k":"PTR","s":1.258},"geometry":{"type":"Polygon","coordinates":[[[1.92675,50.77459],[1.92634,50.77395],[1.92609,50.77289],[1.92595,50.77273],[1.92541,50.77289],[1.92447,50.77195],[1.92415,50.77209],[1.92569,50.77386],[1.92675,50.77459]]]}},{"type":"Feature","properties":{"k":"MIS","s":0.025},"geometry":{"type":"Polygon","coordinates":[[[1.92473,50.77272],[1.92467,50.7727],[1.92544,50.77359],[1.92473,50.77272]]]}},{"type":"Feature","properties":{"k":"AVP","s":0.689},"geometry":{"type":"Polygon","coordinates":[[[1.92114,50.76974],[1.92244,50.77081],[1.92307,50.77037],[1.92142,50.76952],[1.92114,50.76974]]]}},{"type":"Feature","properties":{"k":"CZH","s":1.403},"geometry":{"type":"Polygon","coordinates":[[[1.9225,50.76787],[1.9217,50.76854],[1.92132,50.76835],[1.9211,50.76855],[1.92146,50.76875],[1.92068,50.76938],[1.92108,50.76971],[1.92186,50.76916],[1.9221,50.76925],[1.92321,50.76817],[1.9225,50.76787]]]}},{"type":"Feature","properties":{"k":"ORH","s":0.897},"geometry":{"type":"Polygon","coordinates":[[[1.92231,50.76933],[1.92267,50.76945],[1.92403,50.76816],[1.92232,50.76748],[1.92184,50.76759],[1.9234,50.76826],[1.92231,50.76933]]]}},{"type":"Feature","properties":{"k":"PTR","s":0.456},"geometry":{"type":"Polygon","coordinates":[[[1.92068,50.76938],[1.92146,50.76875],[1.92084,50.76844],[1.92021,50.76884],[1.92068,50.76938]]]}},{"type":"Feature","properties":{"k":"PTR","s":0.001},"geometry":{"type":"Polygon","coordinates":[[[1.92075,50.76948],[1.92084,50.76955],[1.9207,50.76942],[1.92075,50.76948]]]}},{"type":"Feature","properties":{"k":"PTR","s":0.0},"geometry":{"type":"Polygon","coordinates":[]}},{"type":"Feature","properties":{"k":"BTP","s":0.713},"geometry":{"type":"Polygon","coordinates":[[[1.91808,50.76673],[1.9184,50.76704],[1.91995,50.76563],[1.9195,50.76544],[1.91808,50.76673]]]}},{"type":"Feature","properties":{"k":"AVP","s":0.513},"geometry":{"type":"Polygon","coordinates":[[[1.91841,50.76706],[1.91869,50.76736],[1.92,50.76605],[1.91968,50.76591],[1.91841,50.76706]]]}},{"type":"Feature","properties":{"k":"PPH","s":0.202},"geometry":{"type":"Polygon","coordinates":[[[1.92,50.76605],[1.9188,50.76741],[1.91937,50.76687],[1.92018,50.76612],[1.92,50.76605]]]}},{"type":"Feature","properties":{"k":"BTH","s":1.051},"geometry":{"type":"Polygon","coordinates":[[[1.91908,50.76776],[1.92239,50.76456],[1.92212,50.7644],[1.91888,50.76752],[1.91908,50.76776]]]}},{"type":"Feature","properties":{"k":"BTH","s":2.374},"geometry":{"type":"Polygon","coordinates":[[[1.92216,50.76744],[1.92121,50.76705],[1.92156,50.76672],[1.9208,50.76639],[1.92254,50.76472],[1.92239,50.76456],[1.91941,50.76743],[1.92055,50.76814],[1.92216,50.76744]]]}},{"type":"Feature","properties":{"k":"LIF","s":0.637},"geometry":{"type":"Polygon","coordinates":[[[1.92327,50.76727],[1.92167,50.7666],[1.92121,50.76705],[1.92221,50.76745],[1.92327,50.76727]]]}},{"type":"Feature","properties":{"k":"BTH","s":0.768},"geometry":{"type":"Polygon","coordinates":[[[1.92201,50.76623],[1.92167,50.7666],[1.92327,50.76727],[1.92414,50.76712],[1.92201,50.76623]]]}},{"type":"Feature","properties":{"k":"BTN","s":0.499},"geometry":{"type":"Polygon","coordinates":[[[1.92272,50.76652],[1.92323,50.76673],[1.92407,50.76579],[1.92359,50.76558],[1.92272,50.76652]]]}},{"type":"Feature","properties":{"k":"BTN","s":1.464},"geometry":{"type":"Polygon","coordinates":[[[1.92446,50.76645],[1.9256,50.76523],[1.92516,50.76503],[1.92398,50.76626],[1.92374,50.76616],[1.92323,50.76673],[1.92414,50.76712],[1.9255,50.76685],[1.92446,50.76645]]]}},{"type":"Feature","properties":{"k":"BTH","s":0.65},"geometry":{"type":"Polygon","coordinates":[[[1.92446,50.76645],[1.92495,50.76664],[1.92607,50.76546],[1.9256,50.76523],[1.92446,50.76645]]]}},{"type":"Feature","properties":{"k":"PTR","s":0.497},"geometry":{"type":"Polygon","coordinates":[[[1.92646,50.76562],[1.92607,50.76546],[1.92497,50.76665],[1.92534,50.7668],[1.92646,50.76562]]]}},{"type":"Feature","properties":{"k":"LUZ","s":0.349},"geometry":{"type":"Polygon","coordinates":[[[1.92678,50.76584],[1.92647,50.76563],[1.92535,50.76679],[1.9255,50.76685],[1.92678,50.76584]]]}},{"type":"Feature","properties":{"k":"BTH","s":6.61},"geometry":{"type":"Polygon","coordinates":[[[1.92483,50.77017],[1.92518,50.77009],[1.92673,50.76883],[1.92706,50.76834],[1.92563,50.76759],[1.92533,50.76695],[1.92233,50.76749],[1.92403,50.76816],[1.92267,50.76945],[1.92483,50.77017]]]}},{"type":"Feature","properties":{"k":"PPH","s":4.34},"geometry":{"type":"Polygon","coordinates":[[[1.92767,50.77022],[1.92824,50.7697],[1.92905,50.77004],[1.93168,50.76877],[1.92949,50.76807],[1.92918,50.76832],[1.92795,50.76795],[1.92736,50.76852],[1.92764,50.7692],[1.92725,50.76992],[1.92767,50.77022]]]}},{"type":"Feature","properties":{"k":"BTH","s":1.552},"geometry":{"type":"Polygon","coordinates":[[[1.92604,50.76657],[1.92557,50.76693],[1.92584,50.76766],[1.92735,50.76837],[1.92767,50.76803],[1.92694,50.76756],[1.92729,50.76732],[1.92755,50.76745],[1.92775,50.76722],[1.92604,50.76657]]]}},{"type":"Feature","properties":{"k":"PPH","s":1.679},"geometry":{"type":"Polygon","coordinates":[[[1.9285,50.76708],[1.92794,50.76684],[1.92807,50.76671],[1.92877,50.76698],[1.92928,50.76646],[1.92824,50.76635],[1.92686,50.7659],[1.92604,50.76657],[1.928,50.76724],[1.9285,50.76708]]]}},{"type":"Feature","properties":{"k":"BTH","s":0.255},"geometry":{"type":"Polygon","coordinates":[[[1.92895,50.76717],[1.92983,50.76641],[1.92928,50.76646],[1.92873,50.76695],[1.92895,50.76717]]]}},{"type":"Feature","properties":{"k":"ORH","s":1.207},"geometry":{"type":"Polygon","coordinates":[[[1.92939,50.76638],[1.93043,50.76522],[1.92949,50.76493],[1.92843,50.76631],[1.92939,50.76638]]]}},{"type":"Feature","properties":{"k":"BTH","s":0.327},"geometry":{"type":"Polygon","coordinates":[[[1.92949,50.76493],[1.92927,50.76483],[1.92808,50.76619],[1.92832,50.76628],[1.92949,50.76493]]]}},{"type":"Feature","properties":{"k":"CZH","s":0.097},"geometry":{"type":"Polygon","coordinates":[[[1.92681,50.76569],[1.92692,50.76503],[1.92687,50.7651],[1.92646,50.76555],[1.92681,50.76569]]]}},{"type":"Feature","properties":{"k":"BTH","s":0.074},"geometry":{"type":"Polygon","coordinates":[[[1.9271,50.76468],[1.92646,50.76555],[1.92687,50.7651],[1.9271,50.76468]]]}},{"type":"Feature","properties":{"k":"LIF","s":2.131},"geometry":{"type":"Polygon","coordinates":[[[1.92688,50.76573],[1.92799,50.76619],[1.92924,50.76483],[1.92768,50.76421],[1.92711,50.76484],[1.92688,50.76573]]]}},{"type":"Feature","properties":{"k":"BTH","s":0.175},"geometry":{"type":"Polygon","coordinates":[[[1.92784,50.76389],[1.92997,50.76478],[1.93005,50.7647],[1.92784,50.76389]]]}},{"type":"Feature","properties":{"k":"BTN","s":0.616},"geometry":{"type":"Polygon","coordinates":[[[1.92758,50.76417],[1.92972,50.76502],[1.92996,50.76477],[1.92784,50.76389],[1.92758,50.76417]]]}},{"type":"Feature","properties":{"k":"MIS","s":2.582},"geometry":{"type":"Polygon","coordinates":[[[1.9291,50.76259],[1.92791,50.76382],[1.93005,50.7647],[1.93104,50.76362],[1.92957,50.76296],[1.9291,50.76259]]]}},{"type":"Feature","properties":{"k":"BTA","s":0.001},"geometry":{"type":"MultiPolygon","coordinates":[]}},{"type":"Feature","properties":{"k":"PPH","s":0.116},"geometry":{"type":"Polygon","coordinates":[[[1.92794,50.7623],[1.92811,50.76256],[1.92854,50.76218],[1.9283,50.76203],[1.92794,50.7623]]]}},{"type":"Feature","properties":{"k":"BTH","s":0.491},"geometry":{"type":"Polygon","coordinates":[[[1.92777,50.76287],[1.9284,50.76327],[1.92902,50.7626],[1.92849,50.76224],[1.92777,50.76287]]]}},{"type":"Feature","properties":{"k":"BTN","s":0.118},"geometry":{"type":"MultiPolygon","coordinates":[[[[1.92777,50.76287],[1.92805,50.76263],[1.92789,50.76236],[1.92746,50.76268],[1.92777,50.76287]]]]}},{"type":"Feature","properties":{"k":"PTR","s":0.001},"geometry":{"type":"Polygon","coordinates":[[[1.92749,50.76264],[1.92745,50.76267],[1.92746,50.76268],[1.92749,50.76264]]]}},{"type":"Feature","properties":{"k":"BTH","s":1.349},"geometry":{"type":"Polygon","coordinates":[[[1.9208,50.76639],[1.92155,50.76671],[1.92305,50.76526],[1.92253,50.76474],[1.9208,50.76639]]]}},{"type":"Feature","properties":{"k":"LIF","s":3.142},"geometry":{"type":"Polygon","coordinates":[[[1.92306,50.76527],[1.92216,50.76627],[1.92272,50.76652],[1.92359,50.76558],[1.92407,50.76579],[1.92371,50.76617],[1.92398,50.76626],[1.92514,50.76503],[1.92153,50.76333],[1.92306,50.76527]]]}},{"type":"Feature","properties":{"k":"BTN","s":1.201},"geometry":{"type":"Polygon","coordinates":[[[1.91968,50.76591],[1.92029,50.76617],[1.92212,50.7644],[1.92156,50.76413],[1.91968,50.76591]]]}},{"type":"Feature","properties":{"k":"MIS","s":0.627},"geometry":{"type":"Polygon","coordinates":[[[1.92043,50.76371],[1.92006,50.76352],[1.91855,50.76497],[1.91889,50.76514],[1.92043,50.76371]]]}},{"type":"Feature","properties":{"k":"BTH","s":6.783},"geometry":{"type":"MultiPolygon","coordinates":[[[[1.9169,50.7651],[1.91808,50.76671],[1.91949,50.76543],[1.91848,50.76494],[1.92001,50.7635],[1.92239,50.76456],[1.9215,50.7633],[1.91946,50.76224],[1.91887,50.76211],[1.91836,50.76268],[1.9188,50.7629],[1.9169,50.7651]]]]}},{"type":"Feature","properties":{"k":"MIS","s":1.751},"geometry":{"type":"Polygon","coordinates":[[[1.92145,50.76424],[1.92044,50.76371],[1.91892,50.76515],[1.91998,50.76563],[1.92145,50.76424]]]}},{"type":"Feature","properties":{"k":"PPH","s":1.055},"geometry":{"type":"Polygon","coordinates":[[[1.92961,50.76298],[1.93021,50.76324],[1.93035,50.76315],[1.93115,50.76334],[1.93123,50.76291],[1.92836,50.76198],[1.92961,50.76298]]]}},{"type":"Feature","properties":{"k":"PPH","s":1.118},"geometry":{"type":"MultiPolygon","coordinates":[[[[1.93192,50.76324],[1.93184,50.76344],[1.93144,50.76341],[1.93119,50.76334],[1.93129,50.76315],[1.93115,50.76334],[1.93035,50.76315],[1.9302,50.76324],[1.93104,50.76362],[1.93037,50.76435],[1.93143,50.76485],[1.93192,50.76324]]]]}},{"type":"Feature","properties":{"k":"BTH","s":0.329},"geometry":{"type":"Polygon","coordinates":[[[1.93043,50.76522],[1.92939,50.76638],[1.92983,50.76632],[1.93072,50.76534],[1.93043,50.76522]]]}},{"type":"Feature","properties":{"k":"MIS","s":0.999},"geometry":{"type":"Polygon","coordinates":[[[1.9298,50.76496],[1.93072,50.76534],[1.92983,50.76632],[1.93021,50.76632],[1.93143,50.76488],[1.93037,50.76435],[1.9298,50.76496]]]}},{"type":"Feature","properties":{"k":"MIS","s":0.768},"geometry":{"type":"Polygon","coordinates":[[[1.93143,50.76485],[1.93094,50.76546],[1.9321,50.76589],[1.93273,50.76534],[1.93143,50.76485]]]}},{"type":"Feature","properties":{"k":"CZH","s":0.924},"geometry":{"type":"Polygon","coordinates":[[[1.93146,50.76486],[1.93216,50.7651],[1.93272,50.76373],[1.93191,50.76345],[1.93146,50.76486]]]}},{"type":"Feature","properties":{"k":"MLG","s":2.621},"geometry":{"type":"Polygon","coordinates":[[[1.9338,50.76575],[1.93457,50.76517],[1.93429,50.76501],[1.93454,50.76477],[1.93412,50.76456],[1.93444,50.76425],[1.93488,50.76427],[1.93393,50.76374],[1.93346,50.76391],[1.93272,50.76373],[1.93215,50.7651],[1.9338,50.76575]]]}},{"type":"Feature","properties":{"k":"BTN","s":2.984},"geometry":{"type":"Polygon","coordinates":[[[1.93429,50.76501],[1.93457,50.76517],[1.93378,50.76572],[1.93459,50.76621],[1.93497,50.76585],[1.93549,50.76612],[1.93515,50.76643],[1.93569,50.76665],[1.93684,50.76554],[1.93614,50.7653],[1.9367,50.7647],[1.93614,50.76468],[1.93548,50.76433],[1.93505,50.76429],[1.93429,50.76501]]]}},{"type":"Feature","properties":{"k":"JAC","s":0.2},"geometry":{"type":"Polygon","coordinates":[[[1.93412,50.76456],[1.93454,50.76477],[1.93505,50.76429],[1.93444,50.76425],[1.93412,50.76456]]]}},{"type":"Feature","properties":{"k":"PPH","s":0.651},"geometry":{"type":"Polygon","coordinates":[[[1.93556,50.76434],[1.93588,50.76406],[1.93414,50.76348],[1.93393,50.76374],[1.93488,50.76427],[1.93556,50.76434]]]}},{"type":"Feature","properties":{"k":"PPH","s":0.603},"geometry":{"type":"MultiPolygon","coordinates":[[[[1.93589,50.76404],[1.93632,50.76376],[1.9359,50.76347],[1.93594,50.76329],[1.93466,50.76358],[1.93439,50.76353],[1.93589,50.76404]]],[[[1.93903,50.76525],[1.93857,50.76497],[1.938,50.76491],[1.93898,50.76551],[1.93903,50.76525]]]]}},{"type":"Feature","properties":{"k":"PPH","s":1.209},"geometry":{"type":"Polygon","coordinates":[[[1.93887,50.76584],[1.93884,50.76546],[1.93773,50.7648],[1.93762,50.7644],[1.93632,50.76379],[1.93568,50.76431],[1.93834,50.76534],[1.93822,50.76546],[1.93887,50.76584]]]}},{"type":"Feature","properties":{"k":"PPH","s":0.011},"geometry":{"type":"MultiPolygon","coordinates":[[[[1.94385,50.75702],[1.94354,50.75702],[1.94383,50.75706],[1.94385,50.75702]]],[[[1.94444,50.75771],[1.94459,50.75772],[1.94415,50.75765],[1.94444,50.75771]]],[[[1.94464,50.75773],[1.94463,50.75772],[1.94463,50.75775],[1.94464,50.75773]]],[[[1.94462,50.75808],[1.94473,50.75802],[1.94468,50.75801],[1.94462,50.75808]]]]}},{"type":"Feature","properties":{"k":"ORH","s":0.355},"geometry":{"type":"Polygon","coordinates":[[[1.9378,50.76588],[1.93873,50.76626],[1.93887,50.76584],[1.93822,50.76546],[1.9378,50.76588]]]}},{"type":"Feature","properties":{"k":"PPH","s":1.781},"geometry":{"type":"Polygon","coordinates":[[[1.94237,50.76561],[1.94109,50.76489],[1.94065,50.76532],[1.93961,50.76478],[1.93935,50.76534],[1.94156,50.7663],[1.94237,50.76561]]]}},{"type":"Feature","properties":{"k":"PPH","s":2.053},"geometry":{"type":"Polygon","coordinates":[[[1.942,50.7632],[1.94184,50.76318],[1.94048,50.76399],[1.93962,50.76478],[1.94065,50.7653],[1.94108,50.76488],[1.94181,50.76523],[1.94198,50.76482],[1.94101,50.76422],[1.94144,50.76396],[1.94198,50.76435],[1.94223,50.76422],[1.942,50.7632]]]}},{"type":"Feature","properties":{"k":"PTR","s":0.351},"geometry":{"type":"Polygon","coordinates":[[[1.94045,50.76009],[1.94046,50.76037],[1.94202,50.76038],[1.94203,50.76009],[1.94045,50.76009]]]}},{"type":"Feature","properties":{"k":"MIS","s":0.555},"geometry":{"type":"Polygon","coordinates":[[[1.94203,50.76039],[1.94046,50.76038],[1.94048,50.76075],[1.93995,50.76091],[1.94196,50.76075],[1.94203,50.76039]]]}},{"type":"Feature","properties":{"k":"MIS","s":0.633},"geometry":{"type":"Polygon","coordinates":[[[1.93978,50.76101],[1.93871,50.76128],[1.94053,50.76183],[1.9408,50.76139],[1.93978,50.76101]]]}},{"type":"Feature","properties":{"k":"PPH","s":0.241},"geometry":{"type":"Polygon","coordinates":[[[1.94133,50.7613],[1.94012,50.76095],[1.93977,50.76101],[1.94127,50.76153],[1.94133,50.7613]]]}},{"type":"Feature","properties":{"k":"BTP","s":0.0},"geometry":{"type":"Polygon","coordinates":[]}},{"type":"Feature","properties":{"k":"MIS","s":0.481},"geometry":{"type":"MultiPolygon","coordinates":[[[[1.93977,50.76101],[1.93995,50.76091],[1.93907,50.76117],[1.93977,50.76101]]],[[[1.94196,50.75906],[1.94166,50.75907],[1.94166,50.75988],[1.94044,50.75988],[1.94045,50.76009],[1.94203,50.76009],[1.94196,50.75906]]]]}},{"type":"Feature","properties":{"k":"BTN","s":0.779},"geometry":{"type":"Polygon","coordinates":[[[1.94166,50.75907],[1.9404,50.75911],[1.94044,50.75988],[1.94166,50.75988],[1.94166,50.75907]]]}},{"type":"Feature","properties":{"k":"BTA","s":0.073},"geometry":{"type":"Polygon","coordinates":[[[1.94494,50.75839],[1.94625,50.75831],[1.94651,50.75842],[1.94622,50.75826],[1.94489,50.75836],[1.94478,50.7586],[1.94494,50.75839]]]}},{"type":"Feature","properties":{"k":"MIS","s":2.73},"geometry":{"type":"Polygon","coordinates":[[[1.94209,50.76035],[1.94322,50.76009],[1.94294,50.75966],[1.94517,50.75916],[1.94505,50.759],[1.94647,50.75847],[1.94625,50.75831],[1.94494,50.75839],[1.94468,50.75862],[1.94233,50.75885],[1.94198,50.75914],[1.94209,50.76035]]]}},{"type":"Feature","properties":{"k":"PPH","s":4.695},"geometry":{"type":"Polygon","coordinates":[[[1.94511,50.75898],[1.94517,50.75916],[1.94299,50.75965],[1.94326,50.76009],[1.94211,50.76036],[1.94217,50.76117],[1.94248,50.7612],[1.943,50.76088],[1.94401,50.76087],[1.94627,50.76008],[1.94762,50.75977],[1.94719,50.75941],[1.94615,50.75973],[1.94579,50.75937],[1.94684,50.75891],[1.94651,50.75873],[1.94647,50.75847],[1.94511,50.75898]]]}},{"type":"Feature","properties":{"k":"ORP","s":1.852},"geometry":{"type":"Polygon","coordinates":[[[1.94379,50.76171],[1.9469,50.7605],[1.94636,50.76011],[1.94393,50.76095],[1.94293,50.76096],[1.94265,50.7612],[1.94379,50.76171]]]}},{"type":"Feature","properties":{"k":"PPH","s":0.916},"geometry":{"type":"Polygon","coordinates":[[[1.94778,50.76125],[1.94729,50.76261],[1.94803,50.76273],[1.94828,50.76215],[1.94888,50.76162],[1.94778,50.76125]]]}},{"type":"Feature","properties":{"k":"PPH","s":0.002},"geometry":{"type":"MultiPolygon","coordinates":[[[[1.94835,50.76006],[1.94827,50.76003],[1.94836,50.76012],[1.94835,50.76006]]]]}},{"type":"Feature","properties":{"k":"PPH","s":1.132},"geometry":{"type":"Polygon","coordinates":[[[1.94709,50.76058],[1.94773,50.7612],[1.94839,50.76031],[1.9479,50.75975],[1.94639,50.76011],[1.94709,50.76058]]]}},{"type":"Feature","properties":{"k":"PPH","s":0.001},"geometry":{"type":"Polygon","coordinates":[[[1.94778,50.76546],[1.94774,50.76542],[1.94781,50.76556],[1.94778,50.76546]]]}},{"type":"Feature","properties":{"k":"PPH","s":1.471},"geometry":{"type":"Polygon","coordinates":[[[1.94665,50.76384],[1.94615,50.76451],[1.94725,50.76457],[1.94778,50.76369],[1.94803,50.76274],[1.94729,50.76262],[1.94665,50.76384]]]}},{"type":"Feature","properties":{"k":"PPH","s":1.067},"geometry":{"type":"Polygon","coordinates":[[[1.94489,50.76436],[1.94607,50.76364],[1.94545,50.7633],[1.9431,50.76441],[1.94345,50.76465],[1.94461,50.76414],[1.94489,50.76436]]]}},{"type":"Feature","properties":{"k":"PPH","s":10.892},"geometry":{"type":"Polygon","coordinates":[[[1.9469,50.76053],[1.94382,50.76175],[1.94265,50.76124],[1.94214,50.76128],[1.94197,50.76171],[1.94232,50.76423],[1.94266,50.76408],[1.943,50.76445],[1.94545,50.7633],[1.94645,50.76388],[1.94659,50.76381],[1.94774,50.76136],[1.9469,50.76053]]]}},{"type":"Feature","properties":{"k":"PPH","s":1.479},"geometry":{"type":"Polygon","coordinates":[[[1.94206,50.76535],[1.94243,50.76553],[1.94395,50.7654],[1.94517,50.76466],[1.94461,50.76414],[1.94206,50.76535]]]}},{"type":"Feature","properties":{"k":"PPH","s":4.982},"geometry":{"type":"Polygon","coordinates":[[[1.9447,50.76716],[1.94543,50.76607],[1.9465,50.76538],[1.94704,50.76629],[1.94791,50.76607],[1.94743,50.76465],[1.94611,50.76454],[1.94642,50.76394],[1.94605,50.7637],[1.94499,50.76438],[1.94528,50.76466],[1.94396,50.76544],[1.94304,50.76553],[1.94343,50.76595],[1.9442,50.76564],[1.94467,50.76597],[1.94376,50.7665],[1.9447,50.76716]]]}},{"type":"Feature","properties":{"k":"TRE","s":0.953},"geometry":{"type":"Polygon","coordinates":[[[1.94296,50.7669],[1.94367,50.76651],[1.94244,50.76566],[1.94172,50.76628],[1.94296,50.7669]]]}},{"type":"Feature","properties":{"k":"PTR","s":0.486},"geometry":{"type":"Polygon","coordinates":[[[1.94373,50.76648],[1.94467,50.76597],[1.9442,50.76564],[1.94316,50.7661],[1.94373,50.76648]]]}},{"type":"Feature","properties":{"k":"PPH","s":1.7},"geometry":{"type":"Polygon","coordinates":[[[1.9448,50.76832],[1.94437,50.76792],[1.94428,50.76735],[1.94462,50.76714],[1.9437,50.76654],[1.94296,50.76696],[1.94397,50.76737],[1.94296,50.76825],[1.9437,50.76865],[1.94403,50.76856],[1.94485,50.7689],[1.9448,50.76832]]]}},{"type":"Feature","properties":{"k":"BTA","s":0.017},"geometry":{"type":"Polygon","coordinates":[[[1.94357,50.76723],[1.94352,50.76727],[1.94388,50.7674],[1.94357,50.76723]]]}},{"type":"Feature","properties":{"k":"PPH","s":1.028},"geometry":{"type":"Polygon","coordinates":[[[1.94391,50.76854],[1.9437,50.76865],[1.94333,50.76848],[1.94259,50.769],[1.94327,50.7692],[1.94279,50.76954],[1.94335,50.76972],[1.94473,50.76886],[1.94391,50.76854]]]}},{"type":"Feature","properties":{"k":"BFS","s":0.014},"geometry":{"type":"Polygon","coordinates":[[[1.92658,50.77044],[1.92706,50.77014],[1.92719,50.76998],[1.92585,50.7708],[1.92658,50.77044]]]}}]}