{"type":"FeatureCollection","features":[{"type":"Feature","properties":{"k":"MIS","s":0.256},"geometry":{"type":"Polygon","coordinates":[[[2.62792,50.48806],[2.62797,50.48826],[2.62998,50.4876],[2.6299,50.48752],[2.62792,50.48806]]]}},{"type":"Feature","properties":{"k":"BTH","s":2.535},"geometry":{"type":"Polygon","coordinates":[[[2.60704,50.48696],[2.60663,50.48707],[2.60877,50.48979],[2.61017,50.4894],[2.60704,50.48696]]]}},{"type":"Feature","properties":{"k":"LBF","s":6.573},"geometry":{"type":"Polygon","coordinates":[[[2.62933,50.48419],[2.62939,50.48395],[2.62972,50.4839],[2.6298,50.48419],[2.62825,50.48444],[2.62869,50.48515],[2.62828,50.48529],[2.6291,50.486],[2.63247,50.48531],[2.63235,50.48462],[2.6311,50.48479],[2.63058,50.48415],[2.63021,50.48309],[2.62948,50.4829],[2.62816,50.48299],[2.62698,50.48288],[2.62742,50.48391],[2.62841,50.48376],[2.6286,50.48435],[2.62933,50.48419]]]}},{"type":"Feature","properties":{"k":"BTN","s":2.8},"geometry":{"type":"Polygon","coordinates":[[[2.62827,50.48718],[2.62985,50.48682],[2.62821,50.4854],[2.62738,50.48564],[2.62667,50.48479],[2.62586,50.48491],[2.62742,50.4866],[2.62787,50.48661],[2.62827,50.48718]]]}},{"type":"Feature","properties":{"k":"PTC","s":0.94},"geometry":{"type":"MultiPolygon","coordinates":[[[[2.62829,50.48721],[2.62865,50.48771],[2.62789,50.48794],[2.62792,50.48806],[2.63031,50.48729],[2.62985,50.48686],[2.62829,50.48721]]],[[[2.62637,50.4867],[2.62599,50.48678],[2.62698,50.4866],[2.62637,50.4867]]]]}},{"type":"Feature","properties":{"k":"MIS","s":0.024},"geometry":{"type":"Polygon","coordinates":[[[2.62436,50.4873],[2.6246,50.48722],[2.62404,50.48731],[2.62436,50.4873]]]}},{"type":"Feature","properties":{"k":"BTH","s":5.904},"geometry":{"type":"Polygon","coordinates":[[[2.62154,50.48744],[2.62404,50.48731],[2.62478,50.48715],[2.6226,50.48443],[2.62132,50.48478],[2.62042,50.48541],[2.62118,50.48624],[2.62154,50.48744]]]}},{"type":"Feature","properties":{"k":"MIS","s":2.262},"geometry":{"type":"Polygon","coordinates":[[[2.63111,50.4848],[2.63238,50.48461],[2.63213,50.48303],[2.63022,50.48311],[2.63061,50.48425],[2.63111,50.4848]]]}},{"type":"Feature","properties":{"k":"PPH","s":0.018},"geometry":{"type":"MultiPolygon","coordinates":[[[[2.62289,50.48735],[2.62288,50.48732],[2.62224,50.48737],[2.62289,50.48735]]],[[[2.62125,50.48753],[2.6218,50.4874],[2.62122,50.48749],[2.62125,50.48753]]]]}},{"type":"Feature","properties":{"k":"BTH","s":3.11},"geometry":{"type":"Polygon","coordinates":[[[2.62006,50.48657],[2.61923,50.48679],[2.6189,50.48625],[2.61797,50.48653],[2.61865,50.48788],[2.62154,50.48744],[2.62118,50.48624],[2.62093,50.48598],[2.62006,50.48657]]]}},{"type":"Feature","properties":{"k":"JAC","s":0.002},"geometry":{"type":"Polygon","coordinates":[[[2.62075,50.48757],[2.62112,50.48754],[2.6211,50.48753],[2.62075,50.48757]]]}},{"type":"Feature","properties":{"k":"JAC","s":0.301},"geometry":{"type":"Polygon","coordinates":[[[2.61371,50.48845],[2.61322,50.48884],[2.61439,50.48865],[2.61467,50.48828],[2.61371,50.48845]]]}},{"type":"Feature","properties":{"k":"BTA","s":0.122},"geometry":{"type":"Polygon","coordinates":[[[2.61463,50.48817],[2.61373,50.4883],[2.61298,50.48888],[2.61376,50.48834],[2.61469,50.48821],[2.61511,50.48735],[2.61463,50.48817]]]}},{"type":"Feature","properties":{"k":"BTH","s":2.021},"geometry":{"type":"Polygon","coordinates":[[[2.61373,50.4883],[2.61463,50.48817],[2.61503,50.48736],[2.61165,50.48794],[2.61249,50.48894],[2.61304,50.48883],[2.61373,50.4883]]]}},{"type":"Feature","properties":{"k":"JAC","s":2.228},"geometry":{"type":"Polygon","coordinates":[[[2.61923,50.48679],[2.62006,50.48657],[2.62039,50.48628],[2.61996,50.4859],[2.6204,50.48626],[2.62096,50.48599],[2.62011,50.48514],[2.61858,50.4856],[2.61888,50.48612],[2.61846,50.48626],[2.61819,50.48601],[2.61723,50.48627],[2.61719,50.48675],[2.6189,50.48625],[2.61923,50.48679]]]}},{"type":"Feature","properties":{"k":"BTA","s":0.27},"geometry":{"type":"Polygon","coordinates":[[[2.61411,50.48361],[2.61413,50.48422],[2.61447,50.48506],[2.61515,50.486],[2.61529,50.48666],[2.61509,50.48735],[2.61536,50.48667],[2.61522,50.48599],[2.61454,50.48505],[2.6141,50.48344],[2.61353,50.48281],[2.61411,50.48361]]]}},{"type":"Feature","properties":{"k":"BTH","s":1.495},"geometry":{"type":"Polygon","coordinates":[[[2.61575,50.48679],[2.6163,50.4864],[2.61595,50.4852],[2.61504,50.48551],[2.6154,50.48669],[2.61448,50.48864],[2.6151,50.48847],[2.61575,50.48679]]]}},{"type":"Feature","properties":{"k":"ORH","s":13.501},"geometry":{"type":"Polygon","coordinates":[[[2.61504,50.48571],[2.61447,50.48506],[2.61411,50.48361],[2.61351,50.48276],[2.61241,50.48302],[2.61261,50.48445],[2.609,50.48525],[2.61165,50.48794],[2.61509,50.48735],[2.61529,50.48646],[2.61504,50.48571]]]}},{"type":"Feature","properties":{"k":"BTH","s":1.235},"geometry":{"type":"Polygon","coordinates":[[[2.61094,50.48404],[2.60854,50.48475],[2.60895,50.48522],[2.61127,50.48468],[2.61094,50.48404]]]}},{"type":"Feature","properties":{"k":"CZH","s":7.439},"geometry":{"type":"Polygon","coordinates":[[[2.60854,50.48472],[2.60934,50.48443],[2.60779,50.48251],[2.60596,50.48317],[2.60554,50.48268],[2.60492,50.4829],[2.60458,50.48453],[2.60514,50.48493],[2.60661,50.48562],[2.60856,50.48492],[2.60854,50.48472]]]}},{"type":"Feature","properties":{"k":"BTH","s":4.075},"geometry":{"type":"Polygon","coordinates":[[[2.60791,50.48643],[2.60925,50.48774],[2.61083,50.48711],[2.60859,50.48491],[2.60656,50.48559],[2.60791,50.48643]]]}},{"type":"Feature","properties":{"k":"BTH","s":3.543},"geometry":{"type":"Polygon","coordinates":[[[2.61031,50.48936],[2.61064,50.48928],[2.60792,50.48644],[2.60456,50.48455],[2.60422,50.48468],[2.60506,50.48545],[2.60805,50.48749],[2.61031,50.48936]]]}},{"type":"Feature","properties":{"k":"CZH","s":0.438},"geometry":{"type":"Polygon","coordinates":[[[2.60029,50.48429],[2.60185,50.4839],[2.60164,50.48371],[2.60112,50.48384],[2.60103,50.4837],[2.59981,50.48402],[2.60029,50.48429]]]}},{"type":"Feature","properties":{"k":"LBF","s":2.774},"geometry":{"type":"Polygon","coordinates":[[[2.60926,50.48774],[2.61065,50.48928],[2.61242,50.48895],[2.61083,50.48713],[2.60926,50.48774]]]}},{"type":"Feature","properties":{"k":"BTN","s":12.481},"geometry":{"type":"Polygon","coordinates":[[[2.60222,50.4883],[2.60334,50.49015],[2.60414,50.49085],[2.60567,50.49095],[2.60877,50.48979],[2.60663,50.48707],[2.60222,50.4883]]]}},{"type":"Feature","properties":{"k":"BTH","s":13.101},"geometry":{"type":"Polygon","coordinates":[[[2.60222,50.4883],[2.60704,50.48696],[2.60489,50.48545],[2.60293,50.48372],[2.60038,50.4844],[2.60016,50.48477],[2.60222,50.4883]]]}},{"type":"Feature","properties":{"k":"MIS","s":0.0},"geometry":{"type":"Polygon","coordinates":[]}},{"type":"Feature","properties":{"k":"BTN","s":4.184},"geometry":{"type":"Polygon","coordinates":[[[2.62509,50.48384],[2.62431,50.48407],[2.62524,50.48532],[2.62369,50.48579],[2.62479,50.48716],[2.62612,50.48673],[2.62742,50.4866],[2.62509,50.48384]]]}},{"type":"Feature","properties":{"k":"JAC","s":0.342},"geometry":{"type":"Polygon","coordinates":[[[2.62488,50.47616],[2.62506,50.47637],[2.6266,50.47569],[2.62639,50.4755],[2.62488,50.47616]]]}},{"type":"Feature","properties":{"k":"BTH","s":0.688},"geometry":{"type":"Polygon","coordinates":[[[2.62639,50.4755],[2.62594,50.47509],[2.6245,50.47579],[2.62487,50.47617],[2.62639,50.4755]]]}},{"type":"Feature","properties":{"k":"BTN","s":4.038},"geometry":{"type":"Polygon","coordinates":[[[2.62663,50.47403],[2.62524,50.47278],[2.62262,50.47387],[2.62416,50.47536],[2.62663,50.47403]]]}},{"type":"Feature","properties":{"k":"LIF","s":13.051},"geometry":{"type":"Polygon","coordinates":[[[2.61926,50.47283],[2.61982,50.47406],[2.62085,50.47365],[2.62107,50.47382],[2.61988,50.47429],[2.62094,50.47615],[2.62149,50.47829],[2.62424,50.47769],[2.62387,50.4772],[2.62532,50.47678],[2.62306,50.47425],[2.61996,50.47237],[2.61926,50.47283]]]}},{"type":"Feature","properties":{"k":"BTA","s":0.152},"geometry":{"type":"Polygon","coordinates":[[[2.61973,50.47461],[2.6198,50.47478],[2.61936,50.47328],[2.61973,50.47461]]]}},{"type":"Feature","properties":{"k":"BOR","s":0.076},"geometry":{"type":"Polygon","coordinates":[[[2.61923,50.4727],[2.61926,50.47283],[2.61996,50.47237],[2.61984,50.4723],[2.61923,50.4727]]]}},{"type":"Feature","properties":{"k":"LUZ","s":0.034},"geometry":{"type":"Polygon","coordinates":[[[2.62582,50.47243],[2.62579,50.47238],[2.6251,50.47263],[2.62582,50.47243]]]}},{"type":"Feature","properties":{"k":"BTN","s":7.768},"geometry":{"type":"Polygon","coordinates":[[[2.62585,50.47333],[2.62823,50.47229],[2.62631,50.46933],[2.62338,50.46902],[2.62582,50.47243],[2.62522,50.47275],[2.62585,50.47333]]]}},{"type":"Feature","properties":{"k":"LIF","s":2.655},"geometry":{"type":"Polygon","coordinates":[[[2.62579,50.47238],[2.62344,50.46911],[2.62304,50.46898],[2.62308,50.47039],[2.6251,50.47263],[2.62579,50.47238]]]}},{"type":"Feature","properties":{"k":"BTN","s":10.951},"geometry":{"type":"Polygon","coordinates":[[[2.62263,50.47387],[2.62523,50.47279],[2.62308,50.47039],[2.62186,50.471],[2.62196,50.46887],[2.62041,50.46882],[2.62022,50.4703],[2.62045,50.47186],[2.61986,50.47228],[2.62263,50.47387]]]}},{"type":"Feature","properties":{"k":"ORH","s":1.635},"geometry":{"type":"Polygon","coordinates":[[[2.62304,50.46897],[2.62196,50.46887],[2.62186,50.471],[2.62308,50.47039],[2.62304,50.46897]]]}},{"type":"Feature","properties":{"k":"BTH","s":4.606},"geometry":{"type":"Polygon","coordinates":[[[2.6263,50.46932],[2.62838,50.47251],[2.62989,50.47186],[2.62951,50.4707],[2.62952,50.47004],[2.6263,50.46932]]]}},{"type":"Feature","properties":{"k":"ORH","s":2.173},"geometry":{"type":"Polygon","coordinates":[[[2.62959,50.47006],[2.62956,50.47067],[2.63013,50.47237],[2.6316,50.47199],[2.6306,50.47032],[2.62959,50.47006]]]}},{"type":"Feature","properties":{"k":"ORH","s":0.025},"geometry":{"type":"Polygon","coordinates":[[[2.63195,50.47009],[2.63197,50.47002],[2.63124,50.47045],[2.63195,50.47009]]]}},{"type":"Feature","properties":{"k":"BTH","s":2.742},"geometry":{"type":"Polygon","coordinates":[[[2.63446,50.47097],[2.634,50.47039],[2.63298,50.47097],[2.63201,50.47005],[2.63121,50.47048],[2.6306,50.47032],[2.6316,50.47199],[2.63446,50.47097]]]}},{"type":"Feature","properties":{"k":"ORH","s":0.003},"geometry":{"type":"Polygon","coordinates":[[[2.63398,50.47037],[2.63375,50.4705],[2.63395,50.47041],[2.63398,50.47037]]]}},{"type":"Feature","properties":{"k":"BTH","s":4.975},"geometry":{"type":"Polygon","coordinates":[[[2.63034,50.47298],[2.63346,50.47211],[2.63367,50.47237],[2.6305,50.47327],[2.63091,50.47398],[2.63289,50.47346],[2.63418,50.47296],[2.63405,50.47283],[2.63501,50.47253],[2.63383,50.47119],[2.63013,50.47237],[2.63034,50.47298]]]}},{"type":"Feature","properties":{"k":"MIS","s":1.518},"geometry":{"type":"Polygon","coordinates":[[[2.63199,50.47377],[2.63093,50.47405],[2.63079,50.4748],[2.63457,50.47359],[2.63412,50.47316],[2.63214,50.47395],[2.63199,50.47377]]]}},{"type":"Feature","properties":{"k":"BTH","s":5.184},"geometry":{"type":"Polygon","coordinates":[[[2.63383,50.47119],[2.63501,50.47253],[2.63405,50.47283],[2.63418,50.47296],[2.63289,50.47346],[2.63093,50.47405],[2.63199,50.47377],[2.63214,50.47395],[2.63417,50.47314],[2.63543,50.47441],[2.6369,50.47386],[2.63781,50.47487],[2.63894,50.47439],[2.63564,50.47237],[2.63526,50.4723],[2.6344,50.47098],[2.63383,50.47119]]]}},{"type":"Feature","properties":{"k":"PTC","s":4.704},"geometry":{"type":"Polygon","coordinates":[[[2.63436,50.47484],[2.63486,50.47561],[2.63502,50.47694],[2.63712,50.4768],[2.63647,50.47543],[2.63778,50.47488],[2.6369,50.47386],[2.63436,50.47484]]]}},{"type":"Feature","properties":{"k":"MIS","s":4.778},"geometry":{"type":"Polygon","coordinates":[[[2.63437,50.47484],[2.63543,50.47441],[2.63461,50.47358],[2.6308,50.4748],[2.63122,50.47614],[2.63459,50.47519],[2.63437,50.47484]]]}},{"type":"Feature","properties":{"k":"LBF","s":3.698},"geometry":{"type":"Polygon","coordinates":[[[2.63122,50.47614],[2.63141,50.47648],[2.63194,50.47642],[2.63221,50.47712],[2.63502,50.47694],[2.63493,50.47593],[2.63459,50.47519],[2.63122,50.47614]]]}},{"type":"Feature","properties":{"k":"PTC","s":1.84},"geometry":{"type":"Polygon","coordinates":[[[2.63422,50.47802],[2.63522,50.47776],[2.63471,50.47703],[2.63249,50.47719],[2.63281,50.47844],[2.63398,50.47792],[2.63422,50.47802]]]}},{"type":"Feature","properties":{"k":"BTN","s":0.814},"geometry":{"type":"Polygon","coordinates":[[[2.63278,50.47853],[2.63249,50.47719],[2.63179,50.47724],[2.63208,50.47872],[2.63278,50.47853]]]}},{"type":"Feature","properties":{"k":"BTH","s":0.959},"geometry":{"type":"Polygon","coordinates":[[[2.63498,50.477],[2.6364,50.47914],[2.63689,50.47904],[2.63542,50.47696],[2.63498,50.477]]]}},{"type":"Feature","properties":{"k":"PTC","s":0.539},"geometry":{"type":"Polygon","coordinates":[[[2.63503,50.47994],[2.63607,50.47972],[2.63564,50.47912],[2.63464,50.47938],[2.63503,50.47994]]]}},{"type":"Feature","properties":{"k":"PPH","s":0.002},"geometry":{"type":"Polygon","coordinates":[[[2.63661,50.4791],[2.6369,50.47905],[2.63689,50.47904],[2.63661,50.4791]]]}},{"type":"Feature","properties":{"k":"MIS","s":0.069},"geometry":{"type":"Polygon","coordinates":[[[2.63587,50.4836],[2.63577,50.48346],[2.63526,50.48352],[2.63546,50.4837],[2.63587,50.4836]]]}},{"type":"Feature","properties":{"k":"CZH","s":0.62},"geometry":{"type":"Polygon","coordinates":[[[2.63635,50.4809],[2.63695,50.48248],[2.63738,50.4824],[2.63683,50.4808],[2.63635,50.4809]]]}},{"type":"Feature","properties":{"k":"CZH","s":0.216},"geometry":{"type":"Polygon","coordinates":[[[2.63683,50.4808],[2.6371,50.48127],[2.63758,50.48115],[2.63724,50.48061],[2.63683,50.4808]]]}},{"type":"Feature","properties":{"k":"CZH","s":0.139},"geometry":{"type":"Polygon","coordinates":[[[2.63758,50.48115],[2.63819,50.48101],[2.63816,50.48094],[2.63731,50.48072],[2.63758,50.48115]]]}},{"type":"Feature","properties":{"k":"PTC","s":0.0},"geometry":{"type":"Polygon","coordinates":[]}},{"type":"Feature","properties":{"k":"JAC","s":0.239},"geometry":{"type":"Polygon","coordinates":[[[2.63902,50.48117],[2.63804,50.48071],[2.63724,50.48061],[2.63902,50.48117]]]}},{"type":"Feature","properties":{"k":"CZH","s":0.381},"geometry":{"type":"Polygon","coordinates":[[[2.63739,50.48053],[2.63901,50.48114],[2.63848,50.48042],[2.63813,50.48018],[2.63739,50.48053]]]}},{"type":"Feature","properties":{"k":"CZH","s":0.02},"geometry":{"type":"Polygon","coordinates":[[[2.63848,50.48042],[2.63826,50.48012],[2.63813,50.48018],[2.63848,50.48042]]]}},{"type":"Feature","properties":{"k":"CZH","s":0.627},"geometry":{"type":"Polygon","coordinates":[[[2.63653,50.48041],[2.63678,50.48077],[2.63718,50.48058],[2.63631,50.47923],[2.63577,50.47931],[2.63653,50.48041]]]}},{"type":"Feature","properties":{"k":"PTC","s":0.793},"geometry":{"type":"Polygon","coordinates":[[[2.63677,50.48077],[2.63638,50.48019],[2.63488,50.48054],[2.63534,50.48115],[2.63677,50.48077]]]}},{"type":"Feature","properties":{"k":"BOR","s":0.307},"geometry":{"type":"Polygon","coordinates":[[[2.63488,50.48054],[2.63638,50.48019],[2.63629,50.48006],[2.63465,50.48043],[2.63521,50.48122],[2.63534,50.48115],[2.63488,50.48054]]]}},{"type":"Feature","properties":{"k":"CZH","s":2.091},"geometry":{"type":"Polygon","coordinates":[[[2.63635,50.4809],[2.63555,50.4811],[2.63458,50.48192],[2.63504,50.48258],[2.63617,50.48243],[2.63672,50.48251],[2.63693,50.48246],[2.63635,50.4809]]]}},{"type":"Feature","properties":{"k":"PPH","s":1.356},"geometry":{"type":"Polygon","coordinates":[[[2.63247,50.48061],[2.6328,50.48119],[2.63452,50.4805],[2.63417,50.48],[2.63344,50.48024],[2.6332,50.47988],[2.63203,50.48031],[2.63198,50.4807],[2.63247,50.48061]]]}},{"type":"Feature","properties":{"k":"MIS","s":1.047},"geometry":{"type":"Polygon","coordinates":[[[2.63263,50.48285],[2.63235,50.48221],[2.63313,50.48209],[2.63296,50.48158],[2.63275,50.48137],[2.63241,50.48136],[2.63206,50.48069],[2.63197,50.48233],[2.63212,50.48297],[2.63263,50.48285]]]}},{"type":"Feature","properties":{"k":"MIS","s":0.404},"geometry":{"type":"Polygon","coordinates":[[[2.6334,50.48265],[2.63313,50.48209],[2.63235,50.48221],[2.63263,50.48285],[2.6334,50.48265]]]}},{"type":"Feature","properties":{"k":"JAC","s":0.136},"geometry":{"type":"MultiPolygon","coordinates":[[[[2.6362,50.48403],[2.63621,50.48403],[2.63611,50.48387],[2.6362,50.48403]]],[[[2.63308,50.48373],[2.63304,50.4838],[2.63577,50.48346],[2.63587,50.4836],[2.63581,50.48341],[2.63308,50.48373]]]]}},{"type":"Feature","properties":{"k":"PTC","s":2.961},"geometry":{"type":"Polygon","coordinates":[[[2.63334,50.48318],[2.63319,50.48275],[2.63221,50.483],[2.63256,50.4849],[2.63438,50.48459],[2.6343,50.48442],[2.63519,50.48429],[2.63531,50.48485],[2.63573,50.48464],[2.63526,50.48352],[2.63308,50.48373],[2.63334,50.48318]]]}},{"type":"Feature","properties":{"k":"BTH","s":2.217},"geometry":{"type":"Polygon","coordinates":[[[2.60532,50.48084],[2.60492,50.48205],[2.6049,50.48291],[2.6068,50.48224],[2.60638,50.48156],[2.60677,50.48146],[2.60618,50.48067],[2.60532,50.48084]]]}},{"type":"Feature","properties":{"k":"BTH","s":3.835},"geometry":{"type":"Polygon","coordinates":[[[2.61191,50.47069],[2.6117,50.47142],[2.61081,50.47128],[2.61002,50.47189],[2.60965,50.47276],[2.61068,50.47197],[2.61225,50.47301],[2.61338,50.47198],[2.61373,50.47071],[2.61191,50.47069]]]}},{"type":"Feature","properties":{"k":"ORH","s":2.425},"geometry":{"type":"Polygon","coordinates":[[[2.61263,50.46884],[2.6121,50.47067],[2.61411,50.47069],[2.61384,50.46884],[2.61263,50.46884]]]}},{"type":"Feature","properties":{"k":"ORH","s":3.039},"geometry":{"type":"Polygon","coordinates":[[[2.61146,50.46876],[2.61009,50.47051],[2.60995,50.47106],[2.61168,50.47141],[2.61244,50.46883],[2.61146,50.46876]]]}},{"type":"Feature","properties":{"k":"ORH","s":0.074},"geometry":{"type":"Polygon","coordinates":[[[2.6144,50.46994],[2.6144,50.46997],[2.61787,50.46992],[2.6144,50.46994]]]}},{"type":"Feature","properties":{"k":"PTC","s":3.004},"geometry":{"type":"Polygon","coordinates":[[[2.61442,50.47018],[2.6144,50.46994],[2.61784,50.46986],[2.61758,50.46887],[2.61553,50.46895],[2.61393,50.46884],[2.61408,50.47019],[2.61442,50.47018]]]}},{"type":"Feature","properties":{"k":"BTH","s":2.966},"geometry":{"type":"Polygon","coordinates":[[[2.62019,50.47031],[2.62037,50.46882],[2.61772,50.46884],[2.61832,50.47057],[2.62019,50.47031]]]}},{"type":"Feature","properties":{"k":"BTN","s":2.316},"geometry":{"type":"Polygon","coordinates":[[[2.61832,50.47057],[2.61903,50.47187],[2.61922,50.47267],[2.6204,50.47185],[2.62019,50.47031],[2.61832,50.47057]]]}},{"type":"Feature","properties":{"k":"BTH","s":2.975},"geometry":{"type":"Polygon","coordinates":[[[2.61373,50.47069],[2.61343,50.47183],[2.6185,50.47117],[2.61822,50.47066],[2.61373,50.47069]]]}},{"type":"Feature","properties":{"k":"ORH","s":2.389},"geometry":{"type":"Polygon","coordinates":[[[2.6144,50.46997],[2.61441,50.47019],[2.61409,50.47019],[2.61416,50.47076],[2.61822,50.47066],[2.61785,50.4699],[2.6144,50.46997]]]}},{"type":"Feature","properties":{"k":"BTH","s":13.547},"geometry":{"type":"Polygon","coordinates":[[[2.61226,50.47304],[2.61376,50.47348],[2.61513,50.47472],[2.61474,50.47489],[2.61591,50.47601],[2.6198,50.47478],[2.61926,50.47333],[2.61748,50.47441],[2.61688,50.4736],[2.61628,50.47331],[2.61801,50.47249],[2.61697,50.47156],[2.6186,50.47135],[2.61849,50.47117],[2.61343,50.47184],[2.61226,50.47304]]]}},{"type":"Feature","properties":{"k":"BTH","s":3.566},"geometry":{"type":"Polygon","coordinates":[[[2.61903,50.47227],[2.6186,50.47135],[2.61697,50.47156],[2.61801,50.47249],[2.61628,50.47331],[2.61688,50.4736],[2.61748,50.47441],[2.61926,50.47333],[2.61899,50.47281],[2.61903,50.47227]]]}},{"type":"Feature","properties":{"k":"BTA","s":0.055},"geometry":{"type":"Polygon","coordinates":[[[2.61928,50.47333],[2.61909,50.47266],[2.61899,50.47281],[2.61928,50.47333]]]}},{"type":"Feature","properties":{"k":"BTH","s":1.908},"geometry":{"type":"Polygon","coordinates":[[[2.61513,50.47472],[2.61434,50.47398],[2.61305,50.47465],[2.61322,50.47481],[2.61291,50.47509],[2.61298,50.47525],[2.61156,50.47596],[2.61188,50.47625],[2.61513,50.47472]]]}},{"type":"Feature","properties":{"k":"MIS","s":1.13},"geometry":{"type":"Polygon","coordinates":[[[2.61188,50.47625],[2.61223,50.47659],[2.61508,50.47521],[2.61474,50.47489],[2.61188,50.47625]]]}},{"type":"Feature","properties":{"k":"JAC","s":0.126},"geometry":{"type":"Polygon","coordinates":[[[2.61298,50.47525],[2.61291,50.47509],[2.61322,50.47481],[2.61305,50.47465],[2.61317,50.47485],[2.61285,50.47511],[2.61288,50.47529],[2.61168,50.47587],[2.61137,50.47551],[2.61121,50.47557],[2.61156,50.47596],[2.61298,50.47525]]]}},{"type":"Feature","properties":{"k":"BTA","s":0.196},"geometry":{"type":"Polygon","coordinates":[[[2.61011,50.47467],[2.61087,50.47537],[2.61122,50.47553],[2.61287,50.47458],[2.61304,50.47465],[2.61282,50.47455],[2.61122,50.47548],[2.61018,50.47466],[2.6103,50.47433],[2.61087,50.47399],[2.61027,50.47429],[2.61011,50.47467]]]}},{"type":"Feature","properties":{"k":"MIS","s":2.311},"geometry":{"type":"Polygon","coordinates":[[[2.61018,50.47466],[2.61122,50.47548],[2.61282,50.47455],[2.61304,50.47465],[2.61434,50.47398],[2.61376,50.47348],[2.61186,50.47466],[2.61087,50.47399],[2.6103,50.47433],[2.61018,50.47466]]]}},{"type":"Feature","properties":{"k":"BTH","s":1.773},"geometry":{"type":"Polygon","coordinates":[[[2.61085,50.47397],[2.61186,50.47466],[2.61376,50.47348],[2.61226,50.47304],[2.61085,50.47397]]]}},{"type":"Feature","properties":{"k":"BTH","s":1.298},"geometry":{"type":"Polygon","coordinates":[[[2.61222,50.47306],[2.61075,50.47223],[2.60987,50.47282],[2.61128,50.47368],[2.61222,50.47306]]]}},{"type":"Feature","properties":{"k":"JAC","s":0.098},"geometry":{"type":"Polygon","coordinates":[[[2.60906,50.47395],[2.60933,50.47404],[2.60968,50.47397],[2.60944,50.47363],[2.60906,50.47395]]]}},{"type":"Feature","properties":{"k":"PPH","s":0.303},"geometry":{"type":"Polygon","coordinates":[[[2.60969,50.47398],[2.61007,50.47365],[2.60968,50.47314],[2.60864,50.47268],[2.60951,50.47309],[2.60917,50.47338],[2.60969,50.47398]]]}},{"type":"Feature","properties":{"k":"BTA","s":0.033},"geometry":{"type":"Polygon","coordinates":[[[2.60918,50.47265],[2.60902,50.47259],[2.60959,50.4731],[2.60918,50.47265]]]}},{"type":"Feature","properties":{"k":"ORP","s":0.131},"geometry":{"type":"Polygon","coordinates":[[[2.60959,50.4731],[2.6087,50.47245],[2.60865,50.47268],[2.60959,50.4731]]]}},{"type":"Feature","properties":{"k":"JAC","s":0.723},"geometry":{"type":"Polygon","coordinates":[[[2.6104,50.47514],[2.60987,50.47463],[2.60998,50.47373],[2.60969,50.47398],[2.60981,50.47465],[2.60929,50.47496],[2.60894,50.47562],[2.6093,50.47578],[2.6104,50.47514]]]}},{"type":"Feature","properties":{"k":"BTH","s":1.322},"geometry":{"type":"Polygon","coordinates":[[[2.60672,50.47681],[2.60651,50.47796],[2.60717,50.47837],[2.60858,50.47757],[2.60672,50.47681]]]}},{"type":"Feature","properties":{"k":"PPH","s":2.58},"geometry":{"type":"Polygon","coordinates":[[[2.6093,50.47578],[2.6101,50.47615],[2.60974,50.47647],[2.6099,50.47671],[2.60929,50.47713],[2.60982,50.47725],[2.61036,50.47696],[2.61086,50.47734],[2.61214,50.47664],[2.6104,50.47514],[2.6093,50.47578]]]}},{"type":"Feature","properties":{"k":"BTA","s":0.145},"geometry":{"type":"Polygon","coordinates":[[[2.61339,50.4779],[2.61399,50.47896],[2.61345,50.47788],[2.6122,50.47677],[2.61339,50.4779]]]}},{"type":"Feature","properties":{"k":"BTH","s":2.378},"geometry":{"type":"Polygon","coordinates":[[[2.61393,50.47892],[2.61339,50.4779],[2.61215,50.47673],[2.61052,50.47762],[2.61393,50.47892]]]}},{"type":"Feature","properties":{"k":"PTC","s":4.482},"geometry":{"type":"Polygon","coordinates":[[[2.6093,50.4784],[2.60778,50.4792],[2.60818,50.47958],[2.61047,50.47911],[2.61067,50.4796],[2.61269,50.47927],[2.61232,50.47859],[2.61208,50.47849],[2.61187,50.47863],[2.60913,50.47778],[2.60731,50.47877],[2.60777,50.47919],[2.6093,50.4784]]]}},{"type":"Feature","properties":{"k":"JAC","s":0.159},"geometry":{"type":"Polygon","coordinates":[[[2.61039,50.47768],[2.61194,50.47833],[2.61203,50.47824],[2.61052,50.47762],[2.61039,50.47768]]]}},{"type":"Feature","properties":{"k":"JAC","s":0.193},"geometry":{"type":"Polygon","coordinates":[[[2.61393,50.47892],[2.61213,50.47828],[2.6121,50.4784],[2.61262,50.4786],[2.61393,50.47892]]]}},{"type":"Feature","properties":{"k":"BTH","s":0.469},"geometry":{"type":"Polygon","coordinates":[[[2.61005,50.47937],[2.61001,50.47921],[2.60818,50.47958],[2.60849,50.47991],[2.60988,50.47959],[2.60983,50.47941],[2.61005,50.47937]]]}},{"type":"Feature","properties":{"k":"BTH","s":0.702},"geometry":{"type":"Polygon","coordinates":[[[2.60702,50.47849],[2.60731,50.47877],[2.60927,50.47771],[2.60867,50.47754],[2.60702,50.47849]]]}},{"type":"Feature","properties":{"k":"MIS","s":1.802},"geometry":{"type":"Polygon","coordinates":[[[2.60582,50.48001],[2.6061,50.48017],[2.60575,50.48057],[2.60835,50.47995],[2.60801,50.47962],[2.60818,50.47958],[2.60714,50.47864],[2.60639,50.47901],[2.60693,50.47951],[2.60582,50.48001]]]}},{"type":"Feature","properties":{"k":"BOR","s":0.292},"geometry":{"type":"Polygon","coordinates":[[[2.60588,50.48068],[2.60847,50.48006],[2.60835,50.47995],[2.60575,50.48057],[2.60588,50.48068]]]}},{"type":"Feature","properties":{"k":"BTH","s":5.401},"geometry":{"type":"Polygon","coordinates":[[[2.6079,50.48026],[2.60641,50.48059],[2.60666,50.4812],[2.60716,50.48156],[2.60939,50.48438],[2.61081,50.48392],[2.6079,50.48026]]]}},{"type":"Feature","properties":{"k":"PTC","s":8.932},"geometry":{"type":"Polygon","coordinates":[[[2.61081,50.48392],[2.61236,50.48339],[2.6124,50.48171],[2.61095,50.47961],[2.6079,50.48026],[2.61081,50.48392]]]}},{"type":"Feature","properties":{"k":"MIS","s":3.298},"geometry":{"type":"Polygon","coordinates":[[[2.61246,50.4817],[2.61241,50.48302],[2.61359,50.48274],[2.61361,50.48178],[2.61241,50.47942],[2.61101,50.47961],[2.61246,50.4817]]]}},{"type":"Feature","properties":{"k":"BTH","s":2.436},"geometry":{"type":"Polygon","coordinates":[[[2.61579,50.48034],[2.61393,50.47911],[2.61374,50.47913],[2.61318,50.47926],[2.61403,50.48078],[2.61406,50.48175],[2.61579,50.48034]]]}},{"type":"Feature","properties":{"k":"PPH","s":0.276},"geometry":{"type":"Polygon","coordinates":[[[2.61589,50.4809],[2.61489,50.48159],[2.61481,50.4818],[2.61494,50.48187],[2.61619,50.48096],[2.61589,50.4809]]]}},{"type":"Feature","properties":{"k":"BTH","s":3.517},"geometry":{"type":"Polygon","coordinates":[[[2.61362,50.48178],[2.61363,50.48285],[2.61419,50.48361],[2.61456,50.48501],[2.61582,50.48474],[2.61542,50.48372],[2.61493,50.48367],[2.61431,50.48307],[2.6139,50.48146],[2.61388,50.48038],[2.61314,50.47927],[2.61254,50.47939],[2.61362,50.48178]]]}},{"type":"Feature","properties":{"k":"JAC","s":0.262},"geometry":{"type":"Polygon","coordinates":[[[2.61611,50.48252],[2.61628,50.48262],[2.61775,50.48191],[2.61754,50.48176],[2.61611,50.48252]]]}},{"type":"Feature","properties":{"k":"JAC","s":0.432},"geometry":{"type":"Polygon","coordinates":[[[2.61931,50.4829],[2.6193,50.48283],[2.619,50.48261],[2.61748,50.48329],[2.61779,50.48346],[2.61931,50.4829]]]}},{"type":"Feature","properties":{"k":"JAC","s":0.028},"geometry":{"type":"Polygon","coordinates":[[[2.61773,50.48188],[2.61777,50.4819],[2.61865,50.4813],[2.61773,50.48188]]]}},{"type":"Feature","properties":{"k":"BTH","s":1.068},"geometry":{"type":"Polygon","coordinates":[[[2.61689,50.48071],[2.61605,50.48082],[2.61773,50.48188],[2.6186,50.48129],[2.61689,50.48071]]]}},{"type":"Feature","properties":{"k":"LUZ","s":0.204},"geometry":{"type":"Polygon","coordinates":[[[2.61846,50.48076],[2.61893,50.48048],[2.61942,50.48068],[2.61903,50.48022],[2.61822,50.4806],[2.61846,50.48076]]]}},{"type":"Feature","properties":{"k":"BTH","s":2.39},"geometry":{"type":"Polygon","coordinates":[[[2.6179,50.47852],[2.62067,50.47844],[2.61993,50.47735],[2.6187,50.47774],[2.61825,50.47727],[2.61821,50.47723],[2.61706,50.47761],[2.6179,50.47852]]]}},{"type":"Feature","properties":{"k":"ORH","s":1.019},"geometry":{"type":"Polygon","coordinates":[[[2.61581,50.47858],[2.61792,50.4785],[2.61706,50.47761],[2.61558,50.47822],[2.61581,50.47858]]]}},{"type":"Feature","properties":{"k":"PPH","s":1.987},"geometry":{"type":"Polygon","coordinates":[[[2.61653,50.47981],[2.61847,50.47973],[2.61778,50.47859],[2.61565,50.4787],[2.61653,50.47981]]]}},{"type":"Feature","properties":{"k":"PPH","s":0.615},"geometry":{"type":"Polygon","coordinates":[[[2.61534,50.47956],[2.61489,50.47964],[2.6158,50.48025],[2.61652,50.47983],[2.61618,50.47939],[2.61582,50.47955],[2.61552,50.47927],[2.61519,50.47936],[2.61534,50.47956]]]}},{"type":"Feature","properties":{"k":"BTA","s":0.01},"geometry":{"type":"Polygon","coordinates":[[[2.61537,50.47829],[2.61557,50.47823],[2.61553,50.47818],[2.61537,50.47829]]]}},{"type":"Feature","properties":{"k":"JAC","s":0.062},"geometry":{"type":"Polygon","coordinates":[[[2.6156,50.47862],[2.6158,50.47858],[2.61557,50.47824],[2.61537,50.47829],[2.6156,50.47862]]]}},{"type":"Feature","properties":{"k":"PTC","s":2.616},"geometry":{"type":"Polygon","coordinates":[[[2.61312,50.47738],[2.61591,50.47601],[2.61512,50.47525],[2.61225,50.47661],[2.61312,50.47738]]]}},{"type":"Feature","properties":{"k":"BTH","s":6.049},"geometry":{"type":"Polygon","coordinates":[[[2.6131,50.47738],[2.6137,50.47815],[2.61719,50.47669],[2.62042,50.47577],[2.6198,50.47478],[2.61632,50.47584],[2.6131,50.47738]]]}},{"type":"Feature","properties":{"k":"BTA","s":0.322},"geometry":{"type":"Polygon","coordinates":[[[2.62061,50.47599],[2.61898,50.47689],[2.61477,50.47831],[2.61493,50.47864],[2.6141,50.47891],[2.61495,50.4787],[2.61498,50.47857],[2.6148,50.47836],[2.61902,50.47693],[2.6207,50.476],[2.62046,50.47577],[2.62061,50.47599]]]}},{"type":"Feature","properties":{"k":"BTH","s":3.696},"geometry":{"type":"Polygon","coordinates":[[[2.61719,50.47669],[2.6137,50.47815],[2.61408,50.47887],[2.6149,50.47866],[2.61477,50.47831],[2.61898,50.47689],[2.62061,50.47599],[2.62046,50.47576],[2.61719,50.47669]]]}},{"type":"Feature","properties":{"k":"LIF","s":1.651},"geometry":{"type":"Polygon","coordinates":[[[2.621,50.477],[2.62075,50.47602],[2.61821,50.47723],[2.61871,50.47774],[2.621,50.477]]]}},{"type":"Feature","properties":{"k":"BTH","s":0.905},"geometry":{"type":"Polygon","coordinates":[[[2.6213,50.47822],[2.621,50.477],[2.61993,50.47735],[2.62069,50.47845],[2.6213,50.47822]]]}},{"type":"Feature","properties":{"k":"JAC","s":0.818},"geometry":{"type":"Polygon","coordinates":[[[2.62425,50.47769],[2.62591,50.47743],[2.62519,50.47682],[2.62387,50.4772],[2.62425,50.47769]]]}},{"type":"Feature","properties":{"k":"BTH","s":2.367},"geometry":{"type":"Polygon","coordinates":[[[2.62262,50.47808],[2.62321,50.47898],[2.62625,50.47823],[2.62585,50.47753],[2.62262,50.47808]]]}},{"type":"Feature","properties":{"k":"BTH","s":1.236},"geometry":{"type":"Polygon","coordinates":[[[2.62646,50.4787],[2.62627,50.47823],[2.62321,50.47898],[2.62349,50.47941],[2.62646,50.4787]]]}},{"type":"Feature","properties":{"k":"ORH","s":1.275},"geometry":{"type":"Polygon","coordinates":[[[2.62377,50.47981],[2.62668,50.4793],[2.62644,50.4787],[2.6235,50.47942],[2.62377,50.47981]]]}},{"type":"Feature","properties":{"k":"LBF","s":1.776},"geometry":{"type":"Polygon","coordinates":[[[2.62149,50.47837],[2.62125,50.47857],[2.62197,50.47974],[2.62347,50.47938],[2.62262,50.47808],[2.62149,50.47837]]]}},{"type":"Feature","properties":{"k":"ORP","s":1.78},"geometry":{"type":"Polygon","coordinates":[[[2.62091,50.47857],[2.61892,50.47862],[2.61978,50.47988],[2.62157,50.47938],[2.62091,50.47857]]]}},{"type":"Feature","properties":{"k":"BTH","s":0.737},"geometry":{"type":"Polygon","coordinates":[[[2.6203,50.47979],[2.62065,50.48018],[2.62144,50.47994],[2.6219,50.48057],[2.62228,50.48046],[2.62162,50.47942],[2.6203,50.47979]]]}},{"type":"Feature","properties":{"k":"JAC","s":0.119},"geometry":{"type":"Polygon","coordinates":[[[2.62144,50.47994],[2.62065,50.48018],[2.62142,50.47998],[2.62188,50.4806],[2.62211,50.48054],[2.6225,50.48093],[2.62228,50.48046],[2.6219,50.48057],[2.62144,50.47994]]]}},{"type":"Feature","properties":{"k":"PPH","s":0.991},"geometry":{"type":"Polygon","coordinates":[[[2.62051,50.48231],[2.62061,50.48259],[2.62172,50.48224],[2.62132,50.48153],[2.62159,50.48146],[2.62132,50.48111],[2.62126,50.48139],[2.62082,50.48151],[2.62075,50.48141],[2.61993,50.48194],[2.62051,50.48231]]]}},{"type":"Feature","properties":{"k":"JAC","s":0.039},"geometry":{"type":"Polygon","coordinates":[[[2.62431,50.48066],[2.62249,50.48053],[2.6227,50.48055],[2.62431,50.48066]]]}},{"type":"Feature","properties":{"k":"LBF","s":1.441},"geometry":{"type":"Polygon","coordinates":[[[2.62347,50.47938],[2.62198,50.47975],[2.62249,50.48053],[2.62432,50.48062],[2.62347,50.47938]]]}},{"type":"Feature","properties":{"k":"MIS","s":0.769},"geometry":{"type":"Polygon","coordinates":[[[2.62433,50.48062],[2.62553,50.4804],[2.62557,50.48079],[2.62675,50.48066],[2.62679,50.47999],[2.62423,50.48047],[2.62433,50.48062]]]}},{"type":"Feature","properties":{"k":"PHF","s":1.565},"geometry":{"type":"Polygon","coordinates":[[[2.62669,50.47931],[2.62379,50.47981],[2.62423,50.48047],[2.62679,50.47999],[2.62669,50.47931]]]}},{"type":"Feature","properties":{"k":"LIF","s":0.296},"geometry":{"type":"Polygon","coordinates":[[[2.6266,50.48127],[2.62675,50.48068],[2.62614,50.48074],[2.62603,50.48139],[2.6266,50.48127]]]}},{"type":"Feature","properties":{"k":"PPH","s":0.127},"geometry":{"type":"Polygon","coordinates":[[[2.62603,50.48139],[2.62614,50.48075],[2.62584,50.48077],[2.62582,50.48138],[2.62603,50.48139]]]}},{"type":"Feature","properties":{"k":"PTC","s":6.284},"geometry":{"type":"Polygon","coordinates":[[[2.63069,50.48217],[2.63007,50.48221],[2.62969,50.48094],[2.62914,50.48112],[2.62681,50.48119],[2.62677,50.48283],[2.62875,50.48294],[2.62963,50.48283],[2.63023,50.48306],[2.63205,50.48299],[2.63193,50.48154],[2.63115,50.48165],[2.63118,50.4819],[2.63068,50.48197],[2.63069,50.48217]]]}},{"type":"Feature","properties":{"k":"PPH","s":4.804},"geometry":{"type":"Polygon","coordinates":[[[2.62972,50.48091],[2.63006,50.48219],[2.63068,50.48216],[2.63067,50.48195],[2.63116,50.48189],[2.63113,50.48164],[2.63193,50.48152],[2.632,50.47956],[2.62906,50.48086],[2.62894,50.48057],[2.62873,50.48063],[2.62854,50.48011],[2.62687,50.48018],[2.62674,50.48118],[2.62912,50.48111],[2.62972,50.48091]]]}},{"type":"Feature","properties":{"k":"BTN","s":7.191},"geometry":{"type":"Polygon","coordinates":[[[2.6287,50.47734],[2.62941,50.47921],[2.62832,50.4795],[2.62874,50.48064],[2.62895,50.48056],[2.62905,50.48083],[2.63199,50.47955],[2.63164,50.47725],[2.6287,50.47734]]]}},{"type":"Feature","properties":{"k":"PHF","s":5.036},"geometry":{"type":"Polygon","coordinates":[[[2.62869,50.47734],[2.62611,50.47752],[2.62688,50.47962],[2.6269,50.48018],[2.62854,50.4801],[2.62832,50.4795],[2.6294,50.47921],[2.62869,50.47734]]]}},{"type":"Feature","properties":{"k":"MIS","s":1.215},"geometry":{"type":"Polygon","coordinates":[[[2.6266,50.47569],[2.62506,50.47637],[2.62564,50.47702],[2.6274,50.4763],[2.6266,50.47569]]]}},{"type":"Feature","properties":{"k":"BTH","s":5.725},"geometry":{"type":"Polygon","coordinates":[[[2.62604,50.47747],[2.63166,50.47717],[2.63079,50.47522],[2.62735,50.47634],[2.62574,50.477],[2.62604,50.47747]]]}},{"type":"Feature","properties":{"k":"BTN","s":0.779},"geometry":{"type":"Polygon","coordinates":[[[2.63367,50.47237],[2.63346,50.47211],[2.63035,50.47298],[2.63051,50.47326],[2.63367,50.47237]]]}},{"type":"Feature","properties":{"k":"BTH","s":6.092},"geometry":{"type":"Polygon","coordinates":[[[2.6276,50.47495],[2.63065,50.47364],[2.62986,50.47186],[2.6284,50.47252],[2.62823,50.4723],[2.62586,50.47334],[2.6276,50.47495]]]}},{"type":"Feature","properties":{"k":"BTN","s":3.773},"geometry":{"type":"Polygon","coordinates":[[[2.62813,50.47544],[2.62706,50.47597],[2.6274,50.4763],[2.62565,50.47702],[2.62568,50.47704],[2.63079,50.47522],[2.63085,50.47401],[2.63065,50.47365],[2.62758,50.47495],[2.62813,50.47544]]]}},{"type":"Feature","properties":{"k":"BTN","s":2.656},"geometry":{"type":"Polygon","coordinates":[[[2.62416,50.47536],[2.62453,50.47577],[2.62594,50.47509],[2.62696,50.47602],[2.62812,50.47544],[2.62663,50.47404],[2.62416,50.47536]]]}}]}