{"type":"FeatureCollection","features":[{"type":"Feature","properties":{"k":"PPH","s":5.773},"geometry":{"type":"Polygon","coordinates":[[[2.21139,50.81809],[2.21158,50.81817],[2.21096,50.81937],[2.21151,50.8182],[2.21118,50.81812],[2.21046,50.81933],[2.21108,50.8181],[2.2107,50.81799],[2.21004,50.81916],[2.21063,50.81797],[2.20996,50.81762],[2.20931,50.81859],[2.20991,50.8176],[2.20976,50.81752],[2.20727,50.81655],[2.20654,50.81752],[2.20686,50.81762],[2.20749,50.8168],[2.20688,50.81765],[2.20722,50.8178],[2.20787,50.81697],[2.20726,50.81782],[2.20768,50.81799],[2.20835,50.81709],[2.20773,50.81805],[2.20811,50.81806],[2.20867,50.81729],[2.20815,50.81807],[2.20854,50.81814],[2.20909,50.81742],[2.20858,50.81818],[2.20895,50.81832],[2.20941,50.8177],[2.20899,50.81832],[2.20903,50.81868],[2.2098,50.81927],[2.21143,50.81964],[2.21206,50.81872],[2.21181,50.81858],[2.21222,50.81819],[2.21199,50.81765],[2.21217,50.81711],[2.21278,50.81662],[2.2127,50.8162],[2.21246,50.81616],[2.21139,50.81809]]]}},{"type":"Feature","properties":{"k":"BTN","s":1.964},"geometry":{"type":"Polygon","coordinates":[[[2.15266,50.79138],[2.15355,50.7918],[2.15579,50.79002],[2.15485,50.78964],[2.15266,50.79138]]]}},{"type":"Feature","properties":{"k":"BOR","s":0.104},"geometry":{"type":"Polygon","coordinates":[[[2.15286,50.79052],[2.15246,50.79028],[2.15164,50.79088],[2.15244,50.79032],[2.1528,50.79051],[2.15217,50.79108],[2.15286,50.79052]]]}},{"type":"Feature","properties":{"k":"BTH","s":1.733},"geometry":{"type":"Polygon","coordinates":[[[2.15081,50.79043],[2.15164,50.79088],[2.15248,50.79029],[2.15286,50.79052],[2.15213,50.79112],[2.15265,50.79137],[2.15489,50.78963],[2.15081,50.79043]]]}},{"type":"Feature","properties":{"k":"BTH","s":1.34},"geometry":{"type":"Polygon","coordinates":[[[2.15361,50.78968],[2.15542,50.78807],[2.1548,50.7878],[2.15245,50.78991],[2.15361,50.78968]]]}},{"type":"Feature","properties":{"k":"LIF","s":1.654},"geometry":{"type":"Polygon","coordinates":[[[2.15544,50.78806],[2.15358,50.7897],[2.1563,50.78917],[2.15611,50.78911],[2.1568,50.78851],[2.15661,50.7886],[2.15544,50.78806]]]}},{"type":"Feature","properties":{"k":"LIF","s":4.515},"geometry":{"type":"Polygon","coordinates":[[[2.15479,50.7878],[2.15428,50.78759],[2.15467,50.78724],[2.15362,50.78682],[2.15075,50.78899],[2.15243,50.78993],[2.15479,50.7878]]]}},{"type":"Feature","properties":{"k":"LIF","s":0.256},"geometry":{"type":"Polygon","coordinates":[[[2.15493,50.78785],[2.15531,50.78749],[2.15467,50.78724],[2.15428,50.78759],[2.15493,50.78785]]]}},{"type":"Feature","properties":{"k":"BTH","s":0.0},"geometry":{"type":"Polygon","coordinates":[]}},{"type":"Feature","properties":{"k":"BTH","s":2.073},"geometry":{"type":"Polygon","coordinates":[[[2.14599,50.78616],[2.14802,50.78463],[2.14675,50.78421],[2.14496,50.78555],[2.14599,50.78616]]]}},{"type":"Feature","properties":{"k":"MIS","s":1.021},"geometry":{"type":"Polygon","coordinates":[[[2.14761,50.78557],[2.14858,50.7848],[2.14802,50.78463],[2.14599,50.78616],[2.14644,50.78644],[2.14761,50.78557]]]}},{"type":"Feature","properties":{"k":"BTH","s":1.513},"geometry":{"type":"Polygon","coordinates":[[[2.14858,50.7848],[2.14644,50.78643],[2.14708,50.78681],[2.14932,50.78505],[2.14858,50.7848]]]}},{"type":"Feature","properties":{"k":"BTH","s":4.743},"geometry":{"type":"Polygon","coordinates":[[[2.14846,50.78765],[2.14603,50.78947],[2.14634,50.78956],[2.15121,50.78586],[2.14939,50.78508],[2.14708,50.78681],[2.14846,50.78765]]]}},{"type":"Feature","properties":{"k":"PHF","s":3.444},"geometry":{"type":"Polygon","coordinates":[[[2.15266,50.78639],[2.15121,50.78586],[2.14869,50.78778],[2.1499,50.7885],[2.15266,50.78639]]]}},{"type":"Feature","properties":{"k":"LIF","s":2.477},"geometry":{"type":"Polygon","coordinates":[[[2.14994,50.7885],[2.15075,50.78899],[2.15362,50.78682],[2.15268,50.7864],[2.14994,50.7885]]]}},{"type":"Feature","properties":{"k":"BTN","s":3.365},"geometry":{"type":"Polygon","coordinates":[[[2.14975,50.79044],[2.15231,50.78993],[2.14988,50.78849],[2.14793,50.78994],[2.14975,50.79044]]]}},{"type":"Feature","properties":{"k":"BTH","s":4.436},"geometry":{"type":"Polygon","coordinates":[[[2.14454,50.79146],[2.14953,50.7905],[2.14689,50.78977],[2.14284,50.79058],[2.14454,50.79146]]]}},{"type":"Feature","properties":{"k":"BTH","s":5.586},"geometry":{"type":"Polygon","coordinates":[[[2.14297,50.78797],[2.14115,50.78944],[2.14282,50.79056],[2.14681,50.78974],[2.14297,50.78797]]]}},{"type":"Feature","properties":{"k":"LIF","s":12.551},"geometry":{"type":"Polygon","coordinates":[[[2.14186,50.78731],[2.14213,50.78748],[2.14603,50.78947],[2.14846,50.78764],[2.14358,50.78474],[2.14192,50.78627],[2.14186,50.78731]]]}},{"type":"Feature","properties":{"k":"BTH","s":3.756},"geometry":{"type":"Polygon","coordinates":[[[2.13976,50.78704],[2.14186,50.78884],[2.14294,50.78796],[2.1389,50.78574],[2.13844,50.78567],[2.13728,50.78492],[2.13695,50.7854],[2.13976,50.78704]],[[2.14009,50.78695],[2.13869,50.78596],[2.13964,50.78648],[2.14009,50.78695]]]}},{"type":"Feature","properties":{"k":"BTP","s":2.56},"geometry":{"type":"Polygon","coordinates":[[[2.14115,50.78944],[2.14188,50.78885],[2.13989,50.78722],[2.13843,50.78825],[2.14115,50.78944]]]}},{"type":"Feature","properties":{"k":"BTN","s":1.986},"geometry":{"type":"Polygon","coordinates":[[[2.14292,50.7907],[2.14075,50.78928],[2.14011,50.78965],[2.14346,50.79168],[2.14446,50.79148],[2.14292,50.7907]]]}},{"type":"Feature","properties":{"k":"CZH","s":0.767},"geometry":{"type":"Polygon","coordinates":[[[2.13903,50.79023],[2.13774,50.78958],[2.13713,50.79006],[2.13827,50.79064],[2.13903,50.79023]]]}},{"type":"Feature","properties":{"k":"BTH","s":4.933},"geometry":{"type":"Polygon","coordinates":[[[2.13557,50.79135],[2.13774,50.78958],[2.13903,50.79023],[2.14066,50.78923],[2.13919,50.78854],[2.13805,50.78822],[2.13475,50.79094],[2.13557,50.79135]]]}},{"type":"Feature","properties":{"k":"PTC","s":5.985},"geometry":{"type":"Polygon","coordinates":[[[2.13264,50.78984],[2.13429,50.7907],[2.13753,50.78808],[2.13518,50.7873],[2.13264,50.78984]]]}},{"type":"Feature","properties":{"k":"ORH","s":1.389},"geometry":{"type":"Polygon","coordinates":[[[2.13475,50.79094],[2.138,50.78821],[2.13752,50.78808],[2.13432,50.79072],[2.13475,50.79094]]]}},{"type":"Feature","properties":{"k":"MIS","s":4.646},"geometry":{"type":"Polygon","coordinates":[[[2.13337,50.78898],[2.13509,50.78727],[2.13296,50.786],[2.13116,50.7874],[2.13337,50.78898]]]}},{"type":"Feature","properties":{"k":"BTN","s":5.369},"geometry":{"type":"Polygon","coordinates":[[[2.13843,50.78825],[2.13985,50.7872],[2.1393,50.78671],[2.13695,50.7854],[2.13523,50.78723],[2.13843,50.78825]]]}},{"type":"Feature","properties":{"k":"BTN","s":7.024},"geometry":{"type":"Polygon","coordinates":[[[2.13514,50.78717],[2.13728,50.78473],[2.13524,50.78353],[2.13248,50.78568],[2.13514,50.78717]]]}},{"type":"Feature","properties":{"k":"MIS","s":6.583},"geometry":{"type":"Polygon","coordinates":[[[2.14496,50.78555],[2.14672,50.7842],[2.14233,50.78218],[2.14116,50.78322],[2.14496,50.78555]]]}},{"type":"Feature","properties":{"k":"BTH","s":0.003},"geometry":{"type":"MultiPolygon","coordinates":[]}},{"type":"Feature","properties":{"k":"MIS","s":0.007},"geometry":{"type":"Polygon","coordinates":[[[2.14232,50.78212],[2.14286,50.78234],[2.14184,50.7819],[2.14232,50.78212]]]}},{"type":"Feature","properties":{"k":"MIS","s":2.0},"geometry":{"type":"Polygon","coordinates":[[[2.14061,50.78132],[2.13962,50.78223],[2.14117,50.7832],[2.14233,50.78218],[2.14061,50.78132]]]}},{"type":"Feature","properties":{"k":"AVP","s":0.317},"geometry":{"type":"Polygon","coordinates":[[[2.1349,50.7793],[2.13383,50.78009],[2.13406,50.78024],[2.13556,50.7791],[2.1349,50.7793]]]}},{"type":"Feature","properties":{"k":"MIS","s":0.241},"geometry":{"type":"Polygon","coordinates":[[[2.13317,50.77975],[2.13371,50.78005],[2.13454,50.7794],[2.13317,50.77975]]]}},{"type":"Feature","properties":{"k":"BTP","s":0.696},"geometry":{"type":"Polygon","coordinates":[[[2.13315,50.77974],[2.13206,50.77974],[2.13368,50.78059],[2.13486,50.78065],[2.13315,50.77974]]]}},{"type":"Feature","properties":{"k":"LIF","s":2.282},"geometry":{"type":"Polygon","coordinates":[[[2.1358,50.77905],[2.13408,50.78024],[2.1348,50.78062],[2.13558,50.78062],[2.13611,50.78035],[2.13639,50.7805],[2.1373,50.77985],[2.1358,50.77905]]]}},{"type":"Feature","properties":{"k":"CZH","s":0.015},"geometry":{"type":"MultiPolygon","coordinates":[[[[2.14024,50.78152],[2.14029,50.78155],[2.14058,50.78131],[2.14024,50.78152]]],[[[2.13852,50.78051],[2.13817,50.78031],[2.13851,50.78051],[2.13852,50.78051]]]]}},{"type":"Feature","properties":{"k":"PTC","s":1.187},"geometry":{"type":"MultiPolygon","coordinates":[[[[2.13767,50.7812],[2.13851,50.78052],[2.13734,50.77983],[2.13639,50.7805],[2.13767,50.7812]]],[[[2.14031,50.78157],[2.14024,50.78153],[2.13961,50.78223],[2.14031,50.78157]]]]}},{"type":"Feature","properties":{"k":"MIS","s":4.201},"geometry":{"type":"Polygon","coordinates":[[[2.12971,50.78407],[2.13269,50.78174],[2.13176,50.78078],[2.12843,50.78339],[2.12971,50.78407]]]}},{"type":"Feature","properties":{"k":"CZH","s":3.437},"geometry":{"type":"Polygon","coordinates":[[[2.12843,50.78339],[2.12932,50.78269],[2.12574,50.78088],[2.12455,50.78137],[2.12843,50.78339]]]}},{"type":"Feature","properties":{"k":"BTH","s":6.849},"geometry":{"type":"Polygon","coordinates":[[[2.12933,50.7827],[2.13177,50.78077],[2.13055,50.7799],[2.12921,50.7802],[2.12759,50.78031],[2.12574,50.78088],[2.12933,50.7827]]]}},{"type":"Feature","properties":{"k":"BTH","s":1.006},"geometry":{"type":"Polygon","coordinates":[[[2.1307,50.77991],[2.13204,50.78083],[2.13293,50.7802],[2.13215,50.77977],[2.1307,50.77991]]]}},{"type":"Feature","properties":{"k":"BTH","s":0.002},"geometry":{"type":"MultiPolygon","coordinates":[]}},{"type":"Feature","properties":{"k":"BTH","s":4.058},"geometry":{"type":"Polygon","coordinates":[[[2.12127,50.7795],[2.12029,50.78047],[2.12291,50.78205],[2.1248,50.78122],[2.12127,50.7795]]]}},{"type":"Feature","properties":{"k":"FVL","s":0.01},"geometry":{"type":"Polygon","coordinates":[[[2.1248,50.78122],[2.12481,50.78121],[2.12336,50.78051],[2.1248,50.78122]]]}},{"type":"Feature","properties":{"k":"ORP","s":3.059},"geometry":{"type":"Polygon","coordinates":[[[2.12515,50.7825],[2.12366,50.78176],[2.12259,50.78228],[2.1256,50.78382],[2.12691,50.78281],[2.12571,50.7822],[2.12515,50.7825]]]}},{"type":"Feature","properties":{"k":"PTR","s":0.709},"geometry":{"type":"Polygon","coordinates":[[[2.12515,50.7825],[2.12574,50.7822],[2.12435,50.78146],[2.12366,50.78176],[2.12515,50.7825]]]}},{"type":"Feature","properties":{"k":"BTH","s":5.352},"geometry":{"type":"Polygon","coordinates":[[[2.11803,50.78125],[2.12098,50.78321],[2.12291,50.78205],[2.11982,50.78024],[2.11803,50.78125]]]}},{"type":"Feature","properties":{"k":"BTH","s":5.137},"geometry":{"type":"Polygon","coordinates":[[[2.12289,50.78468],[2.12323,50.78449],[2.12405,50.78499],[2.12562,50.78383],[2.12257,50.78227],[2.12073,50.78343],[2.12289,50.78468]]]}},{"type":"Feature","properties":{"k":"BTH","s":0.002},"geometry":{"type":"Polygon","coordinates":[[[2.12274,50.78461],[2.12256,50.7845],[2.12221,50.78431],[2.12274,50.78461]]]}},{"type":"Feature","properties":{"k":"BTH","s":0.015},"geometry":{"type":"MultiPolygon","coordinates":[[[[2.12509,50.7856],[2.12433,50.78516],[2.12516,50.78568],[2.12509,50.7856]]],[[[2.12289,50.78468],[2.12323,50.78451],[2.12344,50.78463],[2.12323,50.78449],[2.12289,50.78468]]],[[[2.12288,50.78468],[2.12288,50.78469],[2.12289,50.78468],[2.12288,50.78468]]]]}},{"type":"Feature","properties":{"k":"BTH","s":0.0},"geometry":{"type":"Polygon","coordinates":[[[2.12583,50.7861],[2.12584,50.78609],[2.12579,50.78607],[2.12583,50.7861]]]}},{"type":"Feature","properties":{"k":"ORH","s":0.009},"geometry":{"type":"Polygon","coordinates":[]}},{"type":"Feature","properties":{"k":"BTH","s":3.323},"geometry":{"type":"Polygon","coordinates":[[[2.12407,50.785],[2.12509,50.7856],[2.12816,50.7833],[2.12702,50.78273],[2.12407,50.785]]]}},{"type":"Feature","properties":{"k":"ORH","s":8.536},"geometry":{"type":"Polygon","coordinates":[[[2.13524,50.78353],[2.13269,50.78174],[2.12971,50.78407],[2.13256,50.78562],[2.13524,50.78353]]]}},{"type":"Feature","properties":{"k":"ORP","s":1.374},"geometry":{"type":"Polygon","coordinates":[[[2.13121,50.78739],[2.13296,50.786],[2.13222,50.78558],[2.13053,50.7869],[2.13121,50.78739]]]}},{"type":"Feature","properties":{"k":"MIS","s":0.932},"geometry":{"type":"Polygon","coordinates":[[[2.1305,50.7869],[2.13222,50.78558],[2.13164,50.7853],[2.13007,50.78661],[2.1305,50.7869]]]}},{"type":"Feature","properties":{"k":"PTC","s":3.537},"geometry":{"type":"Polygon","coordinates":[[[2.13051,50.7869],[2.13007,50.78659],[2.13167,50.78527],[2.13096,50.78483],[2.12775,50.78749],[2.12903,50.78831],[2.13051,50.7869]]]}},{"type":"Feature","properties":{"k":"MIS","s":1.245},"geometry":{"type":"Polygon","coordinates":[[[2.1302,50.78441],[2.12868,50.78562],[2.1295,50.78604],[2.13096,50.78483],[2.1302,50.78441]]]}},{"type":"Feature","properties":{"k":"BTH","s":7.955},"geometry":{"type":"Polygon","coordinates":[[[2.12868,50.78562],[2.13019,50.78441],[2.12816,50.7833],[2.12514,50.78563],[2.1279,50.78737],[2.1295,50.78604],[2.12868,50.78562]]]}},{"type":"Feature","properties":{"k":"CZH","s":5.301},"geometry":{"type":"Polygon","coordinates":[[[2.13337,50.78898],[2.1305,50.78691],[2.12903,50.78831],[2.13219,50.7902],[2.13337,50.78898]]]}},{"type":"Feature","properties":{"k":"MIS","s":0.0},"geometry":{"type":"Polygon","coordinates":[]}},{"type":"Feature","properties":{"k":"CZH","s":1.432},"geometry":{"type":"Polygon","coordinates":[[[2.14631,50.79513],[2.1446,50.79427],[2.14376,50.79492],[2.14549,50.79578],[2.14631,50.79513]]]}},{"type":"Feature","properties":{"k":"BTN","s":0.658},"geometry":{"type":"Polygon","coordinates":[[[2.13847,50.79287],[2.1389,50.79271],[2.13679,50.79162],[2.13649,50.79183],[2.13311,50.79011],[2.13847,50.79287]]]}},{"type":"Feature","properties":{"k":"BTN","s":7.29},"geometry":{"type":"Polygon","coordinates":[[[2.14236,50.79187],[2.13928,50.79014],[2.13834,50.79068],[2.13713,50.79006],[2.13557,50.79136],[2.1365,50.79182],[2.13681,50.79162],[2.13892,50.7927],[2.14236,50.79187]]]}},{"type":"Feature","properties":{"k":"BTH","s":2.244},"geometry":{"type":"Polygon","coordinates":[[[2.14009,50.78965],[2.13928,50.79014],[2.14237,50.79187],[2.14346,50.79168],[2.14009,50.78965]]]}},{"type":"Feature","properties":{"k":"MIS","s":0.001},"geometry":{"type":"MultiPolygon","coordinates":[[[[2.13953,50.79279],[2.13942,50.79272],[2.1394,50.79272],[2.13953,50.79279]]]]}},{"type":"Feature","properties":{"k":"BTH","s":0.007},"geometry":{"type":"Polygon","coordinates":[]}},{"type":"Feature","properties":{"k":"BTH","s":4.357},"geometry":{"type":"Polygon","coordinates":[[[2.14127,50.79226],[2.13942,50.79272],[2.14376,50.79492],[2.14481,50.7941],[2.14127,50.79226]]]}},{"type":"Feature","properties":{"k":"BTH","s":3.127},"geometry":{"type":"Polygon","coordinates":[[[2.14318,50.79188],[2.14128,50.79225],[2.14481,50.7941],[2.14575,50.79337],[2.14318,50.79188]]]}},{"type":"Feature","properties":{"k":"BTH","s":0.001},"geometry":{"type":"Polygon","coordinates":[]}},{"type":"Feature","properties":{"k":"BTH","s":1.961},"geometry":{"type":"Polygon","coordinates":[[[2.1445,50.79165],[2.14329,50.7919],[2.14601,50.79351],[2.14678,50.79291],[2.1445,50.79165]]]}},{"type":"Feature","properties":{"k":"CZH","s":0.771},"geometry":{"type":"Polygon","coordinates":[[[2.14551,50.79146],[2.14479,50.79161],[2.14662,50.79267],[2.14709,50.79236],[2.14551,50.79146]]]}},{"type":"Feature","properties":{"k":"CZH","s":0.807},"geometry":{"type":"Polygon","coordinates":[[[2.14651,50.79126],[2.14551,50.79146],[2.14709,50.79236],[2.14763,50.79195],[2.14651,50.79126]]]}},{"type":"Feature","properties":{"k":"BTN","s":1.941},"geometry":{"type":"Polygon","coordinates":[[[2.15176,50.79104],[2.14911,50.79297],[2.14985,50.79336],[2.15253,50.79138],[2.15176,50.79104]]]}},{"type":"Feature","properties":{"k":"BTN","s":5.57},"geometry":{"type":"Polygon","coordinates":[[[2.15158,50.79117],[2.15048,50.7907],[2.1497,50.79066],[2.14802,50.79098],[2.14853,50.79129],[2.14662,50.79268],[2.14813,50.7937],[2.15158,50.79117]]]}},{"type":"Feature","properties":{"k":"BTH","s":3.706},"geometry":{"type":"Polygon","coordinates":[[[2.1512,50.79411],[2.15396,50.79213],[2.15254,50.7914],[2.14992,50.79339],[2.1512,50.79411]]]}},{"type":"Feature","properties":{"k":"PPR","s":2.998},"geometry":{"type":"Polygon","coordinates":[[[2.1446,50.79427],[2.14631,50.79513],[2.14806,50.79374],[2.1468,50.79292],[2.14601,50.79351],[2.14575,50.79337],[2.1446,50.79427]]]}},{"type":"Feature","properties":{"k":"BTH","s":1.775},"geometry":{"type":"Polygon","coordinates":[[[2.14553,50.7958],[2.14619,50.79616],[2.14871,50.79415],[2.14811,50.79374],[2.14553,50.7958]]]}},{"type":"Feature","properties":{"k":"MIS","s":0.727},"geometry":{"type":"Polygon","coordinates":[[[2.14686,50.79631],[2.14636,50.79602],[2.14619,50.79616],[2.1469,50.79655],[2.14936,50.7946],[2.14871,50.79415],[2.14852,50.79429],[2.14899,50.79463],[2.14686,50.79631]]]}},{"type":"Feature","properties":{"k":"BTN","s":1.181},"geometry":{"type":"Polygon","coordinates":[[[2.14636,50.79602],[2.14686,50.79631],[2.14899,50.79463],[2.14852,50.79429],[2.14636,50.79602]]]}},{"type":"Feature","properties":{"k":"LIF","s":3.067},"geometry":{"type":"Polygon","coordinates":[[[2.14812,50.79722],[2.15042,50.79541],[2.14936,50.7946],[2.1469,50.79655],[2.14812,50.79722]]]}},{"type":"Feature","properties":{"k":"BTH","s":0.003},"geometry":{"type":"Polygon","coordinates":[]}},{"type":"Feature","properties":{"k":"BTN","s":1.9},"geometry":{"type":"Polygon","coordinates":[[[2.15036,50.7982],[2.15027,50.79829],[2.15125,50.79872],[2.15226,50.7989],[2.15338,50.79765],[2.15257,50.79706],[2.15084,50.79844],[2.15036,50.7982]]]}},{"type":"Feature","properties":{"k":"FLA","s":3.899},"geometry":{"type":"Polygon","coordinates":[[[2.15084,50.79844],[2.15257,50.79706],[2.15091,50.7958],[2.14892,50.79746],[2.15025,50.79828],[2.15036,50.7982],[2.15084,50.79844]]]}},{"type":"Feature","properties":{"k":"BTN","s":9.818},"geometry":{"type":"Polygon","coordinates":[[[2.15238,50.79682],[2.15258,50.79667],[2.1534,50.79696],[2.15299,50.79728],[2.15341,50.79757],[2.15503,50.79802],[2.15593,50.79666],[2.14911,50.79297],[2.14814,50.7937],[2.15238,50.79682]],[[2.14992,50.79426],[2.15014,50.79467],[2.14961,50.79409],[2.14874,50.79354],[2.14992,50.79426]]]}},{"type":"Feature","properties":{"k":"BTH","s":12.598},"geometry":{"type":"Polygon","coordinates":[[[2.15591,50.79665],[2.15614,50.79572],[2.15847,50.79417],[2.15656,50.79306],[2.15498,50.79237],[2.154,50.79212],[2.15121,50.7941],[2.15591,50.79665]]]}},{"type":"Feature","properties":{"k":"BTN","s":4.184},"geometry":{"type":"Polygon","coordinates":[[[2.1585,50.78969],[2.15822,50.78953],[2.15746,50.78983],[2.15664,50.78936],[2.15357,50.7918],[2.15502,50.79228],[2.1585,50.78969]]]}},{"type":"Feature","properties":{"k":"BTH","s":6.266},"geometry":{"type":"Polygon","coordinates":[[[2.15727,50.79332],[2.15878,50.7928],[2.1603,50.792],[2.1589,50.7914],[2.15922,50.79112],[2.15755,50.79037],[2.15503,50.79228],[2.15727,50.79332]]]}},{"type":"Feature","properties":{"k":"BTH","s":3.267},"geometry":{"type":"Polygon","coordinates":[[[2.15844,50.79404],[2.15873,50.79405],[2.16192,50.79267],[2.1606,50.79187],[2.15884,50.79279],[2.15728,50.79333],[2.15844,50.79404]]]}},{"type":"Feature","properties":{"k":"BTH","s":1.124},"geometry":{"type":"Polygon","coordinates":[[[2.15964,50.79374],[2.15787,50.79462],[2.15935,50.79492],[2.16041,50.79383],[2.15964,50.79374]]]}},{"type":"Feature","properties":{"k":"PPH","s":1.144},"geometry":{"type":"Polygon","coordinates":[[[2.16543,50.79529],[2.16569,50.79413],[2.16529,50.79414],[2.16501,50.7946],[2.16359,50.79411],[2.16332,50.79459],[2.16543,50.79529]]]}},{"type":"Feature","properties":{"k":"JAC","s":0.014},"geometry":{"type":"Polygon","coordinates":[[[2.16427,50.79267],[2.16426,50.79259],[2.16406,50.79286],[2.16427,50.79267]]]}},{"type":"Feature","properties":{"k":"BTH","s":1.026},"geometry":{"type":"Polygon","coordinates":[[[2.16426,50.79259],[2.16618,50.79319],[2.16634,50.79254],[2.16468,50.79197],[2.16426,50.79259]]]}},{"type":"Feature","properties":{"k":"LUZ","s":1.559},"geometry":{"type":"Polygon","coordinates":[[[2.16874,50.79361],[2.16747,50.79369],[2.16726,50.7954],[2.16843,50.79539],[2.1684,50.79422],[2.16874,50.79361]]]}},{"type":"Feature","properties":{"k":"PPH","s":1.746},"geometry":{"type":"Polygon","coordinates":[[[2.16612,50.79387],[2.16588,50.79542],[2.16653,50.7955],[2.16726,50.7954],[2.16747,50.79369],[2.16612,50.79387]]]}},{"type":"Feature","properties":{"k":"BTH","s":4.155},"geometry":{"type":"Polygon","coordinates":[[[2.1711,50.79946],[2.17176,50.79873],[2.17083,50.79844],[2.1726,50.79663],[2.1717,50.79639],[2.16995,50.79819],[2.16916,50.79794],[2.16831,50.79934],[2.1711,50.79946]]]}},{"type":"Feature","properties":{"k":"MIS","s":1.075},"geometry":{"type":"Polygon","coordinates":[[[2.16644,50.79741],[2.16556,50.79718],[2.16478,50.7985],[2.16563,50.79869],[2.16644,50.79741]]]}},{"type":"Feature","properties":{"k":"PPH","s":2.812},"geometry":{"type":"Polygon","coordinates":[[[2.16142,50.79823],[2.1623,50.79825],[2.16386,50.7986],[2.16395,50.79838],[2.16364,50.79833],[2.16377,50.79801],[2.16454,50.79731],[2.16403,50.79724],[2.16411,50.79708],[2.16183,50.79673],[2.16142,50.79823]]]}},{"type":"Feature","properties":{"k":"PPH","s":4.164},"geometry":{"type":"Polygon","coordinates":[[[2.16163,50.79418],[2.1606,50.7952],[2.16117,50.79543],[2.16062,50.7962],[2.1628,50.79655],[2.16302,50.79625],[2.16414,50.7964],[2.16446,50.79593],[2.16352,50.79577],[2.16347,50.79562],[2.16293,50.79546],[2.1632,50.7951],[2.16367,50.79524],[2.16394,50.79489],[2.16163,50.79418]]]}},{"type":"Feature","properties":{"k":"BTH","s":2.532},"geometry":{"type":"Polygon","coordinates":[[[2.16496,50.79523],[2.16414,50.7964],[2.16302,50.79625],[2.1628,50.79655],[2.16062,50.7962],[2.16037,50.7965],[2.16471,50.79716],[2.16572,50.79547],[2.16496,50.79523]]]}},{"type":"Feature","properties":{"k":"JAC","s":0.189},"geometry":{"type":"Polygon","coordinates":[[[2.16028,50.79511],[2.16029,50.79489],[2.15961,50.79462],[2.15935,50.79492],[2.16028,50.79511]]]}},{"type":"Feature","properties":{"k":"LIF","s":2.763},"geometry":{"type":"Polygon","coordinates":[[[2.15678,50.79535],[2.16063,50.79619],[2.16114,50.79544],[2.16028,50.79511],[2.15789,50.79462],[2.15678,50.79535]]]}},{"type":"Feature","properties":{"k":"PTC","s":10.829},"geometry":{"type":"Polygon","coordinates":[[[2.15912,50.79849],[2.16,50.79904],[2.16107,50.79927],[2.16157,50.79748],[2.1599,50.79718],[2.16063,50.79619],[2.15678,50.79535],[2.15628,50.79581],[2.15598,50.79683],[2.15519,50.79802],[2.15912,50.79849]]]}},{"type":"Feature","properties":{"k":"BTH","s":0.965},"geometry":{"type":"Polygon","coordinates":[[[2.16183,50.79673],[2.16037,50.7965],[2.1599,50.79718],[2.16162,50.79747],[2.16183,50.79673]]]}},{"type":"Feature","properties":{"k":"MIS","s":0.012},"geometry":{"type":"Polygon","coordinates":[[[2.15937,50.80029],[2.15882,50.80017],[2.16009,50.80049],[2.15937,50.80029]]]}},{"type":"Feature","properties":{"k":"PPH","s":5.249},"geometry":{"type":"Polygon","coordinates":[[[2.16688,50.80044],[2.16478,50.8003],[2.16376,50.79983],[2.16198,50.79942],[2.16103,50.8007],[2.16635,50.80172],[2.16688,50.80044]]]}},{"type":"Feature","properties":{"k":"PPH","s":2.047},"geometry":{"type":"Polygon","coordinates":[[[2.16321,50.79963],[2.16383,50.7986],[2.1623,50.79827],[2.16138,50.79823],[2.16107,50.79927],[2.16321,50.79963]]]}},{"type":"Feature","properties":{"k":"BTN","s":3.315},"geometry":{"type":"Polygon","coordinates":[[[2.16892,50.79826],[2.16779,50.79793],[2.16718,50.79876],[2.16563,50.79869],[2.1648,50.79851],[2.16484,50.79889],[2.16427,50.79974],[2.16561,50.79979],[2.167,50.7994],[2.16817,50.79934],[2.16892,50.79826]]]}},{"type":"Feature","properties":{"k":"PPH","s":1.056},"geometry":{"type":"Polygon","coordinates":[[[2.16651,50.80167],[2.16736,50.80194],[2.16789,50.80096],[2.16753,50.80088],[2.1677,50.80058],[2.16696,50.80044],[2.16651,50.80167]]]}},{"type":"Feature","properties":{"k":"PPH","s":1.328},"geometry":{"type":"Polygon","coordinates":[[[2.17045,50.80235],[2.17073,50.802],[2.1704,50.80188],[2.17023,50.8021],[2.16938,50.80188],[2.16897,50.8025],[2.16952,50.80269],[2.16982,50.80232],[2.17002,50.80239],[2.16989,50.80253],[2.17025,50.80265],[2.17005,50.8029],[2.17088,50.80344],[2.17156,50.80277],[2.17045,50.80235]]]}},{"type":"Feature","properties":{"k":"PPH","s":2.792},"geometry":{"type":"Polygon","coordinates":[[[2.15678,50.79832],[2.15671,50.79859],[2.15596,50.79852],[2.15551,50.79837],[2.15555,50.79815],[2.15519,50.79812],[2.15478,50.79916],[2.15559,50.79928],[2.15578,50.79887],[2.15694,50.79907],[2.15726,50.79894],[2.15981,50.79958],[2.16002,50.79913],[2.15937,50.79873],[2.1579,50.79829],[2.15739,50.79825],[2.15735,50.79836],[2.15678,50.79832]]]}},{"type":"Feature","properties":{"k":"BTH","s":0.611},"geometry":{"type":"Polygon","coordinates":[[[2.15498,50.7981],[2.15438,50.79793],[2.15382,50.79901],[2.15451,50.79916],[2.15498,50.7981]]]}},{"type":"Feature","properties":{"k":"JAC","s":1.015},"geometry":{"type":"Polygon","coordinates":[[[2.20623,50.81245],[2.20991,50.81322],[2.20995,50.81304],[2.20637,50.81232],[2.20995,50.81303],[2.20999,50.81284],[2.2064,50.81212],[2.20623,50.81245]]]}},{"type":"Feature","properties":{"k":"MIS","s":1.033},"geometry":{"type":"Polygon","coordinates":[[[2.20622,50.81284],[2.20979,50.8136],[2.20987,50.81324],[2.20636,50.81253],[2.20622,50.81284]]]}},{"type":"Feature","properties":{"k":"BTA","s":0.039},"geometry":{"type":"Polygon","coordinates":[[[2.20608,50.81282],[2.20622,50.81284],[2.20637,50.81251],[2.20608,50.81282]]]}},{"type":"Feature","properties":{"k":"MIS","s":0.318},"geometry":{"type":"Polygon","coordinates":[[[2.20526,50.81444],[2.20536,50.81429],[2.20369,50.81382],[2.20358,50.81403],[2.20526,50.81444]]]}},{"type":"Feature","properties":{"k":"MIS","s":1.711},"geometry":{"type":"Polygon","coordinates":[[[2.20501,50.81374],[2.20512,50.81344],[2.20337,50.81309],[2.20514,50.81339],[2.20525,50.81314],[2.20527,50.81314],[2.20538,50.81285],[2.20359,50.81248],[2.2029,50.81359],[2.20486,50.81406],[2.20498,50.81374],[2.20317,50.81336],[2.20501,50.81374]]]}},{"type":"Feature","properties":{"k":"PTR","s":2.268},"geometry":{"type":"Polygon","coordinates":[[[2.20308,50.81171],[2.20195,50.81339],[2.20288,50.81358],[2.20358,50.81243],[2.20541,50.81282],[2.20568,50.8122],[2.20308,50.81171]]]}},{"type":"Feature","properties":{"k":"PPH","s":0.959},"geometry":{"type":"Polygon","coordinates":[[[2.20365,50.80962],[2.20301,50.80952],[2.20236,50.81157],[2.20298,50.81165],[2.20365,50.80962]]]}},{"type":"Feature","properties":{"k":"PPH","s":2.038},"geometry":{"type":"Polygon","coordinates":[[[2.20413,50.81035],[2.20371,50.81183],[2.20569,50.81221],[2.20619,50.81108],[2.20578,50.811],[2.20589,50.81075],[2.20413,50.81035]],[[2.20437,50.81094],[2.20504,50.81081],[2.20477,50.81155],[2.20418,50.8114],[2.20437,50.81094]]]}},{"type":"Feature","properties":{"k":"PTR","s":1.552},"geometry":{"type":"Polygon","coordinates":[[[2.20489,50.81406],[2.20535,50.81418],[2.20704,50.81032],[2.20655,50.81026],[2.20489,50.81406]]]}},{"type":"Feature","properties":{"k":"PPH","s":1.726},"geometry":{"type":"Polygon","coordinates":[[[2.21034,50.81212],[2.20669,50.81152],[2.20992,50.81223],[2.20671,50.81162],[2.20667,50.81175],[2.20998,50.81245],[2.2066,50.8118],[2.20654,50.81191],[2.20962,50.81254],[2.20654,50.81196],[2.20644,50.81209],[2.20998,50.81281],[2.21034,50.81212]]]}},{"type":"Feature","properties":{"k":"PPH","s":1.581},"geometry":{"type":"Polygon","coordinates":[[[2.21058,50.8111],[2.20746,50.81077],[2.20996,50.811],[2.21,50.81071],[2.20715,50.81038],[2.20708,50.81064],[2.20744,50.81075],[2.20702,50.81073],[2.20701,50.811],[2.21038,50.8114],[2.21058,50.8111]]]}},{"type":"Feature","properties":{"k":"PPH","s":0.247},"geometry":{"type":"Polygon","coordinates":[[[2.20026,50.8094],[2.20006,50.80936],[2.19958,50.81055],[2.19981,50.81071],[2.20026,50.8094]]]}},{"type":"Feature","properties":{"k":"MIS","s":0.706},"geometry":{"type":"Polygon","coordinates":[[[2.19544,50.80932],[2.19609,50.8093],[2.19746,50.80796],[2.19715,50.80784],[2.19684,50.80801],[2.19544,50.80932]]]}},{"type":"Feature","properties":{"k":"MIS","s":0.652},"geometry":{"type":"Polygon","coordinates":[[[2.19951,50.81063],[2.19999,50.80942],[2.19973,50.80911],[2.19896,50.81038],[2.19912,50.81046],[2.19892,50.8108],[2.19914,50.81087],[2.19931,50.81061],[2.19951,50.81063]]]}},{"type":"Feature","properties":{"k":"MIS","s":0.455},"geometry":{"type":"Polygon","coordinates":[[[2.20177,50.81151],[2.20067,50.81309],[2.201,50.81316],[2.20208,50.81157],[2.20177,50.81151]]]}},{"type":"Feature","properties":{"k":"MIS","s":0.491},"geometry":{"type":"Polygon","coordinates":[[[2.2016,50.81172],[2.20137,50.81167],[2.2015,50.81147],[2.20025,50.813],[2.20059,50.81308],[2.2016,50.81172]]]}},{"type":"Feature","properties":{"k":"PPH","s":0.193},"geometry":{"type":"Polygon","coordinates":[[[2.20017,50.81299],[2.19983,50.81289],[2.19978,50.81308],[2.20124,50.81344],[2.20137,50.81337],[2.20133,50.81335],[2.20102,50.81321],[2.20017,50.81299]],[[2.19986,50.81302],[2.19986,50.813],[2.20133,50.81335],[2.19986,50.81302]]]}},{"type":"Feature","properties":{"k":"MLG","s":1.281},"geometry":{"type":"Polygon","coordinates":[[[2.20103,50.81317],[2.2019,50.81337],[2.203,50.8117],[2.20211,50.81156],[2.20103,50.81317]]]}},{"type":"Feature","properties":{"k":"BTH","s":0.31},"geometry":{"type":"Polygon","coordinates":[[[2.20182,50.81339],[2.20139,50.8133],[2.20206,50.8135],[2.20219,50.81371],[2.20358,50.81403],[2.20369,50.81382],[2.20182,50.81339]]]}},{"type":"Feature","properties":{"k":"BTH","s":1.456},"geometry":{"type":"Polygon","coordinates":[[[2.20195,50.81354],[2.20128,50.81339],[2.20039,50.81453],[2.20131,50.81465],[2.20185,50.81397],[2.20138,50.81462],[2.20213,50.81473],[2.20281,50.81389],[2.20212,50.81374],[2.20195,50.81354]]]}},{"type":"Feature","properties":{"k":"BTH","s":0.669},"geometry":{"type":"Polygon","coordinates":[[[2.19975,50.81457],[2.1998,50.81476],[2.20015,50.8148],[2.20117,50.81346],[2.20055,50.81343],[2.19975,50.81457]]]}},{"type":"Feature","properties":{"k":"PPH","s":1.554},"geometry":{"type":"Polygon","coordinates":[[[2.19995,50.81504],[2.19913,50.81634],[2.19932,50.81639],[2.20026,50.815],[2.19938,50.81645],[2.19954,50.81649],[2.20055,50.81499],[2.19964,50.81645],[2.19983,50.8165],[2.20077,50.81518],[2.20005,50.8165],[2.20098,50.81521],[2.2001,50.8165],[2.20029,50.81654],[2.20122,50.81534],[2.20055,50.8166],[2.20143,50.81516],[2.20059,50.81495],[2.1999,50.81486],[2.1991,50.81633],[2.19995,50.81504]]]}},{"type":"Feature","properties":{"k":"PPH","s":0.462},"geometry":{"type":"Polygon","coordinates":[[[2.18879,50.8043],[2.18839,50.80406],[2.18736,50.80517],[2.18775,50.80533],[2.18879,50.8043]]]}},{"type":"Feature","properties":{"k":"PPH","s":2.246},"geometry":{"type":"Polygon","coordinates":[[[2.1827,50.80579],[2.18294,50.80554],[2.18325,50.80566],[2.18435,50.80452],[2.18389,50.80431],[2.18352,50.80468],[2.18316,50.80453],[2.18301,50.80469],[2.18241,50.8045],[2.18264,50.80426],[2.18193,50.80408],[2.18141,50.80469],[2.1826,50.80506],[2.18222,50.80569],[2.18311,50.80596],[2.18407,50.80503],[2.18619,50.80586],[2.18639,50.80567],[2.18411,50.8049],[2.18441,50.80455],[2.18307,50.80592],[2.1827,50.80579]]]}},{"type":"Feature","properties":{"k":"PTC","s":2.088},"geometry":{"type":"Polygon","coordinates":[[[2.18363,50.80542],[2.1816,50.80748],[2.18254,50.80776],[2.18475,50.80532],[2.18408,50.80504],[2.18363,50.80542]]]}},{"type":"Feature","properties":{"k":"BTH","s":5.126},"geometry":{"type":"Polygon","coordinates":[[[2.18208,50.80564],[2.18257,50.80508],[2.18136,50.80472],[2.18081,50.80535],[2.18023,50.80519],[2.17879,50.80692],[2.18159,50.80749],[2.18312,50.80598],[2.18208,50.80564]]]}},{"type":"Feature","properties":{"k":"PPH","s":0.245},"geometry":{"type":"Polygon","coordinates":[[[2.18265,50.80425],[2.18318,50.80441],[2.18347,50.80397],[2.18309,50.80373],[2.18265,50.80425]]]}},{"type":"Feature","properties":{"k":"PPH","s":2.811},"geometry":{"type":"Polygon","coordinates":[[[2.17992,50.80127],[2.17882,50.80108],[2.17774,50.80261],[2.17742,50.80265],[2.17628,50.80405],[2.17709,50.80426],[2.17828,50.80289],[2.17875,50.80303],[2.17992,50.80127]]]}},{"type":"Feature","properties":{"k":"BTH","s":0.62},"geometry":{"type":"Polygon","coordinates":[[[2.17709,50.80426],[2.17746,50.80442],[2.17874,50.80304],[2.17829,50.8029],[2.17709,50.80426]]]}},{"type":"Feature","properties":{"k":"MIS","s":2.456},"geometry":{"type":"Polygon","coordinates":[[[2.17953,50.80452],[2.17913,50.80494],[2.17948,50.80502],[2.178,50.80678],[2.17879,50.80692],[2.18023,50.80519],[2.18081,50.80535],[2.1816,50.8044],[2.18047,50.80411],[2.18022,50.80456],[2.17953,50.80452]]]}},{"type":"Feature","properties":{"k":"FVP","s":0.861},"geometry":{"type":"Polygon","coordinates":[[[2.17765,50.80672],[2.178,50.80678],[2.17948,50.80502],[2.17878,50.80485],[2.17812,50.80556],[2.1785,50.80567],[2.17765,50.80672]]]}},{"type":"Feature","properties":{"k":"MIS","s":2.303},"geometry":{"type":"Polygon","coordinates":[[[2.17617,50.80494],[2.17538,50.80574],[2.176,50.80611],[2.17705,50.80655],[2.17766,50.80672],[2.1785,50.80567],[2.17617,50.80494]]]}},{"type":"Feature","properties":{"k":"PPH","s":1.374},"geometry":{"type":"Polygon","coordinates":[[[2.17783,50.80507],[2.1771,50.80493],[2.17745,50.80453],[2.17653,50.80418],[2.17509,50.80559],[2.17536,50.80573],[2.17617,50.80491],[2.17813,50.80557],[2.1786,50.80501],[2.17783,50.80507]]]}},{"type":"Feature","properties":{"k":"BTH","s":2.299},"geometry":{"type":"Polygon","coordinates":[[[2.17362,50.8047],[2.17509,50.80559],[2.17653,50.80418],[2.17524,50.8036],[2.17362,50.8047]]]}},{"type":"Feature","properties":{"k":"BTH","s":2.58},"geometry":{"type":"Polygon","coordinates":[[[2.17356,50.80458],[2.17426,50.80417],[2.17503,50.80352],[2.17413,50.80323],[2.1739,50.80344],[2.17238,50.80282],[2.17151,50.80371],[2.17325,50.80456],[2.17356,50.80458]]]}},{"type":"Feature","properties":{"k":"BTH","s":0.492},"geometry":{"type":"Polygon","coordinates":[[[2.17089,50.80347],[2.17148,50.80371],[2.17223,50.80295],[2.17162,50.80273],[2.17089,50.80347]]]}},{"type":"Feature","properties":{"k":"MIS","s":3.053},"geometry":{"type":"Polygon","coordinates":[[[2.17432,50.80242],[2.17392,50.80235],[2.17418,50.8031],[2.17545,50.80353],[2.17626,50.80404],[2.17738,50.80267],[2.17452,50.8019],[2.17432,50.80242]]]}},{"type":"Feature","properties":{"k":"BTH","s":2.554},"geometry":{"type":"Polygon","coordinates":[[[2.17604,50.80227],[2.17766,50.80268],[2.17878,50.80106],[2.17712,50.80065],[2.17604,50.80227]]]}},{"type":"Feature","properties":{"k":"PPH","s":1.44},"geometry":{"type":"Polygon","coordinates":[[[2.17364,50.80004],[2.17235,50.79975],[2.17177,50.80048],[2.17201,50.80067],[2.17147,50.80145],[2.17176,50.80152],[2.17205,50.80112],[2.17279,50.80113],[2.17364,50.80004]]]}},{"type":"Feature","properties":{"k":"PPH","s":5.209},"geometry":{"type":"Polygon","coordinates":[[[2.17237,50.80167],[2.17292,50.80182],[2.17417,50.80006],[2.17497,50.80023],[2.17602,50.79877],[2.17434,50.7983],[2.17367,50.79934],[2.17239,50.799],[2.17282,50.79849],[2.17226,50.7983],[2.17114,50.79952],[2.17093,50.79949],[2.17029,50.80058],[2.17088,50.80073],[2.17163,50.79958],[2.17379,50.79998],[2.17237,50.80167]]]}},{"type":"Feature","properties":{"k":"PPH","s":3.34},"geometry":{"type":"Polygon","coordinates":[[[2.17743,50.80066],[2.17857,50.79908],[2.17705,50.79836],[2.17612,50.79898],[2.17523,50.8002],[2.17743,50.80066]]]}},{"type":"Feature","properties":{"k":"PPH","s":2.346},"geometry":{"type":"Polygon","coordinates":[[[2.1791,50.79938],[2.17849,50.79919],[2.17755,50.80063],[2.18008,50.80127],[2.17983,50.80085],[2.1785,50.80038],[2.17813,50.80065],[2.17894,50.79953],[2.17852,50.80032],[2.17915,50.80052],[2.17954,50.80009],[2.18004,50.79995],[2.17929,50.79936],[2.18041,50.8],[2.18073,50.79992],[2.1794,50.79917],[2.1791,50.79938]]]}},{"type":"Feature","properties":{"k":"PPH","s":2.99},"geometry":{"type":"Polygon","coordinates":[[[2.18131,50.80168],[2.17991,50.8013],[2.17933,50.80218],[2.18068,50.80254],[2.18014,50.80374],[2.18123,50.80353],[2.18152,50.8031],[2.18177,50.80308],[2.18259,50.80231],[2.18131,50.80168]]]}},{"type":"Feature","properties":{"k":"PPH","s":1.043},"geometry":{"type":"Polygon","coordinates":[[[2.21022,50.81495],[2.20957,50.81482],[2.20948,50.81517],[2.21267,50.81593],[2.21297,50.81558],[2.21022,50.81495]]]}},{"type":"Feature","properties":{"k":"PPH","s":1.982},"geometry":{"type":"Polygon","coordinates":[[[2.21321,50.81402],[2.21003,50.81328],[2.2098,50.81402],[2.21302,50.81472],[2.21321,50.81402]]]}},{"type":"Feature","properties":{"k":"PPH","s":4.185},"geometry":{"type":"Polygon","coordinates":[[[2.21306,50.81557],[2.21321,50.81533],[2.21325,50.81522],[2.20955,50.81441],[2.20978,50.81362],[2.20607,50.81283],[2.20561,50.81386],[2.21306,50.81557]],[[2.20963,50.8138],[2.20612,50.81305],[2.20616,50.81303],[2.20963,50.8138]],[[2.20953,50.81395],[2.20952,50.81398],[2.206,50.81322],[2.20953,50.81395]],[[2.20956,50.81416],[2.20955,50.81419],[2.20598,50.81339],[2.20956,50.81416]],[[2.20594,50.81354],[2.20948,50.81433],[2.20945,50.81436],[2.20594,50.81354]],[[2.20589,50.81374],[2.20942,50.81453],[2.2094,50.81455],[2.20589,50.81374]]]}},{"type":"Feature","properties":{"k":"PPH","s":1.084},"geometry":{"type":"Polygon","coordinates":[[[2.20995,50.81445],[2.21321,50.81517],[2.21301,50.81472],[2.2098,50.81402],[2.20969,50.8144],[2.20995,50.81445]]]}},{"type":"Feature","properties":{"k":"BTA","s":0.04},"geometry":{"type":"Polygon","coordinates":[[[2.21302,50.81472],[2.21309,50.81474],[2.21327,50.81403],[2.21302,50.81472]]]}},{"type":"Feature","properties":{"k":"BTA","s":0.028},"geometry":{"type":"Polygon","coordinates":[[[2.21321,50.81517],[2.21329,50.81519],[2.21328,50.81498],[2.21301,50.81477],[2.21321,50.81517]]]}},{"type":"Feature","properties":{"k":"PPH","s":4.256},"geometry":{"type":"Polygon","coordinates":[[[2.21077,50.81091],[2.21013,50.81285],[2.21298,50.81345],[2.21318,50.81303],[2.21254,50.81279],[2.21239,50.81255],[2.21303,50.81257],[2.21312,50.81245],[2.21275,50.81192],[2.21315,50.81114],[2.21077,50.81091]]]}},{"type":"Feature","properties":{"k":"BTA","s":0.088},"geometry":{"type":"Polygon","coordinates":[[[2.21275,50.81192],[2.21285,50.81211],[2.2131,50.81227],[2.21307,50.81257],[2.21317,50.81225],[2.21282,50.81192],[2.21313,50.81118],[2.21275,50.81192]]]}},{"type":"Feature","properties":{"k":"BTA","s":0.023},"geometry":{"type":"Polygon","coordinates":[[[2.21302,50.81329],[2.21304,50.81346],[2.21318,50.81303],[2.21302,50.81329]]]}},{"type":"Feature","properties":{"k":"BTA","s":0.018},"geometry":{"type":"Polygon","coordinates":[[[2.2128,50.81591],[2.21303,50.81559],[2.21267,50.81593],[2.2128,50.81591]]]}},{"type":"Feature","properties":{"k":"PPH","s":1.377},"geometry":{"type":"Polygon","coordinates":[[[2.18688,50.80321],[2.18604,50.80282],[2.18522,50.80335],[2.18581,50.80281],[2.18558,50.80267],[2.18455,50.80351],[2.18377,50.80315],[2.18344,50.80345],[2.18408,50.80381],[2.18426,50.80374],[2.18466,50.8039],[2.18519,50.80336],[2.1855,50.80351],[2.18582,50.80336],[2.18641,50.80363],[2.18619,50.80378],[2.18598,50.80368],[2.18546,50.80415],[2.1858,50.80432],[2.18688,50.80321]]]}},{"type":"Feature","properties":{"k":"MIS","s":0.237},"geometry":{"type":"Polygon","coordinates":[[[2.20022,50.81482],[2.20106,50.81499],[2.20131,50.81465],[2.20039,50.81453],[2.20022,50.81482]]]}},{"type":"Feature","properties":{"k":"PPH","s":2.143},"geometry":{"type":"Polygon","coordinates":[[[2.21048,50.81782],[2.21152,50.81598],[2.21015,50.81563],[2.20923,50.81719],[2.21048,50.81782]]]}},{"type":"Feature","properties":{"k":"MIS","s":1.435},"geometry":{"type":"Polygon","coordinates":[[[2.18531,50.80836],[2.1858,50.80846],[2.18787,50.80633],[2.18727,50.80606],[2.18531,50.80836]]]}},{"type":"Feature","properties":{"k":"MIS","s":1.14},"geometry":{"type":"Polygon","coordinates":[[[2.20422,50.81423],[2.20346,50.81544],[2.20401,50.81552],[2.20471,50.8145],[2.20406,50.81554],[2.2045,50.81566],[2.2053,50.81449],[2.20422,50.81423]]]}},{"type":"Feature","properties":{"k":"MIS","s":4.639},"geometry":{"type":"Polygon","coordinates":[[[2.20848,50.81687],[2.20923,50.81559],[2.20852,50.8169],[2.20886,50.81703],[2.20964,50.8157],[2.20889,50.81706],[2.2092,50.81717],[2.21012,50.81564],[2.2059,50.81464],[2.20507,50.81583],[2.20549,50.81595],[2.20623,50.81486],[2.20556,50.81596],[2.20592,50.81607],[2.20664,50.81499],[2.20596,50.81609],[2.20644,50.81621],[2.20706,50.81509],[2.20647,50.81623],[2.20684,50.81633],[2.20749,50.81518],[2.20689,50.81634],[2.20726,50.81648],[2.20796,50.81528],[2.20731,50.81649],[2.20766,50.81663],[2.20837,50.81538],[2.20794,50.81624],[2.20834,50.81635],[2.20885,50.81551],[2.20813,50.81677],[2.20848,50.81687]]]}},{"type":"Feature","properties":{"k":"MIS","s":0.675},"geometry":{"type":"Polygon","coordinates":[[[2.19312,50.8067],[2.19254,50.80646],[2.1915,50.80726],[2.1922,50.80755],[2.19312,50.8067]]]}},{"type":"Feature","properties":{"k":"MIS","s":0.483},"geometry":{"type":"Polygon","coordinates":[[[2.20465,50.81563],[2.20505,50.81582],[2.20581,50.81461],[2.20536,50.81451],[2.20465,50.81563]]]}},{"type":"Feature","properties":{"k":"PPH","s":2.231},"geometry":{"type":"Polygon","coordinates":[[[2.18639,50.80567],[2.18431,50.80814],[2.1853,50.80836],[2.18593,50.80742],[2.18727,50.80605],[2.18639,50.80567]]]}},{"type":"Feature","properties":{"k":"BTH","s":2.587},"geometry":{"type":"MultiPolygon","coordinates":[[[[2.19429,50.81113],[2.19352,50.81104],[2.19689,50.81187],[2.19747,50.81099],[2.19595,50.81054],[2.19603,50.81035],[2.19482,50.81002],[2.19429,50.81113]]]]}},{"type":"Feature","properties":{"k":"MIS","s":2.46},"geometry":{"type":"Polygon","coordinates":[[[2.20384,50.8169],[2.20433,50.81698],[2.20485,50.8162],[2.20438,50.81699],[2.20472,50.81707],[2.20521,50.81641],[2.20478,50.81708],[2.2052,50.81716],[2.20579,50.8164],[2.20523,50.81718],[2.20561,50.81727],[2.20619,50.81648],[2.20566,50.81729],[2.20602,50.81738],[2.20662,50.81659],[2.20607,50.8174],[2.20648,50.81751],[2.2072,50.8165],[2.20462,50.81575],[2.20384,50.8169]]]}},{"type":"Feature","properties":{"k":"PPH","s":1.706},"geometry":{"type":"Polygon","coordinates":[[[2.20943,50.81518],[2.20941,50.81497],[2.20554,50.81406],[2.20544,50.81444],[2.21241,50.81611],[2.21253,50.81592],[2.20943,50.81518]],[[2.20933,50.81513],[2.20931,50.81517],[2.20559,50.81423],[2.20933,50.81513]]]}},{"type":"Feature","properties":{"k":"PPH","s":1.246},"geometry":{"type":"Polygon","coordinates":[[[2.20337,50.81576],[2.20282,50.81678],[2.2036,50.81578],[2.20309,50.81673],[2.20323,50.81675],[2.20392,50.81585],[2.2033,50.8168],[2.20373,50.81691],[2.20454,50.81573],[2.20198,50.81524],[2.20204,50.81547],[2.20337,50.81576]]]}},{"type":"Feature","properties":{"k":"MIS","s":0.267},"geometry":{"type":"Polygon","coordinates":[[[2.20109,50.81499],[2.20177,50.81517],[2.20213,50.81473],[2.20138,50.81462],[2.20109,50.81499]]]}},{"type":"Feature","properties":{"k":"MIS","s":0.543},"geometry":{"type":"Polygon","coordinates":[[[2.20555,50.81405],[2.20942,50.81495],[2.20946,50.81476],[2.20558,50.81395],[2.20555,50.81405]]]}},{"type":"Feature","properties":{"k":"PPH","s":2.09},"geometry":{"type":"Polygon","coordinates":[[[2.18209,50.80268],[2.18299,50.80282],[2.18286,50.80316],[2.18343,50.80341],[2.18377,50.80313],[2.18452,50.80345],[2.1855,50.80259],[2.18477,50.80192],[2.18451,50.80219],[2.18473,50.8026],[2.18449,50.8029],[2.1839,50.80293],[2.18344,50.80274],[2.18353,50.80263],[2.18314,50.80248],[2.18312,50.80227],[2.1834,50.80184],[2.18391,50.80171],[2.18441,50.80195],[2.18482,50.80174],[2.18427,50.8012],[2.18209,50.80268]]]}},{"type":"Feature","properties":{"k":"MIS","s":0.831},"geometry":{"type":"Polygon","coordinates":[[[2.19644,50.80953],[2.1955,50.80946],[2.19511,50.80927],[2.19465,50.80995],[2.19593,50.81032],[2.19644,50.80953]]]}},{"type":"Feature","properties":{"k":"BTN","s":0.999},"geometry":{"type":"Polygon","coordinates":[[[2.18513,50.80571],[2.18343,50.8077],[2.18394,50.80781],[2.18566,50.80588],[2.18513,50.80571]]]}},{"type":"Feature","properties":{"k":"BTH","s":0.544},"geometry":{"type":"Polygon","coordinates":[[[2.19354,50.80703],[2.19271,50.80783],[2.19321,50.80812],[2.19406,50.80724],[2.19383,50.80703],[2.19354,50.80703]]]}},{"type":"Feature","properties":{"k":"MIS","s":1.258},"geometry":{"type":"Polygon","coordinates":[[[2.21055,50.81785],[2.21095,50.81798],[2.21197,50.81623],[2.21101,50.81801],[2.21133,50.81808],[2.21232,50.81632],[2.21223,50.81613],[2.21156,50.81597],[2.21055,50.81785]]]}},{"type":"Feature","properties":{"k":"MIS","s":0.293},"geometry":{"type":"Polygon","coordinates":[[[2.19234,50.80755],[2.19262,50.80773],[2.19345,50.80703],[2.19306,50.80685],[2.19234,50.80755]]]}},{"type":"Feature","properties":{"k":"MIS","s":0.365},"geometry":{"type":"Polygon","coordinates":[[[2.19423,50.81056],[2.19449,50.81062],[2.19508,50.80922],[2.19488,50.80901],[2.19423,50.81056]]]}},{"type":"Feature","properties":{"k":"MIS","s":0.813},"geometry":{"type":"Polygon","coordinates":[[[2.20184,50.81517],[2.20257,50.81531],[2.20348,50.81405],[2.20281,50.81389],[2.20184,50.81517]]]}},{"type":"Feature","properties":{"k":"MIS","s":2.584},"geometry":{"type":"Polygon","coordinates":[[[2.18474,50.80532],[2.18254,50.80776],[2.18429,50.80815],[2.18616,50.80585],[2.18474,50.80532]],[[2.18567,50.80588],[2.18394,50.80781],[2.18343,50.8077],[2.18513,50.80571],[2.18567,50.80588]]]}},{"type":"Feature","properties":{"k":"PTR","s":0.164},"geometry":{"type":"Polygon","coordinates":[[[2.19353,50.80828],[2.19406,50.80724],[2.19321,50.80812],[2.19353,50.80828]]]}},{"type":"Feature","properties":{"k":"BTH","s":0.796},"geometry":{"type":"Polygon","coordinates":[[[2.2034,50.81543],[2.20418,50.81422],[2.20349,50.81407],[2.20264,50.8153],[2.2034,50.81543]]]}},{"type":"Feature","properties":{"k":"ORH","s":0.011},"geometry":{"type":"Polygon","coordinates":[[[2.12029,50.78047],[2.12059,50.78015],[2.12028,50.78045],[2.11982,50.78024],[2.12029,50.78047]]]}},{"type":"Feature","properties":{"k":"BTH","s":0.008},"geometry":{"type":"Polygon","coordinates":[[[2.11834,50.78111],[2.11922,50.78059],[2.11833,50.7811],[2.11834,50.78111]]]}},{"type":"Feature","properties":{"k":"PPH","s":0.228},"geometry":{"type":"Polygon","coordinates":[[[2.15759,50.7891],[2.15784,50.78955],[2.15843,50.78909],[2.15847,50.78892],[2.15759,50.7891]]]}},{"type":"Feature","properties":{"k":"PPH","s":0.409},"geometry":{"type":"Polygon","coordinates":[[[2.15648,50.78933],[2.15487,50.78964],[2.15579,50.79002],[2.15664,50.78936],[2.15648,50.78933]]]}}]}