{"type":"FeatureCollection","features":[{"type":"Feature","properties":{"k":"CZH","s":0.027},"geometry":{"type":"MultiPolygon","coordinates":[[[[1.70801,50.58023],[1.70809,50.58006],[1.70759,50.58089],[1.70801,50.58023]]],[[[1.70821,50.57983],[1.70844,50.57903],[1.70814,50.57997],[1.70821,50.57983]]]]}},{"type":"Feature","properties":{"k":"BTN","s":2.81},"geometry":{"type":"Polygon","coordinates":[[[1.71179,50.57868],[1.71019,50.57932],[1.7109,50.5807],[1.71306,50.58095],[1.71179,50.57868]]]}},{"type":"Feature","properties":{"k":"ORH","s":4.072},"geometry":{"type":"Polygon","coordinates":[[[1.70855,50.57869],[1.70821,50.57983],[1.70762,50.58089],[1.70824,50.58077],[1.71162,50.58084],[1.71305,50.58107],[1.71306,50.58095],[1.71224,50.5808],[1.7109,50.5807],[1.70969,50.57834],[1.70855,50.57869]]]}},{"type":"Feature","properties":{"k":"ORH","s":0.012},"geometry":{"type":"Polygon","coordinates":[[[1.70927,50.57845],[1.70947,50.57839],[1.70965,50.57831],[1.70999,50.5781],[1.70892,50.57853],[1.70927,50.57845]]]}},{"type":"Feature","properties":{"k":"PTC","s":3.288},"geometry":{"type":"Polygon","coordinates":[[[1.71357,50.58114],[1.71257,50.57894],[1.71121,50.57707],[1.71058,50.57776],[1.70969,50.57834],[1.71019,50.57932],[1.71179,50.57868],[1.71305,50.58107],[1.71357,50.58114]]]}},{"type":"Feature","properties":{"k":"BTH","s":13.178},"geometry":{"type":"Polygon","coordinates":[[[1.71472,50.57954],[1.71709,50.57895],[1.71618,50.57738],[1.71728,50.57499],[1.71593,50.57697],[1.71177,50.57611],[1.71124,50.57701],[1.71267,50.579],[1.71305,50.57986],[1.71421,50.58112],[1.71477,50.58137],[1.71582,50.58145],[1.71472,50.57954]]]}},{"type":"Feature","properties":{"k":"BTN","s":2.195},"geometry":{"type":"Polygon","coordinates":[[[1.71594,50.57922],[1.71717,50.58131],[1.71837,50.58119],[1.71709,50.57896],[1.71594,50.57922]]]}},{"type":"Feature","properties":{"k":"BTH","s":4.42},"geometry":{"type":"Polygon","coordinates":[[[1.71331,50.58122],[1.71136,50.58089],[1.71228,50.58407],[1.71409,50.58381],[1.71364,50.5817],[1.71352,50.58135],[1.71331,50.58122]]]}},{"type":"Feature","properties":{"k":"ORP","s":2.427},"geometry":{"type":"Polygon","coordinates":[[[1.71182,50.58416],[1.71086,50.58091],[1.71012,50.58089],[1.71119,50.58448],[1.71413,50.58395],[1.71409,50.58381],[1.71182,50.58416]]]}},{"type":"Feature","properties":{"k":"BTH","s":7.623},"geometry":{"type":"Polygon","coordinates":[[[1.71672,50.58513],[1.71689,50.58649],[1.71552,50.58658],[1.71499,50.58556],[1.7151,50.58418],[1.71547,50.58418],[1.7158,50.58177],[1.71757,50.58159],[1.71758,50.58274],[1.71711,50.58343],[1.7165,50.58344],[1.71633,50.58367],[1.71634,50.5845],[1.71698,50.58449],[1.71694,50.58376],[1.71733,50.58362],[1.71828,50.58209],[1.71805,50.58129],[1.71563,50.58153],[1.71383,50.58129],[1.71381,50.58253],[1.71457,50.58557],[1.71525,50.58675],[1.71765,50.5866],[1.71749,50.58511],[1.71672,50.58513]]]}},{"type":"Feature","properties":{"k":"PPH","s":4.275},"geometry":{"type":"Polygon","coordinates":[[[1.77243,50.57755],[1.77282,50.57767],[1.77366,50.57717],[1.77355,50.57656],[1.77386,50.57649],[1.77371,50.57611],[1.77415,50.576],[1.77336,50.57519],[1.77315,50.5741],[1.77137,50.57508],[1.77243,50.57755]]]}},{"type":"Feature","properties":{"k":"ORH","s":2.055},"geometry":{"type":"Polygon","coordinates":[[[1.75951,50.59243],[1.76121,50.59223],[1.76122,50.59127],[1.76001,50.59081],[1.7596,50.59018],[1.75917,50.59046],[1.75969,50.59135],[1.75947,50.59135],[1.75951,50.59243]],[[1.75968,50.59128],[1.76095,50.5913],[1.76017,50.59132],[1.75968,50.59128]]]}},{"type":"Feature","properties":{"k":"MIS","s":1.27},"geometry":{"type":"Polygon","coordinates":[[[1.75869,50.59252],[1.75951,50.59243],[1.75947,50.59135],[1.75969,50.59135],[1.75917,50.59046],[1.75841,50.59096],[1.75869,50.59252]]]}},{"type":"Feature","properties":{"k":"PPH","s":0.0},"geometry":{"type":"Polygon","coordinates":[[[1.75442,50.59093],[1.75442,50.59096],[1.75443,50.59096],[1.75442,50.59093]]]}},{"type":"Feature","properties":{"k":"BTH","s":0.022},"geometry":{"type":"Polygon","coordinates":[[[1.77251,50.58637],[1.77248,50.58644],[1.77253,50.58644],[1.77274,50.58541],[1.77251,50.58637]]]}},{"type":"Feature","properties":{"k":"BTH","s":2.5},"geometry":{"type":"Polygon","coordinates":[[[1.77271,50.58541],[1.77283,50.58491],[1.77593,50.5845],[1.77592,50.58351],[1.77305,50.58377],[1.77271,50.58541]]]}},{"type":"Feature","properties":{"k":"ORH","s":7.983},"geometry":{"type":"Polygon","coordinates":[[[1.77384,50.57942],[1.77256,50.57771],[1.77149,50.57741],[1.76854,50.57697],[1.76945,50.57892],[1.7689,50.57883],[1.76955,50.58018],[1.77384,50.57942]]]}},{"type":"Feature","properties":{"k":"ORP","s":6.631},"geometry":{"type":"Polygon","coordinates":[[[1.71698,50.58449],[1.71634,50.5845],[1.71633,50.58367],[1.7165,50.58344],[1.71711,50.58343],[1.71758,50.58274],[1.71757,50.58159],[1.7158,50.58177],[1.71547,50.58418],[1.7151,50.58418],[1.71499,50.58556],[1.71552,50.58658],[1.71689,50.58649],[1.71672,50.58513],[1.71749,50.58511],[1.71733,50.58362],[1.71694,50.58376],[1.71698,50.58449]]]}},{"type":"Feature","properties":{"k":"BTH","s":5.038},"geometry":{"type":"Polygon","coordinates":[[[1.71445,50.58557],[1.71415,50.58403],[1.71019,50.58464],[1.71067,50.58628],[1.71445,50.58557]]]}},{"type":"Feature","properties":{"k":"BTH","s":1.168},"geometry":{"type":"Polygon","coordinates":[[[1.71136,50.58089],[1.71088,50.5809],[1.71184,50.58415],[1.71227,50.58409],[1.71136,50.58089]]]}},{"type":"Feature","properties":{"k":"ORH","s":2.939},"geometry":{"type":"Polygon","coordinates":[[[1.70914,50.58088],[1.71019,50.58464],[1.71119,50.58448],[1.71012,50.58089],[1.70914,50.58088]]]}},{"type":"Feature","properties":{"k":"PPH","s":2.397},"geometry":{"type":"Polygon","coordinates":[[[1.72678,50.57782],[1.72655,50.5786],[1.72796,50.57891],[1.72813,50.57851],[1.72859,50.57861],[1.72871,50.57839],[1.72782,50.57823],[1.72789,50.57763],[1.72826,50.57765],[1.7283,50.57739],[1.72906,50.57745],[1.72901,50.57681],[1.72773,50.57643],[1.72725,50.57781],[1.72678,50.57782]]]}},{"type":"Feature","properties":{"k":"BTH","s":4.02},"geometry":{"type":"Polygon","coordinates":[[[1.72513,50.57523],[1.72649,50.57547],[1.72735,50.57602],[1.72798,50.57504],[1.72676,50.57471],[1.72544,50.57334],[1.72324,50.57395],[1.72513,50.57523]]]}},{"type":"Feature","properties":{"k":"BTH","s":3.673},"geometry":{"type":"Polygon","coordinates":[[[1.73164,50.59436],[1.73303,50.59376],[1.73348,50.5933],[1.73404,50.59321],[1.73267,50.59216],[1.72982,50.59371],[1.73018,50.59405],[1.73006,50.59417],[1.72934,50.5942],[1.73164,50.59436]],[[1.73034,50.59402],[1.73045,50.59407],[1.73033,50.59414],[1.73034,50.59402]]]}},{"type":"Feature","properties":{"k":"BTN","s":2.011},"geometry":{"type":"Polygon","coordinates":[[[1.73699,50.5927],[1.73689,50.59237],[1.73267,50.59216],[1.7339,50.5931],[1.73453,50.59312],[1.73699,50.5927]]]}},{"type":"Feature","properties":{"k":"MIS","s":0.026},"geometry":{"type":"Polygon","coordinates":[[[1.73405,50.59321],[1.73453,50.59312],[1.7339,50.5931],[1.73405,50.59321]]]}},{"type":"Feature","properties":{"k":"BTN","s":12.556},"geometry":{"type":"Polygon","coordinates":[[[1.7307,50.58938],[1.73268,50.59216],[1.73688,50.59235],[1.73491,50.58809],[1.7307,50.58938]]]}},{"type":"Feature","properties":{"k":"BTH","s":6.657},"geometry":{"type":"Polygon","coordinates":[[[1.73663,50.59147],[1.73921,50.59056],[1.73858,50.58913],[1.73741,50.58938],[1.7367,50.58803],[1.73478,50.5875],[1.73685,50.59223],[1.73663,50.59147]]]}},{"type":"Feature","properties":{"k":"ORH","s":0.552},"geometry":{"type":"Polygon","coordinates":[[[1.73899,50.58946],[1.74023,50.58937],[1.73867,50.58853],[1.73899,50.58946]]]}},{"type":"Feature","properties":{"k":"MIS","s":3.917},"geometry":{"type":"Polygon","coordinates":[[[1.74357,50.58704],[1.73902,50.58744],[1.73893,50.58849],[1.74385,50.58793],[1.74357,50.58704]]]}},{"type":"Feature","properties":{"k":"CZH","s":8.892},"geometry":{"type":"Polygon","coordinates":[[[1.74023,50.58937],[1.74404,50.58909],[1.74386,50.58802],[1.73893,50.58849],[1.73902,50.58744],[1.74357,50.58704],[1.74295,50.58622],[1.74382,50.58594],[1.74365,50.58556],[1.7394,50.58587],[1.73874,50.58766],[1.73867,50.58853],[1.73923,50.58875],[1.73939,50.58869],[1.74023,50.58937]]]}},{"type":"Feature","properties":{"k":"CZH","s":5.78},"geometry":{"type":"Polygon","coordinates":[[[1.7394,50.58587],[1.74371,50.58556],[1.74368,50.58519],[1.74481,50.58472],[1.74014,50.58361],[1.7394,50.58587]]]}},{"type":"Feature","properties":{"k":"BTH","s":10.172},"geometry":{"type":"Polygon","coordinates":[[[1.73933,50.58514],[1.73983,50.58352],[1.73758,50.58242],[1.73567,50.58172],[1.73457,50.58552],[1.73933,50.58514]]]}},{"type":"Feature","properties":{"k":"BTH","s":3.667},"geometry":{"type":"Polygon","coordinates":[[[1.74012,50.58351],[1.74217,50.58401],[1.74169,50.58066],[1.7406,50.58071],[1.74047,50.58251],[1.74012,50.58351]]]}},{"type":"Feature","properties":{"k":"BOR","s":0.117},"geometry":{"type":"Polygon","coordinates":[[[1.73891,50.57795],[1.74052,50.57915],[1.73895,50.5779],[1.73875,50.57795],[1.73891,50.57795]]]}},{"type":"Feature","properties":{"k":"CZH","s":4.796},"geometry":{"type":"Polygon","coordinates":[[[1.73718,50.57795],[1.73624,50.58184],[1.73756,50.58231],[1.73868,50.5779],[1.73718,50.57795]]]}},{"type":"Feature","properties":{"k":"ORP","s":8.304},"geometry":{"type":"Polygon","coordinates":[[[1.73991,50.58342],[1.74052,50.57915],[1.73891,50.57795],[1.73866,50.57796],[1.73756,50.58231],[1.73991,50.58342]]]}},{"type":"Feature","properties":{"k":"LIF","s":7.006},"geometry":{"type":"Polygon","coordinates":[[[1.73631,50.58145],[1.73717,50.57762],[1.73459,50.57786],[1.73387,50.58111],[1.73631,50.58145]]]}},{"type":"Feature","properties":{"k":"PTR","s":5.989},"geometry":{"type":"Polygon","coordinates":[[[1.73224,50.57808],[1.7319,50.58013],[1.73217,50.58077],[1.73339,50.58138],[1.73508,50.58151],[1.73622,50.58182],[1.73631,50.58145],[1.73387,50.58111],[1.73459,50.57786],[1.73224,50.57808]]]}},{"type":"Feature","properties":{"k":"PPH","s":1.783},"geometry":{"type":"Polygon","coordinates":[[[1.73217,50.58077],[1.73112,50.58087],[1.72997,50.58018],[1.7301,50.58047],[1.72942,50.58066],[1.72927,50.58042],[1.72884,50.58061],[1.72928,50.58106],[1.72952,50.58106],[1.72952,50.58089],[1.73014,50.58089],[1.73023,50.58144],[1.73302,50.58137],[1.73312,50.58123],[1.73217,50.58077]]]}},{"type":"Feature","properties":{"k":"PPH","s":4.808},"geometry":{"type":"Polygon","coordinates":[[[1.731,50.58152],[1.73103,50.58188],[1.73069,50.58188],[1.73084,50.58221],[1.73024,50.58234],[1.73144,50.58429],[1.7332,50.5837],[1.73274,50.58256],[1.7337,50.58243],[1.73323,50.58147],[1.731,50.58152]]]}},{"type":"Feature","properties":{"k":"MIS","s":7.67},"geometry":{"type":"Polygon","coordinates":[[[1.73374,50.58246],[1.73278,50.5825],[1.73325,50.58371],[1.73147,50.5843],[1.73271,50.58567],[1.73456,50.58552],[1.73566,50.58172],[1.73335,50.58147],[1.73374,50.58246]]]}},{"type":"Feature","properties":{"k":"MLF","s":1.542},"geometry":{"type":"Polygon","coordinates":[[[1.73177,50.58482],[1.73151,50.58461],[1.72829,50.5856],[1.72906,50.58674],[1.72947,50.58661],[1.72985,50.58541],[1.73177,50.58482]]]}},{"type":"Feature","properties":{"k":"PPH","s":5.665},"geometry":{"type":"Polygon","coordinates":[[[1.7276,50.58225],[1.72792,50.58233],[1.72785,50.5825],[1.72716,50.58282],[1.72678,50.58268],[1.72651,50.58285],[1.7268,50.58312],[1.72691,50.58426],[1.7262,50.58445],[1.72674,50.58566],[1.72597,50.58689],[1.72907,50.58675],[1.72732,50.58391],[1.72806,50.5833],[1.72931,50.58275],[1.72823,50.58213],[1.72768,50.582],[1.7276,50.58225]]]}},{"type":"Feature","properties":{"k":"PPH","s":6.053},"geometry":{"type":"Polygon","coordinates":[[[1.72876,50.5817],[1.72849,50.58184],[1.72823,50.58213],[1.72931,50.58275],[1.72764,50.58359],[1.72737,50.58391],[1.72829,50.5856],[1.73151,50.58461],[1.73074,50.58378],[1.73033,50.58287],[1.72969,50.5828],[1.72876,50.5817]]]}},{"type":"Feature","properties":{"k":"PPH","s":1.606},"geometry":{"type":"Polygon","coordinates":[[[1.7266,50.58564],[1.72604,50.58446],[1.72494,50.58434],[1.7249,50.58466],[1.7258,50.58509],[1.72529,50.58654],[1.7259,50.58689],[1.7266,50.58564]]]}},{"type":"Feature","properties":{"k":"BTH","s":2.083},"geometry":{"type":"Polygon","coordinates":[[[1.72183,50.58488],[1.72178,50.58528],[1.72257,50.58533],[1.7229,50.58593],[1.72289,50.58651],[1.72333,50.58657],[1.7233,50.58686],[1.72388,50.5869],[1.72442,50.58519],[1.72183,50.58488]]]}},{"type":"Feature","properties":{"k":"AVH","s":2.999},"geometry":{"type":"Polygon","coordinates":[[[1.7211,50.58365],[1.72099,50.58477],[1.72443,50.58519],[1.72494,50.58435],[1.7211,50.58365]]]}},{"type":"Feature","properties":{"k":"CZH","s":2.924},"geometry":{"type":"Polygon","coordinates":[[[1.72333,50.58657],[1.72289,50.58651],[1.7229,50.58593],[1.72257,50.58533],[1.72178,50.58528],[1.72183,50.58488],[1.72012,50.58467],[1.72066,50.58549],[1.72229,50.58705],[1.72382,50.58707],[1.72388,50.5869],[1.7233,50.58686],[1.72333,50.58657]]]}},{"type":"Feature","properties":{"k":"ORH","s":12.629},"geometry":{"type":"Polygon","coordinates":[[[1.71787,50.58842],[1.721,50.58834],[1.72123,50.58764],[1.72037,50.58524],[1.71985,50.58455],[1.72005,50.58368],[1.7211,50.58279],[1.72366,50.58294],[1.72372,50.58229],[1.72177,50.58191],[1.71918,50.58287],[1.71872,50.58433],[1.71909,50.58506],[1.71749,50.58511],[1.71787,50.58842]]]}},{"type":"Feature","properties":{"k":"PPH","s":4.18},"geometry":{"type":"Polygon","coordinates":[[[1.71828,50.58209],[1.71734,50.58357],[1.71749,50.58507],[1.71906,50.585],[1.71873,50.58422],[1.71912,50.58289],[1.71966,50.58261],[1.72179,50.5819],[1.72376,50.58229],[1.72364,50.58305],[1.72379,50.58308],[1.72383,50.58288],[1.72404,50.58288],[1.72408,50.58222],[1.72279,50.58156],[1.72173,50.58175],[1.71978,50.58246],[1.7193,50.58245],[1.71828,50.58209]]]}},{"type":"Feature","properties":{"k":"PPH","s":3.139},"geometry":{"type":"Polygon","coordinates":[[[1.72493,50.58382],[1.72342,50.58374],[1.72355,50.58334],[1.72258,50.58312],[1.72277,50.58296],[1.72161,50.58288],[1.72055,50.58327],[1.72017,50.5837],[1.71999,50.5844],[1.72009,50.58466],[1.72099,50.58477],[1.7211,50.58365],[1.72494,50.58434],[1.72493,50.58382]]]}},{"type":"Feature","properties":{"k":"BTN","s":6.714},"geometry":{"type":"Polygon","coordinates":[[[1.72261,50.58088],[1.72287,50.58086],[1.72397,50.57918],[1.72388,50.57795],[1.71967,50.57627],[1.72261,50.58088]]]}},{"type":"Feature","properties":{"k":"CZH","s":3.394},"geometry":{"type":"Polygon","coordinates":[[[1.7241,50.57918],[1.72335,50.58047],[1.72503,50.58047],[1.72621,50.5786],[1.72406,50.57785],[1.7241,50.57918]]]}},{"type":"Feature","properties":{"k":"PPH","s":0.582},"geometry":{"type":"Polygon","coordinates":[[[1.72482,50.58089],[1.72579,50.58118],[1.72616,50.58046],[1.72531,50.58023],[1.72482,50.58089]]]}},{"type":"Feature","properties":{"k":"PPH","s":9.298},"geometry":{"type":"Polygon","coordinates":[[[1.72537,50.58015],[1.72667,50.58048],[1.72682,50.57989],[1.72653,50.57982],[1.7266,50.57963],[1.72688,50.57946],[1.72715,50.57949],[1.72734,50.57925],[1.72775,50.57945],[1.72786,50.57931],[1.72715,50.57903],[1.72675,50.57918],[1.72635,50.57886],[1.72676,50.57781],[1.72722,50.5778],[1.72768,50.57639],[1.72649,50.57549],[1.72509,50.57528],[1.72301,50.57385],[1.72397,50.57521],[1.72406,50.57785],[1.7261,50.57855],[1.72537,50.58015]]]}},{"type":"Feature","properties":{"k":"JAC","s":0.285},"geometry":{"type":"Polygon","coordinates":[[[1.724,50.57795],[1.72397,50.5771],[1.72307,50.57749],[1.724,50.57795]]]}},{"type":"Feature","properties":{"k":"LIF","s":6.996},"geometry":{"type":"Polygon","coordinates":[[[1.71777,50.57479],[1.71763,50.57526],[1.72091,50.581],[1.72259,50.58087],[1.71966,50.57624],[1.71777,50.57479]]]}},{"type":"Feature","properties":{"k":"BTN","s":10.43},"geometry":{"type":"Polygon","coordinates":[[[1.71777,50.57479],[1.71751,50.57459],[1.71618,50.57738],[1.71839,50.5812],[1.72091,50.581],[1.71763,50.57526],[1.71777,50.57479]]]}},{"type":"Feature","properties":{"k":"BTN","s":3.949},"geometry":{"type":"Polygon","coordinates":[[[1.7199,50.57432],[1.72142,50.57498],[1.72226,50.57514],[1.72385,50.57512],[1.72271,50.57377],[1.71896,50.57324],[1.7199,50.57432]]]}},{"type":"Feature","properties":{"k":"TRE","s":1.775},"geometry":{"type":"Polygon","coordinates":[[[1.71991,50.57336],[1.71993,50.57215],[1.71749,50.57238],[1.71752,50.57308],[1.71991,50.57336]]]}},{"type":"Feature","properties":{"k":"PPH","s":2.697},"geometry":{"type":"Polygon","coordinates":[[[1.71993,50.57215],[1.71991,50.57336],[1.72027,50.57339],[1.7203,50.57212],[1.72152,50.572],[1.7215,50.57143],[1.71749,50.57149],[1.71749,50.57238],[1.71993,50.57215]]]}},{"type":"Feature","properties":{"k":"BTH","s":8.14},"geometry":{"type":"Polygon","coordinates":[[[1.71953,50.56828],[1.71925,50.56848],[1.71937,50.57144],[1.7215,50.57143],[1.72152,50.572],[1.7203,50.57212],[1.72027,50.57339],[1.72206,50.5736],[1.72203,50.56919],[1.71953,50.56828]]]}},{"type":"Feature","properties":{"k":"BTH","s":6.833},"geometry":{"type":"Polygon","coordinates":[[[1.72282,50.57374],[1.72303,50.57369],[1.72264,50.57354],[1.72432,50.57313],[1.72429,50.57002],[1.72203,50.56919],[1.72206,50.5736],[1.72282,50.57374]]]}},{"type":"Feature","properties":{"k":"BTH","s":7.812},"geometry":{"type":"Polygon","coordinates":[[[1.72429,50.57002],[1.72432,50.57313],[1.72264,50.57354],[1.72303,50.57369],[1.72994,50.57209],[1.72429,50.57002]]]}},{"type":"Feature","properties":{"k":"PPH","s":2.605},"geometry":{"type":"Polygon","coordinates":[[[1.72798,50.57504],[1.72735,50.57602],[1.72783,50.57639],[1.72795,50.57627],[1.72764,50.57614],[1.72846,50.57481],[1.72896,50.57438],[1.73352,50.57227],[1.73319,50.57207],[1.73163,50.57279],[1.73074,50.57296],[1.7306,50.5732],[1.72854,50.57424],[1.72803,50.5748],[1.72686,50.57453],[1.72683,50.57424],[1.72571,50.57327],[1.72544,50.57334],[1.72676,50.57471],[1.72798,50.57504]]]}},{"type":"Feature","properties":{"k":"BTH","s":0.005},"geometry":{"type":"Polygon","coordinates":[]}},{"type":"Feature","properties":{"k":"LIF","s":8.296},"geometry":{"type":"Polygon","coordinates":[[[1.72846,50.57481],[1.72764,50.57614],[1.72795,50.57627],[1.72783,50.57639],[1.72902,50.57675],[1.73076,50.5746],[1.73137,50.57439],[1.73233,50.57436],[1.73542,50.57348],[1.73352,50.57227],[1.72967,50.57401],[1.72846,50.57481]]]}},{"type":"Feature","properties":{"k":"ORH","s":13.47},"geometry":{"type":"Polygon","coordinates":[[[1.73666,50.57767],[1.73544,50.57355],[1.73183,50.57448],[1.73159,50.5749],[1.73092,50.57513],[1.73168,50.57613],[1.73224,50.57808],[1.73666,50.57767]]]}},{"type":"Feature","properties":{"k":"PPH","s":8.525},"geometry":{"type":"Polygon","coordinates":[[[1.72971,50.57874],[1.73,50.57908],[1.72987,50.5795],[1.72951,50.57968],[1.72986,50.57974],[1.72995,50.58014],[1.73094,50.58008],[1.7309,50.58058],[1.73115,50.58082],[1.73217,50.58076],[1.7319,50.58013],[1.73225,50.57808],[1.73168,50.57613],[1.73092,50.57513],[1.7304,50.57519],[1.73018,50.57552],[1.72954,50.57665],[1.72973,50.57715],[1.72971,50.57874]],[[1.73025,50.57735],[1.73027,50.5775],[1.73005,50.57742],[1.73025,50.57735]]]}},{"type":"Feature","properties":{"k":"BFS","s":0.105},"geometry":{"type":"Polygon","coordinates":[[[1.7367,50.57766],[1.73632,50.57645],[1.73586,50.5753],[1.73579,50.57459],[1.73581,50.57528],[1.7367,50.57766]]]}},{"type":"Feature","properties":{"k":"PTR","s":0.0},"geometry":{"type":"Polygon","coordinates":[]}},{"type":"Feature","properties":{"k":"PTR","s":0.819},"geometry":{"type":"Polygon","coordinates":[[[1.73895,50.5779],[1.74055,50.57909],[1.74069,50.57882],[1.73912,50.57765],[1.73724,50.57769],[1.73718,50.57795],[1.73895,50.5779]]]}},{"type":"Feature","properties":{"k":"BTH","s":6.442},"geometry":{"type":"Polygon","coordinates":[[[1.7406,50.58071],[1.74635,50.58045],[1.74709,50.58143],[1.74732,50.58131],[1.74556,50.57902],[1.74074,50.57929],[1.7406,50.58071]]]}},{"type":"Feature","properties":{"k":"BTH","s":0.007},"geometry":{"type":"Polygon","coordinates":[[[1.74728,50.58125],[1.74729,50.58125],[1.74557,50.57901],[1.74728,50.58125]]]}},{"type":"Feature","properties":{"k":"BTH","s":3.74},"geometry":{"type":"Polygon","coordinates":[[[1.7475,50.58127],[1.74777,50.58308],[1.75127,50.58235],[1.74852,50.58078],[1.7475,50.58127]]]}},{"type":"Feature","properties":{"k":"BTH","s":5.281},"geometry":{"type":"Polygon","coordinates":[[[1.74193,50.58207],[1.74638,50.58181],[1.74709,50.58143],[1.74634,50.58045],[1.74169,50.58066],[1.74193,50.58207]]]}},{"type":"Feature","properties":{"k":"MIS","s":9.177},"geometry":{"type":"Polygon","coordinates":[[[1.74217,50.58401],[1.74493,50.58468],[1.74678,50.58465],[1.74638,50.58181],[1.74197,50.582],[1.74217,50.58401]]]}},{"type":"Feature","properties":{"k":"BTH","s":2.73},"geometry":{"type":"Polygon","coordinates":[[[1.74642,50.58614],[1.74682,50.58693],[1.7509,50.58675],[1.75052,50.586],[1.74642,50.58614]]]}},{"type":"Feature","properties":{"k":"BTH","s":4.332},"geometry":{"type":"Polygon","coordinates":[[[1.74404,50.58909],[1.74668,50.58894],[1.74641,50.58693],[1.74371,50.58702],[1.74404,50.58909]]]}},{"type":"Feature","properties":{"k":"PPH","s":0.355},"geometry":{"type":"Polygon","coordinates":[[[1.73041,50.59429],[1.73002,50.59507],[1.73145,50.59445],[1.73041,50.59429]]]}},{"type":"Feature","properties":{"k":"ORP","s":0.242},"geometry":{"type":"Polygon","coordinates":[[[1.73018,50.59405],[1.72982,50.59371],[1.72898,50.59418],[1.73006,50.59417],[1.73018,50.59405]]]}},{"type":"Feature","properties":{"k":"BTH","s":1.839},"geometry":{"type":"Polygon","coordinates":[[[1.7278,50.5938],[1.72848,50.59415],[1.72898,50.59418],[1.72975,50.59374],[1.72888,50.59258],[1.72735,50.59308],[1.7278,50.5938]]]}},{"type":"Feature","properties":{"k":"ORP","s":4.951},"geometry":{"type":"Polygon","coordinates":[[[1.72734,50.59308],[1.72888,50.59258],[1.72973,50.59371],[1.7302,50.59343],[1.72809,50.59028],[1.72587,50.59092],[1.72734,50.59308]],[[1.72759,50.59151],[1.72768,50.59206],[1.72748,50.59139],[1.72698,50.59073],[1.72759,50.59151]]]}},{"type":"Feature","properties":{"k":"JAC","s":0.058},"geometry":{"type":"Polygon","coordinates":[[[1.73053,50.59074],[1.7311,50.59177],[1.73056,50.59075],[1.72988,50.59029],[1.72972,50.58997],[1.7297,50.59012],[1.72996,50.59042],[1.73053,50.59074]]]}},{"type":"Feature","properties":{"k":"BTH","s":12.36},"geometry":{"type":"Polygon","coordinates":[[[1.73251,50.59194],[1.73069,50.58937],[1.73494,50.58808],[1.7345,50.58758],[1.72554,50.5903],[1.72587,50.59092],[1.72809,50.59028],[1.7302,50.59343],[1.73178,50.59254],[1.73251,50.59194]],[[1.7297,50.59012],[1.72972,50.58997],[1.72988,50.59029],[1.73056,50.59075],[1.7311,50.59177],[1.73053,50.59074],[1.72992,50.59039],[1.7297,50.59012]]]}},{"type":"Feature","properties":{"k":"PPH","s":0.581},"geometry":{"type":"Polygon","coordinates":[[[1.72906,50.58674],[1.72995,50.58822],[1.73037,50.58809],[1.72946,50.58659],[1.72906,50.58674]]]}},{"type":"Feature","properties":{"k":"BTN","s":6.733},"geometry":{"type":"Polygon","coordinates":[[[1.73385,50.58705],[1.73177,50.58482],[1.72985,50.58541],[1.72947,50.58661],[1.73037,50.58809],[1.73385,50.58705]]]}},{"type":"Feature","properties":{"k":"BTH","s":10.196},"geometry":{"type":"Polygon","coordinates":[[[1.73746,50.58813],[1.73844,50.58819],[1.73934,50.58514],[1.73271,50.58567],[1.73429,50.58727],[1.73746,50.58813]]]}},{"type":"Feature","properties":{"k":"JAC","s":0.186},"geometry":{"type":"Polygon","coordinates":[[[1.73267,50.59216],[1.73251,50.59194],[1.73223,50.59231],[1.72973,50.59371],[1.73267,50.59216]]]}},{"type":"Feature","properties":{"k":"PTR","s":5.619},"geometry":{"type":"Polygon","coordinates":[[[1.75007,50.5826],[1.74669,50.58329],[1.7469,50.58464],[1.74943,50.5847],[1.7516,50.58431],[1.75007,50.5826]]]}},{"type":"Feature","properties":{"k":"PPH","s":8.932},"geometry":{"type":"Polygon","coordinates":[[[1.75052,50.586],[1.7509,50.58675],[1.75294,50.58655],[1.75483,50.58616],[1.75473,50.58523],[1.7559,50.58504],[1.75572,50.58441],[1.75366,50.58444],[1.75158,50.58481],[1.75155,50.58533],[1.75123,50.58485],[1.75045,50.58498],[1.74967,50.58536],[1.74612,50.58554],[1.74642,50.58614],[1.74872,50.58594],[1.75052,50.586]]]}},{"type":"Feature","properties":{"k":"PPH","s":5.843},"geometry":{"type":"Polygon","coordinates":[[[1.75007,50.5826],[1.7516,50.58431],[1.75368,50.58382],[1.75355,50.58352],[1.75396,50.58345],[1.75389,50.58317],[1.75475,50.583],[1.75488,50.5832],[1.75582,50.58268],[1.75567,50.58239],[1.75534,50.58254],[1.75513,50.58233],[1.75559,50.58213],[1.75528,50.58193],[1.75476,50.58217],[1.75417,50.5818],[1.75268,50.58242],[1.75229,50.58215],[1.75007,50.5826]]]}},{"type":"Feature","properties":{"k":"PPH","s":0.237},"geometry":{"type":"MultiPolygon","coordinates":[[[[1.75261,50.58026],[1.7523,50.58049],[1.75302,50.58096],[1.75328,50.58068],[1.75261,50.58026]]],[[[1.75347,50.58208],[1.75342,50.58206],[1.75337,50.58208],[1.75347,50.58208]]],[[[1.75418,50.58172],[1.75389,50.58191],[1.75424,50.58176],[1.75418,50.58172]]]]}},{"type":"Feature","properties":{"k":"ORH","s":2.133},"geometry":{"type":"MultiPolygon","coordinates":[[[[1.71521,50.57196],[1.71744,50.57208],[1.71743,50.56972],[1.71655,50.57044],[1.71521,50.57196]]],[[[1.71826,50.56911],[1.71774,50.56946],[1.71743,50.56972],[1.71826,50.56911]]]]}},{"type":"Feature","properties":{"k":"MIS","s":13.21},"geometry":{"type":"Polygon","coordinates":[[[1.74642,50.58697],[1.74668,50.58893],[1.74906,50.58915],[1.75357,50.58932],[1.75358,50.58831],[1.75379,50.58831],[1.75351,50.58649],[1.75282,50.58661],[1.75096,50.58678],[1.74642,50.58697]]]}},{"type":"Feature","properties":{"k":"BTH","s":0.0},"geometry":{"type":"Polygon","coordinates":[]}},{"type":"Feature","properties":{"k":"BTH","s":0.0},"geometry":{"type":"Polygon","coordinates":[[[1.71542,50.57172],[1.7153,50.57182],[1.71535,50.57179],[1.71542,50.57172]]]}},{"type":"Feature","properties":{"k":"BTH","s":1.46},"geometry":{"type":"Polygon","coordinates":[[[1.71483,50.57224],[1.71609,50.57278],[1.71744,50.57306],[1.71744,50.57208],[1.71521,50.57196],[1.71483,50.57224]]]}},{"type":"Feature","properties":{"k":"ORH","s":5.084},"geometry":{"type":"MultiPolygon","coordinates":[[[[1.71094,50.57732],[1.71112,50.57706],[1.7108,50.57747],[1.71094,50.57732]]],[[[1.7141,50.57276],[1.71472,50.57229],[1.71362,50.57178],[1.7133,50.57207],[1.71365,50.57242],[1.71339,50.57356],[1.7119,50.57317],[1.71009,50.57571],[1.71124,50.57685],[1.7141,50.57276]]]]}},{"type":"Feature","properties":{"k":"BFS","s":0.169},"geometry":{"type":"Polygon","coordinates":[[[1.71593,50.57697],[1.71731,50.575],[1.71732,50.57481],[1.71591,50.57695],[1.71188,50.57611],[1.71593,50.57697]]]}},{"type":"Feature","properties":{"k":"PPH","s":0.827},"geometry":{"type":"Polygon","coordinates":[[[1.72565,50.58218],[1.72648,50.58199],[1.72663,50.58155],[1.72525,50.58112],[1.72494,50.58135],[1.72565,50.58218]]]}},{"type":"Feature","properties":{"k":"PPH","s":0.539},"geometry":{"type":"Polygon","coordinates":[[[1.72968,50.5787],[1.72875,50.57853],[1.72862,50.57896],[1.7291,50.57909],[1.72889,50.57944],[1.72943,50.57957],[1.72968,50.5787]]]}},{"type":"Feature","properties":{"k":"ORP","s":0.964},"geometry":{"type":"Polygon","coordinates":[[[1.72409,50.59218],[1.71805,50.59058],[1.71816,50.59076],[1.72736,50.59318],[1.72409,50.59218]]]}},{"type":"Feature","properties":{"k":"CZH","s":0.006},"geometry":{"type":"Polygon","coordinates":[[[1.71832,50.59132],[1.71799,50.59139],[1.71864,50.59129],[1.71832,50.59132]]]}},{"type":"Feature","properties":{"k":"FVP","s":5.947},"geometry":{"type":"Polygon","coordinates":[[[1.7178,50.58955],[1.72433,50.59132],[1.72454,50.59155],[1.72667,50.59205],[1.72555,50.59048],[1.7229,50.59016],[1.71735,50.58868],[1.7178,50.58955]]]}},{"type":"Feature","properties":{"k":"PTC","s":4.348},"geometry":{"type":"Polygon","coordinates":[[[1.71745,50.59154],[1.71861,50.59125],[1.71922,50.59127],[1.72495,50.59275],[1.72754,50.59365],[1.72736,50.59318],[1.71816,50.59076],[1.71696,50.58857],[1.71603,50.58834],[1.71619,50.58886],[1.71594,50.58891],[1.71745,50.59154]]]}},{"type":"Feature","properties":{"k":"TRE","s":0.116},"geometry":{"type":"Polygon","coordinates":[[[1.7567,50.59021],[1.7565,50.58911],[1.75633,50.58863],[1.75657,50.59039],[1.7567,50.59021]]]}},{"type":"Feature","properties":{"k":"TRE","s":0.025},"geometry":{"type":"Polygon","coordinates":[[[1.7597,50.59131],[1.76047,50.59136],[1.76095,50.5913],[1.7597,50.59131]]]}},{"type":"Feature","properties":{"k":"ORH","s":0.02},"geometry":{"type":"Polygon","coordinates":[[[1.77278,50.58829],[1.77281,50.5883],[1.77288,50.5874],[1.77278,50.58829]]]}},{"type":"Feature","properties":{"k":"ORP","s":0.006},"geometry":{"type":"MultiPolygon","coordinates":[[[[1.76975,50.58987],[1.76983,50.58919],[1.76973,50.58987],[1.76975,50.58987]]],[[[1.77013,50.58899],[1.77062,50.58908],[1.7705,50.58905],[1.77013,50.58899]]]]}},{"type":"Feature","properties":{"k":"ORH","s":3.154},"geometry":{"type":"Polygon","coordinates":[[[1.75453,50.59092],[1.75675,50.59052],[1.75657,50.58929],[1.75633,50.58845],[1.7557,50.58825],[1.75496,50.58835],[1.75515,50.58961],[1.75445,50.58969],[1.75443,50.59063],[1.75653,50.59037],[1.75449,50.59073],[1.75453,50.59092]],[[1.7565,50.58911],[1.75662,50.58972],[1.75657,50.59039],[1.75627,50.58864],[1.7565,50.58911]]]}},{"type":"Feature","properties":{"k":"PPH","s":2.101},"geometry":{"type":"Polygon","coordinates":[[[1.75378,50.58777],[1.75376,50.58744],[1.75364,50.58695],[1.75379,50.58831],[1.75358,50.58831],[1.75357,50.58932],[1.75445,50.58969],[1.75515,50.58961],[1.75496,50.58835],[1.7557,50.58825],[1.75575,50.58803],[1.75378,50.58777]]]}},{"type":"Feature","properties":{"k":"PPH","s":3.334},"geometry":{"type":"Polygon","coordinates":[[[1.76986,50.58895],[1.77191,50.58931],[1.77264,50.58898],[1.77269,50.58877],[1.77114,50.58804],[1.77128,50.58787],[1.77058,50.58752],[1.76973,50.58807],[1.76899,50.58755],[1.768,50.58788],[1.76986,50.58895]]]}},{"type":"Feature","properties":{"k":"PPH","s":3.166},"geometry":{"type":"Polygon","coordinates":[[[1.75573,50.58822],[1.75633,50.58838],[1.7565,50.58723],[1.75575,50.58702],[1.75574,50.58618],[1.75355,50.58649],[1.7538,50.58774],[1.75575,50.588],[1.75573,50.58822]]]}},{"type":"Feature","properties":{"k":"PPR","s":0.0},"geometry":{"type":"Polygon","coordinates":[]}},{"type":"Feature","properties":{"k":"BTH","s":0.942},"geometry":{"type":"Polygon","coordinates":[[[1.70816,50.5735],[1.70946,50.57177],[1.70799,50.57248],[1.70741,50.57252],[1.70816,50.5735]]]}},{"type":"Feature","properties":{"k":"BTH","s":27.981},"geometry":{"type":"Polygon","coordinates":[[[1.76841,50.58535],[1.7695,50.58626],[1.77116,50.58703],[1.77056,50.5875],[1.77128,50.58787],[1.77114,50.58804],[1.77269,50.58876],[1.77286,50.58739],[1.77214,50.58721],[1.77251,50.58637],[1.77305,50.58377],[1.77592,50.58351],[1.77585,50.57888],[1.77462,50.57939],[1.77027,50.58005],[1.76888,50.58047],[1.77125,50.58359],[1.76841,50.58535]],[[1.77532,50.57996],[1.77413,50.58053],[1.77393,50.58012],[1.77414,50.57954],[1.7752,50.57942],[1.77532,50.57996]]]}},{"type":"Feature","properties":{"k":"MIS","s":2.488},"geometry":{"type":"Polygon","coordinates":[[[1.7258,50.58509],[1.72466,50.58457],[1.724,50.58659],[1.72563,50.58751],[1.7259,50.58689],[1.72529,50.58654],[1.7258,50.58509]]]}},{"type":"Feature","properties":{"k":"PPH","s":0.396},"geometry":{"type":"Polygon","coordinates":[[[1.77591,50.57874],[1.77593,50.57816],[1.77553,50.57791],[1.7753,50.57802],[1.77512,50.57863],[1.77591,50.57874]]]}},{"type":"Feature","properties":{"k":"BTN","s":5.803},"geometry":{"type":"Polygon","coordinates":[[[1.71086,50.57279],[1.70946,50.57177],[1.70816,50.5735],[1.71009,50.57571],[1.7119,50.57317],[1.71086,50.57279]]]}},{"type":"Feature","properties":{"k":"PPH","s":16.583},"geometry":{"type":"Polygon","coordinates":[[[1.7153,50.58677],[1.71534,50.58789],[1.71571,50.58827],[1.71696,50.58857],[1.71805,50.59058],[1.72409,50.59219],[1.72455,50.59152],[1.72433,50.59132],[1.7178,50.58955],[1.71734,50.58867],[1.7229,50.59015],[1.72382,50.58707],[1.72232,50.58708],[1.72066,50.58549],[1.72045,50.58554],[1.72133,50.58784],[1.721,50.58838],[1.71769,50.58843],[1.71766,50.5866],[1.7153,50.58677]]]}},{"type":"Feature","properties":{"k":"BTH","s":11.5},"geometry":{"type":"Polygon","coordinates":[[[1.72554,50.5903],[1.7345,50.58758],[1.73385,50.58705],[1.72995,50.58822],[1.72907,50.58675],[1.72597,50.58689],[1.72554,50.5903]]]}},{"type":"Feature","properties":{"k":"PPH","s":0.035},"geometry":{"type":"MultiPolygon","coordinates":[[[[1.72513,50.59281],[1.72489,50.59274],[1.7266,50.59328],[1.72513,50.59281]]]]}},{"type":"Feature","properties":{"k":"ORP","s":2.501},"geometry":{"type":"Polygon","coordinates":[[[1.72291,50.59015],[1.72385,50.59027],[1.72475,50.58702],[1.724,50.58659],[1.72291,50.59015]]]}},{"type":"Feature","properties":{"k":"JAC","s":0.048},"geometry":{"type":"Polygon","coordinates":[[[1.72698,50.59073],[1.72748,50.59139],[1.72768,50.59206],[1.72759,50.59151],[1.72698,50.59073]]]}},{"type":"Feature","properties":{"k":"PTR","s":1.656},"geometry":{"type":"Polygon","coordinates":[[[1.72667,50.59205],[1.72454,50.59155],[1.72409,50.59218],[1.72727,50.59305],[1.72667,50.59205]]]}},{"type":"Feature","properties":{"k":"BTN","s":3.104},"geometry":{"type":"Polygon","coordinates":[[[1.72555,50.59048],[1.72543,50.58954],[1.72563,50.58751],[1.72475,50.58702],[1.72385,50.59027],[1.72555,50.59048]]]}},{"type":"Feature","properties":{"k":"CZH","s":2.956},"geometry":{"type":"Polygon","coordinates":[[[1.7647,50.58767],[1.76688,50.58596],[1.76653,50.58565],[1.76603,50.58576],[1.76466,50.58571],[1.76331,50.58756],[1.7647,50.58767]]]}},{"type":"Feature","properties":{"k":"PPH","s":1.981},"geometry":{"type":"Polygon","coordinates":[[[1.76053,50.58956],[1.75925,50.58849],[1.75747,50.58896],[1.75957,50.5902],[1.76053,50.58956]]]}},{"type":"Feature","properties":{"k":"PPH","s":0.111},"geometry":{"type":"Polygon","coordinates":[[[1.75656,50.58253],[1.75692,50.58309],[1.75713,50.58297],[1.75676,50.58249],[1.75656,50.58253]]]}},{"type":"Feature","properties":{"k":"PPH","s":0.266},"geometry":{"type":"Polygon","coordinates":[[[1.759,50.58298],[1.75811,50.58256],[1.75793,50.58263],[1.75867,50.58325],[1.759,50.58298]]]}},{"type":"Feature","properties":{"k":"PPH","s":0.628},"geometry":{"type":"Polygon","coordinates":[[[1.75791,50.58419],[1.75754,50.5837],[1.75715,50.58385],[1.75642,50.58354],[1.75659,50.58413],[1.75737,50.58441],[1.75791,50.58419]]]}},{"type":"Feature","properties":{"k":"PPH","s":1.325},"geometry":{"type":"Polygon","coordinates":[[[1.76161,50.58348],[1.76003,50.58369],[1.7592,50.58387],[1.75893,50.58439],[1.76106,50.58391],[1.76308,50.58382],[1.76316,50.58369],[1.7629,50.58355],[1.76161,50.58348]]]}},{"type":"Feature","properties":{"k":"PPH","s":0.312},"geometry":{"type":"Polygon","coordinates":[[[1.75999,50.58266],[1.75943,50.58373],[1.76011,50.58362],[1.75999,50.58266]]]}},{"type":"Feature","properties":{"k":"PPH","s":3.825},"geometry":{"type":"Polygon","coordinates":[[[1.76206,50.58216],[1.76,50.58262],[1.76013,50.58363],[1.76239,50.58349],[1.76291,50.58353],[1.76335,50.58386],[1.76459,50.58316],[1.76439,50.58295],[1.76206,50.58216]]]}},{"type":"Feature","properties":{"k":"PPH","s":0.733},"geometry":{"type":"Polygon","coordinates":[[[1.76279,50.58451],[1.76425,50.58487],[1.76448,50.58464],[1.76398,50.58421],[1.7632,50.58379],[1.76279,50.58451]]]}},{"type":"Feature","properties":{"k":"PPH","s":6.414},"geometry":{"type":"Polygon","coordinates":[[[1.76879,50.5876],[1.7691,50.5875],[1.76741,50.58598],[1.76699,50.58532],[1.7675,50.58576],[1.76797,50.58565],[1.76935,50.58462],[1.76541,50.58368],[1.76459,50.58316],[1.76346,50.58384],[1.76528,50.58494],[1.76484,50.5857],[1.76603,50.58574],[1.76659,50.58561],[1.76879,50.5876]],[[1.76523,50.58488],[1.76537,50.58488],[1.76671,50.5852],[1.76687,50.5855],[1.7653,50.5849],[1.76528,50.58494],[1.76523,50.58488]]]}},{"type":"Feature","properties":{"k":"MLG","s":1.954},"geometry":{"type":"Polygon","coordinates":[[[1.76562,50.58369],[1.76936,50.58462],[1.76952,50.58453],[1.76733,50.5829],[1.76562,50.58369]]]}},{"type":"Feature","properties":{"k":"ORH","s":4.244},"geometry":{"type":"Polygon","coordinates":[[[1.76751,50.58088],[1.76598,50.58121],[1.76733,50.5829],[1.76952,50.58453],[1.77009,50.58421],[1.76751,50.58088]]]}},{"type":"Feature","properties":{"k":"BTH","s":5.097},"geometry":{"type":"Polygon","coordinates":[[[1.76429,50.58141],[1.76289,50.58203],[1.76221,50.58213],[1.76436,50.58291],[1.76512,50.58354],[1.76562,50.58369],[1.76733,50.5829],[1.76598,50.58121],[1.76429,50.58141]]]}},{"type":"Feature","properties":{"k":"PPR","s":7.108},"geometry":{"type":"Polygon","coordinates":[[[1.76124,50.57921],[1.76076,50.58013],[1.76309,50.58186],[1.76429,50.58133],[1.76598,50.5811],[1.76216,50.5782],[1.76124,50.57921]]]}},{"type":"Feature","properties":{"k":"MIS","s":5.749},"geometry":{"type":"Polygon","coordinates":[[[1.76717,50.5809],[1.76585,50.57839],[1.76244,50.57786],[1.76216,50.5782],[1.76598,50.5811],[1.76717,50.5809]]]}},{"type":"Feature","properties":{"k":"BTH","s":4.363},"geometry":{"type":"Polygon","coordinates":[[[1.76718,50.5809],[1.76955,50.58018],[1.7689,50.57883],[1.76583,50.57836],[1.76718,50.5809]]]}},{"type":"Feature","properties":{"k":"BTH","s":0.288},"geometry":{"type":"Polygon","coordinates":[[[1.76251,50.57774],[1.76244,50.57786],[1.76584,50.57839],[1.76251,50.57774]]]}},{"type":"Feature","properties":{"k":"CZH","s":3.441},"geometry":{"type":"Polygon","coordinates":[[[1.71749,50.57148],[1.71937,50.57145],[1.71925,50.56848],[1.71748,50.56973],[1.71749,50.57148]]]}},{"type":"Feature","properties":{"k":"ORH","s":2.537},"geometry":{"type":"Polygon","coordinates":[[[1.76798,50.58075],[1.77043,50.584],[1.77108,50.58351],[1.76869,50.58052],[1.76798,50.58075]]]}},{"type":"Feature","properties":{"k":"PPR","s":0.829},"geometry":{"type":"Polygon","coordinates":[[[1.77393,50.58012],[1.77413,50.58053],[1.77532,50.57996],[1.7752,50.57942],[1.77414,50.57954],[1.77393,50.58012]]]}},{"type":"Feature","properties":{"k":"EPE","s":0.005},"geometry":{"type":"MultiPolygon","coordinates":[[[[1.71069,50.58634],[1.71067,50.5863],[1.71079,50.58688],[1.71069,50.58634]]]]}},{"type":"Feature","properties":{"k":"CZH","s":7.567},"geometry":{"type":"Polygon","coordinates":[[[1.71069,50.58634],[1.71106,50.58815],[1.70764,50.58927],[1.70915,50.5898],[1.71085,50.58923],[1.71339,50.59055],[1.71223,50.58599],[1.71069,50.58634]]]}},{"type":"Feature","properties":{"k":"BTH","s":0.003},"geometry":{"type":"Polygon","coordinates":[]}},{"type":"Feature","properties":{"k":"ORH","s":6.659},"geometry":{"type":"Polygon","coordinates":[[[1.71668,50.59163],[1.71744,50.59154],[1.71531,50.58793],[1.71521,50.58679],[1.71458,50.58588],[1.71409,50.58569],[1.71369,50.58575],[1.71514,50.59145],[1.71668,50.59163]]]}},{"type":"Feature","properties":{"k":"ORP","s":0.154},"geometry":{"type":"Polygon","coordinates":[[[1.71603,50.58834],[1.71571,50.58827],[1.71594,50.58891],[1.71619,50.58886],[1.71603,50.58834]]]}},{"type":"Feature","properties":{"k":"LIF","s":6.32},"geometry":{"type":"Polygon","coordinates":[[[1.71068,50.58931],[1.71395,50.59101],[1.71472,50.5914],[1.71514,50.59145],[1.71369,50.58575],[1.71235,50.58597],[1.7135,50.59056],[1.71085,50.58923],[1.71068,50.58931]]]}},{"type":"Feature","properties":{"k":"CZH","s":0.407},"geometry":{"type":"Polygon","coordinates":[[[1.7135,50.59056],[1.71235,50.58597],[1.71223,50.58599],[1.7135,50.59056]]]}},{"type":"Feature","properties":{"k":"BTN","s":2.799},"geometry":{"type":"Polygon","coordinates":[[[1.71067,50.5893],[1.70913,50.58983],[1.7131,50.59133],[1.71325,50.59116],[1.71471,50.5914],[1.71067,50.5893]]]}},{"type":"Feature","properties":{"k":"BTH","s":0.0},"geometry":{"type":"Polygon","coordinates":[[[1.713,50.59131],[1.71309,50.59135],[1.7131,50.59134],[1.713,50.59131]]]}},{"type":"Feature","properties":{"k":"MIS","s":0.01},"geometry":{"type":"Polygon","coordinates":[[[1.77187,50.57622],[1.77146,50.57528],[1.77232,50.57731],[1.77187,50.57622]]]}},{"type":"Feature","properties":{"k":"BTH","s":1.293},"geometry":{"type":"Polygon","coordinates":[[[1.76833,50.58187],[1.77009,50.58421],[1.77043,50.584],[1.76796,50.58076],[1.76751,50.58088],[1.76833,50.58187]]]}},{"type":"Feature","properties":{"k":"PPH","s":1.403},"geometry":{"type":"Polygon","coordinates":[[[1.77483,50.57927],[1.77514,50.57903],[1.77509,50.57878],[1.77256,50.57771],[1.77384,50.57942],[1.77483,50.57927]]]}},{"type":"Feature","properties":{"k":"AVP","s":0.558},"geometry":{"type":"MultiPolygon","coordinates":[[[[1.77841,50.57578],[1.77679,50.57434],[1.77629,50.5744],[1.77817,50.57589],[1.77841,50.57578]]],[[[1.77895,50.57626],[1.77878,50.57612],[1.779,50.57635],[1.77895,50.57626]]]]}},{"type":"Feature","properties":{"k":"AVP","s":8.257},"geometry":{"type":"Polygon","coordinates":[[[1.77336,50.57519],[1.77427,50.57609],[1.77509,50.57732],[1.77817,50.57589],[1.77629,50.5744],[1.77578,50.57445],[1.77529,50.57321],[1.77413,50.5733],[1.77422,50.57381],[1.77315,50.5741],[1.77336,50.57519]]]}},{"type":"Feature","properties":{"k":"BTH","s":4.856},"geometry":{"type":"Polygon","coordinates":[[[1.76727,50.59008],[1.76324,50.59039],[1.76239,50.59109],[1.76119,50.59129],[1.76121,50.59223],[1.76448,50.59125],[1.7671,50.59125],[1.76727,50.59008]]]}},{"type":"Feature","properties":{"k":"BTH","s":0.197},"geometry":{"type":"Polygon","coordinates":[[[1.76695,50.59126],[1.7648,50.59128],[1.76706,50.59148],[1.76695,50.59126]]]}},{"type":"Feature","properties":{"k":"BTH","s":1.054},"geometry":{"type":"Polygon","coordinates":[[[1.76798,50.59156],[1.76829,50.59006],[1.76731,50.59014],[1.76708,50.59148],[1.76798,50.59156]]]}},{"type":"Feature","properties":{"k":"BTH","s":13.14},"geometry":{"type":"Polygon","coordinates":[[[1.76353,50.59036],[1.76973,50.58983],[1.76984,50.58894],[1.76787,50.58793],[1.76168,50.58753],[1.76149,50.58809],[1.76353,50.59036]]]}},{"type":"Feature","properties":{"k":"ORP","s":0.703},"geometry":{"type":"Polygon","coordinates":[[[1.76797,50.58789],[1.76878,50.5876],[1.76804,50.58702],[1.7667,50.5878],[1.76797,50.58789]]]}},{"type":"Feature","properties":{"k":"BTH","s":0.897},"geometry":{"type":"Polygon","coordinates":[[[1.76641,50.58728],[1.76575,50.58775],[1.7667,50.5878],[1.76804,50.58702],[1.7675,50.58658],[1.76641,50.58728]]]}},{"type":"Feature","properties":{"k":"MIS","s":1.457},"geometry":{"type":"Polygon","coordinates":[[[1.76469,50.58767],[1.76573,50.58774],[1.76749,50.58658],[1.76688,50.58596],[1.76469,50.58767]]]}},{"type":"Feature","properties":{"k":"PPH","s":6.669},"geometry":{"type":"Polygon","coordinates":[[[1.757,50.58845],[1.75727,50.589],[1.75925,50.58849],[1.76055,50.58956],[1.7596,50.59018],[1.76001,50.59081],[1.76122,50.59127],[1.76353,50.59036],[1.76302,50.58983],[1.76191,50.59019],[1.75975,50.58827],[1.76134,50.58797],[1.76148,50.58752],[1.75935,50.58769],[1.75772,50.58758],[1.75723,50.58741],[1.757,50.58845]]]}},{"type":"Feature","properties":{"k":"BTH","s":2.563},"geometry":{"type":"Polygon","coordinates":[[[1.76134,50.58797],[1.75975,50.58827],[1.76191,50.59019],[1.76301,50.58984],[1.76149,50.58809],[1.76168,50.58753],[1.76147,50.58752],[1.76134,50.58797]]]}},{"type":"Feature","properties":{"k":"PPH","s":0.025},"geometry":{"type":"MultiPolygon","coordinates":[[[[1.75261,50.57918],[1.75283,50.57905],[1.7527,50.57911],[1.75261,50.57918]]],[[[1.75528,50.5787],[1.75434,50.57886],[1.75528,50.57876],[1.75528,50.5787]]]]}},{"type":"Feature","properties":{"k":"PPH","s":9.102},"geometry":{"type":"Polygon","coordinates":[[[1.75575,50.58144],[1.75563,50.58152],[1.75642,50.58197],[1.75715,50.58157],[1.75766,50.58151],[1.75742,50.58137],[1.75767,50.5815],[1.75799,50.58134],[1.7574,50.58093],[1.75818,50.58057],[1.75842,50.58075],[1.75867,50.58061],[1.75734,50.57956],[1.75528,50.57876],[1.75291,50.57904],[1.75194,50.57967],[1.75364,50.5808],[1.75394,50.58062],[1.75504,50.58144],[1.75538,50.58119],[1.75575,50.58144]]]}},{"type":"Feature","properties":{"k":"ORH","s":0.097},"geometry":{"type":"MultiPolygon","coordinates":[[[[1.75739,50.57952],[1.75909,50.57847],[1.75728,50.57947],[1.75739,50.57952]]],[[[1.7622,50.57809],[1.76216,50.57808],[1.7618,50.57852],[1.7622,50.57809]]]]}},{"type":"Feature","properties":{"k":"CZH","s":4.574},"geometry":{"type":"Polygon","coordinates":[[[1.76117,50.57924],[1.75913,50.57844],[1.7574,50.57952],[1.75885,50.58068],[1.7601,50.58135],[1.76117,50.57924]]]}},{"type":"Feature","properties":{"k":"ORH","s":2.606},"geometry":{"type":"Polygon","coordinates":[[[1.76017,50.58147],[1.76066,50.58202],[1.7602,50.58249],[1.76119,50.58216],[1.76255,50.58204],[1.76309,50.58186],[1.76076,50.58013],[1.76017,50.58147]]]}},{"type":"Feature","properties":{"k":"PPH","s":2.569},"geometry":{"type":"Polygon","coordinates":[[[1.75881,50.58218],[1.75838,50.58235],[1.75866,50.58248],[1.75988,50.58253],[1.76051,50.58212],[1.76,50.58138],[1.75865,50.58065],[1.75843,50.58077],[1.75818,50.58059],[1.7575,50.58093],[1.75881,50.58218]]]}},{"type":"Feature","properties":{"k":"PPH","s":1.126},"geometry":{"type":"Polygon","coordinates":[[[1.75641,50.58199],[1.75654,50.58212],[1.75591,50.5823],[1.75623,50.58302],[1.75684,50.58314],[1.75655,50.58253],[1.75676,50.58247],[1.75716,50.58296],[1.75781,50.58256],[1.75712,50.58168],[1.75641,50.58199]]]}},{"type":"Feature","properties":{"k":"PPH","s":3.207},"geometry":{"type":"Polygon","coordinates":[[[1.75912,50.58747],[1.75799,50.5872],[1.75781,50.58753],[1.75961,50.5876],[1.76098,50.58745],[1.76158,50.58551],[1.75958,50.58574],[1.75912,50.58747]]]}},{"type":"Feature","properties":{"k":"PTR","s":0.595},"geometry":{"type":"Polygon","coordinates":[[[1.75647,50.58858],[1.75667,50.58914],[1.75728,50.589],[1.757,50.58845],[1.75708,50.58775],[1.75656,50.58772],[1.75647,50.58858]]]}},{"type":"Feature","properties":{"k":"BTH","s":1.729},"geometry":{"type":"Polygon","coordinates":[[[1.75753,50.589],[1.75671,50.5892],[1.75839,50.59097],[1.75957,50.5902],[1.75753,50.589]],[[1.75716,50.58916],[1.7589,50.59062],[1.75743,50.58945],[1.7569,50.58922],[1.75716,50.58916]]]}},{"type":"Feature","properties":{"k":"BTH","s":0.127},"geometry":{"type":"Polygon","coordinates":[[[1.75716,50.58916],[1.7569,50.58922],[1.75743,50.58945],[1.75889,50.59061],[1.75716,50.58916]]]}}]}