{"type":"FeatureCollection","features":[{"type":"Feature","properties":{"k":"PPH","s":3.194},"geometry":{"type":"Polygon","coordinates":[[[2.39109,50.23712],[2.38863,50.23767],[2.38991,50.23831],[2.39079,50.23774],[2.39268,50.23908],[2.39317,50.23884],[2.39201,50.23785],[2.39294,50.23728],[2.39204,50.23652],[2.39109,50.23712]]]}},{"type":"Feature","properties":{"k":"PPH","s":1.26},"geometry":{"type":"Polygon","coordinates":[[[2.39203,50.23649],[2.39421,50.23834],[2.39443,50.23824],[2.39423,50.23786],[2.39442,50.23763],[2.39409,50.23771],[2.39374,50.23745],[2.39393,50.23735],[2.39282,50.23618],[2.39203,50.23649]]]}},{"type":"Feature","properties":{"k":"ORH","s":0.85},"geometry":{"type":"Polygon","coordinates":[[[2.3919,50.23611],[2.39214,50.2364],[2.39418,50.23583],[2.39327,50.23532],[2.39278,50.23547],[2.3919,50.23611]]]}},{"type":"Feature","properties":{"k":"PPH","s":0.813},"geometry":{"type":"Polygon","coordinates":[[[2.39992,50.23551],[2.399,50.23655],[2.39982,50.23675],[2.4007,50.23584],[2.39992,50.23551]]]}},{"type":"Feature","properties":{"k":"PPH","s":1.817},"geometry":{"type":"Polygon","coordinates":[[[2.39727,50.2363],[2.39734,50.23694],[2.3963,50.23698],[2.39632,50.23727],[2.39866,50.23723],[2.39867,50.23766],[2.39921,50.23766],[2.40014,50.2369],[2.39727,50.2363]]]}},{"type":"Feature","properties":{"k":"PPH","s":0.116},"geometry":{"type":"Polygon","coordinates":[[[2.39903,50.23817],[2.39923,50.23766],[2.3988,50.23767],[2.39903,50.23817]]]}},{"type":"Feature","properties":{"k":"PPH","s":2.312},"geometry":{"type":"Polygon","coordinates":[[[2.3993,50.23764],[2.39909,50.23809],[2.39919,50.23851],[2.40163,50.2384],[2.40131,50.23798],[2.40135,50.23768],[2.40177,50.23744],[2.40018,50.23695],[2.3993,50.23764]]]}},{"type":"Feature","properties":{"k":"MIS","s":0.794},"geometry":{"type":"Polygon","coordinates":[[[2.40171,50.23878],[2.40192,50.23878],[2.40163,50.2384],[2.39915,50.23852],[2.39926,50.23891],[2.40171,50.23878]]]}},{"type":"Feature","properties":{"k":"PPH","s":1.205},"geometry":{"type":"Polygon","coordinates":[[[2.39919,50.23895],[2.39897,50.23818],[2.39774,50.23827],[2.39783,50.23854],[2.3967,50.23862],[2.3971,50.23913],[2.39919,50.23895]]]}},{"type":"Feature","properties":{"k":"PPH","s":0.688},"geometry":{"type":"Polygon","coordinates":[[[2.39702,50.23915],[2.39661,50.23864],[2.3958,50.23881],[2.39571,50.23862],[2.39524,50.23874],[2.39562,50.23943],[2.39702,50.23915]]]}},{"type":"Feature","properties":{"k":"BTH","s":16.02},"geometry":{"type":"Polygon","coordinates":[[[2.4007,50.23585],[2.39984,50.23673],[2.40096,50.23699],[2.40252,50.23758],[2.40492,50.23764],[2.40525,50.23396],[2.40408,50.23409],[2.40355,50.23389],[2.40172,50.23246],[2.3992,50.2352],[2.4007,50.23585]]]}},{"type":"Feature","properties":{"k":"BTH","s":4.986},"geometry":{"type":"Polygon","coordinates":[[[2.39944,50.22993],[2.39852,50.22923],[2.3987,50.22905],[2.39815,50.22856],[2.39624,50.22988],[2.39609,50.23252],[2.39944,50.22993]]]}},{"type":"Feature","properties":{"k":"ORH","s":1.317},"geometry":{"type":"Polygon","coordinates":[[[2.39624,50.22988],[2.39814,50.22856],[2.39727,50.22792],[2.39652,50.22855],[2.39624,50.22988]]]}},{"type":"Feature","properties":{"k":"PTR","s":0.1},"geometry":{"type":"Polygon","coordinates":[[[2.39565,50.22842],[2.39636,50.22854],[2.39639,50.22837],[2.39607,50.22823],[2.39565,50.22842]]]}},{"type":"Feature","properties":{"k":"BTN","s":0.437},"geometry":{"type":"Polygon","coordinates":[[[2.39517,50.22887],[2.39625,50.22917],[2.39636,50.22854],[2.39565,50.22842],[2.39517,50.22887]]]}},{"type":"Feature","properties":{"k":"PPH","s":0.892},"geometry":{"type":"Polygon","coordinates":[[[2.39561,50.23269],[2.39543,50.23294],[2.39596,50.2331],[2.39595,50.23106],[2.395,50.23244],[2.39561,50.23269]]]}},{"type":"Feature","properties":{"k":"PPH","s":0.396},"geometry":{"type":"Polygon","coordinates":[[[2.39561,50.23269],[2.3953,50.23256],[2.39486,50.2332],[2.3957,50.23351],[2.39596,50.2331],[2.39543,50.23294],[2.39561,50.23269]]]}},{"type":"Feature","properties":{"k":"PPH","s":1.673},"geometry":{"type":"Polygon","coordinates":[[[2.39576,50.23359],[2.39679,50.23402],[2.39703,50.23383],[2.39669,50.23365],[2.39774,50.23263],[2.39698,50.2323],[2.39754,50.23178],[2.39726,50.23164],[2.39612,50.23255],[2.39605,50.23319],[2.39576,50.23359]]]}},{"type":"Feature","properties":{"k":"PPH","s":1.376},"geometry":{"type":"Polygon","coordinates":[[[2.39727,50.23164],[2.39857,50.23225],[2.39964,50.23144],[2.3984,50.2308],[2.39727,50.23164]]]}},{"type":"Feature","properties":{"k":"PPH","s":3.438},"geometry":{"type":"Polygon","coordinates":[[[2.39754,50.23179],[2.39699,50.23229],[2.39775,50.23262],[2.39669,50.23365],[2.39703,50.23383],[2.39681,50.23404],[2.39939,50.23277],[2.40089,50.23177],[2.40021,50.23101],[2.39857,50.23226],[2.39754,50.23179]]]}},{"type":"Feature","properties":{"k":"PPH","s":1.095},"geometry":{"type":"Polygon","coordinates":[[[2.39918,50.23381],[2.39824,50.23338],[2.39699,50.234],[2.3983,50.23463],[2.39918,50.23381]]]}},{"type":"Feature","properties":{"k":"PPH","s":0.434},"geometry":{"type":"Polygon","coordinates":[[[2.39828,50.23336],[2.39918,50.23381],[2.39964,50.23333],[2.39897,50.23303],[2.39828,50.23336]]]}},{"type":"Feature","properties":{"k":"PPH","s":4.133},"geometry":{"type":"Polygon","coordinates":[[[2.398,50.23535],[2.39868,50.2356],[2.40171,50.23245],[2.40091,50.23181],[2.39902,50.23302],[2.39964,50.23333],[2.39685,50.23608],[2.39717,50.23614],[2.398,50.23535]]]}},{"type":"Feature","properties":{"k":"PPH","s":1.539},"geometry":{"type":"Polygon","coordinates":[[[2.39688,50.2354],[2.39741,50.23477],[2.39794,50.23499],[2.39817,50.23475],[2.39678,50.23412],[2.39492,50.23492],[2.39688,50.2354]]]}},{"type":"Feature","properties":{"k":"PPH","s":1.098},"geometry":{"type":"Polygon","coordinates":[[[2.39393,50.23374],[2.3944,50.23388],[2.3953,50.23256],[2.395,50.23244],[2.3951,50.23224],[2.39477,50.23212],[2.39388,50.23343],[2.39357,50.23328],[2.39322,50.23374],[2.3935,50.23384],[2.39393,50.23374]]]}},{"type":"Feature","properties":{"k":"CZH","s":9.583},"geometry":{"type":"Polygon","coordinates":[[[2.38845,50.23322],[2.38942,50.23283],[2.38991,50.2336],[2.39191,50.23306],[2.39117,50.23061],[2.39042,50.22979],[2.38675,50.23085],[2.38845,50.23322]]]}},{"type":"Feature","properties":{"k":"CZH","s":2.588},"geometry":{"type":"Polygon","coordinates":[[[2.39238,50.23432],[2.39191,50.23307],[2.38994,50.2336],[2.39105,50.23551],[2.39174,50.23536],[2.39144,50.235],[2.39203,50.23468],[2.3919,50.23447],[2.39238,50.23432]],[[2.39183,50.23431],[2.39178,50.23432],[2.39174,50.23426],[2.39183,50.23431]]]}},{"type":"Feature","properties":{"k":"PPH","s":0.257},"geometry":{"type":"Polygon","coordinates":[[[2.38776,50.23541],[2.38816,50.23524],[2.38745,50.23463],[2.38716,50.23479],[2.38776,50.23541]]]}},{"type":"Feature","properties":{"k":"BTH","s":0.519},"geometry":{"type":"Polygon","coordinates":[[[2.38789,50.2349],[2.38892,50.23436],[2.38865,50.234],[2.38737,50.23446],[2.38789,50.2349]]]}},{"type":"Feature","properties":{"k":"PPH","s":3.814},"geometry":{"type":"Polygon","coordinates":[[[2.38788,50.23246],[2.38542,50.23313],[2.38733,50.23447],[2.38897,50.23387],[2.38918,50.23415],[2.39,50.23372],[2.38941,50.23285],[2.38846,50.23323],[2.38788,50.23246]]]}},{"type":"Feature","properties":{"k":"BTH","s":3.345},"geometry":{"type":"Polygon","coordinates":[[[2.38579,50.23347],[2.38497,50.23291],[2.38104,50.23538],[2.38195,50.23587],[2.38579,50.23347]]]}},{"type":"Feature","properties":{"k":"BTH","s":1.389},"geometry":{"type":"Polygon","coordinates":[[[2.38495,50.23292],[2.38463,50.23268],[2.38065,50.23514],[2.38104,50.23538],[2.38495,50.23292]]]}},{"type":"Feature","properties":{"k":"CZH","s":3.625},"geometry":{"type":"Polygon","coordinates":[[[2.3797,50.23462],[2.38065,50.23514],[2.38462,50.23271],[2.38379,50.23209],[2.3797,50.23462]]]}},{"type":"Feature","properties":{"k":"MIS","s":4.42},"geometry":{"type":"Polygon","coordinates":[[[2.3879,50.23245],[2.38674,50.23085],[2.38341,50.23176],[2.38542,50.23312],[2.3879,50.23245]]]}},{"type":"Feature","properties":{"k":"MIS","s":1.069},"geometry":{"type":"Polygon","coordinates":[[[2.38341,50.23176],[2.39011,50.22988],[2.39,50.22973],[2.38318,50.23164],[2.38341,50.23176]]]}},{"type":"Feature","properties":{"k":"PTC","s":13.348},"geometry":{"type":"Polygon","coordinates":[[[2.38593,50.22824],[2.38626,50.22814],[2.38011,50.22991],[2.38335,50.23149],[2.38317,50.23163],[2.38999,50.22973],[2.38962,50.22939],[2.38593,50.22824]]]}},{"type":"Feature","properties":{"k":"BTH","s":0.666},"geometry":{"type":"Polygon","coordinates":[[[2.38612,50.22798],[2.38772,50.22767],[2.38775,50.22727],[2.38526,50.22771],[2.38612,50.22798]]]}},{"type":"Feature","properties":{"k":"AVP","s":0.753},"geometry":{"type":"Polygon","coordinates":[[[2.38898,50.2291],[2.38962,50.22939],[2.39011,50.22988],[2.39042,50.22979],[2.38925,50.22898],[2.38629,50.22814],[2.38593,50.22824],[2.38898,50.2291]]]}},{"type":"Feature","properties":{"k":"BTH","s":2.794},"geometry":{"type":"Polygon","coordinates":[[[2.3898,50.22737],[2.38625,50.228],[2.38816,50.22857],[2.39145,50.22794],[2.39169,50.22766],[2.3898,50.22737]]]}},{"type":"Feature","properties":{"k":"PPH","s":2.759},"geometry":{"type":"Polygon","coordinates":[[[2.39271,50.22763],[2.39238,50.22739],[2.39206,50.22735],[2.39148,50.22795],[2.38815,50.22857],[2.38966,50.22905],[2.39049,50.22968],[2.39271,50.22763]]]}},{"type":"Feature","properties":{"k":"BTH","s":13.409},"geometry":{"type":"Polygon","coordinates":[[[2.39632,50.22896],[2.39625,50.22917],[2.39517,50.22887],[2.39568,50.22839],[2.39496,50.22776],[2.3914,50.23077],[2.39194,50.23258],[2.39239,50.23399],[2.39317,50.23381],[2.39357,50.23328],[2.39388,50.23343],[2.39477,50.23213],[2.39508,50.23216],[2.39611,50.23089],[2.39632,50.22896]]]}},{"type":"Feature","properties":{"k":"MIS","s":2.018},"geometry":{"type":"Polygon","coordinates":[[[2.39139,50.23078],[2.39496,50.22776],[2.39454,50.22739],[2.3911,50.2303],[2.39139,50.23078]]]}},{"type":"Feature","properties":{"k":"ORH","s":2.731},"geometry":{"type":"Polygon","coordinates":[[[2.39437,50.22724],[2.39414,50.22704],[2.39307,50.22704],[2.3924,50.22738],[2.39274,50.22763],[2.39051,50.22969],[2.39098,50.23015],[2.39437,50.22724]]]}},{"type":"Feature","properties":{"k":"PTR","s":0.679},"geometry":{"type":"Polygon","coordinates":[[[2.39098,50.23016],[2.3911,50.2303],[2.39454,50.22739],[2.39437,50.22724],[2.39098,50.23016]]]}},{"type":"Feature","properties":{"k":"JAC","s":0.09},"geometry":{"type":"Polygon","coordinates":[[[2.38876,50.22504],[2.38879,50.22475],[2.38803,50.22488],[2.38876,50.22504]]]}},{"type":"Feature","properties":{"k":"BTH","s":2.666},"geometry":{"type":"Polygon","coordinates":[[[2.38986,50.22725],[2.3901,50.22529],[2.38867,50.22502],[2.38838,50.22756],[2.38986,50.22725]]]}},{"type":"Feature","properties":{"k":"BTH","s":1.919},"geometry":{"type":"Polygon","coordinates":[[[2.39232,50.22699],[2.3925,50.22658],[2.39239,50.22595],[2.39018,50.22551],[2.39013,50.22654],[2.39232,50.22699]]]}},{"type":"Feature","properties":{"k":"ORH","s":0.517},"geometry":{"type":"Polygon","coordinates":[[[2.39199,50.22739],[2.38998,50.22696],[2.38994,50.22731],[2.3917,50.22767],[2.39199,50.22739]]]}},{"type":"Feature","properties":{"k":"BTH","s":1.361},"geometry":{"type":"Polygon","coordinates":[[[2.38803,50.2249],[2.38772,50.22767],[2.38835,50.22756],[2.38866,50.22503],[2.38803,50.2249]]]}},{"type":"Feature","properties":{"k":"BTH","s":6.29},"geometry":{"type":"Polygon","coordinates":[[[2.38774,50.22727],[2.38797,50.22531],[2.3826,50.22623],[2.38346,50.22691],[2.38518,50.22768],[2.38774,50.22727]]]}},{"type":"Feature","properties":{"k":"BTN","s":1.004},"geometry":{"type":"Polygon","coordinates":[[[2.38259,50.22622],[2.38521,50.22578],[2.38528,50.22533],[2.38217,50.22586],[2.38259,50.22622]]]}},{"type":"Feature","properties":{"k":"PPH","s":0.922},"geometry":{"type":"Polygon","coordinates":[[[2.3853,50.22533],[2.38524,50.22578],[2.38797,50.22531],[2.38803,50.22488],[2.3853,50.22533]]]}},{"type":"Feature","properties":{"k":"PPH","s":0.227},"geometry":{"type":"Polygon","coordinates":[[[2.39621,50.23714],[2.3951,50.23722],[2.39515,50.23737],[2.3956,50.23734],[2.39563,50.23751],[2.39625,50.23748],[2.39621,50.23714]]]}},{"type":"Feature","properties":{"k":"PPH","s":0.803},"geometry":{"type":"Polygon","coordinates":[[[2.39348,50.23943],[2.39367,50.23969],[2.3956,50.23941],[2.39521,50.23875],[2.39348,50.23943]]]}},{"type":"Feature","properties":{"k":"PPH","s":0.784},"geometry":{"type":"Polygon","coordinates":[[[2.39624,50.23926],[2.39593,50.24003],[2.39761,50.24],[2.39707,50.23916],[2.39624,50.23926]]]}},{"type":"Feature","properties":{"k":"PPH","s":2.001},"geometry":{"type":"Polygon","coordinates":[[[2.39274,50.24571],[2.39391,50.24568],[2.39115,50.24335],[2.3904,50.24366],[2.39274,50.24571]]]}},{"type":"Feature","properties":{"k":"PPH","s":1.52},"geometry":{"type":"Polygon","coordinates":[[[2.39269,50.24566],[2.39039,50.24366],[2.39013,50.24371],[2.39015,50.24383],[2.3912,50.24577],[2.39269,50.24566]]]}},{"type":"Feature","properties":{"k":"PPH","s":2.908},"geometry":{"type":"Polygon","coordinates":[[[2.39164,50.24164],[2.39215,50.24188],[2.39191,50.2421],[2.39112,50.24183],[2.39099,50.24196],[2.39022,50.24159],[2.39017,50.24172],[2.39058,50.2419],[2.39036,50.24225],[2.39214,50.24295],[2.39405,50.24245],[2.39456,50.24201],[2.39341,50.24155],[2.39315,50.24179],[2.39182,50.24116],[2.39164,50.24135],[2.39186,50.24144],[2.39164,50.24164]]]}},{"type":"Feature","properties":{"k":"PPH","s":1.795},"geometry":{"type":"Polygon","coordinates":[[[2.39186,50.24093],[2.39456,50.24201],[2.39518,50.2414],[2.39325,50.24071],[2.39299,50.24088],[2.39261,50.24075],[2.39288,50.24044],[2.39235,50.24017],[2.39186,50.24093]]]}},{"type":"Feature","properties":{"k":"PPH","s":1.02},"geometry":{"type":"Polygon","coordinates":[[[2.38902,50.24011],[2.38932,50.24011],[2.38961,50.23979],[2.38733,50.23879],[2.38718,50.23942],[2.38835,50.23973],[2.38902,50.24011]]]}},{"type":"Feature","properties":{"k":"PPH","s":2.414},"geometry":{"type":"Polygon","coordinates":[[[2.38852,50.24079],[2.38847,50.2413],[2.38902,50.24132],[2.38938,50.24086],[2.38867,50.24068],[2.38918,50.24016],[2.39004,50.2404],[2.39046,50.24011],[2.38961,50.23981],[2.38929,50.24016],[2.3871,50.23942],[2.38627,50.24006],[2.38598,50.24057],[2.38628,50.2407],[2.38698,50.24026],[2.38781,50.24062],[2.38811,50.24051],[2.38852,50.24079]]]}},{"type":"Feature","properties":{"k":"PPH","s":0.876},"geometry":{"type":"Polygon","coordinates":[[[2.38736,50.24219],[2.38818,50.24241],[2.38846,50.24219],[2.38915,50.24231],[2.38957,50.24146],[2.38913,50.24144],[2.38905,50.24183],[2.38799,50.2418],[2.38779,50.24158],[2.38758,50.24167],[2.38747,50.24154],[2.38728,50.24164],[2.38767,50.24191],[2.38736,50.24219]]]}},{"type":"Feature","properties":{"k":"PPH","s":1.291},"geometry":{"type":"Polygon","coordinates":[[[2.38722,50.24088],[2.38743,50.24104],[2.38729,50.24113],[2.3877,50.24115],[2.38762,50.2407],[2.38785,50.24067],[2.38691,50.2403],[2.38632,50.24072],[2.38593,50.24053],[2.38543,50.24109],[2.38698,50.24169],[2.38734,50.24149],[2.38686,50.24128],[2.38708,50.24112],[2.38693,50.24098],[2.38722,50.24088]]]}},{"type":"Feature","properties":{"k":"PPH","s":2.688},"geometry":{"type":"Polygon","coordinates":[[[2.38287,50.24354],[2.38344,50.24322],[2.38407,50.24318],[2.3842,50.24285],[2.38386,50.24278],[2.38403,50.2426],[2.38286,50.24204],[2.38429,50.241],[2.38438,50.24067],[2.3841,50.24058],[2.38232,50.24177],[2.38164,50.24286],[2.38287,50.24354]]]}},{"type":"Feature","properties":{"k":"MIS","s":2.793},"geometry":{"type":"Polygon","coordinates":[[[2.38243,50.24001],[2.38076,50.24238],[2.38164,50.24286],[2.38232,50.24177],[2.3841,50.24058],[2.38243,50.24001]]]}},{"type":"Feature","properties":{"k":"PPH","s":1.642},"geometry":{"type":"Polygon","coordinates":[[[2.38407,50.24261],[2.38428,50.24242],[2.38486,50.24255],[2.38545,50.24202],[2.38496,50.24181],[2.38429,50.241],[2.38287,50.24204],[2.38407,50.24261]]]}},{"type":"Feature","properties":{"k":"PTR","s":1.224},"geometry":{"type":"Polygon","coordinates":[[[2.38373,50.24043],[2.38438,50.24059],[2.38418,50.24005],[2.3815,50.2391],[2.38122,50.23951],[2.38373,50.24043]]]}},{"type":"Feature","properties":{"k":"CZH","s":1.746},"geometry":{"type":"Polygon","coordinates":[[[2.38385,50.23914],[2.38349,50.23911],[2.38221,50.23809],[2.38151,50.2391],[2.38418,50.24005],[2.38385,50.23914]]]}},{"type":"Feature","properties":{"k":"PPH","s":4.028},"geometry":{"type":"Polygon","coordinates":[[[2.38447,50.24058],[2.3844,50.24106],[2.38489,50.24164],[2.38621,50.24001],[2.38704,50.23939],[2.38718,50.23905],[2.3858,50.23854],[2.3852,50.23921],[2.38375,50.23869],[2.38447,50.24058]]]}},{"type":"Feature","properties":{"k":"PPH","s":0.62},"geometry":{"type":"Polygon","coordinates":[[[2.38735,50.23871],[2.38839,50.23914],[2.38894,50.23871],[2.38791,50.23818],[2.38735,50.23871]]]}},{"type":"Feature","properties":{"k":"BTH","s":3.78},"geometry":{"type":"Polygon","coordinates":[[[2.38426,50.23722],[2.38728,50.23866],[2.38855,50.23759],[2.38669,50.23638],[2.38426,50.23722]]]}},{"type":"Feature","properties":{"k":"MIS","s":0.227},"geometry":{"type":"Polygon","coordinates":[[[2.38549,50.254],[2.38545,50.25422],[2.388,50.25454],[2.38549,50.254]]]}},{"type":"Feature","properties":{"k":"PPH","s":3.285},"geometry":{"type":"Polygon","coordinates":[[[2.38819,50.25456],[2.38857,50.25353],[2.38901,50.25337],[2.38882,50.25262],[2.38701,50.25253],[2.38687,50.2536],[2.38556,50.25341],[2.38549,50.254],[2.38819,50.25456]]]}},{"type":"Feature","properties":{"k":"BTH","s":5.334},"geometry":{"type":"Polygon","coordinates":[[[2.38339,50.25178],[2.38343,50.25165],[2.38236,50.25151],[2.38207,50.25308],[2.38557,50.25333],[2.38683,50.25357],[2.387,50.25209],[2.38589,50.25198],[2.38585,50.2521],[2.38339,50.25178]]]}},{"type":"Feature","properties":{"k":"MIS","s":4.787},"geometry":{"type":"Polygon","coordinates":[[[2.38235,50.25147],[2.38637,50.25202],[2.38664,50.25056],[2.38256,50.25003],[2.38235,50.25147]]]}},{"type":"Feature","properties":{"k":"PPH","s":1.412},"geometry":{"type":"Polygon","coordinates":[[[2.38803,50.25208],[2.38781,50.25041],[2.38736,50.25038],[2.38744,50.25204],[2.38701,50.25202],[2.38698,50.25253],[2.38882,50.25262],[2.38866,50.25209],[2.38803,50.25208]]]}},{"type":"Feature","properties":{"k":"PPH","s":1.158},"geometry":{"type":"Polygon","coordinates":[[[2.38736,50.25037],[2.38669,50.25032],[2.38636,50.252],[2.38744,50.25204],[2.38736,50.25037]]]}},{"type":"Feature","properties":{"k":"MLG","s":0.679},"geometry":{"type":"Polygon","coordinates":[[[2.38826,50.25042],[2.3878,50.25041],[2.38803,50.25208],[2.38864,50.25209],[2.38826,50.25042]]]}},{"type":"Feature","properties":{"k":"PPH","s":2.009},"geometry":{"type":"Polygon","coordinates":[[[2.38837,50.25041],[2.38895,50.25259],[2.38981,50.25252],[2.38928,50.25077],[2.38922,50.2497],[2.38853,50.24971],[2.38837,50.25041]]]}},{"type":"Feature","properties":{"k":"PPH","s":0.654},"geometry":{"type":"MultiPolygon","coordinates":[[[[2.38898,50.25304],[2.38911,50.25338],[2.3898,50.25255],[2.38895,50.25262],[2.38898,50.25304]]],[[[2.38868,50.25347],[2.38827,50.25457],[2.38852,50.2546],[2.38904,50.2542],[2.38865,50.25384],[2.389,50.25349],[2.38868,50.25347]]]]}},{"type":"Feature","properties":{"k":"PHF","s":1.797},"geometry":{"type":"Polygon","coordinates":[[[2.40584,50.24448],[2.40629,50.24216],[2.40527,50.24211],[2.40491,50.24436],[2.40584,50.24448]]]}},{"type":"Feature","properties":{"k":"AVP","s":0.621},"geometry":{"type":"Polygon","coordinates":[[[2.40476,50.24434],[2.40514,50.24211],[2.40482,50.24209],[2.40441,50.24429],[2.40476,50.24434]]]}},{"type":"Feature","properties":{"k":"PHF","s":0.215},"geometry":{"type":"Polygon","coordinates":[[[2.4048,50.24435],[2.40491,50.24436],[2.40527,50.24211],[2.4048,50.24435]]]}},{"type":"Feature","properties":{"k":"BTN","s":2.249},"geometry":{"type":"Polygon","coordinates":[[[2.40321,50.24426],[2.40374,50.2446],[2.40392,50.24424],[2.40441,50.24429],[2.40479,50.24208],[2.40356,50.24203],[2.40321,50.24426]]]}},{"type":"Feature","properties":{"k":"MIS","s":0.004},"geometry":{"type":"MultiPolygon","coordinates":[[[[2.40583,50.24453],[2.40583,50.24451],[2.40538,50.24446],[2.40583,50.24453]]]]}},{"type":"Feature","properties":{"k":"MIS","s":0.344},"geometry":{"type":"Polygon","coordinates":[[[2.4031,50.2443],[2.40283,50.24513],[2.40339,50.24526],[2.40357,50.24461],[2.4031,50.2443]]]}},{"type":"Feature","properties":{"k":"MIS","s":0.361},"geometry":{"type":"Polygon","coordinates":[[[2.40237,50.24503],[2.40283,50.24513],[2.4031,50.2443],[2.40269,50.24403],[2.40237,50.24503]]]}},{"type":"Feature","properties":{"k":"ORH","s":1.388},"geometry":{"type":"Polygon","coordinates":[[[2.40241,50.24374],[2.40321,50.24426],[2.40356,50.24203],[2.40267,50.242],[2.40241,50.24374]]]}},{"type":"Feature","properties":{"k":"ORH","s":3.39},"geometry":{"type":"MultiPolygon","coordinates":[[[[2.40339,50.24526],[2.40351,50.24529],[2.40371,50.24468],[2.40357,50.24461],[2.40339,50.24526]]],[[[2.40266,50.24402],[2.39992,50.24299],[2.39866,50.24507],[2.39951,50.2443],[2.40237,50.24503],[2.40266,50.24402]]]]}},{"type":"Feature","properties":{"k":"BTH","s":3.678},"geometry":{"type":"Polygon","coordinates":[[[2.398,50.24237],[2.39728,50.24293],[2.39656,50.24278],[2.39737,50.24399],[2.39856,50.24515],[2.39991,50.24297],[2.398,50.24237]]]}},{"type":"Feature","properties":{"k":"PPH","s":9.57},"geometry":{"type":"Polygon","coordinates":[[[2.39825,50.24497],[2.39812,50.24477],[2.39735,50.2441],[2.39684,50.24424],[2.396,50.24319],[2.39659,50.24301],[2.39626,50.24206],[2.39583,50.24234],[2.39396,50.24253],[2.39198,50.24306],[2.39513,50.24584],[2.39597,50.24596],[2.39825,50.24497]]]}},{"type":"Feature","properties":{"k":"BTH","s":2.643},"geometry":{"type":"MultiPolygon","coordinates":[[[[2.39835,50.24498],[2.39603,50.24594],[2.39804,50.24527],[2.39839,50.24531],[2.39854,50.24518],[2.39835,50.24498]]],[[[2.39194,50.24306],[2.39113,50.24333],[2.39391,50.2457],[2.39337,50.24567],[2.3934,50.24579],[2.39596,50.24596],[2.39514,50.24585],[2.39194,50.24306]]]]}},{"type":"Feature","properties":{"k":"AVP","s":0.586},"geometry":{"type":"Polygon","coordinates":[[[2.38812,50.24738],[2.38921,50.24756],[2.38947,50.24694],[2.38827,50.24678],[2.38812,50.24738]]]}},{"type":"Feature","properties":{"k":"PPH","s":0.635},"geometry":{"type":"Polygon","coordinates":[[[2.38896,50.24824],[2.38922,50.24757],[2.38809,50.24739],[2.38783,50.24796],[2.38896,50.24824]]]}},{"type":"Feature","properties":{"k":"PPH","s":0.826},"geometry":{"type":"Polygon","coordinates":[[[2.38726,50.24903],[2.38851,50.24926],[2.38888,50.24845],[2.38771,50.24822],[2.38726,50.24903]]]}},{"type":"Feature","properties":{"k":"PPH","s":0.926},"geometry":{"type":"Polygon","coordinates":[[[2.38671,50.25031],[2.38825,50.25039],[2.38844,50.2497],[2.38695,50.24949],[2.38671,50.25031]]]}},{"type":"Feature","properties":{"k":"PPH","s":0.575},"geometry":{"type":"Polygon","coordinates":[[[2.38852,50.24926],[2.38704,50.24898],[2.38691,50.24948],[2.38844,50.24969],[2.38852,50.24926]]]}},{"type":"Feature","properties":{"k":"PTC","s":3.456},"geometry":{"type":"Polygon","coordinates":[[[2.38256,50.25003],[2.3866,50.25056],[2.3869,50.24951],[2.38277,50.24901],[2.38256,50.25003]]]}},{"type":"Feature","properties":{"k":"CZH","s":2.631},"geometry":{"type":"Polygon","coordinates":[[[2.38334,50.2475],[2.38776,50.24809],[2.38805,50.24737],[2.38403,50.24682],[2.38376,50.24692],[2.38334,50.2475]]]}},{"type":"Feature","properties":{"k":"MIS","s":5.349},"geometry":{"type":"Polygon","coordinates":[[[2.38704,50.24898],[2.38726,50.24901],[2.38776,50.24809],[2.38334,50.2475],[2.38275,50.24901],[2.3869,50.24951],[2.38704,50.24898]]]}},{"type":"Feature","properties":{"k":"CZH","s":4.358},"geometry":{"type":"Polygon","coordinates":[[[2.3848,50.24585],[2.38386,50.2468],[2.38809,50.24736],[2.38842,50.24623],[2.38969,50.24647],[2.38983,50.24603],[2.38866,50.24576],[2.38887,50.24525],[2.38847,50.24499],[2.38782,50.24627],[2.3848,50.24585]]]}},{"type":"Feature","properties":{"k":"PPH","s":2.963},"geometry":{"type":"Polygon","coordinates":[[[2.38538,50.24491],[2.3848,50.24585],[2.38782,50.24627],[2.38845,50.245],[2.38814,50.24491],[2.38815,50.24478],[2.3871,50.24454],[2.38689,50.24511],[2.38538,50.24491]]]}},{"type":"Feature","properties":{"k":"CZH","s":3.046},"geometry":{"type":"Polygon","coordinates":[[[2.38458,50.24598],[2.3809,50.2453],[2.37994,50.24618],[2.38373,50.24685],[2.38458,50.24598]]]}},{"type":"Feature","properties":{"k":"MIS","s":1.582},"geometry":{"type":"Polygon","coordinates":[[[2.38458,50.24598],[2.38498,50.24551],[2.3813,50.24483],[2.38092,50.24531],[2.38458,50.24598]]]}},{"type":"Feature","properties":{"k":"PPH","s":0.445},"geometry":{"type":"Polygon","coordinates":[[[2.38534,50.24478],[2.38546,50.24443],[2.38416,50.24387],[2.38386,50.24415],[2.38534,50.24478]]]}},{"type":"Feature","properties":{"k":"MIS","s":0.626},"geometry":{"type":"Polygon","coordinates":[[[2.38415,50.24386],[2.38544,50.24441],[2.38551,50.24393],[2.3841,50.24339],[2.38368,50.24376],[2.38415,50.24386]]]}},{"type":"Feature","properties":{"k":"PTC","s":3.022},"geometry":{"type":"Polygon","coordinates":[[[2.38279,50.24372],[2.3813,50.24483],[2.38498,50.24551],[2.38533,50.24478],[2.38279,50.24372]]]}},{"type":"Feature","properties":{"k":"MIS","s":0.096},"geometry":{"type":"Polygon","coordinates":[[[2.38182,50.24409],[2.38143,50.24437],[2.3825,50.24377],[2.3824,50.24371],[2.38182,50.24409]]]}},{"type":"Feature","properties":{"k":"PPH","s":0.457},"geometry":{"type":"Polygon","coordinates":[[[2.38386,50.24415],[2.38407,50.24393],[2.38367,50.24375],[2.38409,50.2434],[2.38352,50.24334],[2.38279,50.24372],[2.38386,50.24415]]]}},{"type":"Feature","properties":{"k":"PPH","s":0.654},"geometry":{"type":"Polygon","coordinates":[[[2.38509,50.24311],[2.38389,50.24332],[2.38549,50.24392],[2.38571,50.24278],[2.38509,50.24311]]]}},{"type":"Feature","properties":{"k":"PPH","s":0.164},"geometry":{"type":"Polygon","coordinates":[[[2.38421,50.24283],[2.38408,50.24318],[2.38507,50.24301],[2.38421,50.24283]]]}},{"type":"Feature","properties":{"k":"BTH","s":4.252},"geometry":{"type":"Polygon","coordinates":[[[2.38714,50.24391],[2.38733,50.24302],[2.38582,50.2428],[2.3854,50.24491],[2.38689,50.2451],[2.38708,50.24452],[2.38814,50.24474],[2.38823,50.24462],[2.38988,50.24508],[2.3895,50.24396],[2.38714,50.24391]]]}},{"type":"Feature","properties":{"k":"PPH","s":0.65},"geometry":{"type":"Polygon","coordinates":[[[2.38734,50.24305],[2.38716,50.2439],[2.38815,50.24394],[2.38833,50.24316],[2.38734,50.24305]]]}},{"type":"Feature","properties":{"k":"PPH","s":1.228},"geometry":{"type":"Polygon","coordinates":[[[2.39211,50.24295],[2.39,50.24208],[2.38989,50.2423],[2.39052,50.24259],[2.39035,50.24276],[2.38978,50.24249],[2.38965,50.2427],[2.39029,50.243],[2.39044,50.24288],[2.39088,50.24328],[2.39069,50.24338],[2.39052,50.2433],[2.39021,50.2434],[2.38948,50.24297],[2.38938,50.24328],[2.39015,50.24367],[2.3903,50.24362],[2.39015,50.24346],[2.39042,50.24336],[2.39056,50.24351],[2.39211,50.24295]]]}},{"type":"Feature","properties":{"k":"PPH","s":1.479},"geometry":{"type":"Polygon","coordinates":[[[2.38941,50.24335],[2.39002,50.24504],[2.38996,50.24603],[2.39119,50.24578],[2.39012,50.24379],[2.38941,50.24335]]]}},{"type":"Feature","properties":{"k":"PPH","s":0.504},"geometry":{"type":"Polygon","coordinates":[[[2.3858,50.23853],[2.38718,50.23903],[2.38726,50.23876],[2.38555,50.23802],[2.3853,50.23827],[2.3858,50.23853]]]}},{"type":"Feature","properties":{"k":"MIS","s":1.262},"geometry":{"type":"Polygon","coordinates":[[[2.38518,50.23918],[2.38581,50.2385],[2.38381,50.23775],[2.38376,50.23867],[2.38518,50.23918]]]}},{"type":"Feature","properties":{"k":"PPH","s":0.533},"geometry":{"type":"Polygon","coordinates":[[[2.38826,50.24677],[2.38947,50.24693],[2.38969,50.24647],[2.38842,50.24623],[2.38826,50.24677]]]}},{"type":"Feature","properties":{"k":"PPH","s":0.997},"geometry":{"type":"Polygon","coordinates":[[[2.38264,50.23826],[2.38349,50.23911],[2.38374,50.23895],[2.38371,50.23772],[2.38395,50.23724],[2.38337,50.23724],[2.38264,50.23826]]]}},{"type":"Feature","properties":{"k":"LIF","s":0.637},"geometry":{"type":"Polygon","coordinates":[[[2.38261,50.23827],[2.38336,50.23725],[2.38233,50.23729],[2.38193,50.23797],[2.38261,50.23827]]]}},{"type":"Feature","properties":{"k":"PPH","s":0.609},"geometry":{"type":"Polygon","coordinates":[[[2.38414,50.23724],[2.38393,50.23737],[2.38384,50.23774],[2.3853,50.23827],[2.38555,50.23802],[2.38414,50.23724]]]}},{"type":"Feature","properties":{"k":"ORH","s":1.742},"geometry":{"type":"Polygon","coordinates":[[[2.38066,50.23723],[2.38404,50.23714],[2.38199,50.23597],[2.38066,50.23723]]]}},{"type":"Feature","properties":{"k":"BTH","s":9.072},"geometry":{"type":"Polygon","coordinates":[[[2.38197,50.23588],[2.38416,50.23711],[2.38743,50.23611],[2.38708,50.23579],[2.38787,50.23555],[2.38713,50.23478],[2.3874,50.23462],[2.38588,50.23352],[2.38197,50.23588]]]}},{"type":"Feature","properties":{"k":"PPH","s":0.638},"geometry":{"type":"Polygon","coordinates":[[[2.38855,50.23459],[2.38789,50.23492],[2.38874,50.23583],[2.38884,50.23586],[2.38918,50.23579],[2.3889,50.23549],[2.38926,50.23539],[2.38855,50.23459]]]}},{"type":"Feature","properties":{"k":"PPH","s":1.187},"geometry":{"type":"Polygon","coordinates":[[[2.38875,50.23596],[2.38942,50.23667],[2.39017,50.23726],[2.39106,50.23706],[2.38967,50.2358],[2.38875,50.23596]]]}},{"type":"Feature","properties":{"k":"ORH","s":0.838},"geometry":{"type":"Polygon","coordinates":[[[2.39037,50.23641],[2.39109,50.23704],[2.39213,50.23639],[2.39182,50.23604],[2.39114,50.23636],[2.39038,50.23568],[2.38997,50.23573],[2.39064,50.23634],[2.39037,50.23641]]]}},{"type":"Feature","properties":{"k":"PPH","s":0.447},"geometry":{"type":"Polygon","coordinates":[[[2.38845,50.2369],[2.38827,50.2373],[2.38888,50.23669],[2.38926,50.23662],[2.38883,50.23617],[2.38808,50.23634],[2.38845,50.2369]]]}},{"type":"Feature","properties":{"k":"PPH","s":0.44},"geometry":{"type":"Polygon","coordinates":[[[2.39125,50.23908],[2.39142,50.23879],[2.39024,50.23813],[2.38989,50.23842],[2.39125,50.23908]]]}},{"type":"Feature","properties":{"k":"PPH","s":0.672},"geometry":{"type":"Polygon","coordinates":[[[2.39186,50.23903],[2.39168,50.23881],[2.39204,50.23861],[2.39079,50.23775],[2.3902,50.23811],[2.39186,50.23903]],[[2.39147,50.23862],[2.39138,50.23857],[2.39149,50.2385],[2.39147,50.23862]]]}},{"type":"Feature","properties":{"k":"PPH","s":0.305},"geometry":{"type":"Polygon","coordinates":[[[2.39577,50.24045],[2.3967,50.24047],[2.39751,50.24047],[2.39756,50.24025],[2.39587,50.24024],[2.39577,50.24045]]]}},{"type":"Feature","properties":{"k":"BTH","s":1.817},"geometry":{"type":"Polygon","coordinates":[[[2.40459,50.23776],[2.40363,50.23781],[2.40331,50.24008],[2.40432,50.24013],[2.40459,50.23776]]]}},{"type":"Feature","properties":{"k":"BTH","s":2.381},"geometry":{"type":"Polygon","coordinates":[[[2.40332,50.24009],[2.40361,50.23781],[2.4031,50.23779],[2.40285,50.23939],[2.39959,50.23951],[2.39974,50.23993],[2.40332,50.24009]]]}},{"type":"Feature","properties":{"k":"BTH","s":0.346},"geometry":{"type":"Polygon","coordinates":[[[2.40292,50.23888],[2.40293,50.23874],[2.39927,50.23891],[2.39929,50.23903],[2.40292,50.23888]]]}},{"type":"Feature","properties":{"k":"PPH","s":0.136},"geometry":{"type":"Polygon","coordinates":[[[2.39061,50.24584],[2.39046,50.24591],[2.3934,50.24579],[2.39339,50.24568],[2.39061,50.24584]]]}},{"type":"Feature","properties":{"k":"PPH","s":1.345},"geometry":{"type":"Polygon","coordinates":[[[2.40135,50.23795],[2.4019,50.23879],[2.40293,50.23874],[2.4031,50.23776],[2.40179,50.23744],[2.40138,50.23766],[2.40135,50.23795]]]}},{"type":"Feature","properties":{"k":"BTH","s":0.48},"geometry":{"type":"Polygon","coordinates":[[[2.4066,50.23769],[2.40681,50.23772],[2.4072,50.235],[2.40684,50.23509],[2.4066,50.23769]]]}},{"type":"Feature","properties":{"k":"PHF","s":4.412},"geometry":{"type":"Polygon","coordinates":[[[2.40554,50.23766],[2.40585,50.23488],[2.40558,50.23765],[2.40659,50.23769],[2.40684,50.23518],[2.40639,50.23502],[2.40674,50.23438],[2.40525,50.23398],[2.40492,50.23767],[2.40554,50.23766]]]}},{"type":"Feature","properties":{"k":"BTH","s":1.095},"geometry":{"type":"Polygon","coordinates":[[[2.4064,50.24162],[2.40643,50.24125],[2.40282,50.24109],[2.40276,50.24147],[2.4064,50.24162]]]}},{"type":"Feature","properties":{"k":"MIS","s":0.41},"geometry":{"type":"Polygon","coordinates":[[[2.4027,50.24184],[2.40632,50.242],[2.40635,50.24186],[2.40273,50.24169],[2.4027,50.24184]]]}},{"type":"Feature","properties":{"k":"MIS","s":0.43},"geometry":{"type":"Polygon","coordinates":[[[2.40629,50.24216],[2.40632,50.242],[2.40269,50.24184],[2.40267,50.24199],[2.40629,50.24216]]]}},{"type":"Feature","properties":{"k":"BTH","s":1.395},"geometry":{"type":"Polygon","coordinates":[[[2.39948,50.2395],[2.40286,50.23937],[2.40292,50.23888],[2.39929,50.23903],[2.39948,50.2395]]]}},{"type":"Feature","properties":{"k":"MIS","s":0.887},"geometry":{"type":"Polygon","coordinates":[[[2.4063,50.23777],[2.40605,50.24023],[2.40647,50.24025],[2.4068,50.23782],[2.4063,50.23777]]]}},{"type":"Feature","properties":{"k":"PHF","s":3.298},"geometry":{"type":"Polygon","coordinates":[[[2.40605,50.24023],[2.4063,50.23777],[2.40461,50.23778],[2.40433,50.24014],[2.40605,50.24023]]]}},{"type":"Feature","properties":{"k":"MIS","s":0.605},"geometry":{"type":"Polygon","coordinates":[[[2.39997,50.24176],[2.40006,50.2414],[2.39736,50.24107],[2.3972,50.24123],[2.39997,50.24176]]]}},{"type":"Feature","properties":{"k":"MIS","s":2.196},"geometry":{"type":"Polygon","coordinates":[[[2.39719,50.24124],[2.3964,50.24192],[2.39745,50.24208],[2.39909,50.24264],[2.39925,50.24244],[2.39976,50.24254],[2.39999,50.24177],[2.39719,50.24124]]]}},{"type":"Feature","properties":{"k":"PPH","s":0.427},"geometry":{"type":"Polygon","coordinates":[[[2.3975,50.24083],[2.4002,50.24089],[2.40026,50.24067],[2.39757,50.24068],[2.3975,50.24083]]]}},{"type":"Feature","properties":{"k":"BTH","s":2.999},"geometry":{"type":"Polygon","coordinates":[[[2.40026,50.24067],[2.4004,50.23997],[2.39966,50.23994],[2.39921,50.23897],[2.39712,50.23916],[2.39767,50.23995],[2.39758,50.24065],[2.40026,50.24067]]]}},{"type":"Feature","properties":{"k":"PPH","s":3.317},"geometry":{"type":"Polygon","coordinates":[[[2.39478,50.24116],[2.39621,50.24187],[2.39728,50.24104],[2.39754,50.24048],[2.39576,50.24045],[2.39619,50.23935],[2.39455,50.23957],[2.3941,50.2404],[2.39513,50.24077],[2.39478,50.24116]]]}},{"type":"Feature","properties":{"k":"ORH","s":2.831},"geometry":{"type":"Polygon","coordinates":[[[2.4029,50.24109],[2.40643,50.24125],[2.40647,50.24025],[2.40299,50.24008],[2.4029,50.24109]]]}},{"type":"Feature","properties":{"k":"PPH","s":0.864},"geometry":{"type":"Polygon","coordinates":[[[2.39568,50.24229],[2.39615,50.24196],[2.3952,50.24141],[2.39409,50.24246],[2.39568,50.24229]]]}},{"type":"Feature","properties":{"k":"MIS","s":6.767},"geometry":{"type":"Polygon","coordinates":[[[2.39976,50.24254],[2.40021,50.24264],[2.40011,50.24297],[2.40232,50.24371],[2.40292,50.24009],[2.4004,50.23996],[2.39976,50.24254]]]}},{"type":"Feature","properties":{"k":"BTH","s":2.004},"geometry":{"type":"Polygon","coordinates":[[[2.3825,50.22628],[2.37774,50.22759],[2.37845,50.22793],[2.38294,50.2267],[2.3825,50.22628]]]}},{"type":"Feature","properties":{"k":"PHF","s":2.321},"geometry":{"type":"Polygon","coordinates":[[[2.38249,50.22628],[2.38194,50.22589],[2.377,50.22721],[2.37774,50.22759],[2.38249,50.22628]]]}},{"type":"Feature","properties":{"k":"PTC","s":0.002},"geometry":{"type":"Polygon","coordinates":[]}},{"type":"Feature","properties":{"k":"BTH","s":4.157},"geometry":{"type":"Polygon","coordinates":[[[2.37458,50.22874],[2.3737,50.22933],[2.37258,50.23098],[2.37327,50.23137],[2.37358,50.23151],[2.37366,50.23156],[2.3751,50.23064],[2.37628,50.22956],[2.37458,50.22874]]]}},{"type":"Feature","properties":{"k":"MIS","s":0.947},"geometry":{"type":"Polygon","coordinates":[[[2.37671,50.22855],[2.37568,50.22805],[2.3746,50.22873],[2.37551,50.22918],[2.37671,50.22855]]]}},{"type":"Feature","properties":{"k":"MIS","s":1.353},"geometry":{"type":"Polygon","coordinates":[[[2.37661,50.22845],[2.37847,50.22794],[2.377,50.22721],[2.3757,50.22802],[2.37661,50.22845]]]}},{"type":"Feature","properties":{"k":"BTN","s":11.983},"geometry":{"type":"Polygon","coordinates":[[[2.38295,50.2267],[2.3766,50.22845],[2.37982,50.22999],[2.38626,50.22814],[2.38295,50.2267]]]}},{"type":"Feature","properties":{"k":"AVP","s":0.548},"geometry":{"type":"Polygon","coordinates":[[[2.38016,50.23016],[2.3831,50.2316],[2.38335,50.23149],[2.38011,50.22991],[2.37982,50.22999],[2.38004,50.22996],[2.38016,50.23016]]]}},{"type":"Feature","properties":{"k":"MIS","s":8.844},"geometry":{"type":"Polygon","coordinates":[[[2.37674,50.22857],[2.37551,50.22918],[2.37658,50.22969],[2.37366,50.23156],[2.3755,50.23242],[2.37731,50.23129],[2.37801,50.23164],[2.38018,50.23024],[2.37674,50.22857]]]}},{"type":"Feature","properties":{"k":"BTH","s":1.462},"geometry":{"type":"Polygon","coordinates":[[[2.37731,50.23129],[2.3755,50.23242],[2.37638,50.23289],[2.3782,50.23173],[2.37731,50.23129]]]}},{"type":"Feature","properties":{"k":"BTH","s":2.843},"geometry":{"type":"Polygon","coordinates":[[[2.38019,50.23024],[2.37638,50.23289],[2.37717,50.23316],[2.38109,50.23069],[2.38019,50.23024]]]}},{"type":"Feature","properties":{"k":"MIS","s":1.34},"geometry":{"type":"Polygon","coordinates":[[[2.38151,50.23088],[2.38111,50.23069],[2.37706,50.23325],[2.3774,50.23343],[2.38151,50.23088]]]}},{"type":"Feature","properties":{"k":"PTC","s":3.683},"geometry":{"type":"Polygon","coordinates":[[[2.37872,50.23411],[2.37969,50.23463],[2.38377,50.23208],[2.38283,50.23154],[2.37872,50.23411]]]}},{"type":"Feature","properties":{"k":"BTH","s":4.829},"geometry":{"type":"Polygon","coordinates":[[[2.37742,50.23342],[2.37871,50.23412],[2.38283,50.23154],[2.38153,50.23088],[2.37742,50.23342]]]}},{"type":"Feature","properties":{"k":"LIF","s":5.348},"geometry":{"type":"Polygon","coordinates":[[[2.37419,50.23634],[2.376,50.23686],[2.37739,50.23485],[2.37703,50.23475],[2.37711,50.23457],[2.37737,50.23425],[2.37767,50.23435],[2.37797,50.2338],[2.37645,50.233],[2.37419,50.23634]]]}},{"type":"Feature","properties":{"k":"ORH","s":6.263},"geometry":{"type":"Polygon","coordinates":[[[2.37645,50.233],[2.37482,50.23218],[2.37213,50.23609],[2.37425,50.23625],[2.37645,50.233]]]}},{"type":"Feature","properties":{"k":"BTH","s":2.822},"geometry":{"type":"Polygon","coordinates":[[[2.37248,50.23097],[2.37229,50.23122],[2.37185,50.23125],[2.37003,50.23387],[2.37108,50.23414],[2.37306,50.23133],[2.37248,50.23097]]]}},{"type":"Feature","properties":{"k":"PHF","s":1.276},"geometry":{"type":"Polygon","coordinates":[[[2.37185,50.23125],[2.37113,50.23129],[2.37091,50.23117],[2.36983,50.23282],[2.3706,50.23305],[2.37185,50.23125]]]}},{"type":"Feature","properties":{"k":"BTN","s":7.011},"geometry":{"type":"Polygon","coordinates":[[[2.37213,50.23609],[2.37482,50.23218],[2.37325,50.23143],[2.37016,50.23596],[2.37213,50.23609]]]}},{"type":"Feature","properties":{"k":"PPH","s":0.94},"geometry":{"type":"Polygon","coordinates":[[[2.36993,50.23597],[2.37013,50.23599],[2.37325,50.23143],[2.37307,50.23134],[2.36993,50.23597]]]}},{"type":"Feature","properties":{"k":"BTH","s":2.055},"geometry":{"type":"Polygon","coordinates":[[[2.3699,50.23599],[2.37116,50.23416],[2.37003,50.23387],[2.3686,50.23592],[2.3699,50.23599]]]}},{"type":"Feature","properties":{"k":"MIS","s":1.764},"geometry":{"type":"MultiPolygon","coordinates":[[[[2.36837,50.23592],[2.3686,50.23592],[2.3706,50.23305],[2.36983,50.23282],[2.3686,50.2347],[2.36837,50.23592]]]]}},{"type":"Feature","properties":{"k":"BTH","s":1.221},"geometry":{"type":"Polygon","coordinates":[[[2.36655,50.23543],[2.36003,50.2332],[2.36641,50.23586],[2.36655,50.23543]]]}},{"type":"Feature","properties":{"k":"BTH","s":2.471},"geometry":{"type":"Polygon","coordinates":[[[2.36638,50.23585],[2.35982,50.23313],[2.35659,50.23203],[2.35643,50.23209],[2.36611,50.2361],[2.36638,50.23585]]]}},{"type":"Feature","properties":{"k":"ORH","s":7.227},"geometry":{"type":"Polygon","coordinates":[[[2.35946,50.23637],[2.36134,50.23458],[2.3577,50.23306],[2.35593,50.23486],[2.35946,50.23637]]]}},{"type":"Feature","properties":{"k":"BTH","s":1.584},"geometry":{"type":"Polygon","coordinates":[[[2.3604,50.23418],[2.36075,50.23389],[2.35643,50.23209],[2.35585,50.23229],[2.3604,50.23418]]]}},{"type":"Feature","properties":{"k":"BTH","s":4.123},"geometry":{"type":"Polygon","coordinates":[[[2.35396,50.23377],[2.35373,50.23398],[2.35592,50.23484],[2.3577,50.23306],[2.35585,50.23229],[2.35523,50.23249],[2.35418,50.23356],[2.35472,50.23379],[2.35451,50.23399],[2.35396,50.23377]]]}},{"type":"Feature","properties":{"k":"BTN","s":4.764},"geometry":{"type":"Polygon","coordinates":[[[2.3502,50.23568],[2.351,50.23614],[2.35449,50.2332],[2.35506,50.23252],[2.35294,50.2326],[2.3502,50.23568]]]}},{"type":"Feature","properties":{"k":"BTH","s":2.435},"geometry":{"type":"Polygon","coordinates":[[[2.35295,50.2326],[2.35138,50.23288],[2.34961,50.23533],[2.35021,50.23567],[2.35295,50.2326]]]}},{"type":"Feature","properties":{"k":"ORH","s":2.506},"geometry":{"type":"Polygon","coordinates":[[[2.34728,50.23716],[2.34925,50.23274],[2.34859,50.23257],[2.34666,50.2368],[2.34728,50.23716]]]}},{"type":"Feature","properties":{"k":"BTN","s":1.3},"geometry":{"type":"Polygon","coordinates":[[[2.34671,50.23683],[2.34859,50.23257],[2.34822,50.23248],[2.34643,50.23666],[2.34671,50.23683]]]}},{"type":"Feature","properties":{"k":"MIS","s":2.652},"geometry":{"type":"Polygon","coordinates":[[[2.34643,50.23666],[2.34822,50.23248],[2.34751,50.23231],[2.34575,50.23626],[2.34643,50.23666]]]}},{"type":"Feature","properties":{"k":"MIS","s":3.77},"geometry":{"type":"Polygon","coordinates":[[[2.34573,50.23626],[2.3475,50.2323],[2.34638,50.23202],[2.34469,50.23585],[2.34528,50.23597],[2.34573,50.23626]]]}},{"type":"Feature","properties":{"k":"CZH","s":1.841},"geometry":{"type":"Polygon","coordinates":[[[2.34559,50.23382],[2.3444,50.23346],[2.34355,50.23506],[2.34487,50.23545],[2.34559,50.23382]]]}},{"type":"Feature","properties":{"k":"BTH","s":1.078},"geometry":{"type":"Polygon","coordinates":[[[2.34605,50.23277],[2.34494,50.23244],[2.3444,50.23346],[2.34559,50.23382],[2.34605,50.23277]]]}},{"type":"Feature","properties":{"k":"ORH","s":0.72},"geometry":{"type":"Polygon","coordinates":[[[2.34638,50.23201],[2.34532,50.23173],[2.34494,50.23244],[2.34604,50.23277],[2.34638,50.23201]]]}},{"type":"Feature","properties":{"k":"MIS","s":0.259},"geometry":{"type":"Polygon","coordinates":[[[2.34329,50.23556],[2.34465,50.23589],[2.34474,50.23571],[2.34341,50.23533],[2.34329,50.23556]]]}},{"type":"Feature","properties":{"k":"MIS","s":0.596},"geometry":{"type":"Polygon","coordinates":[[[2.3435,50.23568],[2.34327,50.23562],[2.3428,50.23751],[2.34315,50.23762],[2.34308,50.23807],[2.34323,50.2381],[2.3435,50.23568]]]}},{"type":"Feature","properties":{"k":"PHS","s":0.053},"geometry":{"type":"Polygon","coordinates":[[[2.34321,50.23813],[2.34308,50.23809],[2.34285,50.23859],[2.34321,50.23813]]]}},{"type":"Feature","properties":{"k":"PPH","s":0.005},"geometry":{"type":"Polygon","coordinates":[[[2.3425,50.2395],[2.34245,50.23965],[2.34255,50.23952],[2.3425,50.2395]]]}},{"type":"Feature","properties":{"k":"MIS","s":0.039},"geometry":{"type":"Polygon","coordinates":[[[2.34298,50.23863],[2.34285,50.23859],[2.34265,50.23891],[2.34298,50.23863]]]}},{"type":"Feature","properties":{"k":"PTC","s":0.078},"geometry":{"type":"Polygon","coordinates":[[[2.34278,50.23895],[2.34265,50.23891],[2.34227,50.23951],[2.34241,50.23955],[2.34278,50.23895]]]}},{"type":"Feature","properties":{"k":"MIS","s":1.779},"geometry":{"type":"Polygon","coordinates":[[[2.34498,50.23914],[2.3432,50.23827],[2.34249,50.23949],[2.34368,50.23999],[2.34498,50.23914]]]}},{"type":"Feature","properties":{"k":"MIS","s":0.381},"geometry":{"type":"Polygon","coordinates":[[[2.34255,50.23952],[2.34262,50.23976],[2.34475,50.24059],[2.34477,50.24044],[2.34255,50.23952]]]}},{"type":"Feature","properties":{"k":"TRE","s":3.924},"geometry":{"type":"Polygon","coordinates":[[[2.35302,50.24015],[2.35372,50.24088],[2.35771,50.2406],[2.35718,50.2392],[2.35302,50.24015]]]}},{"type":"Feature","properties":{"k":"BTH","s":1.61},"geometry":{"type":"Polygon","coordinates":[[[2.35302,50.24015],[2.35825,50.23884],[2.35777,50.23864],[2.35274,50.2398],[2.35302,50.24015]]]}},{"type":"Feature","properties":{"k":"ORH","s":2.255},"geometry":{"type":"Polygon","coordinates":[[[2.35282,50.23978],[2.35772,50.23865],[2.35679,50.23827],[2.35205,50.23936],[2.35282,50.23978]]]}},{"type":"Feature","properties":{"k":"BTH","s":1.58},"geometry":{"type":"Polygon","coordinates":[[[2.35174,50.24111],[2.35319,50.24041],[2.35258,50.23966],[2.35069,50.24064],[2.35085,50.24079],[2.34952,50.24143],[2.34985,50.24145],[2.35081,50.24091],[2.3514,50.2411],[2.35153,50.241],[2.35174,50.24111]]]}},{"type":"Feature","properties":{"k":"MIS","s":0.018},"geometry":{"type":"MultiPolygon","coordinates":[[[[2.3516,50.24117],[2.35173,50.24111],[2.35155,50.24102],[2.35144,50.24112],[2.3516,50.24117]]],[[[2.35368,50.24088],[2.3537,50.24088],[2.35367,50.24085],[2.35368,50.24088]]]]}},{"type":"Feature","properties":{"k":"ORH","s":1.41},"geometry":{"type":"Polygon","coordinates":[[[2.34486,50.24063],[2.34548,50.24082],[2.34762,50.24131],[2.34949,50.24143],[2.34533,50.24019],[2.34486,50.24063]]]}},{"type":"Feature","properties":{"k":"BTH","s":3.867},"geometry":{"type":"Polygon","coordinates":[[[2.34754,50.23739],[2.34369,50.23998],[2.3448,50.24045],[2.34857,50.23813],[2.34754,50.23739]]]}},{"type":"Feature","properties":{"k":"BTH","s":9.58},"geometry":{"type":"Polygon","coordinates":[[[2.34629,50.23956],[2.34696,50.23977],[2.3468,50.24],[2.34598,50.23974],[2.3453,50.24017],[2.34952,50.24143],[2.35085,50.24079],[2.35069,50.24064],[2.35259,50.23965],[2.34875,50.23812],[2.34826,50.2384],[2.34837,50.23846],[2.34629,50.23956]]]}},{"type":"Feature","properties":{"k":"ORH","s":0.642},"geometry":{"type":"Polygon","coordinates":[[[2.34876,50.23798],[2.3491,50.23769],[2.34747,50.23675],[2.34729,50.23716],[2.34876,50.23798]]]}},{"type":"Feature","properties":{"k":"BTH","s":1.203},"geometry":{"type":"Polygon","coordinates":[[[2.34973,50.23721],[2.34776,50.23609],[2.34747,50.23675],[2.34913,50.2377],[2.34973,50.23721]]]}},{"type":"Feature","properties":{"k":"BTN","s":6.881},"geometry":{"type":"Polygon","coordinates":[[[2.34754,50.23739],[2.34513,50.23603],[2.34355,50.23571],[2.34329,50.23831],[2.34496,50.23913],[2.34754,50.23739]]]}},{"type":"Feature","properties":{"k":"BTN","s":0.319},"geometry":{"type":"Polygon","coordinates":[[[2.34355,50.23506],[2.34341,50.23533],[2.34474,50.23571],[2.34487,50.23545],[2.34355,50.23506]]]}},{"type":"Feature","properties":{"k":"BTH","s":6.211},"geometry":{"type":"Polygon","coordinates":[[[2.35034,50.23668],[2.35099,50.23613],[2.34961,50.23533],[2.35135,50.23292],[2.35081,50.23298],[2.34925,50.23274],[2.34776,50.23609],[2.34971,50.23719],[2.34997,50.23685],[2.34947,50.23654],[2.34976,50.23634],[2.35034,50.23668]]]}},{"type":"Feature","properties":{"k":"BTH","s":3.477},"geometry":{"type":"Polygon","coordinates":[[[2.35083,50.2389],[2.35345,50.23831],[2.35011,50.23698],[2.34883,50.23804],[2.35083,50.2389]]]}},{"type":"Feature","properties":{"k":"BTH","s":4.398},"geometry":{"type":"Polygon","coordinates":[[[2.35011,50.23698],[2.35345,50.23831],[2.35566,50.23779],[2.35126,50.236],[2.35011,50.23698]]]}},{"type":"Feature","properties":{"k":"MIS","s":2.753},"geometry":{"type":"Polygon","coordinates":[[[2.35199,50.23936],[2.35685,50.23826],[2.3557,50.23779],[2.35085,50.2389],[2.35199,50.23936]]]}},{"type":"Feature","properties":{"k":"MIS","s":2.753},"geometry":{"type":"Polygon","coordinates":[[[2.3557,50.23777],[2.35632,50.23725],[2.35187,50.23547],[2.35126,50.236],[2.3557,50.23777]]]}},{"type":"Feature","properties":{"k":"BTH","s":7.681},"geometry":{"type":"Polygon","coordinates":[[[2.35633,50.23724],[2.35807,50.23578],[2.35375,50.23403],[2.35188,50.23547],[2.35633,50.23724]]]}},{"type":"Feature","properties":{"k":"ORH","s":1.414},"geometry":{"type":"Polygon","coordinates":[[[2.36017,50.23666],[2.36202,50.23487],[2.36134,50.23459],[2.35949,50.23634],[2.36017,50.23666]]]}},{"type":"Feature","properties":{"k":"BTH","s":4.82},"geometry":{"type":"Polygon","coordinates":[[[2.364,50.23722],[2.36504,50.23614],[2.36211,50.23491],[2.36027,50.2367],[2.364,50.23722]]]}},{"type":"Feature","properties":{"k":"BTH","s":1.651},"geometry":{"type":"Polygon","coordinates":[[[2.36132,50.23727],[2.36063,50.23766],[2.36266,50.23948],[2.3634,50.2392],[2.36132,50.23727]]]}},{"type":"Feature","properties":{"k":"BTH","s":1.281},"geometry":{"type":"Polygon","coordinates":[[[2.36009,50.23796],[2.36199,50.23972],[2.36266,50.23948],[2.36063,50.23766],[2.36009,50.23796]]]}},{"type":"Feature","properties":{"k":"MIS","s":2.872},"geometry":{"type":"Polygon","coordinates":[[[2.3618,50.23699],[2.36006,50.23673],[2.35726,50.23839],[2.35827,50.2388],[2.35911,50.2385],[2.3618,50.23699]]]}},{"type":"Feature","properties":{"k":"BTH","s":4.109},"geometry":{"type":"Polygon","coordinates":[[[2.35577,50.23779],[2.35726,50.23839],[2.36006,50.23673],[2.35808,50.23581],[2.35577,50.23779]]]}},{"type":"Feature","properties":{"k":"MIS","s":1.592},"geometry":{"type":"Polygon","coordinates":[[[2.35749,50.24],[2.3599,50.23918],[2.35913,50.23853],[2.35718,50.2392],[2.35749,50.24]]]}},{"type":"Feature","properties":{"k":"MIS","s":1.134},"geometry":{"type":"Polygon","coordinates":[[[2.35805,50.24057],[2.35797,50.24028],[2.3584,50.24019],[2.35831,50.24009],[2.36053,50.23976],[2.35992,50.2392],[2.3575,50.24003],[2.35771,50.2406],[2.35805,50.24057]]]}},{"type":"Feature","properties":{"k":"MIS","s":0.133},"geometry":{"type":"MultiPolygon","coordinates":[[[[2.36043,50.2398],[2.36075,50.24002],[2.36048,50.23978],[2.36043,50.2398]]],[[[2.35808,50.24057],[2.35868,50.24051],[2.35842,50.24021],[2.358,50.24029],[2.35808,50.24057]]]]}},{"type":"Feature","properties":{"k":"PPH","s":0.052},"geometry":{"type":"MultiPolygon","coordinates":[[[[2.36187,50.24105],[2.36195,50.24104],[2.36193,50.24101],[2.36099,50.24015],[2.36187,50.24105]]]]}},{"type":"Feature","properties":{"k":"PHF","s":0.088},"geometry":{"type":"Polygon","coordinates":[[[2.36195,50.24104],[2.36187,50.24105],[2.36389,50.24176],[2.36195,50.24104]]]}},{"type":"Feature","properties":{"k":"MIS","s":1.935},"geometry":{"type":"Polygon","coordinates":[[[2.36204,50.24108],[2.36389,50.24169],[2.36413,50.24019],[2.36226,50.24086],[2.36205,50.24061],[2.36292,50.24029],[2.36311,50.24049],[2.36398,50.24017],[2.36429,50.23965],[2.36156,50.24065],[2.36204,50.24108]]]}},{"type":"Feature","properties":{"k":"ORH","s":1.749},"geometry":{"type":"Polygon","coordinates":[[[2.36463,50.23881],[2.36101,50.24016],[2.36156,50.24065],[2.36429,50.23965],[2.36463,50.23881]]]}},{"type":"Feature","properties":{"k":"BTH","s":0.853},"geometry":{"type":"Polygon","coordinates":[[[2.36725,50.23859],[2.36715,50.23829],[2.36423,50.24019],[2.36415,50.24058],[2.36725,50.23859]]]}},{"type":"Feature","properties":{"k":"ORH","s":1.565},"geometry":{"type":"Polygon","coordinates":[[[2.36407,50.24132],[2.36661,50.23968],[2.36725,50.23859],[2.36414,50.2406],[2.36407,50.24132]]]}},{"type":"Feature","properties":{"k":"ORH","s":0.504},"geometry":{"type":"Polygon","coordinates":[[[2.36627,50.24016],[2.36661,50.23968],[2.36407,50.24132],[2.36405,50.24152],[2.36627,50.24016]]]}},{"type":"Feature","properties":{"k":"ORH","s":1.614},"geometry":{"type":"Polygon","coordinates":[[[2.364,50.24171],[2.36423,50.24184],[2.36476,50.24214],[2.36702,50.24067],[2.36623,50.24029],[2.364,50.24171]]]}},{"type":"Feature","properties":{"k":"BTN","s":1.465},"geometry":{"type":"Polygon","coordinates":[[[2.36773,50.24103],[2.36703,50.24067],[2.36476,50.24214],[2.3654,50.24251],[2.36773,50.24103]]]}},{"type":"Feature","properties":{"k":"ORH","s":1.17},"geometry":{"type":"Polygon","coordinates":[[[2.36773,50.24103],[2.3654,50.24251],[2.36593,50.24282],[2.36827,50.2413],[2.36773,50.24103]]]}},{"type":"Feature","properties":{"k":"MIS","s":3.108},"geometry":{"type":"Polygon","coordinates":[[[2.36827,50.2413],[2.36593,50.24282],[2.36728,50.24359],[2.36968,50.24205],[2.36827,50.2413]]]}},{"type":"Feature","properties":{"k":"BTH","s":4.672},"geometry":{"type":"Polygon","coordinates":[[[2.36732,50.24065],[2.3704,50.2361],[2.36913,50.236],[2.36629,50.24016],[2.36732,50.24065]]]}},{"type":"Feature","properties":{"k":"BTH","s":1.161},"geometry":{"type":"Polygon","coordinates":[[[2.36729,50.23868],[2.36911,50.23599],[2.36854,50.23598],[2.36707,50.23806],[2.36729,50.23868]]]}},{"type":"Feature","properties":{"k":"BTH","s":3.597},"geometry":{"type":"Polygon","coordinates":[[[2.36648,50.23591],[2.36583,50.2364],[2.36496,50.23749],[2.36708,50.23809],[2.36854,50.23598],[2.36648,50.23591]]]}},{"type":"Feature","properties":{"k":"MIS","s":2.56},"geometry":{"type":"Polygon","coordinates":[[[2.36476,50.23867],[2.36423,50.24019],[2.36697,50.2384],[2.36685,50.23802],[2.36495,50.23752],[2.36476,50.23867]]]}},{"type":"Feature","properties":{"k":"MIS","s":1.617},"geometry":{"type":"Polygon","coordinates":[[[2.36465,50.23872],[2.36476,50.23819],[2.36189,50.23779],[2.36342,50.2392],[2.36465,50.23872]]]}},{"type":"Feature","properties":{"k":"BTH","s":2.067},"geometry":{"type":"Polygon","coordinates":[[[2.36189,50.23779],[2.36476,50.23819],[2.36481,50.2374],[2.36185,50.23697],[2.36132,50.23727],[2.36189,50.23779]]]}},{"type":"Feature","properties":{"k":"MPC","s":0.228},"geometry":{"type":"Polygon","coordinates":[[[2.36594,50.23621],[2.36492,50.23579],[2.3647,50.23598],[2.36569,50.23639],[2.36594,50.23621]]]}},{"type":"Feature","properties":{"k":"MIS","s":0.747},"geometry":{"type":"Polygon","coordinates":[[[2.36489,50.2373],[2.36571,50.2364],[2.36504,50.23614],[2.36401,50.23723],[2.36489,50.2373]]]}},{"type":"Feature","properties":{"k":"PPH","s":1.458},"geometry":{"type":"Polygon","coordinates":[[[2.36603,50.23614],[2.36087,50.23396],[2.36054,50.23424],[2.3647,50.23598],[2.36492,50.23579],[2.36603,50.23614]]]}},{"type":"Feature","properties":{"k":"LIF","s":8.238},"geometry":{"type":"Polygon","coordinates":[[[2.3754,50.23999],[2.37736,50.23715],[2.37572,50.23689],[2.37418,50.23641],[2.37218,50.2393],[2.3754,50.23999]]]}},{"type":"Feature","properties":{"k":"ORH","s":1.904},"geometry":{"type":"Polygon","coordinates":[[[2.3768,50.23699],[2.3776,50.23713],[2.37937,50.23456],[2.37872,50.23421],[2.3768,50.23699]]]}},{"type":"Feature","properties":{"k":"BTN","s":2.036},"geometry":{"type":"Polygon","coordinates":[[[2.3781,50.23386],[2.376,50.23686],[2.3768,50.23699],[2.37872,50.23421],[2.3781,50.23386]]]}},{"type":"Feature","properties":{"k":"ORH","s":2.616},"geometry":{"type":"Polygon","coordinates":[[[2.37763,50.23713],[2.37894,50.23723],[2.38041,50.2351],[2.37938,50.23456],[2.37763,50.23713]]]}},{"type":"Feature","properties":{"k":"BTN","s":1.737},"geometry":{"type":"Polygon","coordinates":[[[2.38065,50.23723],[2.38198,50.23596],[2.38083,50.23533],[2.37957,50.23723],[2.38065,50.23723]]]}},{"type":"Feature","properties":{"k":"BTH","s":0.941},"geometry":{"type":"Polygon","coordinates":[[[2.37896,50.23722],[2.37957,50.23723],[2.38084,50.23532],[2.38042,50.2351],[2.37896,50.23722]]]}},{"type":"Feature","properties":{"k":"MIS","s":1.068},"geometry":{"type":"Polygon","coordinates":[[[2.38023,50.23915],[2.3815,50.2373],[2.38074,50.2373],[2.37959,50.23895],[2.38023,50.23915]]]}},{"type":"Feature","properties":{"k":"MIS","s":0.854},"geometry":{"type":"Polygon","coordinates":[[[2.3822,50.23809],[2.38193,50.23797],[2.38231,50.23731],[2.38205,50.23731],[2.38075,50.23931],[2.38124,50.2395],[2.3822,50.23809]]]}},{"type":"Feature","properties":{"k":"ORH","s":1.546},"geometry":{"type":"Polygon","coordinates":[[[2.37959,50.23895],[2.38074,50.2373],[2.37946,50.23729],[2.37851,50.23866],[2.37959,50.23895]]]}},{"type":"Feature","properties":{"k":"ORH","s":6.456},"geometry":{"type":"Polygon","coordinates":[[[2.37736,50.23715],[2.3754,50.23999],[2.37634,50.24017],[2.37404,50.2435],[2.37467,50.24369],[2.37912,50.23728],[2.37736,50.23715]]]}},{"type":"Feature","properties":{"k":"BTH","s":5.693},"geometry":{"type":"Polygon","coordinates":[[[2.3796,50.23895],[2.3785,50.23866],[2.37943,50.23729],[2.37912,50.23729],[2.37824,50.2386],[2.37708,50.24032],[2.37741,50.24042],[2.37505,50.24382],[2.37602,50.24412],[2.3796,50.23895]]]}},{"type":"Feature","properties":{"k":"PTC","s":2.723},"geometry":{"type":"Polygon","coordinates":[[[2.38221,50.23991],[2.38095,50.23946],[2.37946,50.24164],[2.38054,50.24221],[2.38221,50.23991]]]}},{"type":"Feature","properties":{"k":"MIS","s":0.842},"geometry":{"type":"Polygon","coordinates":[[[2.37944,50.24167],[2.38095,50.23946],[2.38056,50.23935],[2.37908,50.24147],[2.37944,50.24167]]]}},{"type":"Feature","properties":{"k":"BTH","s":0.833},"geometry":{"type":"Polygon","coordinates":[[[2.38056,50.23935],[2.38014,50.23923],[2.37871,50.24126],[2.37908,50.24147],[2.38056,50.23935]]]}},{"type":"Feature","properties":{"k":"PTR","s":0.562},"geometry":{"type":"Polygon","coordinates":[[[2.38074,50.24237],[2.38243,50.24001],[2.3822,50.23993],[2.38052,50.24225],[2.38074,50.24237]]]}},{"type":"Feature","properties":{"k":"BTH","s":2.967},"geometry":{"type":"Polygon","coordinates":[[[2.37662,50.24432],[2.38018,50.23916],[2.37959,50.23897],[2.37601,50.24413],[2.37662,50.24432]]]}},{"type":"Feature","properties":{"k":"MIS","s":0.659},"geometry":{"type":"Polygon","coordinates":[[[2.37483,50.24374],[2.37505,50.24381],[2.37742,50.24039],[2.37724,50.24036],[2.37483,50.24374]]]}},{"type":"Feature","properties":{"k":"MIS","s":0.524},"geometry":{"type":"Polygon","coordinates":[[[2.37483,50.24374],[2.37724,50.24036],[2.37708,50.24032],[2.37467,50.24369],[2.37483,50.24374]]]}},{"type":"Feature","properties":{"k":"MIS","s":6.875},"geometry":{"type":"Polygon","coordinates":[[[2.37403,50.2435],[2.37633,50.24019],[2.37396,50.2397],[2.37183,50.24275],[2.37403,50.2435]]]}},{"type":"Feature","properties":{"k":"MIS","s":3.603},"geometry":{"type":"Polygon","coordinates":[[[2.37017,50.2422],[2.37417,50.23642],[2.37381,50.2363],[2.3735,50.23623],[2.36959,50.24192],[2.37017,50.2422]]]}},{"type":"Feature","properties":{"k":"PHF","s":13.012},"geometry":{"type":"Polygon","coordinates":[[[2.37041,50.23609],[2.36728,50.24071],[2.36959,50.24192],[2.3735,50.23623],[2.37041,50.23609]]]}},{"type":"Feature","properties":{"k":"MIS","s":4.874},"geometry":{"type":"Polygon","coordinates":[[[2.37398,50.23968],[2.37218,50.2393],[2.37017,50.2422],[2.3718,50.24276],[2.37398,50.23968]]]}},{"type":"Feature","properties":{"k":"BTH","s":2.727},"geometry":{"type":"Polygon","coordinates":[[[2.37099,50.24253],[2.37032,50.24293],[2.36997,50.24271],[2.37047,50.24238],[2.37008,50.24223],[2.36766,50.24381],[2.36883,50.24448],[2.37156,50.24273],[2.37099,50.24253]]]}},{"type":"Feature","properties":{"k":"MIS","s":3.309},"geometry":{"type":"Polygon","coordinates":[[[2.37292,50.24331],[2.37305,50.24323],[2.37156,50.24273],[2.36883,50.24448],[2.37003,50.24515],[2.37292,50.24331]]]}},{"type":"Feature","properties":{"k":"PHF","s":2.461},"geometry":{"type":"Polygon","coordinates":[[[2.37087,50.24564],[2.37406,50.24356],[2.37305,50.24323],[2.37003,50.24516],[2.37087,50.24564]]]}},{"type":"Feature","properties":{"k":"BTH","s":0.057},"geometry":{"type":"Polygon","coordinates":[[[2.37042,50.24541],[2.37041,50.24542],[2.37273,50.24677],[2.37042,50.24541]]]}},{"type":"Feature","properties":{"k":"MIS","s":1.08},"geometry":{"type":"Polygon","coordinates":[[[2.37497,50.24386],[2.37455,50.24372],[2.37126,50.24586],[2.37159,50.24605],[2.37497,50.24386]]]}},{"type":"Feature","properties":{"k":"BTH","s":2.372},"geometry":{"type":"Polygon","coordinates":[[[2.37496,50.24387],[2.37159,50.24606],[2.37228,50.24645],[2.37587,50.24415],[2.37496,50.24387]]]}},{"type":"Feature","properties":{"k":"BTH","s":5.471},"geometry":{"type":"Polygon","coordinates":[[[2.37588,50.24415],[2.37228,50.24645],[2.37373,50.24735],[2.37768,50.24469],[2.37588,50.24415]]]}},{"type":"Feature","properties":{"k":"BTH","s":1.211},"geometry":{"type":"Polygon","coordinates":[[[2.37406,50.24356],[2.37087,50.24564],[2.37124,50.24585],[2.37455,50.24372],[2.37406,50.24356]]]}},{"type":"Feature","properties":{"k":"BTH","s":7.224},"geometry":{"type":"Polygon","coordinates":[[[2.37874,50.24128],[2.37661,50.24433],[2.37783,50.24469],[2.37891,50.24316],[2.38134,50.24443],[2.38288,50.24354],[2.37874,50.24128]]]}},{"type":"Feature","properties":{"k":"CZH","s":3.466},"geometry":{"type":"Polygon","coordinates":[[[2.38056,50.24549],[2.38146,50.2445],[2.37892,50.24317],[2.37786,50.24469],[2.38056,50.24549]]]}},{"type":"Feature","properties":{"k":"ORH","s":3.581},"geometry":{"type":"Polygon","coordinates":[[[2.37649,50.24639],[2.37801,50.24726],[2.38054,50.24559],[2.37855,50.24506],[2.37649,50.24639]]]}},{"type":"Feature","properties":{"k":"BTH","s":1.373},"geometry":{"type":"Polygon","coordinates":[[[2.37867,50.24499],[2.37779,50.24472],[2.37581,50.24599],[2.37649,50.24639],[2.37867,50.24499]]]}},{"type":"Feature","properties":{"k":"LIF","s":2.799},"geometry":{"type":"Polygon","coordinates":[[[2.37666,50.24808],[2.37801,50.24726],[2.37581,50.24599],[2.37459,50.24692],[2.37666,50.24808]]]}},{"type":"Feature","properties":{"k":"ORH","s":2.041},"geometry":{"type":"Polygon","coordinates":[[[2.37617,50.2485],[2.38007,50.24923],[2.3805,50.24862],[2.37703,50.24798],[2.37617,50.2485]]]}},{"type":"Feature","properties":{"k":"MIS","s":5.978},"geometry":{"type":"Polygon","coordinates":[[[2.37777,50.24752],[2.3828,50.24843],[2.38371,50.24686],[2.37995,50.24618],[2.37777,50.24752]]]}},{"type":"Feature","properties":{"k":"BTH","s":2.342},"geometry":{"type":"Polygon","coordinates":[[[2.37703,50.24798],[2.38269,50.24891],[2.38279,50.24844],[2.37774,50.24752],[2.37703,50.24798]]]}},{"type":"Feature","properties":{"k":"BTH","s":1.593},"geometry":{"type":"Polygon","coordinates":[[[2.37666,50.24808],[2.37448,50.24686],[2.37373,50.24735],[2.37564,50.24846],[2.3761,50.24844],[2.37666,50.24808]]]}},{"type":"Feature","properties":{"k":"ORH","s":0.849},"geometry":{"type":"Polygon","coordinates":[[[2.37005,50.24224],[2.36967,50.24205],[2.36728,50.24359],[2.36766,50.24381],[2.37005,50.24224]]]}},{"type":"Feature","properties":{"k":"MIS","s":0.17},"geometry":{"type":"Polygon","coordinates":[[[2.36411,50.24177],[2.36402,50.24176],[2.36398,50.2418],[2.37043,50.24541],[2.36411,50.24177]]]}}]}