{"type":"FeatureCollection","features":[{"type":"Feature","properties":{"k":"BTH","s":1.718},"geometry":{"type":"Polygon","coordinates":[[[2.53706,50.33149],[2.53626,50.33218],[2.53855,50.33336],[2.5391,50.33287],[2.53706,50.33149]]]}},{"type":"Feature","properties":{"k":"LIF","s":3.651},"geometry":{"type":"Polygon","coordinates":[[[2.51761,50.3041],[2.51521,50.3065],[2.51534,50.30668],[2.51674,50.30668],[2.51693,50.3068],[2.51905,50.30469],[2.51761,50.3041]]]}},{"type":"Feature","properties":{"k":"LIF","s":1.469},"geometry":{"type":"Polygon","coordinates":[[[2.51991,50.305],[2.51906,50.30468],[2.5176,50.30614],[2.51812,50.30676],[2.51991,50.305]]]}},{"type":"Feature","properties":{"k":"CZH","s":2.827},"geometry":{"type":"Polygon","coordinates":[[[2.51851,50.30142],[2.51707,50.30381],[2.51826,50.30427],[2.51974,50.3019],[2.51851,50.30142]]]}},{"type":"Feature","properties":{"k":"BTH","s":0.8},"geometry":{"type":"Polygon","coordinates":[[[2.53528,50.30484],[2.5311,50.30329],[2.53093,50.30347],[2.53523,50.30506],[2.53528,50.30484]]]}},{"type":"Feature","properties":{"k":"BTH","s":3.399},"geometry":{"type":"Polygon","coordinates":[[[2.53356,50.30522],[2.53506,50.30576],[2.53523,50.30506],[2.53093,50.30347],[2.52999,50.30448],[2.53136,50.30498],[2.53171,50.30455],[2.53356,50.30522]]]}},{"type":"Feature","properties":{"k":"LIF","s":5.608},"geometry":{"type":"Polygon","coordinates":[[[2.53646,50.30335],[2.53566,50.30436],[2.5354,50.30501],[2.54017,50.30631],[2.54,50.30505],[2.53646,50.30335]]]}},{"type":"Feature","properties":{"k":"MIS","s":0.703},"geometry":{"type":"Polygon","coordinates":[[[2.53109,50.30329],[2.53135,50.30338],[2.5335,50.301],[2.53327,50.30086],[2.53109,50.30329]]]}},{"type":"Feature","properties":{"k":"BTN","s":15.66},"geometry":{"type":"Polygon","coordinates":[[[2.52953,50.29877],[2.53673,50.30259],[2.53808,50.30051],[2.53557,50.29965],[2.53391,50.29937],[2.53155,50.29813],[2.52799,50.29693],[2.52674,50.29851],[2.52886,50.29949],[2.52953,50.29877]]]}},{"type":"Feature","properties":{"k":"BTH","s":10.61},"geometry":{"type":"Polygon","coordinates":[[[2.5295,50.2989],[2.52634,50.30242],[2.52652,50.30323],[2.52842,50.3039],[2.53189,50.3],[2.5295,50.2989]]]}},{"type":"Feature","properties":{"k":"BTH","s":13.21},"geometry":{"type":"Polygon","coordinates":[[[2.51885,50.32371],[2.51879,50.32382],[2.51991,50.32403],[2.52141,50.32125],[2.51818,50.32055],[2.5192,50.31863],[2.51756,50.31895],[2.51652,50.32116],[2.51533,50.32301],[2.51635,50.32336],[2.51863,50.32379],[2.51885,50.32371]]]}},{"type":"Feature","properties":{"k":"PTC","s":13.216},"geometry":{"type":"Polygon","coordinates":[[[2.52142,50.32125],[2.51991,50.32403],[2.52539,50.32508],[2.52653,50.32227],[2.52142,50.32125]]]}},{"type":"Feature","properties":{"k":"PTC","s":12.387},"geometry":{"type":"Polygon","coordinates":[[[2.51745,50.32361],[2.51604,50.32522],[2.52512,50.32691],[2.525,50.32591],[2.5254,50.32514],[2.51745,50.32361]]]}},{"type":"Feature","properties":{"k":"PTC","s":9.516},"geometry":{"type":"Polygon","coordinates":[[[2.51604,50.32522],[2.51594,50.32535],[2.51652,50.32532],[2.51869,50.32575],[2.51711,50.32777],[2.52281,50.3276],[2.52303,50.3285],[2.5253,50.32837],[2.52506,50.3269],[2.51604,50.32522]]]}},{"type":"Feature","properties":{"k":"JAC","s":0.072},"geometry":{"type":"Polygon","coordinates":[[[2.52536,50.32836],[2.52506,50.3269],[2.52526,50.32815],[2.52536,50.32836]]]}},{"type":"Feature","properties":{"k":"PPH","s":0.385},"geometry":{"type":"Polygon","coordinates":[[[2.52577,50.32719],[2.52536,50.3272],[2.52548,50.32835],[2.52587,50.32834],[2.52577,50.32719]]]}},{"type":"Feature","properties":{"k":"MIS","s":1.371},"geometry":{"type":"Polygon","coordinates":[[[2.52682,50.32521],[2.52567,50.32543],[2.52572,50.32636],[2.52612,50.32683],[2.52705,50.3268],[2.52704,50.32668],[2.52677,50.3267],[2.52674,50.3261],[2.527,50.32609],[2.52695,50.32528],[2.52682,50.32521]]]}},{"type":"Feature","properties":{"k":"JAC","s":0.739},"geometry":{"type":"Polygon","coordinates":[[[2.52582,50.32761],[2.52725,50.32752],[2.5271,50.32717],[2.52694,50.32718],[2.52705,50.3268],[2.52579,50.32685],[2.52582,50.32761]],[[2.52649,50.32718],[2.52669,50.32718],[2.5267,50.3273],[2.52649,50.32718]]]}},{"type":"Feature","properties":{"k":"JAC","s":0.606},"geometry":{"type":"Polygon","coordinates":[[[2.52725,50.32752],[2.52582,50.32761],[2.52588,50.32811],[2.52748,50.32802],[2.52725,50.32752]]]}},{"type":"Feature","properties":{"k":"BTH","s":14.118},"geometry":{"type":"Polygon","coordinates":[[[2.53258,50.32841],[2.53336,50.32574],[2.53106,50.32554],[2.52879,50.32514],[2.52714,50.32524],[2.52716,50.32709],[2.52774,50.3284],[2.53051,50.32887],[2.53076,50.3281],[2.53258,50.32841]]]}},{"type":"Feature","properties":{"k":"CPL","s":0.101},"geometry":{"type":"Polygon","coordinates":[[[2.52876,50.32499],[2.52828,50.32497],[2.53169,50.32553],[2.52876,50.32499]]]}},{"type":"Feature","properties":{"k":"PHF","s":9.973},"geometry":{"type":"Polygon","coordinates":[[[2.52828,50.32497],[2.5317,50.32549],[2.532,50.32202],[2.52873,50.32102],[2.52828,50.32497]]]}},{"type":"Feature","properties":{"k":"LIF","s":2.522},"geometry":{"type":"Polygon","coordinates":[[[2.52582,50.3253],[2.52828,50.325],[2.52842,50.32386],[2.52631,50.32369],[2.52565,50.32517],[2.52582,50.3253]]]}},{"type":"Feature","properties":{"k":"BOR","s":0.199},"geometry":{"type":"Polygon","coordinates":[[[2.52622,50.32334],[2.52539,50.32508],[2.52564,50.32493],[2.5263,50.32336],[2.52653,50.32227],[2.52622,50.32334]]]}},{"type":"Feature","properties":{"k":"PPH","s":4.177},"geometry":{"type":"Polygon","coordinates":[[[2.52681,50.32131],[2.52804,50.32153],[2.52802,50.32179],[2.52676,50.32177],[2.52672,50.32261],[2.5263,50.32368],[2.52843,50.32386],[2.52873,50.32102],[2.52718,50.32056],[2.52681,50.32131]]]}},{"type":"Feature","properties":{"k":"JAC","s":0.319},"geometry":{"type":"Polygon","coordinates":[[[2.52676,50.32175],[2.52798,50.32176],[2.52799,50.32154],[2.5268,50.32132],[2.52676,50.32175]]]}},{"type":"Feature","properties":{"k":"BTH","s":1.689},"geometry":{"type":"Polygon","coordinates":[[[2.53434,50.33134],[2.5363,50.33212],[2.53712,50.3314],[2.53496,50.33059],[2.53434,50.33134]]]}},{"type":"Feature","properties":{"k":"BTH","s":17.85},"geometry":{"type":"Polygon","coordinates":[[[2.53714,50.33141],[2.5391,50.33287],[2.54102,50.33114],[2.54068,50.33089],[2.54048,50.32894],[2.54011,50.32822],[2.53894,50.32669],[2.53748,50.3262],[2.53689,50.32749],[2.53496,50.33058],[2.53714,50.33141]]]}},{"type":"Feature","properties":{"k":"BTH","s":11.24},"geometry":{"type":"Polygon","coordinates":[[[2.53585,50.32899],[2.53076,50.32811],[2.53051,50.32887],[2.52778,50.32841],[2.52848,50.33027],[2.53195,50.33079],[2.532,50.33016],[2.53464,50.33083],[2.53585,50.32899]]]}},{"type":"Feature","properties":{"k":"PPH","s":1.704},"geometry":{"type":"Polygon","coordinates":[[[2.52549,50.32837],[2.52564,50.32937],[2.52799,50.32915],[2.52758,50.32826],[2.52549,50.32837]]]}},{"type":"Feature","properties":{"k":"MIS","s":0.006},"geometry":{"type":"Polygon","coordinates":[]}},{"type":"Feature","properties":{"k":"BTH","s":2.531},"geometry":{"type":"Polygon","coordinates":[[[2.5263,50.29864],[2.52647,50.29843],[2.52674,50.29851],[2.52799,50.29693],[2.52651,50.29656],[2.5251,50.29829],[2.5263,50.29864]]]}},{"type":"Feature","properties":{"k":"PTR","s":0.311},"geometry":{"type":"Polygon","coordinates":[[[2.52159,50.29674],[2.52144,50.29691],[2.52306,50.29763],[2.52323,50.29746],[2.52159,50.29674]]]}},{"type":"Feature","properties":{"k":"MIS","s":0.26},"geometry":{"type":"Polygon","coordinates":[[[2.50664,50.31249],[2.50666,50.31245],[2.50505,50.31218],[2.50428,50.31229],[2.50664,50.31249]]]}},{"type":"Feature","properties":{"k":"PHF","s":0.006},"geometry":{"type":"Polygon","coordinates":[[[2.50406,50.31224],[2.50429,50.31228],[2.50432,50.31222],[2.50406,50.31224]]]}},{"type":"Feature","properties":{"k":"PTC","s":8.105},"geometry":{"type":"Polygon","coordinates":[[[2.53802,50.32467],[2.54127,50.32134],[2.53887,50.32018],[2.53658,50.32268],[2.53802,50.32467]]]}},{"type":"Feature","properties":{"k":"BTN","s":1.236},"geometry":{"type":"Polygon","coordinates":[[[2.54428,50.32292],[2.54632,50.32061],[2.54572,50.32048],[2.54383,50.32267],[2.54428,50.32292]]]}},{"type":"Feature","properties":{"k":"BTH","s":5.249},"geometry":{"type":"Polygon","coordinates":[[[2.55241,50.32147],[2.55754,50.32011],[2.55771,50.31888],[2.55193,50.32037],[2.55241,50.32147]]]}},{"type":"Feature","properties":{"k":"MIS","s":5.02},"geometry":{"type":"Polygon","coordinates":[[[2.55154,50.31945],[2.55193,50.32037],[2.55771,50.31888],[2.55785,50.31776],[2.55154,50.31945]]]}},{"type":"Feature","properties":{"k":"BTH","s":0.815},"geometry":{"type":"Polygon","coordinates":[[[2.51816,50.3013],[2.51671,50.30366],[2.51707,50.3038],[2.51844,50.30141],[2.51816,50.3013]]]}},{"type":"Feature","properties":{"k":"BTH","s":2.301},"geometry":{"type":"Polygon","coordinates":[[[2.51594,50.30336],[2.51747,50.30088],[2.51659,50.30045],[2.51498,50.30308],[2.51594,50.30336]]]}},{"type":"Feature","properties":{"k":"MIS","s":0.06},"geometry":{"type":"Polygon","coordinates":[[[2.51593,50.30151],[2.51592,50.30151],[2.51532,50.30216],[2.51549,50.30222],[2.51593,50.30151]]]}},{"type":"Feature","properties":{"k":"PPH","s":0.207},"geometry":{"type":"Polygon","coordinates":[[[2.51549,50.30222],[2.51498,50.30308],[2.51659,50.30045],[2.5165,50.30043],[2.5157,50.30118],[2.51604,50.30132],[2.51549,50.30222]]]}},{"type":"Feature","properties":{"k":"MIS","s":0.083},"geometry":{"type":"Polygon","coordinates":[[[2.51549,50.30223],[2.51531,50.30217],[2.51497,50.30254],[2.51522,50.30262],[2.51549,50.30223]]]}},{"type":"Feature","properties":{"k":"BTN","s":0.146},"geometry":{"type":"Polygon","coordinates":[[[2.51497,50.30254],[2.51457,50.30297],[2.51498,50.30308],[2.51524,50.30264],[2.51497,50.30254]]]}},{"type":"Feature","properties":{"k":"BTH","s":0.755},"geometry":{"type":"Polygon","coordinates":[[[2.51604,50.30349],[2.51559,50.30333],[2.51411,50.30478],[2.51435,50.30514],[2.51604,50.30349]]]}},{"type":"Feature","properties":{"k":"PTC","s":1.605},"geometry":{"type":"Polygon","coordinates":[[[2.51409,50.30476],[2.51559,50.30333],[2.5141,50.30292],[2.51352,50.30352],[2.51409,50.30476]]]}},{"type":"Feature","properties":{"k":"MIS","s":0.774},"geometry":{"type":"Polygon","coordinates":[[[2.51643,50.30366],[2.51603,50.3035],[2.51434,50.30514],[2.51457,50.30548],[2.51643,50.30366]]]}},{"type":"Feature","properties":{"k":"MIS","s":1.361},"geometry":{"type":"Polygon","coordinates":[[[2.51457,50.30548],[2.51493,50.30602],[2.51704,50.30389],[2.51643,50.30366],[2.51457,50.30548]]]}},{"type":"Feature","properties":{"k":"BTN","s":1.387},"geometry":{"type":"Polygon","coordinates":[[[2.51492,50.30602],[2.51523,50.30648],[2.51761,50.30409],[2.51707,50.30389],[2.51492,50.30602]]]}},{"type":"Feature","properties":{"k":"CZH","s":6.553},"geometry":{"type":"Polygon","coordinates":[[[2.51737,50.30073],[2.51799,50.30116],[2.51902,50.30155],[2.52227,50.29784],[2.52105,50.29732],[2.52159,50.29674],[2.52137,50.29667],[2.51737,50.30073]]]}},{"type":"Feature","properties":{"k":"LIF","s":3.237},"geometry":{"type":"Polygon","coordinates":[[[2.51737,50.30073],[2.52137,50.29667],[2.52076,50.29643],[2.51656,50.30039],[2.51737,50.30073]]]}},{"type":"Feature","properties":{"k":"MIS","s":2.556},"geometry":{"type":"Polygon","coordinates":[[[2.52105,50.29732],[2.52227,50.29784],[2.51902,50.30155],[2.51948,50.30173],[2.52306,50.29763],[2.52144,50.29691],[2.52105,50.29732]]]}},{"type":"Feature","properties":{"k":"ORP","s":0.005},"geometry":{"type":"Polygon","coordinates":[]}},{"type":"Feature","properties":{"k":"BTH","s":1.714},"geometry":{"type":"Polygon","coordinates":[[[2.52445,50.29919],[2.52406,50.29965],[2.52751,50.30102],[2.52793,50.30055],[2.52445,50.29919]]]}},{"type":"Feature","properties":{"k":"FVP","s":5.202},"geometry":{"type":"Polygon","coordinates":[[[2.51948,50.30173],[2.52073,50.30221],[2.52418,50.29797],[2.52319,50.29751],[2.51948,50.30173]]]}},{"type":"Feature","properties":{"k":"BTH","s":8.296},"geometry":{"type":"Polygon","coordinates":[[[2.52182,50.30569],[2.52325,50.30329],[2.51974,50.30189],[2.51827,50.30426],[2.52182,50.30569]]]}},{"type":"Feature","properties":{"k":"BTH","s":2.346},"geometry":{"type":"Polygon","coordinates":[[[2.52326,50.3033],[2.52659,50.30461],[2.52649,50.30393],[2.52506,50.30335],[2.52217,50.3022],[2.5218,50.3027],[2.52326,50.3033]]]}},{"type":"Feature","properties":{"k":"BTH","s":3.444},"geometry":{"type":"Polygon","coordinates":[[[2.53165,50.3051],[2.52652,50.30323],[2.52659,50.30413],[2.53105,50.30578],[2.53165,50.3051]]]}},{"type":"Feature","properties":{"k":"BTH","s":6.337},"geometry":{"type":"Polygon","coordinates":[[[2.5318,50.3001],[2.52842,50.3039],[2.52999,50.30448],[2.53327,50.30086],[2.53206,50.30009],[2.5318,50.3001]]]}},{"type":"Feature","properties":{"k":"MIS","s":0.767},"geometry":{"type":"Polygon","coordinates":[[[2.51594,50.30336],[2.51626,50.30349],[2.51774,50.30108],[2.51747,50.30088],[2.51594,50.30336]]]}},{"type":"Feature","properties":{"k":"MIS","s":1.066},"geometry":{"type":"Polygon","coordinates":[[[2.51774,50.30108],[2.51626,50.30349],[2.51671,50.30366],[2.51816,50.3013],[2.51774,50.30108]]]}},{"type":"Feature","properties":{"k":"PPH","s":0.001},"geometry":{"type":"Polygon","coordinates":[]}},{"type":"Feature","properties":{"k":"BTH","s":8.576},"geometry":{"type":"Polygon","coordinates":[[[2.5335,50.30101],[2.53135,50.30337],[2.53528,50.30484],[2.53669,50.30277],[2.5335,50.30101]]]}},{"type":"Feature","properties":{"k":"MIS","s":0.0},"geometry":{"type":"Polygon","coordinates":[]}},{"type":"Feature","properties":{"k":"BTH","s":0.004},"geometry":{"type":"MultiPolygon","coordinates":[]}},{"type":"Feature","properties":{"k":"BTH","s":4.798},"geometry":{"type":"Polygon","coordinates":[[[2.54527,50.30299],[2.5432,50.30441],[2.54337,50.30513],[2.54403,50.30619],[2.54702,50.30402],[2.54527,50.30299]]]}},{"type":"Feature","properties":{"k":"BTH","s":2.034},"geometry":{"type":"Polygon","coordinates":[[[2.54559,50.30506],[2.54403,50.30619],[2.54462,50.30718],[2.54665,50.3057],[2.54559,50.30506]]]}},{"type":"Feature","properties":{"k":"BTH","s":1.495},"geometry":{"type":"Polygon","coordinates":[[[2.54665,50.3057],[2.54592,50.30625],[2.54803,50.30746],[2.54847,50.30679],[2.54665,50.3057]]]}},{"type":"Feature","properties":{"k":"LIF","s":2.968},"geometry":{"type":"Polygon","coordinates":[[[2.54803,50.30746],[2.54592,50.30625],[2.54469,50.30712],[2.54724,50.30862],[2.54803,50.30746]]]}},{"type":"Feature","properties":{"k":"LIF","s":1.584},"geometry":{"type":"Polygon","coordinates":[[[2.54556,50.30849],[2.54666,50.30953],[2.54724,50.30862],[2.54469,50.30712],[2.54556,50.30849]]]}},{"type":"Feature","properties":{"k":"AVP","s":0.232},"geometry":{"type":"Polygon","coordinates":[[[2.54562,50.30871],[2.54548,50.30872],[2.54651,50.30983],[2.54661,50.30966],[2.54562,50.30871]]]}},{"type":"Feature","properties":{"k":"CPL","s":0.1},"geometry":{"type":"Polygon","coordinates":[[[2.53714,50.32357],[2.53656,50.32263],[2.53709,50.32358],[2.53799,50.32464],[2.53714,50.32357]]]}},{"type":"Feature","properties":{"k":"BTH","s":8.378},"geometry":{"type":"Polygon","coordinates":[[[2.53719,50.32619],[2.53337,50.32576],[2.53258,50.32841],[2.53585,50.32899],[2.53698,50.3271],[2.53719,50.32619]]]}},{"type":"Feature","properties":{"k":"BTH","s":4.038},"geometry":{"type":"Polygon","coordinates":[[[2.54801,50.31037],[2.54981,50.31106],[2.55007,50.3098],[2.55157,50.30782],[2.55038,50.30735],[2.54801,50.31037]]]}},{"type":"Feature","properties":{"k":"BTH","s":2.477},"geometry":{"type":"Polygon","coordinates":[[[2.55195,50.30733],[2.55245,50.3065],[2.54948,50.30535],[2.54894,50.30617],[2.55195,50.30733]]]}},{"type":"Feature","properties":{"k":"PTC","s":1.105},"geometry":{"type":"Polygon","coordinates":[[[2.54948,50.30535],[2.55245,50.30649],[2.55264,50.30611],[2.54974,50.30496],[2.54948,50.30535]]]}},{"type":"Feature","properties":{"k":"LIF","s":9.616},"geometry":{"type":"Polygon","coordinates":[[[2.532,50.32202],[2.53217,50.32017],[2.53118,50.31988],[2.5314,50.31946],[2.53036,50.31913],[2.53054,50.31887],[2.53014,50.31873],[2.53039,50.31842],[2.52807,50.3179],[2.5277,50.31837],[2.52726,50.32057],[2.532,50.32202]]]}},{"type":"Feature","properties":{"k":"JAC","s":0.055},"geometry":{"type":"Polygon","coordinates":[[[2.53134,50.31945],[2.5314,50.31946],[2.53049,50.31913],[2.53054,50.31887],[2.53037,50.31913],[2.53134,50.31945]]]}},{"type":"Feature","properties":{"k":"JAC","s":0.421},"geometry":{"type":"Polygon","coordinates":[[[2.53185,50.31759],[2.53078,50.317],[2.53034,50.31741],[2.53161,50.31784],[2.53185,50.31759]]]}},{"type":"Feature","properties":{"k":"JAC","s":0.146},"geometry":{"type":"Polygon","coordinates":[[[2.53042,50.31791],[2.53013,50.31827],[2.53055,50.3184],[2.53082,50.31805],[2.53042,50.31791]]]}},{"type":"Feature","properties":{"k":"LBF","s":5.33},"geometry":{"type":"Polygon","coordinates":[[[2.55562,50.31836],[2.55593,50.31658],[2.55313,50.3163],[2.55267,50.31916],[2.55562,50.31836]]]}},{"type":"Feature","properties":{"k":"BTH","s":3.725},"geometry":{"type":"Polygon","coordinates":[[[2.55155,50.31945],[2.55266,50.31915],[2.55312,50.3163],[2.55148,50.31631],[2.55118,50.31823],[2.55133,50.31845],[2.55115,50.31843],[2.55155,50.31945]]]}},{"type":"Feature","properties":{"k":"BTN","s":3.94},"geometry":{"type":"Polygon","coordinates":[[[2.55032,50.32023],[2.5504,50.31946],[2.54724,50.31876],[2.54613,50.32002],[2.54674,50.32015],[2.54693,50.31993],[2.552,50.3209],[2.55187,50.32059],[2.55032,50.32023]]]}},{"type":"Feature","properties":{"k":"MIS","s":5.015},"geometry":{"type":"Polygon","coordinates":[[[2.54382,50.32267],[2.54723,50.31876],[2.54583,50.31844],[2.54269,50.322],[2.54382,50.32267]]]}},{"type":"Feature","properties":{"k":"BTN","s":0.265},"geometry":{"type":"Polygon","coordinates":[[[2.54572,50.32048],[2.54632,50.32061],[2.54674,50.32015],[2.54613,50.32002],[2.54572,50.32048]]]}},{"type":"Feature","properties":{"k":"BTN","s":6.476},"geometry":{"type":"Polygon","coordinates":[[[2.54694,50.31869],[2.54722,50.31816],[2.55122,50.31905],[2.55087,50.3183],[2.54754,50.31758],[2.54818,50.31641],[2.54664,50.31617],[2.54608,50.3171],[2.54469,50.31677],[2.54402,50.31804],[2.54694,50.31869]]]}},{"type":"Feature","properties":{"k":"BTH","s":2.414},"geometry":{"type":"Polygon","coordinates":[[[2.5492,50.31658],[2.54818,50.31641],[2.54756,50.31757],[2.55086,50.31829],[2.5492,50.31658]]]}},{"type":"Feature","properties":{"k":"MIS","s":1.708},"geometry":{"type":"Polygon","coordinates":[[[2.55083,50.31792],[2.55113,50.31849],[2.55146,50.31631],[2.54935,50.31646],[2.55083,50.31792]]]}},{"type":"Feature","properties":{"k":"BTH","s":3.309},"geometry":{"type":"Polygon","coordinates":[[[2.54847,50.31633],[2.5527,50.31618],[2.55347,50.31447],[2.55232,50.31448],[2.55193,50.31553],[2.54858,50.31567],[2.54847,50.31633]]]}},{"type":"Feature","properties":{"k":"BOR","s":0.065},"geometry":{"type":"Polygon","coordinates":[[[2.54608,50.3171],[2.54664,50.31617],[2.54607,50.31708],[2.54473,50.31678],[2.54608,50.3171]]]}},{"type":"Feature","properties":{"k":"MIS","s":0.836},"geometry":{"type":"Polygon","coordinates":[[[2.54764,50.31537],[2.5469,50.31611],[2.54845,50.31632],[2.54857,50.31557],[2.54764,50.31537]]]}},{"type":"Feature","properties":{"k":"JAC","s":0.222},"geometry":{"type":"Polygon","coordinates":[[[2.54859,50.31559],[2.54858,50.31564],[2.55193,50.31553],[2.55232,50.31448],[2.55188,50.31545],[2.54859,50.31559]]]}},{"type":"Feature","properties":{"k":"BTN","s":3.456},"geometry":{"type":"Polygon","coordinates":[[[2.55156,50.31347],[2.55157,50.31394],[2.55004,50.31395],[2.55007,50.31448],[2.55486,50.31448],[2.55537,50.31348],[2.55156,50.31347]]]}},{"type":"Feature","properties":{"k":"ORP","s":0.297},"geometry":{"type":"Polygon","coordinates":[[[2.55404,50.31523],[2.5544,50.31447],[2.5542,50.31447],[2.55335,50.31621],[2.5536,50.31622],[2.55404,50.31523]]]}},{"type":"Feature","properties":{"k":"BTH","s":0.605},"geometry":{"type":"Polygon","coordinates":[[[2.5537,50.31597],[2.5536,50.31622],[2.55397,50.31624],[2.55486,50.31448],[2.5544,50.31447],[2.5537,50.31597]]]}},{"type":"Feature","properties":{"k":"MIS","s":2.148},"geometry":{"type":"Polygon","coordinates":[[[2.50338,50.31527],[2.50196,50.31566],[2.5042,50.31679],[2.50509,50.31482],[2.50338,50.31527]]]}},{"type":"Feature","properties":{"k":"BTH","s":1.996},"geometry":{"type":"Polygon","coordinates":[[[2.505,50.31502],[2.5042,50.31679],[2.50437,50.31687],[2.50524,50.31711],[2.50633,50.31475],[2.505,50.31502]]]}},{"type":"Feature","properties":{"k":"MIS","s":2.047},"geometry":{"type":"Polygon","coordinates":[[[2.50611,50.31735],[2.50736,50.3146],[2.50642,50.31456],[2.50524,50.31711],[2.50611,50.31735]]]}},{"type":"Feature","properties":{"k":"MIS","s":0.189},"geometry":{"type":"Polygon","coordinates":[[[2.50509,50.31482],[2.505,50.31502],[2.50633,50.31475],[2.50639,50.31456],[2.50509,50.31482]]]}},{"type":"Feature","properties":{"k":"MIS","s":2.144},"geometry":{"type":"Polygon","coordinates":[[[2.50694,50.31329],[2.50738,50.31252],[2.50572,50.31248],[2.50491,50.31393],[2.50638,50.31428],[2.50694,50.31329]]]}},{"type":"Feature","properties":{"k":"BTH","s":2.993},"geometry":{"type":"Polygon","coordinates":[[[2.50738,50.31252],[2.50637,50.3143],[2.50816,50.3146],[2.50929,50.3126],[2.50738,50.31252]]]}},{"type":"Feature","properties":{"k":"BTH","s":5.389},"geometry":{"type":"Polygon","coordinates":[[[2.51141,50.3149],[2.51238,50.31281],[2.5093,50.3126],[2.50817,50.3146],[2.51141,50.3149]]]}},{"type":"Feature","properties":{"k":"LIF","s":2.547},"geometry":{"type":"Polygon","coordinates":[[[2.50736,50.3146],[2.50611,50.31735],[2.5071,50.31762],[2.50845,50.31471],[2.50736,50.3146]]]}},{"type":"Feature","properties":{"k":"BTN","s":6.354},"geometry":{"type":"Polygon","coordinates":[[[2.51087,50.31494],[2.50845,50.31471],[2.5071,50.31762],[2.50938,50.31826],[2.51087,50.31494]]]}},{"type":"Feature","properties":{"k":"BTH","s":1.343},"geometry":{"type":"Polygon","coordinates":[[[2.50981,50.31747],[2.51038,50.31757],[2.51156,50.31499],[2.51087,50.31494],[2.50981,50.31747]]]}},{"type":"Feature","properties":{"k":"BTH","s":6.789},"geometry":{"type":"Polygon","coordinates":[[[2.5136,50.31553],[2.51368,50.3154],[2.51249,50.3151],[2.51119,50.31792],[2.51407,50.31846],[2.51532,50.31585],[2.5139,50.31546],[2.5136,50.31553]]]}},{"type":"Feature","properties":{"k":"MIS","s":3.98},"geometry":{"type":"Polygon","coordinates":[[[2.51347,50.31526],[2.51473,50.31304],[2.51372,50.31303],[2.51377,50.31292],[2.51238,50.31281],[2.51141,50.31491],[2.51347,50.31526]]]}},{"type":"Feature","properties":{"k":"BTH","s":18.211},"geometry":{"type":"Polygon","coordinates":[[[2.51348,50.31526],[2.51542,50.3158],[2.51658,50.31634],[2.51684,50.3163],[2.51682,50.31641],[2.51874,50.31661],[2.52224,50.31633],[2.52019,50.3146],[2.52139,50.31331],[2.52116,50.31325],[2.51944,50.31302],[2.5166,50.31298],[2.51526,50.31264],[2.51485,50.31284],[2.51348,50.31526]]]}},{"type":"Feature","properties":{"k":"PTC","s":6.661},"geometry":{"type":"Polygon","coordinates":[[[2.51649,50.31641],[2.51532,50.31585],[2.51345,50.31978],[2.51645,50.31911],[2.51756,50.3166],[2.51649,50.31641]]]}},{"type":"Feature","properties":{"k":"BTP","s":6.657},"geometry":{"type":"Polygon","coordinates":[[[2.51882,50.31669],[2.51756,50.3166],[2.51645,50.31911],[2.52009,50.31833],[2.52244,50.31641],[2.51882,50.31669]]]}},{"type":"Feature","properties":{"k":"PTC","s":9.007},"geometry":{"type":"Polygon","coordinates":[[[2.5273,50.31968],[2.52746,50.31846],[2.52787,50.3178],[2.52673,50.31786],[2.52519,50.32065],[2.52297,50.31916],[2.5218,50.32127],[2.52657,50.32216],[2.5273,50.31968]]]}},{"type":"Feature","properties":{"k":"PTC","s":4.818},"geometry":{"type":"Polygon","coordinates":[[[2.51818,50.32055],[2.52027,50.32097],[2.52197,50.31786],[2.52093,50.31786],[2.52008,50.31841],[2.51927,50.31862],[2.51818,50.32055]]]}},{"type":"Feature","properties":{"k":"BTH","s":0.016},"geometry":{"type":"Polygon","coordinates":[[[2.55349,50.31346],[2.55312,50.31345],[2.55322,50.31268],[2.55307,50.31346],[2.55349,50.31346]]]}},{"type":"Feature","properties":{"k":"MIS","s":1.803},"geometry":{"type":"Polygon","coordinates":[[[2.54991,50.31107],[2.55137,50.31106],[2.55222,50.31036],[2.55038,50.30947],[2.54991,50.31107]]]}},{"type":"Feature","properties":{"k":"PPH","s":0.645},"geometry":{"type":"Polygon","coordinates":[[[2.54855,50.31056],[2.54712,50.31005],[2.54747,50.31103],[2.5483,50.31109],[2.54855,50.31056]]]}},{"type":"Feature","properties":{"k":"BTH","s":2.218},"geometry":{"type":"Polygon","coordinates":[[[2.5442,50.31082],[2.54574,50.31108],[2.54651,50.30983],[2.54543,50.30881],[2.5442,50.31082]]]}},{"type":"Feature","properties":{"k":"PPH","s":1.148},"geometry":{"type":"Polygon","coordinates":[[[2.5474,50.31129],[2.54699,50.31008],[2.54661,50.30966],[2.54574,50.31108],[2.5474,50.31129]]]}},{"type":"Feature","properties":{"k":"PPH","s":1.475},"geometry":{"type":"Polygon","coordinates":[[[2.5458,50.31114],[2.54435,50.31096],[2.54354,50.31192],[2.54492,50.31242],[2.5458,50.31114]]]}},{"type":"Feature","properties":{"k":"PPH","s":2.932},"geometry":{"type":"Polygon","coordinates":[[[2.53974,50.31398],[2.54105,50.31085],[2.53996,50.31087],[2.53845,50.31311],[2.5393,50.31332],[2.53905,50.3137],[2.53974,50.31398]]]}},{"type":"Feature","properties":{"k":"BTH","s":2.804},"geometry":{"type":"Polygon","coordinates":[[[2.51407,50.31846],[2.51119,50.31792],[2.51078,50.31881],[2.51343,50.31978],[2.51407,50.31846]]]}},{"type":"Feature","properties":{"k":"MIS","s":1.215},"geometry":{"type":"Polygon","coordinates":[[[2.51078,50.3188],[2.51126,50.31773],[2.50979,50.31746],[2.50938,50.31826],[2.51078,50.3188]]]}},{"type":"Feature","properties":{"k":"MIS","s":0.845},"geometry":{"type":"Polygon","coordinates":[[[2.52974,50.30967],[2.53088,50.30824],[2.53028,50.30804],[2.52923,50.30947],[2.52974,50.30967]]]}},{"type":"Feature","properties":{"k":"CHU","s":3.185},"geometry":{"type":"Polygon","coordinates":[[[2.5293,50.30655],[2.52724,50.30581],[2.52803,50.30722],[2.53032,50.30806],[2.53088,50.30824],[2.53154,50.30737],[2.5293,50.30655]]]}},{"type":"Feature","properties":{"k":"MIS","s":0.546},"geometry":{"type":"Polygon","coordinates":[[[2.52818,50.30803],[2.52798,50.30728],[2.52725,50.30834],[2.52782,50.30869],[2.52818,50.30803]]]}},{"type":"Feature","properties":{"k":"BTH","s":1.703},"geometry":{"type":"Polygon","coordinates":[[[2.54042,50.3108],[2.54181,50.3085],[2.54094,50.30845],[2.53951,50.31072],[2.54042,50.3108]]]}},{"type":"Feature","properties":{"k":"BTH","s":2.191},"geometry":{"type":"Polygon","coordinates":[[[2.52824,50.30817],[2.52797,50.30878],[2.52918,50.30943],[2.53032,50.30806],[2.52803,50.30722],[2.52824,50.30817]]]}},{"type":"Feature","properties":{"k":"BTH","s":2.553},"geometry":{"type":"Polygon","coordinates":[[[2.54541,50.30867],[2.54562,50.30871],[2.54501,50.308],[2.54034,50.30777],[2.54044,50.30841],[2.54541,50.30867]]]}},{"type":"Feature","properties":{"k":"PTC","s":3.547},"geometry":{"type":"Polygon","coordinates":[[[2.54001,50.30505],[2.54021,50.30651],[2.54423,50.30674],[2.54358,50.30574],[2.54001,50.30505]]]}},{"type":"Feature","properties":{"k":"MIS","s":1.099},"geometry":{"type":"Polygon","coordinates":[[[2.53503,50.30815],[2.53479,50.30858],[2.53778,50.30876],[2.53801,50.3083],[2.53503,50.30815]]]}},{"type":"Feature","properties":{"k":"BTH","s":15.257},"geometry":{"type":"Polygon","coordinates":[[[2.53692,50.31057],[2.53948,50.31071],[2.54092,50.30845],[2.54044,50.30841],[2.54015,50.3063],[2.5354,50.30501],[2.53507,50.30801],[2.53521,50.30816],[2.53832,50.30831],[2.53692,50.31057]]]}},{"type":"Feature","properties":{"k":"MIS","s":0.423},"geometry":{"type":"Polygon","coordinates":[[[2.53512,50.30634],[2.53165,50.3051],[2.53157,50.30521],[2.53513,50.3065],[2.53512,50.30634]]]}},{"type":"Feature","properties":{"k":"MIS","s":1.53},"geometry":{"type":"Polygon","coordinates":[[[2.53171,50.30457],[2.53136,50.30499],[2.53511,50.30633],[2.53504,50.30576],[2.53171,50.30457]]]}},{"type":"Feature","properties":{"k":"PTC","s":1.599},"geometry":{"type":"Polygon","coordinates":[[[2.53513,50.3065],[2.53157,50.30521],[2.5312,50.3056],[2.53517,50.30706],[2.53513,50.3065]]]}},{"type":"Feature","properties":{"k":"PPH","s":1.513},"geometry":{"type":"Polygon","coordinates":[[[2.52317,50.31564],[2.52372,50.31589],[2.52614,50.31431],[2.52503,50.31412],[2.52317,50.31564]]]}},{"type":"Feature","properties":{"k":"PPH","s":4.544},"geometry":{"type":"Polygon","coordinates":[[[2.52721,50.31529],[2.52701,50.31545],[2.52682,50.31533],[2.52754,50.31438],[2.5272,50.31439],[2.52711,50.31421],[2.52682,50.31456],[2.5271,50.31466],[2.52671,50.31506],[2.5264,50.31487],[2.52387,50.31678],[2.52457,50.31705],[2.52725,50.31688],[2.52858,50.31591],[2.52721,50.31529]]]}},{"type":"Feature","properties":{"k":"PPH","s":0.467},"geometry":{"type":"Polygon","coordinates":[[[2.52895,50.31599],[2.5286,50.3159],[2.52725,50.31689],[2.52822,50.31682],[2.52895,50.31599]]]}},{"type":"Feature","properties":{"k":"JAC","s":0.501},"geometry":{"type":"Polygon","coordinates":[[[2.52852,50.31111],[2.52947,50.31185],[2.52988,50.31151],[2.52892,50.31075],[2.52852,50.31111]]]}},{"type":"Feature","properties":{"k":"LIF","s":6.523},"geometry":{"type":"Polygon","coordinates":[[[2.52958,50.31021],[2.5296,50.30978],[2.52553,50.30758],[2.52419,50.30894],[2.52855,50.31097],[2.52958,50.31021]]]}},{"type":"Feature","properties":{"k":"PPH","s":0.579},"geometry":{"type":"Polygon","coordinates":[[[2.52971,50.31025],[2.52892,50.31075],[2.52977,50.3114],[2.53012,50.31123],[2.52971,50.31025]]]}},{"type":"Feature","properties":{"k":"BTH","s":3.245},"geometry":{"type":"Polygon","coordinates":[[[2.52975,50.30966],[2.53059,50.30979],[2.53117,50.309],[2.53238,50.30943],[2.53343,50.30807],[2.53155,50.30737],[2.52975,50.30966]]]}},{"type":"Feature","properties":{"k":"BTH","s":4.742},"geometry":{"type":"Polygon","coordinates":[[[2.52032,50.32098],[2.5218,50.32127],[2.524,50.31727],[2.52197,50.31786],[2.52032,50.32098]]]}},{"type":"Feature","properties":{"k":"MIS","s":0.678},"geometry":{"type":"Polygon","coordinates":[[[2.52131,50.31753],[2.521,50.31778],[2.52168,50.3178],[2.52311,50.31658],[2.52265,50.31644],[2.52131,50.31753]]]}},{"type":"Feature","properties":{"k":"BTH","s":2.335},"geometry":{"type":"Polygon","coordinates":[[[2.524,50.31728],[2.52299,50.31914],[2.5239,50.31975],[2.52538,50.31707],[2.524,50.31728]]]}},{"type":"Feature","properties":{"k":"BTH","s":4.527},"geometry":{"type":"Polygon","coordinates":[[[2.5239,50.31975],[2.52522,50.32062],[2.52713,50.31695],[2.52539,50.31705],[2.5239,50.31975]]]}},{"type":"Feature","properties":{"k":"PPH","s":0.417},"geometry":{"type":"Polygon","coordinates":[[[2.5239,50.31593],[2.52445,50.31632],[2.52502,50.3159],[2.52479,50.31576],[2.52511,50.31553],[2.52484,50.31538],[2.5239,50.31593]]]}},{"type":"Feature","properties":{"k":"PTC","s":0.411},"geometry":{"type":"Polygon","coordinates":[[[2.53658,50.30325],[2.53653,50.30323],[2.53646,50.30335],[2.53998,50.30494],[2.53995,50.30478],[2.53658,50.30325]]]}},{"type":"Feature","properties":{"k":"PTC","s":2.48},"geometry":{"type":"Polygon","coordinates":[[[2.5391,50.30353],[2.53925,50.30345],[2.53716,50.3022],[2.53657,50.30324],[2.53969,50.30467],[2.53959,50.30383],[2.5391,50.30353]]]}},{"type":"Feature","properties":{"k":"PTC","s":1.797},"geometry":{"type":"Polygon","coordinates":[[[2.53798,50.30089],[2.53746,50.30174],[2.53931,50.30283],[2.54008,50.30216],[2.53798,50.30089]]]}},{"type":"Feature","properties":{"k":"BTH","s":4.792},"geometry":{"type":"Polygon","coordinates":[[[2.52391,50.30689],[2.5213,50.3095],[2.52289,50.31024],[2.52552,50.30759],[2.52391,50.30689]]]}},{"type":"Feature","properties":{"k":"BTH","s":9.757},"geometry":{"type":"Polygon","coordinates":[[[2.52325,50.30329],[2.52182,50.30569],[2.52467,50.30719],[2.52554,50.3075],[2.52682,50.30541],[2.52659,50.30461],[2.52325,50.30329]]]}},{"type":"Feature","properties":{"k":"PHF","s":7.562},"geometry":{"type":"Polygon","coordinates":[[[2.52151,50.30563],[2.51915,50.3079],[2.5201,50.30898],[2.5213,50.3095],[2.52391,50.30688],[2.52151,50.30563]]]}},{"type":"Feature","properties":{"k":"LUZ","s":1.08},"geometry":{"type":"Polygon","coordinates":[[[2.54045,50.30239],[2.54154,50.3015],[2.54066,50.30201],[2.5382,50.30057],[2.538,50.30086],[2.54045,50.30239]]]}},{"type":"Feature","properties":{"k":"BTH","s":0.017},"geometry":{"type":"Polygon","coordinates":[[[2.53864,50.30076],[2.53977,50.30141],[2.53901,50.30096],[2.53864,50.30076]]]}},{"type":"Feature","properties":{"k":"JAC","s":0.063},"geometry":{"type":"Polygon","coordinates":[[[2.52317,50.31564],[2.52289,50.3159],[2.52307,50.31575],[2.52357,50.31597],[2.52372,50.31589],[2.52317,50.31564]]]}},{"type":"Feature","properties":{"k":"BTH","s":2.709},"geometry":{"type":"MultiPolygon","coordinates":[[[[2.54105,50.32664],[2.54314,50.32448],[2.54206,50.32405],[2.53969,50.32657],[2.54105,50.32664]]]]}},{"type":"Feature","properties":{"k":"PPH","s":0.883},"geometry":{"type":"Polygon","coordinates":[[[2.52802,50.31769],[2.52857,50.31728],[2.52802,50.31713],[2.52814,50.31689],[2.52713,50.31695],[2.52674,50.31784],[2.52802,50.31769]]]}},{"type":"Feature","properties":{"k":"OIG","s":6.497},"geometry":{"type":"Polygon","coordinates":[[[2.52289,50.31024],[2.52699,50.31215],[2.52855,50.31097],[2.52419,50.30894],[2.52289,50.31024]]]}},{"type":"Feature","properties":{"k":"PTC","s":2.326},"geometry":{"type":"Polygon","coordinates":[[[2.53343,50.30807],[2.53239,50.3094],[2.53295,50.30961],[2.53227,50.31047],[2.53287,50.31072],[2.5347,50.30852],[2.53343,50.30807]]]}},{"type":"Feature","properties":{"k":"PTR","s":0.059},"geometry":{"type":"Polygon","coordinates":[[[2.53287,50.30962],[2.53227,50.31047],[2.53295,50.30961],[2.53238,50.30943],[2.53287,50.30962]]]}},{"type":"Feature","properties":{"k":"BTN","s":5.495},"geometry":{"type":"Polygon","coordinates":[[[2.53692,50.31057],[2.53832,50.30831],[2.53801,50.3083],[2.53778,50.30876],[2.5348,50.30859],[2.53318,50.31071],[2.53692,50.31057]]]}},{"type":"Feature","properties":{"k":"CAR","s":6.25},"geometry":{"type":"Polygon","coordinates":[[[2.53499,50.31987],[2.53656,50.32263],[2.53887,50.32018],[2.53455,50.31861],[2.53412,50.31927],[2.53499,50.31987]]]}},{"type":"Feature","properties":{"k":"PPH","s":0.001},"geometry":{"type":"Polygon","coordinates":[[[2.55325,50.30953],[2.55332,50.30946],[2.55331,50.30945],[2.55325,50.30953]]]}},{"type":"Feature","properties":{"k":"PPH","s":0.201},"geometry":{"type":"Polygon","coordinates":[[[2.52285,50.31626],[2.52357,50.31597],[2.52307,50.31575],[2.52253,50.31622],[2.52285,50.31626]]]}},{"type":"Feature","properties":{"k":"MIS","s":1.157},"geometry":{"type":"Polygon","coordinates":[[[2.52028,50.3146],[2.52227,50.31618],[2.52287,50.31576],[2.52055,50.31428],[2.52028,50.3146]]]}},{"type":"Feature","properties":{"k":"BOR","s":0.08},"geometry":{"type":"Polygon","coordinates":[[[2.53824,50.31506],[2.53818,50.315],[2.53737,50.31632],[2.53824,50.31506]]]}},{"type":"Feature","properties":{"k":"PPH","s":5.636},"geometry":{"type":"Polygon","coordinates":[[[2.53496,50.3168],[2.53523,50.3169],[2.5351,50.31706],[2.53799,50.31847],[2.5378,50.31867],[2.53489,50.31729],[2.53452,50.31776],[2.53545,50.31838],[2.53511,50.31866],[2.5356,50.31886],[2.53621,50.31829],[2.53711,50.31871],[2.53665,50.31924],[2.53832,50.31984],[2.53959,50.31837],[2.53563,50.31647],[2.53496,50.3168]]]}},{"type":"Feature","properties":{"k":"PPH","s":0.303},"geometry":{"type":"Polygon","coordinates":[[[2.5328,50.31847],[2.53322,50.31853],[2.53394,50.31781],[2.53364,50.31798],[2.533,50.31779],[2.53311,50.31794],[2.5328,50.31847]]]}},{"type":"Feature","properties":{"k":"BTH","s":0.654},"geometry":{"type":"Polygon","coordinates":[[[2.54227,50.30267],[2.54345,50.30187],[2.5429,50.30149],[2.54194,50.30209],[2.54227,50.30267]]]}},{"type":"Feature","properties":{"k":"MIS","s":2.385},"geometry":{"type":"Polygon","coordinates":[[[2.52107,50.31367],[2.52056,50.31424],[2.52292,50.31575],[2.52393,50.31489],[2.52107,50.31367]]]}},{"type":"Feature","properties":{"k":"PPH","s":7.896},"geometry":{"type":"Polygon","coordinates":[[[2.53995,50.31087],[2.53838,50.31066],[2.53581,50.31068],[2.53441,50.31273],[2.53497,50.31285],[2.53566,50.312],[2.53624,50.31219],[2.53563,50.313],[2.5379,50.31372],[2.53995,50.31087]]]}},{"type":"Feature","properties":{"k":"PPH","s":1.288},"geometry":{"type":"Polygon","coordinates":[[[2.53403,50.31167],[2.53456,50.31184],[2.53536,50.31071],[2.53423,50.31071],[2.5336,50.31171],[2.53327,50.31162],[2.53288,50.31212],[2.53348,50.3125],[2.53403,50.31167]]]}},{"type":"Feature","properties":{"k":"BTN","s":3.361},"geometry":{"type":"Polygon","coordinates":[[[2.5405,50.3287],[2.543,50.32696],[2.54285,50.32673],[2.53893,50.32656],[2.5405,50.3287]]]}},{"type":"Feature","properties":{"k":"BTH","s":4.01},"geometry":{"type":"Polygon","coordinates":[[[2.52647,50.29843],[2.5263,50.29866],[2.52516,50.29831],[2.52445,50.29919],[2.52793,50.30055],[2.52886,50.29949],[2.52647,50.29843]]]}},{"type":"Feature","properties":{"k":"MIS","s":0.989},"geometry":{"type":"Polygon","coordinates":[[[2.52255,50.31045],[2.52674,50.31227],[2.52699,50.31215],[2.52289,50.31024],[2.52255,50.31045]]]}},{"type":"Feature","properties":{"k":"BTH","s":6.717},"geometry":{"type":"Polygon","coordinates":[[[2.52089,50.30932],[2.51815,50.31203],[2.51841,50.3129],[2.51997,50.31302],[2.52281,50.31019],[2.52089,50.30932]]]}},{"type":"Feature","properties":{"k":"PPH","s":0.42},"geometry":{"type":"Polygon","coordinates":[[[2.53432,50.31875],[2.53327,50.31852],[2.53302,50.31893],[2.53387,50.31922],[2.53432,50.31875]]]}},{"type":"Feature","properties":{"k":"LIF","s":0.947},"geometry":{"type":"Polygon","coordinates":[[[2.51613,50.31266],[2.51623,50.31287],[2.5182,50.31292],[2.51812,50.31237],[2.51669,50.31222],[2.51613,50.31266]]]}},{"type":"Feature","properties":{"k":"MIS","s":0.653},"geometry":{"type":"Polygon","coordinates":[[[2.518,50.31183],[2.51775,50.31129],[2.51658,50.31222],[2.51795,50.31235],[2.518,50.31183]]]}},{"type":"Feature","properties":{"k":"PHF","s":2.217},"geometry":{"type":"Polygon","coordinates":[[[2.52089,50.30932],[2.52012,50.30899],[2.51786,50.31117],[2.51815,50.31203],[2.52089,50.30932]]]}},{"type":"Feature","properties":{"k":"PPH","s":0.193},"geometry":{"type":"Polygon","coordinates":[[[2.52207,50.31397],[2.52112,50.31361],[2.52393,50.31489],[2.52207,50.31397]]]}},{"type":"Feature","properties":{"k":"PHF","s":0.104},"geometry":{"type":"MultiPolygon","coordinates":[[[[2.51579,50.31276],[2.5162,50.31287],[2.51611,50.31266],[2.51544,50.31248],[2.51543,50.31264],[2.51579,50.31276]]],[[[2.51784,50.31059],[2.51782,50.31054],[2.51781,50.31085],[2.51784,50.31059]]]]}},{"type":"Feature","properties":{"k":"BTH","s":0.018},"geometry":{"type":"MultiPolygon","coordinates":[[[[2.53379,50.29931],[2.5339,50.29935],[2.53279,50.29869],[2.53379,50.29931]]],[[[2.53423,50.29943],[2.53446,50.29946],[2.53396,50.29937],[2.53423,50.29943]]]]}},{"type":"Feature","properties":{"k":"MIS","s":0.997},"geometry":{"type":"Polygon","coordinates":[[[2.5425,50.31492],[2.53988,50.31411],[2.53954,50.31453],[2.54164,50.31513],[2.54142,50.31542],[2.54169,50.31542],[2.5425,50.31492]]]}},{"type":"Feature","properties":{"k":"MIS","s":2.038},"geometry":{"type":"Polygon","coordinates":[[[2.53974,50.31399],[2.54086,50.31438],[2.54183,50.31229],[2.5405,50.31216],[2.53974,50.31399]]]}},{"type":"Feature","properties":{"k":"PPH","s":5.668},"geometry":{"type":"Polygon","coordinates":[[[2.54273,50.31488],[2.54416,50.31445],[2.54473,50.3141],[2.54397,50.31387],[2.54412,50.31366],[2.54496,50.31391],[2.54517,50.3137],[2.54426,50.31339],[2.54468,50.31274],[2.5455,50.31308],[2.54607,50.31285],[2.54354,50.31192],[2.54312,50.31243],[2.54328,50.31253],[2.54294,50.3134],[2.54148,50.31291],[2.54087,50.31439],[2.54273,50.31488]]]}},{"type":"Feature","properties":{"k":"PHF","s":0.036},"geometry":{"type":"Polygon","coordinates":[[[2.55331,50.30945],[2.5518,50.30877],[2.55327,50.3095],[2.55331,50.30945]]]}},{"type":"Feature","properties":{"k":"MIS","s":1.741},"geometry":{"type":"Polygon","coordinates":[[[2.55055,50.30925],[2.55244,50.31019],[2.55327,50.3095],[2.55109,50.30855],[2.55055,50.30925]]]}},{"type":"Feature","properties":{"k":"PPH","s":2.943},"geometry":{"type":"Polygon","coordinates":[[[2.5331,50.31374],[2.53288,50.31386],[2.53323,50.31402],[2.53271,50.31472],[2.53398,50.31485],[2.53454,50.31451],[2.53393,50.31427],[2.5341,50.31407],[2.53451,50.31422],[2.5351,50.31363],[2.53353,50.3128],[2.53366,50.31265],[2.53298,50.31229],[2.53202,50.31317],[2.5331,50.31374]]]}},{"type":"Feature","properties":{"k":"BTH","s":0.015},"geometry":{"type":"Polygon","coordinates":[]}},{"type":"Feature","properties":{"k":"LIF","s":1.406},"geometry":{"type":"Polygon","coordinates":[[[2.54184,50.30218],[2.54154,50.30153],[2.54046,50.3024],[2.54008,50.30216],[2.53931,50.30283],[2.54004,50.3033],[2.54184,50.30218]]]}},{"type":"Feature","properties":{"k":"BTH","s":23.497},"geometry":{"type":"Polygon","coordinates":[[[2.53359,50.31919],[2.53272,50.31897],[2.53194,50.32009],[2.53217,50.32017],[2.53169,50.32553],[2.53705,50.32604],[2.53823,50.32632],[2.53806,50.32494],[2.53673,50.32322],[2.5348,50.31983],[2.53359,50.31919]]]}},{"type":"Feature","properties":{"k":"CPL","s":0.17},"geometry":{"type":"Polygon","coordinates":[[[2.53594,50.32137],[2.53499,50.31987],[2.53477,50.31964],[2.53405,50.31925],[2.53494,50.31988],[2.53653,50.32259],[2.53594,50.32137]]]}},{"type":"Feature","properties":{"k":"BTH","s":3.679},"geometry":{"type":"Polygon","coordinates":[[[2.54086,50.31725],[2.54402,50.31804],[2.54471,50.31675],[2.54153,50.31598],[2.54086,50.31725]]]}},{"type":"Feature","properties":{"k":"PPH","s":0.878},"geometry":{"type":"Polygon","coordinates":[[[2.53905,50.31378],[2.53821,50.31489],[2.53908,50.31511],[2.53986,50.31411],[2.53905,50.31378]]]}},{"type":"Feature","properties":{"k":"PTR","s":0.704},"geometry":{"type":"Polygon","coordinates":[[[2.53967,50.32657],[2.54204,50.32402],[2.54178,50.32397],[2.53935,50.32655],[2.53967,50.32657]]]}},{"type":"Feature","properties":{"k":"MIS","s":1.712},"geometry":{"type":"Polygon","coordinates":[[[2.54261,50.30333],[2.54097,50.30441],[2.5423,50.30507],[2.5432,50.30513],[2.54261,50.30333]]]}},{"type":"Feature","properties":{"k":"BTH","s":6.486},"geometry":{"type":"Polygon","coordinates":[[[2.51991,50.305],[2.51649,50.30834],[2.51739,50.30969],[2.52151,50.30563],[2.52074,50.30532],[2.52065,50.30544],[2.51991,50.305]]]}},{"type":"Feature","properties":{"k":"MIS","s":2.608},"geometry":{"type":"Polygon","coordinates":[[[2.54128,50.32133],[2.53952,50.32316],[2.54069,50.3238],[2.54245,50.32195],[2.54128,50.32133]]]}},{"type":"Feature","properties":{"k":"BTN","s":4.279},"geometry":{"type":"Polygon","coordinates":[[[2.54086,50.31725],[2.54175,50.31554],[2.54015,50.31555],[2.53825,50.31502],[2.53744,50.31634],[2.54086,50.31725]]]}},{"type":"Feature","properties":{"k":"MIS","s":1.315},"geometry":{"type":"Polygon","coordinates":[[[2.51648,50.30833],[2.51811,50.30677],[2.51762,50.3062],[2.51606,50.30769],[2.51648,50.30833]]]}},{"type":"Feature","properties":{"k":"BTH","s":0.024},"geometry":{"type":"MultiPolygon","coordinates":[[[[2.53012,50.29759],[2.53164,50.29815],[2.53091,50.29787],[2.53012,50.29759]]]]}},{"type":"Feature","properties":{"k":"LUZ","s":1.211},"geometry":{"type":"Polygon","coordinates":[[[2.54096,50.30441],[2.54261,50.30333],[2.54218,50.30275],[2.5402,50.30408],[2.54096,50.30441]]]}},{"type":"Feature","properties":{"k":"LUZ","s":0.439},"geometry":{"type":"Polygon","coordinates":[[[2.55038,50.30947],[2.55222,50.31036],[2.55244,50.31019],[2.55055,50.30925],[2.55038,50.30947]]]}},{"type":"Feature","properties":{"k":"LBF","s":2.125},"geometry":{"type":"Polygon","coordinates":[[[2.54315,50.32447],[2.54448,50.32309],[2.54323,50.32241],[2.54178,50.32397],[2.54315,50.32447]]]}},{"type":"Feature","properties":{"k":"CPL","s":0.251},"geometry":{"type":"Polygon","coordinates":[[[2.53991,50.30384],[2.53925,50.30345],[2.5391,50.30353],[2.53959,50.30383],[2.53969,50.30467],[2.53994,50.30478],[2.53991,50.30384]]]}},{"type":"Feature","properties":{"k":"BTH","s":1.191},"geometry":{"type":"Polygon","coordinates":[[[2.54038,50.30356],[2.5399,50.30392],[2.5402,50.30408],[2.54218,50.30275],[2.54186,50.30221],[2.5401,50.30337],[2.54038,50.30356]]]}},{"type":"Feature","properties":{"k":"BTN","s":2.751},"geometry":{"type":"Polygon","coordinates":[[[2.5384,50.32619],[2.54069,50.3238],[2.5395,50.32317],[2.53799,50.32471],[2.5384,50.32619]]]}},{"type":"Feature","properties":{"k":"LIF","s":9.274},"geometry":{"type":"Polygon","coordinates":[[[2.5401,50.32063],[2.54268,50.31772],[2.53729,50.3163],[2.5366,50.31588],[2.53566,50.31648],[2.53959,50.31837],[2.53832,50.31984],[2.5401,50.32063]]]}},{"type":"Feature","properties":{"k":"MIS","s":5.984},"geometry":{"type":"Polygon","coordinates":[[[2.54582,50.31845],[2.54392,50.31802],[2.54118,50.32119],[2.5427,50.32198],[2.54582,50.31845]]]}},{"type":"Feature","properties":{"k":"PPH","s":1.095},"geometry":{"type":"Polygon","coordinates":[[[2.54164,50.31513],[2.53954,50.31453],[2.5391,50.31513],[2.54021,50.31547],[2.54142,50.31542],[2.54164,50.31513]]]}}]}