{"type":"FeatureCollection","features":[{"type":"Feature","properties":{"k":"MIS","s":0.449},"geometry":{"type":"Polygon","coordinates":[[[1.73627,50.60196],[1.73634,50.60236],[1.73774,50.60205],[1.73741,50.60166],[1.73627,50.60196]]]}},{"type":"Feature","properties":{"k":"BTH","s":4.4},"geometry":{"type":"Polygon","coordinates":[[[1.74038,50.60117],[1.74058,50.60294],[1.74231,50.60279],[1.74244,50.60326],[1.7435,50.60316],[1.74302,50.6008],[1.74219,50.60104],[1.74202,50.60084],[1.74038,50.60117]]]}},{"type":"Feature","properties":{"k":"BTN","s":7.489},"geometry":{"type":"Polygon","coordinates":[[[1.7432,50.6068],[1.74408,50.606],[1.74364,50.60385],[1.74266,50.6039],[1.74229,50.60464],[1.74001,50.60456],[1.73982,50.60509],[1.74053,50.607],[1.74015,50.607],[1.74137,50.60701],[1.7432,50.6068]]]}},{"type":"Feature","properties":{"k":"ORP","s":10.814},"geometry":{"type":"Polygon","coordinates":[[[1.7374,50.60422],[1.73824,50.60635],[1.73829,50.60699],[1.74053,50.607],[1.73906,50.60308],[1.74058,50.60294],[1.74055,50.60214],[1.74036,50.60215],[1.74017,50.60119],[1.73741,50.60166],[1.73774,50.60205],[1.73634,50.60236],[1.7374,50.60422]],[[1.73937,50.60626],[1.73862,50.60636],[1.73846,50.60567],[1.73913,50.60557],[1.73937,50.60626]]]}},{"type":"Feature","properties":{"k":"BTH","s":0.043},"geometry":{"type":"MultiPolygon","coordinates":[[[[1.73825,50.60654],[1.73816,50.60633],[1.73818,50.60686],[1.73825,50.60654]]],[[[1.73787,50.60572],[1.73782,50.60573],[1.73816,50.60632],[1.73787,50.60572]]]]}},{"type":"Feature","properties":{"k":"MIS","s":0.405},"geometry":{"type":"Polygon","coordinates":[[[1.73913,50.60557],[1.73846,50.60567],[1.73862,50.60636],[1.73937,50.60626],[1.73913,50.60557]]]}},{"type":"Feature","properties":{"k":"BTH","s":0.009},"geometry":{"type":"Polygon","coordinates":[[[1.76655,50.61794],[1.76712,50.61869],[1.76686,50.61831],[1.76655,50.61794]]]}},{"type":"Feature","properties":{"k":"BTH","s":3.337},"geometry":{"type":"Polygon","coordinates":[[[1.76638,50.61762],[1.76762,50.61691],[1.7672,50.61677],[1.7669,50.6164],[1.76681,50.61584],[1.76765,50.61579],[1.76772,50.61543],[1.76555,50.61549],[1.76412,50.61587],[1.76638,50.61762]]]}},{"type":"Feature","properties":{"k":"PPH","s":0.001},"geometry":{"type":"MultiPolygon","coordinates":[[[[1.76293,50.61468],[1.76277,50.61452],[1.76298,50.61475],[1.76293,50.61468]]]]}},{"type":"Feature","properties":{"k":"PTR","s":0.46},"geometry":{"type":"Polygon","coordinates":[[[1.76727,50.6152],[1.7654,50.61538],[1.76399,50.61578],[1.76412,50.61587],[1.76555,50.61549],[1.76772,50.61543],[1.76781,50.61499],[1.76727,50.6152]]]}},{"type":"Feature","properties":{"k":"PTR","s":4.957},"geometry":{"type":"Polygon","coordinates":[[[1.76729,50.61116],[1.76699,50.61162],[1.76634,50.61197],[1.76564,50.61212],[1.76411,50.61364],[1.76522,50.61417],[1.76613,50.61433],[1.76697,50.61422],[1.76811,50.61459],[1.7699,50.61397],[1.76535,50.61265],[1.76578,50.61226],[1.76657,50.61204],[1.76723,50.61163],[1.76751,50.61115],[1.7675,50.61045],[1.76719,50.61038],[1.76729,50.61116]]]}},{"type":"Feature","properties":{"k":"PPH","s":5.448},"geometry":{"type":"Polygon","coordinates":[[[1.76399,50.61034],[1.76457,50.61112],[1.76329,50.61309],[1.76438,50.61338],[1.76564,50.61212],[1.76667,50.61181],[1.76729,50.61116],[1.76719,50.61038],[1.76679,50.61036],[1.76709,50.61109],[1.76679,50.6112],[1.76689,50.61083],[1.76658,50.61026],[1.76715,50.61031],[1.7666,50.61021],[1.76498,50.61044],[1.76483,50.60949],[1.76399,50.61034]]]}},{"type":"Feature","properties":{"k":"BTP","s":5.691},"geometry":{"type":"Polygon","coordinates":[[[1.76467,50.60852],[1.76245,50.60698],[1.76228,50.60701],[1.76199,50.60732],[1.76258,50.6082],[1.76413,50.60923],[1.7603,50.61131],[1.76157,50.613],[1.76171,50.61295],[1.76102,50.612],[1.76407,50.61044],[1.76483,50.60946],[1.76467,50.60852]]]}},{"type":"Feature","properties":{"k":"PTR","s":4.415},"geometry":{"type":"Polygon","coordinates":[[[1.75944,50.61077],[1.76024,50.61134],[1.76413,50.60923],[1.76253,50.60813],[1.75944,50.61077]]]}},{"type":"Feature","properties":{"k":"MIS","s":5.979},"geometry":{"type":"Polygon","coordinates":[[[1.76102,50.612],[1.76214,50.61379],[1.76287,50.61452],[1.76394,50.61414],[1.76415,50.61394],[1.7639,50.61378],[1.76438,50.61341],[1.76329,50.61309],[1.76457,50.61112],[1.76404,50.61046],[1.76102,50.612]]]}},{"type":"Feature","properties":{"k":"PTR","s":1.794},"geometry":{"type":"Polygon","coordinates":[[[1.75776,50.60983],[1.75944,50.61077],[1.76028,50.61008],[1.75805,50.6089],[1.75776,50.60983]]]}},{"type":"Feature","properties":{"k":"BTH","s":0.571},"geometry":{"type":"Polygon","coordinates":[[[1.7545,50.60803],[1.7523,50.60709],[1.75303,50.60767],[1.75485,50.60848],[1.75468,50.60866],[1.75483,50.60873],[1.75515,50.60829],[1.7545,50.60803]]]}},{"type":"Feature","properties":{"k":"LUZ","s":0.272},"geometry":{"type":"Polygon","coordinates":[[[1.75303,50.60767],[1.75468,50.60866],[1.75485,50.60848],[1.75303,50.60767]]]}},{"type":"Feature","properties":{"k":"CZH","s":4.391},"geometry":{"type":"Polygon","coordinates":[[[1.75512,50.6064],[1.75588,50.6048],[1.75334,50.60461],[1.75229,50.60631],[1.75504,50.60703],[1.75512,50.6064]]]}},{"type":"Feature","properties":{"k":"MIS","s":2.993},"geometry":{"type":"Polygon","coordinates":[[[1.75127,50.60602],[1.75096,50.60657],[1.75095,50.60684],[1.75211,50.60698],[1.75515,50.60829],[1.75504,50.60703],[1.75127,50.60602]]]}},{"type":"Feature","properties":{"k":"MIS","s":0.003},"geometry":{"type":"Polygon","coordinates":[[[1.7446,50.60707],[1.74509,50.6071],[1.74478,50.60707],[1.7446,50.60707]]]}},{"type":"Feature","properties":{"k":"MIS","s":0.336},"geometry":{"type":"Polygon","coordinates":[[[1.7432,50.6068],[1.74423,50.60685],[1.74408,50.606],[1.7432,50.6068]]]}},{"type":"Feature","properties":{"k":"BTH","s":1.812},"geometry":{"type":"Polygon","coordinates":[[[1.74631,50.60531],[1.74532,50.60462],[1.74425,50.60576],[1.74448,50.60696],[1.74631,50.60531]]]}},{"type":"Feature","properties":{"k":"BTH","s":1.884},"geometry":{"type":"Polygon","coordinates":[[[1.74558,50.60614],[1.74466,50.60701],[1.74652,50.60717],[1.74748,50.60706],[1.74735,50.60601],[1.74558,50.60614]]]}},{"type":"Feature","properties":{"k":"BTH","s":2.739},"geometry":{"type":"Polygon","coordinates":[[[1.74949,50.60674],[1.74949,50.60519],[1.74726,50.60541],[1.74748,50.60706],[1.74949,50.60674]]]}},{"type":"Feature","properties":{"k":"MIS","s":1.217},"geometry":{"type":"Polygon","coordinates":[[[1.74631,50.60531],[1.74756,50.60425],[1.74695,50.60389],[1.74592,50.6042],[1.74533,50.60462],[1.74631,50.60531]]]}},{"type":"Feature","properties":{"k":"MIS","s":2.339},"geometry":{"type":"Polygon","coordinates":[[[1.74913,50.6052],[1.74851,50.60407],[1.74799,50.60414],[1.7473,50.60454],[1.74558,50.60613],[1.74734,50.60596],[1.74726,50.60541],[1.74913,50.6052]]]}},{"type":"Feature","properties":{"k":"PPH","s":9.448},"geometry":{"type":"Polygon","coordinates":[[[1.74592,50.6042],[1.74794,50.60358],[1.74442,50.59982],[1.74394,50.60005],[1.74415,50.60028],[1.74386,50.60039],[1.74384,50.60062],[1.744,50.60057],[1.74413,50.60078],[1.74459,50.60066],[1.74484,50.60094],[1.74343,50.60137],[1.74425,50.60576],[1.74592,50.6042]]]}},{"type":"Feature","properties":{"k":"BTH","s":1.063},"geometry":{"type":"Polygon","coordinates":[[[1.74937,50.60265],[1.7491,50.60253],[1.74808,50.60294],[1.74747,50.60222],[1.74688,50.60249],[1.74794,50.60358],[1.74895,50.60307],[1.74937,50.60265]]]}},{"type":"Feature","properties":{"k":"MIS","s":0.693},"geometry":{"type":"Polygon","coordinates":[[[1.74848,50.60391],[1.74916,50.60297],[1.74794,50.60358],[1.74695,50.60389],[1.74756,50.60425],[1.74848,50.60391]]]}},{"type":"Feature","properties":{"k":"BTH","s":4.99},"geometry":{"type":"Polygon","coordinates":[[[1.74768,50.60131],[1.74674,50.60129],[1.74671,50.60108],[1.74565,50.60114],[1.74688,50.60249],[1.74747,50.60222],[1.74808,50.60294],[1.7491,50.60253],[1.74937,50.60265],[1.75016,50.60152],[1.75086,50.60093],[1.74792,50.60062],[1.74768,50.60131]]]}},{"type":"Feature","properties":{"k":"MIS","s":1.53},"geometry":{"type":"Polygon","coordinates":[[[1.75214,50.60142],[1.74992,50.60198],[1.7494,50.60276],[1.75273,50.60201],[1.75214,50.60142]]]}},{"type":"Feature","properties":{"k":"PPH","s":1.733},"geometry":{"type":"Polygon","coordinates":[[[1.7494,50.60277],[1.74856,50.60396],[1.75126,50.6033],[1.75118,50.60237],[1.7494,50.60277]]]}},{"type":"Feature","properties":{"k":"MIS","s":6.553},"geometry":{"type":"Polygon","coordinates":[[[1.75095,50.60684],[1.75127,50.60602],[1.75229,50.6063],[1.75341,50.60449],[1.75405,50.60419],[1.75235,50.60444],[1.75165,50.60335],[1.75059,50.60361],[1.75109,50.60439],[1.74886,50.60474],[1.74913,50.60519],[1.74949,50.60519],[1.74949,50.60674],[1.75095,50.60684]]]}},{"type":"Feature","properties":{"k":"BTH","s":2.022},"geometry":{"type":"Polygon","coordinates":[[[1.75599,50.60471],[1.7564,50.60383],[1.75468,50.6038],[1.75436,50.60263],[1.7538,50.6028],[1.75427,50.60414],[1.7534,50.60453],[1.75599,50.60471]]]}},{"type":"Feature","properties":{"k":"MIS","s":0.39},"geometry":{"type":"Polygon","coordinates":[[[1.7538,50.6028],[1.75341,50.60292],[1.75396,50.60418],[1.75427,50.60414],[1.7538,50.6028]]]}},{"type":"Feature","properties":{"k":"BTH","s":0.616},"geometry":{"type":"Polygon","coordinates":[[[1.75397,50.60419],[1.75341,50.60292],[1.75275,50.60307],[1.75347,50.60426],[1.75397,50.60419]]]}},{"type":"Feature","properties":{"k":"MIS","s":1.772},"geometry":{"type":"Polygon","coordinates":[[[1.75126,50.6033],[1.75359,50.60277],[1.75357,50.60183],[1.75124,50.60235],[1.75126,50.6033]]]}},{"type":"Feature","properties":{"k":"BTH","s":0.663},"geometry":{"type":"Polygon","coordinates":[[[1.75677,50.60294],[1.75452,50.60312],[1.75461,50.60348],[1.75667,50.60335],[1.75677,50.60294]]]}},{"type":"Feature","properties":{"k":"MIS","s":0.592},"geometry":{"type":"Polygon","coordinates":[[[1.75667,50.60335],[1.75461,50.60348],[1.75468,50.6038],[1.7564,50.60382],[1.75667,50.60335]]]}},{"type":"Feature","properties":{"k":"PPH","s":4.63},"geometry":{"type":"Polygon","coordinates":[[[1.76093,50.60426],[1.76099,50.604],[1.76262,50.60428],[1.76305,50.60435],[1.7631,50.60422],[1.76251,50.60411],[1.76287,50.6037],[1.76147,50.60295],[1.7611,50.6032],[1.76019,50.60304],[1.76073,50.60336],[1.76056,50.6035],[1.75972,50.60353],[1.7593,50.60334],[1.75907,50.60309],[1.76038,50.60241],[1.75686,50.60306],[1.75654,50.60381],[1.76093,50.60426]]]}},{"type":"Feature","properties":{"k":"MIS","s":7.554},"geometry":{"type":"Polygon","coordinates":[[[1.76,50.60699],[1.76089,50.60509],[1.7627,50.60544],[1.7629,50.60509],[1.76366,50.60536],[1.76419,50.60442],[1.76324,50.60393],[1.76305,50.60435],[1.76099,50.604],[1.76093,50.60426],[1.75898,50.60406],[1.75766,50.60637],[1.76,50.60699]]]}},{"type":"Feature","properties":{"k":"PTR","s":6.559},"geometry":{"type":"Polygon","coordinates":[[[1.75597,50.60493],[1.75641,50.60502],[1.75533,50.60651],[1.75964,50.60772],[1.76,50.60699],[1.75766,50.60637],[1.75898,50.60406],[1.75883,50.60405],[1.75654,50.60381],[1.75597,50.60493]]]}},{"type":"Feature","properties":{"k":"CZH","s":7.167},"geometry":{"type":"Polygon","coordinates":[[[1.75607,50.60939],[1.75767,50.60976],[1.75817,50.60871],[1.75962,50.60771],[1.75532,50.60652],[1.7564,50.60503],[1.75596,50.60495],[1.75515,50.60647],[1.75523,50.60816],[1.75487,50.60875],[1.75607,50.60939]]]}},{"type":"Feature","properties":{"k":"CZH","s":5.424},"geometry":{"type":"Polygon","coordinates":[[[1.75811,50.60882],[1.76037,50.61],[1.76253,50.60813],[1.76007,50.60685],[1.75964,50.60772],[1.75811,50.60882]]]}},{"type":"Feature","properties":{"k":"PPH","s":6.698},"geometry":{"type":"Polygon","coordinates":[[[1.76245,50.60698],[1.76454,50.60846],[1.76546,50.60752],[1.76273,50.60549],[1.76089,50.60512],[1.76007,50.60685],[1.76253,50.60812],[1.76199,50.60732],[1.76245,50.60698]]]}},{"type":"Feature","properties":{"k":"PPH","s":3.501},"geometry":{"type":"Polygon","coordinates":[[[1.76598,50.60674],[1.76584,50.60719],[1.76612,50.60752],[1.7656,50.60769],[1.76547,50.60753],[1.76492,50.60814],[1.76514,50.61016],[1.76578,50.61006],[1.76588,50.6103],[1.76654,50.61018],[1.76721,50.6103],[1.76598,50.60674]]]}},{"type":"Feature","properties":{"k":"CZH","s":8.133},"geometry":{"type":"Polygon","coordinates":[[[1.76588,50.60704],[1.76598,50.60674],[1.76675,50.60893],[1.77006,50.60763],[1.7698,50.6075],[1.77036,50.60725],[1.76611,50.60501],[1.76437,50.60613],[1.76588,50.60704]]]}},{"type":"Feature","properties":{"k":"PPH","s":4.819},"geometry":{"type":"Polygon","coordinates":[[[1.76401,50.60281],[1.7645,50.60269],[1.76727,50.60383],[1.76948,50.60488],[1.77065,50.6061],[1.77177,50.60526],[1.77098,50.60468],[1.77081,50.60481],[1.76768,50.60293],[1.76673,50.60292],[1.76372,50.60247],[1.76337,50.60283],[1.76403,50.60307],[1.76401,50.60281]]]}},{"type":"Feature","properties":{"k":"BTH","s":4.918},"geometry":{"type":"Polygon","coordinates":[[[1.76649,50.60429],[1.76678,50.60422],[1.76774,50.60464],[1.76863,50.60532],[1.76785,50.60585],[1.76865,50.60629],[1.76885,50.60612],[1.76995,50.60667],[1.7706,50.60606],[1.76948,50.60488],[1.76472,50.60276],[1.76401,50.60281],[1.76386,50.60323],[1.76649,50.60429]]]}},{"type":"Feature","properties":{"k":"BTH","s":1.499},"geometry":{"type":"Polygon","coordinates":[[[1.76563,50.60411],[1.76517,50.60443],[1.76375,50.60389],[1.76354,50.60397],[1.76608,50.6049],[1.76756,50.60569],[1.768,50.60514],[1.76563,50.60411]]]}},{"type":"Feature","properties":{"k":"BTH","s":1.912},"geometry":{"type":"Polygon","coordinates":[[[1.76517,50.60443],[1.76563,50.60411],[1.768,50.60514],[1.76756,50.60569],[1.76785,50.60585],[1.76863,50.60532],[1.76774,50.60464],[1.76678,50.60422],[1.76649,50.60429],[1.76577,50.60405],[1.76386,50.60323],[1.76334,50.60386],[1.76517,50.60443]]]}},{"type":"Feature","properties":{"k":"BTH","s":1.487},"geometry":{"type":"Polygon","coordinates":[[[1.76595,50.60492],[1.7642,50.60442],[1.76365,50.60537],[1.76464,50.6059],[1.76595,50.60492]]]}},{"type":"Feature","properties":{"k":"PPH","s":0.056},"geometry":{"type":"Polygon","coordinates":[[[1.76328,50.60384],[1.76402,50.60307],[1.76392,50.60307],[1.76328,50.60384]]]}},{"type":"Feature","properties":{"k":"BTN","s":4.515},"geometry":{"type":"Polygon","coordinates":[[[1.76831,50.60278],[1.77031,50.60155],[1.76856,50.60028],[1.76584,50.60135],[1.76831,50.60278]]]}},{"type":"Feature","properties":{"k":"BTN","s":0.768},"geometry":{"type":"Polygon","coordinates":[[[1.76704,50.6008],[1.76739,50.60066],[1.76717,50.59797],[1.76683,50.59799],[1.76704,50.6008]]]}},{"type":"Feature","properties":{"k":"ORH","s":4.772},"geometry":{"type":"Polygon","coordinates":[[[1.76625,50.60111],[1.76574,50.59496],[1.76481,50.59537],[1.76529,50.60132],[1.76625,50.60111]]]}},{"type":"Feature","properties":{"k":"BTN","s":1.781},"geometry":{"type":"Polygon","coordinates":[[[1.76704,50.6008],[1.76683,50.59798],[1.76606,50.598],[1.7663,50.60108],[1.76704,50.6008]]]}},{"type":"Feature","properties":{"k":"ORH","s":8.446},"geometry":{"type":"Polygon","coordinates":[[[1.76298,50.60063],[1.76363,50.60167],[1.76529,50.60145],[1.76489,50.5965],[1.76259,50.59712],[1.76298,50.60063]]]}},{"type":"Feature","properties":{"k":"PPH","s":3.375},"geometry":{"type":"Polygon","coordinates":[[[1.76108,50.59877],[1.76045,50.59829],[1.76016,50.59778],[1.76025,50.59666],[1.76483,50.59583],[1.7648,50.5954],[1.762,50.59615],[1.76029,50.59559],[1.75996,50.59764],[1.76011,50.59813],[1.76085,50.59918],[1.76166,50.5992],[1.76298,50.60063],[1.76276,50.59876],[1.76108,50.59877]]]}},{"type":"Feature","properties":{"k":"PTR","s":0.523},"geometry":{"type":"Polygon","coordinates":[[[1.75814,50.601],[1.75822,50.60166],[1.75937,50.60148],[1.75899,50.60088],[1.75814,50.601]]]}},{"type":"Feature","properties":{"k":"PPH","s":1.188},"geometry":{"type":"Polygon","coordinates":[[[1.75521,50.60113],[1.75483,50.60183],[1.75633,50.60174],[1.75613,50.60048],[1.75514,50.60053],[1.75521,50.60113]]]}},{"type":"Feature","properties":{"k":"PPH","s":0.703},"geometry":{"type":"Polygon","coordinates":[[[1.75739,50.60049],[1.75839,50.6003],[1.75787,50.59951],[1.75658,50.60044],[1.75739,50.60049]]]}},{"type":"Feature","properties":{"k":"PPH","s":2.347},"geometry":{"type":"Polygon","coordinates":[[[1.76002,50.5999],[1.76109,50.59964],[1.75992,50.59764],[1.75924,50.59761],[1.7586,50.59942],[1.75951,50.59941],[1.76002,50.5999]]]}},{"type":"Feature","properties":{"k":"BTH","s":0.723},"geometry":{"type":"Polygon","coordinates":[[[1.75924,50.59761],[1.75992,50.59764],[1.76012,50.59634],[1.75944,50.59623],[1.75924,50.59761]]]}},{"type":"Feature","properties":{"k":"BTH","s":14.899},"geometry":{"type":"Polygon","coordinates":[[[1.75522,50.59376],[1.75647,50.59512],[1.75628,50.59523],[1.75635,50.59779],[1.75618,50.59778],[1.75599,50.59852],[1.75833,50.59973],[1.75918,50.59735],[1.75938,50.59548],[1.75862,50.59326],[1.75856,50.59244],[1.75801,50.59245],[1.75791,50.59144],[1.75672,50.59158],[1.75632,50.59248],[1.75522,50.59376]],[[1.75825,50.59493],[1.75712,50.59502],[1.7569,50.59382],[1.75788,50.59254],[1.75801,50.59245],[1.75825,50.59493]]]}},{"type":"Feature","properties":{"k":"BTH","s":2.274},"geometry":{"type":"Polygon","coordinates":[[[1.75983,50.59528],[1.76128,50.59474],[1.76161,50.59436],[1.76166,50.59423],[1.76051,50.5943],[1.76024,50.5932],[1.75874,50.59332],[1.75907,50.59426],[1.75956,50.59458],[1.75983,50.59528]]]}},{"type":"Feature","properties":{"k":"ORP","s":0.287},"geometry":{"type":"Polygon","coordinates":[[[1.75953,50.59546],[1.75983,50.59528],[1.75956,50.59458],[1.75907,50.59426],[1.75953,50.59546]]]}},{"type":"Feature","properties":{"k":"ORP","s":0.518},"geometry":{"type":"Polygon","coordinates":[[[1.7595,50.59559],[1.75944,50.59623],[1.76012,50.59634],[1.76024,50.59517],[1.7595,50.59559]]]}},{"type":"Feature","properties":{"k":"TRE","s":0.114},"geometry":{"type":"Polygon","coordinates":[[[1.76321,50.59398],[1.76301,50.59403],[1.76356,50.59465],[1.76373,50.59459],[1.76321,50.59398]]]}},{"type":"Feature","properties":{"k":"MIS","s":1.353},"geometry":{"type":"Polygon","coordinates":[[[1.76161,50.59506],[1.76056,50.59503],[1.76032,50.59512],[1.7603,50.5955],[1.76098,50.5954],[1.76201,50.5956],[1.76322,50.59544],[1.76389,50.59509],[1.76362,50.59478],[1.76161,50.59506]]]}},{"type":"Feature","properties":{"k":"PPH","s":1.274},"geometry":{"type":"Polygon","coordinates":[[[1.76201,50.5956],[1.76098,50.5954],[1.7603,50.59557],[1.76199,50.59613],[1.76426,50.59553],[1.76389,50.59509],[1.76325,50.5954],[1.76201,50.5956]]]}},{"type":"Feature","properties":{"k":"PPH","s":4.917},"geometry":{"type":"Polygon","coordinates":[[[1.76653,50.59467],[1.76574,50.59498],[1.76625,50.6011],[1.76599,50.59719],[1.76743,50.59731],[1.76889,50.59482],[1.76748,50.59462],[1.76653,50.59467]]]}},{"type":"Feature","properties":{"k":"MIS","s":3.786},"geometry":{"type":"Polygon","coordinates":[[[1.76717,50.59797],[1.76739,50.60066],[1.76851,50.60022],[1.76778,50.59853],[1.7678,50.59737],[1.76895,50.59597],[1.76948,50.59498],[1.76889,50.59482],[1.76743,50.59731],[1.76599,50.59719],[1.76606,50.598],[1.76717,50.59797]]]}},{"type":"Feature","properties":{"k":"PPH","s":3.777},"geometry":{"type":"Polygon","coordinates":[[[1.77074,50.59494],[1.76734,50.59393],[1.76638,50.59386],[1.76547,50.59413],[1.76392,50.59509],[1.76425,50.59553],[1.76624,50.59474],[1.76748,50.59462],[1.7688,50.5948],[1.77192,50.59554],[1.77217,50.59515],[1.77084,50.59485],[1.77074,50.59494]]]}},{"type":"Feature","properties":{"k":"ORH","s":4.38},"geometry":{"type":"Polygon","coordinates":[[[1.76689,50.59384],[1.76734,50.59393],[1.77074,50.59494],[1.77115,50.59456],[1.7694,50.59381],[1.76694,50.5932],[1.766,50.59322],[1.76321,50.59398],[1.76374,50.59459],[1.76429,50.59445],[1.76395,50.59508],[1.76591,50.59395],[1.76689,50.59384]],[[1.76473,50.59394],[1.76533,50.59365],[1.76597,50.59351],[1.76632,50.5935],[1.76678,50.59365],[1.7675,50.59358],[1.76799,50.59366],[1.76923,50.59416],[1.76941,50.59442],[1.76918,50.59415],[1.76807,50.5937],[1.76678,50.59367],[1.76636,50.59354],[1.76535,50.59366],[1.76428,50.59439],[1.76473,50.59394]]]}},{"type":"Feature","properties":{"k":"PPH","s":5.588},"geometry":{"type":"Polygon","coordinates":[[[1.76948,50.59274],[1.76836,50.59251],[1.76813,50.59186],[1.76515,50.59232],[1.76215,50.59337],[1.76193,50.59385],[1.76276,50.59374],[1.76483,50.59306],[1.76499,50.59348],[1.766,50.59322],[1.76694,50.5932],[1.7694,50.59381],[1.76982,50.59311],[1.76948,50.59274]]]}},{"type":"Feature","properties":{"k":"BTH","s":3.363},"geometry":{"type":"Polygon","coordinates":[[[1.76206,50.59328],[1.76473,50.59238],[1.76479,50.59128],[1.76448,50.59125],[1.76121,50.59223],[1.76123,50.59311],[1.76206,50.59328]]]}},{"type":"Feature","properties":{"k":"BTH","s":1.418},"geometry":{"type":"Polygon","coordinates":[[[1.76697,50.59199],[1.76706,50.59148],[1.76468,50.59128],[1.76474,50.5924],[1.76697,50.59199]]]}},{"type":"Feature","properties":{"k":"BTH","s":0.263},"geometry":{"type":"Polygon","coordinates":[[[1.76811,50.59177],[1.76814,50.59158],[1.76708,50.59148],[1.76702,50.59192],[1.76811,50.59177]]]}},{"type":"Feature","properties":{"k":"MIS","s":0.533},"geometry":{"type":"Polygon","coordinates":[[[1.75874,50.59332],[1.75954,50.59325],[1.75951,50.59243],[1.75869,50.59252],[1.75874,50.59332]]]}},{"type":"Feature","properties":{"k":"ORH","s":1.116},"geometry":{"type":"Polygon","coordinates":[[[1.76123,50.59311],[1.76121,50.59223],[1.75951,50.59243],[1.75954,50.59325],[1.76123,50.59311]]]}},{"type":"Feature","properties":{"k":"BTH","s":1.285},"geometry":{"type":"Polygon","coordinates":[[[1.76024,50.5932],[1.76051,50.5943],[1.76167,50.59424],[1.76208,50.59328],[1.76123,50.59311],[1.76024,50.5932]]]}},{"type":"Feature","properties":{"k":"PPH","s":1.656},"geometry":{"type":"Polygon","coordinates":[[[1.75825,50.59493],[1.75801,50.59245],[1.7569,50.59382],[1.75712,50.59502],[1.75825,50.59493]]]}},{"type":"Feature","properties":{"k":"ORP","s":0.231},"geometry":{"type":"Polygon","coordinates":[[[1.75514,50.59355],[1.75528,50.59361],[1.75606,50.59283],[1.75648,50.59206],[1.75514,50.59355]]]}},{"type":"Feature","properties":{"k":"CZH","s":3.594},"geometry":{"type":"Polygon","coordinates":[[[1.7528,50.5945],[1.75408,50.59521],[1.75626,50.59215],[1.75628,50.59204],[1.75506,50.59192],[1.7528,50.5945]]]}},{"type":"Feature","properties":{"k":"PPH","s":9.447},"geometry":{"type":"Polygon","coordinates":[[[1.75505,50.59192],[1.75386,50.59144],[1.7545,50.59122],[1.75442,50.59093],[1.7529,50.59084],[1.75136,50.59275],[1.75061,50.5922],[1.74964,50.59323],[1.7486,50.59384],[1.74909,50.59416],[1.75044,50.59423],[1.75068,50.59401],[1.75077,50.59427],[1.75139,50.5944],[1.75173,50.59467],[1.75259,50.59466],[1.75505,50.59192]]]}},{"type":"Feature","properties":{"k":"BTH","s":1.374},"geometry":{"type":"Polygon","coordinates":[[[1.75673,50.59115],[1.75478,50.5912],[1.75389,50.59145],[1.75506,50.59191],[1.75645,50.59205],[1.75673,50.59115]]]}},{"type":"Feature","properties":{"k":"ORH","s":1.091},"geometry":{"type":"MultiPolygon","coordinates":[[[[1.75291,50.59081],[1.75442,50.59091],[1.75443,50.59073],[1.75291,50.59065],[1.75291,50.59081]]],[[[1.75675,50.59052],[1.75669,50.59054],[1.75675,50.59053],[1.75675,50.59052]]],[[[1.75298,50.58998],[1.75291,50.59055],[1.75443,50.59063],[1.75444,50.58969],[1.75298,50.58998]]]]}},{"type":"Feature","properties":{"k":"PPH","s":0.477},"geometry":{"type":"Polygon","coordinates":[[[1.75303,50.58929],[1.75298,50.58998],[1.75445,50.58969],[1.75357,50.58934],[1.75303,50.58929]]]}},{"type":"Feature","properties":{"k":"MIS","s":0.073},"geometry":{"type":"MultiPolygon","coordinates":[[[[1.74878,50.58916],[1.75231,50.58922],[1.74906,50.58915],[1.74677,50.58894],[1.74878,50.58916]]],[[[1.75303,50.58929],[1.75357,50.58934],[1.7529,50.58927],[1.75303,50.58929]]]]}},{"type":"Feature","properties":{"k":"JAC","s":0.559},"geometry":{"type":"Polygon","coordinates":[[[1.74873,50.58915],[1.74869,50.58933],[1.75301,50.58945],[1.75301,50.5893],[1.74873,50.58915]]]}},{"type":"Feature","properties":{"k":"BTH","s":7.757},"geometry":{"type":"Polygon","coordinates":[[[1.74869,50.58933],[1.74873,50.58915],[1.74668,50.58894],[1.74035,50.58947],[1.74279,50.59016],[1.74591,50.5897],[1.74809,50.58986],[1.75291,50.59055],[1.75301,50.58945],[1.74869,50.58933]]]}},{"type":"Feature","properties":{"k":"BTH","s":0.06},"geometry":{"type":"Polygon","coordinates":[[[1.74595,50.58897],[1.74664,50.58894],[1.7456,50.58897],[1.74404,50.58909],[1.74595,50.58897]]]}},{"type":"Feature","properties":{"k":"LIF","s":8.078},"geometry":{"type":"Polygon","coordinates":[[[1.7439,50.592],[1.74558,50.59291],[1.74676,50.5921],[1.74339,50.5904],[1.74022,50.58944],[1.74228,50.59326],[1.7439,50.592]]]}},{"type":"Feature","properties":{"k":"AVH","s":0.851},"geometry":{"type":"Polygon","coordinates":[[[1.74802,50.59],[1.7529,50.59071],[1.75291,50.59055],[1.74809,50.58986],[1.74591,50.5897],[1.74531,50.58977],[1.74802,50.59]]]}},{"type":"Feature","properties":{"k":"CZH","s":13.992},"geometry":{"type":"Polygon","coordinates":[[[1.74279,50.59016],[1.74594,50.59159],[1.74777,50.59268],[1.74947,50.59331],[1.75063,50.59215],[1.75136,50.59272],[1.75289,50.59083],[1.75268,50.59067],[1.74802,50.59],[1.74531,50.58977],[1.74279,50.59016]]]}},{"type":"Feature","properties":{"k":"MIS","s":7.214},"geometry":{"type":"Polygon","coordinates":[[[1.74138,50.595],[1.74425,50.59456],[1.7439,50.59387],[1.74647,50.59338],[1.74765,50.59265],[1.74676,50.5921],[1.74558,50.59291],[1.7439,50.592],[1.74211,50.59339],[1.74074,50.59346],[1.74138,50.595]]]}},{"type":"Feature","properties":{"k":"MIS","s":0.776},"geometry":{"type":"Polygon","coordinates":[[[1.74425,50.59456],[1.74558,50.59434],[1.74512,50.59364],[1.7439,50.59387],[1.74425,50.59456]]]}},{"type":"Feature","properties":{"k":"BTH","s":6.8},"geometry":{"type":"Polygon","coordinates":[[[1.74458,50.59626],[1.74539,50.59612],[1.74507,50.59546],[1.74619,50.59528],[1.74558,50.59434],[1.74138,50.595],[1.74208,50.59665],[1.74347,50.59644],[1.74336,50.59686],[1.74411,50.5976],[1.74448,50.59774],[1.74415,50.59758],[1.74453,50.59772],[1.74528,50.5974],[1.74458,50.59626]]]}},{"type":"Feature","properties":{"k":"PPH","s":6.192},"geometry":{"type":"Polygon","coordinates":[[[1.74507,50.59546],[1.74539,50.59612],[1.74458,50.59626],[1.74528,50.5974],[1.74625,50.59799],[1.7457,50.59835],[1.74588,50.59841],[1.74644,50.59814],[1.74576,50.59719],[1.74687,50.59682],[1.74716,50.5971],[1.74837,50.59672],[1.74871,50.59661],[1.74844,50.59631],[1.74921,50.59609],[1.74809,50.59433],[1.74641,50.59472],[1.74719,50.59574],[1.74661,50.59593],[1.74619,50.59528],[1.74507,50.59546]]]}},{"type":"Feature","properties":{"k":"ORP","s":0.165},"geometry":{"type":"Polygon","coordinates":[[[1.74657,50.59722],[1.74666,50.597],[1.74599,50.59723],[1.74621,50.59761],[1.74657,50.59751],[1.74657,50.59722]]]}},{"type":"Feature","properties":{"k":"BTH","s":1.906},"geometry":{"type":"Polygon","coordinates":[[[1.74663,50.59832],[1.74731,50.59868],[1.74901,50.59812],[1.74837,50.59672],[1.74716,50.5971],[1.74687,50.59682],[1.7458,50.59721],[1.74663,50.59832]],[[1.74599,50.59723],[1.74666,50.597],[1.74657,50.59751],[1.74622,50.59755],[1.74599,50.59723]],[[1.74671,50.59806],[1.74726,50.59792],[1.74694,50.5975],[1.74783,50.59723],[1.74845,50.59819],[1.74724,50.59858],[1.74671,50.59806]]]}},{"type":"Feature","properties":{"k":"AVH","s":2.612},"geometry":{"type":"Polygon","coordinates":[[[1.74512,50.59364],[1.74661,50.59593],[1.74719,50.59574],[1.74641,50.59472],[1.74734,50.59446],[1.74701,50.5933],[1.74804,50.59306],[1.74765,50.59265],[1.7466,50.59332],[1.74512,50.59364]]]}},{"type":"Feature","properties":{"k":"PPH","s":2.201},"geometry":{"type":"Polygon","coordinates":[[[1.75096,50.59497],[1.75146,50.59451],[1.75114,50.59439],[1.75099,50.5946],[1.75065,50.59452],[1.75068,50.59492],[1.75027,50.59486],[1.75023,50.59507],[1.74993,50.59511],[1.74966,50.5946],[1.75004,50.59428],[1.7487,50.59424],[1.74899,50.59444],[1.74886,50.5949],[1.74853,50.59493],[1.74901,50.59573],[1.7499,50.59556],[1.75085,50.59627],[1.75115,50.59606],[1.75096,50.59497]]]}},{"type":"Feature","properties":{"k":"PPH","s":0.139},"geometry":{"type":"Polygon","coordinates":[[[1.75138,50.59549],[1.75151,50.59584],[1.7521,50.5956],[1.75172,50.59539],[1.75138,50.59549]]]}},{"type":"Feature","properties":{"k":"PPH","s":1.834},"geometry":{"type":"Polygon","coordinates":[[[1.75262,50.59684],[1.75272,50.59662],[1.75202,50.59566],[1.75151,50.59586],[1.75138,50.59549],[1.75167,50.59534],[1.75149,50.59497],[1.75181,50.5949],[1.75146,50.59451],[1.75096,50.59501],[1.75115,50.59605],[1.75089,50.59625],[1.75177,50.59719],[1.75262,50.59684]]]}},{"type":"Feature","properties":{"k":"BTH","s":1.184},"geometry":{"type":"Polygon","coordinates":[[[1.75647,50.59512],[1.75517,50.59375],[1.75451,50.59459],[1.75591,50.59542],[1.75647,50.59512]]]}},{"type":"Feature","properties":{"k":"JAC","s":0.873},"geometry":{"type":"Polygon","coordinates":[[[1.75524,50.59574],[1.75591,50.59542],[1.75451,50.59459],[1.75398,50.5954],[1.75524,50.59574]]]}},{"type":"Feature","properties":{"k":"PPH","s":0.275},"geometry":{"type":"Polygon","coordinates":[[[1.75276,50.59556],[1.75225,50.59577],[1.75265,50.59621],[1.75328,50.59587],[1.75276,50.59556]]]}},{"type":"Feature","properties":{"k":"PPH","s":0.655},"geometry":{"type":"Polygon","coordinates":[[[1.75523,50.59574],[1.75403,50.59541],[1.75339,50.59655],[1.75523,50.59574]]]}},{"type":"Feature","properties":{"k":"BTH","s":3.793},"geometry":{"type":"Polygon","coordinates":[[[1.75598,50.59852],[1.75617,50.59777],[1.75633,50.59777],[1.75626,50.59526],[1.75419,50.59625],[1.75406,50.5974],[1.75598,50.59852]]]}},{"type":"Feature","properties":{"k":"BTH","s":1.756},"geometry":{"type":"Polygon","coordinates":[[[1.75243,50.59703],[1.75255,50.59765],[1.75234,50.59834],[1.75354,50.59856],[1.75452,50.59778],[1.75301,50.5969],[1.75243,50.59703]]]}},{"type":"Feature","properties":{"k":"BTH","s":0.804},"geometry":{"type":"Polygon","coordinates":[[[1.75238,50.59706],[1.7505,50.59769],[1.75242,50.59806],[1.75238,50.59706]]]}},{"type":"Feature","properties":{"k":"MLG","s":0.846},"geometry":{"type":"Polygon","coordinates":[[[1.75016,50.59696],[1.75072,50.59754],[1.75177,50.59719],[1.75089,50.59626],[1.75016,50.59696]]]}},{"type":"Feature","properties":{"k":"LIF","s":3.058},"geometry":{"type":"Polygon","coordinates":[[[1.74844,50.59631],[1.74871,50.59661],[1.74837,50.59672],[1.74902,50.59812],[1.75072,50.59754],[1.75016,50.59696],[1.75084,50.59628],[1.7499,50.59556],[1.74901,50.59573],[1.74921,50.59609],[1.74844,50.59631]]]}},{"type":"Feature","properties":{"k":"PTR","s":1.02},"geometry":{"type":"Polygon","coordinates":[[[1.75354,50.59856],[1.75545,50.5989],[1.75586,50.59857],[1.75453,50.59779],[1.75354,50.59856]]]}},{"type":"Feature","properties":{"k":"PPH","s":1.225},"geometry":{"type":"Polygon","coordinates":[[[1.7522,50.59973],[1.75414,50.60025],[1.75495,50.59961],[1.75364,50.59935],[1.75228,50.59948],[1.7522,50.59973]]]}},{"type":"Feature","properties":{"k":"BTH","s":9.572},"geometry":{"type":"Polygon","coordinates":[[[1.75787,50.59951],[1.75586,50.59857],[1.75545,50.5989],[1.75231,50.59833],[1.75242,50.59806],[1.7505,50.59769],[1.7478,50.5986],[1.7478,50.59888],[1.75212,50.5997],[1.75242,50.59942],[1.754,50.59938],[1.75498,50.5996],[1.75414,50.60029],[1.75494,50.60053],[1.75655,50.60045],[1.75787,50.59951]]]}},{"type":"Feature","properties":{"k":"BFS","s":0.061},"geometry":{"type":"Polygon","coordinates":[[[1.75402,50.6005],[1.75411,50.60141],[1.75413,50.60033],[1.75402,50.6005]]]}},{"type":"Feature","properties":{"k":"MIS","s":2.688},"geometry":{"type":"Polygon","coordinates":[[[1.74997,50.60195],[1.75213,50.60141],[1.75273,50.60201],[1.75354,50.60183],[1.75355,50.60148],[1.75411,50.60141],[1.75406,50.60031],[1.75057,50.60127],[1.74997,50.60195]]]}},{"type":"Feature","properties":{"k":"ORP","s":0.494},"geometry":{"type":"Polygon","coordinates":[[[1.75359,50.60031],[1.75102,50.60105],[1.75202,50.59973],[1.75185,50.59967],[1.75057,50.60127],[1.75397,50.60029],[1.75237,50.59986],[1.75359,50.60031]]]}},{"type":"Feature","properties":{"k":"BTH","s":1.004},"geometry":{"type":"Polygon","coordinates":[[[1.75202,50.59973],[1.75102,50.60105],[1.75359,50.60031],[1.75202,50.59973]]]}},{"type":"Feature","properties":{"k":"MIS","s":0.745},"geometry":{"type":"Polygon","coordinates":[[[1.7518,50.59964],[1.75095,50.5995],[1.75041,50.60062],[1.75106,50.60071],[1.7518,50.59964]]]}},{"type":"Feature","properties":{"k":"MIS","s":0.945},"geometry":{"type":"Polygon","coordinates":[[[1.75041,50.60062],[1.75095,50.5995],[1.74991,50.59935],[1.74946,50.60049],[1.75041,50.60062]]]}},{"type":"Feature","properties":{"k":"BTH","s":1.277},"geometry":{"type":"Polygon","coordinates":[[[1.74734,50.60018],[1.74728,50.60104],[1.74671,50.60108],[1.74674,50.60129],[1.74768,50.60131],[1.74792,50.60062],[1.75086,50.60093],[1.75106,50.60071],[1.74734,50.60018]]]}},{"type":"Feature","properties":{"k":"BTH","s":2.066},"geometry":{"type":"Polygon","coordinates":[[[1.74744,50.59903],[1.74653,50.59928],[1.74558,50.60004],[1.74616,50.6011],[1.74728,50.60103],[1.74744,50.59903]]]}},{"type":"Feature","properties":{"k":"MIS","s":2.285},"geometry":{"type":"Polygon","coordinates":[[[1.74991,50.59936],[1.74745,50.59883],[1.74734,50.60018],[1.74946,50.60048],[1.74991,50.59936]]]}},{"type":"Feature","properties":{"k":"ORP","s":1.014},"geometry":{"type":"Polygon","coordinates":[[[1.74783,50.59723],[1.74694,50.5975],[1.74726,50.59792],[1.74671,50.59806],[1.74724,50.59858],[1.74845,50.59819],[1.74783,50.59723]]]}},{"type":"Feature","properties":{"k":"PPH","s":0.9},"geometry":{"type":"Polygon","coordinates":[[[1.7455,50.59904],[1.7453,50.59876],[1.74487,50.59867],[1.74472,50.59834],[1.74383,50.59841],[1.74386,50.59936],[1.7455,50.59904]]]}},{"type":"Feature","properties":{"k":"MIS","s":1.005},"geometry":{"type":"Polygon","coordinates":[[[1.74229,50.59713],[1.74292,50.5987],[1.74376,50.59843],[1.7434,50.59737],[1.74229,50.59713]]]}},{"type":"Feature","properties":{"k":"PPH","s":1.619},"geometry":{"type":"Polygon","coordinates":[[[1.74292,50.5987],[1.74321,50.60031],[1.74397,50.59995],[1.7437,50.59952],[1.74387,50.59948],[1.74382,50.59841],[1.74472,50.59834],[1.74463,50.59815],[1.74493,50.59808],[1.7434,50.59737],[1.74376,50.59843],[1.74292,50.5987]]]}},{"type":"Feature","properties":{"k":"MIS","s":0.113},"geometry":{"type":"Polygon","coordinates":[[[1.74302,50.6008],[1.74299,50.60064],[1.7421,50.6009],[1.74219,50.60104],[1.74302,50.6008]]]}},{"type":"Feature","properties":{"k":"PPH","s":4.993},"geometry":{"type":"Polygon","coordinates":[[[1.73963,50.60003],[1.74009,50.60115],[1.74119,50.60102],[1.74298,50.60042],[1.74276,50.59935],[1.74224,50.59933],[1.74223,50.59966],[1.74111,50.59969],[1.74085,50.59968],[1.74109,50.59957],[1.74099,50.59948],[1.73999,50.59947],[1.73981,50.5992],[1.73678,50.59919],[1.73837,50.60021],[1.73963,50.60003]]]}},{"type":"Feature","properties":{"k":"BTH","s":1.109},"geometry":{"type":"Polygon","coordinates":[[[1.74009,50.60115],[1.73962,50.60004],[1.73837,50.60021],[1.73887,50.60125],[1.74009,50.60115]]]}},{"type":"Feature","properties":{"k":"PPH","s":5.704},"geometry":{"type":"Polygon","coordinates":[[[1.73935,50.59772],[1.73565,50.59713],[1.73639,50.59908],[1.73686,50.59912],[1.73698,50.5983],[1.73757,50.59837],[1.73761,50.59818],[1.73872,50.59833],[1.73867,50.59867],[1.73914,50.59881],[1.73909,50.5991],[1.7412,50.59908],[1.74164,50.59894],[1.74194,50.59907],[1.74188,50.59877],[1.74264,50.59873],[1.74249,50.59809],[1.73935,50.59772]]]}},{"type":"Feature","properties":{"k":"MIS","s":0.63},"geometry":{"type":"Polygon","coordinates":[[[1.74208,50.59665],[1.74226,50.59704],[1.74343,50.59732],[1.74361,50.59711],[1.74336,50.59686],[1.74347,50.59644],[1.74208,50.59665]]]}},{"type":"Feature","properties":{"k":"BTN","s":12.026},"geometry":{"type":"Polygon","coordinates":[[[1.73858,50.59674],[1.7411,50.5971],[1.74202,50.5971],[1.74073,50.59414],[1.73495,50.59389],[1.73593,50.59589],[1.73858,50.59674]]]}},{"type":"Feature","properties":{"k":"LIF","s":4.011},"geometry":{"type":"Polygon","coordinates":[[[1.73728,50.59679],[1.73716,50.5974],[1.74249,50.59809],[1.74194,50.59716],[1.74099,50.59713],[1.73819,50.5967],[1.73521,50.59567],[1.73509,50.59603],[1.73728,50.59679]]]}},{"type":"Feature","properties":{"k":"CZH","s":4.555},"geometry":{"type":"Polygon","coordinates":[[[1.73268,50.59874],[1.73351,50.59877],[1.73281,50.59675],[1.73716,50.5974],[1.73728,50.59679],[1.73509,50.59603],[1.73499,50.59635],[1.73377,50.59637],[1.73187,50.59604],[1.73139,50.5958],[1.73185,50.59605],[1.73206,50.59811],[1.73268,50.59874]]]}},{"type":"Feature","properties":{"k":"MIS","s":1.119},"geometry":{"type":"Polygon","coordinates":[[[1.73418,50.59516],[1.73593,50.59589],[1.73495,50.59389],[1.73418,50.59516]]]}},{"type":"Feature","properties":{"k":"ORP","s":0.035},"geometry":{"type":"Polygon","coordinates":[[[1.73423,50.59507],[1.73383,50.59493],[1.73375,50.59502],[1.73423,50.59507]]]}},{"type":"Feature","properties":{"k":"BTP","s":3.39},"geometry":{"type":"Polygon","coordinates":[[[1.73104,50.59562],[1.73187,50.59604],[1.73377,50.59637],[1.73499,50.59635],[1.73521,50.59567],[1.73399,50.59513],[1.73237,50.59471],[1.73104,50.59562]]]}},{"type":"Feature","properties":{"k":"BTH","s":2.631},"geometry":{"type":"Polygon","coordinates":[[[1.73423,50.59507],[1.73495,50.59389],[1.73404,50.59321],[1.73348,50.5933],[1.73303,50.59376],[1.73173,50.59439],[1.73423,50.59507]]]}},{"type":"Feature","properties":{"k":"PTR","s":0.116},"geometry":{"type":"Polygon","coordinates":[[[1.73225,50.59468],[1.73095,50.59557],[1.73104,50.59562],[1.73225,50.59468]]]}},{"type":"Feature","properties":{"k":"PPH","s":0.912},"geometry":{"type":"Polygon","coordinates":[[[1.73145,50.59445],[1.73002,50.59507],[1.73095,50.59557],[1.73237,50.59471],[1.73145,50.59445]]]}},{"type":"Feature","properties":{"k":"BFS","s":0.006},"geometry":{"type":"Polygon","coordinates":[[[1.73271,50.59884],[1.73262,50.59876],[1.73259,50.5988],[1.73271,50.59884]]]}},{"type":"Feature","properties":{"k":"MIS","s":4.3},"geometry":{"type":"Polygon","coordinates":[[[1.73565,50.59714],[1.73281,50.59675],[1.73351,50.59877],[1.73639,50.59908],[1.73565,50.59714]]]}},{"type":"Feature","properties":{"k":"ORH","s":0.084},"geometry":{"type":"MultiPolygon","coordinates":[[[[1.73532,50.60116],[1.73403,50.60023],[1.73354,50.59967],[1.73404,50.60026],[1.73606,50.6019],[1.73532,50.60116]]]]}},{"type":"Feature","properties":{"k":"BTH","s":7.976},"geometry":{"type":"Polygon","coordinates":[[[1.73271,50.59878],[1.73407,50.60023],[1.73613,50.60192],[1.73887,50.6013],[1.73837,50.60021],[1.73678,50.59919],[1.73271,50.59878]]]}},{"type":"Feature","properties":{"k":"BTH","s":3.353},"geometry":{"type":"Polygon","coordinates":[[[1.74004,50.5925],[1.73921,50.59056],[1.73663,50.59147],[1.73691,50.59235],[1.74004,50.5925]]]}},{"type":"Feature","properties":{"k":"BTN","s":0.001},"geometry":{"type":"Polygon","coordinates":[[[1.73685,50.59223],[1.73688,50.59235],[1.73691,50.59235],[1.73685,50.59223]]]}},{"type":"Feature","properties":{"k":"BTN","s":2.699},"geometry":{"type":"Polygon","coordinates":[[[1.74006,50.59252],[1.73689,50.59237],[1.73699,50.5927],[1.73453,50.59312],[1.7404,50.59338],[1.74006,50.59252]]]}},{"type":"Feature","properties":{"k":"MIS","s":3.569},"geometry":{"type":"Polygon","coordinates":[[[1.74074,50.59413],[1.7404,50.59338],[1.73453,50.59312],[1.73405,50.59321],[1.73495,50.59389],[1.74074,50.59413]]]}},{"type":"Feature","properties":{"k":"ORH","s":4.503},"geometry":{"type":"Polygon","coordinates":[[[1.74074,50.59346],[1.74211,50.59339],[1.74228,50.59326],[1.74022,50.58944],[1.739,50.58954],[1.74074,50.59346]]]}},{"type":"Feature","properties":{"k":"CZH","s":0.228},"geometry":{"type":"Polygon","coordinates":[[[1.74405,50.58914],[1.74404,50.58909],[1.74023,50.58937],[1.74405,50.58914]]]}},{"type":"Feature","properties":{"k":"ORH","s":0.071},"geometry":{"type":"Polygon","coordinates":[]}},{"type":"Feature","properties":{"k":"PPR","s":0.064},"geometry":{"type":"Polygon","coordinates":[[[1.76892,50.59166],[1.76817,50.59158],[1.76814,50.5918],[1.76892,50.59166]]]}},{"type":"Feature","properties":{"k":"MIS","s":0.64},"geometry":{"type":"Polygon","coordinates":[[[1.76992,50.59311],[1.77079,50.5929],[1.76904,50.5917],[1.76992,50.59311]]]}},{"type":"Feature","properties":{"k":"BTH","s":0.77},"geometry":{"type":"Polygon","coordinates":[[[1.77141,50.59387],[1.77194,50.59399],[1.77218,50.59386],[1.7708,50.59291],[1.76996,50.59311],[1.77141,50.59387]]]}},{"type":"Feature","properties":{"k":"PPH","s":2.964},"geometry":{"type":"Polygon","coordinates":[[[1.77086,50.59367],[1.76991,50.59312],[1.769,50.59171],[1.76813,50.59186],[1.76836,50.59251],[1.76948,50.59274],[1.76982,50.59311],[1.7694,50.5938],[1.77117,50.59453],[1.77351,50.59514],[1.7737,50.5949],[1.77218,50.59386],[1.77194,50.59399],[1.77086,50.59367]]]}},{"type":"Feature","properties":{"k":"ORH","s":0.024},"geometry":{"type":"Polygon","coordinates":[[[1.77735,50.6177],[1.77743,50.61773],[1.77836,50.61746],[1.77735,50.6177]]]}},{"type":"Feature","properties":{"k":"LUZ","s":1.745},"geometry":{"type":"Polygon","coordinates":[[[1.77807,50.61253],[1.77976,50.61367],[1.78004,50.61478],[1.77954,50.61601],[1.7794,50.61714],[1.77965,50.61706],[1.77981,50.61598],[1.7803,50.61505],[1.77998,50.61343],[1.7802,50.61333],[1.77856,50.61214],[1.77757,50.61265],[1.77763,50.61276],[1.77807,50.61253]]]}},{"type":"Feature","properties":{"k":"PPH","s":1.002},"geometry":{"type":"Polygon","coordinates":[[[1.78361,50.6132],[1.78194,50.61298],[1.78276,50.6137],[1.78422,50.61434],[1.78458,50.614],[1.78335,50.6135],[1.78361,50.6132]]]}},{"type":"Feature","properties":{"k":"LUZ","s":3.499},"geometry":{"type":"Polygon","coordinates":[[[1.78165,50.61191],[1.77938,50.61132],[1.77942,50.6116],[1.78088,50.61223],[1.78107,50.61213],[1.78099,50.61231],[1.78194,50.61298],[1.78361,50.6132],[1.78335,50.6135],[1.78458,50.614],[1.78559,50.61305],[1.78455,50.61236],[1.7839,50.61289],[1.78165,50.61191]]]}},{"type":"Feature","properties":{"k":"PPH","s":0.002},"geometry":{"type":"MultiPolygon","coordinates":[[[[1.77938,50.61717],[1.77954,50.61712],[1.77937,50.61716],[1.77938,50.61717]]]]}},{"type":"Feature","properties":{"k":"PTR","s":2.008},"geometry":{"type":"Polygon","coordinates":[[[1.78168,50.61634],[1.78182,50.61692],[1.78233,50.61689],[1.78339,50.61584],[1.78538,50.61682],[1.78609,50.61646],[1.78233,50.61539],[1.78187,50.61582],[1.78168,50.61634]]]}},{"type":"Feature","properties":{"k":"BTP","s":5.562},"geometry":{"type":"Polygon","coordinates":[[[1.78609,50.61646],[1.78825,50.61545],[1.7844,50.61446],[1.78254,50.61363],[1.78285,50.61477],[1.78233,50.61539],[1.78609,50.61646]]]}},{"type":"Feature","properties":{"k":"MIS","s":3.009},"geometry":{"type":"Polygon","coordinates":[[[1.78679,50.61417],[1.78627,50.61488],[1.78919,50.61557],[1.78977,50.61422],[1.78821,50.61378],[1.78703,50.61422],[1.78679,50.61417]]]}},{"type":"Feature","properties":{"k":"JAC","s":0.032},"geometry":{"type":"Polygon","coordinates":[[[1.7826,50.59863],[1.78243,50.5986],[1.78272,50.59906],[1.7826,50.59863]]]}},{"type":"Feature","properties":{"k":"PPH","s":0.637},"geometry":{"type":"Polygon","coordinates":[[[1.77828,50.60761],[1.77909,50.60708],[1.77818,50.60665],[1.77751,50.60719],[1.77828,50.60761]]]}},{"type":"Feature","properties":{"k":"PPH","s":1.649},"geometry":{"type":"Polygon","coordinates":[[[1.78055,50.60705],[1.78018,50.60737],[1.77966,50.60846],[1.7803,50.60875],[1.78071,50.60877],[1.78163,50.60769],[1.78055,50.60705]]]}},{"type":"Feature","properties":{"k":"PPH","s":0.999},"geometry":{"type":"Polygon","coordinates":[[[1.77525,50.60973],[1.77582,50.60993],[1.77648,50.60949],[1.77458,50.60869],[1.77421,50.60897],[1.77525,50.60973]]]}},{"type":"Feature","properties":{"k":"MIS","s":5.869},"geometry":{"type":"Polygon","coordinates":[[[1.77524,50.61057],[1.77444,50.61012],[1.77506,50.60968],[1.77293,50.60834],[1.76983,50.60974],[1.77251,50.61057],[1.77472,50.61103],[1.77524,50.61057]]]}},{"type":"Feature","properties":{"k":"BTH","s":3.346},"geometry":{"type":"Polygon","coordinates":[[[1.77327,50.60846],[1.7754,50.60668],[1.77383,50.60591],[1.77187,50.60767],[1.77327,50.60846]]]}},{"type":"Feature","properties":{"k":"PPH","s":1.874},"geometry":{"type":"Polygon","coordinates":[[[1.77274,50.60567],[1.77092,50.60735],[1.77187,50.60767],[1.77401,50.60572],[1.77274,50.60567]]]}},{"type":"Feature","properties":{"k":"LUZ","s":0.068},"geometry":{"type":"Polygon","coordinates":[[[1.76995,50.60667],[1.76939,50.60642],[1.76996,50.60674],[1.77056,50.6061],[1.76995,50.60667]]]}},{"type":"Feature","properties":{"k":"TRE","s":0.121},"geometry":{"type":"Polygon","coordinates":[[[1.76866,50.60629],[1.7692,50.6066],[1.76941,50.60643],[1.76885,50.60613],[1.76866,50.60629]]]}},{"type":"Feature","properties":{"k":"MIS","s":4.768},"geometry":{"type":"Polygon","coordinates":[[[1.77065,50.60735],[1.7667,50.60895],[1.76714,50.61004],[1.77244,50.60802],[1.77065,50.60735]]]}},{"type":"Feature","properties":{"k":"MIS","s":2.778},"geometry":{"type":"Polygon","coordinates":[[[1.76722,50.61007],[1.76729,50.61031],[1.76804,50.61055],[1.77292,50.60834],[1.77246,50.60803],[1.76722,50.61007]]]}},{"type":"Feature","properties":{"k":"BTH","s":11.029},"geometry":{"type":"Polygon","coordinates":[[[1.7675,50.61045],[1.76751,50.61115],[1.76721,50.61166],[1.76654,50.61205],[1.76578,50.61226],[1.76535,50.61265],[1.76785,50.61337],[1.77038,50.61129],[1.77368,50.61229],[1.7747,50.61108],[1.76983,50.60974],[1.76797,50.61059],[1.7675,50.61045]]]}},{"type":"Feature","properties":{"k":"LIF","s":3.596},"geometry":{"type":"Polygon","coordinates":[[[1.76866,50.61271],[1.77067,50.61338],[1.7722,50.61209],[1.77348,50.61246],[1.77468,50.61265],[1.77485,50.61251],[1.77367,50.6123],[1.77038,50.61129],[1.76866,50.61271]]]}},{"type":"Feature","properties":{"k":"PPR","s":2.5},"geometry":{"type":"Polygon","coordinates":[[[1.77261,50.61437],[1.77468,50.61265],[1.77319,50.61238],[1.77106,50.61416],[1.77261,50.61437]]]}},{"type":"Feature","properties":{"k":"PHI","s":3.308},"geometry":{"type":"Polygon","coordinates":[[[1.7699,50.61397],[1.77106,50.61416],[1.77319,50.61238],[1.7722,50.61209],[1.77067,50.61338],[1.76866,50.61271],[1.76793,50.61331],[1.7699,50.61397]]]}},{"type":"Feature","properties":{"k":"PTR","s":1.153},"geometry":{"type":"Polygon","coordinates":[[[1.76945,50.6153],[1.76872,50.61443],[1.7679,50.61476],[1.76777,50.61581],[1.76945,50.6153]]]}},{"type":"Feature","properties":{"k":"LUZ","s":1.088},"geometry":{"type":"Polygon","coordinates":[[[1.77192,50.61545],[1.77335,50.61577],[1.77372,50.61553],[1.77216,50.61521],[1.77149,50.61531],[1.76964,50.61515],[1.76926,50.61544],[1.76972,50.61559],[1.77135,50.61564],[1.77192,50.61545]]]}},{"type":"Feature","properties":{"k":"BTH","s":5.407},"geometry":{"type":"Polygon","coordinates":[[[1.77515,50.61425],[1.77732,50.61295],[1.77485,50.61251],[1.77149,50.61531],[1.77216,50.61521],[1.77372,50.61553],[1.77515,50.61425]]]}},{"type":"Feature","properties":{"k":"AVH","s":1.639},"geometry":{"type":"Polygon","coordinates":[[[1.76964,50.61515],[1.77149,50.61531],[1.77261,50.61437],[1.77077,50.61412],[1.76964,50.61515]]]}},{"type":"Feature","properties":{"k":"ORH","s":6.04},"geometry":{"type":"Polygon","coordinates":[[[1.78645,50.6122],[1.78416,50.61055],[1.7832,50.6101],[1.78063,50.60945],[1.78019,50.6105],[1.78296,50.61129],[1.78559,50.61305],[1.78645,50.6122]]]}},{"type":"Feature","properties":{"k":"MIS","s":0.047},"geometry":{"type":"Polygon","coordinates":[[[1.78266,50.6063],[1.78257,50.6063],[1.78318,50.60722],[1.78266,50.6063]]]}},{"type":"Feature","properties":{"k":"BTH","s":2.721},"geometry":{"type":"Polygon","coordinates":[[[1.78595,50.60655],[1.78537,50.60576],[1.78528,50.60468],[1.78429,50.60564],[1.78274,50.60632],[1.78332,50.60719],[1.78595,50.60655]]]}},{"type":"Feature","properties":{"k":"BTH","s":8.294},"geometry":{"type":"Polygon","coordinates":[[[1.77941,50.60497],[1.78123,50.60553],[1.78215,50.60612],[1.78394,50.60374],[1.78196,50.60182],[1.78069,50.60284],[1.77941,50.60497]]]}},{"type":"Feature","properties":{"k":"BTH","s":11.602},"geometry":{"type":"Polygon","coordinates":[[[1.78306,50.60616],[1.78365,50.60592],[1.78526,50.60455],[1.78485,50.60338],[1.78407,50.60218],[1.78281,50.60096],[1.78249,50.60034],[1.78272,50.59906],[1.78237,50.59859],[1.78184,50.59851],[1.78168,50.59874],[1.78096,50.59865],[1.77853,50.59891],[1.78262,50.60238],[1.78398,50.60375],[1.78226,50.60602],[1.78236,50.60619],[1.78306,50.60616]]]}},{"type":"Feature","properties":{"k":"ORH","s":15.599},"geometry":{"type":"Polygon","coordinates":[[[1.77495,50.61452],[1.77276,50.61671],[1.77347,50.61688],[1.77461,50.61636],[1.77579,50.61635],[1.77659,50.61673],[1.77737,50.61769],[1.7794,50.61714],[1.77954,50.61601],[1.78004,50.61478],[1.77976,50.61367],[1.77807,50.61253],[1.77755,50.6127],[1.77745,50.61295],[1.77495,50.61452]]]}},{"type":"Feature","properties":{"k":"LUZ","s":1.718},"geometry":{"type":"Polygon","coordinates":[[[1.77267,50.61709],[1.77358,50.61731],[1.7748,50.61671],[1.77565,50.61671],[1.77611,50.61696],[1.77678,50.61778],[1.77737,50.61769],[1.77659,50.61673],[1.77579,50.61635],[1.77466,50.61635],[1.77347,50.61688],[1.77276,50.61671],[1.77267,50.61709]]]}},{"type":"Feature","properties":{"k":"ORH","s":9.827},"geometry":{"type":"Polygon","coordinates":[[[1.76857,50.60027],[1.76981,50.60126],[1.7716,50.60042],[1.77205,50.60081],[1.77636,50.59959],[1.77642,50.59874],[1.77714,50.59759],[1.77085,50.59933],[1.76857,50.60027]]]}},{"type":"Feature","properties":{"k":"PPH","s":1.103},"geometry":{"type":"Polygon","coordinates":[[[1.78062,50.60945],[1.78344,50.61019],[1.78507,50.61118],[1.78536,50.61087],[1.78358,50.60994],[1.78076,50.60923],[1.78062,50.60945]]]}},{"type":"Feature","properties":{"k":"CZH","s":5.299},"geometry":{"type":"Polygon","coordinates":[[[1.77053,50.59761],[1.77084,50.59933],[1.77502,50.59815],[1.7726,50.59656],[1.77053,50.59761]]]}},{"type":"Feature","properties":{"k":"BTH","s":9.951},"geometry":{"type":"Polygon","coordinates":[[[1.76783,50.59737],[1.77052,50.59759],[1.77053,50.59761],[1.7726,50.59656],[1.77502,50.59815],[1.77712,50.59758],[1.77435,50.59623],[1.76946,50.59501],[1.76783,50.59737]]]}},{"type":"Feature","properties":{"k":"BTH","s":5.018},"geometry":{"type":"Polygon","coordinates":[[[1.7678,50.59737],[1.76778,50.59853],[1.76851,50.60022],[1.77081,50.59929],[1.77052,50.59759],[1.7678,50.59737]]]}},{"type":"Feature","properties":{"k":"BTH","s":3.932},"geometry":{"type":"Polygon","coordinates":[[[1.77977,50.61036],[1.77928,50.61119],[1.77938,50.61132],[1.78165,50.61191],[1.7839,50.61289],[1.78455,50.61236],[1.78296,50.61129],[1.77977,50.61036]]]}},{"type":"Feature","properties":{"k":"PPH","s":3.358},"geometry":{"type":"Polygon","coordinates":[[[1.77217,50.59515],[1.77192,50.59554],[1.77492,50.59643],[1.77714,50.59759],[1.77642,50.59874],[1.77646,50.59956],[1.77717,50.59941],[1.77716,50.59895],[1.77761,50.59837],[1.77863,50.59837],[1.7772,50.59755],[1.77714,50.59708],[1.77526,50.596],[1.77522,50.59584],[1.77504,50.59601],[1.77217,50.59515]]]}},{"type":"Feature","properties":{"k":"MIS","s":3.072},"geometry":{"type":"Polygon","coordinates":[[[1.77716,50.60027],[1.7769,50.59947],[1.77494,50.6],[1.77694,50.60206],[1.7782,50.60127],[1.77716,50.60027]]]}},{"type":"Feature","properties":{"k":"PTR","s":0.101},"geometry":{"type":"Polygon","coordinates":[[[1.77515,50.61051],[1.77459,50.61011],[1.77506,50.60968],[1.77451,50.61017],[1.77515,50.61051]]]}},{"type":"Feature","properties":{"k":"BTH","s":0.981},"geometry":{"type":"MultiPolygon","coordinates":[[[[1.77661,50.61782],[1.77668,50.61781],[1.77667,50.6178],[1.77661,50.61782]]],[[[1.77326,50.61995],[1.77043,50.6215],[1.77374,50.62038],[1.77402,50.62049],[1.77422,50.62036],[1.77256,50.61957],[1.77326,50.61995]]]]}},{"type":"Feature","properties":{"k":"PTR","s":0.064},"geometry":{"type":"Polygon","coordinates":[[[1.77158,50.61897],[1.77253,50.61922],[1.7713,50.61872],[1.77158,50.61897]]]}},{"type":"Feature","properties":{"k":"PTR","s":0.365},"geometry":{"type":"Polygon","coordinates":[[[1.77018,50.61894],[1.76761,50.61839],[1.77033,50.61905],[1.77096,50.61827],[1.7707,50.61821],[1.77018,50.61894]]]}},{"type":"Feature","properties":{"k":"CZH","s":4.212},"geometry":{"type":"Polygon","coordinates":[[[1.76802,50.61984],[1.76981,50.6209],[1.77138,50.61837],[1.77096,50.61827],[1.77033,50.61905],[1.76803,50.61855],[1.76708,50.61797],[1.76676,50.61809],[1.76802,50.61984]]]}},{"type":"Feature","properties":{"k":"BTH","s":3.424},"geometry":{"type":"Polygon","coordinates":[[[1.76988,50.62101],[1.7704,50.62148],[1.77326,50.61995],[1.77225,50.61941],[1.77247,50.61926],[1.77208,50.61904],[1.77126,50.61877],[1.76988,50.62101]]]}},{"type":"Feature","properties":{"k":"BTH","s":3.066},"geometry":{"type":"Polygon","coordinates":[[[1.78,50.60746],[1.7804,50.60701],[1.78115,50.60665],[1.78099,50.60657],[1.78187,50.60602],[1.78148,50.60571],[1.78032,50.60532],[1.77827,50.60669],[1.78,50.60746]]]}},{"type":"Feature","properties":{"k":"BTH","s":0.636},"geometry":{"type":"Polygon","coordinates":[[[1.76869,50.60296],[1.77066,50.60175],[1.77031,50.60155],[1.76822,50.60285],[1.76869,50.60296]]]}},{"type":"Feature","properties":{"k":"ORH","s":0.001},"geometry":{"type":"MultiPolygon","coordinates":[]}},{"type":"Feature","properties":{"k":"PPH","s":0.799},"geometry":{"type":"Polygon","coordinates":[[[1.77716,50.60027],[1.7782,50.60127],[1.77843,50.60111],[1.7773,50.60009],[1.77771,50.59997],[1.77752,50.59899],[1.7772,50.59895],[1.77717,50.59941],[1.7769,50.59947],[1.77716,50.60027]]]}},{"type":"Feature","properties":{"k":"ORH","s":2.797},"geometry":{"type":"Polygon","coordinates":[[[1.77137,50.60234],[1.76988,50.60323],[1.77455,50.60439],[1.77463,50.60427],[1.77455,50.60422],[1.77157,50.60224],[1.77137,50.60234]]]}},{"type":"Feature","properties":{"k":"LIF","s":7.808},"geometry":{"type":"Polygon","coordinates":[[[1.77586,50.60345],[1.77298,50.60054],[1.77205,50.60081],[1.7716,50.60042],[1.77026,50.60106],[1.76981,50.60127],[1.77156,50.60223],[1.77463,50.60427],[1.77455,50.60439],[1.77489,50.60445],[1.77586,50.60345]]]}},{"type":"Feature","properties":{"k":"JAC","s":0.386},"geometry":{"type":"Polygon","coordinates":[[[1.78063,50.61487],[1.78092,50.61485],[1.78055,50.61346],[1.7802,50.61333],[1.78063,50.61487]]]}},{"type":"Feature","properties":{"k":"PPH","s":0.332},"geometry":{"type":"Polygon","coordinates":[[[1.77875,50.61206],[1.77916,50.61157],[1.7783,50.61133],[1.77809,50.6116],[1.77875,50.61206]]]}},{"type":"Feature","properties":{"k":"PPH","s":0.48},"geometry":{"type":"Polygon","coordinates":[[[1.77804,50.61158],[1.77761,50.61212],[1.77755,50.61265],[1.77872,50.61205],[1.77804,50.61158]]]}},{"type":"Feature","properties":{"k":"PTR","s":0.822},"geometry":{"type":"Polygon","coordinates":[[[1.77743,50.61226],[1.77636,50.61189],[1.7759,50.61268],[1.77734,50.61293],[1.77743,50.61226]]]}},{"type":"Feature","properties":{"k":"ORH","s":7.549},"geometry":{"type":"Polygon","coordinates":[[[1.78257,50.6063],[1.78205,50.60635],[1.78058,50.60698],[1.78319,50.60865],[1.7844,50.60911],[1.78817,50.61141],[1.7885,50.61042],[1.78318,50.60722],[1.78257,50.6063]]]}},{"type":"Feature","properties":{"k":"PPH","s":4.064},"geometry":{"type":"Polygon","coordinates":[[[1.77617,50.6122],[1.77522,50.61189],[1.77549,50.61155],[1.7774,50.61212],[1.77833,50.61113],[1.77729,50.61062],[1.7774,50.61048],[1.77668,50.61039],[1.77657,50.61059],[1.77595,50.61057],[1.77542,50.61117],[1.77494,50.61095],[1.77369,50.6123],[1.77589,50.61268],[1.77617,50.6122]]]}},{"type":"Feature","properties":{"k":"BTH","s":0.192},"geometry":{"type":"Polygon","coordinates":[[[1.7821,50.60625],[1.78187,50.60602],[1.78099,50.60657],[1.78115,50.60665],[1.7821,50.60625]]]}},{"type":"Feature","properties":{"k":"PPH","s":3.383},"geometry":{"type":"Polygon","coordinates":[[[1.79064,50.6129],[1.79049,50.61211],[1.78802,50.6129],[1.78732,50.61343],[1.78679,50.61417],[1.78703,50.61422],[1.78821,50.61378],[1.78977,50.61422],[1.79064,50.6129]]]}},{"type":"Feature","properties":{"k":"MIS","s":12.53},"geometry":{"type":"Polygon","coordinates":[[[1.77867,50.60421],[1.78019,50.60248],[1.78069,50.60284],[1.78196,50.60182],[1.77853,50.59891],[1.78096,50.59865],[1.78068,50.59847],[1.77909,50.59822],[1.77875,50.59844],[1.7778,50.59829],[1.77761,50.59842],[1.77771,50.59997],[1.7773,50.60009],[1.77843,50.60111],[1.77663,50.60231],[1.77672,50.60242],[1.77613,50.6029],[1.77867,50.60421]]]}},{"type":"Feature","properties":{"k":"PPR","s":0.008},"geometry":{"type":"Polygon","coordinates":[[[1.78905,50.61563],[1.78882,50.61581],[1.78914,50.61564],[1.78905,50.61563]]]}},{"type":"Feature","properties":{"k":"MIS","s":0.022},"geometry":{"type":"MultiPolygon","coordinates":[[[[1.79051,50.61217],[1.79064,50.6129],[1.79067,50.61288],[1.79051,50.61217]]],[[[1.79028,50.61118],[1.79024,50.61116],[1.79048,50.61204],[1.79028,50.61118]]]]}},{"type":"Feature","properties":{"k":"PTR","s":1.685},"geometry":{"type":"Polygon","coordinates":[[[1.77665,50.60459],[1.77754,50.60358],[1.7763,50.60306],[1.775,50.60443],[1.77665,50.60459]]]}},{"type":"Feature","properties":{"k":"PTR","s":2.581},"geometry":{"type":"Polygon","coordinates":[[[1.77825,50.60464],[1.77935,50.60497],[1.78058,50.60276],[1.78019,50.60248],[1.77867,50.60421],[1.77754,50.60358],[1.77677,50.60459],[1.77825,50.60464]]]}},{"type":"Feature","properties":{"k":"PPH","s":1.929},"geometry":{"type":"Polygon","coordinates":[[[1.77828,50.60473],[1.77745,50.60586],[1.77855,50.6064],[1.7803,50.60532],[1.77828,50.60473]]]}},{"type":"Feature","properties":{"k":"PTR","s":1.195},"geometry":{"type":"Polygon","coordinates":[[[1.77613,50.60521],[1.77745,50.60586],[1.77828,50.60473],[1.77658,50.60466],[1.77613,50.60521]]]}},{"type":"Feature","properties":{"k":"BTH","s":1.267},"geometry":{"type":"Polygon","coordinates":[[[1.77613,50.60521],[1.77658,50.60466],[1.7749,50.60452],[1.77429,50.60544],[1.77551,50.60572],[1.77597,50.60515],[1.77613,50.60521]]]}},{"type":"Feature","properties":{"k":"ORH","s":3.209},"geometry":{"type":"Polygon","coordinates":[[[1.77564,50.60776],[1.77622,50.608],[1.77735,50.60717],[1.77588,50.60633],[1.7733,50.60848],[1.77416,50.60898],[1.77564,50.60776]]]}},{"type":"Feature","properties":{"k":"BTH","s":1.424},"geometry":{"type":"Polygon","coordinates":[[[1.76986,50.60322],[1.77156,50.60223],[1.77066,50.60175],[1.7687,50.60296],[1.76986,50.60322]]]}},{"type":"Feature","properties":{"k":"PPH","s":1.858},"geometry":{"type":"Polygon","coordinates":[[[1.77157,50.60425],[1.77004,50.60334],[1.7677,50.60292],[1.77079,50.6048],[1.77157,50.60425]]]}},{"type":"Feature","properties":{"k":"ORH","s":1.649},"geometry":{"type":"Polygon","coordinates":[[[1.78905,50.61563],[1.78825,50.61544],[1.78539,50.61682],[1.78629,50.61717],[1.78905,50.61563]]]}},{"type":"Feature","properties":{"k":"PPH","s":4.818},"geometry":{"type":"Polygon","coordinates":[[[1.77597,50.60515],[1.77551,50.60572],[1.77543,50.60607],[1.77736,50.60717],[1.77625,50.60801],[1.7768,50.60824],[1.77599,50.60892],[1.77661,50.60917],[1.7768,50.60906],[1.77675,50.60836],[1.77706,50.60827],[1.77768,50.6085],[1.77778,50.60921],[1.77824,50.60937],[1.77875,50.60882],[1.77831,50.60869],[1.77919,50.60801],[1.77741,50.60714],[1.77855,50.6064],[1.77597,50.60515]]]}},{"type":"Feature","properties":{"k":"PPH","s":5.386},"geometry":{"type":"Polygon","coordinates":[[[1.78625,50.61488],[1.78776,50.61305],[1.78847,50.61266],[1.78992,50.61222],[1.78773,50.61158],[1.78647,50.6122],[1.78425,50.61433],[1.78625,50.61488]]]}},{"type":"Feature","properties":{"k":"BTH","s":5.494},"geometry":{"type":"Polygon","coordinates":[[[1.78333,50.60726],[1.78832,50.61027],[1.78862,50.60998],[1.78767,50.60942],[1.78856,50.60867],[1.78737,50.60794],[1.78647,50.60766],[1.78596,50.60654],[1.78333,50.60726]]]}}]}