{"type":"FeatureCollection","features":[{"type":"Feature","properties":{"k":"BTN","s":3.47},"geometry":{"type":"MultiPolygon","coordinates":[[[[2.2463,50.52812],[2.24969,50.5261],[2.2488,50.52535],[2.24538,50.52739],[2.2463,50.52812]]],[[[2.251,50.52562],[2.25096,50.52564],[2.25105,50.52565],[2.251,50.52562]]]]}},{"type":"Feature","properties":{"k":"MIS","s":9.569},"geometry":{"type":"Polygon","coordinates":[[[2.2499,50.52627],[2.24969,50.5261],[2.24633,50.52813],[2.24814,50.52962],[2.25276,50.52686],[2.25226,50.52578],[2.25096,50.52564],[2.2499,50.52627]]]}},{"type":"Feature","properties":{"k":"BTH","s":1.028},"geometry":{"type":"Polygon","coordinates":[[[2.25039,50.52129],[2.25253,50.52189],[2.25276,50.52131],[2.25073,50.5208],[2.25039,50.52129]]]}},{"type":"Feature","properties":{"k":"TRE","s":0.002},"geometry":{"type":"Polygon","coordinates":[]}},{"type":"Feature","properties":{"k":"LUZ","s":0.018},"geometry":{"type":"Polygon","coordinates":[[[2.25066,50.52079],[2.25036,50.52127],[2.25073,50.5208],[2.25066,50.52079]]]}},{"type":"Feature","properties":{"k":"PTR","s":0.003},"geometry":{"type":"Polygon","coordinates":[[[2.25402,50.51892],[2.25404,50.51919],[2.25404,50.51893],[2.25402,50.51892]]]}},{"type":"Feature","properties":{"k":"BTH","s":0.001},"geometry":{"type":"Polygon","coordinates":[[[2.254,50.51881],[2.25402,50.51892],[2.25404,50.51893],[2.254,50.51881]]]}},{"type":"Feature","properties":{"k":"BTH","s":7.042},"geometry":{"type":"Polygon","coordinates":[[[2.25435,50.52055],[2.25976,50.52196],[2.26047,50.52114],[2.25714,50.52028],[2.25771,50.51945],[2.25403,50.51848],[2.25435,50.52055]],[[2.25482,50.51876],[2.25477,50.51894],[2.2545,50.51887],[2.25446,50.5187],[2.25482,50.51876]],[[2.25639,50.51945],[2.25666,50.5195],[2.25671,50.51972],[2.25635,50.51987],[2.25615,50.51964],[2.25639,50.51945]]]}},{"type":"Feature","properties":{"k":"BTH","s":2.535},"geometry":{"type":"Polygon","coordinates":[[[2.2577,50.51947],[2.25714,50.52028],[2.26047,50.52114],[2.26055,50.52105],[2.26065,50.52094],[2.26079,50.52076],[2.26107,50.52034],[2.2577,50.51947]]]}},{"type":"Feature","properties":{"k":"LUZ","s":0.035},"geometry":{"type":"Polygon","coordinates":[[[2.2594,50.51991],[2.26068,50.52024],[2.25771,50.51945],[2.2594,50.51991]]]}},{"type":"Feature","properties":{"k":"BTH","s":1.023},"geometry":{"type":"Polygon","coordinates":[[[2.26161,50.51973],[2.26146,50.52008],[2.26275,50.52078],[2.26428,50.5216],[2.26461,50.52134],[2.26161,50.51973]]]}},{"type":"Feature","properties":{"k":"BTH","s":0.971},"geometry":{"type":"Polygon","coordinates":[[[2.26461,50.52134],[2.26487,50.52115],[2.26186,50.51937],[2.26162,50.51972],[2.26461,50.52134]]]}},{"type":"Feature","properties":{"k":"PHF","s":2.752},"geometry":{"type":"Polygon","coordinates":[[[2.2643,50.51983],[2.26234,50.51868],[2.26186,50.51937],[2.26487,50.52115],[2.26608,50.52025],[2.2643,50.51983]]]}},{"type":"Feature","properties":{"k":"BTH","s":5.921},"geometry":{"type":"Polygon","coordinates":[[[2.26429,50.52161],[2.26723,50.52319],[2.26908,50.52139],[2.26745,50.52057],[2.26607,50.52026],[2.26429,50.52161]]]}},{"type":"Feature","properties":{"k":"PTC","s":13.834},"geometry":{"type":"Polygon","coordinates":[[[2.26988,50.52677],[2.26018,50.52159],[2.25902,50.5229],[2.26706,50.52723],[2.26988,50.52677]]]}},{"type":"Feature","properties":{"k":"BTH","s":8.893},"geometry":{"type":"Polygon","coordinates":[[[2.26414,50.52173],[2.26263,50.52285],[2.26988,50.52677],[2.27108,50.52667],[2.27239,50.52683],[2.26637,50.52403],[2.26719,50.52323],[2.26443,50.52174],[2.26414,50.52173]]]}},{"type":"Feature","properties":{"k":"MIS","s":5.231},"geometry":{"type":"Polygon","coordinates":[[[2.27062,50.52677],[2.26712,50.52732],[2.26638,50.52732],[2.2698,50.52904],[2.27228,50.52693],[2.27062,50.52677]]]}},{"type":"Feature","properties":{"k":"BTH","s":1.961},"geometry":{"type":"Polygon","coordinates":[[[2.2663,50.52732],[2.26484,50.52715],[2.26929,50.52946],[2.2698,50.52904],[2.2663,50.52732]]]}},{"type":"Feature","properties":{"k":"BTN","s":0.715},"geometry":{"type":"Polygon","coordinates":[[[2.26092,50.52693],[2.2626,50.52785],[2.26303,50.52753],[2.26132,50.52664],[2.26092,50.52693]]]}},{"type":"Feature","properties":{"k":"BTH","s":0.518},"geometry":{"type":"Polygon","coordinates":[[[2.25757,50.52721],[2.25774,50.52772],[2.25915,50.52846],[2.25945,50.52824],[2.25757,50.52721]]]}},{"type":"Feature","properties":{"k":"BTH","s":5.155},"geometry":{"type":"Polygon","coordinates":[[[2.25757,50.52721],[2.26104,50.5291],[2.2613,50.52889],[2.26109,50.52878],[2.26146,50.5285],[2.26167,50.52859],[2.26219,50.52819],[2.25662,50.52525],[2.25757,50.52721]]]}},{"type":"Feature","properties":{"k":"MIS","s":5.296},"geometry":{"type":"Polygon","coordinates":[[[2.26092,50.52693],[2.2615,50.52649],[2.25721,50.52419],[2.25648,50.52502],[2.25662,50.52525],[2.26219,50.52819],[2.2626,50.52785],[2.26092,50.52693]]]}},{"type":"Feature","properties":{"k":"BTH","s":5.968},"geometry":{"type":"Polygon","coordinates":[[[2.25737,50.52427],[2.26325,50.52741],[2.26489,50.52706],[2.25825,50.52352],[2.2575,50.52399],[2.25766,50.52409],[2.25737,50.52427]]]}},{"type":"Feature","properties":{"k":"LIF","s":5.959},"geometry":{"type":"Polygon","coordinates":[[[2.26489,50.52706],[2.26705,50.52724],[2.25902,50.5229],[2.25825,50.52352],[2.26489,50.52706]]]}},{"type":"Feature","properties":{"k":"AVP","s":4.371},"geometry":{"type":"Polygon","coordinates":[[[2.26426,50.52164],[2.26133,50.52013],[2.26019,50.52156],[2.2626,50.52285],[2.26426,50.52164]]]}},{"type":"Feature","properties":{"k":"LIF","s":7.154},"geometry":{"type":"Polygon","coordinates":[[[2.25581,50.52398],[2.25642,50.52492],[2.25707,50.5242],[2.25889,50.52294],[2.25954,50.52218],[2.25457,50.52087],[2.25581,50.52398]]]}},{"type":"Feature","properties":{"k":"BTH","s":1.144},"geometry":{"type":"Polygon","coordinates":[[[2.25684,50.52119],[2.25435,50.52055],[2.25458,50.52089],[2.25954,50.52218],[2.25976,50.52196],[2.25684,50.52119]]]}},{"type":"Feature","properties":{"k":"PPH","s":2.01},"geometry":{"type":"Polygon","coordinates":[[[2.25484,50.52254],[2.25492,50.52237],[2.2525,50.5219],[2.25264,50.52303],[2.25548,50.52322],[2.25534,50.52265],[2.25484,50.52254]]]}},{"type":"Feature","properties":{"k":"BTH","s":0.112},"geometry":{"type":"Polygon","coordinates":[[[2.25349,50.52155],[2.25501,50.52203],[2.25497,50.52193],[2.25349,50.52155]]]}},{"type":"Feature","properties":{"k":"CPL","s":0.585},"geometry":{"type":"Polygon","coordinates":[[[2.25324,50.52205],[2.25529,50.52244],[2.25512,50.52206],[2.25345,50.52163],[2.25324,50.52205]]]}},{"type":"Feature","properties":{"k":"BTH","s":0.15},"geometry":{"type":"Polygon","coordinates":[[[2.25506,50.52194],[2.25276,50.52131],[2.25269,50.52143],[2.25506,50.52194]]]}},{"type":"Feature","properties":{"k":"BTH","s":0.01},"geometry":{"type":"Polygon","coordinates":[[[2.25073,50.5208],[2.25066,50.52078],[2.25066,50.52079],[2.25073,50.5208]]]}},{"type":"Feature","properties":{"k":"CPL","s":0.288},"geometry":{"type":"Polygon","coordinates":[[[2.25253,50.52189],[2.25324,50.52205],[2.25345,50.52163],[2.25269,50.52143],[2.25253,50.52189]]]}},{"type":"Feature","properties":{"k":"BTH","s":1.289},"geometry":{"type":"Polygon","coordinates":[[[2.25482,50.52374],[2.25565,50.52379],[2.25548,50.52322],[2.25264,50.52303],[2.25271,50.5236],[2.25482,50.52374]]]}},{"type":"Feature","properties":{"k":"PTC","s":4.904},"geometry":{"type":"Polygon","coordinates":[[[2.2525,50.5219],[2.25125,50.52159],[2.25112,50.52562],[2.2529,50.52576],[2.2525,50.5219]]]}},{"type":"Feature","properties":{"k":"MIS","s":5.965},"geometry":{"type":"Polygon","coordinates":[[[2.2527,50.5236],[2.2529,50.52576],[2.25702,50.52605],[2.25565,50.52379],[2.2527,50.5236]]]}},{"type":"Feature","properties":{"k":"MIS","s":2.015},"geometry":{"type":"Polygon","coordinates":[[[2.25505,50.52646],[2.25727,50.52662],[2.25702,50.52605],[2.25234,50.52573],[2.25259,50.52628],[2.25505,50.52646]]]}},{"type":"Feature","properties":{"k":"PTR","s":2.543},"geometry":{"type":"Polygon","coordinates":[[[2.25727,50.52662],[2.2526,50.52629],[2.25291,50.52698],[2.2575,50.52735],[2.25727,50.52662]]]}},{"type":"Feature","properties":{"k":"BTH","s":3.167},"geometry":{"type":"Polygon","coordinates":[[[2.25329,50.52789],[2.2578,50.52825],[2.2575,50.52735],[2.25291,50.52698],[2.25329,50.52789]]]}},{"type":"Feature","properties":{"k":"BTN","s":9.155},"geometry":{"type":"Polygon","coordinates":[[[2.25412,50.53061],[2.25798,50.53103],[2.25781,50.52826],[2.25329,50.5279],[2.25412,50.53061]]]}},{"type":"Feature","properties":{"k":"BTH","s":1.787},"geometry":{"type":"Polygon","coordinates":[[[2.2581,50.53128],[2.25772,50.53099],[2.25523,50.5308],[2.2564,50.53228],[2.2581,50.53128]]]}},{"type":"Feature","properties":{"k":"PPH","s":5.246},"geometry":{"type":"Polygon","coordinates":[[[2.25392,50.53034],[2.25144,50.53182],[2.25291,50.53336],[2.25361,50.53299],[2.25435,50.53336],[2.25554,50.53273],[2.25392,50.53034]]]}},{"type":"Feature","properties":{"k":"PPH","s":0.9},"geometry":{"type":"Polygon","coordinates":[[[2.25156,50.53358],[2.2521,50.53409],[2.2524,50.53393],[2.25276,50.53428],[2.25331,50.53391],[2.25314,50.53393],[2.2524,50.53295],[2.25156,50.53358]]]}},{"type":"Feature","properties":{"k":"PPH","s":0.325},"geometry":{"type":"Polygon","coordinates":[[[2.25343,50.53518],[2.25304,50.53561],[2.25283,50.53546],[2.25267,50.53555],[2.25317,50.53595],[2.25391,50.53559],[2.25343,50.53518]]]}},{"type":"Feature","properties":{"k":"LIF","s":2.885},"geometry":{"type":"Polygon","coordinates":[[[2.25444,50.53607],[2.25661,50.53475],[2.25507,50.5341],[2.25472,50.53434],[2.2543,50.53403],[2.25301,50.53486],[2.25444,50.53607]]]}},{"type":"Feature","properties":{"k":"PPH","s":0.945},"geometry":{"type":"Polygon","coordinates":[[[2.25773,50.53506],[2.25799,50.53351],[2.257,50.53402],[2.25718,50.53416],[2.25628,50.5346],[2.25773,50.53506]]]}},{"type":"Feature","properties":{"k":"PPH","s":1.585},"geometry":{"type":"Polygon","coordinates":[[[2.25716,50.53393],[2.25642,50.53335],[2.25576,50.53377],[2.25483,50.53324],[2.25418,50.53358],[2.25622,50.53461],[2.25717,50.53416],[2.25699,50.53402],[2.25716,50.53393]]]}},{"type":"Feature","properties":{"k":"PPH","s":2.641},"geometry":{"type":"Polygon","coordinates":[[[2.25801,50.53157],[2.25538,50.53294],[2.25607,50.5333],[2.25551,50.5336],[2.25576,50.53375],[2.25642,50.53333],[2.25718,50.53391],[2.25799,50.53349],[2.25801,50.53157]]]}},{"type":"Feature","properties":{"k":"MIS","s":2.046},"geometry":{"type":"Polygon","coordinates":[[[2.25913,50.53212],[2.25817,50.53169],[2.25813,50.53291],[2.25929,50.53358],[2.26083,50.53251],[2.25913,50.53212]]]}},{"type":"Feature","properties":{"k":"PPH","s":1.54},"geometry":{"type":"Polygon","coordinates":[[[2.25846,50.53532],[2.25877,50.53572],[2.25794,50.53589],[2.25801,50.5364],[2.2586,50.53655],[2.25833,50.53665],[2.25835,50.53687],[2.25896,50.53685],[2.25942,50.53621],[2.26015,50.53622],[2.26068,50.53583],[2.25846,50.53532]]]}},{"type":"Feature","properties":{"k":"PPH","s":3.294},"geometry":{"type":"Polygon","coordinates":[[[2.26023,50.53492],[2.25811,50.53359],[2.2579,50.53509],[2.26079,50.53577],[2.26204,50.53493],[2.26105,50.53431],[2.26023,50.53492]]]}},{"type":"Feature","properties":{"k":"BTN","s":6.39},"geometry":{"type":"Polygon","coordinates":[[[2.26206,50.53494],[2.264,50.53352],[2.26252,50.53287],[2.26083,50.53251],[2.25929,50.53358],[2.25813,50.53291],[2.25811,50.53359],[2.25998,50.53483],[2.26023,50.53492],[2.26105,50.53431],[2.26206,50.53494]]]}},{"type":"Feature","properties":{"k":"BTN","s":5.646},"geometry":{"type":"Polygon","coordinates":[[[2.26146,50.53259],[2.26495,50.52978],[2.26349,50.52903],[2.25957,50.53218],[2.26146,50.53259]]]}},{"type":"Feature","properties":{"k":"ORH","s":5.373},"geometry":{"type":"Polygon","coordinates":[[[2.26212,50.52841],[2.25827,50.53141],[2.25826,50.53158],[2.25888,50.53195],[2.25899,50.53187],[2.25966,50.5321],[2.26346,50.52906],[2.26212,50.52841]]]}},{"type":"Feature","properties":{"k":"MIS","s":2.645},"geometry":{"type":"Polygon","coordinates":[[[2.25781,50.52791],[2.25807,50.52979],[2.25935,50.53045],[2.26061,50.52944],[2.25781,50.52791]]]}},{"type":"Feature","properties":{"k":"PTC","s":0.712},"geometry":{"type":"Polygon","coordinates":[[[2.25945,50.52824],[2.25902,50.52856],[2.26061,50.52944],[2.26104,50.5291],[2.25945,50.52824]]]}},{"type":"Feature","properties":{"k":"PTC","s":6.481},"geometry":{"type":"Polygon","coordinates":[[[2.26852,50.53005],[2.26348,50.52742],[2.26323,50.52753],[2.26218,50.52835],[2.26734,50.53101],[2.26852,50.53005]]]}},{"type":"Feature","properties":{"k":"BTN","s":3.685},"geometry":{"type":"Polygon","coordinates":[[[2.26852,50.53005],[2.26928,50.52946],[2.26485,50.52716],[2.26348,50.52742],[2.26852,50.53005]]]}},{"type":"Feature","properties":{"k":"ORP","s":8.034},"geometry":{"type":"Polygon","coordinates":[[[2.26299,50.53295],[2.26418,50.53354],[2.26735,50.53105],[2.26494,50.5298],[2.26147,50.53259],[2.26299,50.53295]]]}},{"type":"Feature","properties":{"k":"MIS","s":0.064},"geometry":{"type":"Polygon","coordinates":[[[2.26842,50.53023],[2.26755,50.53091],[2.26761,50.53094],[2.26865,50.53009],[2.26842,50.53023]]]}},{"type":"Feature","properties":{"k":"MIS","s":7.342},"geometry":{"type":"Polygon","coordinates":[[[2.2671,50.53127],[2.27224,50.5337],[2.27319,50.53221],[2.26868,50.5301],[2.2671,50.53127]]]}},{"type":"Feature","properties":{"k":"BTH","s":4.92},"geometry":{"type":"Polygon","coordinates":[[[2.27006,50.53068],[2.27362,50.52772],[2.27241,50.52701],[2.26875,50.52996],[2.2695,50.53042],[2.27006,50.53068]],[[2.27002,50.53025],[2.27027,50.53032],[2.27007,50.5305],[2.26984,50.53042],[2.27002,50.53025]]]}},{"type":"Feature","properties":{"k":"BTH","s":2.567},"geometry":{"type":"Polygon","coordinates":[[[2.27006,50.53068],[2.27117,50.53121],[2.27338,50.52936],[2.27232,50.5288],[2.27006,50.53068]]]}},{"type":"Feature","properties":{"k":"PPH","s":4.105},"geometry":{"type":"Polygon","coordinates":[[[2.27262,50.52696],[2.27241,50.52701],[2.27362,50.52772],[2.27232,50.52879],[2.275,50.5303],[2.27628,50.52923],[2.27262,50.52696]]]}},{"type":"Feature","properties":{"k":"PPH","s":0.196},"geometry":{"type":"Polygon","coordinates":[[[2.27485,50.52828],[2.27474,50.52835],[2.27628,50.52923],[2.27713,50.52969],[2.27485,50.52828]]]}},{"type":"Feature","properties":{"k":"PPH","s":3.222},"geometry":{"type":"Polygon","coordinates":[[[2.27386,50.53248],[2.27713,50.52969],[2.27628,50.52923],[2.27292,50.53204],[2.27386,50.53248]]]}},{"type":"Feature","properties":{"k":"MIS","s":4.6},"geometry":{"type":"Polygon","coordinates":[[[2.27648,50.53371],[2.27759,50.53141],[2.27595,50.53073],[2.27394,50.53251],[2.27648,50.53371]]]}},{"type":"Feature","properties":{"k":"LIF","s":1.091},"geometry":{"type":"Polygon","coordinates":[[[2.27292,50.53204],[2.275,50.5303],[2.27451,50.53004],[2.27242,50.5318],[2.27292,50.53204]]]}},{"type":"Feature","properties":{"k":"LIF","s":2.762},"geometry":{"type":"Polygon","coordinates":[[[2.27242,50.5318],[2.27451,50.53004],[2.27336,50.52939],[2.27117,50.53121],[2.27242,50.5318]]]}},{"type":"Feature","properties":{"k":"LIF","s":9.085},"geometry":{"type":"Polygon","coordinates":[[[2.27363,50.53545],[2.27506,50.53312],[2.27319,50.53221],[2.27226,50.53373],[2.27129,50.53326],[2.26849,50.53547],[2.26879,50.53564],[2.26925,50.53561],[2.26928,50.53574],[2.27363,50.53545]]]}},{"type":"Feature","properties":{"k":"PHF","s":2.864},"geometry":{"type":"Polygon","coordinates":[[[2.27641,50.53374],[2.27505,50.53313],[2.27363,50.53544],[2.27533,50.53551],[2.27641,50.53374]]]}},{"type":"Feature","properties":{"k":"BTH","s":12.244},"geometry":{"type":"Polygon","coordinates":[[[2.26832,50.53559],[2.27128,50.53326],[2.26709,50.53127],[2.26421,50.53356],[2.26832,50.53559]]]}},{"type":"Feature","properties":{"k":"BTH","s":10.406},"geometry":{"type":"Polygon","coordinates":[[[2.26027,50.53626],[2.26103,50.53681],[2.26143,50.53657],[2.26151,50.53671],[2.26367,50.53629],[2.26636,50.5363],[2.26854,50.53579],[2.264,50.53352],[2.26027,50.53626]]]}},{"type":"Feature","properties":{"k":"BTH","s":1.12},"geometry":{"type":"Polygon","coordinates":[[[2.26685,50.53672],[2.26645,50.53636],[2.26418,50.53636],[2.26568,50.53732],[2.26685,50.53672]]]}},{"type":"Feature","properties":{"k":"PPH","s":2.469},"geometry":{"type":"Polygon","coordinates":[[[2.26415,50.53637],[2.26263,50.53659],[2.26336,50.53718],[2.26281,50.53744],[2.26398,50.53828],[2.26567,50.53733],[2.26415,50.53637]]]}},{"type":"Feature","properties":{"k":"MIS","s":2.127},"geometry":{"type":"Polygon","coordinates":[[[2.26467,50.53946],[2.26519,50.53916],[2.26578,50.53961],[2.26648,50.53921],[2.26486,50.53781],[2.26334,50.53876],[2.26467,50.53946]]]}},{"type":"Feature","properties":{"k":"PPH","s":1.829},"geometry":{"type":"Polygon","coordinates":[[[2.26578,50.53961],[2.266,50.5395],[2.26682,50.54029],[2.26803,50.53989],[2.26739,50.53916],[2.26717,50.53924],[2.26697,50.539],[2.26682,50.53904],[2.26527,50.53759],[2.26486,50.53781],[2.26648,50.53921],[2.26578,50.53961]]]}},{"type":"Feature","properties":{"k":"PPH","s":3.958},"geometry":{"type":"Polygon","coordinates":[[[2.26695,50.53676],[2.26561,50.53742],[2.26732,50.53891],[2.268,50.53867],[2.26917,50.53987],[2.27026,50.53946],[2.26695,50.53676]]]}},{"type":"Feature","properties":{"k":"PPH","s":0.003},"geometry":{"type":"Polygon","coordinates":[]}},{"type":"Feature","properties":{"k":"PPH","s":0.0},"geometry":{"type":"Polygon","coordinates":[]}},{"type":"Feature","properties":{"k":"PPH","s":1.727},"geometry":{"type":"Polygon","coordinates":[[[2.26988,50.53743],[2.26921,50.53697],[2.26943,50.53681],[2.26794,50.53605],[2.26735,50.53647],[2.27136,50.53864],[2.27141,50.53811],[2.26988,50.53743]]]}},{"type":"Feature","properties":{"k":"PPH","s":2.897},"geometry":{"type":"Polygon","coordinates":[[[2.26732,50.53648],[2.26701,50.53673],[2.27031,50.53944],[2.27131,50.53902],[2.27136,50.53864],[2.26732,50.53648]]]}},{"type":"Feature","properties":{"k":"BTH","s":1.98},"geometry":{"type":"Polygon","coordinates":[[[2.26873,50.53588],[2.26794,50.53605],[2.26943,50.53681],[2.26921,50.53697],[2.26988,50.53743],[2.27141,50.53809],[2.2715,50.53733],[2.26873,50.53588]]]}},{"type":"Feature","properties":{"k":"BTH","s":4.997},"geometry":{"type":"Polygon","coordinates":[[[2.26872,50.53588],[2.27211,50.5377],[2.27471,50.53559],[2.27319,50.53555],[2.26872,50.53588]]]}},{"type":"Feature","properties":{"k":"PPH","s":0.002},"geometry":{"type":"Polygon","coordinates":[]}},{"type":"Feature","properties":{"k":"PPH","s":2.544},"geometry":{"type":"Polygon","coordinates":[[[2.27522,50.53561],[2.27471,50.53559],[2.27211,50.5377],[2.27273,50.53807],[2.27512,50.53677],[2.27522,50.53561]]]}},{"type":"Feature","properties":{"k":"PTR","s":1.29},"geometry":{"type":"Polygon","coordinates":[[[2.27554,50.53669],[2.27657,50.53705],[2.27711,50.53594],[2.27532,50.53563],[2.27554,50.53669]]]}},{"type":"Feature","properties":{"k":"PPH","s":0.017},"geometry":{"type":"MultiPolygon","coordinates":[[[[2.27656,50.53711],[2.27639,50.53744],[2.27655,50.53723],[2.27656,50.53711]]],[[[2.27657,50.53707],[2.276,50.53688],[2.27656,50.53711],[2.27657,50.53707]]]]}},{"type":"Feature","properties":{"k":"PPH","s":0.003},"geometry":{"type":"Polygon","coordinates":[[[2.26809,50.54027],[2.26865,50.54007],[2.26865,50.54005],[2.26809,50.54027]]]}},{"type":"Feature","properties":{"k":"PPH","s":6.241},"geometry":{"type":"Polygon","coordinates":[[[2.26192,50.54121],[2.26336,50.54135],[2.26455,50.54165],[2.26911,50.53986],[2.26885,50.53954],[2.26739,50.54021],[2.26731,50.54011],[2.26681,50.54032],[2.266,50.53953],[2.26579,50.53963],[2.26518,50.53919],[2.26466,50.53948],[2.26333,50.53877],[2.26282,50.53909],[2.26416,50.53979],[2.26338,50.54011],[2.26192,50.54121]],[[2.26441,50.5408],[2.26342,50.54011],[2.2635,50.5401],[2.26441,50.5408]]]}},{"type":"Feature","properties":{"k":"PPH","s":10.357},"geometry":{"type":"Polygon","coordinates":[[[2.25966,50.54225],[2.25971,50.54261],[2.25991,50.54263],[2.26042,50.5419],[2.25985,50.54153],[2.26199,50.54269],[2.26045,50.54191],[2.25993,50.54267],[2.26376,50.54448],[2.26505,50.54346],[2.26471,50.54333],[2.26581,50.54213],[2.26322,50.54143],[2.26049,50.54117],[2.25938,50.54135],[2.25838,50.54103],[2.2581,50.54128],[2.25741,50.54103],[2.25744,50.54149],[2.25966,50.54225]],[[2.26373,50.54207],[2.26414,50.54191],[2.26374,50.54229],[2.26304,50.54189],[2.26185,50.54152],[2.26373,50.54207]],[[2.26247,50.54214],[2.26211,50.54239],[2.2615,50.54212],[2.26179,50.54183],[2.26247,50.54214]]]}},{"type":"Feature","properties":{"k":"PPH","s":2.646},"geometry":{"type":"Polygon","coordinates":[[[2.25993,50.54269],[2.25966,50.54289],[2.25956,50.54339],[2.26308,50.54507],[2.26379,50.54449],[2.25993,50.54269]]]}},{"type":"Feature","properties":{"k":"PPH","s":3.174},"geometry":{"type":"Polygon","coordinates":[[[2.25769,50.54259],[2.25808,50.5442],[2.26022,50.54513],[2.26099,50.54408],[2.25769,50.54259]]]}},{"type":"Feature","properties":{"k":"PPH","s":0.436},"geometry":{"type":"Polygon","coordinates":[[[2.2586,50.54293],[2.25956,50.54339],[2.25966,50.54288],[2.25865,50.5425],[2.25845,50.54286],[2.2586,50.54293]]]}},{"type":"Feature","properties":{"k":"PPH","s":0.996},"geometry":{"type":"Polygon","coordinates":[[[2.25798,50.54056],[2.25782,50.54074],[2.25951,50.54124],[2.26025,50.54025],[2.25963,50.53997],[2.259,50.54077],[2.25798,50.54056]]]}},{"type":"Feature","properties":{"k":"PPH","s":1.469},"geometry":{"type":"Polygon","coordinates":[[[2.26178,50.53976],[2.26051,50.54108],[2.26192,50.54122],[2.26298,50.54038],[2.26178,50.53976]]]}},{"type":"Feature","properties":{"k":"PPH","s":2.529},"geometry":{"type":"Polygon","coordinates":[[[2.26177,50.53927],[2.26203,50.53949],[2.26398,50.53829],[2.26248,50.53724],[2.26142,50.53766],[2.26177,50.53927]]]}},{"type":"Feature","properties":{"k":"PPH","s":0.811},"geometry":{"type":"Polygon","coordinates":[[[2.25949,50.53785],[2.2604,50.53839],[2.26145,50.53781],[2.26095,50.53738],[2.2605,50.5376],[2.26024,50.53742],[2.25949,50.53785]]]}},{"type":"Feature","properties":{"k":"PPH","s":5.24},"geometry":{"type":"Polygon","coordinates":[[[2.25832,50.53845],[2.25794,50.53909],[2.25978,50.53968],[2.25963,50.53993],[2.26026,50.54022],[2.2605,50.5399],[2.26121,50.54018],[2.26194,50.53953],[2.26167,50.53922],[2.26145,50.53784],[2.26041,50.53841],[2.25949,50.53786],[2.2593,50.53797],[2.25854,50.53758],[2.25826,50.53775],[2.25777,50.53751],[2.25754,50.53831],[2.25832,50.53845]]]}},{"type":"Feature","properties":{"k":"PPH","s":1.837},"geometry":{"type":"Polygon","coordinates":[[[2.258,50.54055],[2.25897,50.54075],[2.2597,50.53969],[2.25741,50.53905],[2.25737,50.53946],[2.25778,50.53952],[2.2577,50.53978],[2.25732,50.53971],[2.25726,50.53995],[2.25827,50.54031],[2.258,50.54055]]]}},{"type":"Feature","properties":{"k":"PPH","s":0.816},"geometry":{"type":"Polygon","coordinates":[[[2.25521,50.53909],[2.2554,50.5389],[2.25649,50.53913],[2.25652,50.53888],[2.25504,50.53842],[2.25494,50.53876],[2.25446,50.53913],[2.25407,50.53907],[2.25384,50.53955],[2.25411,50.53964],[2.2543,50.53932],[2.2546,50.53934],[2.25478,50.53934],[2.25507,50.53892],[2.25521,50.53909]]]}},{"type":"Feature","properties":{"k":"PPH","s":7.048},"geometry":{"type":"Polygon","coordinates":[[[2.2522,50.53559],[2.25307,50.53666],[2.25278,50.53682],[2.2534,50.53757],[2.25305,50.53859],[2.25342,50.53848],[2.25344,50.53824],[2.25489,50.53836],[2.25566,50.53789],[2.25533,50.53757],[2.25574,50.53723],[2.25534,50.53693],[2.25575,50.53671],[2.2566,50.53752],[2.25697,50.5374],[2.25681,50.53722],[2.25712,50.537],[2.25749,50.53705],[2.25762,50.53723],[2.25776,50.53715],[2.25783,50.53622],[2.25628,50.53661],[2.25594,50.53622],[2.25543,50.53621],[2.25506,50.53581],[2.25552,50.53555],[2.25579,50.53579],[2.25728,50.535],[2.25699,50.53488],[2.25662,50.53476],[2.25444,50.53607],[2.25391,50.53559],[2.25317,50.53595],[2.25231,50.53532],[2.2522,50.53559]]]}},{"type":"Feature","properties":{"k":"PPH","s":0.637},"geometry":{"type":"Polygon","coordinates":[[[2.25305,50.53666],[2.2522,50.53562],[2.25187,50.53666],[2.25241,50.53701],[2.25305,50.53666]]]}},{"type":"Feature","properties":{"k":"PPH","s":0.444},"geometry":{"type":"Polygon","coordinates":[[[2.25307,50.53766],[2.25337,50.53759],[2.25282,50.5368],[2.25241,50.53702],[2.25187,50.53668],[2.25178,50.53692],[2.25307,50.53766]]]}},{"type":"Feature","properties":{"k":"PPH","s":0.345},"geometry":{"type":"Polygon","coordinates":[[[2.25271,50.53785],[2.2524,50.53772],[2.25196,50.5383],[2.25219,50.53836],[2.25199,50.53871],[2.25226,50.53877],[2.25292,50.53776],[2.25271,50.53785]]]}},{"type":"Feature","properties":{"k":"PPH","s":0.79},"geometry":{"type":"Polygon","coordinates":[[[2.25249,50.54089],[2.25285,50.54063],[2.2531,50.54073],[2.25322,50.54064],[2.25266,50.54035],[2.2529,50.54007],[2.25322,50.54019],[2.25342,50.53996],[2.25268,50.53963],[2.2517,50.54039],[2.25249,50.54089]]]}},{"type":"Feature","properties":{"k":"PPH","s":0.17},"geometry":{"type":"Polygon","coordinates":[[[2.25445,50.54144],[2.25485,50.54106],[2.25444,50.54089],[2.25405,50.54129],[2.25445,50.54144]]]}},{"type":"Feature","properties":{"k":"PPH","s":0.55},"geometry":{"type":"Polygon","coordinates":[[[2.25317,50.54101],[2.25403,50.5413],[2.25452,50.54081],[2.25355,50.5404],[2.25314,50.54085],[2.25317,50.54101]]]}},{"type":"Feature","properties":{"k":"PPH","s":0.656},"geometry":{"type":"Polygon","coordinates":[[[2.25542,50.54003],[2.25459,50.53981],[2.25414,50.54016],[2.25381,50.54004],[2.2537,50.54019],[2.25403,50.54029],[2.25384,50.54049],[2.25452,50.54081],[2.25542,50.54003]]]}},{"type":"Feature","properties":{"k":"PPH","s":0.246},"geometry":{"type":"Polygon","coordinates":[[[2.25763,50.54299],[2.25758,50.54261],[2.25687,50.54237],[2.25659,50.54267],[2.25763,50.54299]]]}},{"type":"Feature","properties":{"k":"PPH","s":2.252},"geometry":{"type":"Polygon","coordinates":[[[2.25623,50.54302],[2.25684,50.54236],[2.25582,50.54198],[2.25473,50.54313],[2.25641,50.54382],[2.25652,50.54375],[2.25792,50.54422],[2.25771,50.54346],[2.25623,50.54302]]]}},{"type":"Feature","properties":{"k":"PPH","s":1.061},"geometry":{"type":"Polygon","coordinates":[[[2.25327,50.542],[2.25335,50.54188],[2.25229,50.54156],[2.25159,50.54213],[2.25204,50.54231],[2.25197,50.54245],[2.25294,50.54275],[2.25364,50.54213],[2.25327,50.542]]]}},{"type":"Feature","properties":{"k":"PPH","s":0.315},"geometry":{"type":"Polygon","coordinates":[[[2.25094,50.54356],[2.25016,50.54323],[2.24974,50.54356],[2.25071,50.54389],[2.25094,50.54356]]]}},{"type":"Feature","properties":{"k":"PPH","s":1.196},"geometry":{"type":"Polygon","coordinates":[[[2.25124,50.54228],[2.25201,50.54165],[2.25033,50.54087],[2.24967,50.54115],[2.24972,50.54152],[2.24996,50.54142],[2.25124,50.54228]]]}},{"type":"Feature","properties":{"k":"PPH","s":0.255},"geometry":{"type":"Polygon","coordinates":[[[2.24972,50.54152],[2.2511,50.54237],[2.25121,50.54224],[2.24996,50.54142],[2.24972,50.54152]]]}},{"type":"Feature","properties":{"k":"PPH","s":1.659},"geometry":{"type":"Polygon","coordinates":[[[2.24956,50.54123],[2.25151,50.54037],[2.2502,50.5399],[2.24827,50.54084],[2.24888,50.54124],[2.24956,50.54123]]]}},{"type":"Feature","properties":{"k":"PPH","s":1.823},"geometry":{"type":"Polygon","coordinates":[[[2.24957,50.54238],[2.24974,50.54227],[2.25063,50.54276],[2.25078,50.54264],[2.24996,50.54221],[2.25017,50.54207],[2.24989,50.54189],[2.2501,50.54178],[2.24968,50.54152],[2.24966,50.54116],[2.24891,50.54126],[2.24827,50.54086],[2.24726,50.54135],[2.24957,50.54238]]]}},{"type":"Feature","properties":{"k":"PPH","s":2.896},"geometry":{"type":"Polygon","coordinates":[[[2.24827,50.54082],[2.2502,50.53989],[2.24858,50.53941],[2.24589,50.54062],[2.24721,50.54135],[2.24827,50.54082]]]}},{"type":"Feature","properties":{"k":"PPH","s":8.073},"geometry":{"type":"Polygon","coordinates":[[[2.24093,50.53999],[2.24214,50.54067],[2.2424,50.54051],[2.24709,50.54303],[2.24782,50.54253],[2.2464,50.5417],[2.24704,50.54142],[2.24835,50.54225],[2.24929,50.54256],[2.24953,50.54237],[2.24736,50.54144],[2.24308,50.53902],[2.24093,50.53999]]]}},{"type":"Feature","properties":{"k":"PPH","s":1.502},"geometry":{"type":"Polygon","coordinates":[[[2.2464,50.5417],[2.24957,50.54358],[2.24988,50.54336],[2.24908,50.54277],[2.24929,50.54256],[2.24835,50.54225],[2.24704,50.54142],[2.2464,50.5417]]]}},{"type":"Feature","properties":{"k":"PPH","s":6.664},"geometry":{"type":"Polygon","coordinates":[[[2.243,50.54085],[2.24198,50.54162],[2.24802,50.54498],[2.2486,50.54441],[2.24755,50.54382],[2.24801,50.54345],[2.24851,50.54374],[2.24875,50.54361],[2.24741,50.5428],[2.24705,50.54304],[2.243,50.54085]]]}},{"type":"Feature","properties":{"k":"MIS","s":6.506},"geometry":{"type":"Polygon","coordinates":[[[2.24068,50.5453],[2.24434,50.54298],[2.24256,50.54196],[2.23856,50.54448],[2.24068,50.5453]]]}},{"type":"Feature","properties":{"k":"MIS","s":1.319},"geometry":{"type":"Polygon","coordinates":[[[2.23853,50.54448],[2.24091,50.54299],[2.24034,50.54267],[2.23784,50.54422],[2.23853,50.54448]]]}},{"type":"Feature","properties":{"k":"BTH","s":4.29},"geometry":{"type":"Polygon","coordinates":[[[2.23807,50.54137],[2.24092,50.543],[2.24255,50.54196],[2.23988,50.54044],[2.23807,50.54137]]]}},{"type":"Feature","properties":{"k":"BTH","s":1.65},"geometry":{"type":"Polygon","coordinates":[[[2.24195,50.54162],[2.24277,50.54101],[2.2409,50.53998],[2.23987,50.54044],[2.24195,50.54162]]]}},{"type":"Feature","properties":{"k":"BTH","s":3.344},"geometry":{"type":"Polygon","coordinates":[[[2.24587,50.5406],[2.24709,50.54002],[2.2448,50.53824],[2.24307,50.53902],[2.24587,50.5406]]]}},{"type":"Feature","properties":{"k":"PTC","s":1.819},"geometry":{"type":"Polygon","coordinates":[[[2.23872,50.53873],[2.23755,50.5392],[2.23936,50.54065],[2.24028,50.54021],[2.23872,50.53873]]]}},{"type":"Feature","properties":{"k":"BTH","s":10.681},"geometry":{"type":"Polygon","coordinates":[[[2.24095,50.53625],[2.23703,50.53713],[2.24027,50.5402],[2.24259,50.53918],[2.24247,50.53908],[2.24328,50.53871],[2.24339,50.53881],[2.24358,50.53872],[2.24095,50.53625]]]}},{"type":"Feature","properties":{"k":"BTH","s":3.094},"geometry":{"type":"Polygon","coordinates":[[[2.24375,50.53685],[2.24343,50.53702],[2.24176,50.53614],[2.24098,50.53625],[2.24357,50.53871],[2.24504,50.53804],[2.24375,50.53685]]]}},{"type":"Feature","properties":{"k":"PPH","s":3.889},"geometry":{"type":"Polygon","coordinates":[[[2.24176,50.53614],[2.24343,50.53702],[2.24375,50.53685],[2.24504,50.53804],[2.24541,50.53788],[2.24435,50.53682],[2.24538,50.53641],[2.24623,50.53741],[2.24699,50.53669],[2.24597,50.5357],[2.24176,50.53614]]]}},{"type":"Feature","properties":{"k":"PPH","s":0.482},"geometry":{"type":"Polygon","coordinates":[[[2.24708,50.53679],[2.24616,50.53757],[2.24655,50.53785],[2.24759,50.537],[2.24708,50.53679]]]}},{"type":"Feature","properties":{"k":"PPH","s":0.588},"geometry":{"type":"Polygon","coordinates":[[[2.24818,50.53729],[2.24762,50.53701],[2.24658,50.53787],[2.24693,50.53819],[2.24818,50.53729]]]}},{"type":"Feature","properties":{"k":"PPH","s":2.806},"geometry":{"type":"Polygon","coordinates":[[[2.24609,50.53764],[2.2448,50.53824],[2.24709,50.54002],[2.24854,50.5394],[2.24795,50.5393],[2.24609,50.53764]]]}},{"type":"Feature","properties":{"k":"PPH","s":0.915},"geometry":{"type":"Polygon","coordinates":[[[2.2508,50.53855],[2.25017,50.53831],[2.24978,50.53862],[2.24989,50.53872],[2.24847,50.53934],[2.24918,50.53963],[2.24948,50.53963],[2.2508,50.53855]]]}},{"type":"Feature","properties":{"k":"PPH","s":0.442},"geometry":{"type":"Polygon","coordinates":[[[2.25105,50.53883],[2.25099,50.53859],[2.2508,50.53855],[2.24948,50.53963],[2.24991,50.53971],[2.25105,50.53883]]]}},{"type":"Feature","properties":{"k":"PPH","s":0.783},"geometry":{"type":"Polygon","coordinates":[[[2.24965,50.53645],[2.24921,50.53669],[2.2513,50.53811],[2.25139,50.53766],[2.24965,50.53645]]]}},{"type":"Feature","properties":{"k":"PPH","s":0.382},"geometry":{"type":"Polygon","coordinates":[[[2.24949,50.53783],[2.25019,50.53729],[2.24967,50.53704],[2.24892,50.53755],[2.24949,50.53783]]]}},{"type":"Feature","properties":{"k":"PPH","s":0.957},"geometry":{"type":"Polygon","coordinates":[[[2.24919,50.53668],[2.24952,50.53652],[2.24904,50.53623],[2.24787,50.53703],[2.24891,50.53755],[2.24966,50.537],[2.24919,50.53668]]]}},{"type":"Feature","properties":{"k":"PPH","s":0.768},"geometry":{"type":"Polygon","coordinates":[[[2.24966,50.53645],[2.25139,50.53765],[2.25154,50.53712],[2.25016,50.53617],[2.24966,50.53645]]]}},{"type":"Feature","properties":{"k":"PPH","s":0.4},"geometry":{"type":"Polygon","coordinates":[[[2.25167,50.53681],[2.2505,50.53599],[2.25016,50.53617],[2.25154,50.53711],[2.25167,50.53681]]]}},{"type":"Feature","properties":{"k":"PPH","s":1.845},"geometry":{"type":"Polygon","coordinates":[[[2.25192,50.5363],[2.25055,50.53523],[2.24838,50.53554],[2.24926,50.53609],[2.24904,50.53623],[2.24952,50.53652],[2.2505,50.53599],[2.25124,50.53652],[2.25149,50.53627],[2.25176,50.5364],[2.25192,50.5363]]]}},{"type":"Feature","properties":{"k":"PPH","s":0.385},"geometry":{"type":"Polygon","coordinates":[[[2.25066,50.53415],[2.2503,50.53402],[2.25009,50.53409],[2.25096,50.53506],[2.25138,50.53497],[2.25066,50.53415]]]}},{"type":"Feature","properties":{"k":"PPH","s":1.977},"geometry":{"type":"Polygon","coordinates":[[[2.24997,50.53391],[2.24918,50.53458],[2.24732,50.53526],[2.24757,50.53549],[2.25097,50.53508],[2.24997,50.53391]]]}},{"type":"Feature","properties":{"k":"BTN","s":0.996},"geometry":{"type":"Polygon","coordinates":[[[2.24638,50.53443],[2.2455,50.53488],[2.24615,50.53556],[2.24757,50.5355],[2.24638,50.53443]]]}},{"type":"Feature","properties":{"k":"BTH","s":4.236},"geometry":{"type":"Polygon","coordinates":[[[2.24879,50.53464],[2.24607,50.53212],[2.24464,50.53287],[2.24717,50.53514],[2.24754,50.53499],[2.24766,50.53512],[2.24879,50.53464]]]}},{"type":"Feature","properties":{"k":"PHF","s":5.634},"geometry":{"type":"Polygon","coordinates":[[[2.24916,50.53457],[2.25039,50.53344],[2.24788,50.53115],[2.24607,50.53212],[2.24879,50.53465],[2.24916,50.53457]]]}},{"type":"Feature","properties":{"k":"PPH","s":1.889},"geometry":{"type":"Polygon","coordinates":[[[2.2524,50.53295],[2.25188,50.53225],[2.24998,50.53388],[2.25068,50.53415],[2.25106,50.53458],[2.25155,50.53436],[2.25172,50.53421],[2.25155,50.53406],[2.25187,50.53391],[2.25155,50.53358],[2.2524,50.53295]]]}},{"type":"Feature","properties":{"k":"BTH","s":4.305},"geometry":{"type":"Polygon","coordinates":[[[2.25187,50.53223],[2.24926,50.5305],[2.24791,50.53117],[2.25041,50.53345],[2.25187,50.53223]]]}},{"type":"Feature","properties":{"k":"MIS","s":7.776},"geometry":{"type":"Polygon","coordinates":[[[2.25143,50.53182],[2.25392,50.53034],[2.25315,50.52778],[2.24904,50.53025],[2.25143,50.53182]],[[2.25355,50.52995],[2.25354,50.52995],[2.25355,50.52994],[2.25355,50.52995]]]}},{"type":"Feature","properties":{"k":"BTH","s":3.968},"geometry":{"type":"Polygon","coordinates":[[[2.24813,50.52963],[2.24904,50.53025],[2.25315,50.52778],[2.25276,50.52687],[2.24813,50.52963]]]}},{"type":"Feature","properties":{"k":"BTH","s":2.296},"geometry":{"type":"Polygon","coordinates":[[[2.2434,50.53142],[2.24355,50.53157],[2.24763,50.52933],[2.24692,50.52869],[2.24457,50.52982],[2.24519,50.53036],[2.2434,50.53142]]]}},{"type":"Feature","properties":{"k":"BTH","s":6.455},"geometry":{"type":"Polygon","coordinates":[[[2.24491,50.53273],[2.24918,50.53045],[2.24763,50.52933],[2.24355,50.53157],[2.24491,50.53273]]]}},{"type":"Feature","properties":{"k":"MIS","s":0.966},"geometry":{"type":"Polygon","coordinates":[[[2.24244,50.53172],[2.24186,50.53113],[2.24047,50.5318],[2.2412,50.53236],[2.24244,50.53172]]]}},{"type":"Feature","properties":{"k":"PTR","s":0.332},"geometry":{"type":"Polygon","coordinates":[[[2.24,50.53203],[2.24063,50.5326],[2.24111,50.53237],[2.24047,50.5318],[2.24,50.53203]]]}},{"type":"Feature","properties":{"k":"CZH","s":0.838},"geometry":{"type":"Polygon","coordinates":[[[2.23882,50.5326],[2.23949,50.53319],[2.24063,50.5326],[2.24,50.53203],[2.23882,50.5326]]]}},{"type":"Feature","properties":{"k":"PPH","s":0.554},"geometry":{"type":"Polygon","coordinates":[[[2.24343,50.5328],[2.24386,50.53324],[2.24491,50.53273],[2.24431,50.53228],[2.24343,50.5328]]]}},{"type":"Feature","properties":{"k":"PPH","s":5.541},"geometry":{"type":"Polygon","coordinates":[[[2.24113,50.53239],[2.24285,50.53392],[2.24225,50.53421],[2.24401,50.53578],[2.24594,50.53559],[2.24243,50.53173],[2.24113,50.53239]]]}},{"type":"Feature","properties":{"k":"MIS","s":1.515},"geometry":{"type":"Polygon","coordinates":[[[2.24222,50.5342],[2.24283,50.53392],[2.24109,50.53238],[2.2404,50.53273],[2.24385,50.53578],[2.24222,50.5342]]]}},{"type":"Feature","properties":{"k":"BTH","s":2.507},"geometry":{"type":"Polygon","coordinates":[[[2.24385,50.53578],[2.2404,50.53273],[2.23973,50.53308],[2.24288,50.5359],[2.24385,50.53578]]]}},{"type":"Feature","properties":{"k":"PHF","s":3.413},"geometry":{"type":"Polygon","coordinates":[[[2.24288,50.5359],[2.23973,50.53308],[2.23949,50.5332],[2.23882,50.5326],[2.23816,50.53291],[2.24167,50.53605],[2.24288,50.5359]]]}},{"type":"Feature","properties":{"k":"PTC","s":3.373},"geometry":{"type":"Polygon","coordinates":[[[2.24043,50.53623],[2.24167,50.53605],[2.23816,50.53291],[2.23723,50.53336],[2.24043,50.53623]]]}},{"type":"Feature","properties":{"k":"PTC","s":2.837},"geometry":{"type":"Polygon","coordinates":[[[2.23722,50.53336],[2.2364,50.53376],[2.2394,50.53646],[2.24042,50.53623],[2.23722,50.53336]]]}},{"type":"Feature","properties":{"k":"MIS","s":4.329},"geometry":{"type":"Polygon","coordinates":[[[2.23497,50.53445],[2.23769,50.53685],[2.2394,50.53646],[2.2364,50.53376],[2.23497,50.53445]]]}},{"type":"Feature","properties":{"k":"PTC","s":2.629},"geometry":{"type":"Polygon","coordinates":[[[2.23442,50.53541],[2.23639,50.53722],[2.23769,50.53685],[2.23538,50.53474],[2.23442,50.53541]]]}},{"type":"Feature","properties":{"k":"BTH","s":1.557},"geometry":{"type":"Polygon","coordinates":[[[2.23228,50.53574],[2.23315,50.53631],[2.23533,50.53477],[2.23497,50.53445],[2.23228,50.53574]]]}},{"type":"Feature","properties":{"k":"PPH","s":0.399},"geometry":{"type":"Polygon","coordinates":[[[2.23228,50.53574],[2.23135,50.53619],[2.23211,50.53641],[2.23269,50.53611],[2.23307,50.53637],[2.23228,50.53574]]]}},{"type":"Feature","properties":{"k":"PPH","s":0.001},"geometry":{"type":"Polygon","coordinates":[]}},{"type":"Feature","properties":{"k":"PPH","s":1.839},"geometry":{"type":"Polygon","coordinates":[[[2.23589,50.53736],[2.23404,50.53568],[2.23307,50.53637],[2.23501,50.53767],[2.23589,50.53736]]]}},{"type":"Feature","properties":{"k":"BTH","s":0.885},"geometry":{"type":"Polygon","coordinates":[[[2.23638,50.53722],[2.23442,50.53542],[2.23404,50.53568],[2.23589,50.53736],[2.23638,50.53722]],[[2.23552,50.53696],[2.23567,50.53689],[2.23577,50.53699],[2.23564,50.53707],[2.23552,50.53696]]]}},{"type":"Feature","properties":{"k":"PPH","s":5.521},"geometry":{"type":"Polygon","coordinates":[[[2.23703,50.53713],[2.23439,50.53804],[2.23556,50.53915],[2.23445,50.5396],[2.2351,50.54018],[2.23872,50.53873],[2.23703,50.53713]]]}},{"type":"Feature","properties":{"k":"PPH","s":0.903},"geometry":{"type":"Polygon","coordinates":[[[2.23402,50.53815],[2.23332,50.53832],[2.23452,50.53951],[2.23525,50.53924],[2.23402,50.53815]]]}},{"type":"Feature","properties":{"k":"PPH","s":2.941},"geometry":{"type":"Polygon","coordinates":[[[2.23777,50.54031],[2.23863,50.54101],[2.23932,50.54066],[2.23754,50.53921],[2.23514,50.54018],[2.23581,50.54083],[2.23525,50.54104],[2.23541,50.54118],[2.23777,50.54031]]]}},{"type":"Feature","properties":{"k":"PPH","s":1.228},"geometry":{"type":"Polygon","coordinates":[[[2.236,50.54241],[2.23768,50.54147],[2.23719,50.54097],[2.23523,50.54184],[2.236,50.54241]]]}},{"type":"Feature","properties":{"k":"PPH","s":2.011},"geometry":{"type":"Polygon","coordinates":[[[2.2346,50.54212],[2.23721,50.54096],[2.23771,50.54146],[2.23861,50.54102],[2.23776,50.54033],[2.23693,50.54059],[2.23696,50.54073],[2.23553,50.54132],[2.23524,50.54106],[2.23392,50.54155],[2.2346,50.54212]]]}},{"type":"Feature","properties":{"k":"PPH","s":0.012},"geometry":{"type":"Polygon","coordinates":[[[2.23591,50.54254],[2.23647,50.54285],[2.23593,50.54253],[2.23591,50.54254]]]}},{"type":"Feature","properties":{"k":"BTH","s":2.264},"geometry":{"type":"Polygon","coordinates":[[[2.23807,50.54137],[2.23735,50.54175],[2.23861,50.54259],[2.23907,50.54231],[2.23939,50.54248],[2.23712,50.54395],[2.23774,50.54418],[2.24022,50.54261],[2.23807,50.54137]]]}},{"type":"Feature","properties":{"k":"PPH","s":2.386},"geometry":{"type":"Polygon","coordinates":[[[2.23712,50.54395],[2.23939,50.54248],[2.23907,50.54231],[2.23861,50.54259],[2.23735,50.54175],[2.23594,50.54253],[2.23653,50.54288],[2.23587,50.54346],[2.23615,50.54355],[2.23751,50.54267],[2.238,50.54299],[2.23671,50.54378],[2.23712,50.54395]]]}},{"type":"Feature","properties":{"k":"PPH","s":0.628},"geometry":{"type":"Polygon","coordinates":[[[2.23671,50.54319],[2.23613,50.54356],[2.23671,50.54378],[2.23799,50.54299],[2.23751,50.54267],[2.23671,50.54319]]]}},{"type":"Feature","properties":{"k":"PPH","s":0.008},"geometry":{"type":"Polygon","coordinates":[[[2.23519,50.54188],[2.23562,50.54217],[2.23529,50.54191],[2.23519,50.54188]]]}},{"type":"Feature","properties":{"k":"BTH","s":3.558},"geometry":{"type":"Polygon","coordinates":[[[2.2443,50.55237],[2.24182,50.55115],[2.24037,50.55194],[2.2424,50.55344],[2.2443,50.55237]]]}},{"type":"Feature","properties":{"k":"PTR","s":0.08},"geometry":{"type":"MultiPolygon","coordinates":[[[[2.25049,50.55863],[2.25065,50.55826],[2.25066,50.55822],[2.25049,50.55863]]]]}},{"type":"Feature","properties":{"k":"PPH","s":2.243},"geometry":{"type":"Polygon","coordinates":[[[2.2466,50.55629],[2.24693,50.5572],[2.25071,50.55814],[2.25093,50.55763],[2.2466,50.55629]]]}},{"type":"Feature","properties":{"k":"BTH","s":3.335},"geometry":{"type":"Polygon","coordinates":[[[2.25146,50.55688],[2.2467,50.5554],[2.2466,50.55629],[2.25093,50.55763],[2.25146,50.55688]]]}},{"type":"Feature","properties":{"k":"PPH","s":1.498},"geometry":{"type":"Polygon","coordinates":[[[2.25236,50.55576],[2.25034,50.55482],[2.24993,50.55525],[2.25024,50.55536],[2.24993,50.55577],[2.25183,50.55636],[2.25236,50.55576]]]}},{"type":"Feature","properties":{"k":"BTH","s":1.974},"geometry":{"type":"Polygon","coordinates":[[[2.24694,50.55484],[2.24993,50.55577],[2.25024,50.55536],[2.2464,50.55359],[2.24694,50.55484]]]}},{"type":"Feature","properties":{"k":"BTH","s":0.003},"geometry":{"type":"Polygon","coordinates":[[[2.24682,50.5549],[2.24672,50.55518],[2.24682,50.55497],[2.24682,50.5549]]]}},{"type":"Feature","properties":{"k":"BTH","s":0.001},"geometry":{"type":"Polygon","coordinates":[]}},{"type":"Feature","properties":{"k":"AVP","s":1.18},"geometry":{"type":"Polygon","coordinates":[[[2.2492,50.5548],[2.24958,50.55446],[2.24613,50.55295],[2.24635,50.5535],[2.2492,50.5548]]]}},{"type":"Feature","properties":{"k":"MIS","s":2.613},"geometry":{"type":"Polygon","coordinates":[[[2.24922,50.55279],[2.24989,50.55216],[2.24601,50.55048],[2.24584,50.55131],[2.24922,50.55279]]]}},{"type":"Feature","properties":{"k":"BTH","s":4.824},"geometry":{"type":"Polygon","coordinates":[[[2.24613,50.55295],[2.24935,50.55438],[2.25045,50.55334],[2.24584,50.55131],[2.24613,50.55295]]]}},{"type":"Feature","properties":{"k":"PHF","s":5.024},"geometry":{"type":"Polygon","coordinates":[[[2.25097,50.55116],[2.24635,50.54913],[2.24601,50.55048],[2.24989,50.55216],[2.25097,50.55116]]]}},{"type":"Feature","properties":{"k":"MIS","s":1.386},"geometry":{"type":"Polygon","coordinates":[[[2.25072,50.55104],[2.25103,50.55075],[2.24644,50.54877],[2.24666,50.54889],[2.24656,50.54918],[2.24635,50.5491],[2.25072,50.55104]]]}},{"type":"Feature","properties":{"k":"ORH","s":1.15},"geometry":{"type":"Polygon","coordinates":[[[2.25005,50.54869],[2.25089,50.54777],[2.24978,50.54736],[2.24885,50.54838],[2.25005,50.54869]]]}},{"type":"Feature","properties":{"k":"BTH","s":5.394},"geometry":{"type":"Polygon","coordinates":[[[2.24773,50.54822],[2.24665,50.54813],[2.24645,50.54876],[2.25101,50.55074],[2.25235,50.54945],[2.24773,50.54822]]]}},{"type":"Feature","properties":{"k":"VES","s":1.148},"geometry":{"type":"Polygon","coordinates":[[[2.24646,50.5481],[2.24445,50.54737],[2.24395,50.54774],[2.24634,50.54882],[2.24646,50.5481]]]}},{"type":"Feature","properties":{"k":"ORH","s":6.788},"geometry":{"type":"Polygon","coordinates":[[[2.24516,50.55276],[2.24613,50.55319],[2.24565,50.55171],[2.24586,50.55067],[2.24242,50.54889],[2.24165,50.5495],[2.24306,50.55027],[2.24189,50.55106],[2.24516,50.55276]]]}},{"type":"Feature","properties":{"k":"ORH","s":0.002},"geometry":{"type":"Polygon","coordinates":[[[2.23859,50.55038],[2.23896,50.55061],[2.23879,50.55049],[2.23859,50.55038]]]}},{"type":"Feature","properties":{"k":"MIS","s":6.298},"geometry":{"type":"Polygon","coordinates":[[[2.23774,50.54976],[2.2409,50.55153],[2.24306,50.55027],[2.23955,50.54843],[2.23774,50.54976]]]}},{"type":"Feature","properties":{"k":"BTH","s":2.993},"geometry":{"type":"Polygon","coordinates":[[[2.24159,50.54949],[2.24445,50.54737],[2.24335,50.54687],[2.24053,50.54894],[2.24159,50.54949]]]}},{"type":"Feature","properties":{"k":"CAR","s":2.708},"geometry":{"type":"Polygon","coordinates":[[[2.24242,50.54889],[2.24586,50.55067],[2.2461,50.54972],[2.24327,50.54824],[2.24242,50.54889]]]}},{"type":"Feature","properties":{"k":"MLG","s":1.921},"geometry":{"type":"Polygon","coordinates":[[[2.24447,50.54887],[2.2461,50.54972],[2.24634,50.54882],[2.24395,50.54774],[2.24327,50.54824],[2.24447,50.54887]]]}},{"type":"Feature","properties":{"k":"BTH","s":2.652},"geometry":{"type":"Polygon","coordinates":[[[2.23958,50.54843],[2.24053,50.54894],[2.24335,50.54687],[2.24234,50.54644],[2.23958,50.54843]]]}},{"type":"Feature","properties":{"k":"BTH","s":0.002},"geometry":{"type":"Polygon","coordinates":[]}},{"type":"Feature","properties":{"k":"PPH","s":0.231},"geometry":{"type":"Polygon","coordinates":[[[2.24721,50.54463],[2.24637,50.54418],[2.24611,50.54439],[2.24694,50.54483],[2.24721,50.54463]]]}},{"type":"Feature","properties":{"k":"MIS","s":4.375},"geometry":{"type":"Polygon","coordinates":[[[2.24785,50.54532],[2.24769,50.54547],[2.24814,50.54569],[2.2477,50.54605],[2.24727,50.54586],[2.24568,50.54774],[2.24781,50.54815],[2.24961,50.54609],[2.24785,50.54532]]]}},{"type":"Feature","properties":{"k":"PPH","s":2.586},"geometry":{"type":"Polygon","coordinates":[[[2.25016,50.54627],[2.24969,50.54603],[2.24986,50.54584],[2.24824,50.54523],[2.24808,50.54539],[2.24964,50.54606],[2.24783,50.54811],[2.24883,50.54837],[2.24978,50.54736],[2.25089,50.54777],[2.25125,50.54738],[2.24965,50.54682],[2.25016,50.54627]]]}},{"type":"Feature","properties":{"k":"PPH","s":2.692},"geometry":{"type":"Polygon","coordinates":[[[2.25048,50.54601],[2.24994,50.54571],[2.25015,50.54547],[2.24919,50.54512],[2.24888,50.54542],[2.2499,50.54583],[2.24973,50.54604],[2.25019,50.54627],[2.24968,50.54682],[2.25131,50.54737],[2.25004,50.5487],[2.25053,50.5488],[2.25233,50.54679],[2.25048,50.54601]]]}},{"type":"Feature","properties":{"k":"PPH","s":1.729},"geometry":{"type":"Polygon","coordinates":[[[2.25236,50.54679],[2.25294,50.54616],[2.25142,50.5455],[2.25117,50.54578],[2.2502,50.5454],[2.24938,50.54506],[2.24949,50.54487],[2.24861,50.5445],[2.24845,50.54468],[2.24872,50.5448],[2.24863,50.54489],[2.25015,50.54547],[2.24995,50.54571],[2.25236,50.54679]]]}},{"type":"Feature","properties":{"k":"PTR","s":0.916},"geometry":{"type":"Polygon","coordinates":[[[2.24984,50.54447],[2.24902,50.5441],[2.24882,50.54429],[2.24965,50.54467],[2.24939,50.54506],[2.25117,50.54578],[2.25132,50.54559],[2.24984,50.54447]]]}},{"type":"Feature","properties":{"k":"PPH","s":0.923},"geometry":{"type":"Polygon","coordinates":[[[2.25187,50.54502],[2.24924,50.54394],[2.24906,50.54412],[2.24984,50.54447],[2.25132,50.54559],[2.25187,50.54502]]]}},{"type":"Feature","properties":{"k":"PPH","s":10.236},"geometry":{"type":"Polygon","coordinates":[[[2.25637,50.54541],[2.25811,50.54587],[2.25798,50.54503],[2.25546,50.54411],[2.2558,50.54356],[2.25318,50.54258],[2.25223,50.54339],[2.25136,50.54311],[2.25068,50.5439],[2.24971,50.54357],[2.24929,50.54393],[2.25192,50.54502],[2.25142,50.5455],[2.25294,50.54616],[2.25455,50.54442],[2.25637,50.54541]]]}},{"type":"Feature","properties":{"k":"PPH","s":0.228},"geometry":{"type":"Polygon","coordinates":[[[2.25611,50.54425],[2.25597,50.54428],[2.25707,50.54476],[2.25799,50.54501],[2.25799,50.54489],[2.25611,50.54425]]]}},{"type":"Feature","properties":{"k":"PPH","s":0.425},"geometry":{"type":"Polygon","coordinates":[[[2.2561,50.54523],[2.2558,50.54558],[2.25754,50.54617],[2.2575,50.54586],[2.2561,50.54523]]]}},{"type":"Feature","properties":{"k":"PPH","s":0.23},"geometry":{"type":"Polygon","coordinates":[[[2.25607,50.54683],[2.25621,50.54662],[2.2552,50.54625],[2.25505,50.5465],[2.25607,50.54683]]]}},{"type":"Feature","properties":{"k":"PPH","s":1.161},"geometry":{"type":"Polygon","coordinates":[[[2.2558,50.54558],[2.2552,50.54625],[2.25621,50.54662],[2.25633,50.54643],[2.25752,50.54691],[2.25758,50.54679],[2.25696,50.54648],[2.2571,50.54637],[2.2574,50.54646],[2.25754,50.5462],[2.2558,50.54558]]]}},{"type":"Feature","properties":{"k":"PPH","s":0.468},"geometry":{"type":"Polygon","coordinates":[[[2.25801,50.54742],[2.25607,50.54685],[2.25577,50.54709],[2.25806,50.54771],[2.25801,50.54742]]]}},{"type":"Feature","properties":{"k":"PPH","s":2.262},"geometry":{"type":"Polygon","coordinates":[[[2.25554,50.54731],[2.25607,50.54683],[2.25505,50.5465],[2.25492,50.54705],[2.25402,50.54803],[2.25588,50.54869],[2.25675,50.54777],[2.25554,50.54731]]]}},{"type":"Feature","properties":{"k":"PTC","s":8.704},"geometry":{"type":"Polygon","coordinates":[[[2.25455,50.54442],[2.25053,50.5488],[2.25268,50.54946],[2.2549,50.54703],[2.25505,50.5464],[2.25616,50.54517],[2.25455,50.54442]]]}},{"type":"Feature","properties":{"k":"BTH","s":0.471},"geometry":{"type":"Polygon","coordinates":[[[2.25259,50.54961],[2.25236,50.54946],[2.25071,50.55104],[2.25097,50.55115],[2.25259,50.54961]]]}},{"type":"Feature","properties":{"k":"PTR","s":7.301},"geometry":{"type":"Polygon","coordinates":[[[2.24922,50.55279],[2.25119,50.55366],[2.25458,50.55047],[2.25266,50.54957],[2.24922,50.55279]]]}},{"type":"Feature","properties":{"k":"MIS","s":9.825},"geometry":{"type":"Polygon","coordinates":[[[2.25648,50.55117],[2.25744,50.55233],[2.25914,50.55307],[2.2588,50.55063],[2.25715,50.55029],[2.25775,50.54937],[2.254,50.54803],[2.25269,50.54945],[2.25648,50.55117]]]}},{"type":"Feature","properties":{"k":"PPH","s":2.03},"geometry":{"type":"Polygon","coordinates":[[[2.25587,50.54871],[2.25775,50.54937],[2.25832,50.54972],[2.25853,50.54965],[2.25814,50.54828],[2.25675,50.54777],[2.25587,50.54871]]]}},{"type":"Feature","properties":{"k":"PPH","s":2.584},"geometry":{"type":"Polygon","coordinates":[[[2.25957,50.54865],[2.25905,50.54865],[2.25846,50.54896],[2.25861,50.54954],[2.26207,50.54784],[2.26037,50.54718],[2.25953,50.54782],[2.25924,50.54766],[2.25874,50.54775],[2.2588,50.54804],[2.2594,50.54794],[2.25957,50.54865]]]}},{"type":"Feature","properties":{"k":"BTH","s":9.83},"geometry":{"type":"Polygon","coordinates":[[[2.25921,50.55266],[2.26278,50.55055],[2.26198,50.55001],[2.26384,50.54889],[2.26207,50.54784],[2.25861,50.54954],[2.25921,50.55266]]]}},{"type":"Feature","properties":{"k":"PHF","s":0.179},"geometry":{"type":"MultiPolygon","coordinates":[[[[2.26217,50.54992],[2.26407,50.54902],[2.26384,50.54889],[2.26217,50.54992]]]]}},{"type":"Feature","properties":{"k":"ORH","s":1.662},"geometry":{"type":"Polygon","coordinates":[[[2.26171,50.54766],[2.26323,50.5485],[2.26443,50.54778],[2.2629,50.54694],[2.26171,50.54766]]]}},{"type":"Feature","properties":{"k":"BTH","s":1.744},"geometry":{"type":"Polygon","coordinates":[[[2.26234,50.54727],[2.26291,50.54693],[2.25988,50.54535],[2.25997,50.54633],[2.26234,50.54727]]]}},{"type":"Feature","properties":{"k":"PPH","s":0.332},"geometry":{"type":"Polygon","coordinates":[[[2.25809,50.54724],[2.25922,50.54748],[2.25938,50.54727],[2.25803,50.54681],[2.25809,50.54724]]]}},{"type":"Feature","properties":{"k":"PPH","s":3.203},"geometry":{"type":"Polygon","coordinates":[[[2.26233,50.54726],[2.25823,50.54571],[2.25807,50.54665],[2.25859,50.54673],[2.25849,50.54696],[2.25939,50.54727],[2.25925,50.5475],[2.25809,50.54725],[2.25818,50.5478],[2.25923,50.54765],[2.25952,50.54779],[2.26034,50.54718],[2.26171,50.54763],[2.26233,50.54726]]]}},{"type":"Feature","properties":{"k":"PPH","s":0.321},"geometry":{"type":"Polygon","coordinates":[[[2.2592,50.54574],[2.25983,50.54598],[2.25927,50.54552],[2.25816,50.54504],[2.25823,50.54544],[2.2592,50.54574]]]}},{"type":"Feature","properties":{"k":"PPH","s":2.869},"geometry":{"type":"Polygon","coordinates":[[[2.25866,50.54471],[2.26169,50.54617],[2.26306,50.54506],[2.261,50.54408],[2.26022,50.54514],[2.25883,50.54455],[2.25866,50.54471]]]}},{"type":"Feature","properties":{"k":"MIS","s":0.0},"geometry":{"type":"Polygon","coordinates":[]}},{"type":"Feature","properties":{"k":"MIS","s":6.213},"geometry":{"type":"Polygon","coordinates":[[[2.26377,50.54733],[2.26674,50.54609],[2.26414,50.5442],[2.26168,50.54618],[2.26377,50.54733]]]}},{"type":"Feature","properties":{"k":"MIS","s":1.739},"geometry":{"type":"Polygon","coordinates":[[[2.26451,50.54775],[2.26747,50.54661],[2.26674,50.54609],[2.26377,50.54733],[2.26451,50.54775]]]}},{"type":"Feature","properties":{"k":"MIS","s":0.0},"geometry":{"type":"Polygon","coordinates":[]}},{"type":"Feature","properties":{"k":"CZH","s":0.0},"geometry":{"type":"Polygon","coordinates":[]}},{"type":"Feature","properties":{"k":"BTH","s":0.003},"geometry":{"type":"Polygon","coordinates":[[[2.25876,50.55713],[2.25961,50.55733],[2.25877,50.55712],[2.25876,50.55713]]]}},{"type":"Feature","properties":{"k":"BTN","s":3.895},"geometry":{"type":"MultiPolygon","coordinates":[[[[2.26405,50.55142],[2.26309,50.55077],[2.25949,50.55284],[2.25986,50.55392],[2.26405,50.55142]]]]}},{"type":"Feature","properties":{"k":"AVP","s":1.078},"geometry":{"type":"Polygon","coordinates":[[[2.25921,50.55266],[2.25928,50.55296],[2.26309,50.55077],[2.26281,50.55057],[2.25921,50.55266]]]}},{"type":"Feature","properties":{"k":"BTN","s":0.308},"geometry":{"type":"Polygon","coordinates":[[[2.26414,50.55149],[2.26405,50.55142],[2.25963,50.55407],[2.26414,50.55149]]]}},{"type":"Feature","properties":{"k":"BOR","s":0.221},"geometry":{"type":"Polygon","coordinates":[[[2.25964,50.55405],[2.25986,50.55392],[2.25949,50.55284],[2.25928,50.55296],[2.25964,50.55405]]]}},{"type":"Feature","properties":{"k":"PPH","s":0.872},"geometry":{"type":"Polygon","coordinates":[[[2.25836,50.55347],[2.25905,50.55417],[2.25947,50.55405],[2.25916,50.55329],[2.25817,50.55269],[2.25789,50.55264],[2.2577,50.55283],[2.25836,50.55347]]]}},{"type":"Feature","properties":{"k":"BTH","s":4.163},"geometry":{"type":"Polygon","coordinates":[[[2.25621,50.55429],[2.25849,50.55601],[2.25963,50.55477],[2.2577,50.55283],[2.25621,50.55429]]]}},{"type":"Feature","properties":{"k":"PPH","s":1.038},"geometry":{"type":"Polygon","coordinates":[[[2.25341,50.55491],[2.25433,50.5553],[2.25574,50.55448],[2.25476,50.55412],[2.25341,50.55491]]]}},{"type":"Feature","properties":{"k":"PPH","s":2.047},"geometry":{"type":"Polygon","coordinates":[[[2.25575,50.55448],[2.25647,50.55406],[2.25776,50.55259],[2.2568,50.55242],[2.25634,50.55255],[2.2554,50.55368],[2.25476,50.5541],[2.25575,50.55448]]]}},{"type":"Feature","properties":{"k":"BTH","s":7.335},"geometry":{"type":"Polygon","coordinates":[[[2.2548,50.55401],[2.2553,50.55369],[2.25631,50.55247],[2.25708,50.55226],[2.25619,50.55115],[2.25458,50.55047],[2.25208,50.55283],[2.2548,50.55401]]]}},{"type":"Feature","properties":{"k":"ORH","s":2.409},"geometry":{"type":"Polygon","coordinates":[[[2.25208,50.55283],[2.25119,50.55366],[2.25359,50.55469],[2.2548,50.55401],[2.25208,50.55283]]]}},{"type":"Feature","properties":{"k":"PPH","s":0.615},"geometry":{"type":"Polygon","coordinates":[[[2.25273,50.55551],[2.25353,50.55584],[2.25433,50.55531],[2.25339,50.55491],[2.25273,50.55551]]]}},{"type":"Feature","properties":{"k":"BTH","s":3.707},"geometry":{"type":"Polygon","coordinates":[[[2.25358,50.55469],[2.25045,50.55334],[2.24935,50.55438],[2.25236,50.55575],[2.25265,50.5553],[2.25358,50.55469]]]}},{"type":"Feature","properties":{"k":"BTH","s":2.965},"geometry":{"type":"Polygon","coordinates":[[[2.2585,50.55602],[2.25509,50.55492],[2.25393,50.55561],[2.25773,50.55682],[2.2585,50.55602]]]}},{"type":"Feature","properties":{"k":"MIS","s":1.1},"geometry":{"type":"Polygon","coordinates":[[[2.25737,50.55798],[2.25744,50.55768],[2.25316,50.55632],[2.25293,50.55658],[2.25737,50.55798]]]}},{"type":"Feature","properties":{"k":"PTR","s":3.075},"geometry":{"type":"Polygon","coordinates":[[[2.25316,50.55632],[2.25744,50.55768],[2.25775,50.55682],[2.25393,50.55561],[2.25316,50.55632]]]}},{"type":"Feature","properties":{"k":"LIF","s":2.132},"geometry":{"type":"Polygon","coordinates":[[[2.25337,50.55743],[2.25725,50.55864],[2.25738,50.55799],[2.25365,50.55679],[2.25337,50.55743]]]}},{"type":"Feature","properties":{"k":"ORH","s":4.73},"geometry":{"type":"Polygon","coordinates":[[[2.25271,50.55885],[2.2571,50.55989],[2.25725,50.55864],[2.25335,50.55742],[2.25271,50.55885]]]}},{"type":"Feature","properties":{"k":"PPH","s":4.182},"geometry":{"type":"Polygon","coordinates":[[[2.25186,50.56035],[2.25224,50.55897],[2.25238,50.55879],[2.25271,50.55885],[2.25365,50.5568],[2.25293,50.55658],[2.2514,50.55894],[2.25096,50.56027],[2.25109,50.56095],[2.2513,50.56093],[2.2518,50.56228],[2.25251,50.56216],[2.25186,50.56035]]]}},{"type":"Feature","properties":{"k":"MIS","s":5.103},"geometry":{"type":"Polygon","coordinates":[[[2.25187,50.56058],[2.25704,50.56058],[2.25708,50.55988],[2.25241,50.5588],[2.25187,50.56058]]]}},{"type":"Feature","properties":{"k":"ORH","s":2.962},"geometry":{"type":"Polygon","coordinates":[[[2.25667,50.56261],[2.2568,50.56168],[2.2533,50.56207],[2.25333,50.56333],[2.25667,50.56261]]]}},{"type":"Feature","properties":{"k":"MIS","s":0.009},"geometry":{"type":"Polygon","coordinates":[[[2.25357,50.56329],[2.25523,50.56293],[2.25357,50.56328],[2.25357,50.56329]]]}},{"type":"Feature","properties":{"k":"JAC","s":0.027},"geometry":{"type":"MultiPolygon","coordinates":[[[[2.25246,50.56304],[2.25281,50.5634],[2.25252,50.563],[2.25246,50.56304]]],[[[2.25294,50.56341],[2.253,50.56342],[2.25357,50.56328],[2.25294,50.56341]]]]}},{"type":"Feature","properties":{"k":"BOR","s":0.029},"geometry":{"type":"MultiPolygon","coordinates":[[[[2.25092,50.56075],[2.25102,50.56077],[2.25099,50.56066],[2.25092,50.56075]]],[[[2.25246,50.56289],[2.25214,50.56267],[2.25246,50.56304],[2.25246,50.56289]]]]}},{"type":"Feature","properties":{"k":"PTR","s":0.988},"geometry":{"type":"Polygon","coordinates":[[[2.25281,50.5634],[2.25333,50.56333],[2.2533,50.56207],[2.25181,50.56229],[2.25281,50.5634]]]}},{"type":"Feature","properties":{"k":"BTH","s":1.584},"geometry":{"type":"Polygon","coordinates":[[[2.25704,50.56123],[2.25825,50.56131],[2.258,50.55924],[2.25724,50.55914],[2.25704,50.56123]]]}},{"type":"Feature","properties":{"k":"BTN","s":0.016},"geometry":{"type":"Polygon","coordinates":[[[2.24981,50.56077],[2.24984,50.56077],[2.25004,50.55996],[2.24981,50.56077]]]}},{"type":"Feature","properties":{"k":"JAC","s":0.356},"geometry":{"type":"Polygon","coordinates":[[[2.25096,50.56027],[2.24997,50.56032],[2.24984,50.56077],[2.25099,50.56065],[2.25096,50.56027]]]}},{"type":"Feature","properties":{"k":"MIS","s":0.03},"geometry":{"type":"Polygon","coordinates":[[[2.25042,50.56072],[2.24998,50.56076],[2.25092,50.56075],[2.25042,50.56072]]]}},{"type":"Feature","properties":{"k":"PPH","s":1.181},"geometry":{"type":"Polygon","coordinates":[[[2.25146,50.55884],[2.25054,50.55866],[2.24996,50.56032],[2.25093,50.56026],[2.25146,50.55884]]]}},{"type":"Feature","properties":{"k":"BTH","s":0.02},"geometry":{"type":"Polygon","coordinates":[[[2.25013,50.55979],[2.25025,50.55926],[2.25004,50.55996],[2.25013,50.55979]]]}},{"type":"Feature","properties":{"k":"PPH","s":0.085},"geometry":{"type":"Polygon","coordinates":[[[2.27695,50.53774],[2.27675,50.5376],[2.27668,50.53767],[2.2784,50.53838],[2.27695,50.53774]]]}},{"type":"Feature","properties":{"k":"LIF","s":2.021},"geometry":{"type":"Polygon","coordinates":[[[2.27889,50.5362],[2.27764,50.53603],[2.27762,50.53784],[2.27867,50.53833],[2.27893,50.53825],[2.27889,50.5362]]]}},{"type":"Feature","properties":{"k":"PTR","s":1.408},"geometry":{"type":"Polygon","coordinates":[[[2.27764,50.53603],[2.27711,50.53594],[2.27657,50.53705],[2.27674,50.53759],[2.27844,50.53839],[2.27867,50.53833],[2.27762,50.53784],[2.27764,50.53603]]]}},{"type":"Feature","properties":{"k":"LIF","s":1.351},"geometry":{"type":"Polygon","coordinates":[[[2.27892,50.53781],[2.28007,50.53771],[2.28002,50.53633],[2.27889,50.53621],[2.27892,50.53781]]]}},{"type":"Feature","properties":{"k":"LIF","s":0.519},"geometry":{"type":"Polygon","coordinates":[[[2.28103,50.53642],[2.28108,50.53761],[2.28165,50.53756],[2.2816,50.53646],[2.28103,50.53642]]]}},{"type":"Feature","properties":{"k":"MIS","s":1.022},"geometry":{"type":"Polygon","coordinates":[[[2.28003,50.53634],[2.28006,50.53771],[2.28108,50.53761],[2.28103,50.53641],[2.28003,50.53634]]]}},{"type":"Feature","properties":{"k":"JAC","s":0.975},"geometry":{"type":"Polygon","coordinates":[[[2.2816,50.53646],[2.28165,50.53756],[2.28269,50.53746],[2.28268,50.53706],[2.28299,50.53706],[2.28296,50.53658],[2.2816,50.53646]]]}},{"type":"Feature","properties":{"k":"PPH","s":0.46},"geometry":{"type":"Polygon","coordinates":[[[2.2839,50.53674],[2.28367,50.5367],[2.28304,50.53698],[2.28306,50.53743],[2.28404,50.53744],[2.2839,50.53674]]]}},{"type":"Feature","properties":{"k":"MIS","s":0.566},"geometry":{"type":"Polygon","coordinates":[[[2.28405,50.53744],[2.28507,50.53744],[2.28509,50.53689],[2.28392,50.53675],[2.28405,50.53744]]]}},{"type":"Feature","properties":{"k":"LIF","s":0.003},"geometry":{"type":"Polygon","coordinates":[[[2.28418,50.53289],[2.28418,50.5329],[2.28471,50.53312],[2.28418,50.53289]]]}},{"type":"Feature","properties":{"k":"JAC","s":0.015},"geometry":{"type":"Polygon","coordinates":[[[2.28418,50.5329],[2.28326,50.53248],[2.28332,50.53254],[2.28418,50.5329]]]}},{"type":"Feature","properties":{"k":"JAC","s":0.731},"geometry":{"type":"Polygon","coordinates":[[[2.28401,50.53287],[2.2832,50.5325],[2.28262,50.53342],[2.28359,50.5337],[2.28401,50.53287]]]}},{"type":"Feature","properties":{"k":"BTH","s":3.855},"geometry":{"type":"Polygon","coordinates":[[[2.28382,50.5366],[2.28462,50.53505],[2.28495,50.53437],[2.28417,50.53401],[2.28474,50.53318],[2.28401,50.53287],[2.28229,50.53642],[2.28382,50.5366]]]}},{"type":"Feature","properties":{"k":"MIS","s":1.82},"geometry":{"type":"MultiPolygon","coordinates":[[[[2.28393,50.53665],[2.28488,50.53674],[2.28528,50.5367],[2.28584,50.536],[2.28547,50.53592],[2.286,50.53522],[2.28473,50.53494],[2.28393,50.53665]]],[[[2.2862,50.53495],[2.28614,50.53492],[2.28601,50.53521],[2.2862,50.53495]]]]}},{"type":"Feature","properties":{"k":"MIS","s":0.301},"geometry":{"type":"Polygon","coordinates":[[[2.28054,50.53621],[2.28114,50.53635],[2.28136,50.53581],[2.28069,50.53573],[2.28054,50.53621]]]}},{"type":"Feature","properties":{"k":"LIF","s":15.933},"geometry":{"type":"Polygon","coordinates":[[[2.27821,50.53026],[2.27551,50.53552],[2.27716,50.53587],[2.27941,50.53618],[2.28159,50.53175],[2.27821,50.53026]]]}},{"type":"Feature","properties":{"k":"BTH","s":1.487},"geometry":{"type":"Polygon","coordinates":[[[2.28159,50.53175],[2.27941,50.53619],[2.27982,50.53623],[2.28196,50.53191],[2.28159,50.53175]]]}},{"type":"Feature","properties":{"k":"BTP","s":4.99},"geometry":{"type":"Polygon","coordinates":[[[2.28229,50.53642],[2.28359,50.5337],[2.28262,50.53342],[2.28244,50.53373],[2.28218,50.53366],[2.28294,50.53235],[2.28196,50.53191],[2.2807,50.53442],[2.28191,50.53462],[2.28114,50.53635],[2.28229,50.53642]]]}},{"type":"Feature","properties":{"k":"MIS","s":0.323},"geometry":{"type":"Polygon","coordinates":[[[2.28244,50.53373],[2.2832,50.5325],[2.28294,50.53235],[2.28218,50.53366],[2.28244,50.53373]]]}},{"type":"Feature","properties":{"k":"PPH","s":0.003},"geometry":{"type":"Polygon","coordinates":[[[2.28046,50.53125],[2.2796,50.53087],[2.28045,50.53126],[2.28046,50.53125]]]}},{"type":"Feature","properties":{"k":"PPH","s":0.021},"geometry":{"type":"Polygon","coordinates":[[[2.27713,50.52963],[2.27714,50.5297],[2.27797,50.53013],[2.27713,50.52963]]]}}]}