{"type":"FeatureCollection","features":[{"type":"Feature","properties":{"k":"CZH","s":0.007},"geometry":{"type":"Polygon","coordinates":[[[2.08157,50.26835],[2.08214,50.26799],[2.08155,50.26834],[2.08157,50.26835]]]}},{"type":"Feature","properties":{"k":"BTA","s":0.032},"geometry":{"type":"Polygon","coordinates":[[[2.07015,50.25142],[2.07024,50.25126],[2.06961,50.25171],[2.07015,50.25142]]]}},{"type":"Feature","properties":{"k":"PPH","s":1.015},"geometry":{"type":"Polygon","coordinates":[[[2.07087,50.25273],[2.07167,50.25234],[2.07028,50.25129],[2.06966,50.25174],[2.07087,50.25273]]]}},{"type":"Feature","properties":{"k":"PPH","s":1.071},"geometry":{"type":"Polygon","coordinates":[[[2.07037,50.25111],[2.07028,50.25125],[2.07149,50.25214],[2.07228,50.2517],[2.07275,50.25207],[2.07337,50.25178],[2.07309,50.25156],[2.07037,50.25111]]]}},{"type":"Feature","properties":{"k":"BTA","s":0.11},"geometry":{"type":"Polygon","coordinates":[[[2.07035,50.25106],[2.07024,50.25122],[2.07037,50.25111],[2.0719,50.25145],[2.07307,50.25151],[2.07035,50.25106]]]}},{"type":"Feature","properties":{"k":"PPH","s":0.036},"geometry":{"type":"MultiPolygon","coordinates":[[[[2.07199,50.25137],[2.0724,50.25141],[2.07135,50.25123],[2.07199,50.25137]]],[[[2.07606,50.25194],[2.07614,50.25191],[2.07591,50.25195],[2.07606,50.25194]]],[[[2.07655,50.25173],[2.07666,50.25167],[2.07646,50.25177],[2.07655,50.25173]]],[[[2.07696,50.25143],[2.07686,50.25126],[2.07644,50.25097],[2.07689,50.25151],[2.07696,50.25143]]]]}},{"type":"Feature","properties":{"k":"PPH","s":1.012},"geometry":{"type":"Polygon","coordinates":[[[2.07329,50.25343],[2.07427,50.2542],[2.07495,50.25377],[2.07444,50.25341],[2.07509,50.25309],[2.0747,50.25273],[2.07329,50.25343]]]}},{"type":"Feature","properties":{"k":"PPH","s":0.583},"geometry":{"type":"Polygon","coordinates":[[[2.0745,50.25439],[2.07369,50.25381],[2.073,50.25418],[2.07383,50.2548],[2.0745,50.25439]]]}},{"type":"Feature","properties":{"k":"PTR","s":0.733},"geometry":{"type":"Polygon","coordinates":[[[2.07483,50.25437],[2.07558,50.25497],[2.07633,50.25451],[2.07516,50.2538],[2.07483,50.25437]]]}},{"type":"Feature","properties":{"k":"PPH","s":1.262},"geometry":{"type":"Polygon","coordinates":[[[2.0774,50.25316],[2.0769,50.25286],[2.07611,50.2532],[2.07527,50.25261],[2.07509,50.25287],[2.07536,50.2533],[2.07516,50.2538],[2.07573,50.25413],[2.0774,50.25316]]]}},{"type":"Feature","properties":{"k":"PPH","s":1.138},"geometry":{"type":"Polygon","coordinates":[[[2.07798,50.25348],[2.0781,50.25348],[2.07809,50.25302],[2.07741,50.25228],[2.07558,50.25239],[2.07648,50.25303],[2.07689,50.25283],[2.07798,50.25348]]]}},{"type":"Feature","properties":{"k":"BTH","s":0.526},"geometry":{"type":"Polygon","coordinates":[[[2.07901,50.25437],[2.07831,50.25379],[2.07783,50.25401],[2.07817,50.25424],[2.07773,50.25454],[2.07821,50.2548],[2.07901,50.25437]]]}},{"type":"Feature","properties":{"k":"BTH","s":2.289},"geometry":{"type":"Polygon","coordinates":[[[2.07793,50.25498],[2.07678,50.25441],[2.07623,50.25471],[2.07822,50.25611],[2.07973,50.25565],[2.079,50.25517],[2.07924,50.25505],[2.07866,50.25456],[2.07793,50.25498]]]}},{"type":"Feature","properties":{"k":"PPH","s":0.595},"geometry":{"type":"Polygon","coordinates":[[[2.07603,50.25539],[2.07713,50.25605],[2.0776,50.25584],[2.07822,50.25613],[2.07651,50.25506],[2.07603,50.25539]]]}},{"type":"Feature","properties":{"k":"PPH","s":0.611},"geometry":{"type":"Polygon","coordinates":[[[2.07738,50.25647],[2.07564,50.2554],[2.07536,50.25567],[2.07695,50.25667],[2.07738,50.25647]]]}},{"type":"Feature","properties":{"k":"PPH","s":0.362},"geometry":{"type":"Polygon","coordinates":[[[2.07326,50.25506],[2.07427,50.25559],[2.07452,50.25536],[2.07374,50.25477],[2.07326,50.25506]]]}},{"type":"Feature","properties":{"k":"MIS","s":0.93},"geometry":{"type":"Polygon","coordinates":[[[2.07087,50.25273],[2.06986,50.25194],[2.06899,50.25243],[2.07005,50.25321],[2.07087,50.25273]]]}},{"type":"Feature","properties":{"k":"PPH","s":0.336},"geometry":{"type":"Polygon","coordinates":[[[2.06859,50.25404],[2.06836,50.25422],[2.06919,50.25456],[2.06971,50.25418],[2.06933,50.25388],[2.0689,50.2542],[2.06859,50.25404]]]}},{"type":"Feature","properties":{"k":"PPH","s":0.263},"geometry":{"type":"Polygon","coordinates":[[[2.06866,50.25622],[2.06972,50.25578],[2.0695,50.25561],[2.06837,50.256],[2.06866,50.25622]]]}},{"type":"Feature","properties":{"k":"PPH","s":2.817},"geometry":{"type":"Polygon","coordinates":[[[2.06914,50.2585],[2.0688,50.2581],[2.07014,50.25762],[2.06987,50.2574],[2.07028,50.25713],[2.07002,50.25699],[2.0694,50.25735],[2.06869,50.25716],[2.06822,50.25755],[2.06754,50.25781],[2.06685,50.25752],[2.0666,50.2576],[2.06717,50.25876],[2.06598,50.25923],[2.06639,50.25938],[2.06734,50.25916],[2.06719,50.2588],[2.06787,50.25888],[2.06789,50.2587],[2.06815,50.25875],[2.06914,50.2585]]]}},{"type":"Feature","properties":{"k":"PPH","s":1.567},"geometry":{"type":"Polygon","coordinates":[[[2.07053,50.26055],[2.07023,50.25946],[2.0694,50.25965],[2.06937,50.2595],[2.06891,50.25957],[2.06885,50.25937],[2.06844,50.25942],[2.06881,50.26094],[2.06987,50.26038],[2.07053,50.26055]]]}},{"type":"Feature","properties":{"k":"PPH","s":0.69},"geometry":{"type":"Polygon","coordinates":[[[2.07177,50.25965],[2.07313,50.25912],[2.07194,50.25878],[2.07122,50.25898],[2.07177,50.25965]]]}},{"type":"Feature","properties":{"k":"LUZ","s":0.222},"geometry":{"type":"Polygon","coordinates":[[[2.07215,50.25877],[2.07213,50.2588],[2.07307,50.25903],[2.07329,50.25896],[2.07299,50.25855],[2.07215,50.25877]]]}},{"type":"Feature","properties":{"k":"PPH","s":1.614},"geometry":{"type":"Polygon","coordinates":[[[2.0701,50.25604],[2.07044,50.2563],[2.06976,50.25677],[2.07066,50.25725],[2.07094,50.25705],[2.07131,50.25733],[2.07231,50.25659],[2.07044,50.25576],[2.0701,50.25604]]]}},{"type":"Feature","properties":{"k":"PPH","s":0.22},"geometry":{"type":"Polygon","coordinates":[[[2.07346,50.25751],[2.0732,50.25704],[2.07268,50.2573],[2.07287,50.25765],[2.07346,50.25751]]]}},{"type":"Feature","properties":{"k":"BOR","s":0.079},"geometry":{"type":"Polygon","coordinates":[[[2.07897,50.2573],[2.07978,50.25774],[2.07897,50.25723],[2.07836,50.25755],[2.07897,50.2573]]]}},{"type":"Feature","properties":{"k":"MIS","s":0.683},"geometry":{"type":"Polygon","coordinates":[[[2.07633,50.25703],[2.07541,50.25728],[2.07574,50.2579],[2.07712,50.25761],[2.07633,50.25703]]]}},{"type":"Feature","properties":{"k":"ORH","s":3.674},"geometry":{"type":"Polygon","coordinates":[[[2.07624,50.25873],[2.07725,50.26067],[2.07855,50.26036],[2.07775,50.25944],[2.08055,50.25861],[2.07916,50.25818],[2.07718,50.25878],[2.07658,50.25802],[2.076,50.25799],[2.07624,50.25873]]]}},{"type":"Feature","properties":{"k":"PPH","s":0.723},"geometry":{"type":"Polygon","coordinates":[[[2.0764,50.26019],[2.07572,50.25946],[2.0746,50.25975],[2.07557,50.26043],[2.0764,50.26019]]]}},{"type":"Feature","properties":{"k":"PPH","s":2.132},"geometry":{"type":"Polygon","coordinates":[[[2.07624,50.25873],[2.07609,50.25801],[2.07585,50.25798],[2.07614,50.25875],[2.07586,50.25878],[2.07597,50.25914],[2.07402,50.25943],[2.0746,50.25975],[2.07572,50.25946],[2.0764,50.26019],[2.07557,50.26043],[2.07682,50.26116],[2.0774,50.26096],[2.07624,50.25873]]]}},{"type":"Feature","properties":{"k":"PPH","s":0.423},"geometry":{"type":"Polygon","coordinates":[[[2.0735,50.25921],[2.07402,50.25943],[2.07542,50.25913],[2.07531,50.25883],[2.0735,50.25921]]]}},{"type":"Feature","properties":{"k":"PPH","s":0.667},"geometry":{"type":"Polygon","coordinates":[[[2.07399,50.25833],[2.07376,50.25837],[2.07347,50.25843],[2.0737,50.25889],[2.07303,50.25902],[2.07348,50.25921],[2.07531,50.25882],[2.07524,50.25858],[2.07423,50.25875],[2.07399,50.25833]]]}},{"type":"Feature","properties":{"k":"PPH","s":5.587},"geometry":{"type":"Polygon","coordinates":[[[2.07651,50.26112],[2.07495,50.26012],[2.07277,50.26076],[2.07299,50.26096],[2.07181,50.26095],[2.07058,50.26061],[2.07012,50.26137],[2.06963,50.2613],[2.06969,50.26161],[2.06919,50.2617],[2.07037,50.26191],[2.07325,50.26188],[2.07384,50.26183],[2.07386,50.26169],[2.07558,50.26164],[2.07552,50.2614],[2.07651,50.26112]]]}},{"type":"Feature","properties":{"k":"BTH","s":1.502},"geometry":{"type":"Polygon","coordinates":[[[2.07704,50.26137],[2.07562,50.26165],[2.07389,50.26174],[2.0739,50.26223],[2.07782,50.26197],[2.07704,50.26137]]]}},{"type":"Feature","properties":{"k":"MIS","s":1.676},"geometry":{"type":"Polygon","coordinates":[[[2.07701,50.26126],[2.0777,50.26171],[2.08045,50.26126],[2.07855,50.26036],[2.07795,50.26099],[2.07701,50.26126]]]}},{"type":"Feature","properties":{"k":"JAC","s":0.419},"geometry":{"type":"Polygon","coordinates":[[[2.07854,50.26036],[2.07725,50.26067],[2.07744,50.26095],[2.07682,50.26116],[2.07701,50.26126],[2.07795,50.26099],[2.07854,50.26036]]]}},{"type":"Feature","properties":{"k":"PPH","s":0.452},"geometry":{"type":"Polygon","coordinates":[[[2.07826,50.2625],[2.07644,50.26276],[2.0765,50.26302],[2.07843,50.26284],[2.07826,50.2625]]]}},{"type":"Feature","properties":{"k":"LIF","s":0.365},"geometry":{"type":"Polygon","coordinates":[[[2.07883,50.26223],[2.07828,50.26236],[2.07868,50.26317],[2.07921,50.26301],[2.07883,50.26223]]]}},{"type":"Feature","properties":{"k":"PPH","s":0.397},"geometry":{"type":"Polygon","coordinates":[[[2.07858,50.2632],[2.07845,50.26285],[2.0772,50.26297],[2.07732,50.2633],[2.07858,50.2632]]]}},{"type":"Feature","properties":{"k":"LUZ","s":0.763},"geometry":{"type":"Polygon","coordinates":[[[2.07725,50.26425],[2.07768,50.26452],[2.07786,50.26453],[2.07836,50.26395],[2.07858,50.2632],[2.07795,50.26337],[2.07725,50.26425]]]}},{"type":"Feature","properties":{"k":"PPH","s":1.595},"geometry":{"type":"Polygon","coordinates":[[[2.0779,50.26331],[2.07278,50.26329],[2.07278,50.26346],[2.07734,50.26395],[2.0779,50.26331]]]}},{"type":"Feature","properties":{"k":"MIS","s":0.733},"geometry":{"type":"Polygon","coordinates":[[[2.07265,50.26243],[2.07263,50.26277],[2.07553,50.26286],[2.0755,50.26254],[2.07265,50.26243]]]}},{"type":"Feature","properties":{"k":"PPH","s":4.667},"geometry":{"type":"Polygon","coordinates":[[[2.07553,50.26286],[2.07485,50.26286],[2.07263,50.26277],[2.07265,50.26243],[2.07093,50.26255],[2.06982,50.26233],[2.06974,50.26304],[2.07278,50.26329],[2.07732,50.2633],[2.0772,50.26297],[2.07649,50.26305],[2.07644,50.26276],[2.07826,50.2625],[2.07784,50.26202],[2.07427,50.26227],[2.0743,50.26254],[2.0755,50.26254],[2.07553,50.26286]]]}},{"type":"Feature","properties":{"k":"PPH","s":5.457},"geometry":{"type":"Polygon","coordinates":[[[2.06982,50.26233],[2.06918,50.26225],[2.06898,50.26173],[2.06732,50.26202],[2.06873,50.26429],[2.06972,50.26511],[2.06952,50.26485],[2.07132,50.26398],[2.0711,50.26364],[2.07275,50.26364],[2.07276,50.26331],[2.06974,50.26304],[2.06982,50.26233]],[[2.06876,50.26329],[2.06878,50.26333],[2.06821,50.26342],[2.06876,50.26329]],[[2.06956,50.26354],[2.06938,50.26325],[2.07035,50.26442],[2.06956,50.26354]]]}},{"type":"Feature","properties":{"k":"PPH","s":2.127},"geometry":{"type":"Polygon","coordinates":[[[2.07387,50.26185],[2.07039,50.26192],[2.06904,50.26172],[2.06917,50.26223],[2.07097,50.26253],[2.0721,50.26241],[2.07429,50.26253],[2.07427,50.26226],[2.0739,50.26225],[2.07387,50.26185]]]}},{"type":"Feature","properties":{"k":"PPH","s":4.43},"geometry":{"type":"Polygon","coordinates":[[[2.07326,50.25922],[2.07183,50.2597],[2.07204,50.25998],[2.07111,50.26016],[2.07067,50.25927],[2.07023,50.25933],[2.07053,50.26055],[2.06987,50.26038],[2.06881,50.26094],[2.06889,50.26123],[2.06961,50.26118],[2.06963,50.26129],[2.07013,50.26132],[2.07055,50.26058],[2.07182,50.26093],[2.07292,50.26096],[2.0727,50.26076],[2.07495,50.2601],[2.07409,50.25954],[2.07326,50.25922]]]}},{"type":"Feature","properties":{"k":"BTH","s":8.886},"geometry":{"type":"Polygon","coordinates":[[[2.07481,50.2659],[2.0791,50.26583],[2.07774,50.2646],[2.07721,50.26433],[2.07734,50.26395],[2.07278,50.26346],[2.07277,50.26365],[2.07113,50.26365],[2.07134,50.26399],[2.07481,50.2659]]]}},{"type":"Feature","properties":{"k":"LUZ","s":2.02},"geometry":{"type":"Polygon","coordinates":[[[2.07134,50.26398],[2.06956,50.26486],[2.07079,50.2654],[2.07237,50.26465],[2.07489,50.26602],[2.07932,50.26599],[2.07489,50.26594],[2.07134,50.26398]]]}},{"type":"Feature","properties":{"k":"PPH","s":1.094},"geometry":{"type":"Polygon","coordinates":[[[2.07824,50.26506],[2.07922,50.26583],[2.07963,50.26572],[2.07866,50.26496],[2.07994,50.26461],[2.07981,50.26442],[2.07824,50.26417],[2.0781,50.26432],[2.07866,50.26438],[2.07865,50.26451],[2.07798,50.26451],[2.07824,50.26506]]]}},{"type":"Feature","properties":{"k":"BTH","s":14.034},"geometry":{"type":"Polygon","coordinates":[[[2.08117,50.26805],[2.08133,50.26803],[2.08083,50.26724],[2.07932,50.26599],[2.07489,50.26602],[2.07237,50.26465],[2.07079,50.2654],[2.07593,50.26833],[2.07782,50.268],[2.08144,50.26837],[2.08117,50.26805]]]}},{"type":"Feature","properties":{"k":"LIF","s":0.001},"geometry":{"type":"Polygon","coordinates":[[[2.07593,50.26833],[2.07597,50.26836],[2.07601,50.26834],[2.07593,50.26833]]]}},{"type":"Feature","properties":{"k":"MIS","s":0.0},"geometry":{"type":"Polygon","coordinates":[]}},{"type":"Feature","properties":{"k":"PPH","s":0.321},"geometry":{"type":"Polygon","coordinates":[[[2.08318,50.26615],[2.08285,50.26634],[2.08366,50.267],[2.08462,50.26637],[2.08398,50.26675],[2.08318,50.26615]]]}},{"type":"Feature","properties":{"k":"MIS","s":0.988},"geometry":{"type":"Polygon","coordinates":[[[2.08364,50.26701],[2.08285,50.26634],[2.08316,50.26616],[2.08216,50.26552],[2.08152,50.26591],[2.08336,50.2672],[2.08364,50.26701]]]}},{"type":"Feature","properties":{"k":"MIS","s":0.581},"geometry":{"type":"Polygon","coordinates":[[[2.08104,50.26738],[2.08168,50.26826],[2.0824,50.26782],[2.08151,50.26714],[2.08104,50.26738]]]}},{"type":"Feature","properties":{"k":"BTH","s":2.333},"geometry":{"type":"Polygon","coordinates":[[[2.08181,50.26697],[2.07895,50.26488],[2.07868,50.26496],[2.07966,50.26573],[2.07931,50.26589],[2.08104,50.26738],[2.08151,50.26714],[2.0824,50.26782],[2.08336,50.2672],[2.08249,50.26659],[2.08181,50.26697]],[[2.07942,50.26594],[2.07938,50.2659],[2.07957,50.26582],[2.07942,50.26594]]]}},{"type":"Feature","properties":{"k":"MIS","s":1.052},"geometry":{"type":"Polygon","coordinates":[[[2.08056,50.26472],[2.07997,50.26463],[2.07949,50.26474],[2.08129,50.26605],[2.08191,50.26567],[2.08056,50.26472]]]}},{"type":"Feature","properties":{"k":"BTH","s":1.151},"geometry":{"type":"Polygon","coordinates":[[[2.08249,50.26659],[2.08152,50.26591],[2.08113,50.26617],[2.07925,50.2648],[2.07895,50.26488],[2.08191,50.26692],[2.08249,50.26659]]]}},{"type":"Feature","properties":{"k":"PTR","s":3.648},"geometry":{"type":"Polygon","coordinates":[[[2.07981,50.26442],[2.07994,50.26461],[2.08058,50.2647],[2.08191,50.26566],[2.08317,50.26507],[2.08065,50.26339],[2.08033,50.26375],[2.07867,50.2635],[2.07826,50.26418],[2.07981,50.26442]]]}},{"type":"Feature","properties":{"k":"PPH","s":2.609},"geometry":{"type":"Polygon","coordinates":[[[2.08232,50.26557],[2.08396,50.26672],[2.08617,50.26537],[2.08595,50.26521],[2.08521,50.26565],[2.08384,50.2648],[2.08232,50.26557]]]}},{"type":"Feature","properties":{"k":"PPH","s":1.883},"geometry":{"type":"Polygon","coordinates":[[[2.08474,50.26438],[2.08619,50.26535],[2.0875,50.2645],[2.08618,50.26364],[2.08474,50.26438]]]}},{"type":"Feature","properties":{"k":"MIS","s":1.106},"geometry":{"type":"Polygon","coordinates":[[[2.08994,50.25088],[2.09044,50.25107],[2.09228,50.24983],[2.09158,50.24945],[2.08994,50.25088]]]}},{"type":"Feature","properties":{"k":"LUZ","s":0.463},"geometry":{"type":"Polygon","coordinates":[[[2.08963,50.2499],[2.09054,50.25037],[2.09088,50.24993],[2.0902,50.24948],[2.08963,50.2499]]]}},{"type":"Feature","properties":{"k":"ORH","s":5.126},"geometry":{"type":"Polygon","coordinates":[[[2.09453,50.25315],[2.09364,50.25384],[2.09443,50.25392],[2.09605,50.25377],[2.09903,50.25151],[2.09751,50.25082],[2.09453,50.25315]]]}},{"type":"Feature","properties":{"k":"LIF","s":4.669},"geometry":{"type":"Polygon","coordinates":[[[2.09619,50.25022],[2.0921,50.2534],[2.09352,50.25378],[2.09739,50.25077],[2.09619,50.25022]]]}},{"type":"Feature","properties":{"k":"LIF","s":4.905},"geometry":{"type":"Polygon","coordinates":[[[2.09052,50.25344],[2.0921,50.2534],[2.09619,50.25022],[2.09509,50.24971],[2.0906,50.25313],[2.09052,50.25344]]]}},{"type":"Feature","properties":{"k":"BTH","s":5.131},"geometry":{"type":"Polygon","coordinates":[[[2.09115,50.25078],[2.09063,50.25311],[2.09509,50.24971],[2.09364,50.249],[2.09115,50.25078]]]}},{"type":"Feature","properties":{"k":"BTN","s":4.127},"geometry":{"type":"Polygon","coordinates":[[[2.0916,50.2545],[2.09304,50.25534],[2.09395,50.25416],[2.09222,50.25345],[2.09043,50.2535],[2.09004,50.25438],[2.08986,50.25568],[2.0916,50.2545]]]}},{"type":"Feature","properties":{"k":"BTH","s":2.524},"geometry":{"type":"Polygon","coordinates":[[[2.09497,50.25495],[2.09747,50.25569],[2.098,50.25576],[2.09873,50.25515],[2.09429,50.25408],[2.09413,50.25423],[2.09497,50.25495]]]}},{"type":"Feature","properties":{"k":"ORH","s":2.397},"geometry":{"type":"Polygon","coordinates":[[[2.09457,50.25719],[2.09603,50.25756],[2.09715,50.25568],[2.09597,50.25533],[2.09457,50.25719]]]}},{"type":"Feature","properties":{"k":"CZH","s":2.793},"geometry":{"type":"Polygon","coordinates":[[[2.09961,50.25449],[2.09662,50.25371],[2.09394,50.25396],[2.09873,50.25515],[2.09961,50.25449]]]}},{"type":"Feature","properties":{"k":"BTH","s":11.358},"geometry":{"type":"Polygon","coordinates":[[[2.10606,50.2579],[2.10632,50.2572],[2.10421,50.25675],[2.10562,50.25615],[2.10466,50.25495],[2.10196,50.25552],[2.09925,50.25475],[2.098,50.25576],[2.09944,50.25601],[2.09904,50.25681],[2.10606,50.2579]]]}},{"type":"Feature","properties":{"k":"BTH","s":7.303},"geometry":{"type":"Polygon","coordinates":[[[2.09961,50.25449],[2.09925,50.25475],[2.10185,50.25546],[2.10279,50.25521],[2.10589,50.25478],[2.10494,50.25433],[2.10279,50.25365],[2.09958,50.25369],[2.09842,50.25351],[2.09675,50.25371],[2.09961,50.25449]]]}},{"type":"Feature","properties":{"k":"CZH","s":2.5},"geometry":{"type":"Polygon","coordinates":[[[2.10237,50.25356],[2.10323,50.25368],[2.10449,50.25409],[2.10462,50.25392],[2.10205,50.25261],[2.10178,50.25275],[2.10095,50.25238],[2.09953,50.25362],[2.10237,50.25356]]]}},{"type":"Feature","properties":{"k":"BTN","s":3.939},"geometry":{"type":"Polygon","coordinates":[[[2.09668,50.25333],[2.09611,50.25375],[2.09797,50.25345],[2.09953,50.25362],[2.10095,50.25238],[2.09905,50.25151],[2.09668,50.25333]]]}},{"type":"Feature","properties":{"k":"PPH","s":0.427},"geometry":{"type":"Polygon","coordinates":[[[2.06439,50.25681],[2.06519,50.25644],[2.06457,50.25591],[2.06431,50.25604],[2.06433,50.25551],[2.06427,50.25662],[2.06439,50.25681]]]}},{"type":"Feature","properties":{"k":"ORH","s":0.216},"geometry":{"type":"Polygon","coordinates":[[[2.10501,50.25427],[2.10591,50.25472],[2.10598,50.25452],[2.10465,50.25394],[2.10454,50.25411],[2.10501,50.25427]]]}},{"type":"Feature","properties":{"k":"BTH","s":0.007},"geometry":{"type":"MultiPolygon","coordinates":[[[[2.10914,50.2567],[2.10916,50.25667],[2.10876,50.25655],[2.10914,50.2567]]]]}},{"type":"Feature","properties":{"k":"MIS","s":0.039},"geometry":{"type":"Polygon","coordinates":[[[2.10603,50.25473],[2.1063,50.25504],[2.10614,50.2546],[2.10603,50.25473]]]}},{"type":"Feature","properties":{"k":"ORP","s":1.162},"geometry":{"type":"Polygon","coordinates":[[[2.10561,50.2603],[2.10594,50.25966],[2.10343,50.25947],[2.10334,50.25999],[2.10561,50.2603]]]}},{"type":"Feature","properties":{"k":"ORP","s":5.455},"geometry":{"type":"Polygon","coordinates":[[[2.10863,50.26012],[2.11079,50.26032],[2.10946,50.25932],[2.10577,50.25862],[2.10294,50.25827],[2.10264,50.25934],[2.10594,50.25966],[2.10866,50.25972],[2.10863,50.26012]]]}},{"type":"Feature","properties":{"k":"BTH","s":9.054},"geometry":{"type":"Polygon","coordinates":[[[2.11121,50.26111],[2.11241,50.25994],[2.11122,50.25927],[2.11012,50.25889],[2.11121,50.25825],[2.11113,50.25816],[2.10984,50.25869],[2.10902,50.25821],[2.10614,50.25766],[2.10577,50.25862],[2.10946,50.25932],[2.11079,50.26032],[2.10863,50.26012],[2.10866,50.25972],[2.10594,50.25966],[2.10561,50.2603],[2.10686,50.26047],[2.10721,50.26097],[2.1076,50.26073],[2.11121,50.26111]]]}},{"type":"Feature","properties":{"k":"PPH","s":6.382},"geometry":{"type":"Polygon","coordinates":[[[2.11007,50.25715],[2.10719,50.25588],[2.10665,50.25653],[2.10562,50.25615],[2.10424,50.25673],[2.10635,50.25718],[2.10616,50.25766],[2.10884,50.25816],[2.10983,50.25869],[2.11108,50.25813],[2.11007,50.25715]]]}},{"type":"Feature","properties":{"k":"BTH","s":0.146},"geometry":{"type":"Polygon","coordinates":[[[2.11003,50.25694],[2.10916,50.25667],[2.11014,50.25713],[2.11067,50.25759],[2.11079,50.25747],[2.11003,50.25694]]]}},{"type":"Feature","properties":{"k":"BTH","s":0.134},"geometry":{"type":"Polygon","coordinates":[[[2.11099,50.25801],[2.11121,50.25824],[2.11135,50.25816],[2.11079,50.25747],[2.11066,50.2576],[2.11099,50.25801]]]}},{"type":"Feature","properties":{"k":"PPH","s":0.077},"geometry":{"type":"Polygon","coordinates":[[[2.10948,50.26092],[2.10948,50.26102],[2.1112,50.26112],[2.10948,50.26092]]]}},{"type":"Feature","properties":{"k":"BTH","s":0.377},"geometry":{"type":"Polygon","coordinates":[[[2.1076,50.26073],[2.10721,50.26097],[2.10735,50.26116],[2.10945,50.26102],[2.10945,50.26091],[2.1076,50.26073]]]}},{"type":"Feature","properties":{"k":"MIS","s":0.43},"geometry":{"type":"Polygon","coordinates":[[[2.10343,50.25947],[2.10249,50.25933],[2.1023,50.25988],[2.10333,50.25998],[2.10343,50.25947]]]}},{"type":"Feature","properties":{"k":"PPH","s":0.245},"geometry":{"type":"Polygon","coordinates":[[[2.10065,50.25969],[2.09982,50.25968],[2.09977,50.25977],[2.10333,50.25998],[2.10065,50.25969]]]}},{"type":"Feature","properties":{"k":"JAC","s":0.419},"geometry":{"type":"Polygon","coordinates":[[[2.10153,50.25922],[2.1014,50.25978],[2.1023,50.25988],[2.10249,50.25933],[2.10153,50.25922]]]}},{"type":"Feature","properties":{"k":"BTH","s":4.935},"geometry":{"type":"Polygon","coordinates":[[[2.09879,50.25593],[2.09807,50.25744],[2.10576,50.25863],[2.10605,50.2579],[2.09901,50.25687],[2.09941,50.256],[2.09879,50.25593]]]}},{"type":"Feature","properties":{"k":"ORH","s":5.227},"geometry":{"type":"Polygon","coordinates":[[[2.10264,50.25929],[2.10298,50.25817],[2.09805,50.25745],[2.09778,50.25802],[2.0976,50.258],[2.09694,50.25878],[2.09743,50.2587],[2.10264,50.25929]]]}},{"type":"Feature","properties":{"k":"LUZ","s":2.2},"geometry":{"type":"Polygon","coordinates":[[[2.10142,50.2597],[2.10153,50.25923],[2.09743,50.25874],[2.09627,50.25896],[2.09653,50.25951],[2.09756,50.25933],[2.10142,50.2597]]]}},{"type":"Feature","properties":{"k":"PPH","s":0.14},"geometry":{"type":"Polygon","coordinates":[[[2.09819,50.25967],[2.09813,50.25973],[2.09945,50.25984],[2.0998,50.2597],[2.09819,50.25967]]]}},{"type":"Feature","properties":{"k":"MIS","s":1.602},"geometry":{"type":"Polygon","coordinates":[[[2.1014,50.25978],[2.10142,50.2597],[2.09756,50.25933],[2.09582,50.25966],[2.09659,50.26041],[2.09737,50.2604],[2.09793,50.25971],[2.1014,50.25978]]]}},{"type":"Feature","properties":{"k":"CPL","s":0.88},"geometry":{"type":"Polygon","coordinates":[[[2.09549,50.25911],[2.09437,50.25948],[2.09488,50.25992],[2.09654,50.25952],[2.09627,50.25896],[2.09549,50.25911]]]}},{"type":"Feature","properties":{"k":"MIS","s":1.725},"geometry":{"type":"Polygon","coordinates":[[[2.09416,50.25933],[2.09437,50.25948],[2.09691,50.25878],[2.09761,50.25796],[2.09656,50.25773],[2.09416,50.25933]]]}},{"type":"Feature","properties":{"k":"BTH","s":1.445},"geometry":{"type":"Polygon","coordinates":[[[2.09793,50.25579],[2.09688,50.25776],[2.09777,50.25792],[2.0987,50.25591],[2.09793,50.25579]]]}},{"type":"Feature","properties":{"k":"PHF","s":1.289},"geometry":{"type":"Polygon","coordinates":[[[2.09688,50.25776],[2.09793,50.25579],[2.09715,50.25568],[2.09614,50.25756],[2.09688,50.25776]]]}},{"type":"Feature","properties":{"k":"BTN","s":7.198},"geometry":{"type":"Polygon","coordinates":[[[2.09137,50.25834],[2.09269,50.25927],[2.09359,50.25897],[2.09415,50.25933],[2.09656,50.25773],[2.09452,50.25721],[2.09596,50.25533],[2.0954,50.25515],[2.09137,50.25834]]]}},{"type":"Feature","properties":{"k":"BTH","s":5.333},"geometry":{"type":"Polygon","coordinates":[[[2.09429,50.25461],[2.0895,50.25835],[2.09029,50.25887],[2.09137,50.25833],[2.0954,50.25515],[2.09429,50.25461]]]}},{"type":"Feature","properties":{"k":"JAC","s":1.465},"geometry":{"type":"Polygon","coordinates":[[[2.09303,50.26269],[2.09158,50.2611],[2.09112,50.26131],[2.09122,50.26147],[2.09103,50.2614],[2.09077,50.26153],[2.09248,50.26306],[2.09303,50.26269]]]}},{"type":"Feature","properties":{"k":"PPH","s":1.235},"geometry":{"type":"Polygon","coordinates":[[[2.09363,50.26237],[2.09466,50.26197],[2.09345,50.26089],[2.09251,50.26132],[2.09363,50.26237]]]}},{"type":"Feature","properties":{"k":"PPH","s":0.367},"geometry":{"type":"Polygon","coordinates":[[[2.09345,50.26089],[2.09466,50.26197],[2.09495,50.26187],[2.09375,50.26076],[2.09345,50.26089]]]}},{"type":"Feature","properties":{"k":"PPH","s":6.815},"geometry":{"type":"Polygon","coordinates":[[[2.09269,50.25927],[2.09318,50.25982],[2.09127,50.26072],[2.09179,50.26106],[2.09313,50.26263],[2.09339,50.26248],[2.09322,50.26205],[2.09251,50.26132],[2.09375,50.26075],[2.09495,50.26187],[2.09663,50.2613],[2.09708,50.26082],[2.09581,50.25967],[2.09491,50.25998],[2.09358,50.25897],[2.09269,50.25927]]]}},{"type":"Feature","properties":{"k":"ORP","s":0.076},"geometry":{"type":"Polygon","coordinates":[[[2.09734,50.2612],[2.09746,50.26104],[2.09709,50.26082],[2.09696,50.26106],[2.09734,50.2612]]]}},{"type":"Feature","properties":{"k":"BTH","s":1.154},"geometry":{"type":"Polygon","coordinates":[[[2.08973,50.26312],[2.08857,50.26216],[2.08763,50.26257],[2.08885,50.26365],[2.08973,50.26312]]]}},{"type":"Feature","properties":{"k":"MIS","s":0.359},"geometry":{"type":"Polygon","coordinates":[[[2.08982,50.26228],[2.08922,50.26263],[2.0898,50.26306],[2.09036,50.26273],[2.08982,50.26228]]]}},{"type":"Feature","properties":{"k":"BTH","s":0.012},"geometry":{"type":"Polygon","coordinates":[[[2.08981,50.26306],[2.08984,50.26307],[2.09035,50.26274],[2.08981,50.26306]]]}},{"type":"Feature","properties":{"k":"LIF","s":0.567},"geometry":{"type":"Polygon","coordinates":[[[2.09073,50.26253],[2.09191,50.26345],[2.09205,50.26335],[2.09047,50.26198],[2.08986,50.26231],[2.09036,50.26273],[2.09073,50.26253]]]}},{"type":"Feature","properties":{"k":"MIS","s":0.868},"geometry":{"type":"Polygon","coordinates":[[[2.09209,50.26333],[2.09248,50.26306],[2.09077,50.26153],[2.09033,50.26178],[2.09209,50.26333]]]}},{"type":"Feature","properties":{"k":"MIS","s":0.854},"geometry":{"type":"Polygon","coordinates":[[[2.08967,50.26195],[2.09016,50.26168],[2.08855,50.26031],[2.08811,50.26061],[2.08967,50.26195]]]}},{"type":"Feature","properties":{"k":"BTH","s":0.447},"geometry":{"type":"Polygon","coordinates":[[[2.08799,50.26171],[2.08714,50.26117],[2.08664,50.26145],[2.08735,50.26201],[2.08799,50.26171]]]}},{"type":"Feature","properties":{"k":"BTH","s":1.396},"geometry":{"type":"Polygon","coordinates":[[[2.08718,50.26103],[2.08892,50.26235],[2.08967,50.26195],[2.08795,50.26047],[2.08718,50.26103]]]}},{"type":"Feature","properties":{"k":"CZH","s":2.633},"geometry":{"type":"Polygon","coordinates":[[[2.08651,50.26263],[2.08818,50.26183],[2.08802,50.2617],[2.08735,50.26202],[2.08664,50.26145],[2.08441,50.26283],[2.08578,50.26383],[2.0862,50.26362],[2.08611,50.2632],[2.08686,50.26287],[2.08651,50.26263]]]}},{"type":"Feature","properties":{"k":"JAC","s":0.614},"geometry":{"type":"Polygon","coordinates":[[[2.08855,50.26215],[2.0882,50.26182],[2.08654,50.26263],[2.0869,50.26288],[2.08855,50.26215]]]}},{"type":"Feature","properties":{"k":"BTH","s":0.096},"geometry":{"type":"Polygon","coordinates":[[[2.08763,50.26257],[2.08754,50.26261],[2.08881,50.2637],[2.08763,50.26257]]]}},{"type":"Feature","properties":{"k":"BTH","s":2.227},"geometry":{"type":"Polygon","coordinates":[[[2.08614,50.2632],[2.08618,50.26364],[2.0875,50.2645],[2.0888,50.26369],[2.08754,50.26261],[2.08614,50.2632]]]}},{"type":"Feature","properties":{"k":"LIF","s":4.035},"geometry":{"type":"Polygon","coordinates":[[[2.08484,50.26445],[2.08474,50.26438],[2.08543,50.26402],[2.0834,50.26268],[2.08046,50.26126],[2.07927,50.26145],[2.08484,50.26445]]]}},{"type":"Feature","properties":{"k":"LIH","s":0.806},"geometry":{"type":"Polygon","coordinates":[[[2.08553,50.26545],[2.08574,50.26534],[2.08127,50.26282],[2.08108,50.26292],[2.08553,50.26545]]]}},{"type":"Feature","properties":{"k":"MIS","s":6.218},"geometry":{"type":"Polygon","coordinates":[[[2.08597,50.2652],[2.08484,50.26445],[2.07927,50.26145],[2.0777,50.26171],[2.07828,50.26236],[2.07883,50.26223],[2.07921,50.26301],[2.08033,50.26375],[2.08064,50.26336],[2.0832,50.26506],[2.08385,50.26481],[2.0852,50.26566],[2.08553,50.26545],[2.08108,50.26292],[2.08127,50.26282],[2.08574,50.26534],[2.08597,50.2652]]]}},{"type":"Feature","properties":{"k":"MIS","s":0.387},"geometry":{"type":"Polygon","coordinates":[[[2.07921,50.26301],[2.07868,50.26317],[2.07868,50.2635],[2.08017,50.26365],[2.07921,50.26301]]]}},{"type":"Feature","properties":{"k":"BTN","s":11.437},"geometry":{"type":"Polygon","coordinates":[[[2.08342,50.26267],[2.08453,50.26125],[2.08383,50.26087],[2.08446,50.26012],[2.08055,50.25861],[2.07775,50.25944],[2.07855,50.26036],[2.08342,50.26267]]]}},{"type":"Feature","properties":{"k":"BTH","s":3.651},"geometry":{"type":"Polygon","coordinates":[[[2.08438,50.26283],[2.08714,50.26117],[2.08555,50.26049],[2.08469,50.26104],[2.0834,50.26268],[2.08543,50.26402],[2.08578,50.26383],[2.08438,50.26283]]]}},{"type":"Feature","properties":{"k":"PPH","s":0.428},"geometry":{"type":"Polygon","coordinates":[[[2.08467,50.26046],[2.08485,50.26022],[2.08448,50.26009],[2.08383,50.26087],[2.08434,50.26114],[2.08487,50.26053],[2.08467,50.26046]]]}},{"type":"Feature","properties":{"k":"PPH","s":0.138},"geometry":{"type":"Polygon","coordinates":[[[2.08469,50.26104],[2.08471,50.26105],[2.08555,50.26049],[2.08519,50.26034],[2.08469,50.26104]]]}},{"type":"Feature","properties":{"k":"MLG","s":1.228},"geometry":{"type":"Polygon","coordinates":[[[2.08531,50.25884],[2.0838,50.25977],[2.08505,50.26017],[2.0862,50.25928],[2.08531,50.25884]]]}},{"type":"Feature","properties":{"k":"MIS","s":2.961},"geometry":{"type":"Polygon","coordinates":[[[2.08327,50.25738],[2.0829,50.25762],[2.08622,50.25929],[2.08507,50.26017],[2.08649,50.26073],[2.08782,50.25966],[2.08327,50.25738]]]}},{"type":"Feature","properties":{"k":"BTH","s":1.194},"geometry":{"type":"Polygon","coordinates":[[[2.0838,50.25977],[2.08531,50.25884],[2.08444,50.2584],[2.08288,50.25934],[2.0838,50.25977]]]}},{"type":"Feature","properties":{"k":"BTH","s":2.272},"geometry":{"type":"Polygon","coordinates":[[[2.07978,50.25774],[2.08179,50.25666],[2.08053,50.25609],[2.0783,50.25697],[2.07858,50.25713],[2.07816,50.25743],[2.07835,50.25754],[2.07897,50.25723],[2.07978,50.25774]]]}},{"type":"Feature","properties":{"k":"BOR","s":0.11},"geometry":{"type":"Polygon","coordinates":[[[2.07823,50.25693],[2.08053,50.25609],[2.08046,50.25605],[2.07823,50.25693]]]}},{"type":"Feature","properties":{"k":"MLG","s":2.998},"geometry":{"type":"Polygon","coordinates":[[[2.08056,50.25848],[2.08288,50.25934],[2.08444,50.2584],[2.08241,50.25737],[2.08056,50.25848]]]}},{"type":"Feature","properties":{"k":"BTH","s":4.753},"geometry":{"type":"Polygon","coordinates":[[[2.08191,50.25532],[2.08376,50.25661],[2.08367,50.2567],[2.0871,50.2585],[2.08804,50.25807],[2.08326,50.25508],[2.08191,50.25532]]]}},{"type":"Feature","properties":{"k":"PPH","s":1.437},"geometry":{"type":"Polygon","coordinates":[[[2.0868,50.26086],[2.08778,50.26008],[2.08806,50.26022],[2.08909,50.25972],[2.08829,50.25907],[2.08805,50.25921],[2.0874,50.25874],[2.08671,50.25908],[2.08788,50.25963],[2.08649,50.26073],[2.0868,50.26086]]]}},{"type":"Feature","properties":{"k":"PPH","s":5.094},"geometry":{"type":"MultiPolygon","coordinates":[[[[2.08841,50.25857],[2.08759,50.25883],[2.0874,50.25873],[2.08805,50.2592],[2.08829,50.25906],[2.08946,50.26006],[2.08982,50.25995],[2.09116,50.26129],[2.09162,50.26108],[2.0907,50.26027],[2.08909,50.25809],[2.08884,50.25791],[2.08831,50.25824],[2.08813,50.25813],[2.08796,50.25822],[2.08841,50.25857]]],[[[2.08363,50.25668],[2.08288,50.25714],[2.08667,50.25908],[2.0874,50.25873],[2.08363,50.25668]]]]}},{"type":"Feature","properties":{"k":"JAC","s":0.378},"geometry":{"type":"Polygon","coordinates":[[[2.08796,50.25822],[2.08804,50.25807],[2.0871,50.2585],[2.08759,50.25883],[2.08841,50.25857],[2.08796,50.25822]]]}},{"type":"Feature","properties":{"k":"BTH","s":3.568},"geometry":{"type":"Polygon","coordinates":[[[2.09029,50.25887],[2.08923,50.25822],[2.09127,50.26072],[2.09318,50.25982],[2.09269,50.25927],[2.09137,50.25834],[2.09029,50.25887]]]}},{"type":"Feature","properties":{"k":"BTH","s":1.355},"geometry":{"type":"Polygon","coordinates":[[[2.08903,50.25802],[2.08916,50.25694],[2.08974,50.25572],[2.08836,50.25651],[2.08778,50.2572],[2.08903,50.25802]]]}},{"type":"Feature","properties":{"k":"BTH","s":4.595},"geometry":{"type":"Polygon","coordinates":[[[2.0895,50.25835],[2.09429,50.25461],[2.09395,50.25416],[2.09304,50.25534],[2.09245,50.255],[2.08928,50.25671],[2.08908,50.25789],[2.0895,50.25835]],[[2.09004,50.25688],[2.09106,50.25653],[2.08959,50.25716],[2.09004,50.25688]]]}},{"type":"Feature","properties":{"k":"MIS","s":1.603},"geometry":{"type":"Polygon","coordinates":[[[2.09245,50.255],[2.0916,50.2545],[2.08986,50.25568],[2.08928,50.25671],[2.09245,50.255]]]}},{"type":"Feature","properties":{"k":"ORH","s":5.343},"geometry":{"type":"Polygon","coordinates":[[[2.08614,50.25392],[2.08826,50.25341],[2.09036,50.25342],[2.09106,50.25091],[2.08785,50.25244],[2.08647,50.25329],[2.08525,50.25375],[2.0847,50.25415],[2.08509,50.25436],[2.08614,50.25392]]]}},{"type":"Feature","properties":{"k":"ORH","s":5.344},"geometry":{"type":"Polygon","coordinates":[[[2.08578,50.25416],[2.08825,50.25592],[2.08987,50.25521],[2.09032,50.25351],[2.08859,50.25345],[2.08578,50.25416]]]}},{"type":"Feature","properties":{"k":"CZH","s":7.491},"geometry":{"type":"Polygon","coordinates":[[[2.08325,50.25507],[2.08812,50.25806],[2.08838,50.2582],[2.08884,50.25791],[2.08778,50.2572],[2.08861,50.25628],[2.08936,50.25589],[2.08899,50.25559],[2.08818,50.25597],[2.08578,50.25416],[2.08494,50.25452],[2.08423,50.25454],[2.08325,50.25507]]]}},{"type":"Feature","properties":{"k":"BTH","s":2.044},"geometry":{"type":"Polygon","coordinates":[[[2.08123,50.25594],[2.08086,50.25618],[2.08288,50.25711],[2.08368,50.25659],[2.08241,50.25587],[2.08253,50.25581],[2.08179,50.2553],[2.08067,50.25549],[2.08123,50.25594]]]}},{"type":"Feature","properties":{"k":"PPH","s":0.313},"geometry":{"type":"Polygon","coordinates":[[[2.0795,50.25423],[2.07868,50.25455],[2.07913,50.2549],[2.0798,50.25462],[2.0795,50.25423]]]}},{"type":"Feature","properties":{"k":"BTH","s":4.197},"geometry":{"type":"Polygon","coordinates":[[[2.08047,50.25545],[2.08287,50.25505],[2.08122,50.25303],[2.07956,50.2532],[2.07907,50.25337],[2.08047,50.25545]]]}},{"type":"Feature","properties":{"k":"PPH","s":0.551},"geometry":{"type":"Polygon","coordinates":[[[2.07845,50.25286],[2.07901,50.25332],[2.07999,50.2531],[2.07955,50.25248],[2.07845,50.25286]]]}},{"type":"Feature","properties":{"k":"BTH","s":0.157},"geometry":{"type":"Polygon","coordinates":[[[2.08,50.25309],[2.08034,50.25306],[2.07987,50.25246],[2.0796,50.25251],[2.08,50.25309]]]}},{"type":"Feature","properties":{"k":"PPH","s":0.383},"geometry":{"type":"Polygon","coordinates":[[[2.08058,50.25306],[2.08124,50.25302],[2.08057,50.25225],[2.08003,50.25237],[2.08058,50.25306]]]}},{"type":"Feature","properties":{"k":"BTH","s":7.829},"geometry":{"type":"Polygon","coordinates":[[[2.08312,50.25306],[2.08124,50.25302],[2.08288,50.25505],[2.0839,50.25459],[2.08521,50.25361],[2.08648,50.25313],[2.08792,50.25225],[2.08667,50.25117],[2.08312,50.25306]]]}},{"type":"Feature","properties":{"k":"PPH","s":1.418},"geometry":{"type":"Polygon","coordinates":[[[2.08855,50.25203],[2.08973,50.25144],[2.08834,50.25062],[2.08722,50.25092],[2.08855,50.25203]]]}}]}