{"type":"FeatureCollection","features":[{"type":"Feature","properties":{"k":"BTH","s":1.892},"geometry":{"type":"Polygon","coordinates":[[[1.66369,50.52781],[1.66427,50.52833],[1.66705,50.52669],[1.66638,50.5262],[1.66369,50.52781]]]}},{"type":"Feature","properties":{"k":"CZH","s":0.014},"geometry":{"type":"Polygon","coordinates":[[[1.66506,50.527],[1.66616,50.52633],[1.66369,50.5278],[1.66506,50.527]]]}},{"type":"Feature","properties":{"k":"PTR","s":0.034},"geometry":{"type":"MultiPolygon","coordinates":[[[[1.6639,50.52803],[1.66369,50.5278],[1.66384,50.528],[1.66331,50.52823],[1.6639,50.52803]]]]}},{"type":"Feature","properties":{"k":"BTH","s":4.884},"geometry":{"type":"Polygon","coordinates":[[[1.66678,50.52974],[1.66931,50.52837],[1.66875,50.52789],[1.66767,50.52845],[1.66621,50.52748],[1.66738,50.52678],[1.6672,50.52663],[1.66426,50.52833],[1.66609,50.52957],[1.66678,50.52974]]]}},{"type":"Feature","properties":{"k":"BFS","s":0.065},"geometry":{"type":"Polygon","coordinates":[[[1.66798,50.52727],[1.66793,50.52723],[1.66679,50.52786],[1.66798,50.52727]]]}},{"type":"Feature","properties":{"k":"ORH","s":0.882},"geometry":{"type":"Polygon","coordinates":[[[1.66767,50.52845],[1.66873,50.52789],[1.66798,50.52727],[1.66684,50.5279],[1.66767,50.52845]]]}},{"type":"Feature","properties":{"k":"BTN","s":2.44},"geometry":{"type":"Polygon","coordinates":[[[1.66683,50.52972],[1.66793,50.53048],[1.67015,50.52921],[1.6693,50.52838],[1.66683,50.52972]]]}},{"type":"Feature","properties":{"k":"PPH","s":5.691},"geometry":{"type":"Polygon","coordinates":[[[1.66331,50.52825],[1.6652,50.52994],[1.66847,50.53179],[1.66957,50.53326],[1.67113,50.53318],[1.66901,50.53103],[1.66808,50.5306],[1.66714,50.52987],[1.66579,50.52942],[1.66386,50.52806],[1.66331,50.52825]]]}},{"type":"Feature","properties":{"k":"CZH","s":1.081},"geometry":{"type":"Polygon","coordinates":[[[1.66542,50.53127],[1.66631,50.53054],[1.66523,50.52996],[1.66428,50.53074],[1.66542,50.53127]]]}},{"type":"Feature","properties":{"k":"PTR","s":2.666},"geometry":{"type":"Polygon","coordinates":[[[1.66362,50.52966],[1.66342,50.52975],[1.66428,50.53074],[1.66523,50.52996],[1.6628,50.52796],[1.6618,50.52856],[1.66362,50.52966]]]}},{"type":"Feature","properties":{"k":"CZH","s":0.21},"geometry":{"type":"Polygon","coordinates":[[[1.66321,50.52966],[1.66362,50.52966],[1.66228,50.52879],[1.66321,50.52966]]]}},{"type":"Feature","properties":{"k":"ORP","s":5.419},"geometry":{"type":"Polygon","coordinates":[[[1.66033,50.53019],[1.66449,50.53207],[1.66542,50.53127],[1.66411,50.53065],[1.66354,50.52984],[1.66195,50.52865],[1.66126,50.5291],[1.66113,50.52958],[1.66033,50.53019]]]}},{"type":"Feature","properties":{"k":"CZH","s":2.253},"geometry":{"type":"Polygon","coordinates":[[[1.65934,50.53015],[1.65835,50.53108],[1.65781,50.53269],[1.65823,50.53283],[1.6591,50.53111],[1.66097,50.52975],[1.66126,50.5291],[1.66195,50.52865],[1.6618,50.52856],[1.65934,50.53015]]]}},{"type":"Feature","properties":{"k":"LUZ","s":0.793},"geometry":{"type":"MultiPolygon","coordinates":[[[[1.65768,50.53025],[1.65873,50.53068],[1.65934,50.53015],[1.65791,50.52953],[1.65768,50.53025]]]]}},{"type":"Feature","properties":{"k":"LUZ","s":0.0},"geometry":{"type":"Polygon","coordinates":[]}},{"type":"Feature","properties":{"k":"MLG","s":3.737},"geometry":{"type":"Polygon","coordinates":[[[1.65852,50.53087],[1.65759,50.5305],[1.65708,50.53315],[1.65586,50.53465],[1.65663,50.53652],[1.65852,50.53087]]]}},{"type":"Feature","properties":{"k":"BTN","s":10.588},"geometry":{"type":"Polygon","coordinates":[[[1.66309,50.53357],[1.65874,50.53171],[1.65823,50.53283],[1.65781,50.53269],[1.65663,50.53654],[1.65706,50.53738],[1.66025,50.53378],[1.66212,50.53463],[1.66309,50.53357]]]}},{"type":"Feature","properties":{"k":"BTH","s":7.5},"geometry":{"type":"Polygon","coordinates":[[[1.65935,50.53084],[1.65874,50.53171],[1.66309,50.53357],[1.66449,50.53207],[1.66033,50.53019],[1.65935,50.53084]]]}},{"type":"Feature","properties":{"k":"CZH","s":5.552},"geometry":{"type":"Polygon","coordinates":[[[1.66892,50.53378],[1.66957,50.53326],[1.66847,50.53179],[1.66631,50.53054],[1.66468,50.53188],[1.66892,50.53378]]]}},{"type":"Feature","properties":{"k":"BTN","s":3.401},"geometry":{"type":"Polygon","coordinates":[[[1.66764,50.53441],[1.66788,50.53331],[1.66467,50.53188],[1.66386,50.53273],[1.66764,50.53441]]]}},{"type":"Feature","properties":{"k":"PTR","s":0.598},"geometry":{"type":"Polygon","coordinates":[[[1.66764,50.53441],[1.66799,50.53457],[1.66892,50.53378],[1.66788,50.53331],[1.66764,50.53441]]]}},{"type":"Feature","properties":{"k":"BTH","s":9.655},"geometry":{"type":"Polygon","coordinates":[[[1.66715,50.53691],[1.66756,50.5353],[1.66799,50.53457],[1.66386,50.53273],[1.66212,50.53464],[1.66715,50.53691]]]}},{"type":"Feature","properties":{"k":"PPH","s":3.775},"geometry":{"type":"Polygon","coordinates":[[[1.66763,50.53535],[1.66717,50.5372],[1.66642,50.5385],[1.66777,50.53862],[1.66912,50.5348],[1.66808,50.53457],[1.66763,50.53535]]]}},{"type":"Feature","properties":{"k":"BTN","s":8.503},"geometry":{"type":"Polygon","coordinates":[[[1.66158,50.53842],[1.6629,50.53912],[1.66443,50.53773],[1.66543,50.53614],[1.66319,50.53514],[1.65949,50.53913],[1.66158,50.53842]]]}},{"type":"Feature","properties":{"k":"PPH","s":8.692},"geometry":{"type":"Polygon","coordinates":[[[1.6629,50.53912],[1.66158,50.53842],[1.66011,50.539],[1.66059,50.53965],[1.66096,50.53955],[1.66111,50.53973],[1.66148,50.53966],[1.66163,50.5399],[1.66249,50.53984],[1.66254,50.54014],[1.66207,50.54018],[1.662,50.54036],[1.66106,50.54035],[1.6605,50.54053],[1.66076,50.54084],[1.6611,50.54074],[1.6613,50.54091],[1.66424,50.54016],[1.66389,50.53956],[1.66465,50.53926],[1.66542,50.53819],[1.66616,50.5385],[1.66666,50.53793],[1.66707,50.53687],[1.66543,50.53614],[1.66446,50.53761],[1.6629,50.53912]]]}},{"type":"Feature","properties":{"k":"BTH","s":5.001},"geometry":{"type":"Polygon","coordinates":[[[1.65807,50.53943],[1.65949,50.53913],[1.66319,50.53514],[1.66215,50.53465],[1.658,50.53924],[1.65807,50.53943]]]}},{"type":"Feature","properties":{"k":"PTC","s":8.58},"geometry":{"type":"Polygon","coordinates":[[[1.658,50.53924],[1.66213,50.53463],[1.66025,50.53378],[1.65706,50.53738],[1.658,50.53924]]]}},{"type":"Feature","properties":{"k":"ORH","s":10.499},"geometry":{"type":"Polygon","coordinates":[[[1.65792,50.54031],[1.65785,50.53929],[1.65624,50.53614],[1.65456,50.53617],[1.65395,50.53505],[1.65343,50.53515],[1.65403,50.53655],[1.65366,50.53662],[1.65573,50.54108],[1.65792,50.54031]]]}},{"type":"Feature","properties":{"k":"ORP","s":4.497},"geometry":{"type":"Polygon","coordinates":[[[1.65573,50.54108],[1.65366,50.53662],[1.65338,50.53667],[1.65216,50.53628],[1.65463,50.54103],[1.65524,50.54125],[1.65573,50.54108]]]}},{"type":"Feature","properties":{"k":"MLG","s":6.374},"geometry":{"type":"Polygon","coordinates":[[[1.65153,50.5377],[1.65055,50.53766],[1.65017,50.53891],[1.65463,50.54103],[1.65215,50.53631],[1.65153,50.5377]]]}},{"type":"Feature","properties":{"k":"PPH","s":0.499},"geometry":{"type":"Polygon","coordinates":[[[1.65241,50.53572],[1.65216,50.53628],[1.65336,50.53661],[1.65291,50.53566],[1.65241,50.53572]]]}},{"type":"Feature","properties":{"k":"ORH","s":1.642},"geometry":{"type":"Polygon","coordinates":[[[1.65508,50.53473],[1.65383,50.53478],[1.65456,50.53617],[1.65627,50.53613],[1.656,50.53558],[1.65556,50.53563],[1.65508,50.53473]]]}},{"type":"Feature","properties":{"k":"LUZ","s":9.929},"geometry":{"type":"Polygon","coordinates":[[[1.6574,50.53054],[1.6558,50.53051],[1.65333,50.5319],[1.65386,50.53273],[1.65291,50.53353],[1.65383,50.53469],[1.65568,50.53464],[1.6569,50.53316],[1.6574,50.53054]]]}},{"type":"Feature","properties":{"k":"PPH","s":0.005},"geometry":{"type":"Polygon","coordinates":[[[1.64237,50.55311],[1.64184,50.55344],[1.64239,50.55312],[1.64237,50.55311]]]}},{"type":"Feature","properties":{"k":"PTR","s":9.554},"geometry":{"type":"Polygon","coordinates":[[[1.64008,50.54876],[1.63802,50.54951],[1.6386,50.55138],[1.63905,50.55164],[1.64075,50.55197],[1.64168,50.55231],[1.64245,50.55296],[1.64392,50.55371],[1.64477,50.55319],[1.64271,50.55154],[1.64008,50.54876]]]}},{"type":"Feature","properties":{"k":"MIS","s":4.461},"geometry":{"type":"Polygon","coordinates":[[[1.64002,50.54864],[1.64168,50.55058],[1.64357,50.54969],[1.64149,50.54731],[1.64002,50.54864]]]}},{"type":"Feature","properties":{"k":"PPH","s":0.341},"geometry":{"type":"Polygon","coordinates":[[[1.63797,50.54937],[1.63802,50.54951],[1.64008,50.54876],[1.63992,50.54857],[1.63797,50.54937]]]}},{"type":"Feature","properties":{"k":"PTR","s":0.108},"geometry":{"type":"Polygon","coordinates":[[[1.63996,50.54857],[1.64002,50.54864],[1.64145,50.54726],[1.63996,50.54857]]]}},{"type":"Feature","properties":{"k":"MLC","s":0.953},"geometry":{"type":"Polygon","coordinates":[[[1.64154,50.54739],[1.64357,50.54969],[1.64393,50.54953],[1.64176,50.54707],[1.64145,50.54726],[1.64154,50.54739]]]}},{"type":"Feature","properties":{"k":"MIS","s":13.651},"geometry":{"type":"Polygon","coordinates":[[[1.63781,50.54513],[1.63995,50.54854],[1.64147,50.54719],[1.6431,50.54628],[1.64021,50.54302],[1.63675,50.54393],[1.63781,50.54513]]]}},{"type":"Feature","properties":{"k":"PPH","s":4.574},"geometry":{"type":"Polygon","coordinates":[[[1.64484,50.54518],[1.64493,50.54472],[1.64449,50.54404],[1.64264,50.54494],[1.64068,50.54272],[1.63858,50.54325],[1.63837,50.54312],[1.63657,50.54372],[1.63675,50.54393],[1.64021,50.54302],[1.64311,50.54628],[1.64484,50.54518]]]}},{"type":"Feature","properties":{"k":"MIS","s":8.547},"geometry":{"type":"Polygon","coordinates":[[[1.64693,50.53978],[1.64494,50.54142],[1.64574,50.54182],[1.6472,50.5408],[1.64633,50.5416],[1.64939,50.54304],[1.6516,50.5417],[1.65004,50.54072],[1.64693,50.53978]]]}},{"type":"Feature","properties":{"k":"MIS","s":6.921},"geometry":{"type":"Polygon","coordinates":[[[1.64873,50.54724],[1.64702,50.5446],[1.64639,50.54391],[1.64537,50.54345],[1.64492,50.54332],[1.64397,50.54342],[1.64479,50.5443],[1.64499,50.54489],[1.64713,50.54802],[1.64873,50.54724]]]}},{"type":"Feature","properties":{"k":"PPH","s":6.66},"geometry":{"type":"Polygon","coordinates":[[[1.64402,50.54222],[1.64388,50.54276],[1.64479,50.54331],[1.64638,50.54389],[1.64698,50.5445],[1.64939,50.54304],[1.64633,50.5416],[1.64584,50.54206],[1.64559,50.54194],[1.64574,50.54182],[1.64494,50.54142],[1.64402,50.54222]]]}},{"type":"Feature","properties":{"k":"BTH","s":8.015},"geometry":{"type":"Polygon","coordinates":[[[1.65179,50.54192],[1.64866,50.54382],[1.65136,50.54553],[1.65434,50.5434],[1.65328,50.54294],[1.65179,50.54192]]]}},{"type":"Feature","properties":{"k":"PPH","s":10.406},"geometry":{"type":"Polygon","coordinates":[[[1.65018,50.54656],[1.65073,50.54626],[1.65124,50.54693],[1.65212,50.54744],[1.6532,50.54725],[1.65394,50.54701],[1.65403,50.54685],[1.65353,50.54646],[1.6514,50.54595],[1.64817,50.54381],[1.64699,50.5445],[1.6487,50.54719],[1.65067,50.54913],[1.65102,50.54828],[1.65137,50.54812],[1.65018,50.54656]]]}},{"type":"Feature","properties":{"k":"PPH","s":1.485},"geometry":{"type":"Polygon","coordinates":[[[1.65439,50.54339],[1.65333,50.54427],[1.65474,50.54464],[1.65529,50.54449],[1.65555,50.54412],[1.6566,50.5444],[1.6565,50.54422],[1.65439,50.54339]]]}},{"type":"Feature","properties":{"k":"PPH","s":0.261},"geometry":{"type":"Polygon","coordinates":[[[1.65136,50.54553],[1.65145,50.54559],[1.65333,50.54427],[1.65427,50.54345],[1.65136,50.54553]]]}},{"type":"Feature","properties":{"k":"PPH","s":7.411},"geometry":{"type":"Polygon","coordinates":[[[1.65079,50.53972],[1.65223,50.5407],[1.65246,50.54135],[1.65312,50.54196],[1.65209,50.5413],[1.65225,50.54205],[1.65293,50.54255],[1.65471,50.5434],[1.65499,50.54318],[1.65705,50.54398],[1.65749,50.54374],[1.65566,50.54292],[1.65625,50.54238],[1.65518,50.54127],[1.65123,50.53941],[1.65079,50.53972]]]}},{"type":"Feature","properties":{"k":"PPH","s":3.275},"geometry":{"type":"Polygon","coordinates":[[[1.64891,50.53955],[1.64902,50.54],[1.648,50.53994],[1.65059,50.54084],[1.6522,50.54199],[1.65187,50.54067],[1.65123,50.54004],[1.65001,50.53934],[1.64825,50.53876],[1.64832,50.53923],[1.64891,50.53955]]]}},{"type":"Feature","properties":{"k":"PPH","s":0.344},"geometry":{"type":"Polygon","coordinates":[[[1.65017,50.53891],[1.65005,50.53932],[1.65079,50.53972],[1.65115,50.53938],[1.65017,50.53891]]]}},{"type":"Feature","properties":{"k":"PPH","s":2.702},"geometry":{"type":"Polygon","coordinates":[[[1.65733,50.54057],[1.65524,50.54129],[1.65625,50.54232],[1.65725,50.54221],[1.6575,50.54244],[1.65769,50.54236],[1.65785,50.54247],[1.65812,50.54231],[1.65835,50.5425],[1.65864,50.54235],[1.6578,50.54145],[1.65733,50.54057]]]}},{"type":"Feature","properties":{"k":"PPH","s":1.782},"geometry":{"type":"Polygon","coordinates":[[[1.66073,50.53986],[1.6601,50.53901],[1.65856,50.53933],[1.6586,50.53978],[1.6581,50.53982],[1.6581,50.54048],[1.65947,50.54013],[1.65811,50.54054],[1.66073,50.53986]]]}},{"type":"Feature","properties":{"k":"PPH","s":3.541},"geometry":{"type":"Polygon","coordinates":[[[1.66508,50.53989],[1.66973,50.54259],[1.67016,50.54224],[1.66584,50.53898],[1.66508,50.53989]]]}},{"type":"Feature","properties":{"k":"ORP","s":2.224},"geometry":{"type":"Polygon","coordinates":[[[1.66464,50.54011],[1.66369,50.54045],[1.66585,50.54222],[1.66696,50.54151],[1.66464,50.54011]]]}},{"type":"Feature","properties":{"k":"PPH","s":2.412},"geometry":{"type":"Polygon","coordinates":[[[1.66474,50.54308],[1.66585,50.54222],[1.66369,50.54045],[1.66355,50.5405],[1.6642,50.54117],[1.66301,50.54201],[1.66474,50.54308]]]}},{"type":"Feature","properties":{"k":"PPH","s":3.656},"geometry":{"type":"Polygon","coordinates":[[[1.66326,50.54405],[1.66474,50.54308],[1.66226,50.54155],[1.66177,50.542],[1.66059,50.54137],[1.66028,50.54174],[1.66074,50.54194],[1.66068,50.54218],[1.66124,50.54247],[1.66138,50.54238],[1.66159,50.54252],[1.66144,50.5426],[1.66326,50.54405]]]}},{"type":"Feature","properties":{"k":"PPH","s":0.13},"geometry":{"type":"Polygon","coordinates":[[[1.66307,50.5442],[1.66325,50.54432],[1.66387,50.54396],[1.6637,50.54378],[1.66307,50.5442]]]}},{"type":"Feature","properties":{"k":"BTH","s":12.95},"geometry":{"type":"Polygon","coordinates":[[[1.66696,50.54151],[1.6637,50.54378],[1.66465,50.54474],[1.66404,50.545],[1.66573,50.54639],[1.66973,50.54259],[1.66521,50.53994],[1.66464,50.54011],[1.66696,50.54151]]]}},{"type":"Feature","properties":{"k":"PPH","s":6.698},"geometry":{"type":"Polygon","coordinates":[[[1.66072,50.54736],[1.66167,50.54655],[1.65884,50.5451],[1.65883,50.54495],[1.65682,50.54435],[1.65664,50.54649],[1.65694,50.54698],[1.65741,50.54738],[1.65928,50.54673],[1.66072,50.54736]]]}},{"type":"Feature","properties":{"k":"PPH","s":1.857},"geometry":{"type":"Polygon","coordinates":[[[1.66049,50.54404],[1.66001,50.54433],[1.66061,50.54478],[1.6603,50.54512],[1.66253,50.54616],[1.66311,50.54582],[1.66049,50.54404]]]}},{"type":"Feature","properties":{"k":"MIS","s":0.566},"geometry":{"type":"Polygon","coordinates":[[[1.65598,50.54815],[1.65745,50.55062],[1.65755,50.55112],[1.65782,50.55108],[1.65618,50.54807],[1.65598,50.54815]]]}},{"type":"Feature","properties":{"k":"BTH","s":13.503},"geometry":{"type":"Polygon","coordinates":[[[1.65847,50.55363],[1.66045,50.55088],[1.66151,50.54976],[1.65932,50.54691],[1.65618,50.54807],[1.65773,50.55073],[1.65847,50.55363]]]}},{"type":"Feature","properties":{"k":"ORH","s":5.547},"geometry":{"type":"Polygon","coordinates":[[[1.66176,50.54646],[1.6607,50.54737],[1.65967,50.54684],[1.65933,50.5469],[1.66154,50.54976],[1.66297,50.5499],[1.66318,50.54878],[1.66278,50.54769],[1.66176,50.54646]]]}},{"type":"Feature","properties":{"k":"PPH","s":2.091},"geometry":{"type":"Polygon","coordinates":[[[1.66379,50.54972],[1.66455,50.54988],[1.66438,50.54806],[1.66252,50.54617],[1.66187,50.54584],[1.66113,50.54604],[1.66211,50.54667],[1.66248,50.54712],[1.66309,50.54698],[1.66383,50.54809],[1.66379,50.54972]]]}},{"type":"Feature","properties":{"k":"PPH","s":8.379},"geometry":{"type":"Polygon","coordinates":[[[1.66312,50.54582],[1.66257,50.54614],[1.6644,50.54809],[1.66457,50.54987],[1.66514,50.55],[1.66586,50.54853],[1.66731,50.54764],[1.66411,50.5452],[1.66357,50.5455],[1.66328,50.54512],[1.66088,50.54388],[1.66099,50.54398],[1.66071,50.54415],[1.6605,50.54404],[1.66312,50.54582]]]}},{"type":"Feature","properties":{"k":"BTH","s":0.048},"geometry":{"type":"MultiPolygon","coordinates":[[[[1.66577,50.551],[1.66597,50.55105],[1.66496,50.55045],[1.66577,50.551]]]]}},{"type":"Feature","properties":{"k":"MIS","s":1.802},"geometry":{"type":"Polygon","coordinates":[[[1.66306,50.54965],[1.66306,50.55058],[1.66341,50.55085],[1.66577,50.551],[1.6649,50.55048],[1.66513,50.55001],[1.66306,50.54965]]]}},{"type":"Feature","properties":{"k":"PTR","s":0.623},"geometry":{"type":"Polygon","coordinates":[[[1.6639,50.54899],[1.66384,50.54831],[1.66349,50.5484],[1.66355,50.54878],[1.66325,50.54881],[1.66306,50.54965],[1.66379,50.54972],[1.6639,50.54899]]]}},{"type":"Feature","properties":{"k":"PTR","s":0.225},"geometry":{"type":"Polygon","coordinates":[[[1.66386,50.55115],[1.66564,50.55106],[1.66341,50.55085],[1.66386,50.55115]]]}},{"type":"Feature","properties":{"k":"PPH","s":2.563},"geometry":{"type":"Polygon","coordinates":[[[1.65857,50.55352],[1.65933,50.55362],[1.66088,50.55135],[1.6622,50.55046],[1.66221,50.54983],[1.66155,50.54977],[1.65857,50.55352]]]}},{"type":"Feature","properties":{"k":"BTH","s":0.434},"geometry":{"type":"Polygon","coordinates":[[[1.65793,50.55228],[1.6583,50.5537],[1.65847,50.55363],[1.65782,50.55108],[1.65755,50.55112],[1.65793,50.55228]]]}},{"type":"Feature","properties":{"k":"LIF","s":2.499},"geometry":{"type":"Polygon","coordinates":[[[1.65754,50.55112],[1.65633,50.55132],[1.65727,50.55397],[1.65828,50.5537],[1.65754,50.55112]]]}},{"type":"Feature","properties":{"k":"PPH","s":8.996},"geometry":{"type":"Polygon","coordinates":[[[1.65399,50.55665],[1.6563,50.55597],[1.65558,50.55443],[1.65458,50.55469],[1.65433,50.55434],[1.65375,50.5517],[1.65306,50.55209],[1.65268,50.55205],[1.65099,50.55399],[1.65107,50.55438],[1.65313,50.55514],[1.65399,50.55665]]]}},{"type":"Feature","properties":{"k":"MIS","s":6.566},"geometry":{"type":"Polygon","coordinates":[[[1.65256,50.5519],[1.65279,50.55117],[1.65052,50.54957],[1.64892,50.5506],[1.65114,50.55198],[1.64947,50.55322],[1.65095,50.55434],[1.65092,50.55388],[1.65256,50.5519]]]}},{"type":"Feature","properties":{"k":"FVP","s":7.549},"geometry":{"type":"Polygon","coordinates":[[[1.65173,50.54844],[1.65146,50.54864],[1.6532,50.55002],[1.65458,50.55468],[1.65647,50.55418],[1.65315,50.54806],[1.65173,50.54844]]]}},{"type":"Feature","properties":{"k":"MIS","s":10.02},"geometry":{"type":"Polygon","coordinates":[[[1.65615,50.5508],[1.65744,50.55061],[1.65542,50.54726],[1.65315,50.54806],[1.65647,50.55418],[1.65727,50.55397],[1.65615,50.5508]]]}},{"type":"Feature","properties":{"k":"PPH","s":1.194},"geometry":{"type":"Polygon","coordinates":[[[1.65276,50.55058],[1.65248,50.54994],[1.65141,50.54885],[1.65147,50.54847],[1.65192,50.54833],[1.65127,50.54819],[1.65096,50.54846],[1.65069,50.54923],[1.65276,50.55058]]]}},{"type":"Feature","properties":{"k":"PTR","s":0.838},"geometry":{"type":"Polygon","coordinates":[[[1.65072,50.54925],[1.65053,50.54955],[1.65279,50.55114],[1.65276,50.55058],[1.65072,50.54925]]]}},{"type":"Feature","properties":{"k":"MIS","s":3.697},"geometry":{"type":"Polygon","coordinates":[[[1.6505,50.54955],[1.65067,50.54915],[1.64877,50.54728],[1.64713,50.54803],[1.64962,50.55012],[1.6505,50.54955]]]}},{"type":"Feature","properties":{"k":"PTR","s":4.394},"geometry":{"type":"Polygon","coordinates":[[[1.6447,50.54541],[1.64382,50.54595],[1.64571,50.54869],[1.64713,50.54802],[1.64499,50.54489],[1.6447,50.54541]]]}},{"type":"Feature","properties":{"k":"MIS","s":5.353},"geometry":{"type":"Polygon","coordinates":[[[1.64571,50.54869],[1.64382,50.54595],[1.64176,50.54707],[1.64393,50.54953],[1.64571,50.54869]]]}},{"type":"Feature","properties":{"k":"CZH","s":14.852},"geometry":{"type":"Polygon","coordinates":[[[1.64208,50.55046],[1.6432,50.55137],[1.64271,50.55154],[1.64477,50.55319],[1.64962,50.55012],[1.64713,50.54803],[1.64174,50.55056],[1.64208,50.55046]],[[1.6481,50.54972],[1.64643,50.55024],[1.64615,50.54995],[1.64789,50.54938],[1.6481,50.54972]]]}},{"type":"Feature","properties":{"k":"BTH","s":8.318},"geometry":{"type":"Polygon","coordinates":[[[1.64938,50.55236],[1.64956,50.5525],[1.65004,50.55215],[1.65104,50.55188],[1.64892,50.5506],[1.64469,50.55325],[1.64665,50.55485],[1.64938,50.55236]]]}},{"type":"Feature","properties":{"k":"PPH","s":2.477},"geometry":{"type":"Polygon","coordinates":[[[1.6498,50.55277],[1.64938,50.55236],[1.64756,50.55402],[1.64808,50.55466],[1.64916,50.55533],[1.64999,50.55493],[1.64883,50.55396],[1.6498,50.55277]]]}},{"type":"Feature","properties":{"k":"CZH","s":0.103},"geometry":{"type":"MultiPolygon","coordinates":[[[[1.64305,50.55668],[1.64282,50.55616],[1.64328,50.55724],[1.64305,50.55668]]],[[[1.64206,50.55479],[1.64242,50.55458],[1.64206,50.55425],[1.6424,50.55458],[1.64203,50.55477],[1.64332,50.55592],[1.64285,50.55615],[1.64345,50.55593],[1.64206,50.55479]]]]}},{"type":"Feature","properties":{"k":"BTN","s":2.0},"geometry":{"type":"Polygon","coordinates":[[[1.64397,50.5537],[1.64572,50.55553],[1.64665,50.55485],[1.64469,50.55325],[1.64397,50.5537]]]}},{"type":"Feature","properties":{"k":"BTH","s":0.351},"geometry":{"type":"Polygon","coordinates":[[[1.64597,50.55563],[1.64765,50.55413],[1.64756,50.55402],[1.646,50.55545],[1.64572,50.55553],[1.64618,50.5562],[1.64641,50.55616],[1.64597,50.55563]]]}},{"type":"Feature","properties":{"k":"PTR","s":1.501},"geometry":{"type":"Polygon","coordinates":[[[1.64637,50.55683],[1.6478,50.55624],[1.64833,50.55574],[1.64916,50.55533],[1.64849,50.55491],[1.64622,50.55634],[1.64637,50.55683]]]}},{"type":"Feature","properties":{"k":"ORH","s":1.664},"geometry":{"type":"Polygon","coordinates":[[[1.64597,50.55563],[1.64641,50.55616],[1.64618,50.5562],[1.64622,50.55634],[1.64849,50.55491],[1.64765,50.55413],[1.64597,50.55563]]]}},{"type":"Feature","properties":{"k":"BTN","s":3.125},"geometry":{"type":"Polygon","coordinates":[[[1.64771,50.55771],[1.64786,50.55688],[1.64808,50.55616],[1.64883,50.55549],[1.6478,50.55624],[1.6464,50.55682],[1.64642,50.55922],[1.64797,50.55918],[1.64771,50.55771]]]}},{"type":"Feature","properties":{"k":"PPH","s":16.238},"geometry":{"type":"Polygon","coordinates":[[[1.6496,50.56159],[1.64911,50.56169],[1.6492,50.56195],[1.64993,50.56237],[1.65087,50.55953],[1.65078,50.55842],[1.65117,50.55691],[1.64977,50.55677],[1.64893,50.55924],[1.64642,50.55922],[1.6464,50.55682],[1.64611,50.55598],[1.64397,50.5537],[1.6438,50.55403],[1.64483,50.55943],[1.64719,50.55939],[1.64767,50.56172],[1.6477,50.56173],[1.64803,50.56134],[1.64864,50.56118],[1.6486,50.56147],[1.64938,50.56122],[1.6496,50.56159]]]}},{"type":"Feature","properties":{"k":"ORP","s":14.626},"geometry":{"type":"Polygon","coordinates":[[[1.64147,50.55368],[1.64242,50.55458],[1.64206,50.55479],[1.64345,50.55593],[1.64282,50.55616],[1.64337,50.55745],[1.64028,50.55844],[1.64181,50.55952],[1.64049,50.56174],[1.64088,50.56208],[1.64498,50.56018],[1.64372,50.55393],[1.64239,50.55313],[1.64147,50.55368]]]}},{"type":"Feature","properties":{"k":"PPH","s":1.241},"geometry":{"type":"Polygon","coordinates":[[[1.64482,50.56277],[1.64414,50.56057],[1.6429,50.56115],[1.64434,50.56236],[1.64482,50.56277]]]}},{"type":"Feature","properties":{"k":"PPH","s":1.702},"geometry":{"type":"Polygon","coordinates":[[[1.64482,50.56277],[1.6456,50.56343],[1.64565,50.56279],[1.64527,50.56201],[1.64498,50.56018],[1.64415,50.56058],[1.64482,50.56277]]]}},{"type":"Feature","properties":{"k":"MIS","s":5.432},"geometry":{"type":"Polygon","coordinates":[[[1.64666,50.5594],[1.64483,50.55943],[1.64527,50.56201],[1.64564,50.56281],[1.6481,50.56278],[1.64771,50.56176],[1.64708,50.56179],[1.64666,50.5594]]]}},{"type":"Feature","properties":{"k":"BTN","s":1.002},"geometry":{"type":"Polygon","coordinates":[[[1.64765,50.56162],[1.64719,50.55939],[1.64666,50.5594],[1.64706,50.56165],[1.64765,50.56162]]]}},{"type":"Feature","properties":{"k":"ORH","s":2.002},"geometry":{"type":"Polygon","coordinates":[[[1.65329,50.55959],[1.65259,50.55893],[1.65218,50.55987],[1.652,50.55992],[1.652,50.561],[1.65411,50.56101],[1.65378,50.56085],[1.65329,50.55959]]]}},{"type":"Feature","properties":{"k":"BTN","s":7.302},"geometry":{"type":"Polygon","coordinates":[[[1.65133,50.55677],[1.651,50.55785],[1.65127,50.55824],[1.65189,50.55837],[1.65259,50.55893],[1.65325,50.55853],[1.65488,50.55807],[1.65311,50.55516],[1.65111,50.55441],[1.65188,50.55566],[1.65133,50.55677]]]}},{"type":"Feature","properties":{"k":"BTH","s":5.77},"geometry":{"type":"Polygon","coordinates":[[[1.64996,50.55493],[1.64857,50.55563],[1.64808,50.55616],[1.64771,50.55771],[1.64797,50.55922],[1.64821,50.55928],[1.64893,50.55924],[1.64977,50.55677],[1.65061,50.55686],[1.65051,50.55577],[1.64996,50.55493]]]}},{"type":"Feature","properties":{"k":"MIS","s":3.321},"geometry":{"type":"Polygon","coordinates":[[[1.65051,50.55575],[1.65061,50.55686],[1.65117,50.55691],[1.65179,50.55596],[1.65174,50.55554],[1.65095,50.55434],[1.64947,50.55321],[1.64883,50.55396],[1.64996,50.55493],[1.65051,50.55575]]]}},{"type":"Feature","properties":{"k":"PTR","s":1.422},"geometry":{"type":"Polygon","coordinates":[[[1.65554,50.55621],[1.65559,50.55635],[1.65667,50.55603],[1.65603,50.55471],[1.65921,50.55381],[1.65933,50.55362],[1.65857,50.55352],[1.65846,50.55368],[1.6556,50.55443],[1.65633,50.55598],[1.65554,50.55621]]]}},{"type":"Feature","properties":{"k":"BTH","s":9.176},"geometry":{"type":"Polygon","coordinates":[[[1.65848,50.56033],[1.66046,50.56241],[1.66109,50.56194],[1.65771,50.55683],[1.65884,50.55654],[1.65867,50.55484],[1.65921,50.55381],[1.65603,50.55471],[1.65848,50.56033]]]}},{"type":"Feature","properties":{"k":"ORH","s":4.41},"geometry":{"type":"MultiPolygon","coordinates":[[[[1.65862,50.55535],[1.65884,50.55654],[1.65928,50.55642],[1.65965,50.55444],[1.66158,50.55164],[1.66302,50.55059],[1.66297,50.5499],[1.66224,50.54983],[1.66222,50.55034],[1.66221,50.54983],[1.6622,50.55046],[1.66088,50.55135],[1.66001,50.55248],[1.65894,50.5542],[1.65862,50.55535]]],[[[1.65943,50.55946],[1.65954,50.5596],[1.6593,50.55923],[1.65943,50.55946]]]]}},{"type":"Feature","properties":{"k":"PPH","s":8.002},"geometry":{"type":"Polygon","coordinates":[[[1.65548,50.5602],[1.65598,50.56086],[1.65826,50.56331],[1.65956,50.56313],[1.65723,50.56058],[1.65554,50.55621],[1.65401,50.55666],[1.65478,50.55785],[1.65548,50.5602]]]}},{"type":"Feature","properties":{"k":"LUZ","s":7.423},"geometry":{"type":"Polygon","coordinates":[[[1.65559,50.55635],[1.65723,50.56058],[1.65959,50.56313],[1.66042,50.56231],[1.65848,50.56033],[1.65681,50.55622],[1.65667,50.55603],[1.65559,50.55635]]]}},{"type":"Feature","properties":{"k":"BTH","s":7.777},"geometry":{"type":"Polygon","coordinates":[[[1.65259,50.55893],[1.65329,50.55959],[1.65368,50.56074],[1.65519,50.56159],[1.65756,50.56413],[1.65824,50.56332],[1.65546,50.56021],[1.65488,50.55807],[1.65325,50.55853],[1.65259,50.55893]]]}},{"type":"Feature","properties":{"k":"ORP","s":0.005},"geometry":{"type":"Polygon","coordinates":[[[1.65754,50.5672],[1.65815,50.56635],[1.65774,50.56689],[1.65754,50.5672]]]}},{"type":"Feature","properties":{"k":"JAC","s":2.344},"geometry":{"type":"Polygon","coordinates":[[[1.65772,50.5668],[1.65823,50.56613],[1.6567,50.56723],[1.6547,50.56836],[1.65607,50.56934],[1.65772,50.5668]]]}},{"type":"Feature","properties":{"k":"ORH","s":11.996},"geometry":{"type":"Polygon","coordinates":[[[1.65743,50.56574],[1.65859,50.56487],[1.65722,50.56387],[1.65512,50.56153],[1.65406,50.56371],[1.6515,50.56356],[1.65104,50.56446],[1.65354,50.56466],[1.65271,50.56597],[1.65743,50.56574]]]}},{"type":"Feature","properties":{"k":"MIS","s":5.75},"geometry":{"type":"Polygon","coordinates":[[[1.65406,50.56371],[1.65505,50.56148],[1.65411,50.56101],[1.652,50.561],[1.652,50.56208],[1.6515,50.56356],[1.65406,50.56371]]]}},{"type":"Feature","properties":{"k":"PPH","s":8.582},"geometry":{"type":"Polygon","coordinates":[[[1.652,50.55992],[1.65163,50.55979],[1.6514,50.55933],[1.65098,50.5594],[1.65002,50.56237],[1.64888,50.56352],[1.64875,50.56616],[1.64965,50.56612],[1.65111,50.56352],[1.6515,50.56356],[1.652,50.56208],[1.652,50.55992]]]}},{"type":"Feature","properties":{"k":"PTR","s":0.315},"geometry":{"type":"Polygon","coordinates":[[[1.6515,50.56356],[1.65111,50.56352],[1.65059,50.56443],[1.65104,50.56446],[1.6515,50.56356]]]}},{"type":"Feature","properties":{"k":"BTH","s":3.575},"geometry":{"type":"Polygon","coordinates":[[[1.65271,50.56597],[1.65354,50.56466],[1.65059,50.56443],[1.64965,50.56612],[1.65271,50.56597]]]}},{"type":"Feature","properties":{"k":"PPH","s":2.158},"geometry":{"type":"Polygon","coordinates":[[[1.6481,50.56278],[1.64564,50.56281],[1.64562,50.56341],[1.64846,50.56366],[1.64989,50.56246],[1.64885,50.56225],[1.64918,50.56276],[1.6483,50.56312],[1.6481,50.56278]]]}},{"type":"Feature","properties":{"k":"ORH","s":16.582},"geometry":{"type":"Polygon","coordinates":[[[1.64349,50.56431],[1.64505,50.56715],[1.64867,50.56621],[1.64873,50.56373],[1.6455,50.56347],[1.6429,50.56115],[1.64088,50.56208],[1.64349,50.56431]]]}},{"type":"Feature","properties":{"k":"ORP","s":0.027},"geometry":{"type":"Polygon","coordinates":[[[1.64373,50.56475],[1.64413,50.56548],[1.64422,50.56546],[1.64373,50.56475]]]}},{"type":"Feature","properties":{"k":"BTH","s":0.017},"geometry":{"type":"Polygon","coordinates":[[[1.64456,50.56626],[1.64486,50.56679],[1.64465,50.56629],[1.64456,50.56626]]]}},{"type":"Feature","properties":{"k":"BOR","s":0.002},"geometry":{"type":"Polygon","coordinates":[[[1.64463,50.56624],[1.64461,50.56621],[1.64455,50.56624],[1.64463,50.56624]]]}},{"type":"Feature","properties":{"k":"CZH","s":0.054},"geometry":{"type":"Polygon","coordinates":[[[1.64422,50.56548],[1.64414,50.5655],[1.64455,50.56624],[1.64422,50.56548]]]}},{"type":"Feature","properties":{"k":"ORH","s":9.98},"geometry":{"type":"Polygon","coordinates":[[[1.64981,50.57035],[1.6501,50.56984],[1.65008,50.5695],[1.6488,50.56966],[1.64943,50.5695],[1.64918,50.5692],[1.64978,50.56903],[1.64874,50.56755],[1.64867,50.56621],[1.64505,50.56715],[1.6456,50.56815],[1.6473,50.57003],[1.64808,50.5709],[1.64821,50.57098],[1.64981,50.57035]]]}},{"type":"Feature","properties":{"k":"ORH","s":0.008},"geometry":{"type":"Polygon","coordinates":[[[1.64036,50.55839],[1.64098,50.55818],[1.64022,50.55842],[1.64036,50.55839]]]}},{"type":"Feature","properties":{"k":"BTH","s":0.006},"geometry":{"type":"Polygon","coordinates":[[[1.6403,50.55847],[1.64098,50.55894],[1.64031,50.55846],[1.6403,50.55847]]]}},{"type":"Feature","properties":{"k":"JAC","s":2.764},"geometry":{"type":"Polygon","coordinates":[[[1.64958,50.57142],[1.64945,50.57167],[1.65017,50.572],[1.6517,50.57052],[1.65338,50.56959],[1.65471,50.56935],[1.65607,50.56934],[1.6547,50.56836],[1.64958,50.57142]]]}},{"type":"Feature","properties":{"k":"ORH","s":1.095},"geometry":{"type":"Polygon","coordinates":[[[1.6494,50.57183],[1.64802,50.57272],[1.64876,50.5732],[1.65017,50.57201],[1.64932,50.57163],[1.6494,50.57183]]]}},{"type":"Feature","properties":{"k":"BTH","s":7.796},"geometry":{"type":"Polygon","coordinates":[[[1.66583,50.54646],[1.668,50.54799],[1.67082,50.54562],[1.66821,50.54407],[1.66587,50.54626],[1.66583,50.54646]]]}},{"type":"Feature","properties":{"k":"ORP","s":0.0},"geometry":{"type":"Polygon","coordinates":[]}},{"type":"Feature","properties":{"k":"PTC","s":0.023},"geometry":{"type":"Polygon","coordinates":[[[1.6706,50.54187],[1.67189,50.5408],[1.67186,50.54078],[1.6706,50.54187]]]}},{"type":"Feature","properties":{"k":"BTN","s":10.415},"geometry":{"type":"Polygon","coordinates":[[[1.67186,50.54078],[1.67132,50.5384],[1.6682,50.53868],[1.66652,50.53857],[1.66606,50.53871],[1.66584,50.53898],[1.67016,50.54224],[1.67186,50.54078]]]}},{"type":"Feature","properties":{"k":"ORH","s":0.158},"geometry":{"type":"Polygon","coordinates":[[[1.67145,50.53839],[1.67132,50.5384],[1.67186,50.54078],[1.67145,50.53839]]]}},{"type":"Feature","properties":{"k":"BTN","s":2.903},"geometry":{"type":"Polygon","coordinates":[[[1.67663,50.53815],[1.67768,50.53815],[1.67855,50.53518],[1.67759,50.53492],[1.67641,50.53799],[1.67663,50.53815]]]}},{"type":"Feature","properties":{"k":"ORH","s":5.368},"geometry":{"type":"Polygon","coordinates":[[[1.67638,50.53807],[1.67759,50.53492],[1.67578,50.53443],[1.67439,50.53812],[1.67638,50.53807]]]}},{"type":"Feature","properties":{"k":"ORH","s":0.0},"geometry":{"type":"Polygon","coordinates":[[[1.67757,50.53855],[1.67757,50.53854],[1.67738,50.53854],[1.67757,50.53855]]]}},{"type":"Feature","properties":{"k":"ORP","s":0.058},"geometry":{"type":"Polygon","coordinates":[[[1.67424,50.53814],[1.67441,50.53806],[1.67316,50.53805],[1.67424,50.53814]]]}},{"type":"Feature","properties":{"k":"MIS","s":1.597},"geometry":{"type":"Polygon","coordinates":[[[1.6707,50.53818],[1.67081,50.53837],[1.671,50.53835],[1.67198,50.53571],[1.67128,50.53549],[1.67032,50.53818],[1.6707,50.53818]]]}},{"type":"Feature","properties":{"k":"LUZ","s":2.878},"geometry":{"type":"Polygon","coordinates":[[[1.66994,50.53844],[1.66997,50.53819],[1.67032,50.53818],[1.67128,50.53549],[1.67024,50.53516],[1.669,50.53853],[1.66994,50.53844]]]}},{"type":"Feature","properties":{"k":"TRE","s":1.502},"geometry":{"type":"Polygon","coordinates":[[[1.66937,50.53603],[1.66845,50.53858],[1.669,50.53853],[1.67024,50.53516],[1.66982,50.53503],[1.66937,50.53603]]]}},{"type":"Feature","properties":{"k":"ORH","s":1.988},"geometry":{"type":"Polygon","coordinates":[[[1.66844,50.53859],[1.66976,50.53501],[1.66913,50.53481],[1.66782,50.53863],[1.66844,50.53859]]]}},{"type":"Feature","properties":{"k":"PTR","s":3.73},"geometry":{"type":"Polygon","coordinates":[[[1.67308,50.53826],[1.67384,50.53625],[1.67198,50.53571],[1.671,50.53835],[1.67308,50.53826]]]}},{"type":"Feature","properties":{"k":"BTP","s":5.447},"geometry":{"type":"Polygon","coordinates":[[[1.67578,50.53443],[1.6737,50.53386],[1.67292,50.53596],[1.67384,50.53625],[1.67316,50.53805],[1.67441,50.53806],[1.67578,50.53443]]]}},{"type":"Feature","properties":{"k":"ORH","s":2.838},"geometry":{"type":"Polygon","coordinates":[[[1.6737,50.53386],[1.67114,50.53317],[1.66957,50.53325],[1.66943,50.53337],[1.67284,50.53451],[1.67226,50.53574],[1.67292,50.53594],[1.6737,50.53386]]]}},{"type":"Feature","properties":{"k":"BTN","s":4.47},"geometry":{"type":"Polygon","coordinates":[[[1.66943,50.53337],[1.66817,50.53451],[1.67226,50.53574],[1.67284,50.53451],[1.66943,50.53337]]]}},{"type":"Feature","properties":{"k":"BTH","s":14.975},"geometry":{"type":"Polygon","coordinates":[[[1.66904,50.53101],[1.67116,50.53317],[1.67171,50.53333],[1.67544,50.53433],[1.67578,50.53104],[1.67204,50.53083],[1.67015,50.52921],[1.66793,50.53048],[1.66904,50.53101]]]}},{"type":"Feature","properties":{"k":"BTH","s":0.001},"geometry":{"type":"Polygon","coordinates":[[[1.67255,50.53084],[1.67225,50.53081],[1.67229,50.53082],[1.67255,50.53084]]]}}]}