{"type":"FeatureCollection","features":[{"type":"Feature","properties":{"k":"TTH","s":6.977},"geometry":{"type":"Polygon","coordinates":[[[3.05154,50.43226],[3.05009,50.43278],[3.05052,50.43333],[3.0563,50.42956],[3.05536,50.42869],[3.05391,50.42923],[3.05392,50.42934],[3.05244,50.42973],[3.05247,50.43004],[3.05208,50.43013],[3.05244,50.43007],[3.05267,50.43073],[3.05217,50.43073],[3.05203,50.43014],[3.05155,50.43025],[3.05162,50.43081],[3.05129,50.43091],[3.05154,50.43226]]]}},{"type":"Feature","properties":{"k":"BTA","s":0.006},"geometry":{"type":"Polygon","coordinates":[[[3.0484,50.42708],[3.04816,50.42726],[3.04853,50.42703],[3.0484,50.42708]]]}},{"type":"Feature","properties":{"k":"BTA","s":0.0},"geometry":{"type":"Polygon","coordinates":[]}},{"type":"Feature","properties":{"k":"MIS","s":0.015},"geometry":{"type":"Polygon","coordinates":[[[3.07753,50.44165],[3.07805,50.4415],[3.07703,50.44176],[3.07753,50.44165]]]}},{"type":"Feature","properties":{"k":"MIS","s":8.72},"geometry":{"type":"Polygon","coordinates":[[[3.07749,50.44544],[3.07949,50.4447],[3.07848,50.44359],[3.07997,50.4431],[3.07987,50.44267],[3.07898,50.44137],[3.07698,50.44189],[3.07576,50.44244],[3.07538,50.44299],[3.07749,50.44544]]]}},{"type":"Feature","properties":{"k":"PTC","s":1.51},"geometry":{"type":"Polygon","coordinates":[[[3.07849,50.44359],[3.07949,50.4447],[3.08081,50.44422],[3.07982,50.44315],[3.07849,50.44359]]]}},{"type":"Feature","properties":{"k":"BTA","s":0.02},"geometry":{"type":"Polygon","coordinates":[[[3.04249,50.44564],[3.04233,50.44534],[3.04227,50.44539],[3.04249,50.44564]]]}},{"type":"Feature","properties":{"k":"BTA","s":0.152},"geometry":{"type":"Polygon","coordinates":[[[3.04316,50.44247],[3.04258,50.44336],[3.0432,50.44251],[3.04422,50.44268],[3.04369,50.4438],[3.0443,50.44265],[3.04316,50.44247]]]}},{"type":"Feature","properties":{"k":"MSW","s":0.916},"geometry":{"type":"Polygon","coordinates":[[[3.0432,50.44251],[3.04265,50.44338],[3.04364,50.44378],[3.04422,50.44268],[3.0432,50.44251]]]}},{"type":"Feature","properties":{"k":"BTA","s":0.008},"geometry":{"type":"Polygon","coordinates":[[[3.04286,50.44301],[3.04292,50.4429],[3.04244,50.44346],[3.04286,50.44301]]]}},{"type":"Feature","properties":{"k":"PPH","s":2.658},"geometry":{"type":"Polygon","coordinates":[[[3.04775,50.44479],[3.04553,50.44405],[3.04448,50.44536],[3.04662,50.44593],[3.04775,50.44479]]]}},{"type":"Feature","properties":{"k":"TTH","s":4.352},"geometry":{"type":"Polygon","coordinates":[[[3.04716,50.4435],[3.04443,50.44273],[3.04405,50.4435],[3.04793,50.4447],[3.04823,50.4447],[3.05057,50.44379],[3.05011,50.44361],[3.04716,50.4435]]]}},{"type":"Feature","properties":{"k":"PPH","s":0.635},"geometry":{"type":"Polygon","coordinates":[[[3.04735,50.44344],[3.04442,50.44268],[3.04394,50.44351],[3.04607,50.44424],[3.04765,50.44468],[3.04405,50.4435],[3.04443,50.44273],[3.04716,50.4435],[3.04986,50.44357],[3.05062,50.44377],[3.05014,50.44355],[3.04735,50.44344]]]}},{"type":"Feature","properties":{"k":"PPH","s":0.117},"geometry":{"type":"Polygon","coordinates":[[[3.0491,50.44626],[3.04981,50.44561],[3.04808,50.44488],[3.04971,50.44561],[3.0491,50.44626]]]}},{"type":"Feature","properties":{"k":"MIS","s":6.594},"geometry":{"type":"Polygon","coordinates":[[[3.04994,50.44341],[3.05056,50.44167],[3.05,50.44166],[3.05048,50.44087],[3.0493,50.44083],[3.04979,50.43997],[3.04866,50.43999],[3.04671,50.44317],[3.04721,50.44331],[3.04994,50.44341]]]}},{"type":"Feature","properties":{"k":"PPH","s":0.843},"geometry":{"type":"Polygon","coordinates":[[[3.04356,50.44158],[3.044,50.44136],[3.04533,50.43955],[3.04391,50.44131],[3.04336,50.44159],[3.04312,50.44243],[3.04755,50.44344],[3.05018,50.44353],[3.05026,50.44333],[3.05003,50.44313],[3.04994,50.44341],[3.04731,50.44333],[3.04328,50.44236],[3.04356,50.44158]]]}},{"type":"Feature","properties":{"k":"AVH","s":8.741},"geometry":{"type":"Polygon","coordinates":[[[3.04721,50.4401],[3.04629,50.43972],[3.04533,50.43955],[3.044,50.44136],[3.04356,50.44158],[3.04328,50.44236],[3.04671,50.44317],[3.04865,50.43999],[3.04721,50.4401]],[[3.0436,50.44162],[3.04394,50.44154],[3.04358,50.44198],[3.0436,50.44162]]]}},{"type":"Feature","properties":{"k":"AVH","s":1.319},"geometry":{"type":"Polygon","coordinates":[[[3.04666,50.43852],[3.04732,50.43847],[3.04697,50.43722],[3.0454,50.43941],[3.04611,50.43956],[3.04666,50.43852]]]}},{"type":"Feature","properties":{"k":"PPH","s":0.209},"geometry":{"type":"Polygon","coordinates":[[[3.04571,50.43868],[3.04526,50.43939],[3.0454,50.43941],[3.04689,50.43717],[3.04571,50.43868]]]}},{"type":"Feature","properties":{"k":"MIS","s":2.068},"geometry":{"type":"Polygon","coordinates":[[[3.04762,50.43908],[3.04916,50.43917],[3.0491,50.43829],[3.0484,50.43757],[3.04829,50.43695],[3.04747,50.43716],[3.04762,50.43908]]]}},{"type":"Feature","properties":{"k":"SOG","s":0.766},"geometry":{"type":"Polygon","coordinates":[[[3.0491,50.43829],[3.04916,50.43917],[3.04762,50.43913],[3.0492,50.43922],[3.04926,50.43902],[3.05012,50.43885],[3.04955,50.43815],[3.0491,50.43824],[3.04845,50.43754],[3.04888,50.43737],[3.0486,50.4369],[3.04829,50.43695],[3.0484,50.43757],[3.0491,50.43829]]]}},{"type":"Feature","properties":{"k":"MLG","s":0.78},"geometry":{"type":"Polygon","coordinates":[[[3.0508,50.43809],[3.05101,50.43849],[3.05312,50.43812],[3.05291,50.43767],[3.0508,50.43809]]]}},{"type":"Feature","properties":{"k":"PTR","s":0.225},"geometry":{"type":"Polygon","coordinates":[[[3.05753,50.43069],[3.05737,50.43039],[3.05658,50.43062],[3.05669,50.43093],[3.05753,50.43069]]]}},{"type":"Feature","properties":{"k":"FLA","s":1.185},"geometry":{"type":"Polygon","coordinates":[[[3.05093,50.43885],[3.05106,50.43915],[3.05127,50.43914],[3.05148,50.43971],[3.0517,50.43971],[3.05151,50.43917],[3.05178,50.43913],[3.05203,50.43971],[3.05254,50.43975],[3.05238,50.43936],[3.0526,50.43931],[3.05208,50.43829],[3.05101,50.43849],[3.05116,50.43881],[3.05093,50.43885]]]}},{"type":"Feature","properties":{"k":"SGH","s":4.097},"geometry":{"type":"Polygon","coordinates":[[[3.05168,50.44286],[3.05256,50.44179],[3.05263,50.44131],[3.0532,50.44139],[3.05391,50.44149],[3.05397,50.44111],[3.0545,50.4412],[3.05516,50.4401],[3.05378,50.43999],[3.05365,50.44036],[3.05345,50.4408],[3.05365,50.43998],[3.05324,50.44091],[3.05177,50.44068],[3.05138,50.44171],[3.05056,50.44167],[3.05021,50.4427],[3.05168,50.44286]]]}},{"type":"Feature","properties":{"k":"BTA","s":0.221},"geometry":{"type":"Polygon","coordinates":[[[3.05379,50.44554],[3.05313,50.44523],[3.05334,50.4441],[3.05176,50.44406],[3.05069,50.44387],[3.05179,50.44411],[3.05326,50.44415],[3.05304,50.44527],[3.05379,50.44554]]]}},{"type":"Feature","properties":{"k":"JAC","s":0.656},"geometry":{"type":"Polygon","coordinates":[[[3.05072,50.4448],[3.05332,50.4458],[3.05271,50.44658],[3.05291,50.44666],[3.05377,50.44556],[3.05358,50.44547],[3.05349,50.44558],[3.05016,50.44426],[3.05058,50.44396],[3.05145,50.44423],[3.05286,50.44478],[3.05281,50.44519],[3.05304,50.44527],[3.05324,50.44423],[3.053,50.44523],[3.05286,50.44519],[3.05306,50.44423],[3.05326,50.44415],[3.05145,50.4442],[3.05061,50.44395],[3.05088,50.44395],[3.05069,50.44387],[3.05011,50.44411],[3.05021,50.4442],[3.04952,50.44434],[3.04897,50.44455],[3.04976,50.44442],[3.05046,50.4447],[3.05035,50.44479],[3.05072,50.4448]],[[3.04978,50.44442],[3.05013,50.44427],[3.05347,50.4456],[3.05332,50.4458],[3.04978,50.44442]],[[3.05294,50.4445],[3.05289,50.44477],[3.05153,50.44424],[3.05233,50.44426],[3.05294,50.4445]]]}},{"type":"Feature","properties":{"k":"MIS","s":1.867},"geometry":{"type":"Polygon","coordinates":[[[3.04897,50.44455],[3.04839,50.44477],[3.05271,50.44658],[3.05302,50.44617],[3.04897,50.44455]]]}},{"type":"Feature","properties":{"k":"PPH","s":0.477},"geometry":{"type":"Polygon","coordinates":[[[3.05262,50.447],[3.05281,50.44679],[3.05076,50.44599],[3.05065,50.44624],[3.05262,50.447]]]}},{"type":"Feature","properties":{"k":"PPH","s":0.063},"geometry":{"type":"Polygon","coordinates":[[[3.05281,50.44679],[3.05262,50.447],[3.05279,50.44707],[3.0532,50.44696],[3.05281,50.44679]]]}},{"type":"Feature","properties":{"k":"JAC","s":0.069},"geometry":{"type":"Polygon","coordinates":[[[3.05262,50.447],[3.05212,50.44744],[3.05221,50.44748],[3.05279,50.44707],[3.05262,50.447]]]}},{"type":"Feature","properties":{"k":"PPH","s":0.018},"geometry":{"type":"Polygon","coordinates":[[[3.0532,50.44696],[3.05279,50.44707],[3.05297,50.44712],[3.0532,50.44696]]]}},{"type":"Feature","properties":{"k":"MSW","s":2.03},"geometry":{"type":"Polygon","coordinates":[[[3.05077,50.4487],[3.05002,50.44805],[3.05015,50.448],[3.05083,50.44865],[3.05194,50.44762],[3.05009,50.44687],[3.04921,50.44783],[3.05077,50.4487]]]}},{"type":"Feature","properties":{"k":"JAC","s":2.15},"geometry":{"type":"Polygon","coordinates":[[[3.05295,50.44713],[3.05279,50.44707],[3.05221,50.44748],[3.05262,50.447],[3.05065,50.44621],[3.05055,50.4462],[3.05054,50.4462],[3.04905,50.44779],[3.04908,50.44795],[3.05086,50.44886],[3.05295,50.44713]],[[3.04921,50.44783],[3.05009,50.44687],[3.05194,50.44762],[3.05083,50.44865],[3.05015,50.448],[3.05002,50.44805],[3.05077,50.4487],[3.04921,50.44783]]]}},{"type":"Feature","properties":{"k":"JAC","s":0.19},"geometry":{"type":"Polygon","coordinates":[[[3.05441,50.44576],[3.0535,50.44689],[3.05444,50.44584],[3.05684,50.44676],[3.05441,50.44576]]]}},{"type":"Feature","properties":{"k":"MIS","s":3.158},"geometry":{"type":"Polygon","coordinates":[[[3.05965,50.44769],[3.05686,50.44682],[3.05444,50.44584],[3.0539,50.44646],[3.05776,50.44798],[3.05828,50.448],[3.05965,50.44769]]]}},{"type":"Feature","properties":{"k":"PPH","s":8.41},"geometry":{"type":"Polygon","coordinates":[[[3.0589,50.45331],[3.06205,50.44995],[3.05999,50.44886],[3.05669,50.45244],[3.0589,50.45331]]]}},{"type":"Feature","properties":{"k":"JAC","s":0.642},"geometry":{"type":"Polygon","coordinates":[[[3.054,50.45157],[3.05409,50.4514],[3.05372,50.45095],[3.05385,50.45042],[3.05366,50.45033],[3.05272,50.45159],[3.05291,50.45148],[3.054,50.45157]]]}},{"type":"Feature","properties":{"k":"MIS","s":8.209},"geometry":{"type":"Polygon","coordinates":[[[3.05366,50.45033],[3.05044,50.44872],[3.0494,50.44979],[3.04949,50.45032],[3.04867,50.45143],[3.052,50.45244],[3.05366,50.45033]]]}},{"type":"Feature","properties":{"k":"LUZ","s":1.51},"geometry":{"type":"Polygon","coordinates":[[[3.04713,50.44563],[3.04836,50.44614],[3.0485,50.446],[3.04908,50.44626],[3.04971,50.44561],[3.04808,50.44488],[3.04713,50.44563]]]}},{"type":"Feature","properties":{"k":"ORH","s":2.798},"geometry":{"type":"Polygon","coordinates":[[[3.04326,50.4464],[3.04354,50.44613],[3.04567,50.44668],[3.04638,50.44611],[3.04428,50.44552],[3.0444,50.44534],[3.04321,50.44465],[3.04233,50.44534],[3.04326,50.4464]]]}},{"type":"Feature","properties":{"k":"MLG","s":0.019},"geometry":{"type":"Polygon","coordinates":[]}},{"type":"Feature","properties":{"k":"PPH","s":0.0},"geometry":{"type":"Polygon","coordinates":[]}},{"type":"Feature","properties":{"k":"LUZ","s":8.601},"geometry":{"type":"Polygon","coordinates":[[[3.05425,50.43441],[3.05503,50.43405],[3.05475,50.43377],[3.0544,50.43343],[3.05586,50.43294],[3.05569,50.43278],[3.05692,50.43242],[3.05676,50.43219],[3.05752,50.43197],[3.05745,50.43189],[3.05792,50.43175],[3.05776,50.43127],[3.05705,50.43145],[3.0567,50.43097],[3.05753,50.43069],[3.05669,50.43093],[3.05606,50.43004],[3.05218,50.4325],[3.05425,50.43441]]]}},{"type":"Feature","properties":{"k":"PPH","s":1.716},"geometry":{"type":"Polygon","coordinates":[[[3.06504,50.45216],[3.0646,50.45192],[3.06274,50.45393],[3.06227,50.45377],[3.06178,50.45437],[3.06277,50.45475],[3.06504,50.45216]]]}},{"type":"Feature","properties":{"k":"MIS","s":1.808},"geometry":{"type":"Polygon","coordinates":[[[3.06504,50.45216],[3.06277,50.45475],[3.06342,50.455],[3.06564,50.4525],[3.06504,50.45216]]]}},{"type":"Feature","properties":{"k":"BTA","s":0.038},"geometry":{"type":"Polygon","coordinates":[[[3.04352,50.42886],[3.04448,50.4286],[3.04444,50.42856],[3.04352,50.42886]]]}},{"type":"Feature","properties":{"k":"PPH","s":0.005},"geometry":{"type":"Polygon","coordinates":[]}},{"type":"Feature","properties":{"k":"BTA","s":0.393},"geometry":{"type":"Polygon","coordinates":[[[3.05057,50.42677],[3.04973,50.42695],[3.04873,50.4269],[3.04844,50.42697],[3.04745,50.42767],[3.04541,50.42832],[3.0473,50.42781],[3.04862,50.42697],[3.04959,50.42701],[3.05091,50.42682],[3.04877,50.42579],[3.04854,50.4258],[3.05057,50.42677]]]}},{"type":"Feature","properties":{"k":"BTH","s":5.285},"geometry":{"type":"Polygon","coordinates":[[[3.04745,50.42767],[3.04857,50.42693],[3.04964,50.42696],[3.05062,50.42673],[3.04854,50.4258],[3.04444,50.42706],[3.04536,50.42826],[3.04745,50.42767]]]}},{"type":"Feature","properties":{"k":"ORH","s":2.848},"geometry":{"type":"Polygon","coordinates":[[[3.06422,50.447],[3.06255,50.44626],[3.06228,50.44645],[3.06241,50.4465],[3.06222,50.44657],[3.06271,50.44687],[3.06225,50.44729],[3.06229,50.44745],[3.06293,50.4481],[3.06364,50.44757],[3.06445,50.44785],[3.0659,50.44623],[3.06509,50.44591],[3.06422,50.447]]]}},{"type":"Feature","properties":{"k":"BTH","s":7.701},"geometry":{"type":"Polygon","coordinates":[[[3.06735,50.4546],[3.06775,50.45389],[3.06746,50.45354],[3.06564,50.4525],[3.06342,50.455],[3.06695,50.45632],[3.06811,50.45491],[3.06735,50.4546]]]}},{"type":"Feature","properties":{"k":"BOR","s":0.441},"geometry":{"type":"Polygon","coordinates":[[[3.06836,50.45488],[3.06756,50.45445],[3.06775,50.45389],[3.06735,50.4546],[3.06811,50.45491],[3.06695,50.45632],[3.06708,50.45637],[3.06836,50.45488]]]}},{"type":"Feature","properties":{"k":"MIS","s":0.386},"geometry":{"type":"Polygon","coordinates":[[[3.08012,50.44337],[3.07997,50.44312],[3.07982,50.44315],[3.08081,50.44422],[3.08145,50.44396],[3.08012,50.44337]]]}},{"type":"Feature","properties":{"k":"BTA","s":0.0},"geometry":{"type":"Polygon","coordinates":[[[3.06607,50.42522],[3.06595,50.42521],[3.06595,50.42522],[3.06607,50.42522]]]}},{"type":"Feature","properties":{"k":"PPH","s":2.387},"geometry":{"type":"Polygon","coordinates":[[[3.06884,50.43282],[3.06729,50.43376],[3.0685,50.43498],[3.07001,50.43433],[3.06884,50.43282]]]}},{"type":"Feature","properties":{"k":"BTN","s":0.839},"geometry":{"type":"Polygon","coordinates":[[[3.06714,50.43317],[3.06754,50.43359],[3.06883,50.4328],[3.0684,50.43218],[3.06714,50.43317]]]}},{"type":"Feature","properties":{"k":"TTH","s":5.37},"geometry":{"type":"Polygon","coordinates":[[[3.06938,50.43177],[3.0684,50.43218],[3.0698,50.43403],[3.07084,50.4337],[3.07019,50.43265],[3.07158,50.43237],[3.06926,50.4297],[3.06815,50.43072],[3.06938,50.43177]]]}},{"type":"Feature","properties":{"k":"MIS","s":1.783},"geometry":{"type":"Polygon","coordinates":[[[3.06509,50.44591],[3.06388,50.44532],[3.06256,50.44626],[3.06422,50.447],[3.06509,50.44591]]]}},{"type":"Feature","properties":{"k":"CZH","s":0.708},"geometry":{"type":"Polygon","coordinates":[[[3.06983,50.44612],[3.07023,50.44591],[3.06954,50.44539],[3.06941,50.44548],[3.06856,50.44502],[3.06806,50.44531],[3.06983,50.44612]]]}},{"type":"Feature","properties":{"k":"MIS","s":0.853},"geometry":{"type":"MultiPolygon","coordinates":[[[[3.07492,50.44469],[3.07436,50.44492],[3.07623,50.44419],[3.07492,50.44469]]],[[[3.07074,50.44583],[3.06953,50.44644],[3.06995,50.44664],[3.07267,50.44558],[3.07074,50.44583]]]]}},{"type":"Feature","properties":{"k":"PPH","s":0.737},"geometry":{"type":"Polygon","coordinates":[[[3.06515,50.44443],[3.06445,50.4439],[3.06373,50.44445],[3.06386,50.44504],[3.06413,50.44511],[3.06515,50.44443]]]}},{"type":"Feature","properties":{"k":"PPH","s":3.852},"geometry":{"type":"Polygon","coordinates":[[[3.06759,50.44234],[3.06844,50.44188],[3.069,50.4423],[3.07059,50.44126],[3.06859,50.44005],[3.06788,50.44069],[3.06633,50.44136],[3.06759,50.44234]],[[3.06775,50.44146],[3.0674,50.44121],[3.06747,50.44117],[3.06775,50.44146]]]}},{"type":"Feature","properties":{"k":"PPH","s":0.507},"geometry":{"type":"Polygon","coordinates":[[[3.06787,50.44053],[3.06846,50.44],[3.06796,50.43975],[3.06704,50.44052],[3.06732,50.44071],[3.06787,50.44053]]]}},{"type":"Feature","properties":{"k":"PPH","s":0.738},"geometry":{"type":"Polygon","coordinates":[[[3.06583,50.44057],[3.06485,50.44111],[3.06546,50.4416],[3.06663,50.44112],[3.06583,50.44057]]]}},{"type":"Feature","properties":{"k":"PPH","s":0.164},"geometry":{"type":"Polygon","coordinates":[[[3.06996,50.43997],[3.07016,50.43986],[3.06925,50.43924],[3.06907,50.43935],[3.06996,50.43997]]]}},{"type":"Feature","properties":{"k":"ORH","s":2.373},"geometry":{"type":"Polygon","coordinates":[[[3.0659,50.44623],[3.06445,50.44785],[3.0654,50.44817],[3.06539,50.44853],[3.06651,50.44918],[3.06689,50.44887],[3.06557,50.44802],[3.06561,50.44749],[3.06682,50.44727],[3.06723,50.44679],[3.0659,50.44623]]]}},{"type":"Feature","properties":{"k":"BTH","s":1.119},"geometry":{"type":"Polygon","coordinates":[[[3.04349,50.42882],[3.04444,50.42856],[3.0435,50.42733],[3.04255,50.42763],[3.04349,50.42882]]]}},{"type":"Feature","properties":{"k":"BTA","s":0.012},"geometry":{"type":"MultiPolygon","coordinates":[[[[3.04326,50.42901],[3.04362,50.42886],[3.04347,50.4289],[3.04326,50.42901]]],[[[3.04268,50.4294],[3.04269,50.42942],[3.0431,50.42911],[3.04268,50.4294]]]]}},{"type":"Feature","properties":{"k":"FVP","s":0.001},"geometry":{"type":"Polygon","coordinates":[[[3.04204,50.42993],[3.04212,50.42987],[3.0419,50.43001],[3.04204,50.42993]]]}},{"type":"Feature","properties":{"k":"ORH","s":0.159},"geometry":{"type":"MultiPolygon","coordinates":[[[[3.04721,50.43542],[3.04727,50.43532],[3.04684,50.43542],[3.04694,50.43557],[3.04721,50.43542]]],[[[3.0471,50.43497],[3.04762,50.43486],[3.04753,50.43469],[3.04831,50.43445],[3.04747,50.43457],[3.04733,50.43486],[3.04703,50.43491],[3.04725,50.43521],[3.0471,50.43497]]]]}},{"type":"Feature","properties":{"k":"JAC","s":0.165},"geometry":{"type":"Polygon","coordinates":[[[3.04924,50.43772],[3.0494,50.43769],[3.04881,50.43686],[3.04866,50.43699],[3.04924,50.43772]]]}},{"type":"Feature","properties":{"k":"BTH","s":0.003},"geometry":{"type":"Polygon","coordinates":[[[3.07296,50.43368],[3.07307,50.43371],[3.07275,50.43355],[3.07296,50.43368]]]}},{"type":"Feature","properties":{"k":"BTH","s":2.754},"geometry":{"type":"Polygon","coordinates":[[[3.07035,50.4331],[3.07163,50.43497],[3.07268,50.43454],[3.07314,50.43383],[3.07266,50.43358],[3.07177,50.43265],[3.07035,50.4331]]]}},{"type":"Feature","properties":{"k":"JAC","s":0.514},"geometry":{"type":"Polygon","coordinates":[[[3.06978,50.43403],[3.07001,50.43433],[3.07052,50.43419],[3.07112,50.4352],[3.07163,50.43498],[3.07067,50.43376],[3.06978,50.43403]],[[3.07128,50.43508],[3.07035,50.43393],[3.0705,50.43388],[3.07144,50.43502],[3.07128,50.43508]]]}},{"type":"Feature","properties":{"k":"BTN","s":1.347},"geometry":{"type":"Polygon","coordinates":[[[3.06557,50.45607],[3.06514,50.45633],[3.0683,50.45758],[3.06841,50.45584],[3.0682,50.45583],[3.06813,50.45707],[3.06557,50.45607]]]}},{"type":"Feature","properties":{"k":"JAC","s":0.164},"geometry":{"type":"Polygon","coordinates":[[[3.04647,50.4355],[3.04606,50.43559],[3.0462,50.43608],[3.04664,50.43581],[3.04647,50.4355]]]}},{"type":"Feature","properties":{"k":"SOG","s":0.434},"geometry":{"type":"Polygon","coordinates":[[[3.04943,50.43674],[3.04881,50.43686],[3.0494,50.43769],[3.04986,50.43758],[3.04943,50.43674]]]}},{"type":"Feature","properties":{"k":"NVT","s":9.222},"geometry":{"type":"Polygon","coordinates":[[[3.04999,50.43522],[3.05385,50.43427],[3.05217,50.4325],[3.05063,50.43347],[3.05096,50.43389],[3.04952,50.4342],[3.04708,50.43579],[3.04742,50.43711],[3.05077,50.43649],[3.04999,50.43522]]]}},{"type":"Feature","properties":{"k":"BTN","s":2.074},"geometry":{"type":"Polygon","coordinates":[[[3.05048,50.43536],[3.05404,50.43447],[3.05385,50.43427],[3.04999,50.43522],[3.05077,50.43649],[3.04943,50.43675],[3.04986,50.4374],[3.05154,50.43696],[3.05048,50.43536]]]}},{"type":"Feature","properties":{"k":"MIS","s":6.472},"geometry":{"type":"MultiPolygon","coordinates":[[[[3.06725,50.45636],[3.06696,50.45642],[3.06204,50.45456],[3.06144,50.45521],[3.06372,50.45601],[3.06486,50.4561],[3.06515,50.45632],[3.06557,50.45607],[3.06813,50.45707],[3.0682,50.45583],[3.06771,50.45581],[3.06725,50.45636]]],[[[3.06424,50.45709],[3.06768,50.45852],[3.06895,50.45774],[3.06851,50.4577],[3.06514,50.45633],[3.06424,50.45709]]]]}},{"type":"Feature","properties":{"k":"BOR","s":1.404},"geometry":{"type":"Polygon","coordinates":[[[3.06083,50.45548],[3.06094,50.45556],[3.06197,50.4555],[3.06239,50.45564],[3.06209,50.45578],[3.06229,50.45589],[3.06319,50.4561],[3.06479,50.45615],[3.06489,50.45628],[3.06399,50.45713],[3.06759,50.45851],[3.06424,50.45709],[3.06515,50.45632],[3.06486,50.4561],[3.06372,50.45601],[3.06144,50.45521],[3.06204,50.45456],[3.06176,50.45446],[3.06083,50.45548]]]}},{"type":"Feature","properties":{"k":"BTH","s":0.0},"geometry":{"type":"Polygon","coordinates":[[[3.06767,50.45376],[3.06771,50.4538],[3.06768,50.45375],[3.06767,50.45376]]]}},{"type":"Feature","properties":{"k":"PPH","s":6.333},"geometry":{"type":"Polygon","coordinates":[[[3.06746,50.45354],[3.06707,50.45248],[3.06568,50.45051],[3.06696,50.44948],[3.06598,50.44893],[3.06593,50.44958],[3.06503,50.45021],[3.06334,50.4502],[3.06272,50.44982],[3.06237,50.4493],[3.06218,50.44891],[3.0624,50.44839],[3.06218,50.44829],[3.0612,50.44928],[3.06323,50.45041],[3.06285,50.45077],[3.0649,50.4516],[3.0646,50.45192],[3.06746,50.45354]]]}},{"type":"Feature","properties":{"k":"MIS","s":0.007},"geometry":{"type":"Polygon","coordinates":[[[3.04625,50.43654],[3.04617,50.43647],[3.04614,50.43651],[3.04625,50.43654]]]}},{"type":"Feature","properties":{"k":"BTA","s":0.02},"geometry":{"type":"MultiPolygon","coordinates":[[[[3.04663,50.43696],[3.04668,50.43734],[3.0467,50.43725],[3.04663,50.43696]]],[[[3.04632,50.43652],[3.0462,50.43648],[3.04628,50.43663],[3.04642,50.43674],[3.04632,50.43652]]],[[[3.04536,50.43914],[3.04533,50.43919],[3.04534,50.43919],[3.04536,50.43914]]],[[[3.04664,50.43742],[3.04647,50.43765],[3.04656,50.43755],[3.04664,50.43742]]]]}},{"type":"Feature","properties":{"k":"FRA","s":0.103},"geometry":{"type":"Polygon","coordinates":[[[3.05216,50.43845],[3.05317,50.43824],[3.05312,50.43812],[3.0521,50.43833],[3.05216,50.43845]]]}}]}