{"type":"FeatureCollection","features":[{"type":"Feature","properties":{"k":"PPH","s":0.763},"geometry":{"type":"Polygon","coordinates":[[[2.3949,50.54287],[2.39427,50.5433],[2.39548,50.54409],[2.39605,50.54351],[2.3949,50.54287]]]}},{"type":"Feature","properties":{"k":"MIS","s":0.866},"geometry":{"type":"Polygon","coordinates":[[[2.40904,50.55194],[2.40945,50.55113],[2.40874,50.55087],[2.40767,50.55201],[2.40904,50.55194]]]}},{"type":"Feature","properties":{"k":"MIS","s":0.805},"geometry":{"type":"Polygon","coordinates":[[[2.39602,50.54213],[2.395,50.54289],[2.39575,50.54333],[2.39672,50.5426],[2.39602,50.54213]]]}},{"type":"Feature","properties":{"k":"PPH","s":0.002},"geometry":{"type":"Polygon","coordinates":[[[2.4154,50.54429],[2.41483,50.54449],[2.41484,50.5445],[2.4154,50.54429]]]}},{"type":"Feature","properties":{"k":"BTH","s":1.503},"geometry":{"type":"Polygon","coordinates":[[[2.4211,50.54534],[2.42216,50.54506],[2.42205,50.54487],[2.42286,50.54462],[2.42285,50.54386],[2.42059,50.54441],[2.4211,50.54534]]]}},{"type":"Feature","properties":{"k":"MIS","s":2.203},"geometry":{"type":"Polygon","coordinates":[[[2.42328,50.54157],[2.4213,50.54256],[2.42123,50.54247],[2.42076,50.54261],[2.42136,50.54382],[2.42234,50.54355],[2.42248,50.54371],[2.42283,50.54362],[2.42273,50.54289],[2.42328,50.54157]]]}},{"type":"Feature","properties":{"k":"BTH","s":1.083},"geometry":{"type":"Polygon","coordinates":[[[2.4213,50.54256],[2.42327,50.54156],[2.42324,50.54145],[2.42316,50.54135],[2.42251,50.54164],[2.42226,50.54135],[2.4208,50.54186],[2.4213,50.54256]]]}},{"type":"Feature","properties":{"k":"PPH","s":3.848},"geometry":{"type":"Polygon","coordinates":[[[2.41957,50.54205],[2.41999,50.54274],[2.41977,50.54299],[2.42059,50.54441],[2.42285,50.54386],[2.42279,50.54364],[2.42248,50.54371],[2.42234,50.54355],[2.42136,50.54382],[2.42071,50.54263],[2.42122,50.54247],[2.4208,50.54186],[2.42136,50.54167],[2.42053,50.54064],[2.41962,50.54099],[2.41957,50.54205]]]}},{"type":"Feature","properties":{"k":"PTR","s":0.925},"geometry":{"type":"Polygon","coordinates":[[[2.42226,50.54135],[2.42146,50.54038],[2.42053,50.54063],[2.42137,50.54168],[2.42226,50.54135]]]}},{"type":"Feature","properties":{"k":"BTH","s":0.557},"geometry":{"type":"Polygon","coordinates":[[[2.42147,50.54038],[2.42251,50.54164],[2.42291,50.54146],[2.42198,50.54027],[2.42147,50.54038]]]}},{"type":"Feature","properties":{"k":"BTH","s":0.616},"geometry":{"type":"Polygon","coordinates":[[[2.4248,50.54247],[2.42448,50.5422],[2.4228,50.54286],[2.42282,50.54331],[2.4248,50.54247]]]}},{"type":"Feature","properties":{"k":"MIS","s":0.72},"geometry":{"type":"Polygon","coordinates":[[[2.42277,50.54287],[2.42447,50.54219],[2.42337,50.5415],[2.42277,50.54287]]]}},{"type":"Feature","properties":{"k":"BTH","s":1.093},"geometry":{"type":"Polygon","coordinates":[[[2.4248,50.54247],[2.42348,50.54302],[2.42281,50.54332],[2.42291,50.5439],[2.42526,50.5429],[2.4248,50.54247]]]}},{"type":"Feature","properties":{"k":"CZH","s":2.944},"geometry":{"type":"Polygon","coordinates":[[[2.42297,50.54454],[2.42574,50.54334],[2.42759,50.54225],[2.42641,50.54168],[2.425,50.54263],[2.42527,50.5429],[2.42293,50.54389],[2.42297,50.54454]]]}},{"type":"Feature","properties":{"k":"BTH","s":3.948},"geometry":{"type":"Polygon","coordinates":[[[2.4234,50.54152],[2.42498,50.54263],[2.4264,50.54167],[2.4276,50.54225],[2.42815,50.54189],[2.42665,50.54114],[2.4261,50.54155],[2.42369,50.53986],[2.4234,50.54152]]]}},{"type":"Feature","properties":{"k":"CZH","s":0.468},"geometry":{"type":"Polygon","coordinates":[[[2.42851,50.54164],[2.427,50.54091],[2.42667,50.54115],[2.42818,50.54188],[2.42851,50.54164]]]}},{"type":"Feature","properties":{"k":"BTH","s":9.59},"geometry":{"type":"Polygon","coordinates":[[[2.42554,50.53883],[2.42371,50.53971],[2.42369,50.53986],[2.4261,50.54155],[2.427,50.54091],[2.42851,50.54164],[2.42914,50.54114],[2.42866,50.5409],[2.42987,50.53996],[2.4287,50.53908],[2.42846,50.53919],[2.4267,50.53792],[2.42554,50.53883]]]}},{"type":"Feature","properties":{"k":"PPH","s":0.254},"geometry":{"type":"Polygon","coordinates":[[[2.42218,50.54021],[2.42198,50.54027],[2.42291,50.54146],[2.42316,50.54135],[2.42218,50.54021]]]}},{"type":"Feature","properties":{"k":"BTH","s":0.418},"geometry":{"type":"Polygon","coordinates":[[[2.4233,50.54093],[2.42263,50.5401],[2.42218,50.54021],[2.42324,50.54143],[2.4233,50.54093]]]}},{"type":"Feature","properties":{"k":"BTH","s":0.013},"geometry":{"type":"Polygon","coordinates":[[[2.425,50.53908],[2.42524,50.53896],[2.42521,50.53894],[2.42441,50.53939],[2.425,50.53908]]]}},{"type":"Feature","properties":{"k":"JAC","s":0.001},"geometry":{"type":"Polygon","coordinates":[[[2.42528,50.53894],[2.42525,50.53892],[2.42521,50.53894],[2.42528,50.53894]]]}},{"type":"Feature","properties":{"k":"LUZ","s":0.002},"geometry":{"type":"Polygon","coordinates":[[[2.42553,50.53876],[2.42556,50.53877],[2.42567,50.53868],[2.42553,50.53876]]]}},{"type":"Feature","properties":{"k":"MIS","s":0.0},"geometry":{"type":"Polygon","coordinates":[[[2.43123,50.5374],[2.43119,50.53741],[2.43124,50.53741],[2.43123,50.5374]]]}},{"type":"Feature","properties":{"k":"PHF","s":5.427},"geometry":{"type":"Polygon","coordinates":[[[2.42989,50.53997],[2.42866,50.5409],[2.42904,50.5411],[2.43068,50.53985],[2.42964,50.53882],[2.43079,50.53835],[2.43247,50.53815],[2.43097,50.53748],[2.43002,50.53761],[2.42738,50.53755],[2.42696,50.53808],[2.42846,50.53919],[2.4287,50.53908],[2.42989,50.53997]]]}},{"type":"Feature","properties":{"k":"BTN","s":0.005},"geometry":{"type":"Polygon","coordinates":[[[2.43046,50.53998],[2.43143,50.53957],[2.43077,50.53979],[2.43046,50.53998]]]}},{"type":"Feature","properties":{"k":"MIS","s":1.333},"geometry":{"type":"MultiPolygon","coordinates":[[[[2.43068,50.53985],[2.43185,50.53942],[2.4308,50.53836],[2.42964,50.53882],[2.43068,50.53985]]]]}},{"type":"Feature","properties":{"k":"BTH","s":0.926},"geometry":{"type":"Polygon","coordinates":[[[2.43251,50.53809],[2.43345,50.53811],[2.4331,50.53728],[2.43124,50.53741],[2.43251,50.53809]]]}},{"type":"Feature","properties":{"k":"BTH","s":1.482},"geometry":{"type":"Polygon","coordinates":[[[2.43351,50.53809],[2.4342,50.53812],[2.43564,50.53843],[2.43525,50.53766],[2.43554,50.53752],[2.43548,50.5374],[2.43427,50.5372],[2.43315,50.53727],[2.43351,50.53809]],[[2.43415,50.53806],[2.43432,50.53723],[2.4342,50.53812],[2.43415,50.53806]]]}},{"type":"Feature","properties":{"k":"BTN","s":0.15},"geometry":{"type":"Polygon","coordinates":[[[2.43571,50.5384],[2.43599,50.53848],[2.43558,50.53762],[2.43538,50.53772],[2.43571,50.5384]]]}},{"type":"Feature","properties":{"k":"BTH","s":0.022},"geometry":{"type":"Polygon","coordinates":[[[2.43558,50.53762],[2.43554,50.53752],[2.43528,50.53765],[2.43558,50.53762]]]}},{"type":"Feature","properties":{"k":"MIS","s":0.0},"geometry":{"type":"Polygon","coordinates":[]}},{"type":"Feature","properties":{"k":"PPH","s":0.004},"geometry":{"type":"Polygon","coordinates":[[[2.41872,50.55091],[2.41903,50.55133],[2.41874,50.55091],[2.41872,50.55091]]]}},{"type":"Feature","properties":{"k":"PPH","s":1.143},"geometry":{"type":"Polygon","coordinates":[[[2.41872,50.55091],[2.41836,50.55096],[2.41768,50.55074],[2.41828,50.55228],[2.41918,50.552],[2.41872,50.55091]]]}},{"type":"Feature","properties":{"k":"ORH","s":0.042},"geometry":{"type":"Polygon","coordinates":[[[2.39603,50.54212],[2.39602,50.54211],[2.39493,50.54284],[2.39603,50.54212]]]}},{"type":"Feature","properties":{"k":"MIS","s":0.735},"geometry":{"type":"Polygon","coordinates":[[[2.40843,50.55952],[2.4097,50.55818],[2.41005,50.5583],[2.41022,50.55815],[2.40956,50.5579],[2.40791,50.55931],[2.40843,50.55952]]]}},{"type":"Feature","properties":{"k":"PPH","s":1.002},"geometry":{"type":"Polygon","coordinates":[[[2.41595,50.55149],[2.41674,50.55101],[2.41723,50.55131],[2.41758,50.55118],[2.4174,50.55066],[2.41669,50.5503],[2.41547,50.55119],[2.41595,50.55149]]]}},{"type":"Feature","properties":{"k":"PPH","s":3.983},"geometry":{"type":"Polygon","coordinates":[[[2.41101,50.5505],[2.41164,50.55117],[2.41195,50.5519],[2.41296,50.55247],[2.41355,50.55214],[2.41461,50.55284],[2.4153,50.55217],[2.41595,50.5524],[2.41644,50.55207],[2.41362,50.55076],[2.41292,50.55129],[2.41101,50.5505]]]}},{"type":"Feature","properties":{"k":"PPH","s":0.618},"geometry":{"type":"Polygon","coordinates":[[[2.40932,50.55192],[2.41099,50.55177],[2.40945,50.55113],[2.40913,50.55176],[2.40938,50.55179],[2.40932,50.55192]]]}},{"type":"Feature","properties":{"k":"PTC","s":0.011},"geometry":{"type":"MultiPolygon","coordinates":[[[[2.38845,50.55033],[2.38854,50.55007],[2.38831,50.55058],[2.38845,50.55033]]]]}},{"type":"Feature","properties":{"k":"BTH","s":2.406},"geometry":{"type":"Polygon","coordinates":[[[2.38807,50.5512],[2.38828,50.55138],[2.38932,50.55131],[2.39076,50.54988],[2.38945,50.54928],[2.38854,50.55007],[2.38807,50.5512]]]}},{"type":"Feature","properties":{"k":"BTH","s":3.318},"geometry":{"type":"Polygon","coordinates":[[[2.39076,50.54988],[2.38933,50.55131],[2.39089,50.5512],[2.39199,50.55019],[2.39132,50.54992],[2.39219,50.54922],[2.39047,50.54838],[2.38937,50.54934],[2.39076,50.54988]]]}},{"type":"Feature","properties":{"k":"PPH","s":0.552},"geometry":{"type":"Polygon","coordinates":[[[2.41845,50.55897],[2.4188,50.55879],[2.41741,50.55789],[2.41724,50.5585],[2.41845,50.55897]]]}},{"type":"Feature","properties":{"k":"PPH","s":0.383},"geometry":{"type":"Polygon","coordinates":[[[2.41728,50.5592],[2.41839,50.55895],[2.41723,50.55852],[2.41708,50.55913],[2.41728,50.5592]]]}},{"type":"Feature","properties":{"k":"PPH","s":1.452},"geometry":{"type":"Polygon","coordinates":[[[2.41885,50.55874],[2.41972,50.55827],[2.4193,50.55787],[2.41921,50.55748],[2.4175,50.5574],[2.41743,50.55782],[2.41885,50.55874]]]}},{"type":"Feature","properties":{"k":"PPH","s":1.309},"geometry":{"type":"Polygon","coordinates":[[[2.42043,50.55614],[2.41908,50.55634],[2.41928,50.55749],[2.41969,50.55745],[2.41975,50.55766],[2.42055,50.55734],[2.42043,50.55614]]]}},{"type":"Feature","properties":{"k":"PPH","s":0.472},"geometry":{"type":"Polygon","coordinates":[[[2.41971,50.55746],[2.41933,50.55751],[2.41938,50.55789],[2.4199,50.55816],[2.42056,50.55765],[2.42055,50.55734],[2.41975,50.55766],[2.41971,50.55746]]]}},{"type":"Feature","properties":{"k":"PTC","s":1.295},"geometry":{"type":"Polygon","coordinates":[[[2.40099,50.55096],[2.40097,50.55098],[2.40184,50.55116],[2.40344,50.54967],[2.40266,50.5494],[2.40099,50.55096]]]}},{"type":"Feature","properties":{"k":"BTN","s":0.5},"geometry":{"type":"Polygon","coordinates":[[[2.40346,50.54967],[2.40188,50.55117],[2.40224,50.55123],[2.40377,50.54979],[2.40346,50.54967]]]}},{"type":"Feature","properties":{"k":"PPH","s":1.397},"geometry":{"type":"Polygon","coordinates":[[[2.4204,50.55559],[2.4191,50.55451],[2.41911,50.55477],[2.41844,50.55519],[2.41867,50.55533],[2.41891,50.5561],[2.42043,50.55591],[2.4204,50.55559]]]}},{"type":"Feature","properties":{"k":"PPH","s":0.134},"geometry":{"type":"Polygon","coordinates":[[[2.41894,50.55623],[2.42047,50.55602],[2.42048,50.55592],[2.41889,50.55612],[2.41894,50.55623]]]}},{"type":"Feature","properties":{"k":"BTH","s":1.99},"geometry":{"type":"Polygon","coordinates":[[[2.40098,50.54693],[2.39998,50.54632],[2.39936,50.54706],[2.3995,50.54751],[2.40099,50.54814],[2.40137,50.54778],[2.4021,50.54753],[2.4011,50.54683],[2.40098,50.54693]]]}},{"type":"Feature","properties":{"k":"PPH","s":0.031},"geometry":{"type":"Polygon","coordinates":[[[2.42041,50.54698],[2.42159,50.54667],[2.42038,50.54694],[2.42041,50.54698]]]}},{"type":"Feature","properties":{"k":"BTH","s":9.411},"geometry":{"type":"Polygon","coordinates":[[[2.39165,50.54895],[2.39364,50.5473],[2.39621,50.54862],[2.39863,50.54683],[2.39798,50.54651],[2.3968,50.54749],[2.39652,50.54729],[2.39723,50.54668],[2.3941,50.54539],[2.3937,50.54588],[2.39224,50.54683],[2.39049,50.54838],[2.39165,50.54895]]]}},{"type":"Feature","properties":{"k":"BTH","s":0.0},"geometry":{"type":"Polygon","coordinates":[[[2.42169,50.54667],[2.42166,50.54661],[2.42168,50.54667],[2.42169,50.54667]]]}},{"type":"Feature","properties":{"k":"PPH","s":2.43},"geometry":{"type":"Polygon","coordinates":[[[2.41998,50.54559],[2.42001,50.54632],[2.42139,50.54606],[2.42039,50.54419],[2.41974,50.54384],[2.41893,50.54409],[2.41926,50.54462],[2.41911,50.54494],[2.41998,50.54559]]]}},{"type":"Feature","properties":{"k":"PPH","s":0.635},"geometry":{"type":"Polygon","coordinates":[[[2.42045,50.54691],[2.42158,50.54666],[2.42138,50.54608],[2.42,50.54633],[2.42045,50.54691]]]}},{"type":"Feature","properties":{"k":"BTA","s":0.033},"geometry":{"type":"Polygon","coordinates":[[[2.41992,50.54649],[2.42002,50.54647],[2.41996,50.54612],[2.41992,50.54649]]]}},{"type":"Feature","properties":{"k":"LUZ","s":0.596},"geometry":{"type":"Polygon","coordinates":[[[2.41992,50.54649],[2.41983,50.54616],[2.4178,50.54671],[2.4177,50.5471],[2.41992,50.54649]]]}},{"type":"Feature","properties":{"k":"PPH","s":0.914},"geometry":{"type":"Polygon","coordinates":[[[2.41705,50.54521],[2.41571,50.54571],[2.41627,50.54636],[2.41741,50.54605],[2.41705,50.54521]]]}},{"type":"Feature","properties":{"k":"BTH","s":0.56},"geometry":{"type":"Polygon","coordinates":[[[2.41533,50.56001],[2.41406,50.56015],[2.41531,50.56066],[2.41606,50.56016],[2.41533,50.56001]]]}},{"type":"Feature","properties":{"k":"BTH","s":0.051},"geometry":{"type":"MultiPolygon","coordinates":[[[[2.39704,50.54282],[2.39801,50.54344],[2.39659,50.54248],[2.39704,50.54282]]],[[[2.3999,50.54237],[2.39924,50.54287],[2.39927,50.54288],[2.3999,50.54237]]]]}},{"type":"Feature","properties":{"k":"BTH","s":2.136},"geometry":{"type":"Polygon","coordinates":[[[2.39872,50.54468],[2.39918,50.54422],[2.39672,50.5426],[2.39576,50.54333],[2.39872,50.54468]]]}},{"type":"Feature","properties":{"k":"MIS","s":1.281},"geometry":{"type":"Polygon","coordinates":[[[2.40097,50.54428],[2.40112,50.54321],[2.39914,50.54483],[2.40012,50.5452],[2.40097,50.54428]]]}},{"type":"Feature","properties":{"k":"BTH","s":8.811},"geometry":{"type":"Polygon","coordinates":[[[2.39605,50.54351],[2.39408,50.54538],[2.39723,50.54668],[2.39757,50.54641],[2.39921,50.54701],[2.40017,50.54528],[2.3982,50.5446],[2.39605,50.54351]]]}},{"type":"Feature","properties":{"k":"MIS","s":1.828},"geometry":{"type":"Polygon","coordinates":[[[2.40692,50.55767],[2.40601,50.55821],[2.4066,50.55867],[2.40802,50.55772],[2.40795,50.55769],[2.40668,50.55713],[2.40666,50.55712],[2.4063,50.55696],[2.40446,50.55617],[2.4043,50.5563],[2.40472,50.55673],[2.40692,50.55767]]]}},{"type":"Feature","properties":{"k":"ORH","s":1.447},"geometry":{"type":"Polygon","coordinates":[[[2.41504,50.54769],[2.41684,50.54713],[2.41657,50.54669],[2.4159,50.54703],[2.41515,50.54606],[2.41482,50.5462],[2.4154,50.54708],[2.41522,50.5471],[2.41456,50.54631],[2.41405,50.54648],[2.41504,50.54769]]]}},{"type":"Feature","properties":{"k":"BTH","s":0.972},"geometry":{"type":"Polygon","coordinates":[[[2.40111,50.54684],[2.4021,50.54753],[2.40267,50.54744],[2.40039,50.54591],[2.39998,50.54632],[2.40098,50.54693],[2.40111,50.54684]]]}},{"type":"Feature","properties":{"k":"BTH","s":1.836},"geometry":{"type":"Polygon","coordinates":[[[2.40097,50.54626],[2.40267,50.54743],[2.40409,50.54698],[2.40282,50.54642],[2.40178,50.54569],[2.40097,50.54626]]]}},{"type":"Feature","properties":{"k":"PTC","s":0.003},"geometry":{"type":"Polygon","coordinates":[[[2.39408,50.54538],[2.3938,50.54574],[2.3941,50.54539],[2.39408,50.54538]]]}},{"type":"Feature","properties":{"k":"PHF","s":5.786},"geometry":{"type":"Polygon","coordinates":[[[2.39364,50.5473],[2.39166,50.54895],[2.39219,50.54922],[2.39132,50.54992],[2.392,50.55019],[2.39089,50.55119],[2.39224,50.55111],[2.39549,50.54825],[2.39364,50.5473]]]}},{"type":"Feature","properties":{"k":"BTH","s":1.758},"geometry":{"type":"Polygon","coordinates":[[[2.40791,50.55931],[2.40956,50.5579],[2.40905,50.55769],[2.40869,50.558],[2.40802,50.55772],[2.40664,50.55866],[2.40791,50.55931]]]}},{"type":"Feature","properties":{"k":"PPH","s":0.636},"geometry":{"type":"MultiPolygon","coordinates":[[[[2.40599,50.55822],[2.40557,50.55846],[2.40629,50.55905],[2.40798,50.5594],[2.40599,50.55822]]],[[[2.40426,50.55643],[2.40469,50.55672],[2.40444,50.55647],[2.40426,50.55643]]]]}},{"type":"Feature","properties":{"k":"PPH","s":0.536},"geometry":{"type":"Polygon","coordinates":[[[2.41318,50.54694],[2.41252,50.5471],[2.41394,50.5481],[2.41432,50.54795],[2.41318,50.54694]]]}},{"type":"Feature","properties":{"k":"JAC","s":0.488},"geometry":{"type":"Polygon","coordinates":[[[2.40099,50.54535],[2.40044,50.54593],[2.40104,50.54631],[2.40186,50.5457],[2.40099,50.54535]]]}},{"type":"Feature","properties":{"k":"CZH","s":1.885},"geometry":{"type":"Polygon","coordinates":[[[2.39846,50.5486],[2.40012,50.5491],[2.40091,50.54817],[2.39934,50.54749],[2.39927,50.54721],[2.39846,50.5486]]]}},{"type":"Feature","properties":{"k":"BTH","s":0.016},"geometry":{"type":"Polygon","coordinates":[[[2.38835,50.55059],[2.38831,50.55058],[2.38807,50.5512],[2.38835,50.55059]]]}},{"type":"Feature","properties":{"k":"BTH","s":7.915},"geometry":{"type":"Polygon","coordinates":[[[2.4087,50.55799],[2.40904,50.55767],[2.40978,50.55798],[2.41185,50.5562],[2.41076,50.55556],[2.41255,50.55335],[2.41176,50.55291],[2.40731,50.55741],[2.4087,50.55799]]]}},{"type":"Feature","properties":{"k":"BTH","s":12.439},"geometry":{"type":"Polygon","coordinates":[[[2.41687,50.55919],[2.41726,50.55783],[2.41498,50.55722],[2.41474,50.55733],[2.41187,50.55618],[2.40979,50.55798],[2.41022,50.55815],[2.41005,50.5583],[2.41087,50.5586],[2.41069,50.55876],[2.41303,50.55972],[2.41687,50.55919]]]}},{"type":"Feature","properties":{"k":"MIS","s":1.703},"geometry":{"type":"Polygon","coordinates":[[[2.40214,50.54584],[2.40296,50.5465],[2.4039,50.54685],[2.40435,50.54637],[2.40123,50.54474],[2.40099,50.54535],[2.40214,50.54584]]]}},{"type":"Feature","properties":{"k":"PPH","s":0.543},"geometry":{"type":"Polygon","coordinates":[[[2.40218,50.54498],[2.40206,50.54509],[2.40126,50.54467],[2.40435,50.54637],[2.40454,50.54616],[2.40218,50.54498]]]}},{"type":"Feature","properties":{"k":"BTH","s":1.181},"geometry":{"type":"Polygon","coordinates":[[[2.3953,50.54954],[2.39675,50.55045],[2.39752,50.54994],[2.39586,50.54896],[2.3953,50.54954]]]}},{"type":"Feature","properties":{"k":"MIS","s":0.77},"geometry":{"type":"Polygon","coordinates":[[[2.39466,50.55014],[2.39559,50.55058],[2.39597,50.54999],[2.39516,50.54947],[2.39393,50.55052],[2.39408,50.55059],[2.39466,50.55014]]]}},{"type":"Feature","properties":{"k":"PPH","s":0.689},"geometry":{"type":"Polygon","coordinates":[[[2.41624,50.54535],[2.41535,50.54432],[2.4148,50.5445],[2.41559,50.54563],[2.41624,50.54535]]]}},{"type":"Feature","properties":{"k":"BTH","s":1.458},"geometry":{"type":"Polygon","coordinates":[[[2.41559,50.54563],[2.4148,50.5445],[2.41347,50.54496],[2.41464,50.54615],[2.41559,50.54563]]]}},{"type":"Feature","properties":{"k":"BTH","s":3.341},"geometry":{"type":"Polygon","coordinates":[[[2.41336,50.54485],[2.4106,50.54621],[2.41219,50.54692],[2.41464,50.54615],[2.41336,50.54485]]]}},{"type":"Feature","properties":{"k":"MIS","s":2.105},"geometry":{"type":"Polygon","coordinates":[[[2.41256,50.54835],[2.41127,50.54741],[2.4091,50.54773],[2.41156,50.54897],[2.41256,50.54835]]]}},{"type":"Feature","properties":{"k":"MIS","s":19.61},"geometry":{"type":"Polygon","coordinates":[[[2.40129,50.54351],[2.40118,50.54462],[2.40651,50.54704],[2.40741,50.54587],[2.40772,50.54601],[2.40676,50.54715],[2.40881,50.54773],[2.41124,50.54735],[2.41211,50.54697],[2.40645,50.54424],[2.40566,50.54373],[2.40317,50.54267],[2.4014,50.54196],[2.40086,50.54243],[2.40129,50.54351]]]}},{"type":"Feature","properties":{"k":"ORH","s":3.808},"geometry":{"type":"Polygon","coordinates":[[[2.40569,50.54866],[2.40708,50.54893],[2.4084,50.54812],[2.40562,50.5469],[2.40381,50.54713],[2.40504,50.54803],[2.40486,50.54817],[2.40569,50.54866]]]}},{"type":"Feature","properties":{"k":"PPH","s":0.358},"geometry":{"type":"Polygon","coordinates":[[[2.40338,50.54728],[2.40481,50.54819],[2.40501,50.54805],[2.40376,50.54716],[2.40338,50.54728]]]}},{"type":"Feature","properties":{"k":"ORH","s":15.589},"geometry":{"type":"Polygon","coordinates":[[[2.40065,50.54859],[2.40378,50.54978],[2.40224,50.55123],[2.40433,50.55123],[2.40685,50.55197],[2.40765,50.55201],[2.40875,50.55087],[2.40787,50.55053],[2.40966,50.5512],[2.41015,50.55081],[2.40701,50.54942],[2.40745,50.54911],[2.40531,50.54854],[2.40336,50.54731],[2.40189,50.5477],[2.40109,50.54813],[2.40065,50.54859]]]}},{"type":"Feature","properties":{"k":"BTH","s":3.639},"geometry":{"type":"Polygon","coordinates":[[[2.40712,50.54942],[2.41019,50.55079],[2.41064,50.55032],[2.41089,50.55041],[2.4109,50.54951],[2.40814,50.54849],[2.40712,50.54942]]]}},{"type":"Feature","properties":{"k":"BTN","s":1.499},"geometry":{"type":"Polygon","coordinates":[[[2.4006,50.55064],[2.40054,50.55088],[2.40096,50.55097],[2.40266,50.5494],[2.40178,50.54903],[2.40029,50.55045],[2.4006,50.55064]]]}},{"type":"Feature","properties":{"k":"BTH","s":5.743},"geometry":{"type":"Polygon","coordinates":[[[2.40311,50.55509],[2.40591,50.55178],[2.40457,50.55136],[2.40378,50.55131],[2.40173,50.55403],[2.40311,50.55509]]]}},{"type":"Feature","properties":{"k":"BTN","s":3.483},"geometry":{"type":"Polygon","coordinates":[[[2.40372,50.55576],[2.40698,50.55208],[2.40591,50.55178],[2.40311,50.55509],[2.40372,50.55576]]]}},{"type":"Feature","properties":{"k":"BTH","s":4.975},"geometry":{"type":"Polygon","coordinates":[[[2.40426,50.55633],[2.40771,50.55337],[2.40858,50.55205],[2.40698,50.55208],[2.40373,50.55578],[2.40426,50.55633]]]}},{"type":"Feature","properties":{"k":"PTC","s":8.89},"geometry":{"type":"Polygon","coordinates":[[[2.40931,50.55396],[2.4089,50.55441],[2.40911,50.5542],[2.41138,50.55189],[2.40858,50.55206],[2.40771,50.55337],[2.40446,50.55617],[2.4063,50.55696],[2.40931,50.55396]]]}},{"type":"Feature","properties":{"k":"PHF","s":5.004},"geometry":{"type":"Polygon","coordinates":[[[2.4063,50.55696],[2.40731,50.55741],[2.41176,50.55291],[2.41086,50.55242],[2.4063,50.55696]]]}},{"type":"Feature","properties":{"k":"BTH","s":2.072},"geometry":{"type":"MultiPolygon","coordinates":[[[[2.41143,50.55589],[2.41313,50.55383],[2.4136,50.55325],[2.41315,50.55273],[2.4108,50.55552],[2.41143,50.55589]]]]}},{"type":"Feature","properties":{"k":"MLG","s":1.305},"geometry":{"type":"MultiPolygon","coordinates":[[[[2.41304,50.55275],[2.41288,50.55254],[2.41222,50.55211],[2.41155,50.55191],[2.41138,50.55189],[2.41086,50.55242],[2.41255,50.55335],[2.41304,50.55275]]],[[[2.41114,50.55187],[2.41106,50.55187],[2.41138,50.55189],[2.41114,50.55187]]]]}},{"type":"Feature","properties":{"k":"PPH","s":0.511},"geometry":{"type":"Polygon","coordinates":[[[2.41568,50.55353],[2.41524,50.55341],[2.4143,50.55366],[2.41545,50.55417],[2.41591,50.55379],[2.41568,50.55353]]]}},{"type":"Feature","properties":{"k":"BTH","s":8.297},"geometry":{"type":"Polygon","coordinates":[[[2.41471,50.55728],[2.41625,50.55455],[2.41395,50.55351],[2.41363,50.55323],[2.41143,50.55589],[2.41471,50.55728]]]}},{"type":"Feature","properties":{"k":"BTH","s":1.267},"geometry":{"type":"Polygon","coordinates":[[[2.4118,50.55184],[2.41164,50.55133],[2.41064,50.55032],[2.40978,50.55118],[2.41096,50.55175],[2.4118,50.55184]]]}},{"type":"Feature","properties":{"k":"PTC","s":1.151},"geometry":{"type":"Polygon","coordinates":[[[2.39059,50.55205],[2.39166,50.55123],[2.3884,50.55146],[2.38961,50.55213],[2.39026,50.55181],[2.39059,50.55205]]]}},{"type":"Feature","properties":{"k":"BTN","s":2.21},"geometry":{"type":"Polygon","coordinates":[[[2.39224,50.55111],[2.39272,50.55108],[2.39312,50.55069],[2.39348,50.55087],[2.39621,50.54862],[2.39549,50.54825],[2.39224,50.55111]]]}},{"type":"Feature","properties":{"k":"BTH","s":2.947},"geometry":{"type":"Polygon","coordinates":[[[2.39389,50.5518],[2.39302,50.55133],[2.39326,50.5511],[2.39167,50.55122],[2.39059,50.55205],[2.39173,50.55322],[2.39389,50.5518]]]}},{"type":"Feature","properties":{"k":"BTH","s":0.036},"geometry":{"type":"Polygon","coordinates":[[[2.39025,50.55181],[2.39086,50.55241],[2.39093,50.55237],[2.39025,50.55181]]]}},{"type":"Feature","properties":{"k":"BTH","s":1.632},"geometry":{"type":"Polygon","coordinates":[[[2.39591,50.55229],[2.3966,50.55158],[2.3958,50.55119],[2.39372,50.55293],[2.39435,50.55323],[2.39591,50.55229]]]}},{"type":"Feature","properties":{"k":"BTH","s":1.646},"geometry":{"type":"Polygon","coordinates":[[[2.41292,50.55129],[2.41368,50.5507],[2.41096,50.5496],[2.41097,50.55038],[2.41292,50.55129]]]}},{"type":"Feature","properties":{"k":"BTH","s":7.636},"geometry":{"type":"Polygon","coordinates":[[[2.40908,50.54773],[2.40866,50.54814],[2.41098,50.54931],[2.4129,50.54993],[2.41546,50.55117],[2.41669,50.5503],[2.41343,50.54782],[2.41156,50.54897],[2.40908,50.54773]]]}},{"type":"Feature","properties":{"k":"MIS","s":0.018},"geometry":{"type":"Polygon","coordinates":[[[2.41504,50.54769],[2.41421,50.548],[2.41607,50.54735],[2.41504,50.54769]]]}},{"type":"Feature","properties":{"k":"BTH","s":1.026},"geometry":{"type":"Polygon","coordinates":[[[2.41504,50.54769],[2.41397,50.54651],[2.41303,50.5468],[2.41432,50.54795],[2.41504,50.54769]]]}},{"type":"Feature","properties":{"k":"BTH","s":2.058},"geometry":{"type":"Polygon","coordinates":[[[2.39389,50.5518],[2.39173,50.55322],[2.39185,50.55336],[2.39217,50.55317],[2.39355,50.55383],[2.39436,50.55323],[2.39372,50.55293],[2.39468,50.5522],[2.39389,50.5518]]]}},{"type":"Feature","properties":{"k":"BTN","s":5.639},"geometry":{"type":"MultiPolygon","coordinates":[[[[2.40402,50.55623],[2.4024,50.55466],[2.40048,50.55336],[2.4002,50.55353],[2.39829,50.55205],[2.39682,50.55148],[2.39588,50.55238],[2.39759,50.55308],[2.39737,50.55335],[2.39837,50.55386],[2.39954,50.55337],[2.40096,50.55458],[2.40402,50.55623]]]]}},{"type":"Feature","properties":{"k":"MIS","s":4.669},"geometry":{"type":"Polygon","coordinates":[[[2.40379,50.5513],[2.40235,50.55132],[2.40061,50.55098],[2.40037,50.55136],[2.40077,50.55228],[2.4001,50.55276],[2.40172,50.55402],[2.40379,50.5513]]]}},{"type":"Feature","properties":{"k":"PPH","s":0.727},"geometry":{"type":"Polygon","coordinates":[[[2.3983,50.54953],[2.39855,50.55038],[2.39961,50.55063],[2.39998,50.55033],[2.3983,50.54953]]]}},{"type":"Feature","properties":{"k":"PPH","s":1.654},"geometry":{"type":"Polygon","coordinates":[[[2.39816,50.54893],[2.39836,50.55034],[2.39752,50.54994],[2.39699,50.55029],[2.39807,50.55119],[2.39945,50.55093],[2.39928,50.55058],[2.39857,50.55045],[2.3983,50.54951],[2.39843,50.54856],[2.39923,50.54709],[2.39816,50.54893]]]}},{"type":"Feature","properties":{"k":"ORH","s":3.449},"geometry":{"type":"Polygon","coordinates":[[[2.39588,50.54895],[2.39824,50.55028],[2.3982,50.5487],[2.39905,50.54726],[2.39879,50.54714],[2.39892,50.54697],[2.39861,50.5469],[2.39588,50.54895]]]}},{"type":"Feature","properties":{"k":"BTH","s":1.182},"geometry":{"type":"Polygon","coordinates":[[[2.3983,50.54953],[2.3997,50.55009],[2.39956,50.5498],[2.40012,50.5491],[2.39846,50.5486],[2.3983,50.54953]]]}},{"type":"Feature","properties":{"k":"BTH","s":1.51},"geometry":{"type":"Polygon","coordinates":[[[2.39966,50.54995],[2.40029,50.55045],[2.40175,50.54905],[2.40068,50.54861],[2.3999,50.54942],[2.39966,50.54995]]]}},{"type":"Feature","properties":{"k":"JAC","s":0.021},"geometry":{"type":"Polygon","coordinates":[[[2.4267,50.53792],[2.42668,50.53791],[2.42575,50.53863],[2.4267,50.53792]]]}}]}