{"type":"FeatureCollection","features":[{"type":"Feature","properties":{"k":"JAC","s":1.669},"geometry":{"type":"Polygon","coordinates":[[[2.3448,50.5639],[2.34334,50.5651],[2.34431,50.56565],[2.34598,50.56454],[2.3448,50.5639]]]}},{"type":"Feature","properties":{"k":"JAC","s":0.768},"geometry":{"type":"Polygon","coordinates":[[[2.34481,50.56391],[2.34598,50.56455],[2.34657,50.56413],[2.34551,50.56338],[2.34481,50.56391]]]}},{"type":"Feature","properties":{"k":"PTR","s":0.125},"geometry":{"type":"Polygon","coordinates":[[[2.34094,50.56595],[2.34066,50.56618],[2.34127,50.56636],[2.34139,50.5662],[2.34094,50.56595]],[[2.34125,50.56614],[2.34095,50.56602],[2.34096,50.56601],[2.34125,50.56614]]]}},{"type":"Feature","properties":{"k":"MIS","s":1.623},"geometry":{"type":"Polygon","coordinates":[[[2.34026,50.566],[2.33835,50.56737],[2.33858,50.56753],[2.33927,50.56701],[2.3404,50.56759],[2.34127,50.56636],[2.34046,50.56609],[2.34026,50.566]]]}},{"type":"Feature","properties":{"k":"MIS","s":1.549},"geometry":{"type":"Polygon","coordinates":[[[2.3415,50.56812],[2.34342,50.56875],[2.34421,50.56824],[2.34113,50.56722],[2.34093,50.56756],[2.34169,50.56791],[2.3415,50.56812]]]}},{"type":"Feature","properties":{"k":"MIS","s":0.557},"geometry":{"type":"Polygon","coordinates":[[[2.34118,50.56843],[2.34309,50.56897],[2.34341,50.56874],[2.34148,50.56812],[2.34118,50.56843]]]}},{"type":"Feature","properties":{"k":"PPH","s":3.479},"geometry":{"type":"Polygon","coordinates":[[[2.34123,50.57013],[2.34253,50.56928],[2.3408,50.56883],[2.34165,50.56792],[2.3409,50.56758],[2.33884,50.5691],[2.33995,50.56955],[2.33967,50.56992],[2.34123,50.57013]]]}},{"type":"Feature","properties":{"k":"LUZ","s":0.516},"geometry":{"type":"Polygon","coordinates":[[[2.33982,50.57135],[2.34018,50.57155],[2.34033,50.57146],[2.34053,50.57159],[2.34134,50.57087],[2.34079,50.57067],[2.33982,50.57135]]]}},{"type":"Feature","properties":{"k":"BTH","s":0.317},"geometry":{"type":"Polygon","coordinates":[[[2.34222,50.57121],[2.3416,50.57098],[2.34073,50.57169],[2.34091,50.57177],[2.3414,50.57134],[2.34184,50.57155],[2.34222,50.57121]]]}},{"type":"Feature","properties":{"k":"PTR","s":0.433},"geometry":{"type":"Polygon","coordinates":[[[2.34298,50.57001],[2.34377,50.57033],[2.34367,50.57053],[2.34387,50.57058],[2.34433,50.5701],[2.34324,50.56964],[2.34298,50.57001]]]}},{"type":"Feature","properties":{"k":"LUZ","s":0.533},"geometry":{"type":"Polygon","coordinates":[[[2.34365,50.57148],[2.34426,50.5708],[2.34307,50.57061],[2.34268,50.57091],[2.34361,50.5713],[2.34365,50.57148]]]}},{"type":"Feature","properties":{"k":"BTN","s":3.419},"geometry":{"type":"Polygon","coordinates":[[[2.34397,50.5706],[2.34483,50.57081],[2.3466,50.57086],[2.34781,50.57011],[2.34565,50.56888],[2.34397,50.5706]]]}},{"type":"Feature","properties":{"k":"PPH","s":1.743},"geometry":{"type":"Polygon","coordinates":[[[2.34543,50.56896],[2.34409,50.56853],[2.34247,50.57028],[2.34271,50.57032],[2.34324,50.56964],[2.34433,50.5701],[2.34543,50.56896]]]}},{"type":"Feature","properties":{"k":"MIS","s":3.39},"geometry":{"type":"Polygon","coordinates":[[[2.34544,50.56895],[2.34852,50.56699],[2.34741,50.5664],[2.34415,50.56848],[2.34544,50.56895]]]}},{"type":"Feature","properties":{"k":"JAC","s":1.19},"geometry":{"type":"Polygon","coordinates":[[[2.34752,50.56952],[2.34794,50.56923],[2.34764,50.56906],[2.34808,50.56868],[2.34698,50.56806],[2.346,50.56866],[2.34752,50.56952]]]}},{"type":"Feature","properties":{"k":"BTH","s":1.126},"geometry":{"type":"Polygon","coordinates":[[[2.34986,50.57027],[2.35042,50.56994],[2.34808,50.56868],[2.34764,50.56906],[2.34986,50.57027]]]}},{"type":"Feature","properties":{"k":"BTH","s":1.216},"geometry":{"type":"Polygon","coordinates":[[[2.34696,50.56805],[2.34786,50.56856],[2.35041,50.56994],[2.35077,50.56972],[2.34733,50.56781],[2.34696,50.56805]]]}},{"type":"Feature","properties":{"k":"MIS","s":1.739},"geometry":{"type":"Polygon","coordinates":[[[2.35077,50.56972],[2.35129,50.56939],[2.34784,50.56745],[2.34733,50.56781],[2.35077,50.56972]]]}},{"type":"Feature","properties":{"k":"PPH","s":0.372},"geometry":{"type":"Polygon","coordinates":[[[2.35267,50.56959],[2.35182,50.56901],[2.3516,50.56924],[2.35285,50.57008],[2.35313,50.5699],[2.35267,50.56959]]]}},{"type":"Feature","properties":{"k":"BTN","s":0.654},"geometry":{"type":"Polygon","coordinates":[[[2.35114,50.56952],[2.35266,50.57049],[2.35304,50.5702],[2.3516,50.56924],[2.35114,50.56952]]]}},{"type":"Feature","properties":{"k":"BTH","s":0.637},"geometry":{"type":"Polygon","coordinates":[[[2.35193,50.57099],[2.35228,50.57073],[2.35073,50.5698],[2.35027,50.57008],[2.35193,50.57099]]]}},{"type":"Feature","properties":{"k":"CZH","s":2.981},"geometry":{"type":"Polygon","coordinates":[[[2.34806,50.57144],[2.3504,50.57204],[2.35191,50.57099],[2.35027,50.57008],[2.34806,50.57144]]]}},{"type":"Feature","properties":{"k":"BTH","s":1.265},"geometry":{"type":"Polygon","coordinates":[[[2.34797,50.57143],[2.34902,50.57078],[2.34781,50.57011],[2.34672,50.57091],[2.34797,50.57143]]]}},{"type":"Feature","properties":{"k":"ORH","s":0.809},"geometry":{"type":"Polygon","coordinates":[[[2.34752,50.56952],[2.34936,50.57056],[2.34986,50.57027],[2.34794,50.56923],[2.34752,50.56952]]]}},{"type":"Feature","properties":{"k":"MIS","s":1.106},"geometry":{"type":"Polygon","coordinates":[[[2.34902,50.57078],[2.34936,50.57056],[2.346,50.56866],[2.34565,50.56888],[2.34902,50.57078]]]}},{"type":"Feature","properties":{"k":"PTC","s":4.239},"geometry":{"type":"Polygon","coordinates":[[[2.34782,50.57147],[2.34636,50.57093],[2.34536,50.57093],[2.34481,50.57145],[2.34892,50.57312],[2.35033,50.5721],[2.34782,50.57147]]]}},{"type":"Feature","properties":{"k":"BTH","s":5.078},"geometry":{"type":"Polygon","coordinates":[[[2.34345,50.57245],[2.34771,50.57402],[2.34897,50.57313],[2.34481,50.57145],[2.34536,50.57093],[2.34503,50.5709],[2.34345,50.57245]]]}},{"type":"Feature","properties":{"k":"BTN","s":4.342},"geometry":{"type":"Polygon","coordinates":[[[2.34072,50.57272],[2.34005,50.5735],[2.34564,50.57547],[2.3465,50.57484],[2.34072,50.57272]]]}},{"type":"Feature","properties":{"k":"BTH","s":4.911},"geometry":{"type":"Polygon","coordinates":[[[2.34147,50.57198],[2.34072,50.57272],[2.3465,50.57484],[2.34749,50.57413],[2.34147,50.57198]]]}},{"type":"Feature","properties":{"k":"BTH","s":1.959},"geometry":{"type":"Polygon","coordinates":[[[2.34146,50.57197],[2.34331,50.57262],[2.34424,50.5717],[2.34267,50.5709],[2.34146,50.57197]]]}},{"type":"Feature","properties":{"k":"MIS","s":0.213},"geometry":{"type":"Polygon","coordinates":[[[2.34138,50.57198],[2.34184,50.57154],[2.34142,50.57136],[2.34095,50.57178],[2.34138,50.57198]]]}},{"type":"Feature","properties":{"k":"MIS","s":0.499},"geometry":{"type":"Polygon","coordinates":[[[2.34073,50.57169],[2.34162,50.57097],[2.34134,50.57087],[2.34053,50.57159],[2.34033,50.57146],[2.34002,50.5717],[2.34114,50.57221],[2.34138,50.57198],[2.34073,50.57169]]]}},{"type":"Feature","properties":{"k":"BTH","s":1.734},"geometry":{"type":"Polygon","coordinates":[[[2.33854,50.57244],[2.33923,50.57271],[2.3395,50.5728],[2.33965,50.57265],[2.34045,50.57297],[2.34115,50.5722],[2.3396,50.57146],[2.33844,50.57221],[2.33866,50.57232],[2.33854,50.57244]]]}},{"type":"Feature","properties":{"k":"BTH","s":4.901},"geometry":{"type":"Polygon","coordinates":[[[2.34005,50.57351],[2.33915,50.57444],[2.34465,50.57615],[2.34564,50.57547],[2.34005,50.57351]]]}},{"type":"Feature","properties":{"k":"BTH","s":1.438},"geometry":{"type":"Polygon","coordinates":[[[2.33967,50.57266],[2.33807,50.57419],[2.33889,50.57461],[2.34039,50.57303],[2.33967,50.57266]]]}},{"type":"Feature","properties":{"k":"ORH","s":3.179},"geometry":{"type":"Polygon","coordinates":[[[2.33733,50.57382],[2.33645,50.57374],[2.336,50.57403],[2.33675,50.57442],[2.33577,50.57533],[2.33736,50.57613],[2.33887,50.57464],[2.33733,50.57382]]]}},{"type":"Feature","properties":{"k":"AVH","s":0.569},"geometry":{"type":"Polygon","coordinates":[[[2.33534,50.57499],[2.3356,50.57512],[2.33656,50.57435],[2.336,50.57403],[2.33523,50.57467],[2.33549,50.57484],[2.33534,50.57499]]]}},{"type":"Feature","properties":{"k":"PTC","s":4.415},"geometry":{"type":"Polygon","coordinates":[[[2.33418,50.57378],[2.33618,50.5729],[2.33514,50.57237],[2.33494,50.57248],[2.33351,50.57166],[2.33291,50.57138],[2.33125,50.57238],[2.33139,50.57247],[2.33058,50.57334],[2.33149,50.5725],[2.33418,50.57378]],[[2.33307,50.57194],[2.33193,50.57264],[2.33351,50.57166],[2.33307,50.57194]]]}},{"type":"Feature","properties":{"k":"PPH","s":0.387},"geometry":{"type":"Polygon","coordinates":[[[2.33395,50.5711],[2.33347,50.57161],[2.33407,50.57195],[2.33458,50.57142],[2.33395,50.5711]]]}},{"type":"Feature","properties":{"k":"PPH","s":1.0},"geometry":{"type":"Polygon","coordinates":[[[2.33619,50.5729],[2.33677,50.57245],[2.33673,50.57183],[2.33611,50.57167],[2.33576,50.57203],[2.33549,50.57197],[2.33518,50.5724],[2.33619,50.5729]]]}},{"type":"Feature","properties":{"k":"MIS","s":2.096},"geometry":{"type":"Polygon","coordinates":[[[2.33805,50.57417],[2.3395,50.5728],[2.33854,50.57244],[2.33793,50.57299],[2.3374,50.57278],[2.33623,50.57359],[2.33649,50.57375],[2.33736,50.57383],[2.33805,50.57417]]]}},{"type":"Feature","properties":{"k":"PPH","s":5.189},"geometry":{"type":"Polygon","coordinates":[[[2.33566,50.56945],[2.33617,50.56931],[2.33674,50.5689],[2.33705,50.56909],[2.33723,50.56896],[2.3377,50.56925],[2.33785,50.5691],[2.33814,50.56923],[2.33798,50.56939],[2.33818,50.56948],[2.33849,50.5692],[2.33388,50.56605],[2.33386,50.56776],[2.33486,50.56698],[2.33528,50.56723],[2.3343,50.56817],[2.33384,50.56801],[2.33338,50.56854],[2.33566,50.56945]]]}},{"type":"Feature","properties":{"k":"PPH","s":0.596},"geometry":{"type":"Polygon","coordinates":[[[2.33384,50.56801],[2.3343,50.56817],[2.33528,50.56723],[2.33486,50.56698],[2.33384,50.56801]]]}},{"type":"Feature","properties":{"k":"PPH","s":0.621},"geometry":{"type":"Polygon","coordinates":[[[2.33655,50.57037],[2.33674,50.57027],[2.33654,50.57016],[2.33716,50.56972],[2.33648,50.56938],[2.33553,50.5696],[2.33655,50.57037]]]}},{"type":"Feature","properties":{"k":"PPH","s":3.066},"geometry":{"type":"Polygon","coordinates":[[[2.33668,50.5717],[2.33705,50.57121],[2.33628,50.57064],[2.33653,50.57038],[2.33547,50.5696],[2.33501,50.56939],[2.33319,50.56996],[2.33429,50.57071],[2.33457,50.57045],[2.33569,50.57103],[2.33543,50.5714],[2.33668,50.5717]]]}},{"type":"Feature","properties":{"k":"MIS","s":0.674},"geometry":{"type":"Polygon","coordinates":[[[2.33377,50.57117],[2.33422,50.57074],[2.33313,50.57009],[2.3325,50.57049],[2.33377,50.57117]]]}},{"type":"Feature","properties":{"k":"ORH","s":1.722},"geometry":{"type":"Polygon","coordinates":[[[2.3317,50.57079],[2.33327,50.57153],[2.33377,50.57117],[2.33246,50.5705],[2.33272,50.57034],[2.33219,50.57006],[2.3297,50.57156],[2.33011,50.57177],[2.3317,50.57079]]]}},{"type":"Feature","properties":{"k":"MIS","s":0.58},"geometry":{"type":"Polygon","coordinates":[[[2.33051,50.57029],[2.33064,50.57032],[2.33142,50.57032],[2.33206,50.57008],[2.33102,50.5696],[2.33018,50.5702],[2.33051,50.57029]]]}},{"type":"Feature","properties":{"k":"PPH","s":0.728},"geometry":{"type":"Polygon","coordinates":[[[2.33188,50.56792],[2.33325,50.56849],[2.33377,50.56801],[2.33243,50.56748],[2.33188,50.56792]]]}},{"type":"Feature","properties":{"k":"ORH","s":8.231},"geometry":{"type":"Polygon","coordinates":[[[2.32703,50.56665],[2.32961,50.56834],[2.33127,50.56921],[2.33295,50.5699],[2.33473,50.56939],[2.33392,50.56886],[2.33121,50.56768],[2.3286,50.56565],[2.32703,50.56665]]]}},{"type":"Feature","properties":{"k":"ORH","s":2.655},"geometry":{"type":"Polygon","coordinates":[[[2.33252,50.56983],[2.32964,50.56838],[2.32833,50.56937],[2.33027,50.57023],[2.33091,50.5697],[2.33088,50.56952],[2.33206,50.57007],[2.33252,50.56983]]]}},{"type":"Feature","properties":{"k":"BTH","s":0.769},"geometry":{"type":"Polygon","coordinates":[[[2.32833,50.56937],[2.32965,50.56837],[2.32915,50.56806],[2.32776,50.56902],[2.32833,50.56937]]]}},{"type":"Feature","properties":{"k":"BTH","s":0.751},"geometry":{"type":"Polygon","coordinates":[[[2.32757,50.56961],[2.32823,50.56996],[2.32928,50.57025],[2.32986,50.57011],[2.328,50.56924],[2.32757,50.56961]]]}},{"type":"Feature","properties":{"k":"PPH","s":1.087},"geometry":{"type":"Polygon","coordinates":[[[2.3291,50.5703],[2.32775,50.5699],[2.32837,50.57103],[2.32869,50.57115],[2.33027,50.57028],[2.3291,50.5703]]]}},{"type":"Feature","properties":{"k":"PPH","s":1.166},"geometry":{"type":"Polygon","coordinates":[[[2.32959,50.5716],[2.33118,50.57063],[2.33029,50.57029],[2.32868,50.57117],[2.32959,50.5716]]]}},{"type":"Feature","properties":{"k":"BTH","s":1.966},"geometry":{"type":"Polygon","coordinates":[[[2.32785,50.5722],[2.32729,50.57297],[2.3277,50.57309],[2.32893,50.57147],[2.32759,50.57071],[2.32671,50.57186],[2.32785,50.5722]]]}},{"type":"Feature","properties":{"k":"BTN","s":2.632},"geometry":{"type":"Polygon","coordinates":[[[2.32673,50.57419],[2.32705,50.5741],[2.32672,50.5742],[2.32906,50.57359],[2.33005,50.57308],[2.32903,50.57258],[2.32989,50.57174],[2.32908,50.57137],[2.32789,50.57311],[2.32773,50.57306],[2.32673,50.57419]]]}},{"type":"Feature","properties":{"k":"ORH","s":1.515},"geometry":{"type":"Polygon","coordinates":[[[2.3299,50.57173],[2.32903,50.57258],[2.33058,50.57334],[2.33139,50.57247],[2.3299,50.57173]]]}},{"type":"Feature","properties":{"k":"MIS","s":0.792},"geometry":{"type":"Polygon","coordinates":[[[2.33069,50.5721],[2.33125,50.57238],[2.33291,50.57138],[2.33222,50.57118],[2.33069,50.5721]]]}},{"type":"Feature","properties":{"k":"MIS","s":0.868},"geometry":{"type":"Polygon","coordinates":[[[2.33071,50.5721],[2.33232,50.57112],[2.3317,50.57082],[2.33009,50.57179],[2.33071,50.5721]]]}},{"type":"Feature","properties":{"k":"PPH","s":2.955},"geometry":{"type":"Polygon","coordinates":[[[2.32909,50.57365],[2.33022,50.57427],[2.33012,50.5744],[2.32988,50.57424],[2.32974,50.5744],[2.32954,50.57427],[2.32915,50.57465],[2.32973,50.57495],[2.3304,50.57438],[2.33121,50.57485],[2.3326,50.57461],[2.33395,50.57399],[2.33337,50.57367],[2.33256,50.57443],[2.33015,50.57313],[2.32909,50.57365]]]}},{"type":"Feature","properties":{"k":"BTH","s":2.197},"geometry":{"type":"Polygon","coordinates":[[[2.33149,50.5725],[2.33064,50.5734],[2.33256,50.57443],[2.33354,50.57348],[2.33149,50.5725]]]}},{"type":"Feature","properties":{"k":"BTH","s":0.679},"geometry":{"type":"Polygon","coordinates":[[[2.32963,50.57419],[2.329,50.57369],[2.32783,50.57395],[2.32915,50.57465],[2.32963,50.57419]]]}},{"type":"Feature","properties":{"k":"MIS","s":1.637},"geometry":{"type":"Polygon","coordinates":[[[2.32682,50.57523],[2.32734,50.57568],[2.32859,50.5744],[2.3279,50.57403],[2.32754,50.57403],[2.32694,50.5742],[2.32617,50.57506],[2.32682,50.57523]]]}},{"type":"Feature","properties":{"k":"PTR","s":0.057},"geometry":{"type":"Polygon","coordinates":[[[2.32629,50.57483],[2.32603,50.57512],[2.32694,50.5742],[2.32629,50.57483]]]}},{"type":"Feature","properties":{"k":"MIS","s":0.623},"geometry":{"type":"Polygon","coordinates":[[[2.32421,50.57555],[2.32477,50.57554],[2.32571,50.57506],[2.32605,50.57469],[2.32572,50.57456],[2.32513,50.57473],[2.32421,50.57555]]]}},{"type":"Feature","properties":{"k":"ORH","s":0.361},"geometry":{"type":"Polygon","coordinates":[[[2.32353,50.5755],[2.32421,50.57555],[2.32499,50.57478],[2.32389,50.57508],[2.32353,50.5755]]]}},{"type":"Feature","properties":{"k":"MIS","s":0.163},"geometry":{"type":"Polygon","coordinates":[[[2.32425,50.5746],[2.32397,50.5745],[2.32343,50.57514],[2.32393,50.57502],[2.32425,50.5746]]]}},{"type":"Feature","properties":{"k":"ORH","s":0.56},"geometry":{"type":"Polygon","coordinates":[[[2.32393,50.57502],[2.32519,50.57466],[2.32559,50.57423],[2.32475,50.57403],[2.32393,50.57502]]]}},{"type":"Feature","properties":{"k":"BTH","s":0.391},"geometry":{"type":"Polygon","coordinates":[[[2.32672,50.5742],[2.32765,50.57314],[2.3273,50.57304],[2.32618,50.57434],[2.32672,50.5742]]]}},{"type":"Feature","properties":{"k":"MIS","s":1.038},"geometry":{"type":"Polygon","coordinates":[[[2.32636,50.57282],[2.32543,50.57415],[2.32618,50.57434],[2.3273,50.57304],[2.32636,50.57282]]]}},{"type":"Feature","properties":{"k":"ORH","s":6.941},"geometry":{"type":"Polygon","coordinates":[[[2.32636,50.57283],[2.32403,50.5721],[2.32387,50.57231],[2.3229,50.57182],[2.32301,50.57155],[2.3227,50.57139],[2.32015,50.5708],[2.32043,50.5721],[2.32244,50.57259],[2.3222,50.57346],[2.32545,50.57413],[2.32636,50.57283]]]}},{"type":"Feature","properties":{"k":"MIS","s":0.853},"geometry":{"type":"Polygon","coordinates":[[[2.32152,50.57555],[2.32082,50.5722],[2.32044,50.5721],[2.32104,50.5756],[2.32152,50.57555]]]}},{"type":"Feature","properties":{"k":"BTH","s":1.921},"geometry":{"type":"Polygon","coordinates":[[[2.3222,50.57346],[2.32244,50.57258],[2.32083,50.57223],[2.32152,50.57554],[2.322,50.57546],[2.3213,50.57326],[2.3222,50.57346]]]}},{"type":"Feature","properties":{"k":"PTR","s":0.421},"geometry":{"type":"Polygon","coordinates":[[[2.32165,50.57432],[2.32241,50.57353],[2.3213,50.57329],[2.32165,50.57432]]]}},{"type":"Feature","properties":{"k":"MIS","s":0.278},"geometry":{"type":"Polygon","coordinates":[[[2.32272,50.57359],[2.32242,50.57352],[2.32165,50.57432],[2.32174,50.57464],[2.32272,50.57359]]]}},{"type":"Feature","properties":{"k":"MIS","s":2.489},"geometry":{"type":"Polygon","coordinates":[[[2.32174,50.57464],[2.322,50.57546],[2.32343,50.57514],[2.32397,50.5745],[2.32426,50.5746],[2.32475,50.57404],[2.32271,50.5736],[2.32174,50.57464]]]}},{"type":"Feature","properties":{"k":"BTH","s":0.003},"geometry":{"type":"Polygon","coordinates":[]}},{"type":"Feature","properties":{"k":"PTC","s":1.001},"geometry":{"type":"Polygon","coordinates":[[[2.32012,50.56727],[2.3238,50.56911],[2.32404,50.5689],[2.32045,50.56707],[2.32012,50.56727]]]}},{"type":"Feature","properties":{"k":"MIS","s":7.484},"geometry":{"type":"Polygon","coordinates":[[[2.32011,50.56726],[2.31968,50.5675],[2.32007,50.56953],[2.32247,50.57049],[2.32313,50.56979],[2.32555,50.57104],[2.3262,50.57018],[2.32611,50.57026],[2.32011,50.56726]]]}},{"type":"Feature","properties":{"k":"MIS","s":1.203},"geometry":{"type":"Polygon","coordinates":[[[2.32163,50.57018],[2.31999,50.56955],[2.32016,50.57074],[2.32151,50.57106],[2.32163,50.57018]]]}},{"type":"Feature","properties":{"k":"PTC","s":4.008},"geometry":{"type":"Polygon","coordinates":[[[2.32247,50.57049],[2.32168,50.57016],[2.32157,50.57108],[2.32274,50.57138],[2.32324,50.57173],[2.32464,50.57225],[2.32555,50.57104],[2.32315,50.5698],[2.32247,50.57049]]]}},{"type":"Feature","properties":{"k":"PTC","s":1.394},"geometry":{"type":"Polygon","coordinates":[[[2.32408,50.56889],[2.3238,50.56911],[2.32611,50.57026],[2.3263,50.56993],[2.32713,50.56944],[2.32408,50.56889]]]}},{"type":"Feature","properties":{"k":"BTN","s":4.882},"geometry":{"type":"Polygon","coordinates":[[[2.32464,50.57225],[2.32729,50.57297],[2.32784,50.5722],[2.32671,50.57186],[2.32759,50.57071],[2.3283,50.57102],[2.32765,50.56974],[2.32711,50.56945],[2.32629,50.57004],[2.32464,50.57225]],[[2.32474,50.57226],[2.32468,50.57224],[2.32497,50.57186],[2.32474,50.57226]]]}},{"type":"Feature","properties":{"k":"BTH","s":18.524},"geometry":{"type":"Polygon","coordinates":[[[2.32004,50.56532],[2.32186,50.56623],[2.31972,50.56746],[2.32046,50.56707],[2.32394,50.56884],[2.32484,50.56912],[2.32669,50.56929],[2.32758,50.5696],[2.328,50.56924],[2.32575,50.56774],[2.32746,50.56885],[2.32884,50.56789],[2.32679,50.56649],[2.32495,50.56492],[2.3243,50.56498],[2.32306,50.56453],[2.3215,50.56502],[2.32142,50.56493],[2.32004,50.56532]],[[2.32433,50.56667],[2.32381,50.567],[2.32361,50.56688],[2.32417,50.56656],[2.32433,50.56667]]]}},{"type":"Feature","properties":{"k":"PTC","s":1.906},"geometry":{"type":"Polygon","coordinates":[[[2.32296,50.56443],[2.32524,50.56387],[2.32453,50.56303],[2.3217,50.56393],[2.32296,50.56443]]]}},{"type":"Feature","properties":{"k":"MIS","s":0.778},"geometry":{"type":"Polygon","coordinates":[[[2.32566,50.56472],[2.32633,50.56458],[2.32491,50.5629],[2.32454,50.56303],[2.32566,50.56472]]]}},{"type":"Feature","properties":{"k":"BTH","s":0.869},"geometry":{"type":"Polygon","coordinates":[[[2.3234,50.56461],[2.32442,50.56435],[2.3249,50.56488],[2.32566,50.56472],[2.3251,50.5639],[2.32296,50.56443],[2.3234,50.56461]]]}},{"type":"Feature","properties":{"k":"BTH","s":3.167},"geometry":{"type":"Polygon","coordinates":[[[2.32703,50.56665],[2.3286,50.56565],[2.32702,50.56453],[2.32501,50.56492],[2.32703,50.56665]]]}},{"type":"Feature","properties":{"k":"PTC","s":0.669},"geometry":{"type":"Polygon","coordinates":[[[2.32489,50.56285],[2.32577,50.56254],[2.32483,50.56181],[2.32413,50.56213],[2.32489,50.56285]]]}},{"type":"Feature","properties":{"k":"PTC","s":0.466},"geometry":{"type":"Polygon","coordinates":[[[2.32546,50.56166],[2.32483,50.56181],[2.32577,50.56254],[2.32633,50.56233],[2.32546,50.56166]]]}},{"type":"Feature","properties":{"k":"BTH","s":0.256},"geometry":{"type":"Polygon","coordinates":[[[2.32667,50.56222],[2.32572,50.56151],[2.32546,50.56165],[2.3264,50.56231],[2.32667,50.56222]]]}},{"type":"Feature","properties":{"k":"BTN","s":0.998},"geometry":{"type":"Polygon","coordinates":[[[2.327,50.56077],[2.32572,50.56151],[2.32642,50.56203],[2.32786,50.56127],[2.327,50.56077]]]}},{"type":"Feature","properties":{"k":"BTN","s":4.957},"geometry":{"type":"Polygon","coordinates":[[[2.32567,50.56014],[2.32409,50.56104],[2.3244,50.56128],[2.32351,50.56167],[2.32412,50.56212],[2.32511,50.56167],[2.32525,50.56177],[2.327,50.56077],[2.32844,50.56147],[2.32939,50.56057],[2.32659,50.55987],[2.32681,50.55965],[2.32611,50.55934],[2.32521,50.55988],[2.32567,50.56014]]]}},{"type":"Feature","properties":{"k":"ORH","s":4.819},"geometry":{"type":"Polygon","coordinates":[[[2.31878,50.56247],[2.32245,50.56097],[2.32566,50.55913],[2.32533,50.55899],[2.32165,50.56088],[2.32074,50.5612],[2.32017,50.5599],[2.31843,50.56043],[2.31878,50.56247]]]}},{"type":"Feature","properties":{"k":"BTH","s":5.745},"geometry":{"type":"Polygon","coordinates":[[[2.32441,50.56129],[2.32409,50.56104],[2.32566,50.56013],[2.32521,50.55988],[2.32611,50.55934],[2.32566,50.55913],[2.32245,50.56097],[2.31878,50.56248],[2.31888,50.56317],[2.32104,50.56264],[2.32441,50.56129]]]}},{"type":"Feature","properties":{"k":"BTH","s":4.432},"geometry":{"type":"Polygon","coordinates":[[[2.32345,50.5617],[2.32002,50.56296],[2.32085,50.56411],[2.32479,50.56288],[2.32345,50.5617]]]}},{"type":"Feature","properties":{"k":"BTH","s":0.011},"geometry":{"type":"MultiPolygon","coordinates":[[[[2.31838,50.5607],[2.31864,50.56211],[2.31853,50.56147],[2.31838,50.5607]]],[[[2.319,50.56404],[2.31897,50.5639],[2.31905,50.56437],[2.319,50.56404]]]]}},{"type":"Feature","properties":{"k":"MIS","s":1.561},"geometry":{"type":"Polygon","coordinates":[[[2.3192,50.5645],[2.32086,50.56411],[2.32,50.56297],[2.31888,50.56317],[2.3192,50.5645]]]}},{"type":"Feature","properties":{"k":"BTH","s":1.1},"geometry":{"type":"Polygon","coordinates":[[[2.32087,50.56417],[2.31944,50.56454],[2.31976,50.56534],[2.32142,50.56493],[2.32087,50.56417]]]}},{"type":"Feature","properties":{"k":"BTH","s":2.503},"geometry":{"type":"Polygon","coordinates":[[[2.32183,50.56624],[2.32065,50.56559],[2.32007,50.56535],[2.31973,50.5654],[2.31939,50.56457],[2.31915,50.56461],[2.31969,50.56739],[2.32183,50.56624]]]}},{"type":"Feature","properties":{"k":"LUZ","s":0.828},"geometry":{"type":"Polygon","coordinates":[[[2.34016,50.57931],[2.3372,50.57869],[2.33851,50.57905],[2.33802,50.57946],[2.33945,50.5798],[2.34016,50.57931]]]}},{"type":"Feature","properties":{"k":"JAC","s":0.343},"geometry":{"type":"Polygon","coordinates":[[[2.32844,50.58031],[2.32799,50.58078],[2.32874,50.58114],[2.32895,50.58058],[2.32844,50.58031]]]}},{"type":"Feature","properties":{"k":"PPH","s":0.504},"geometry":{"type":"Polygon","coordinates":[[[2.32843,50.58029],[2.32896,50.58057],[2.32928,50.57984],[2.32731,50.58046],[2.32797,50.58077],[2.32843,50.58029]]]}},{"type":"Feature","properties":{"k":"MIS","s":0.22},"geometry":{"type":"Polygon","coordinates":[[[2.33003,50.57592],[2.32914,50.57674],[2.32943,50.57685],[2.33021,50.57601],[2.33003,50.57592]]]}},{"type":"Feature","properties":{"k":"MIS","s":0.285},"geometry":{"type":"Polygon","coordinates":[[[2.32978,50.57581],[2.32878,50.57661],[2.32914,50.57674],[2.33003,50.57592],[2.32978,50.57581]]]}},{"type":"Feature","properties":{"k":"BTH","s":2.016},"geometry":{"type":"Polygon","coordinates":[[[2.32755,50.57616],[2.3281,50.57638],[2.32887,50.57581],[2.33016,50.57525],[2.32861,50.57441],[2.32734,50.57568],[2.32766,50.57587],[2.32755,50.57616]]]}},{"type":"Feature","properties":{"k":"MIS","s":0.343},"geometry":{"type":"Polygon","coordinates":[[[2.32905,50.57587],[2.32823,50.57639],[2.32878,50.57661],[2.3295,50.57603],[2.32905,50.57587]]]}},{"type":"Feature","properties":{"k":"MIS","s":0.139},"geometry":{"type":"Polygon","coordinates":[[[2.32982,50.57578],[2.32973,50.57559],[2.32903,50.57587],[2.32951,50.57602],[2.32982,50.57578]]]}},{"type":"Feature","properties":{"k":"MIS","s":0.079},"geometry":{"type":"Polygon","coordinates":[[[2.33076,50.57526],[2.33039,50.57535],[2.33113,50.57574],[2.33076,50.57526]]]}},{"type":"Feature","properties":{"k":"MIS","s":0.459},"geometry":{"type":"Polygon","coordinates":[[[2.33024,50.57598],[2.33007,50.57615],[2.33136,50.5768],[2.33153,50.57644],[2.3298,50.5757],[2.33024,50.57598]]]}},{"type":"Feature","properties":{"k":"MIS","s":0.601},"geometry":{"type":"Polygon","coordinates":[[[2.33044,50.57538],[2.32973,50.57559],[2.33154,50.57644],[2.33119,50.57577],[2.33044,50.57538]]]}},{"type":"Feature","properties":{"k":"MIS","s":0.709},"geometry":{"type":"Polygon","coordinates":[[[2.33134,50.5768],[2.33,50.57624],[2.32954,50.57673],[2.3308,50.57724],[2.33134,50.5768]]]}},{"type":"Feature","properties":{"k":"BTA","s":0.032},"geometry":{"type":"Polygon","coordinates":[[[2.33089,50.57722],[2.3308,50.57724],[2.33091,50.57728],[2.33137,50.57681],[2.33089,50.57722]]]}},{"type":"Feature","properties":{"k":"PPH","s":3.507},"geometry":{"type":"Polygon","coordinates":[[[2.33072,50.57771],[2.33518,50.57825],[2.33589,50.57755],[2.33438,50.57678],[2.33468,50.57643],[2.33422,50.5762],[2.33354,50.57682],[2.33219,50.57745],[2.33122,50.57721],[2.33072,50.57771]]]}},{"type":"Feature","properties":{"k":"PPH","s":3.262},"geometry":{"type":"Polygon","coordinates":[[[2.33194,50.57613],[2.33241,50.57592],[2.33266,50.57603],[2.33177,50.57741],[2.33219,50.57745],[2.33339,50.57691],[2.33422,50.5762],[2.33383,50.57599],[2.33398,50.57581],[2.33383,50.57567],[2.33328,50.5754],[2.3332,50.57495],[2.3308,50.57527],[2.33144,50.57589],[2.33194,50.57613]]]}},{"type":"Feature","properties":{"k":"JAC","s":0.056},"geometry":{"type":"Polygon","coordinates":[[[2.33467,50.57642],[2.33477,50.57632],[2.33433,50.57609],[2.33422,50.5762],[2.33467,50.57642]]]}},{"type":"Feature","properties":{"k":"BTH","s":1.718},"geometry":{"type":"Polygon","coordinates":[[[2.33675,50.57442],[2.33657,50.57434],[2.3356,50.57512],[2.33534,50.57499],[2.33463,50.57562],[2.33676,50.57672],[2.33737,50.57613],[2.33577,50.57533],[2.33675,50.57442]]]}},{"type":"Feature","properties":{"k":"MSW","s":1.047},"geometry":{"type":"Polygon","coordinates":[[[2.33459,50.57565],[2.33418,50.57601],[2.33636,50.57713],[2.33676,50.57672],[2.33459,50.57565]]]}},{"type":"Feature","properties":{"k":"CZH","s":0.777},"geometry":{"type":"Polygon","coordinates":[[[2.33439,50.57678],[2.3359,50.57754],[2.33633,50.57712],[2.3348,50.57633],[2.33439,50.57678]]]}},{"type":"Feature","properties":{"k":"ORH","s":0.06},"geometry":{"type":"Polygon","coordinates":[[[2.33347,50.57798],[2.33198,50.57788],[2.33368,50.57802],[2.33347,50.57798]]]}},{"type":"Feature","properties":{"k":"BTN","s":1.96},"geometry":{"type":"MultiPolygon","coordinates":[[[[2.33949,50.57983],[2.33793,50.57954],[2.33917,50.58008],[2.33949,50.57983]]],[[[2.34019,50.57931],[2.34065,50.57902],[2.33562,50.5779],[2.33523,50.57832],[2.34019,50.57931]]]]}},{"type":"Feature","properties":{"k":"BTH","s":2.511},"geometry":{"type":"Polygon","coordinates":[[[2.34127,50.57857],[2.33619,50.57734],[2.33562,50.5779],[2.34065,50.57902],[2.34127,50.57857]]]}},{"type":"Feature","properties":{"k":"BTN","s":6.556},"geometry":{"type":"Polygon","coordinates":[[[2.33748,50.57608],[2.33617,50.57734],[2.34128,50.57858],[2.3429,50.57742],[2.33748,50.57608]]]}},{"type":"Feature","properties":{"k":"BTH","s":3.395},"geometry":{"type":"Polygon","coordinates":[[[2.34132,50.57543],[2.33891,50.57467],[2.3375,50.57608],[2.34007,50.57672],[2.34132,50.57543]]]}},{"type":"Feature","properties":{"k":"BTH","s":3.546},"geometry":{"type":"Polygon","coordinates":[[[2.34007,50.57671],[2.3429,50.5774],[2.34436,50.57638],[2.34132,50.57543],[2.34007,50.57671]]]}},{"type":"Feature","properties":{"k":"MIS","s":1.348},"geometry":{"type":"Polygon","coordinates":[[[2.33915,50.57444],[2.33891,50.57467],[2.34436,50.57638],[2.34467,50.57615],[2.33915,50.57444]]]}},{"type":"Feature","properties":{"k":"MIS","s":0.508},"geometry":{"type":"Polygon","coordinates":[[[2.32145,50.57673],[2.32212,50.57722],[2.32246,50.57682],[2.32115,50.57592],[2.32145,50.57673]]]}},{"type":"Feature","properties":{"k":"MIS","s":1.386},"geometry":{"type":"Polygon","coordinates":[[[2.32115,50.57592],[2.32247,50.57682],[2.32364,50.57552],[2.32112,50.57565],[2.32115,50.57592]]]}},{"type":"Feature","properties":{"k":"MIS","s":0.187},"geometry":{"type":"Polygon","coordinates":[[[2.32304,50.57563],[2.32335,50.57521],[2.3227,50.57536],[2.32204,50.57552],[2.32304,50.57563]]]}},{"type":"Feature","properties":{"k":"MIS","s":0.126},"geometry":{"type":"Polygon","coordinates":[[[2.32324,50.57538],[2.32311,50.57555],[2.32353,50.5755],[2.32389,50.57508],[2.32338,50.57521],[2.32324,50.57538]]]}},{"type":"Feature","properties":{"k":"MIS","s":0.076},"geometry":{"type":"Polygon","coordinates":[[[2.32221,50.57711],[2.32212,50.57722],[2.32266,50.57758],[2.32277,50.57748],[2.32221,50.57711]]]}},{"type":"Feature","properties":{"k":"PHF","s":0.357},"geometry":{"type":"Polygon","coordinates":[[[2.31743,50.54972],[2.31717,50.54985],[2.31895,50.55073],[2.31914,50.55056],[2.31743,50.54972]]]}},{"type":"Feature","properties":{"k":"MLG","s":0.228},"geometry":{"type":"Polygon","coordinates":[[[2.3244,50.57993],[2.32501,50.5795],[2.3246,50.57926],[2.32414,50.57955],[2.3244,50.57993]]]}},{"type":"Feature","properties":{"k":"BTN","s":3.307},"geometry":{"type":"Polygon","coordinates":[[[2.32537,50.54564],[2.32475,50.54536],[2.3229,50.5455],[2.32138,50.54655],[2.32298,50.54742],[2.32537,50.54564]]]}},{"type":"Feature","properties":{"k":"PTC","s":3.161},"geometry":{"type":"Polygon","coordinates":[[[2.32138,50.54655],[2.31933,50.54819],[2.32106,50.54885],[2.32298,50.54742],[2.32138,50.54655]]]}},{"type":"Feature","properties":{"k":"MIS","s":2.753},"geometry":{"type":"Polygon","coordinates":[[[2.32606,50.54595],[2.32537,50.54564],[2.32108,50.54884],[2.32197,50.54899],[2.32606,50.54595]]]}},{"type":"Feature","properties":{"k":"BTH","s":2.514},"geometry":{"type":"Polygon","coordinates":[[[2.32308,50.54899],[2.32671,50.5463],[2.32608,50.54595],[2.32197,50.54899],[2.32308,50.54899]]]}},{"type":"Feature","properties":{"k":"BTH","s":2.686},"geometry":{"type":"Polygon","coordinates":[[[2.32745,50.54674],[2.32672,50.5463],[2.32308,50.54901],[2.32418,50.54921],[2.32745,50.54674]]]}},{"type":"Feature","properties":{"k":"MIS","s":14.246},"geometry":{"type":"Polygon","coordinates":[[[2.31704,50.55315],[2.31965,50.55396],[2.32087,50.55303],[2.32041,50.55281],[2.32214,50.55143],[2.32353,50.55115],[2.3253,50.54982],[2.32375,50.5491],[2.32219,50.55022],[2.32162,50.54988],[2.32041,50.55078],[2.32063,50.55089],[2.31993,50.55144],[2.31875,50.55088],[2.31894,50.55072],[2.31717,50.54985],[2.3165,50.55021],[2.31704,50.55315]]]}},{"type":"Feature","properties":{"k":"BTN","s":0.111},"geometry":{"type":"MultiPolygon","coordinates":[[[[2.31741,50.54973],[2.31794,50.54942],[2.31647,50.55013],[2.31741,50.54973]]],[[[2.31953,50.54823],[2.31874,50.54867],[2.31886,50.54875],[2.31953,50.54823]]]]}},{"type":"Feature","properties":{"k":"PHF","s":5.535},"geometry":{"type":"Polygon","coordinates":[[[2.32162,50.54988],[2.3213,50.54968],[2.32186,50.54904],[2.32131,50.54901],[2.31953,50.54823],[2.31886,50.54875],[2.31906,50.54888],[2.31743,50.54972],[2.31914,50.55056],[2.31875,50.55088],[2.31993,50.55144],[2.32063,50.55089],[2.32041,50.55078],[2.32162,50.54988]]]}},{"type":"Feature","properties":{"k":"BTH","s":1.42},"geometry":{"type":"Polygon","coordinates":[[[2.3172,50.55397],[2.31914,50.55462],[2.31965,50.55396],[2.31705,50.55316],[2.3172,50.55397]]]}},{"type":"Feature","properties":{"k":"MIS","s":1.406},"geometry":{"type":"Polygon","coordinates":[[[2.31855,50.55523],[2.31914,50.55462],[2.3172,50.55397],[2.3174,50.555],[2.31908,50.5558],[2.31955,50.55569],[2.31855,50.55523]]]}},{"type":"Feature","properties":{"k":"MIS","s":0.92},"geometry":{"type":"Polygon","coordinates":[[[2.31955,50.55569],[2.32043,50.5555],[2.31926,50.55447],[2.31855,50.55523],[2.31955,50.55569]]]}},{"type":"Feature","properties":{"k":"BTH","s":0.615},"geometry":{"type":"Polygon","coordinates":[[[2.31902,50.5558],[2.31741,50.55505],[2.31741,50.55506],[2.31765,50.55612],[2.31902,50.5558]]]}},{"type":"Feature","properties":{"k":"MIS","s":1.037},"geometry":{"type":"Polygon","coordinates":[[[2.32044,50.55837],[2.32037,50.55821],[2.31989,50.55832],[2.31979,50.55788],[2.31797,50.55823],[2.31817,50.55888],[2.32044,50.55837]]]}},{"type":"Feature","properties":{"k":"BTH","s":0.003},"geometry":{"type":"Polygon","coordinates":[[[2.31794,50.55829],[2.318,50.55859],[2.318,50.55851],[2.31794,50.55829]]]}},{"type":"Feature","properties":{"k":"PTC","s":0.011},"geometry":{"type":"Polygon","coordinates":[[[2.31819,50.55963],[2.31803,50.55858],[2.318,50.55859],[2.31819,50.55963]]]}},{"type":"Feature","properties":{"k":"BTH","s":2.916},"geometry":{"type":"Polygon","coordinates":[[[2.32195,50.55777],[2.32064,50.55675],[2.31785,50.55741],[2.31797,50.55823],[2.31979,50.55788],[2.31989,50.55832],[2.32195,50.55777]]]}},{"type":"Feature","properties":{"k":"LIF","s":4.484},"geometry":{"type":"Polygon","coordinates":[[[2.31785,50.55741],[2.32063,50.55675],[2.32119,50.55723],[2.32173,50.55701],[2.32235,50.55729],[2.32294,50.55688],[2.32041,50.5555],[2.31763,50.55613],[2.31785,50.55741]]]}},{"type":"Feature","properties":{"k":"BTN","s":7.245},"geometry":{"type":"Polygon","coordinates":[[[2.32427,50.55607],[2.31965,50.55396],[2.31926,50.55447],[2.32042,50.5555],[2.32291,50.55688],[2.32594,50.55805],[2.32688,50.55708],[2.32427,50.55607]]]}},{"type":"Feature","properties":{"k":"MIS","s":0.447},"geometry":{"type":"Polygon","coordinates":[[[2.32246,50.55813],[2.32315,50.55783],[2.32206,50.5573],[2.32164,50.55756],[2.32246,50.55813]]]}},{"type":"Feature","properties":{"k":"JAC","s":0.214},"geometry":{"type":"Polygon","coordinates":[[[2.32119,50.55723],[2.32166,50.55755],[2.32235,50.55729],[2.32182,50.55706],[2.32119,50.55723]]]}},{"type":"Feature","properties":{"k":"BTH","s":7.818},"geometry":{"type":"Polygon","coordinates":[[[2.3184,50.56044],[2.32018,50.55989],[2.32049,50.56074],[2.3244,50.55877],[2.32281,50.55798],[2.32246,50.55813],[2.32195,50.55777],[2.32036,50.55818],[2.32044,50.55837],[2.31814,50.55893],[2.3184,50.56044]]]}},{"type":"Feature","properties":{"k":"BTH","s":2.766},"geometry":{"type":"Polygon","coordinates":[[[2.32073,50.5612],[2.32164,50.56088],[2.32534,50.55898],[2.32359,50.55823],[2.32387,50.55799],[2.32235,50.55729],[2.32223,50.55739],[2.32316,50.55783],[2.32283,50.558],[2.32447,50.55878],[2.32053,50.56073],[2.32073,50.5612]]]}},{"type":"Feature","properties":{"k":"MIS","s":3.497},"geometry":{"type":"Polygon","coordinates":[[[2.32294,50.55688],[2.32235,50.55729],[2.32387,50.55799],[2.32359,50.55823],[2.32563,50.55912],[2.32828,50.55888],[2.32294,50.55688]]]}},{"type":"Feature","properties":{"k":"BTH","s":0.86},"geometry":{"type":"Polygon","coordinates":[[[2.32599,50.55437],[2.32553,50.55417],[2.32381,50.55584],[2.32424,50.55605],[2.32599,50.55437]]]}},{"type":"Feature","properties":{"k":"BTH","s":5.128},"geometry":{"type":"Polygon","coordinates":[[[2.32381,50.55584],[2.32553,50.55417],[2.3251,50.55392],[2.32439,50.55454],[2.3222,50.55356],[2.32204,50.55369],[2.32087,50.55303],[2.31965,50.55396],[2.32381,50.55584]]]}},{"type":"Feature","properties":{"k":"LIF","s":2.977},"geometry":{"type":"Polygon","coordinates":[[[2.32204,50.55369],[2.3222,50.55356],[2.32438,50.55454],[2.3251,50.55392],[2.32387,50.5533],[2.32111,50.55227],[2.32041,50.55281],[2.32204,50.55369]]]}},{"type":"Feature","properties":{"k":"MIS","s":2.86},"geometry":{"type":"Polygon","coordinates":[[[2.32486,50.55261],[2.32297,50.55182],[2.32383,50.5511],[2.32214,50.55143],[2.32111,50.55227],[2.32387,50.5533],[2.32486,50.55261]]]}},{"type":"Feature","properties":{"k":"MIS","s":2.463},"geometry":{"type":"Polygon","coordinates":[[[2.32382,50.55334],[2.32501,50.55388],[2.32721,50.55211],[2.32602,50.5516],[2.32494,50.55264],[2.32382,50.55334]]]}},{"type":"Feature","properties":{"k":"BTH","s":2.997},"geometry":{"type":"Polygon","coordinates":[[[2.32493,50.55263],[2.32602,50.5516],[2.32554,50.55137],[2.3249,50.55193],[2.3245,50.55175],[2.32632,50.55031],[2.32552,50.54992],[2.32299,50.55182],[2.32493,50.55263]]]}},{"type":"Feature","properties":{"k":"MIS","s":0.274},"geometry":{"type":"Polygon","coordinates":[[[2.32381,50.5511],[2.32551,50.54992],[2.3253,50.54982],[2.32353,50.55115],[2.32381,50.5511]]]}},{"type":"Feature","properties":{"k":"MIS","s":0.614},"geometry":{"type":"Polygon","coordinates":[[[2.3249,50.55193],[2.32665,50.55039],[2.32633,50.55032],[2.32451,50.55175],[2.3249,50.55193]]]}},{"type":"Feature","properties":{"k":"ORH","s":1.201},"geometry":{"type":"Polygon","coordinates":[[[2.32211,50.54903],[2.3213,50.54968],[2.32219,50.55022],[2.32363,50.54908],[2.32211,50.54903]]]}},{"type":"Feature","properties":{"k":"JAC","s":0.066},"geometry":{"type":"Polygon","coordinates":[[[2.32144,50.54937],[2.32158,50.54944],[2.3221,50.54903],[2.32144,50.54937]]]}},{"type":"Feature","properties":{"k":"BTN","s":5.642},"geometry":{"type":"Polygon","coordinates":[[[2.32588,50.55006],[2.32925,50.54754],[2.32745,50.54674],[2.32414,50.54919],[2.32588,50.55006]]]}},{"type":"Feature","properties":{"k":"PPH","s":0.212},"geometry":{"type":"Polygon","coordinates":[[[2.35346,50.56992],[2.35192,50.56891],[2.35182,50.56901],[2.35332,50.57002],[2.35346,50.56992]]]}},{"type":"Feature","properties":{"k":"PPH","s":0.216},"geometry":{"type":"Polygon","coordinates":[[[2.35207,50.56881],[2.35192,50.56891],[2.35343,50.56991],[2.35356,50.56984],[2.35207,50.56881]]]}},{"type":"Feature","properties":{"k":"BTH","s":3.76},"geometry":{"type":"Polygon","coordinates":[[[2.35704,50.56378],[2.35971,50.56537],[2.36112,50.56434],[2.35868,50.5629],[2.35704,50.56378]]]}},{"type":"Feature","properties":{"k":"BOR","s":0.032},"geometry":{"type":"Polygon","coordinates":[]}},{"type":"Feature","properties":{"k":"PPH","s":1.076},"geometry":{"type":"Polygon","coordinates":[[[2.35519,50.5651],[2.35451,50.56559],[2.35635,50.5664],[2.35693,50.56596],[2.35519,50.5651]]]}},{"type":"Feature","properties":{"k":"ORP","s":0.913},"geometry":{"type":"Polygon","coordinates":[[[2.35594,50.56736],[2.35577,50.5672],[2.35638,50.56676],[2.35606,50.56658],[2.35622,50.56643],[2.35601,50.56632],[2.35467,50.56733],[2.35535,50.56767],[2.35454,50.56821],[2.35465,50.56828],[2.35594,50.56736]]]}},{"type":"Feature","properties":{"k":"ORH","s":2.839},"geometry":{"type":"Polygon","coordinates":[[[2.3539,50.56693],[2.35517,50.56597],[2.35267,50.56485],[2.35151,50.56566],[2.3539,50.56693]]]}},{"type":"Feature","properties":{"k":"BTH","s":0.996},"geometry":{"type":"Polygon","coordinates":[[[2.35519,50.56597],[2.35391,50.56693],[2.35466,50.56732],[2.35598,50.56632],[2.35519,50.56597]]]}},{"type":"Feature","properties":{"k":"MIS","s":2.605},"geometry":{"type":"Polygon","coordinates":[[[2.35555,50.56483],[2.35364,50.56367],[2.35228,50.56416],[2.3527,50.56477],[2.3545,50.56559],[2.35555,50.56483]]]}},{"type":"Feature","properties":{"k":"MIS","s":1.506},"geometry":{"type":"Polygon","coordinates":[[[2.358,50.56663],[2.35855,50.56624],[2.35577,50.56473],[2.35519,50.5651],[2.358,50.56663]]]}},{"type":"Feature","properties":{"k":"MIS","s":2.124},"geometry":{"type":"Polygon","coordinates":[[[2.35627,50.56436],[2.35891,50.56592],[2.35971,50.56537],[2.35713,50.56384],[2.35627,50.56436]]]}},{"type":"Feature","properties":{"k":"PPH","s":1.151},"geometry":{"type":"Polygon","coordinates":[[[2.35853,50.56618],[2.3589,50.56592],[2.35628,50.56438],[2.35577,50.56473],[2.35853,50.56618]],[[2.35744,50.5655],[2.35724,50.56539],[2.35749,50.56527],[2.35766,50.56532],[2.35744,50.5655]]]}},{"type":"Feature","properties":{"k":"MIS","s":3.991},"geometry":{"type":"Polygon","coordinates":[[[2.35868,50.5629],[2.35765,50.56226],[2.35364,50.56367],[2.35507,50.56454],[2.35572,50.56402],[2.35635,50.56427],[2.35868,50.5629]]]}},{"type":"Feature","properties":{"k":"MIS","s":0.506},"geometry":{"type":"Polygon","coordinates":[[[2.35234,50.5638],[2.35229,50.56411],[2.35351,50.56362],[2.35263,50.56299],[2.35234,50.5638]]]}},{"type":"Feature","properties":{"k":"BTH","s":8.372},"geometry":{"type":"Polygon","coordinates":[[[2.35678,50.56233],[2.35758,50.56136],[2.35784,50.56058],[2.35768,50.55862],[2.35566,50.56075],[2.35531,50.56059],[2.35406,50.56177],[2.35266,50.5624],[2.35263,50.56299],[2.35349,50.56366],[2.35678,50.56233]]]}},{"type":"Feature","properties":{"k":"MIS","s":1.045},"geometry":{"type":"Polygon","coordinates":[[[2.35921,50.56157],[2.35782,50.5609],[2.35719,50.56198],[2.35647,50.56255],[2.35921,50.56157]]]}},{"type":"Feature","properties":{"k":"BTH","s":2.5},"geometry":{"type":"Polygon","coordinates":[[[2.36038,50.55877],[2.35832,50.56114],[2.35921,50.56157],[2.36034,50.56118],[2.35968,50.56089],[2.36136,50.55905],[2.36038,50.55877]]]}},{"type":"Feature","properties":{"k":"PHF","s":3.243},"geometry":{"type":"Polygon","coordinates":[[[2.36304,50.56017],[2.36405,50.55982],[2.36136,50.55905],[2.35968,50.56089],[2.36035,50.56118],[2.36304,50.56017]]]}},{"type":"Feature","properties":{"k":"BTH","s":2.968},"geometry":{"type":"Polygon","coordinates":[[[2.35883,50.56185],[2.35765,50.56226],[2.36112,50.56434],[2.36194,50.56374],[2.35883,50.56185]]]}},{"type":"Feature","properties":{"k":"BTH","s":3.593},"geometry":{"type":"Polygon","coordinates":[[[2.36326,50.56279],[2.36025,50.56131],[2.35883,50.56185],[2.362,50.5637],[2.36326,50.56279]]]}},{"type":"Feature","properties":{"k":"PHF","s":1.157},"geometry":{"type":"Polygon","coordinates":[[[2.36457,50.56188],[2.36512,50.56147],[2.36294,50.5604],[2.36223,50.56064],[2.36457,50.56188]]]}},{"type":"Feature","properties":{"k":"BTH","s":3.444},"geometry":{"type":"Polygon","coordinates":[[[2.36326,50.56279],[2.36457,50.56188],[2.36223,50.56064],[2.36025,50.56131],[2.36326,50.56279]]]}},{"type":"Feature","properties":{"k":"PTC","s":0.296},"geometry":{"type":"Polygon","coordinates":[[[2.36317,50.56033],[2.36294,50.5604],[2.36512,50.56147],[2.36526,50.56138],[2.36317,50.56033]]]}},{"type":"Feature","properties":{"k":"BTH","s":2.961},"geometry":{"type":"Polygon","coordinates":[[[2.36032,50.55877],[2.35881,50.55837],[2.35809,50.55914],[2.35773,50.55915],[2.3578,50.56089],[2.35833,50.56115],[2.36032,50.55877]]]}},{"type":"Feature","properties":{"k":"BTH","s":2.049},"geometry":{"type":"Polygon","coordinates":[[[2.35566,50.56076],[2.35762,50.5587],[2.35736,50.5579],[2.35478,50.56042],[2.35566,50.56076]]]}},{"type":"Feature","properties":{"k":"PPH","s":0.345},"geometry":{"type":"Polygon","coordinates":[[[2.35502,50.55719],[2.35479,50.55709],[2.3537,50.55816],[2.35378,50.55847],[2.35502,50.55719]]]}},{"type":"Feature","properties":{"k":"MIS","s":1.249},"geometry":{"type":"Polygon","coordinates":[[[2.35381,50.55901],[2.35355,50.55983],[2.35373,50.55988],[2.35576,50.55794],[2.35531,50.55757],[2.35381,50.55901]]]}},{"type":"Feature","properties":{"k":"BTH","s":1.365},"geometry":{"type":"Polygon","coordinates":[[[2.35632,50.55809],[2.35417,50.56032],[2.35484,50.56043],[2.3571,50.55807],[2.35632,50.55809]]]}},{"type":"Feature","properties":{"k":"PTR","s":0.042},"geometry":{"type":"Polygon","coordinates":[[[2.35286,50.55966],[2.35276,50.55972],[2.35313,50.56002],[2.35286,50.55966]]]}},{"type":"Feature","properties":{"k":"PPH","s":0.065},"geometry":{"type":"Polygon","coordinates":[[[2.35299,50.56011],[2.35313,50.56002],[2.35276,50.55972],[2.35259,50.55982],[2.35299,50.56011]]]}},{"type":"Feature","properties":{"k":"PPH","s":0.453},"geometry":{"type":"Polygon","coordinates":[[[2.35167,50.55906],[2.35095,50.55958],[2.35105,50.55973],[2.35242,50.55909],[2.35181,50.55865],[2.35133,50.55867],[2.35124,50.55893],[2.35167,50.55906]]]}},{"type":"Feature","properties":{"k":"PPH","s":2.094},"geometry":{"type":"Polygon","coordinates":[[[2.35385,50.55863],[2.35352,50.55836],[2.35134,50.55751],[2.35192,50.55782],[2.35152,50.55847],[2.3524,50.55905],[2.35322,50.55995],[2.35385,50.55863]]]}},{"type":"Feature","properties":{"k":"BTH","s":0.017},"geometry":{"type":"MultiPolygon","coordinates":[[[[2.35161,50.55576],[2.35182,50.55588],[2.35167,50.55576],[2.35161,50.55576]]],[[[2.35243,50.5565],[2.35249,50.55646],[2.35219,50.55622],[2.35243,50.5565]]]]}},{"type":"Feature","properties":{"k":"PPH","s":0.191},"geometry":{"type":"Polygon","coordinates":[[[2.34947,50.55622],[2.34972,50.5564],[2.35036,50.55596],[2.3501,50.55576],[2.34947,50.55622]]]}},{"type":"Feature","properties":{"k":"PPH","s":0.477},"geometry":{"type":"Polygon","coordinates":[[[2.35003,50.55645],[2.35033,50.55652],[2.35064,50.55635],[2.3504,50.55593],[2.34902,50.55689],[2.34949,50.55714],[2.3496,50.55707],[2.34932,50.55692],[2.35,50.55647],[2.35014,50.55658],[2.34954,50.55696],[2.35017,50.5566],[2.34964,50.55698],[2.35021,50.55663],[2.35034,50.55673],[2.34987,50.55715],[2.35031,50.55687],[2.35056,50.55688],[2.35003,50.55645]]]}},{"type":"Feature","properties":{"k":"MSW","s":0.161},"geometry":{"type":"Polygon","coordinates":[[[2.34971,50.55743],[2.3499,50.55752],[2.35078,50.557],[2.35056,50.55688],[2.34971,50.55743]]]}},{"type":"Feature","properties":{"k":"PPH","s":0.032},"geometry":{"type":"Polygon","coordinates":[[[2.34839,50.5566],[2.34827,50.55653],[2.34803,50.55673],[2.34817,50.55679],[2.34839,50.5566]]]}},{"type":"Feature","properties":{"k":"PPH","s":0.098},"geometry":{"type":"Polygon","coordinates":[[[2.34818,50.55686],[2.34833,50.55693],[2.34885,50.55671],[2.34851,50.55656],[2.34818,50.55686]]]}},{"type":"Feature","properties":{"k":"PPH","s":0.498},"geometry":{"type":"Polygon","coordinates":[[[2.34684,50.55673],[2.34598,50.55721],[2.34652,50.55763],[2.34739,50.557],[2.34684,50.55673]]]}},{"type":"Feature","properties":{"k":"PPH","s":1.053},"geometry":{"type":"Polygon","coordinates":[[[2.34822,50.55929],[2.34935,50.55833],[2.34847,50.5579],[2.3474,50.55867],[2.34822,50.55929]]]}},{"type":"Feature","properties":{"k":"PPH","s":1.064},"geometry":{"type":"Polygon","coordinates":[[[2.34619,50.55949],[2.3475,50.55881],[2.3471,50.55853],[2.34563,50.5592],[2.34363,50.56029],[2.34402,50.56068],[2.34453,50.56044],[2.34428,50.56018],[2.3459,50.55933],[2.34619,50.55949]]]}},{"type":"Feature","properties":{"k":"PPH","s":0.66},"geometry":{"type":"Polygon","coordinates":[[[2.34677,50.5587],[2.34614,50.55823],[2.34509,50.55887],[2.34572,50.55922],[2.34677,50.5587]]]}},{"type":"Feature","properties":{"k":"PPH","s":0.696},"geometry":{"type":"Polygon","coordinates":[[[2.34359,50.5576],[2.34266,50.55773],[2.34412,50.55859],[2.34469,50.55822],[2.34359,50.5576]]]}},{"type":"Feature","properties":{"k":"MIS","s":1.68},"geometry":{"type":"Polygon","coordinates":[[[2.34278,50.56083],[2.34309,50.56065],[2.34281,50.56047],[2.34295,50.56036],[2.34189,50.55966],[2.34226,50.55949],[2.34126,50.55871],[2.34039,50.55838],[2.33988,50.55867],[2.34278,50.56083]]]}},{"type":"Feature","properties":{"k":"BTH","s":0.629},"geometry":{"type":"Polygon","coordinates":[[[2.34266,50.55773],[2.34202,50.55782],[2.34369,50.55884],[2.34412,50.55859],[2.34266,50.55773]]]}},{"type":"Feature","properties":{"k":"PPH","s":0.947},"geometry":{"type":"Polygon","coordinates":[[[2.34326,50.55754],[2.34262,50.55716],[2.34331,50.55673],[2.3432,50.55666],[2.3426,50.55699],[2.34221,50.55677],[2.34091,50.55779],[2.34326,50.55754]]]}},{"type":"Feature","properties":{"k":"PPH","s":0.422},"geometry":{"type":"Polygon","coordinates":[[[2.34449,50.55514],[2.34432,50.55501],[2.34266,50.55592],[2.343,50.5561],[2.34449,50.55514]]]}},{"type":"Feature","properties":{"k":"PPH","s":0.635},"geometry":{"type":"Polygon","coordinates":[[[2.34147,50.55535],[2.34228,50.55481],[2.34201,50.55466],[2.34292,50.5541],[2.34276,50.55397],[2.3409,50.55505],[2.34147,50.55535]]]}},{"type":"Feature","properties":{"k":"PPH","s":0.784},"geometry":{"type":"Polygon","coordinates":[[[2.3425,50.5521],[2.34174,50.55178],[2.3408,50.55254],[2.3408,50.55268],[2.34143,50.55299],[2.3425,50.5521]]]}},{"type":"Feature","properties":{"k":"PPH","s":0.82},"geometry":{"type":"Polygon","coordinates":[[[2.34143,50.55299],[2.34169,50.55312],[2.34226,50.55272],[2.3425,50.55283],[2.34274,50.55268],[2.34354,50.553],[2.34398,50.55267],[2.34241,50.55216],[2.34143,50.55299]]]}},{"type":"Feature","properties":{"k":"MSW","s":0.105},"geometry":{"type":"Polygon","coordinates":[[[2.34395,50.55262],[2.3441,50.55249],[2.34346,50.55224],[2.34329,50.5524],[2.34395,50.55262]]]}},{"type":"Feature","properties":{"k":"PPH","s":1.409},"geometry":{"type":"Polygon","coordinates":[[[2.34524,50.55339],[2.346,50.55386],[2.34665,50.5534],[2.34555,50.55274],[2.34499,50.55328],[2.34451,50.55326],[2.3436,50.55394],[2.34424,50.55441],[2.34496,50.55391],[2.34466,50.55395],[2.34524,50.55339]]]}},{"type":"Feature","properties":{"k":"PPH","s":1.366},"geometry":{"type":"MultiPolygon","coordinates":[[[[2.34664,50.55421],[2.34745,50.55368],[2.34667,50.55339],[2.34604,50.55384],[2.34664,50.55421]]],[[[2.34771,50.55487],[2.3485,50.55538],[2.34965,50.55464],[2.3485,50.55398],[2.34878,50.55416],[2.34771,50.55487]]]]}},{"type":"Feature","properties":{"k":"PPH","s":0.818},"geometry":{"type":"Polygon","coordinates":[[[2.34841,50.55532],[2.34795,50.55504],[2.3464,50.5563],[2.34687,50.55658],[2.34841,50.55532]]]}},{"type":"Feature","properties":{"k":"PPH","s":0.913},"geometry":{"type":"Polygon","coordinates":[[[2.34867,50.5559],[2.34896,50.55559],[2.34926,50.55582],[2.34999,50.55536],[2.34995,50.55493],[2.34965,50.55464],[2.34851,50.55539],[2.34875,50.55557],[2.34822,50.55617],[2.34853,50.55626],[2.34881,50.55596],[2.34867,50.5559]]]}},{"type":"Feature","properties":{"k":"PPH","s":0.002},"geometry":{"type":"Polygon","coordinates":[[[2.35022,50.55497],[2.34995,50.55482],[2.34996,50.55484],[2.35022,50.55497]]]}},{"type":"Feature","properties":{"k":"PPH","s":0.488},"geometry":{"type":"Polygon","coordinates":[[[2.35113,50.5555],[2.34998,50.55485],[2.35014,50.55573],[2.35036,50.55595],[2.35113,50.5555]]]}},{"type":"Feature","properties":{"k":"BTH","s":0.007},"geometry":{"type":"Polygon","coordinates":[[[2.35163,50.55573],[2.35077,50.55527],[2.35133,50.55559],[2.35163,50.55573]]]}},{"type":"Feature","properties":{"k":"BTN","s":2.136},"geometry":{"type":"Polygon","coordinates":[[[2.34408,50.55249],[2.34497,50.55175],[2.34416,50.55115],[2.3414,50.55133],[2.34178,50.55149],[2.34181,50.55172],[2.34332,50.55237],[2.34346,50.55224],[2.34408,50.55249]]]}},{"type":"Feature","properties":{"k":"MSW","s":0.165},"geometry":{"type":"Polygon","coordinates":[[[2.34325,50.55238],[2.34332,50.55237],[2.34181,50.55172],[2.34178,50.55149],[2.3414,50.55133],[2.34107,50.55141],[2.34325,50.55238]]]}},{"type":"Feature","properties":{"k":"PPH","s":0.012},"geometry":{"type":"MultiPolygon","coordinates":[[[[2.34155,50.55133],[2.34223,50.55135],[2.34149,50.55128],[2.34155,50.55133]]]]}},{"type":"Feature","properties":{"k":"PPH","s":0.79},"geometry":{"type":"Polygon","coordinates":[[[2.34003,50.55224],[2.34066,50.55259],[2.34174,50.55177],[2.34106,50.55142],[2.34003,50.55224]]]}},{"type":"Feature","properties":{"k":"PPH","s":1.393},"geometry":{"type":"Polygon","coordinates":[[[2.33547,50.55103],[2.33478,50.55165],[2.33508,50.55178],[2.33474,50.55212],[2.33573,50.55249],[2.33692,50.55144],[2.33547,50.55103]]]}},{"type":"Feature","properties":{"k":"PPH","s":0.314},"geometry":{"type":"Polygon","coordinates":[[[2.33344,50.5515],[2.33376,50.55166],[2.33475,50.55082],[2.33444,50.5507],[2.33344,50.5515]]]}},{"type":"Feature","properties":{"k":"LIF","s":4.769},"geometry":{"type":"Polygon","coordinates":[[[2.32925,50.54754],[2.32588,50.55006],[2.32688,50.55038],[2.32797,50.55039],[2.33073,50.54833],[2.32925,50.54754]]]}},{"type":"Feature","properties":{"k":"MIS","s":0.437},"geometry":{"type":"Polygon","coordinates":[[[2.33052,50.54851],[2.32797,50.55039],[2.32839,50.55028],[2.33091,50.54843],[2.33073,50.54833],[2.33052,50.54851]]]}},{"type":"Feature","properties":{"k":"BTH","s":4.835},"geometry":{"type":"Polygon","coordinates":[[[2.32975,50.55006],[2.33144,50.55043],[2.33288,50.55121],[2.33393,50.55037],[2.33091,50.54843],[2.32839,50.55028],[2.32975,50.55006]]]}},{"type":"Feature","properties":{"k":"BTN","s":4.997},"geometry":{"type":"Polygon","coordinates":[[[2.3256,50.55137],[2.33044,50.55349],[2.33136,50.55274],[2.32673,50.55043],[2.3256,50.55137]]]}},{"type":"Feature","properties":{"k":"ORH","s":5.909},"geometry":{"type":"Polygon","coordinates":[[[2.32784,50.55515],[2.32983,50.55331],[2.32721,50.55211],[2.32502,50.55387],[2.32784,50.55515]]]}},{"type":"Feature","properties":{"k":"BTH","s":5.953},"geometry":{"type":"Polygon","coordinates":[[[2.3325,50.55459],[2.32986,50.55327],[2.32785,50.55515],[2.33066,50.55639],[2.3325,50.55459]]]}},{"type":"Feature","properties":{"k":"BTN","s":2.649},"geometry":{"type":"Polygon","coordinates":[[[2.3325,50.55459],[2.33066,50.55639],[2.33194,50.55696],[2.33384,50.55505],[2.3325,50.55459]]]}},{"type":"Feature","properties":{"k":"LBF","s":13.592},"geometry":{"type":"Polygon","coordinates":[[[2.3356,50.5549],[2.3365,50.55413],[2.33623,50.55385],[2.33697,50.55303],[2.3336,50.55167],[2.3314,50.55047],[2.32969,50.55009],[2.32785,50.55047],[2.327,50.55046],[2.3356,50.5549]]]}},{"type":"Feature","properties":{"k":"PTR","s":1.061},"geometry":{"type":"Polygon","coordinates":[[[2.33696,50.55296],[2.33756,50.55254],[2.33723,50.55217],[2.33779,50.55165],[2.33755,50.55159],[2.33708,50.55202],[2.33672,50.55165],[2.33573,50.55249],[2.33696,50.55296]]]}},{"type":"Feature","properties":{"k":"PPH","s":0.409},"geometry":{"type":"Polygon","coordinates":[[[2.33696,50.55298],[2.33846,50.55353],[2.33819,50.55323],[2.33758,50.55256],[2.33696,50.55298]]]}},{"type":"Feature","properties":{"k":"PPH","s":0.506},"geometry":{"type":"Polygon","coordinates":[[[2.33912,50.55392],[2.33992,50.55326],[2.33931,50.55294],[2.33862,50.55352],[2.33912,50.55392]]]}},{"type":"Feature","properties":{"k":"PPH","s":0.649},"geometry":{"type":"Polygon","coordinates":[[[2.33679,50.55429],[2.33763,50.55329],[2.33698,50.55305],[2.3362,50.5539],[2.33679,50.55429]]]}},{"type":"Feature","properties":{"k":"BTH","s":2.007},"geometry":{"type":"Polygon","coordinates":[[[2.33566,50.55488],[2.33699,50.55555],[2.33845,50.5536],[2.33764,50.5533],[2.33683,50.55432],[2.33651,50.55413],[2.33566,50.55488]]]}},{"type":"Feature","properties":{"k":"PPH","s":0.17},"geometry":{"type":"Polygon","coordinates":[[[2.33808,50.55469],[2.33865,50.5542],[2.3383,50.55406],[2.33784,50.5546],[2.33808,50.55469]]]}},{"type":"Feature","properties":{"k":"PPH","s":1.081},"geometry":{"type":"Polygon","coordinates":[[[2.33908,50.55495],[2.33874,50.55477],[2.33951,50.55427],[2.33899,50.55393],[2.33809,50.55471],[2.33785,50.55461],[2.33745,50.55512],[2.33839,50.55554],[2.33908,50.55495]]]}},{"type":"Feature","properties":{"k":"PPH","s":0.513},"geometry":{"type":"Polygon","coordinates":[[[2.33881,50.55574],[2.3401,50.55466],[2.3398,50.55447],[2.33839,50.55554],[2.33881,50.55574]]]}},{"type":"Feature","properties":{"k":"BTN","s":4.94},"geometry":{"type":"Polygon","coordinates":[[[2.33696,50.55562],[2.33136,50.55274],[2.33044,50.55349],[2.33323,50.55489],[2.33482,50.55541],[2.33635,50.55625],[2.3368,50.556],[2.33696,50.55562]]]}},{"type":"Feature","properties":{"k":"BTN","s":4.004},"geometry":{"type":"Polygon","coordinates":[[[2.33567,50.55587],[2.33384,50.55506],[2.33194,50.55696],[2.33332,50.55755],[2.33414,50.55748],[2.33567,50.55587]]]}},{"type":"Feature","properties":{"k":"MIS","s":0.729},"geometry":{"type":"Polygon","coordinates":[[[2.33611,50.55746],[2.33677,50.55677],[2.33673,50.55659],[2.33624,50.55632],[2.33515,50.5574],[2.33611,50.55746]]]}},{"type":"Feature","properties":{"k":"BTN","s":0.997},"geometry":{"type":"Polygon","coordinates":[[[2.33414,50.55748],[2.33515,50.5574],[2.33624,50.55632],[2.33558,50.55597],[2.33414,50.55748]]]}},{"type":"Feature","properties":{"k":"JAC","s":0.064},"geometry":{"type":"Polygon","coordinates":[[[2.33621,50.55618],[2.33566,50.55589],[2.33558,50.55597],[2.33629,50.55627],[2.33621,50.55618]]]}},{"type":"Feature","properties":{"k":"BTH","s":0.157},"geometry":{"type":"Polygon","coordinates":[[[2.33688,50.55606],[2.33797,50.5566],[2.33808,50.55648],[2.33688,50.55606]]]}},{"type":"Feature","properties":{"k":"MIS","s":0.419},"geometry":{"type":"Polygon","coordinates":[[[2.33687,50.55667],[2.33759,50.55697],[2.33798,50.5566],[2.33686,50.55606],[2.33687,50.55667]]]}},{"type":"Feature","properties":{"k":"PPH","s":4.074},"geometry":{"type":"Polygon","coordinates":[[[2.33812,50.55649],[2.33759,50.55697],[2.33836,50.55717],[2.33882,50.55748],[2.33957,50.55692],[2.33992,50.55708],[2.3394,50.55752],[2.34081,50.55781],[2.34231,50.55666],[2.34273,50.55604],[2.34234,50.55585],[2.34179,50.55623],[2.34146,50.55602],[2.34083,50.55641],[2.34041,50.55617],[2.34061,50.55603],[2.34017,50.55575],[2.33898,50.55664],[2.33927,50.55678],[2.33874,50.55721],[2.33836,50.55704],[2.33882,50.55661],[2.33697,50.55573],[2.3369,50.5559],[2.33812,50.55649]]]}},{"type":"Feature","properties":{"k":"MIS","s":0.437},"geometry":{"type":"Polygon","coordinates":[[[2.33865,50.55759],[2.33728,50.55757],[2.33849,50.55816],[2.33916,50.5577],[2.33865,50.55759]]]}},{"type":"Feature","properties":{"k":"PPH","s":0.184},"geometry":{"type":"Polygon","coordinates":[[[2.33854,50.55747],[2.3384,50.55725],[2.33784,50.55708],[2.33752,50.55745],[2.33854,50.55747]]]}},{"type":"Feature","properties":{"k":"PPH","s":0.258},"geometry":{"type":"Polygon","coordinates":[[[2.33681,50.55748],[2.33752,50.55745],[2.33784,50.55708],[2.33733,50.55689],[2.33681,50.55748]]]}},{"type":"Feature","properties":{"k":"PPH","s":0.352},"geometry":{"type":"Polygon","coordinates":[[[2.34002,50.55859],[2.34041,50.55837],[2.33979,50.55776],[2.33919,50.55776],[2.34002,50.55859]]]}},{"type":"Feature","properties":{"k":"BTH","s":0.935},"geometry":{"type":"Polygon","coordinates":[[[2.33614,50.55947],[2.3369,50.55906],[2.33557,50.5582],[2.33489,50.55858],[2.33614,50.55947]]]}},{"type":"Feature","properties":{"k":"PTR","s":0.554},"geometry":{"type":"Polygon","coordinates":[[[2.33543,50.5581],[2.33424,50.55753],[2.33337,50.5576],[2.3349,50.55837],[2.33543,50.5581]]]}},{"type":"Feature","properties":{"k":"MIS","s":0.513},"geometry":{"type":"Polygon","coordinates":[[[2.33411,50.56006],[2.33412,50.55911],[2.33324,50.55964],[2.33358,50.55987],[2.33335,50.56],[2.33407,50.56046],[2.33411,50.56006]]]}},{"type":"Feature","properties":{"k":"MSW","s":0.035},"geometry":{"type":"Polygon","coordinates":[[[2.33113,50.55827],[2.33078,50.55841],[2.33104,50.55851],[2.33113,50.55827]]]}},{"type":"Feature","properties":{"k":"MIS","s":4.448},"geometry":{"type":"Polygon","coordinates":[[[2.33487,50.55836],[2.33337,50.5576],[2.33144,50.55815],[2.33095,50.55865],[2.33061,50.55847],[2.32968,50.55867],[2.33215,50.55985],[2.33487,50.55836]]]}},{"type":"Feature","properties":{"k":"BTH","s":9.575},"geometry":{"type":"Polygon","coordinates":[[[2.32599,50.55437],[2.32426,50.55606],[2.32574,50.55665],[2.32612,50.55625],[2.33117,50.55821],[2.33312,50.55755],[2.32599,50.55437]]]}},{"type":"Feature","properties":{"k":"BTH","s":2.054},"geometry":{"type":"Polygon","coordinates":[[[2.33048,50.55847],[2.33117,50.55821],[2.32612,50.55625],[2.32574,50.55665],[2.33048,50.55847]]]}},{"type":"Feature","properties":{"k":"PTC","s":3.03},"geometry":{"type":"Polygon","coordinates":[[[2.32827,50.55887],[2.33048,50.55847],[2.32688,50.55708],[2.32594,50.55805],[2.32827,50.55887]]]}},{"type":"Feature","properties":{"k":"MIS","s":0.2},"geometry":{"type":"Polygon","coordinates":[[[2.32919,50.55918],[2.32956,50.55869],[2.32894,50.55882],[2.32835,50.5589],[2.32919,50.55918]]]}},{"type":"Feature","properties":{"k":"MIS","s":4.333},"geometry":{"type":"Polygon","coordinates":[[[2.33215,50.55985],[2.32967,50.55867],[2.3292,50.55919],[2.32893,50.5591],[2.32627,50.55941],[2.32681,50.55965],[2.32659,50.55987],[2.32942,50.56056],[2.33215,50.55985]]]}},{"type":"Feature","properties":{"k":"MIS","s":0.628},"geometry":{"type":"Polygon","coordinates":[[[2.32714,50.55902],[2.32568,50.55914],[2.32627,50.55941],[2.32895,50.5591],[2.32835,50.5589],[2.32714,50.55902]]]}},{"type":"Feature","properties":{"k":"PTC","s":1.14},"geometry":{"type":"Polygon","coordinates":[[[2.32991,50.56111],[2.32929,50.56071],[2.32891,50.56108],[2.33079,50.56246],[2.33145,50.56216],[2.32991,50.56111]]]}},{"type":"Feature","properties":{"k":"MIS","s":1.082},"geometry":{"type":"Polygon","coordinates":[[[2.33221,50.5599],[2.33411,50.5611],[2.33407,50.56046],[2.33335,50.56],[2.33358,50.55987],[2.33324,50.55964],[2.33412,50.55911],[2.33404,50.55886],[2.33221,50.5599]]]}},{"type":"Feature","properties":{"k":"BTH","s":4.048},"geometry":{"type":"Polygon","coordinates":[[[2.33327,50.56251],[2.33397,50.56219],[2.33412,50.56111],[2.33222,50.55991],[2.33017,50.56038],[2.33327,50.56251]]]}},{"type":"Feature","properties":{"k":"MIS","s":1.907},"geometry":{"type":"Polygon","coordinates":[[[2.33201,50.56253],[2.33279,50.56218],[2.33019,50.56039],[2.32929,50.56071],[2.33201,50.56253]]]}},{"type":"Feature","properties":{"k":"BTH","s":1.45},"geometry":{"type":"Polygon","coordinates":[[[2.32891,50.56108],[2.32863,50.56137],[2.33191,50.56382],[2.33235,50.56355],[2.32891,50.56108]]]}},{"type":"Feature","properties":{"k":"MIS","s":2.049},"geometry":{"type":"Polygon","coordinates":[[[2.33258,50.56341],[2.33359,50.56398],[2.33347,50.56366],[2.33382,50.56286],[2.33279,50.56218],[2.33201,50.56253],[2.33145,50.56216],[2.33083,50.56244],[2.33234,50.56354],[2.33258,50.56341]]]}},{"type":"Feature","properties":{"k":"BTN","s":10.303},"geometry":{"type":"Polygon","coordinates":[[[2.32661,50.5623],[2.32844,50.564],[2.33118,50.56593],[2.33212,50.56526],[2.3325,50.56552],[2.33278,50.56533],[2.33384,50.56598],[2.33402,50.56541],[2.32863,50.56137],[2.32829,50.56165],[2.32661,50.5623]]]}},{"type":"Feature","properties":{"k":"BTN","s":0.549},"geometry":{"type":"Polygon","coordinates":[[[2.32667,50.56222],[2.32844,50.56147],[2.32786,50.56127],[2.32642,50.56203],[2.32667,50.56222]]]}},{"type":"Feature","properties":{"k":"MIS","s":4.746},"geometry":{"type":"Polygon","coordinates":[[[2.32661,50.5623],[2.32491,50.5629],[2.32633,50.56458],[2.32716,50.5645],[2.32844,50.56546],[2.32954,50.56482],[2.32661,50.5623]]]}},{"type":"Feature","properties":{"k":"BTH","s":1.953},"geometry":{"type":"Polygon","coordinates":[[[2.32844,50.56546],[2.3301,50.56677],[2.3311,50.56591],[2.32954,50.56482],[2.32844,50.56546]]]}},{"type":"Feature","properties":{"k":"BTH","s":0.94},"geometry":{"type":"Polygon","coordinates":[[[2.3325,50.56552],[2.33212,50.56526],[2.33017,50.56677],[2.3305,50.56707],[2.3325,50.56552]]]}},{"type":"Feature","properties":{"k":"BTH","s":2.905},"geometry":{"type":"Polygon","coordinates":[[[2.33237,50.56564],[2.33051,50.56709],[2.33186,50.56793],[2.33368,50.56658],[2.33368,50.56638],[2.33237,50.56564]]]}},{"type":"Feature","properties":{"k":"MIS","s":0.631},"geometry":{"type":"Polygon","coordinates":[[[2.33326,50.56781],[2.33375,50.56738],[2.33368,50.56658],[2.33242,50.56748],[2.33326,50.56781]]]}},{"type":"Feature","properties":{"k":"MIS","s":0.484},"geometry":{"type":"Polygon","coordinates":[[[2.33384,50.56598],[2.33278,50.56533],[2.33239,50.56563],[2.33358,50.56633],[2.33384,50.56598]]]}},{"type":"Feature","properties":{"k":"PPH","s":0.85},"geometry":{"type":"Polygon","coordinates":[[[2.33256,50.56346],[2.33195,50.56383],[2.33312,50.56471],[2.3337,50.56437],[2.33362,50.56401],[2.33256,50.56346]]]}},{"type":"Feature","properties":{"k":"BTH","s":0.26},"geometry":{"type":"Polygon","coordinates":[[[2.33387,50.56469],[2.33399,50.56499],[2.33489,50.56445],[2.33458,50.56421],[2.33387,50.56469]]]}},{"type":"Feature","properties":{"k":"BTN","s":1.86},"geometry":{"type":"Polygon","coordinates":[[[2.33401,50.565],[2.33411,50.56524],[2.33519,50.56464],[2.33581,50.56519],[2.33663,50.56476],[2.33384,50.563],[2.33358,50.56348],[2.33491,50.56446],[2.33401,50.565]]]}},{"type":"Feature","properties":{"k":"MIS","s":0.581},"geometry":{"type":"Polygon","coordinates":[[[2.33641,50.56573],[2.3373,50.56527],[2.33663,50.56476],[2.33581,50.56519],[2.33641,50.56573]]]}},{"type":"Feature","properties":{"k":"MIS","s":1.169},"geometry":{"type":"Polygon","coordinates":[[[2.33519,50.56464],[2.33411,50.56527],[2.33414,50.56548],[2.33499,50.56606],[2.33604,50.56544],[2.33519,50.56464]]]}},{"type":"Feature","properties":{"k":"BTH","s":0.318},"geometry":{"type":"Polygon","coordinates":[[[2.33341,50.56498],[2.33395,50.56536],[2.33373,50.56438],[2.33314,50.56472],[2.33341,50.56498]]]}},{"type":"Feature","properties":{"k":"PPH","s":4.624},"geometry":{"type":"Polygon","coordinates":[[[2.33659,50.56799],[2.33849,50.56918],[2.33875,50.5689],[2.3377,50.56826],[2.33812,50.56785],[2.33639,50.56655],[2.33788,50.56759],[2.33823,50.56733],[2.33606,50.56544],[2.33499,50.56607],[2.33415,50.56549],[2.3339,50.56603],[2.33659,50.56799]]]}},{"type":"Feature","properties":{"k":"PTC","s":9.166},"geometry":{"type":"Polygon","coordinates":[[[2.34011,50.56412],[2.34182,50.56279],[2.34105,50.56237],[2.33757,50.56484],[2.33783,50.56501],[2.33641,50.56573],[2.33835,50.56737],[2.34026,50.566],[2.34047,50.56608],[2.34178,50.56506],[2.34011,50.56412]],[[2.34021,50.56422],[2.34005,50.56417],[2.34008,50.56414],[2.34021,50.56422]]]}},{"type":"Feature","properties":{"k":"BTH","s":5.25},"geometry":{"type":"Polygon","coordinates":[[[2.33786,50.56346],[2.33423,50.56136],[2.33384,50.563],[2.3373,50.56527],[2.33783,50.56501],[2.33692,50.56441],[2.33786,50.56346]]]}},{"type":"Feature","properties":{"k":"PTR","s":0.175},"geometry":{"type":"Polygon","coordinates":[[[2.33395,50.56218],[2.33329,50.56251],[2.33382,50.56286],[2.33395,50.56218]]]}},{"type":"Feature","properties":{"k":"BTN","s":4.888},"geometry":{"type":"Polygon","coordinates":[[[2.33423,50.56136],[2.33786,50.56346],[2.33908,50.56268],[2.3342,50.55993],[2.33423,50.56136]]]}},{"type":"Feature","properties":{"k":"BTH","s":5.888},"geometry":{"type":"Polygon","coordinates":[[[2.3342,50.55993],[2.33907,50.56268],[2.33999,50.5621],[2.3348,50.55852],[2.33417,50.55879],[2.33473,50.55922],[2.33419,50.55957],[2.3342,50.55993]]]}},{"type":"Feature","properties":{"k":"BTH","s":16.091},"geometry":{"type":"Polygon","coordinates":[[[2.3369,50.55906],[2.33614,50.55947],[2.34,50.5621],[2.33786,50.56346],[2.33692,50.56441],[2.33757,50.56484],[2.34262,50.56131],[2.3423,50.56108],[2.34277,50.56084],[2.33989,50.55868],[2.34002,50.55859],[2.3397,50.55823],[2.33906,50.55779],[2.33849,50.55816],[2.33729,50.55758],[2.33677,50.55761],[2.33557,50.55819],[2.3369,50.55906]]]}},{"type":"Feature","properties":{"k":"BTH","s":5.162},"geometry":{"type":"Polygon","coordinates":[[[2.34011,50.56412],[2.34179,50.56505],[2.34326,50.56398],[2.34276,50.56366],[2.34346,50.56319],[2.34455,50.56386],[2.34488,50.56357],[2.34387,50.56287],[2.34447,50.56249],[2.34342,50.56171],[2.34011,50.56412]]]}},{"type":"Feature","properties":{"k":"BTH","s":1.218},"geometry":{"type":"Polygon","coordinates":[[[2.34185,50.56281],[2.34342,50.56168],[2.34269,50.56126],[2.34105,50.56237],[2.34185,50.56281]]]}},{"type":"Feature","properties":{"k":"MIS","s":0.455},"geometry":{"type":"Polygon","coordinates":[[[2.34527,50.56326],[2.34435,50.5626],[2.34387,50.56287],[2.34486,50.56356],[2.34527,50.56326]]]}},{"type":"Feature","properties":{"k":"BTH","s":0.228},"geometry":{"type":"Polygon","coordinates":[[[2.34549,50.56312],[2.34457,50.56243],[2.34433,50.56258],[2.34529,50.56327],[2.34549,50.56312]]]}},{"type":"Feature","properties":{"k":"MIS","s":1.384},"geometry":{"type":"Polygon","coordinates":[[[2.34551,50.56069],[2.34453,50.56113],[2.34512,50.56176],[2.34539,50.56162],[2.3463,50.56264],[2.34673,50.56193],[2.34551,50.56069]]]}},{"type":"Feature","properties":{"k":"JAC","s":0.096},"geometry":{"type":"Polygon","coordinates":[[[2.34385,50.56069],[2.34355,50.56088],[2.34386,50.56107],[2.34413,50.56086],[2.34385,50.56069]]]}},{"type":"Feature","properties":{"k":"MSW","s":0.131},"geometry":{"type":"Polygon","coordinates":[[[2.34574,50.56092],[2.34591,50.56109],[2.3466,50.56072],[2.34643,50.56058],[2.34574,50.56092]]]}},{"type":"Feature","properties":{"k":"PPH","s":2.349},"geometry":{"type":"Polygon","coordinates":[[[2.3446,50.56042],[2.34403,50.56072],[2.34453,50.56113],[2.34617,50.56036],[2.34575,50.56006],[2.34649,50.5597],[2.34677,50.5599],[2.34815,50.55933],[2.3475,50.55881],[2.34619,50.55949],[2.3459,50.55933],[2.3443,50.56019],[2.3446,50.56042]]]}},{"type":"Feature","properties":{"k":"PPH","s":0.752},"geometry":{"type":"Polygon","coordinates":[[[2.34637,50.5605],[2.34757,50.56002],[2.34745,50.55989],[2.34787,50.55974],[2.34795,50.55983],[2.34823,50.55969],[2.34815,50.55936],[2.34675,50.55996],[2.34651,50.55977],[2.34579,50.56008],[2.34637,50.5605]]]}},{"type":"Feature","properties":{"k":"MIS","s":0.86},"geometry":{"type":"Polygon","coordinates":[[[2.34837,50.56106],[2.34737,50.56011],[2.3465,50.56046],[2.34766,50.56139],[2.34837,50.56106]]]}},{"type":"Feature","properties":{"k":"PPH","s":0.21},"geometry":{"type":"Polygon","coordinates":[[[2.34853,50.56208],[2.34963,50.56169],[2.34953,50.56157],[2.34833,50.56189],[2.34853,50.56208]]]}},{"type":"Feature","properties":{"k":"PPH","s":1.192},"geometry":{"type":"Polygon","coordinates":[[[2.35084,50.56117],[2.35157,50.56093],[2.35091,50.55982],[2.34987,50.56042],[2.35025,50.56078],[2.34958,50.56106],[2.34974,50.56118],[2.35084,50.56117]]]}},{"type":"Feature","properties":{"k":"BTH","s":0.441},"geometry":{"type":"Polygon","coordinates":[[[2.35256,50.56264],[2.35242,50.56219],[2.35163,50.56249],[2.3524,50.56332],[2.35256,50.56264]]]}},{"type":"Feature","properties":{"k":"MLF","s":1.778},"geometry":{"type":"Polygon","coordinates":[[[2.35214,50.56405],[2.35239,50.56334],[2.35163,50.56249],[2.3524,50.56217],[2.35199,50.56166],[2.35029,50.56219],[2.35214,50.56405]]]}},{"type":"Feature","properties":{"k":"PTR","s":4.825},"geometry":{"type":"Polygon","coordinates":[[[2.3468,50.5628],[2.34767,50.56331],[2.34689,50.56391],[2.3479,50.56445],[2.35088,50.56278],[2.35024,50.56217],[2.35075,50.56201],[2.35064,50.56183],[2.35026,50.56195],[2.35001,50.56155],[2.34853,50.56208],[2.34833,50.56189],[2.3468,50.5628]]]}},{"type":"Feature","properties":{"k":"BTN","s":2.5},"geometry":{"type":"Polygon","coordinates":[[[2.34793,50.56446],[2.34882,50.565],[2.35155,50.56348],[2.35088,50.56278],[2.34793,50.56446]]]}},{"type":"Feature","properties":{"k":"BTH","s":1.476},"geometry":{"type":"Polygon","coordinates":[[[2.3521,50.56409],[2.35155,50.56348],[2.34882,50.565],[2.34923,50.56524],[2.3521,50.56409]]]}},{"type":"Feature","properties":{"k":"BTH","s":0.5},"geometry":{"type":"Polygon","coordinates":[[[2.35242,50.56467],[2.35219,50.56437],[2.35082,50.56527],[2.35121,50.56549],[2.35242,50.56467]]]}},{"type":"Feature","properties":{"k":"BTH","s":0.319},"geometry":{"type":"Polygon","coordinates":[[[2.35122,50.56552],[2.35149,50.56567],[2.35266,50.56485],[2.35242,50.56468],[2.35122,50.56552]]]}},{"type":"Feature","properties":{"k":"BTH","s":6.373},"geometry":{"type":"Polygon","coordinates":[[[2.3502,50.56492],[2.34863,50.56568],[2.35306,50.56813],[2.3534,50.56788],[2.35379,50.56816],[2.3541,50.56795],[2.35454,50.56821],[2.35535,50.56767],[2.3502,50.56492]]]}},{"type":"Feature","properties":{"k":"PTC","s":4.001},"geometry":{"type":"Polygon","coordinates":[[[2.3476,50.56624],[2.35219,50.56878],[2.35306,50.56813],[2.34863,50.56568],[2.3476,50.56624]]]}},{"type":"Feature","properties":{"k":"CZH","s":12.413},"geometry":{"type":"Polygon","coordinates":[[[2.34414,50.56579],[2.34318,50.56527],[2.34196,50.56602],[2.34108,50.56721],[2.3442,50.56824],[2.34923,50.56524],[2.34688,50.56392],[2.34414,50.56579]]]}}]}