{"type":"FeatureCollection","features":[{"type":"Feature","properties":{"k":"ORH","s":15.704},"geometry":{"type":"Polygon","coordinates":[[[2.56703,50.45252],[2.56658,50.45224],[2.56955,50.45094],[2.56768,50.45013],[2.56674,50.44938],[2.56563,50.44987],[2.5634,50.44831],[2.56033,50.44963],[2.56057,50.44994],[2.56455,50.45261],[2.56703,50.45252]]]}},{"type":"Feature","properties":{"k":"PPH","s":1.963},"geometry":{"type":"Polygon","coordinates":[[[2.58105,50.45156],[2.58087,50.45116],[2.5821,50.45079],[2.58213,50.4503],[2.58277,50.45016],[2.5822,50.44971],[2.58117,50.45],[2.58026,50.45055],[2.57987,50.45094],[2.5801,50.45134],[2.58105,50.45156]]]}},{"type":"Feature","properties":{"k":"BTH","s":6.526},"geometry":{"type":"Polygon","coordinates":[[[2.5747,50.45632],[2.5751,50.45618],[2.57444,50.45464],[2.57449,50.45383],[2.5753,50.45288],[2.57549,50.45158],[2.5751,50.45171],[2.57519,50.45199],[2.57287,50.45265],[2.57261,50.4524],[2.57205,50.4527],[2.57192,50.45324],[2.57219,50.45417],[2.5747,50.45632]]]}},{"type":"Feature","properties":{"k":"BTH","s":13.599},"geometry":{"type":"Polygon","coordinates":[[[2.57454,50.45691],[2.57349,50.45588],[2.57152,50.45445],[2.57035,50.45387],[2.57019,50.4534],[2.56829,50.45382],[2.56799,50.45371],[2.56766,50.45313],[2.56596,50.45313],[2.56768,50.45643],[2.56932,50.45655],[2.56933,50.45644],[2.56975,50.45646],[2.56972,50.45659],[2.57454,50.45691]]]}},{"type":"Feature","properties":{"k":"BTH","s":3.956},"geometry":{"type":"Polygon","coordinates":[[[2.5728,50.45867],[2.57303,50.45693],[2.57279,50.45691],[2.56937,50.45666],[2.569,50.45701],[2.57174,50.4586],[2.5728,50.45867]]]}},{"type":"Feature","properties":{"k":"BTH","s":8.154},"geometry":{"type":"Polygon","coordinates":[[[2.57174,50.4586],[2.57157,50.45891],[2.57287,50.4598],[2.57312,50.46048],[2.57437,50.46099],[2.57614,50.45987],[2.57517,50.4579],[2.57476,50.45726],[2.57456,50.45705],[2.57303,50.45693],[2.5728,50.45867],[2.57174,50.4586]],[[2.57466,50.45717],[2.57433,50.45704],[2.57456,50.45706],[2.57466,50.45717]]]}},{"type":"Feature","properties":{"k":"BTH","s":0.764},"geometry":{"type":"Polygon","coordinates":[[[2.56969,50.45846],[2.57025,50.4585],[2.57157,50.45891],[2.57175,50.45859],[2.57028,50.45784],[2.56968,50.45828],[2.56969,50.45846]]]}},{"type":"Feature","properties":{"k":"BTH","s":3.155},"geometry":{"type":"Polygon","coordinates":[[[2.56572,50.4564],[2.56447,50.4572],[2.56478,50.45742],[2.5664,50.45717],[2.56719,50.45745],[2.56803,50.45805],[2.56941,50.45669],[2.56572,50.4564]]]}},{"type":"Feature","properties":{"k":"PPH","s":0.34},"geometry":{"type":"Polygon","coordinates":[[[2.56813,50.45816],[2.56747,50.45773],[2.56754,50.45798],[2.56834,50.45838],[2.56969,50.45846],[2.56968,50.45828],[2.56813,50.45816]]]}},{"type":"Feature","properties":{"k":"BTH","s":9.858},"geometry":{"type":"Polygon","coordinates":[[[2.5621,50.45311],[2.56361,50.45616],[2.56768,50.45643],[2.56596,50.45313],[2.5621,50.45311]]]}},{"type":"Feature","properties":{"k":"BTH","s":4.587},"geometry":{"type":"Polygon","coordinates":[[[2.56199,50.45605],[2.56052,50.453],[2.55859,50.45293],[2.56,50.45592],[2.56199,50.45605]]]}},{"type":"Feature","properties":{"k":"BTH","s":3.646},"geometry":{"type":"Polygon","coordinates":[[[2.56061,50.45301],[2.56207,50.45609],[2.56363,50.4562],[2.56208,50.45306],[2.56061,50.45301]]]}},{"type":"Feature","properties":{"k":"BTH","s":5.329},"geometry":{"type":"Polygon","coordinates":[[[2.55723,50.45435],[2.55746,50.45422],[2.55789,50.45472],[2.55698,50.45528],[2.55776,50.45578],[2.56001,50.45594],[2.55858,50.45291],[2.55702,50.45278],[2.55596,50.45326],[2.55723,50.45435]]]}},{"type":"Feature","properties":{"k":"BTH","s":2.299},"geometry":{"type":"Polygon","coordinates":[[[2.55817,50.45593],[2.55708,50.45668],[2.55712,50.45703],[2.55691,50.45715],[2.55762,50.45776],[2.5602,50.45602],[2.55817,50.45593]]]}},{"type":"Feature","properties":{"k":"BTH","s":12.444},"geometry":{"type":"Polygon","coordinates":[[[2.5607,50.45991],[2.56253,50.45897],[2.56258,50.45873],[2.5623,50.45842],[2.56344,50.45769],[2.56456,50.45744],[2.56447,50.4572],[2.56559,50.4564],[2.56021,50.45601],[2.55763,50.45775],[2.5588,50.45877],[2.5592,50.45857],[2.5607,50.45991]]]}},{"type":"Feature","properties":{"k":"MIS","s":2.303},"geometry":{"type":"Polygon","coordinates":[[[2.57557,50.45685],[2.57839,50.45649],[2.57808,50.45556],[2.57506,50.45593],[2.57557,50.45685]]]}},{"type":"Feature","properties":{"k":"PPH","s":4.055},"geometry":{"type":"Polygon","coordinates":[[[2.56708,50.44309],[2.56797,50.44486],[2.57081,50.44362],[2.56955,50.44235],[2.56708,50.44309]]]}},{"type":"Feature","properties":{"k":"PPH","s":0.101},"geometry":{"type":"Polygon","coordinates":[[[2.55774,50.44646],[2.55807,50.44681],[2.55833,50.44673],[2.55801,50.44637],[2.55774,50.44646]]]}},{"type":"Feature","properties":{"k":"PPH","s":0.016},"geometry":{"type":"Polygon","coordinates":[[[2.55951,50.44548],[2.55957,50.44555],[2.56008,50.44546],[2.55951,50.44548]]]}},{"type":"Feature","properties":{"k":"JAC","s":0.1},"geometry":{"type":"Polygon","coordinates":[[[2.56051,50.44733],[2.56041,50.44723],[2.55956,50.44758],[2.55967,50.44769],[2.56051,50.44733]]]}},{"type":"Feature","properties":{"k":"PPH","s":6.743},"geometry":{"type":"Polygon","coordinates":[[[2.56431,50.44734],[2.56363,50.44655],[2.56179,50.44532],[2.55954,50.4456],[2.55942,50.44566],[2.56043,50.44725],[2.56174,50.44845],[2.56431,50.44734]]]}},{"type":"Feature","properties":{"k":"BTN","s":3.164},"geometry":{"type":"Polygon","coordinates":[[[2.55915,50.44755],[2.55864,50.44787],[2.56029,50.44958],[2.56208,50.4488],[2.56051,50.44733],[2.55967,50.44769],[2.55956,50.44758],[2.55915,50.44755]]]}},{"type":"Feature","properties":{"k":"MIS","s":0.052},"geometry":{"type":"Polygon","coordinates":[[[2.55857,50.44791],[2.55939,50.44871],[2.55943,50.4487],[2.55857,50.44791]]]}},{"type":"Feature","properties":{"k":"CZH","s":8.681},"geometry":{"type":"Polygon","coordinates":[[[2.55954,50.45228],[2.55931,50.45239],[2.55973,50.45246],[2.56456,50.45262],[2.56057,50.44994],[2.55629,50.45166],[2.55954,50.45228]]]}},{"type":"Feature","properties":{"k":"BTH","s":0.013},"geometry":{"type":"Polygon","coordinates":[[[2.55939,50.44871],[2.56005,50.44935],[2.55943,50.4487],[2.55939,50.44871]]]}},{"type":"Feature","properties":{"k":"MIS","s":2.4},"geometry":{"type":"Polygon","coordinates":[[[2.56563,50.44987],[2.56674,50.44938],[2.56463,50.44778],[2.56341,50.44831],[2.56563,50.44987]]]}},{"type":"Feature","properties":{"k":"PTC","s":3.261},"geometry":{"type":"Polygon","coordinates":[[[2.581,50.4568],[2.57574,50.45744],[2.57674,50.45929],[2.57638,50.458],[2.58176,50.4575],[2.581,50.4568]]]}},{"type":"Feature","properties":{"k":"BTN","s":6.037},"geometry":{"type":"Polygon","coordinates":[[[2.56878,50.45039],[2.5714,50.44987],[2.56696,50.44756],[2.5656,50.44829],[2.5676,50.44992],[2.56878,50.45039]]]}},{"type":"Feature","properties":{"k":"PTR","s":0.308},"geometry":{"type":"Polygon","coordinates":[[[2.56719,50.44754],[2.56783,50.44703],[2.56964,50.44649],[2.57048,50.44607],[2.57039,50.446],[2.56782,50.44697],[2.56719,50.44754]]]}},{"type":"Feature","properties":{"k":"MIS","s":0.819},"geometry":{"type":"Polygon","coordinates":[[[2.56859,50.4463],[2.56731,50.4466],[2.56701,50.44631],[2.56634,50.44664],[2.5672,50.44732],[2.56773,50.44683],[2.5687,50.44659],[2.56859,50.4463]]]}},{"type":"Feature","properties":{"k":"BTH","s":1.007},"geometry":{"type":"Polygon","coordinates":[[[2.56172,50.44847],[2.56208,50.4488],[2.5646,50.4477],[2.56431,50.44734],[2.56172,50.44847]]]}},{"type":"Feature","properties":{"k":"PPH","s":3.907},"geometry":{"type":"Polygon","coordinates":[[[2.56594,50.44535],[2.56677,50.44612],[2.56496,50.44696],[2.5645,50.44737],[2.56495,50.44786],[2.56556,50.44817],[2.5672,50.44732],[2.56634,50.44664],[2.56709,50.44627],[2.5669,50.44607],[2.56765,50.44572],[2.56725,50.4454],[2.56669,50.44566],[2.56592,50.44496],[2.56435,50.44558],[2.56353,50.44575],[2.56319,50.44567],[2.56278,50.44584],[2.56368,50.44641],[2.56594,50.44535]]]}},{"type":"Feature","properties":{"k":"BTH","s":1.905},"geometry":{"type":"Polygon","coordinates":[[[2.56594,50.44535],[2.56368,50.44641],[2.56496,50.44696],[2.56677,50.44612],[2.56594,50.44535]]]}},{"type":"Feature","properties":{"k":"PPH","s":2.349},"geometry":{"type":"Polygon","coordinates":[[[2.56881,50.44655],[2.5706,50.44578],[2.57064,50.44548],[2.56994,50.44462],[2.56782,50.4454],[2.56881,50.44655]]]}},{"type":"Feature","properties":{"k":"JAC","s":0.051},"geometry":{"type":"Polygon","coordinates":[[[2.57083,50.44529],[2.57199,50.44479],[2.57194,50.44474],[2.57083,50.44529]]]}},{"type":"Feature","properties":{"k":"MIS","s":8.146},"geometry":{"type":"Polygon","coordinates":[[[2.57441,50.44919],[2.57482,50.44907],[2.57504,50.44766],[2.5744,50.44574],[2.57397,50.44543],[2.57321,50.44582],[2.57199,50.44479],[2.57078,50.44527],[2.57059,50.44596],[2.57441,50.44919]]]}},{"type":"Feature","properties":{"k":"PTC","s":6.327},"geometry":{"type":"Polygon","coordinates":[[[2.56974,50.4477],[2.56904,50.44857],[2.57151,50.44986],[2.57438,50.44919],[2.57181,50.44715],[2.56974,50.4477]]]}},{"type":"Feature","properties":{"k":"BTH","s":1.816},"geometry":{"type":"Polygon","coordinates":[[[2.57046,50.44607],[2.56964,50.44649],[2.56783,50.44703],[2.5672,50.44754],[2.5677,50.44786],[2.57106,50.44655],[2.57046,50.44607]]]}},{"type":"Feature","properties":{"k":"BTH","s":2.158},"geometry":{"type":"Polygon","coordinates":[[[2.56903,50.44857],[2.56974,50.44768],[2.57183,50.44714],[2.57108,50.44654],[2.5677,50.44786],[2.56903,50.44857]]]}},{"type":"Feature","properties":{"k":"JAC","s":0.353},"geometry":{"type":"Polygon","coordinates":[[[2.57086,50.45227],[2.57182,50.45211],[2.57113,50.45172],[2.57046,50.45186],[2.57086,50.45227]]]}},{"type":"Feature","properties":{"k":"MIS","s":3.297},"geometry":{"type":"Polygon","coordinates":[[[2.57182,50.45211],[2.57262,50.45195],[2.57245,50.45182],[2.57342,50.45145],[2.5712,50.4501],[2.56896,50.45062],[2.57182,50.45211]]]}},{"type":"Feature","properties":{"k":"BTH","s":2.791},"geometry":{"type":"Polygon","coordinates":[[[2.57144,50.45003],[2.5735,50.45142],[2.5739,50.45124],[2.57472,50.44934],[2.57144,50.45003]]]}},{"type":"Feature","properties":{"k":"BTH","s":2.533},"geometry":{"type":"Polygon","coordinates":[[[2.57581,50.45105],[2.5771,50.45049],[2.57769,50.4499],[2.57688,50.44957],[2.57509,50.44934],[2.57478,50.45038],[2.57581,50.45105]]]}},{"type":"Feature","properties":{"k":"BOR","s":0.269},"geometry":{"type":"Polygon","coordinates":[[[2.57781,50.4525],[2.57739,50.45276],[2.57731,50.45286],[2.57744,50.45291],[2.57806,50.45248],[2.57636,50.45166],[2.57612,50.45185],[2.57636,50.45183],[2.57781,50.4525]]]}},{"type":"Feature","properties":{"k":"PPH","s":0.123},"geometry":{"type":"Polygon","coordinates":[[[2.57875,50.45135],[2.57856,50.45108],[2.57791,50.45104],[2.57824,50.45133],[2.57875,50.45135]]]}},{"type":"Feature","properties":{"k":"PPH","s":1.157},"geometry":{"type":"Polygon","coordinates":[[[2.58062,50.45261],[2.58114,50.45235],[2.58067,50.4523],[2.58036,50.45189],[2.58083,50.45173],[2.57915,50.45149],[2.57875,50.45184],[2.57971,50.45263],[2.5802,50.4523],[2.58062,50.45261]]]}},{"type":"Feature","properties":{"k":"MIS","s":0.0},"geometry":{"type":"Polygon","coordinates":[]}},{"type":"Feature","properties":{"k":"PTR","s":1.344},"geometry":{"type":"Polygon","coordinates":[[[2.58015,50.44958],[2.58119,50.44942],[2.58041,50.44851],[2.58197,50.44782],[2.57837,50.44938],[2.57901,50.44956],[2.58015,50.44958]]]}},{"type":"Feature","properties":{"k":"CZH","s":17.88},"geometry":{"type":"Polygon","coordinates":[[[2.58307,50.44527],[2.5827,50.44431],[2.57527,50.44734],[2.57533,50.44823],[2.57558,50.44824],[2.57553,50.44897],[2.57787,50.44947],[2.57837,50.44938],[2.58197,50.44782],[2.58309,50.44729],[2.58307,50.44527]]]}},{"type":"Feature","properties":{"k":"PTR","s":1.812},"geometry":{"type":"Polygon","coordinates":[[[2.5748,50.44583],[2.57673,50.44451],[2.57574,50.44391],[2.57425,50.44472],[2.5748,50.44583]]]}},{"type":"Feature","properties":{"k":"MIS","s":10.797},"geometry":{"type":"Polygon","coordinates":[[[2.58269,50.44244],[2.58204,50.44215],[2.58076,50.44331],[2.57767,50.4451],[2.57673,50.44451],[2.5748,50.44583],[2.57527,50.44734],[2.5827,50.44431],[2.58247,50.44286],[2.58269,50.44244]]]}},{"type":"Feature","properties":{"k":"PPH","s":0.415},"geometry":{"type":"Polygon","coordinates":[[[2.57121,50.44375],[2.57094,50.44419],[2.57145,50.44481],[2.57202,50.44454],[2.57121,50.44375]]]}},{"type":"Feature","properties":{"k":"PPH","s":0.689},"geometry":{"type":"Polygon","coordinates":[[[2.57094,50.44419],[2.56994,50.44462],[2.57048,50.44528],[2.57145,50.44481],[2.57094,50.44419]]]}},{"type":"Feature","properties":{"k":"ORP","s":3.886},"geometry":{"type":"Polygon","coordinates":[[[2.57762,50.45393],[2.57467,50.45497],[2.57507,50.45593],[2.57891,50.45545],[2.57762,50.45393]]]}},{"type":"Feature","properties":{"k":"BTH","s":2.486},"geometry":{"type":"Polygon","coordinates":[[[2.57762,50.45393],[2.57749,50.45381],[2.57926,50.453],[2.57875,50.45268],[2.57857,50.45277],[2.57833,50.45263],[2.57485,50.45433],[2.57498,50.45451],[2.57453,50.45471],[2.57465,50.45498],[2.57762,50.45393]]]}},{"type":"Feature","properties":{"k":"BTH","s":2.785},"geometry":{"type":"Polygon","coordinates":[[[2.57467,50.45379],[2.57454,50.45446],[2.57756,50.453],[2.57731,50.45286],[2.57781,50.4525],[2.57636,50.45183],[2.57467,50.45379]]]}},{"type":"Feature","properties":{"k":"JAC","s":0.394},"geometry":{"type":"Polygon","coordinates":[[[2.57908,50.45447],[2.57961,50.45418],[2.57902,50.4544],[2.57889,50.4542],[2.57811,50.45447],[2.57853,50.45493],[2.57922,50.45467],[2.57908,50.45447]]]}},{"type":"Feature","properties":{"k":"PPH","s":0.99},"geometry":{"type":"Polygon","coordinates":[[[2.58001,50.45506],[2.57862,50.45646],[2.58059,50.4562],[2.58001,50.45506]]]}},{"type":"Feature","properties":{"k":"ORH","s":1.876},"geometry":{"type":"Polygon","coordinates":[[[2.57559,50.4569],[2.57574,50.45744],[2.57994,50.4569],[2.57978,50.45637],[2.57559,50.4569]]]}},{"type":"Feature","properties":{"k":"CZH","s":0.016},"geometry":{"type":"Polygon","coordinates":[[[2.55872,50.4588],[2.55875,50.45883],[2.55921,50.4586],[2.55872,50.4588]]]}},{"type":"Feature","properties":{"k":"PPH","s":0.158},"geometry":{"type":"MultiPolygon","coordinates":[[[[2.59282,50.44701],[2.59277,50.44703],[2.59305,50.44725],[2.59282,50.44701]]],[[[2.59758,50.44607],[2.59768,50.44604],[2.59766,50.44603],[2.59758,50.44607]]],[[[2.59447,50.4474],[2.59328,50.4468],[2.59443,50.44746],[2.59552,50.44713],[2.5971,50.44631],[2.59447,50.4474]]]]}},{"type":"Feature","properties":{"k":"BTN","s":6.274},"geometry":{"type":"Polygon","coordinates":[[[2.59388,50.4444],[2.59052,50.4424],[2.58867,50.44333],[2.59248,50.4458],[2.59388,50.4444]]]}},{"type":"Feature","properties":{"k":"MIS","s":1.518},"geometry":{"type":"Polygon","coordinates":[[[2.58897,50.4431],[2.58967,50.44274],[2.58867,50.44209],[2.58828,50.441],[2.5871,50.4416],[2.58897,50.4431]]]}},{"type":"Feature","properties":{"k":"JAC","s":1.04},"geometry":{"type":"Polygon","coordinates":[[[2.5854,50.4403],[2.58505,50.44004],[2.58594,50.43954],[2.58749,50.44027],[2.58702,50.43984],[2.58578,50.43937],[2.58313,50.44112],[2.58343,50.44136],[2.5854,50.4403]]]}},{"type":"Feature","properties":{"k":"BTH","s":4.187},"geometry":{"type":"Polygon","coordinates":[[[2.5874,50.4403],[2.58705,50.44],[2.58594,50.43954],[2.58505,50.44004],[2.5854,50.4403],[2.58513,50.44045],[2.58343,50.44136],[2.58313,50.44112],[2.58275,50.44141],[2.58275,50.4428],[2.58325,50.4426],[2.58314,50.4425],[2.58343,50.44235],[2.58354,50.44244],[2.5874,50.4403]]]}},{"type":"Feature","properties":{"k":"ORP","s":2.662},"geometry":{"type":"Polygon","coordinates":[[[2.58789,50.44069],[2.58748,50.44028],[2.58275,50.4428],[2.58266,50.44359],[2.58789,50.44069]]]}},{"type":"Feature","properties":{"k":"LBF","s":3.226},"geometry":{"type":"Polygon","coordinates":[[[2.58548,50.44252],[2.58736,50.44395],[2.58897,50.4431],[2.5871,50.4416],[2.58548,50.44252]]]}},{"type":"Feature","properties":{"k":"ORP","s":2.106},"geometry":{"type":"Polygon","coordinates":[[[2.58688,50.4436],[2.58626,50.44314],[2.58307,50.44491],[2.58324,50.44549],[2.58688,50.4436]]]}},{"type":"Feature","properties":{"k":"ORH","s":1.864},"geometry":{"type":"Polygon","coordinates":[[[2.58356,50.44606],[2.58739,50.44398],[2.58688,50.44361],[2.58346,50.44548],[2.58356,50.44606]]]}},{"type":"Feature","properties":{"k":"PPH","s":2.469},"geometry":{"type":"Polygon","coordinates":[[[2.58305,50.44489],[2.58626,50.44313],[2.58548,50.44252],[2.58275,50.444],[2.58305,50.44489]]]}},{"type":"Feature","properties":{"k":"ORP","s":3.898},"geometry":{"type":"Polygon","coordinates":[[[2.58442,50.4479],[2.5846,50.44815],[2.58356,50.44844],[2.58356,50.4487],[2.58676,50.4478],[2.58392,50.44594],[2.58322,50.44642],[2.5835,50.44817],[2.58442,50.4479]]]}},{"type":"Feature","properties":{"k":"ORH","s":8.991},"geometry":{"type":"Polygon","coordinates":[[[2.58969,50.44704],[2.59036,50.4467],[2.58676,50.44437],[2.58392,50.44594],[2.58676,50.4478],[2.58969,50.44704]]]}},{"type":"Feature","properties":{"k":"CZH","s":6.739},"geometry":{"type":"Polygon","coordinates":[[[2.58676,50.44436],[2.59036,50.4467],[2.59075,50.44646],[2.59219,50.4461],[2.59248,50.4458],[2.58867,50.44333],[2.58676,50.44436]]]}},{"type":"Feature","properties":{"k":"PPH","s":0.054},"geometry":{"type":"Polygon","coordinates":[[[2.59139,50.44751],[2.5907,50.44777],[2.59088,50.4479],[2.59139,50.44751]]]}},{"type":"Feature","properties":{"k":"BTH","s":3.874},"geometry":{"type":"Polygon","coordinates":[[[2.58718,50.44825],[2.58687,50.44847],[2.58752,50.44924],[2.5892,50.44916],[2.59065,50.44778],[2.59139,50.44751],[2.5917,50.44774],[2.59223,50.44722],[2.59211,50.44685],[2.58718,50.44825]]]}}]}