{"type":"FeatureCollection","features":[{"type":"Feature","properties":{"k":"MIS","s":3.68},"geometry":{"type":"Polygon","coordinates":[[[1.67561,50.77228],[1.67531,50.77152],[1.6768,50.77141],[1.67685,50.7723],[1.67737,50.77224],[1.67754,50.77046],[1.67679,50.77041],[1.67675,50.77025],[1.67543,50.77031],[1.67529,50.77015],[1.67471,50.77028],[1.67393,50.76974],[1.6735,50.77],[1.67561,50.77228]]]}},{"type":"Feature","properties":{"k":"PPH","s":3.261},"geometry":{"type":"Polygon","coordinates":[[[1.67104,50.7654],[1.67075,50.765],[1.67125,50.76329],[1.66964,50.76351],[1.66845,50.76399],[1.66841,50.76417],[1.66944,50.7643],[1.66966,50.76456],[1.66914,50.76469],[1.66943,50.76504],[1.66885,50.76524],[1.66884,50.76551],[1.66921,50.76586],[1.67104,50.7654]]]}},{"type":"Feature","properties":{"k":"PTR","s":1.014},"geometry":{"type":"Polygon","coordinates":[[[1.66876,50.76503],[1.66928,50.76487],[1.66894,50.76447],[1.66709,50.76511],[1.66749,50.76571],[1.66889,50.76516],[1.66876,50.76503]]]}},{"type":"Feature","properties":{"k":"PPH","s":2.687},"geometry":{"type":"Polygon","coordinates":[[[1.66702,50.7638],[1.66608,50.76356],[1.66458,50.76201],[1.66383,50.76226],[1.66481,50.76315],[1.66468,50.76322],[1.66615,50.76502],[1.66701,50.7649],[1.66702,50.7638]]]}},{"type":"Feature","properties":{"k":"MIS","s":9.011},"geometry":{"type":"Polygon","coordinates":[[[1.6594,50.76478],[1.66088,50.76471],[1.66208,50.76592],[1.66618,50.76563],[1.667,50.76523],[1.66701,50.7649],[1.66615,50.76502],[1.66468,50.76322],[1.66324,50.76389],[1.66249,50.76405],[1.66156,50.76405],[1.65998,50.76345],[1.6596,50.76354],[1.6594,50.76478]]]}},{"type":"Feature","properties":{"k":"PTR","s":2.258},"geometry":{"type":"Polygon","coordinates":[[[1.65434,50.77097],[1.65234,50.77078],[1.6526,50.77172],[1.65355,50.77249],[1.65537,50.77102],[1.65434,50.77097]]]}},{"type":"Feature","properties":{"k":"MIS","s":3.054},"geometry":{"type":"Polygon","coordinates":[[[1.65548,50.76419],[1.65469,50.76381],[1.65452,50.76309],[1.65322,50.76326],[1.65286,50.76482],[1.65306,50.76499],[1.6556,50.76504],[1.65548,50.76419]]]}},{"type":"Feature","properties":{"k":"MIS","s":11.232},"geometry":{"type":"Polygon","coordinates":[[[1.67278,50.7653],[1.67293,50.76506],[1.67437,50.76536],[1.67651,50.76666],[1.67442,50.76536],[1.67569,50.76365],[1.67433,50.76307],[1.67514,50.76251],[1.67347,50.7606],[1.67086,50.76327],[1.67125,50.76329],[1.67078,50.765],[1.67104,50.76533],[1.67278,50.7653]]]}},{"type":"Feature","properties":{"k":"BTH","s":0.703},"geometry":{"type":"Polygon","coordinates":[[[1.67059,50.77117],[1.67064,50.77079],[1.66981,50.77007],[1.66942,50.77058],[1.66934,50.77104],[1.67059,50.77117]]]}},{"type":"Feature","properties":{"k":"FLA","s":0.198},"geometry":{"type":"Polygon","coordinates":[[[1.66963,50.76721],[1.67044,50.76759],[1.6703,50.76704],[1.66963,50.76721]]]}},{"type":"Feature","properties":{"k":"MIS","s":2.504},"geometry":{"type":"Polygon","coordinates":[[[1.67161,50.76798],[1.67217,50.76777],[1.67201,50.76753],[1.67253,50.76742],[1.67386,50.76746],[1.67525,50.76797],[1.67639,50.76786],[1.67271,50.76681],[1.6703,50.76704],[1.67044,50.76759],[1.67161,50.76798]]]}},{"type":"Feature","properties":{"k":"PTC","s":0.503},"geometry":{"type":"Polygon","coordinates":[[[1.67359,50.76858],[1.67426,50.76938],[1.6746,50.76927],[1.67393,50.76833],[1.67267,50.7686],[1.6728,50.76884],[1.67359,50.76858]]]}},{"type":"Feature","properties":{"k":"MIS","s":0.632},"geometry":{"type":"Polygon","coordinates":[[[1.67516,50.7691],[1.67485,50.76813],[1.67393,50.76833],[1.6746,50.76927],[1.67516,50.7691]]]}},{"type":"Feature","properties":{"k":"PPH","s":6.229},"geometry":{"type":"Polygon","coordinates":[[[1.66973,50.76681],[1.66954,50.76696],[1.66963,50.76721],[1.67123,50.76689],[1.67271,50.76681],[1.67639,50.76786],[1.67814,50.76776],[1.67817,50.76734],[1.67779,50.76692],[1.67672,50.76709],[1.6766,50.76748],[1.6743,50.76653],[1.67416,50.76678],[1.67284,50.76684],[1.67259,50.76532],[1.67104,50.76539],[1.66921,50.76586],[1.66901,50.76612],[1.66939,50.76675],[1.66973,50.76681]]]}},{"type":"Feature","properties":{"k":"BTH","s":1.844},"geometry":{"type":"Polygon","coordinates":[[[1.65343,50.77325],[1.65474,50.7746],[1.65509,50.7745],[1.65572,50.7741],[1.6526,50.77172],[1.65343,50.77325]]]}},{"type":"Feature","properties":{"k":"MIS","s":4.86},"geometry":{"type":"Polygon","coordinates":[[[1.65357,50.77248],[1.65519,50.77365],[1.65789,50.77172],[1.65753,50.77102],[1.65549,50.77102],[1.65357,50.77248]]]}},{"type":"Feature","properties":{"k":"MIS","s":0.156},"geometry":{"type":"Polygon","coordinates":[[[1.66407,50.76595],[1.66618,50.76563],[1.66393,50.7658],[1.66407,50.76595]]]}},{"type":"Feature","properties":{"k":"BTH","s":2.456},"geometry":{"type":"Polygon","coordinates":[[[1.69055,50.77167],[1.69254,50.77101],[1.6919,50.7702],[1.69018,50.77034],[1.68898,50.77058],[1.69055,50.77167]]]}},{"type":"Feature","properties":{"k":"PTR","s":1.448},"geometry":{"type":"Polygon","coordinates":[[[1.6894,50.76903],[1.68897,50.76944],[1.69033,50.77023],[1.69192,50.7701],[1.69015,50.76913],[1.6894,50.76903]]]}},{"type":"Feature","properties":{"k":"ORH","s":0.003},"geometry":{"type":"Polygon","coordinates":[[[1.68763,50.76838],[1.68748,50.76834],[1.68795,50.76851],[1.68763,50.76838]]]}},{"type":"Feature","properties":{"k":"PPH","s":5.394},"geometry":{"type":"Polygon","coordinates":[[[1.65657,50.76176],[1.65756,50.76174],[1.65756,50.76193],[1.65795,50.76193],[1.65826,50.76173],[1.65879,50.76174],[1.65926,50.76135],[1.65773,50.7602],[1.65653,50.7604],[1.65584,50.76014],[1.65528,50.76124],[1.65379,50.76215],[1.65315,50.76192],[1.653,50.76239],[1.65657,50.76231],[1.65657,50.76176]]]}},{"type":"Feature","properties":{"k":"BTA","s":0.074},"geometry":{"type":"Polygon","coordinates":[[[1.65802,50.7637],[1.65808,50.76369],[1.65784,50.76238],[1.65802,50.7637]]]}},{"type":"Feature","properties":{"k":"PPH","s":0.004},"geometry":{"type":"Polygon","coordinates":[[[1.65409,50.76195],[1.65412,50.76187],[1.65396,50.76204],[1.65409,50.76195]]]}},{"type":"Feature","properties":{"k":"PTR","s":0.001},"geometry":{"type":"Polygon","coordinates":[[[1.65303,50.76213],[1.65296,50.76238],[1.65298,50.76239],[1.65303,50.76213]]]}},{"type":"Feature","properties":{"k":"AVP","s":0.634},"geometry":{"type":"Polygon","coordinates":[[[1.65457,50.76307],[1.65444,50.76244],[1.65354,50.76246],[1.65325,50.76327],[1.65457,50.76307]]]}},{"type":"Feature","properties":{"k":"PTR","s":0.327},"geometry":{"type":"Polygon","coordinates":[[[1.65335,50.76961],[1.65507,50.76968],[1.65357,50.76914],[1.65335,50.76961]]]}},{"type":"Feature","properties":{"k":"BTH","s":2.872},"geometry":{"type":"Polygon","coordinates":[[[1.65291,50.77073],[1.65687,50.77093],[1.6551,50.76968],[1.65335,50.76961],[1.65291,50.77073]]]}},{"type":"Feature","properties":{"k":"BTH","s":1.916},"geometry":{"type":"Polygon","coordinates":[[[1.65576,50.76855],[1.65393,50.76798],[1.65329,50.76903],[1.65509,50.76969],[1.65576,50.76855]]]}},{"type":"Feature","properties":{"k":"BTH","s":0.395},"geometry":{"type":"Polygon","coordinates":[[[1.65419,50.7676],[1.65323,50.76755],[1.65347,50.76821],[1.65333,50.76885],[1.65419,50.7676]]]}},{"type":"Feature","properties":{"k":"BTH","s":11.504},"geometry":{"type":"Polygon","coordinates":[[[1.65754,50.7693],[1.66256,50.76998],[1.66317,50.76926],[1.66154,50.76888],[1.66206,50.76808],[1.66354,50.76869],[1.66374,50.76843],[1.6609,50.76664],[1.66,50.76815],[1.6588,50.76791],[1.65866,50.76827],[1.65742,50.76804],[1.65696,50.76767],[1.65684,50.76774],[1.65681,50.76754],[1.65641,50.76738],[1.65476,50.76677],[1.65393,50.76798],[1.65576,50.76855],[1.65562,50.76878],[1.65754,50.7693]],[[1.6568,50.76771],[1.65632,50.76747],[1.6567,50.76762],[1.6568,50.76771]]]}},{"type":"Feature","properties":{"k":"MIS","s":1.627},"geometry":{"type":"Polygon","coordinates":[[[1.65687,50.77093],[1.65721,50.77092],[1.65625,50.7702],[1.65739,50.76927],[1.65562,50.76878],[1.65512,50.76971],[1.65687,50.77093]]]}},{"type":"Feature","properties":{"k":"MIS","s":0.776},"geometry":{"type":"Polygon","coordinates":[[[1.65824,50.77033],[1.65697,50.77071],[1.65721,50.77092],[1.65914,50.77086],[1.65917,50.77027],[1.65824,50.77033]]]}},{"type":"Feature","properties":{"k":"BTH","s":3.938},"geometry":{"type":"Polygon","coordinates":[[[1.65764,50.76416],[1.65671,50.76542],[1.65555,50.76519],[1.65559,50.76504],[1.65319,50.76506],[1.65338,50.76586],[1.6551,50.76596],[1.65534,50.76551],[1.6573,50.76585],[1.6586,50.76631],[1.65923,50.76583],[1.65764,50.76416]]]}},{"type":"Feature","properties":{"k":"BTH","s":4.504},"geometry":{"type":"Polygon","coordinates":[[[1.65697,50.77071],[1.65861,50.77028],[1.66048,50.77042],[1.66031,50.77101],[1.66259,50.77131],[1.66276,50.77071],[1.66112,50.77036],[1.66104,50.76969],[1.65739,50.76927],[1.65625,50.7702],[1.65697,50.77071]]]}},{"type":"Feature","properties":{"k":"PTR","s":0.58},"geometry":{"type":"Polygon","coordinates":[[[1.65645,50.76356],[1.6551,50.76363],[1.65514,50.76385],[1.65666,50.76375],[1.65721,50.76387],[1.65804,50.76446],[1.65762,50.76369],[1.65645,50.76356]]]}},{"type":"Feature","properties":{"k":"BTH","s":5.274},"geometry":{"type":"Polygon","coordinates":[[[1.65776,50.76238],[1.65451,50.76244],[1.65476,50.76378],[1.65548,50.76419],[1.65558,50.76518],[1.65671,50.76542],[1.65764,50.76415],[1.65676,50.7638],[1.65513,50.76386],[1.65508,50.76362],[1.65626,50.76353],[1.65801,50.76365],[1.65776,50.76238]]]}},{"type":"Feature","properties":{"k":"PPH","s":2.831},"geometry":{"type":"Polygon","coordinates":[[[1.65884,50.76273],[1.65887,50.76363],[1.65784,50.7637],[1.65817,50.7647],[1.65923,50.76583],[1.66082,50.76474],[1.66072,50.76465],[1.6594,50.76478],[1.6596,50.76354],[1.65998,50.76344],[1.65884,50.76273]]]}},{"type":"Feature","properties":{"k":"PTR","s":1.782},"geometry":{"type":"Polygon","coordinates":[[[1.66081,50.76318],[1.6619,50.76331],[1.66277,50.76308],[1.66391,50.76235],[1.66333,50.76178],[1.66163,50.76269],[1.6609,50.76285],[1.66081,50.76318]]]}},{"type":"Feature","properties":{"k":"BTH","s":0.576},"geometry":{"type":"Polygon","coordinates":[[[1.65925,50.77027],[1.65914,50.77086],[1.66031,50.77101],[1.66048,50.77042],[1.65925,50.77027]]]}},{"type":"Feature","properties":{"k":"PPH","s":4.493},"geometry":{"type":"Polygon","coordinates":[[[1.65941,50.76239],[1.65787,50.76237],[1.65827,50.76367],[1.65887,50.76363],[1.65884,50.76273],[1.66002,50.76347],[1.66179,50.76407],[1.6632,50.76389],[1.66479,50.76315],[1.66391,50.76235],[1.66277,50.76308],[1.66161,50.76336],[1.66081,50.76318],[1.66077,50.76293],[1.66103,50.76277],[1.65941,50.76239]]]}},{"type":"Feature","properties":{"k":"MIS","s":2.3},"geometry":{"type":"Polygon","coordinates":[[[1.69318,50.77639],[1.69233,50.77495],[1.69187,50.77462],[1.69115,50.77513],[1.69226,50.77654],[1.69257,50.77763],[1.69349,50.77756],[1.69318,50.77639]]]}},{"type":"Feature","properties":{"k":"MIS","s":0.201},"geometry":{"type":"Polygon","coordinates":[[[1.65343,50.77325],[1.65273,50.77212],[1.65296,50.77283],[1.65474,50.7746],[1.65343,50.77325]]]}},{"type":"Feature","properties":{"k":"PPH","s":8.51},"geometry":{"type":"Polygon","coordinates":[[[1.66057,50.76634],[1.66088,50.76617],[1.65983,50.76541],[1.6586,50.76631],[1.65728,50.76586],[1.65535,50.76553],[1.65475,50.76676],[1.65681,50.76754],[1.65743,50.76804],[1.65866,50.76827],[1.6588,50.76791],[1.66,50.76815],[1.66092,50.76661],[1.66057,50.76634]]]}},{"type":"Feature","properties":{"k":"PPH","s":7.178},"geometry":{"type":"Polygon","coordinates":[[[1.68969,50.77979],[1.69025,50.78005],[1.69079,50.77995],[1.69072,50.77983],[1.69197,50.77986],[1.6936,50.78078],[1.69502,50.78133],[1.69392,50.78],[1.69398,50.77839],[1.69345,50.77767],[1.69267,50.77768],[1.69135,50.77821],[1.68927,50.77928],[1.68969,50.77979]]]}},{"type":"Feature","properties":{"k":"PPH","s":1.803},"geometry":{"type":"MultiPolygon","coordinates":[[[[1.65507,50.766],[1.65336,50.76589],[1.65329,50.76575],[1.65322,50.76752],[1.65418,50.76756],[1.65507,50.766]]],[[[1.65316,50.76508],[1.65285,50.76487],[1.65318,50.76525],[1.65316,50.76508]]]]}},{"type":"Feature","properties":{"k":"PPH","s":4.499},"geometry":{"type":"Polygon","coordinates":[[[1.6889,50.77452],[1.68869,50.77499],[1.68894,50.7752],[1.68861,50.77619],[1.68948,50.77639],[1.68965,50.7759],[1.68925,50.77543],[1.6893,50.77512],[1.6896,50.77498],[1.68959,50.77458],[1.68993,50.7744],[1.69048,50.77478],[1.69026,50.77528],[1.6912,50.7753],[1.69139,50.77745],[1.69185,50.7776],[1.69189,50.7779],[1.69257,50.77763],[1.69226,50.77654],[1.69115,50.77513],[1.69187,50.77462],[1.69164,50.77407],[1.69055,50.77386],[1.69055,50.77404],[1.69,50.77429],[1.68931,50.77401],[1.68929,50.77357],[1.68831,50.77331],[1.6889,50.77452]]]}},{"type":"Feature","properties":{"k":"MIS","s":2.76},"geometry":{"type":"Polygon","coordinates":[[[1.68468,50.77556],[1.68966,50.77767],[1.69039,50.77744],[1.69086,50.77729],[1.69007,50.77704],[1.69008,50.77533],[1.68987,50.77534],[1.68949,50.77645],[1.68938,50.77704],[1.68972,50.77718],[1.68958,50.77713],[1.68507,50.77526],[1.68468,50.77556]]]}},{"type":"Feature","properties":{"k":"BTN","s":1.801},"geometry":{"type":"Polygon","coordinates":[[[1.69026,50.77528],[1.69013,50.77545],[1.6901,50.77705],[1.69139,50.77745],[1.6912,50.7753],[1.69026,50.77528]]]}},{"type":"Feature","properties":{"k":"BTH","s":5.081},"geometry":{"type":"Polygon","coordinates":[[[1.69185,50.7776],[1.69086,50.77729],[1.68966,50.77767],[1.68468,50.77556],[1.68436,50.77572],[1.68554,50.77658],[1.68528,50.77675],[1.6876,50.77774],[1.68775,50.7776],[1.68815,50.77777],[1.68901,50.77832],[1.68871,50.77852],[1.6892,50.77875],[1.68969,50.77845],[1.69023,50.77872],[1.69189,50.7779],[1.69185,50.7776]]]}},{"type":"Feature","properties":{"k":"MIS","s":0.216},"geometry":{"type":"Polygon","coordinates":[[[1.6892,50.77875],[1.68968,50.77898],[1.69023,50.77872],[1.68969,50.77845],[1.6892,50.77875]]]}},{"type":"Feature","properties":{"k":"MIS","s":2.555},"geometry":{"type":"Polygon","coordinates":[[[1.68471,50.77415],[1.68555,50.77475],[1.68691,50.77389],[1.6877,50.77311],[1.68606,50.77286],[1.68452,50.77357],[1.68471,50.77415]]]}},{"type":"Feature","properties":{"k":"PPH","s":1.823},"geometry":{"type":"Polygon","coordinates":[[[1.68892,50.77062],[1.68854,50.77115],[1.6889,50.77133],[1.68915,50.77173],[1.68954,50.77157],[1.68874,50.77097],[1.6889,50.77089],[1.68986,50.77158],[1.69111,50.77216],[1.69155,50.77269],[1.69254,50.77235],[1.69174,50.77128],[1.69055,50.77167],[1.68892,50.77062]]]}},{"type":"Feature","properties":{"k":"PPH","s":2.635},"geometry":{"type":"Polygon","coordinates":[[[1.69075,50.77205],[1.68979,50.77163],[1.68912,50.77176],[1.68851,50.77117],[1.68824,50.77198],[1.6889,50.77195],[1.68841,50.77322],[1.68916,50.77343],[1.68927,50.7732],[1.68901,50.7724],[1.68928,50.77236],[1.69008,50.77242],[1.69059,50.77349],[1.69158,50.77361],[1.69143,50.77302],[1.69075,50.77205]]]}},{"type":"Feature","properties":{"k":"PPH","s":0.427},"geometry":{"type":"MultiPolygon","coordinates":[[[[1.69255,50.7721],[1.69257,50.77103],[1.6918,50.77128],[1.69255,50.7721]]],[[[1.69208,50.77259],[1.69206,50.7726],[1.69227,50.7726],[1.69245,50.77247],[1.69208,50.77259]]],[[[1.69177,50.77286],[1.69198,50.77265],[1.6916,50.77287],[1.69177,50.77286]]],[[[1.69178,50.77438],[1.69213,50.77467],[1.69186,50.77444],[1.69177,50.77375],[1.6916,50.77332],[1.69178,50.77438]]],[[[1.69255,50.77504],[1.69251,50.77501],[1.69291,50.77571],[1.69255,50.77504]]]]}},{"type":"Feature","properties":{"k":"CZH","s":0.001},"geometry":{"type":"MultiPolygon","coordinates":[[[[1.67918,50.76557],[1.67935,50.76552],[1.67919,50.76555],[1.67918,50.76557]]]]}},{"type":"Feature","properties":{"k":"PTR","s":1.551},"geometry":{"type":"Polygon","coordinates":[[[1.68853,50.77622],[1.68701,50.77545],[1.68673,50.77569],[1.68532,50.77507],[1.68507,50.77526],[1.68938,50.77704],[1.68949,50.77645],[1.68853,50.77622]]]}},{"type":"Feature","properties":{"k":"PPH","s":1.254},"geometry":{"type":"Polygon","coordinates":[[[1.66399,50.76852],[1.66477,50.76826],[1.66469,50.76794],[1.6667,50.76782],[1.66518,50.76762],[1.66432,50.76793],[1.66389,50.7675],[1.66268,50.76759],[1.66399,50.76852]]]}},{"type":"Feature","properties":{"k":"PPH","s":3.94},"geometry":{"type":"Polygon","coordinates":[[[1.68968,50.77898],[1.68871,50.77852],[1.68901,50.77832],[1.68815,50.77777],[1.68775,50.7776],[1.6876,50.77774],[1.68528,50.77675],[1.68554,50.77658],[1.68496,50.77624],[1.68444,50.77671],[1.68484,50.77701],[1.68193,50.77865],[1.68294,50.77917],[1.68583,50.77726],[1.68949,50.77907],[1.68968,50.77898]]]}},{"type":"Feature","properties":{"k":"PPH","s":0.0},"geometry":{"type":"Polygon","coordinates":[]}},{"type":"Feature","properties":{"k":"MIS","s":1.285},"geometry":{"type":"Polygon","coordinates":[[[1.67751,50.77195],[1.67905,50.77197],[1.67904,50.77158],[1.67867,50.77111],[1.67825,50.77064],[1.67769,50.7704],[1.67751,50.77195]]]}},{"type":"Feature","properties":{"k":"MIS","s":1.988},"geometry":{"type":"Polygon","coordinates":[[[1.68131,50.77376],[1.6827,50.77349],[1.68269,50.77247],[1.68174,50.77221],[1.68152,50.77216],[1.68034,50.77289],[1.68131,50.77376]]]}},{"type":"Feature","properties":{"k":"PPH","s":10.515},"geometry":{"type":"Polygon","coordinates":[[[1.67751,50.77195],[1.67747,50.77343],[1.67886,50.77309],[1.6797,50.77419],[1.67979,50.77467],[1.68032,50.77463],[1.68187,50.77587],[1.68243,50.77554],[1.68322,50.77576],[1.68287,50.7753],[1.6835,50.77516],[1.68385,50.77467],[1.68415,50.77457],[1.68408,50.77439],[1.68471,50.77415],[1.68452,50.77357],[1.68516,50.77324],[1.68449,50.77324],[1.68391,50.77304],[1.68372,50.77285],[1.68417,50.77253],[1.68347,50.77242],[1.68331,50.77277],[1.68332,50.77178],[1.68222,50.77176],[1.68203,50.77214],[1.68186,50.77204],[1.68152,50.77216],[1.68269,50.77247],[1.6827,50.77349],[1.68131,50.77376],[1.68034,50.77289],[1.68009,50.77314],[1.67956,50.77305],[1.67905,50.77197],[1.67751,50.77195]]]}},{"type":"Feature","properties":{"k":"PPH","s":0.829},"geometry":{"type":"Polygon","coordinates":[[[1.68434,50.77494],[1.68464,50.77551],[1.68556,50.77477],[1.68475,50.77415],[1.68408,50.77439],[1.68434,50.77494]]]}},{"type":"Feature","properties":{"k":"BTA","s":0.029},"geometry":{"type":"Polygon","coordinates":[[[1.66382,50.75896],[1.66376,50.75893],[1.66339,50.7594],[1.66382,50.75896]]]}},{"type":"Feature","properties":{"k":"BTH","s":2.094},"geometry":{"type":"Polygon","coordinates":[[[1.66391,50.76112],[1.66416,50.76136],[1.66499,50.76095],[1.66656,50.75964],[1.66382,50.75896],[1.66346,50.75942],[1.66494,50.75987],[1.66474,50.7602],[1.665,50.76032],[1.66391,50.76112]]]}},{"type":"Feature","properties":{"k":"PPH","s":2.012},"geometry":{"type":"Polygon","coordinates":[[[1.66391,50.76112],[1.665,50.76032],[1.66474,50.7602],[1.66494,50.75987],[1.66339,50.7594],[1.66357,50.75999],[1.66344,50.76017],[1.66253,50.75996],[1.66254,50.76099],[1.66293,50.76137],[1.66321,50.76124],[1.66308,50.76099],[1.6636,50.76079],[1.66391,50.76112]]]}},{"type":"Feature","properties":{"k":"BTA","s":0.002},"geometry":{"type":"MultiPolygon","coordinates":[[[[1.66248,50.76078],[1.66243,50.76087],[1.66247,50.76085],[1.66248,50.76078]]],[[[1.66252,50.76038],[1.66252,50.76057],[1.66254,50.76049],[1.66252,50.76038]]]]}},{"type":"Feature","properties":{"k":"PTR","s":4.11},"geometry":{"type":"Polygon","coordinates":[[[1.6788,50.76624],[1.67792,50.76683],[1.67658,50.76703],[1.67652,50.7667],[1.67438,50.76537],[1.67293,50.76506],[1.6726,50.76531],[1.67284,50.76684],[1.67416,50.76678],[1.6743,50.76653],[1.6766,50.76748],[1.67672,50.76709],[1.67779,50.76692],[1.67817,50.76734],[1.6788,50.76624]]]}},{"type":"Feature","properties":{"k":"MIS","s":0.041},"geometry":{"type":"MultiPolygon","coordinates":[[[[1.66365,50.77435],[1.66577,50.77372],[1.66573,50.7737],[1.66365,50.77435]]]]}},{"type":"Feature","properties":{"k":"AVP","s":0.476},"geometry":{"type":"Polygon","coordinates":[[[1.6668,50.77367],[1.66649,50.77406],[1.66836,50.7745],[1.66838,50.77433],[1.6668,50.77367]]]}},{"type":"Feature","properties":{"k":"MSW","s":3.733},"geometry":{"type":"Polygon","coordinates":[[[1.67659,50.76436],[1.67582,50.76431],[1.67589,50.76521],[1.67638,50.76552],[1.67659,50.76702],[1.67789,50.7668],[1.67886,50.76619],[1.67939,50.76514],[1.67688,50.76529],[1.67659,50.76436]]]}},{"type":"Feature","properties":{"k":"BTH","s":1.051},"geometry":{"type":"Polygon","coordinates":[[[1.66744,50.77295],[1.66684,50.77366],[1.6684,50.7743],[1.66855,50.77326],[1.66744,50.77295]]]}},{"type":"Feature","properties":{"k":"PPH","s":4.574},"geometry":{"type":"Polygon","coordinates":[[[1.66708,50.77194],[1.66743,50.771],[1.66917,50.77099],[1.66942,50.77031],[1.66856,50.7701],[1.668,50.77088],[1.66757,50.77087],[1.66632,50.77012],[1.66646,50.76989],[1.66566,50.76965],[1.66501,50.7703],[1.66597,50.77077],[1.66568,50.77138],[1.66421,50.77106],[1.66368,50.77147],[1.66676,50.77263],[1.66724,50.77199],[1.66708,50.77194]]]}},{"type":"Feature","properties":{"k":"BTH","s":1.653},"geometry":{"type":"Polygon","coordinates":[[[1.66724,50.77199],[1.66676,50.77263],[1.66795,50.773],[1.66851,50.77095],[1.66743,50.771],[1.66708,50.77194],[1.66724,50.77199]]]}},{"type":"Feature","properties":{"k":"ORH","s":0.245},"geometry":{"type":"Polygon","coordinates":[[[1.67061,50.77195],[1.66929,50.77184],[1.66923,50.77206],[1.67057,50.77218],[1.67061,50.77195]]]}},{"type":"Feature","properties":{"k":"PPH","s":1.389},"geometry":{"type":"Polygon","coordinates":[[[1.66795,50.773],[1.66846,50.77313],[1.66881,50.77308],[1.66917,50.77125],[1.66917,50.77099],[1.66851,50.77097],[1.66795,50.773]]]}},{"type":"Feature","properties":{"k":"BTH","s":1.053},"geometry":{"type":"Polygon","coordinates":[[[1.66923,50.77206],[1.66899,50.77289],[1.67049,50.77313],[1.67062,50.77218],[1.66923,50.77206]]]}},{"type":"Feature","properties":{"k":"PPH","s":2.185},"geometry":{"type":"Polygon","coordinates":[[[1.67059,50.77117],[1.66934,50.77106],[1.66929,50.77181],[1.67064,50.77193],[1.67049,50.77313],[1.67196,50.77294],[1.67156,50.77224],[1.67168,50.77211],[1.67065,50.7708],[1.67059,50.77117]]]}},{"type":"Feature","properties":{"k":"PPH","s":2.59},"geometry":{"type":"Polygon","coordinates":[[[1.6712,50.77064],[1.67068,50.77061],[1.67186,50.77219],[1.67312,50.77196],[1.67447,50.77314],[1.67481,50.77293],[1.67307,50.77146],[1.67225,50.77051],[1.67131,50.77034],[1.6712,50.77064]]]}},{"type":"Feature","properties":{"k":"PTC","s":3.501},"geometry":{"type":"Polygon","coordinates":[[[1.6729,50.76979],[1.67226,50.77021],[1.67225,50.77051],[1.67307,50.77146],[1.67481,50.77293],[1.67568,50.77247],[1.67561,50.77228],[1.6735,50.77],[1.67328,50.77013],[1.6729,50.76979]]]}},{"type":"Feature","properties":{"k":"PPH","s":1.882},"geometry":{"type":"Polygon","coordinates":[[[1.67308,50.77199],[1.67185,50.77224],[1.67335,50.77396],[1.67435,50.77304],[1.67308,50.77199]]]}},{"type":"Feature","properties":{"k":"PPH","s":0.834},"geometry":{"type":"Polygon","coordinates":[[[1.67338,50.77402],[1.67188,50.7723],[1.67169,50.77232],[1.67267,50.7743],[1.67338,50.77402]]]}},{"type":"Feature","properties":{"k":"PPH","s":1.778},"geometry":{"type":"Polygon","coordinates":[[[1.672,50.77294],[1.67041,50.77314],[1.66899,50.77289],[1.66893,50.77306],[1.67044,50.77332],[1.67056,50.77424],[1.67251,50.77407],[1.672,50.77294]]]}},{"type":"Feature","properties":{"k":"JAC","s":0.001},"geometry":{"type":"Polygon","coordinates":[[[1.69437,50.78124],[1.6943,50.78121],[1.69443,50.78128],[1.69437,50.78124]]]}},{"type":"Feature","properties":{"k":"PTR","s":0.871},"geometry":{"type":"Polygon","coordinates":[[[1.66496,50.7703],[1.66417,50.77098],[1.66568,50.77138],[1.66593,50.77078],[1.66496,50.7703]]]}},{"type":"Feature","properties":{"k":"PPH","s":1.614},"geometry":{"type":"Polygon","coordinates":[[[1.66105,50.77031],[1.66404,50.77105],[1.66434,50.77062],[1.66424,50.77046],[1.6631,50.77009],[1.66105,50.76977],[1.66105,50.77031]]]}},{"type":"Feature","properties":{"k":"MIS","s":0.003},"geometry":{"type":"Polygon","coordinates":[]}},{"type":"Feature","properties":{"k":"BTH","s":3.212},"geometry":{"type":"Polygon","coordinates":[[[1.66158,50.77295],[1.66276,50.77224],[1.66217,50.77203],[1.66232,50.77133],[1.65855,50.77091],[1.66009,50.7721],[1.66158,50.77295]]]}},{"type":"Feature","properties":{"k":"BTH","s":0.662},"geometry":{"type":"Polygon","coordinates":[[[1.66232,50.77133],[1.66217,50.77203],[1.66275,50.77224],[1.66376,50.77159],[1.66232,50.77133]]]}},{"type":"Feature","properties":{"k":"AVP","s":1.84},"geometry":{"type":"Polygon","coordinates":[[[1.66157,50.77295],[1.66254,50.77349],[1.66381,50.77298],[1.66345,50.77272],[1.66451,50.77181],[1.66376,50.77159],[1.66157,50.77295]]]}},{"type":"Feature","properties":{"k":"MIS","s":3.353},"geometry":{"type":"Polygon","coordinates":[[[1.65957,50.7721],[1.65897,50.77237],[1.65971,50.77301],[1.66034,50.77395],[1.6613,50.77431],[1.66253,50.77347],[1.65967,50.77186],[1.65855,50.77092],[1.65799,50.77095],[1.65957,50.7721]]]}},{"type":"Feature","properties":{"k":"PPH","s":2.314},"geometry":{"type":"Polygon","coordinates":[[[1.65837,50.77355],[1.65805,50.77375],[1.65854,50.7741],[1.65921,50.77422],[1.66022,50.77395],[1.65965,50.77304],[1.65797,50.77159],[1.65764,50.77097],[1.65837,50.77355]]]}},{"type":"Feature","properties":{"k":"ORH","s":0.759},"geometry":{"type":"Polygon","coordinates":[[[1.65799,50.77158],[1.65892,50.77238],[1.65955,50.7721],[1.65799,50.77094],[1.65777,50.77096],[1.65799,50.77158]]]}},{"type":"Feature","properties":{"k":"PTR","s":0.139},"geometry":{"type":"Polygon","coordinates":[[[1.65753,50.77102],[1.65773,50.77154],[1.65799,50.77174],[1.6576,50.77096],[1.65554,50.77102],[1.65753,50.77102]]]}},{"type":"Feature","properties":{"k":"POT","s":0.099},"geometry":{"type":"Polygon","coordinates":[[[1.66562,50.76589],[1.66616,50.76564],[1.66469,50.76587],[1.66562,50.76589]]]}},{"type":"Feature","properties":{"k":"BTH","s":1.12},"geometry":{"type":"Polygon","coordinates":[[[1.66872,50.77327],[1.66863,50.77384],[1.67053,50.77413],[1.67044,50.77332],[1.66895,50.77307],[1.66872,50.77327]]]}},{"type":"Feature","properties":{"k":"PPH","s":3.74},"geometry":{"type":"Polygon","coordinates":[[[1.68434,50.77076],[1.68571,50.77134],[1.68679,50.77068],[1.68749,50.77047],[1.68689,50.76976],[1.68646,50.76987],[1.68636,50.76917],[1.68562,50.76919],[1.68541,50.76842],[1.68469,50.7688],[1.6844,50.76992],[1.68493,50.77009],[1.68434,50.77076]]]}},{"type":"Feature","properties":{"k":"BTH","s":8.866},"geometry":{"type":"Polygon","coordinates":[[[1.66488,50.76117],[1.66531,50.76156],[1.66678,50.76218],[1.66658,50.7625],[1.66698,50.76263],[1.66656,50.7634],[1.66668,50.76355],[1.66964,50.76351],[1.669,50.76074],[1.66699,50.75953],[1.66607,50.76004],[1.66488,50.76117]]]}},{"type":"Feature","properties":{"k":"PPH","s":9.351},"geometry":{"type":"Polygon","coordinates":[[[1.66791,50.76622],[1.66701,50.76526],[1.66552,50.7659],[1.66594,50.76644],[1.66536,50.7659],[1.66406,50.76597],[1.66391,50.76581],[1.66204,50.76594],[1.66083,50.76473],[1.65983,50.7654],[1.66092,50.76616],[1.66066,50.76636],[1.66252,50.7676],[1.66388,50.7675],[1.66449,50.7666],[1.66371,50.76622],[1.66271,50.76641],[1.66111,50.76628],[1.66273,50.76639],[1.6637,50.76619],[1.66419,50.76635],[1.66455,50.76664],[1.66393,50.76751],[1.66432,50.76793],[1.66518,50.76762],[1.66637,50.76778],[1.66683,50.76721],[1.66675,50.76694],[1.66791,50.76622]]]}},{"type":"Feature","properties":{"k":"MIS","s":1.373},"geometry":{"type":"Polygon","coordinates":[[[1.67992,50.76976],[1.68069,50.77093],[1.68149,50.77145],[1.68146,50.77163],[1.68192,50.7716],[1.68216,50.7709],[1.68099,50.77025],[1.68048,50.76958],[1.67992,50.76976]]]}},{"type":"Feature","properties":{"k":"BTH","s":7.242},"geometry":{"type":"Polygon","coordinates":[[[1.68176,50.76901],[1.6835,50.76776],[1.68161,50.76731],[1.67948,50.76736],[1.67894,50.76747],[1.67805,50.76796],[1.67801,50.7686],[1.67843,50.76986],[1.67969,50.76942],[1.67992,50.76976],[1.68176,50.76901]]]}},{"type":"Feature","properties":{"k":"PPH","s":3.971},"geometry":{"type":"Polygon","coordinates":[[[1.66206,50.76808],[1.66154,50.76888],[1.66317,50.76926],[1.66256,50.76998],[1.6631,50.77009],[1.66349,50.76965],[1.66451,50.76994],[1.66479,50.76974],[1.66531,50.76999],[1.66562,50.76949],[1.66526,50.76931],[1.66578,50.76886],[1.66537,50.76814],[1.66571,50.76795],[1.66471,50.76795],[1.66479,50.76827],[1.66399,50.76852],[1.66377,50.76839],[1.66354,50.76869],[1.66206,50.76808]]]}},{"type":"Feature","properties":{"k":"BTA","s":0.145},"geometry":{"type":"Polygon","coordinates":[[[1.66324,50.76818],[1.66374,50.76843],[1.66271,50.76764],[1.66092,50.76661],[1.66324,50.76818]]]}},{"type":"Feature","properties":{"k":"PTR","s":2.381},"geometry":{"type":"Polygon","coordinates":[[[1.65673,50.77331],[1.65716,50.77322],[1.65748,50.77388],[1.65829,50.77359],[1.65799,50.77174],[1.65519,50.77365],[1.65568,50.77403],[1.65673,50.77331]]]}},{"type":"Feature","properties":{"k":"BTH","s":0.011},"geometry":{"type":"MultiPolygon","coordinates":[[[[1.65756,50.77389],[1.65745,50.77395],[1.6578,50.77383],[1.65756,50.77389]]],[[[1.65649,50.77452],[1.65643,50.77458],[1.65718,50.7741],[1.65649,50.77452]]]]}},{"type":"Feature","properties":{"k":"PPH","s":0.445},"geometry":{"type":"Polygon","coordinates":[[[1.66656,50.7634],[1.66698,50.76263],[1.66658,50.7625],[1.66579,50.76298],[1.66656,50.7634]]]}},{"type":"Feature","properties":{"k":"BTH","s":4.72},"geometry":{"type":"Polygon","coordinates":[[[1.66921,50.75993],[1.66747,50.75984],[1.669,50.76074],[1.66959,50.76327],[1.67215,50.76051],[1.66921,50.75993]]]}},{"type":"Feature","properties":{"k":"PTR","s":3.055},"geometry":{"type":"Polygon","coordinates":[[[1.67086,50.76327],[1.6734,50.76062],[1.67235,50.76036],[1.66959,50.76327],[1.66964,50.76351],[1.67086,50.76327]]]}},{"type":"Feature","properties":{"k":"MIS","s":1.04},"geometry":{"type":"Polygon","coordinates":[[[1.67599,50.76313],[1.67372,50.76023],[1.67343,50.76059],[1.67521,50.7626],[1.67599,50.76313]]]}},{"type":"Feature","properties":{"k":"PPH","s":0.385},"geometry":{"type":"Polygon","coordinates":[[[1.67343,50.76059],[1.67376,50.76019],[1.67263,50.75995],[1.6724,50.76032],[1.67343,50.76059]]]}},{"type":"Feature","properties":{"k":"BTA","s":0.008},"geometry":{"type":"Polygon","coordinates":[[[1.67393,50.76033],[1.67376,50.76019],[1.67379,50.76025],[1.67393,50.76033]]]}},{"type":"Feature","properties":{"k":"PPH","s":0.988},"geometry":{"type":"Polygon","coordinates":[[[1.67656,50.76435],[1.67672,50.76396],[1.67879,50.76442],[1.67921,50.76407],[1.67913,50.76394],[1.67651,50.76356],[1.67632,50.76433],[1.67656,50.76435]]]}},{"type":"Feature","properties":{"k":"PTR","s":1.175},"geometry":{"type":"Polygon","coordinates":[[[1.67879,50.76442],[1.67674,50.76396],[1.67671,50.7647],[1.6794,50.76478],[1.67944,50.76546],[1.6794,50.76436],[1.67918,50.76409],[1.67879,50.76442]]]}},{"type":"Feature","properties":{"k":"LUZ","s":0.988},"geometry":{"type":"Polygon","coordinates":[[[1.67703,50.7647],[1.6767,50.7647],[1.67686,50.76529],[1.67939,50.76514],[1.6794,50.76478],[1.67703,50.7647]]]}},{"type":"Feature","properties":{"k":"PTR","s":2.199},"geometry":{"type":"Polygon","coordinates":[[[1.67433,50.76307],[1.67569,50.76365],[1.67442,50.76536],[1.67651,50.76666],[1.67636,50.76552],[1.67586,50.76519],[1.67573,50.76354],[1.67456,50.76304],[1.67514,50.76251],[1.67433,50.76307]]]}},{"type":"Feature","properties":{"k":"MIS","s":4.707},"geometry":{"type":"Polygon","coordinates":[[[1.6624,50.77496],[1.66347,50.7744],[1.66575,50.7737],[1.66499,50.77333],[1.66585,50.7724],[1.66451,50.77181],[1.66345,50.77272],[1.66381,50.77298],[1.66254,50.77349],[1.66136,50.77429],[1.6624,50.77496]]]}},{"type":"Feature","properties":{"k":"PPH","s":0.979},"geometry":{"type":"Polygon","coordinates":[[[1.68707,50.77507],[1.68695,50.77541],[1.68647,50.77549],[1.68651,50.77534],[1.68556,50.77489],[1.68532,50.77507],[1.68673,50.77569],[1.68701,50.77545],[1.68856,50.77614],[1.68874,50.77555],[1.68707,50.77507]]]}},{"type":"Feature","properties":{"k":"PPH","s":2.795},"geometry":{"type":"Polygon","coordinates":[[[1.68472,50.77655],[1.68497,50.77614],[1.68431,50.77569],[1.6832,50.77589],[1.68339,50.77613],[1.68136,50.77734],[1.68234,50.77793],[1.68472,50.77655]]]}},{"type":"Feature","properties":{"k":"MIS","s":1.388},"geometry":{"type":"Polygon","coordinates":[[[1.68337,50.77614],[1.68319,50.77591],[1.68031,50.7767],[1.68132,50.77733],[1.68337,50.77614]]]}},{"type":"Feature","properties":{"k":"MIS","s":1.101},"geometry":{"type":"Polygon","coordinates":[[[1.68444,50.77671],[1.68149,50.77838],[1.68193,50.77865],[1.68484,50.77701],[1.68444,50.77671]]]}},{"type":"Feature","properties":{"k":"ORH","s":3.61},"geometry":{"type":"Polygon","coordinates":[[[1.67767,50.7758],[1.678,50.77688],[1.67997,50.77671],[1.6812,50.77629],[1.67811,50.77504],[1.67788,50.77333],[1.67747,50.77343],[1.67767,50.7758]]]}},{"type":"Feature","properties":{"k":"ORP","s":1.139},"geometry":{"type":"Polygon","coordinates":[[[1.67803,50.77695],[1.67813,50.7772],[1.67846,50.77733],[1.67875,50.77806],[1.68048,50.7768],[1.68031,50.7767],[1.67803,50.77695]]]}},{"type":"Feature","properties":{"k":"MIS","s":0.038},"geometry":{"type":"Polygon","coordinates":[[[1.6775,50.77696],[1.67805,50.77717],[1.67796,50.77696],[1.6775,50.77696]]]}},{"type":"Feature","properties":{"k":"BTH","s":2.194},"geometry":{"type":"Polygon","coordinates":[[[1.68187,50.77587],[1.68032,50.77463],[1.67811,50.77504],[1.68122,50.77629],[1.68187,50.77587]]]}},{"type":"Feature","properties":{"k":"AVP","s":2.026},"geometry":{"type":"Polygon","coordinates":[[[1.67979,50.77471],[1.67969,50.77419],[1.67886,50.77309],[1.67788,50.77333],[1.67814,50.77503],[1.67979,50.77471]]]}},{"type":"Feature","properties":{"k":"BTH","s":1.802},"geometry":{"type":"Polygon","coordinates":[[[1.67694,50.77554],[1.67761,50.77585],[1.67739,50.77253],[1.67657,50.77256],[1.67694,50.77554]]]}},{"type":"Feature","properties":{"k":"BTH","s":2.094},"geometry":{"type":"Polygon","coordinates":[[[1.68149,50.77837],[1.68234,50.77793],[1.68048,50.77682],[1.67876,50.77812],[1.68116,50.77818],[1.68149,50.77837]]]}},{"type":"Feature","properties":{"k":"CZH","s":2.008},"geometry":{"type":"Polygon","coordinates":[[[1.67791,50.77687],[1.67767,50.77639],[1.67559,50.77511],[1.67457,50.77582],[1.67731,50.77688],[1.67791,50.77687]]]}},{"type":"Feature","properties":{"k":"ORP","s":5.586},"geometry":{"type":"Polygon","coordinates":[[[1.67524,50.77264],[1.67448,50.77316],[1.67435,50.77304],[1.67335,50.77396],[1.67642,50.77548],[1.67778,50.77643],[1.67761,50.77585],[1.67694,50.77554],[1.67657,50.77256],[1.67739,50.77253],[1.67739,50.77227],[1.67524,50.77264]]]}},{"type":"Feature","properties":{"k":"MIS","s":1.002},"geometry":{"type":"Polygon","coordinates":[[[1.67531,50.77152],[1.67569,50.77249],[1.67685,50.77232],[1.6768,50.77141],[1.67531,50.77152]]]}},{"type":"Feature","properties":{"k":"BTA","s":0.2},"geometry":{"type":"Polygon","coordinates":[[[1.67029,50.75999],[1.67238,50.76024],[1.66933,50.75971],[1.66716,50.75967],[1.66935,50.75977],[1.67029,50.75999]]]}},{"type":"Feature","properties":{"k":"PTR","s":0.743},"geometry":{"type":"Polygon","coordinates":[[[1.66921,50.75993],[1.67217,50.76052],[1.67236,50.76035],[1.67238,50.76024],[1.66935,50.75977],[1.66723,50.7597],[1.66747,50.75984],[1.66921,50.75993]]]}},{"type":"Feature","properties":{"k":"PPH","s":0.009},"geometry":{"type":"MultiPolygon","coordinates":[[[[1.66242,50.775],[1.66276,50.7748],[1.66238,50.77498],[1.66242,50.775]]],[[[1.66172,50.77458],[1.66218,50.77486],[1.66184,50.77464],[1.66172,50.77458]]]]}}]}