{"type":"FeatureCollection","features":[{"type":"Feature","properties":{"k":"MIS","s":2.702},"geometry":{"type":"Polygon","coordinates":[[[1.9486,50.53553],[1.94838,50.53655],[1.94925,50.53677],[1.94838,50.53729],[1.9496,50.53759],[1.95134,50.5361],[1.9486,50.53553]]]}},{"type":"Feature","properties":{"k":"TRE","s":2.984},"geometry":{"type":"Polygon","coordinates":[[[1.95045,50.53868],[1.95226,50.53633],[1.95158,50.53618],[1.94771,50.5393],[1.94983,50.53873],[1.95045,50.53868]]]}},{"type":"Feature","properties":{"k":"PPH","s":1.998},"geometry":{"type":"Polygon","coordinates":[[[1.94704,50.53926],[1.94793,50.53885],[1.94952,50.53757],[1.94838,50.53729],[1.94753,50.5378],[1.94671,50.53857],[1.94704,50.53926]]]}},{"type":"Feature","properties":{"k":"BTH","s":2.22},"geometry":{"type":"Polygon","coordinates":[[[1.95277,50.53961],[1.9532,50.53897],[1.95224,50.53889],[1.95041,50.54157],[1.95136,50.54173],[1.95277,50.53961]]]}},{"type":"Feature","properties":{"k":"ORH","s":7.192},"geometry":{"type":"Polygon","coordinates":[[[1.95041,50.54157],[1.95224,50.53889],[1.95009,50.53875],[1.94803,50.53928],[1.94709,50.54067],[1.94846,50.5412],[1.95041,50.54157]]]}},{"type":"Feature","properties":{"k":"CZH","s":1.021},"geometry":{"type":"Polygon","coordinates":[[[1.94608,50.53869],[1.94437,50.53911],[1.94475,50.53952],[1.94513,50.53937],[1.9456,50.53981],[1.94646,50.53958],[1.94608,50.53869]]]}},{"type":"Feature","properties":{"k":"PPH","s":3.374},"geometry":{"type":"Polygon","coordinates":[[[1.94073,50.53858],[1.94084,50.53982],[1.94088,50.53914],[1.94217,50.53911],[1.94235,50.54051],[1.94515,50.53993],[1.94436,50.53908],[1.9421,50.5387],[1.94127,50.53872],[1.93961,50.53799],[1.939,50.53786],[1.94073,50.53858]]]}},{"type":"Feature","properties":{"k":"PTC","s":4.959},"geometry":{"type":"Polygon","coordinates":[[[1.93698,50.54252],[1.93797,50.54176],[1.93727,50.5414],[1.93655,50.54064],[1.93395,50.54012],[1.93331,50.54171],[1.93698,50.54252]]]}},{"type":"Feature","properties":{"k":"LIF","s":3.653},"geometry":{"type":"Polygon","coordinates":[[[1.93655,50.54064],[1.93727,50.5414],[1.93804,50.5417],[1.93734,50.5413],[1.93662,50.54056],[1.93164,50.53958],[1.93104,50.54128],[1.93331,50.54171],[1.93395,50.54012],[1.93655,50.54064]]]}},{"type":"Feature","properties":{"k":"PPH","s":8.094},"geometry":{"type":"Polygon","coordinates":[[[1.93124,50.54057],[1.9316,50.53955],[1.93664,50.54055],[1.93744,50.54135],[1.93939,50.54055],[1.93834,50.54038],[1.93848,50.54012],[1.93962,50.54031],[1.93969,50.54023],[1.93736,50.5394],[1.93411,50.53849],[1.93353,50.53841],[1.93299,50.53857],[1.93188,50.53855],[1.93124,50.54057]]]}},{"type":"Feature","properties":{"k":"PPH","s":1.144},"geometry":{"type":"Polygon","coordinates":[[[1.93749,50.53758],[1.93725,50.53838],[1.93894,50.5388],[1.93897,50.53786],[1.93749,50.53758]]]}},{"type":"Feature","properties":{"k":"PPH","s":0.018},"geometry":{"type":"Polygon","coordinates":[[[1.93848,50.53776],[1.93923,50.53789],[1.93799,50.53763],[1.93848,50.53776]]]}},{"type":"Feature","properties":{"k":"BTH","s":2.562},"geometry":{"type":"Polygon","coordinates":[[[1.94035,50.54024],[1.94084,50.53982],[1.94073,50.53858],[1.939,50.53787],[1.93911,50.53979],[1.94035,50.54024]],[[1.93977,50.53919],[1.93979,50.53947],[1.93957,50.53946],[1.93958,50.53918],[1.93977,50.53919]]]}},{"type":"Feature","properties":{"k":"BTH","s":6.877},"geometry":{"type":"Polygon","coordinates":[[[1.93101,50.5413],[1.93015,50.54348],[1.93028,50.54328],[1.93347,50.54397],[1.93435,50.54256],[1.93643,50.54308],[1.93687,50.54269],[1.93612,50.54242],[1.93615,50.54229],[1.93101,50.5413]]]}},{"type":"Feature","properties":{"k":"CZH","s":3.049},"geometry":{"type":"Polygon","coordinates":[[[1.93031,50.54331],[1.92974,50.54439],[1.93282,50.54512],[1.93345,50.54399],[1.93031,50.54331]]]}},{"type":"Feature","properties":{"k":"CZH","s":0.014},"geometry":{"type":"Polygon","coordinates":[[[1.93017,50.54352],[1.93013,50.54351],[1.92969,50.54449],[1.93017,50.54352]]]}},{"type":"Feature","properties":{"k":"PPH","s":0.011},"geometry":{"type":"Polygon","coordinates":[[[1.92931,50.54533],[1.9293,50.54531],[1.92906,50.54572],[1.92931,50.54533]]]}},{"type":"Feature","properties":{"k":"PPH","s":3.349},"geometry":{"type":"Polygon","coordinates":[[[1.93429,50.54681],[1.93466,50.54689],[1.93479,50.54672],[1.93292,50.54625],[1.93224,50.54597],[1.93233,50.54577],[1.93097,50.54547],[1.9314,50.54478],[1.92974,50.54438],[1.9291,50.54573],[1.93501,50.54718],[1.93422,50.54692],[1.93429,50.54681]]]}},{"type":"Feature","properties":{"k":"PPH","s":1.044},"geometry":{"type":"Polygon","coordinates":[[[1.93523,50.54676],[1.93544,50.54638],[1.93238,50.54568],[1.93224,50.54597],[1.93304,50.54629],[1.93523,50.54676]]]}},{"type":"Feature","properties":{"k":"PPH","s":0.712},"geometry":{"type":"Polygon","coordinates":[[[1.93431,50.54695],[1.932,50.54639],[1.93186,50.54669],[1.93421,50.54731],[1.93438,50.54709],[1.93498,50.54726],[1.93431,50.54695]]]}},{"type":"Feature","properties":{"k":"PPH","s":1.753},"geometry":{"type":"Polygon","coordinates":[[[1.93323,50.54707],[1.93186,50.5467],[1.93073,50.5483],[1.93397,50.54915],[1.93402,50.54906],[1.93157,50.54845],[1.93233,50.54745],[1.93377,50.54777],[1.93288,50.54756],[1.93323,50.54707]]]}},{"type":"Feature","properties":{"k":"PPH","s":0.761},"geometry":{"type":"Polygon","coordinates":[[[1.93288,50.54756],[1.93463,50.54798],[1.93488,50.54748],[1.93323,50.54707],[1.93288,50.54756]]]}},{"type":"Feature","properties":{"k":"CZH","s":2.261},"geometry":{"type":"Polygon","coordinates":[[[1.93233,50.54745],[1.93157,50.54845],[1.93402,50.54906],[1.93463,50.54798],[1.93233,50.54745]]]}},{"type":"Feature","properties":{"k":"PPH","s":2.718},"geometry":{"type":"Polygon","coordinates":[[[1.93175,50.55016],[1.93269,50.54993],[1.9317,50.54976],[1.9323,50.54883],[1.93071,50.54833],[1.93061,50.54849],[1.93007,50.54833],[1.92986,50.5501],[1.93175,50.55016]]]}},{"type":"Feature","properties":{"k":"PPH","s":4.351},"geometry":{"type":"Polygon","coordinates":[[[1.92993,50.54832],[1.9297,50.55011],[1.92986,50.5501],[1.93014,50.54786],[1.93089,50.54807],[1.932,50.54639],[1.92906,50.54572],[1.92832,50.54734],[1.93002,50.54778],[1.92993,50.54832]]]}},{"type":"Feature","properties":{"k":"PPH","s":3.008},"geometry":{"type":"Polygon","coordinates":[[[1.92699,50.54916],[1.92982,50.54922],[1.93002,50.54778],[1.92832,50.54734],[1.92699,50.54916]]]}},{"type":"Feature","properties":{"k":"MIS","s":0.047},"geometry":{"type":"Polygon","coordinates":[[[1.92635,50.55019],[1.92638,50.54982],[1.92602,50.5502],[1.92635,50.55019]]]}},{"type":"Feature","properties":{"k":"BTN","s":3.406},"geometry":{"type":"Polygon","coordinates":[[[1.92597,50.55026],[1.92447,50.55183],[1.93093,50.55033],[1.93073,50.55017],[1.92597,50.55026]]]}},{"type":"Feature","properties":{"k":"BTH","s":3.327},"geometry":{"type":"Polygon","coordinates":[[[1.92973,50.55349],[1.93049,50.55277],[1.92659,50.55151],[1.92526,50.55194],[1.92525,50.55207],[1.92973,50.55349]]]}},{"type":"Feature","properties":{"k":"MIS","s":1.594},"geometry":{"type":"Polygon","coordinates":[[[1.92935,50.55385],[1.92973,50.55349],[1.92525,50.55207],[1.92519,50.55252],[1.92935,50.55385]]]}},{"type":"Feature","properties":{"k":"JAC","s":0.593},"geometry":{"type":"Polygon","coordinates":[[[1.92661,50.55297],[1.92519,50.55252],[1.9251,50.55308],[1.92619,50.55343],[1.92661,50.55297]]]}},{"type":"Feature","properties":{"k":"MIS","s":0.118},"geometry":{"type":"Polygon","coordinates":[[[1.92302,50.55319],[1.9228,50.55336],[1.92336,50.55341],[1.92345,50.5529],[1.92302,50.55319]]]}},{"type":"Feature","properties":{"k":"BTH","s":3.524},"geometry":{"type":"Polygon","coordinates":[[[1.92351,50.55288],[1.92322,50.55483],[1.92357,50.5552],[1.9248,50.55508],[1.92526,50.55194],[1.92351,50.55288]]]}},{"type":"Feature","properties":{"k":"PPH","s":0.001},"geometry":{"type":"MultiPolygon","coordinates":[]}},{"type":"Feature","properties":{"k":"CPL","s":6.112},"geometry":{"type":"Polygon","coordinates":[[[1.9248,50.55508],[1.92533,50.55503],[1.92746,50.55572],[1.92935,50.55385],[1.92661,50.55297],[1.92619,50.55343],[1.9251,50.55308],[1.9248,50.55508]]]}},{"type":"Feature","properties":{"k":"ORH","s":3.432},"geometry":{"type":"Polygon","coordinates":[[[1.92534,50.55504],[1.92635,50.55634],[1.93111,50.55749],[1.93172,50.55712],[1.92534,50.55504]]]}},{"type":"Feature","properties":{"k":"BTH","s":8.611},"geometry":{"type":"Polygon","coordinates":[[[1.93196,50.55641],[1.93122,50.55695],[1.93172,50.55712],[1.93235,50.55664],[1.93456,50.55717],[1.93685,50.55384],[1.93424,50.5531],[1.93196,50.55641]]]}},{"type":"Feature","properties":{"k":"BTH","s":20.655},"geometry":{"type":"Polygon","coordinates":[[[1.93375,50.54972],[1.93342,50.54993],[1.92751,50.55575],[1.93122,50.55695],[1.93196,50.55641],[1.93636,50.55001],[1.93375,50.54972]]]}},{"type":"Feature","properties":{"k":"CZH","s":2.486},"geometry":{"type":"Polygon","coordinates":[[[1.9264,50.5498],[1.92637,50.55019],[1.92777,50.55021],[1.92971,50.55011],[1.92982,50.54922],[1.92699,50.54916],[1.9264,50.5498]]]}},{"type":"Feature","properties":{"k":"BOR","s":0.032},"geometry":{"type":"Polygon","coordinates":[[[1.93093,50.55033],[1.93145,50.55021],[1.93092,50.55018],[1.93093,50.55033]]]}},{"type":"Feature","properties":{"k":"BTH","s":4.656},"geometry":{"type":"Polygon","coordinates":[[[1.93822,50.55164],[1.94057,50.54982],[1.93904,50.54841],[1.93702,50.54997],[1.93751,50.55106],[1.93822,50.55164]]]}},{"type":"Feature","properties":{"k":"BTH","s":6.008},"geometry":{"type":"Polygon","coordinates":[[[1.93767,50.5522],[1.93763,50.55191],[1.93694,50.55006],[1.93636,50.55001],[1.93424,50.5531],[1.93685,50.55384],[1.93757,50.55279],[1.93744,50.55227],[1.93767,50.5522]]]}},{"type":"Feature","properties":{"k":"ORH","s":4.047},"geometry":{"type":"Polygon","coordinates":[[[1.93772,50.55266],[1.93462,50.55718],[1.93574,50.55743],[1.93813,50.55399],[1.93772,50.55266]]]}},{"type":"Feature","properties":{"k":"BTH","s":7.114},"geometry":{"type":"Polygon","coordinates":[[[1.93273,50.55771],[1.935,50.55769],[1.93651,50.55872],[1.93896,50.55553],[1.93813,50.55399],[1.93573,50.55744],[1.93235,50.55664],[1.93168,50.55714],[1.93273,50.55771]]]}},{"type":"Feature","properties":{"k":"ORH","s":15.035},"geometry":{"type":"Polygon","coordinates":[[[1.93895,50.55533],[1.94018,50.55649],[1.941,50.55851],[1.94365,50.55723],[1.94494,50.55829],[1.94551,50.558],[1.94253,50.55551],[1.943,50.55519],[1.94019,50.55305],[1.93814,50.55172],[1.93772,50.55184],[1.93791,50.55311],[1.93895,50.55533]]]}},{"type":"Feature","properties":{"k":"BTH","s":10.84},"geometry":{"type":"Polygon","coordinates":[[[1.94258,50.55554],[1.94694,50.55918],[1.94931,50.55747],[1.9446,50.5545],[1.94258,50.55554]]]}},{"type":"Feature","properties":{"k":"ORH","s":5.296},"geometry":{"type":"Polygon","coordinates":[[[1.9413,50.55251],[1.93941,50.5507],[1.93822,50.55164],[1.94308,50.55514],[1.94408,50.5547],[1.9413,50.55251]]]}},{"type":"Feature","properties":{"k":"LIF","s":6.932},"geometry":{"type":"Polygon","coordinates":[[[1.94057,50.54982],[1.93941,50.5507],[1.9413,50.55251],[1.94408,50.5547],[1.94545,50.55402],[1.94308,50.55224],[1.94057,50.54982]]]}},{"type":"Feature","properties":{"k":"PPH","s":13.249},"geometry":{"type":"Polygon","coordinates":[[[1.94191,50.54858],[1.94058,50.54983],[1.94336,50.55251],[1.94545,50.55402],[1.94644,50.5535],[1.94746,50.55387],[1.9482,50.55306],[1.94482,50.55182],[1.9458,50.55095],[1.94379,50.54996],[1.9428,50.54922],[1.94155,50.54782],[1.94307,50.5459],[1.9423,50.54569],[1.94095,50.54724],[1.94191,50.54858]]]}},{"type":"Feature","properties":{"k":"PPH","s":5.382},"geometry":{"type":"Polygon","coordinates":[[[1.94613,50.54643],[1.94479,50.5463],[1.94318,50.54592],[1.94267,50.54654],[1.94303,50.54651],[1.94299,50.54676],[1.9425,50.54676],[1.94172,50.54781],[1.94287,50.54912],[1.94613,50.54643]]]}},{"type":"Feature","properties":{"k":"PTR","s":7.514},"geometry":{"type":"Polygon","coordinates":[[[1.94133,50.54761],[1.94095,50.54724],[1.93939,50.54639],[1.93652,50.54878],[1.93702,50.54997],[1.93906,50.54836],[1.94058,50.54983],[1.94191,50.54858],[1.94133,50.54761]]]}},{"type":"Feature","properties":{"k":"BTH","s":3.224},"geometry":{"type":"Polygon","coordinates":[[[1.93471,50.54815],[1.93375,50.54972],[1.93694,50.55005],[1.93608,50.548],[1.93471,50.54815]]]}},{"type":"Feature","properties":{"k":"PPH","s":0.269},"geometry":{"type":"Polygon","coordinates":[[[1.93683,50.54737],[1.93596,50.54722],[1.93621,50.54797],[1.93683,50.54737]]]}},{"type":"Feature","properties":{"k":"PPH","s":0.693},"geometry":{"type":"Polygon","coordinates":[[[1.93652,50.54878],[1.93766,50.54783],[1.93696,50.5474],[1.93628,50.54821],[1.93652,50.54878]]]}},{"type":"Feature","properties":{"k":"PPH","s":0.332},"geometry":{"type":"Polygon","coordinates":[[[1.93594,50.54756],[1.93578,50.54707],[1.93526,50.54702],[1.93497,50.54766],[1.93594,50.54756]]]}},{"type":"Feature","properties":{"k":"PPH","s":1.002},"geometry":{"type":"Polygon","coordinates":[[[1.93872,50.54511],[1.9378,50.54468],[1.93718,50.54532],[1.9381,50.54575],[1.93749,50.54642],[1.93787,50.54658],[1.9385,50.5459],[1.93821,50.54576],[1.93872,50.54511]]]}},{"type":"Feature","properties":{"k":"PPH","s":0.467},"geometry":{"type":"Polygon","coordinates":[[[1.93788,50.54656],[1.93832,50.54679],[1.93907,50.54622],[1.93873,50.54607],[1.93893,50.54584],[1.93857,50.54568],[1.93836,50.54584],[1.9385,50.5459],[1.93788,50.54656]]]}},{"type":"Feature","properties":{"k":"PPH","s":0.951},"geometry":{"type":"Polygon","coordinates":[[[1.93722,50.54437],[1.93839,50.54494],[1.93873,50.54429],[1.93902,50.54419],[1.93885,50.54368],[1.93807,50.54396],[1.93776,50.54375],[1.93722,50.54437]]]}},{"type":"Feature","properties":{"k":"PPH","s":3.881},"geometry":{"type":"Polygon","coordinates":[[[1.93438,50.54262],[1.93286,50.54505],[1.93397,50.54535],[1.93413,50.54509],[1.93592,50.54551],[1.93614,50.54513],[1.93524,50.54487],[1.93558,50.54438],[1.93482,50.54426],[1.93486,50.54414],[1.93549,50.54426],[1.93573,50.54389],[1.9351,50.54378],[1.93514,50.54369],[1.93575,50.54379],[1.9358,50.5437],[1.93498,50.54351],[1.93476,50.54372],[1.93387,50.54358],[1.93392,50.54348],[1.93455,50.54358],[1.93476,50.54343],[1.93558,50.54359],[1.93504,50.5434],[1.93509,50.54331],[1.93572,50.54346],[1.93575,50.54314],[1.93438,50.54262]]]}},{"type":"Feature","properties":{"k":"MIS","s":2.598},"geometry":{"type":"Polygon","coordinates":[[[1.94143,50.5453],[1.94197,50.54546],[1.94227,50.54506],[1.94296,50.54519],[1.94331,50.54473],[1.94433,50.54505],[1.94462,50.54473],[1.94554,50.54496],[1.9462,50.54419],[1.94381,50.54389],[1.94337,50.54454],[1.94232,50.54411],[1.94143,50.5453]]]}},{"type":"Feature","properties":{"k":"MIS","s":1.559},"geometry":{"type":"Polygon","coordinates":[[[1.94381,50.54389],[1.9426,50.54324],[1.94092,50.54423],[1.94203,50.5446],[1.94232,50.54411],[1.94337,50.54454],[1.94381,50.54389]]]}},{"type":"Feature","properties":{"k":"PPH","s":2.617},"geometry":{"type":"Polygon","coordinates":[[[1.94747,50.54489],[1.94856,50.5438],[1.94797,50.5438],[1.94712,50.54422],[1.9466,50.54426],[1.94497,50.54625],[1.94623,50.54635],[1.94747,50.54489]]]}},{"type":"Feature","properties":{"k":"MIS","s":2.076},"geometry":{"type":"Polygon","coordinates":[[[1.94574,50.54134],[1.94489,50.54075],[1.94415,50.54124],[1.94432,50.54149],[1.94241,50.54301],[1.94311,50.54344],[1.94497,50.54177],[1.94574,50.54134]]]}},{"type":"Feature","properties":{"k":"PPH","s":10.276},"geometry":{"type":"Polygon","coordinates":[[[1.94316,50.54149],[1.94404,50.54132],[1.94489,50.54075],[1.94574,50.54134],[1.94497,50.54177],[1.94311,50.54344],[1.94407,50.54394],[1.94467,50.54402],[1.94503,50.54371],[1.94546,50.5437],[1.94811,50.54291],[1.94751,50.54251],[1.94865,50.54132],[1.94544,50.54018],[1.94504,50.54011],[1.94391,50.54037],[1.94343,50.5406],[1.94315,50.54057],[1.94316,50.54073],[1.94244,50.54079],[1.94202,50.54067],[1.9416,50.54118],[1.94316,50.54149]]]}},{"type":"Feature","properties":{"k":"BTH","s":1.555},"geometry":{"type":"Polygon","coordinates":[[[1.94861,50.54136],[1.94751,50.54251],[1.94841,50.54309],[1.9499,50.54158],[1.94861,50.54136]]]}},{"type":"Feature","properties":{"k":"MIS","s":1.15},"geometry":{"type":"Polygon","coordinates":[[[1.95245,50.54362],[1.95349,50.54217],[1.95327,50.54213],[1.95066,50.54471],[1.95108,50.54494],[1.95245,50.54362]]]}},{"type":"Feature","properties":{"k":"BTH","s":2.017},"geometry":{"type":"Polygon","coordinates":[[[1.94993,50.5444],[1.95064,50.54473],[1.95327,50.54213],[1.95243,50.54199],[1.94993,50.5444]]]}},{"type":"Feature","properties":{"k":"BTP","s":4.5},"geometry":{"type":"Polygon","coordinates":[[[1.94935,50.54362],[1.94895,50.54393],[1.94994,50.54438],[1.95243,50.54199],[1.9499,50.54158],[1.94841,50.54309],[1.94935,50.54362]]]}},{"type":"Feature","properties":{"k":"BTH","s":3.454},"geometry":{"type":"Polygon","coordinates":[[[1.95357,50.54218],[1.95256,50.54359],[1.95116,50.54496],[1.95205,50.54544],[1.95525,50.54244],[1.95357,50.54218]]]}},{"type":"Feature","properties":{"k":"PPH","s":0.021},"geometry":{"type":"MultiPolygon","coordinates":[[[[1.95286,50.54466],[1.95351,50.54406],[1.95326,50.54427],[1.95286,50.54466]]]]}},{"type":"Feature","properties":{"k":"MIS","s":5.59},"geometry":{"type":"Polygon","coordinates":[[[1.95084,50.54484],[1.94858,50.54378],[1.94643,50.54614],[1.94661,50.54622],[1.94643,50.54642],[1.94814,50.54699],[1.95084,50.54484]]]}},{"type":"Feature","properties":{"k":"PPH","s":0.881},"geometry":{"type":"Polygon","coordinates":[[[1.94878,50.54724],[1.95021,50.54615],[1.94957,50.54584],[1.94814,50.54699],[1.94878,50.54724]]]}},{"type":"Feature","properties":{"k":"BTH","s":2.511},"geometry":{"type":"Polygon","coordinates":[[[1.9501,50.54799],[1.94988,50.548],[1.95024,50.5503],[1.95188,50.54957],[1.95126,50.5481],[1.95005,50.54776],[1.9501,50.54799]]]}},{"type":"Feature","properties":{"k":"PPH","s":1.987},"geometry":{"type":"Polygon","coordinates":[[[1.95188,50.54957],[1.9515,50.54975],[1.95176,50.55016],[1.95387,50.54937],[1.9536,50.54917],[1.95286,50.54924],[1.95299,50.54844],[1.95126,50.5481],[1.95188,50.54957]]]}},{"type":"Feature","properties":{"k":"PPH","s":4.157},"geometry":{"type":"Polygon","coordinates":[[[1.9508,50.5479],[1.953,50.54843],[1.95378,50.54625],[1.95204,50.54544],[1.9508,50.5479]]]}},{"type":"Feature","properties":{"k":"BTH","s":3.881},"geometry":{"type":"Polygon","coordinates":[[[1.95021,50.54615],[1.94878,50.54724],[1.9508,50.5479],[1.95204,50.54544],[1.95084,50.54484],[1.94957,50.54584],[1.95021,50.54615]]]}},{"type":"Feature","properties":{"k":"BTH","s":0.014},"geometry":{"type":"Polygon","coordinates":[]}},{"type":"Feature","properties":{"k":"JAC","s":0.005},"geometry":{"type":"MultiPolygon","coordinates":[[[[1.95377,50.54623],[1.95376,50.54624],[1.95476,50.54681],[1.95377,50.54623]]],[[[1.95603,50.54754],[1.95588,50.54746],[1.95602,50.54755],[1.95603,50.54754]]]]}},{"type":"Feature","properties":{"k":"JAC","s":3.668},"geometry":{"type":"Polygon","coordinates":[[[1.953,50.54843],[1.95288,50.54925],[1.95368,50.54914],[1.95602,50.54755],[1.95378,50.54625],[1.953,50.54843]]]}},{"type":"Feature","properties":{"k":"PPH","s":2.433},"geometry":{"type":"Polygon","coordinates":[[[1.95176,50.55015],[1.95218,50.55106],[1.95424,50.55034],[1.95503,50.55101],[1.95552,50.55071],[1.95387,50.54937],[1.95176,50.55015]]]}},{"type":"Feature","properties":{"k":"BTH","s":2.168},"geometry":{"type":"Polygon","coordinates":[[[1.95338,50.55064],[1.95287,50.55082],[1.95218,50.55106],[1.95304,50.55223],[1.95503,50.55101],[1.95426,50.55036],[1.95424,50.55034],[1.95338,50.55064]]]}},{"type":"Feature","properties":{"k":"ORH","s":4.735},"geometry":{"type":"Polygon","coordinates":[[[1.94913,50.5507],[1.95167,50.55304],[1.953,50.55225],[1.95211,50.5511],[1.95149,50.54974],[1.94913,50.5507]]]}},{"type":"Feature","properties":{"k":"PPH","s":6.432},"geometry":{"type":"Polygon","coordinates":[[[1.94916,50.54787],[1.9484,50.54838],[1.94743,50.54914],[1.94609,50.55063],[1.94802,50.55132],[1.95023,50.5503],[1.94983,50.54767],[1.94949,50.54804],[1.94916,50.54787]]]}},{"type":"Feature","properties":{"k":"PPH","s":3.488},"geometry":{"type":"Polygon","coordinates":[[[1.94733,50.55181],[1.95129,50.5533],[1.9517,50.55305],[1.94913,50.5507],[1.94733,50.55181]]]}},{"type":"Feature","properties":{"k":"MLF","s":5.392},"geometry":{"type":"Polygon","coordinates":[[[1.94733,50.55181],[1.94802,50.55132],[1.94609,50.55063],[1.94482,50.55182],[1.95095,50.55409],[1.95129,50.5533],[1.94733,50.55181]]]}},{"type":"Feature","properties":{"k":"BTH","s":4.012},"geometry":{"type":"Polygon","coordinates":[[[1.94535,50.55413],[1.94964,50.55644],[1.95054,50.55527],[1.94607,50.55377],[1.94535,50.55413]]]}},{"type":"Feature","properties":{"k":"PTR","s":0.761},"geometry":{"type":"Polygon","coordinates":[[[1.95065,50.55509],[1.94642,50.55357],[1.94617,50.55371],[1.95054,50.55527],[1.95065,50.55509]]]}},{"type":"Feature","properties":{"k":"PPH","s":2.675},"geometry":{"type":"Polygon","coordinates":[[[1.95094,50.5541],[1.94819,50.55308],[1.94746,50.55387],[1.94642,50.55357],[1.95065,50.55509],[1.95094,50.5541]]]}},{"type":"Feature","properties":{"k":"MIS","s":0.01},"geometry":{"type":"MultiPolygon","coordinates":[[[[1.95017,50.55676],[1.94965,50.55643],[1.94964,50.55644],[1.95017,50.55676]]]]}},{"type":"Feature","properties":{"k":"BTN","s":3.984},"geometry":{"type":"Polygon","coordinates":[[[1.94534,50.55412],[1.94462,50.5545],[1.94931,50.55746],[1.95043,50.55693],[1.94534,50.55412]]]}},{"type":"Feature","properties":{"k":"AVH","s":0.043},"geometry":{"type":"Polygon","coordinates":[[[1.94701,50.55919],[1.94895,50.55784],[1.94694,50.55918],[1.94701,50.55919]]]}},{"type":"Feature","properties":{"k":"MIS","s":1.457},"geometry":{"type":"Polygon","coordinates":[[[1.94893,50.55765],[1.95015,50.55837],[1.95104,50.55806],[1.95114,50.55742],[1.95044,50.55694],[1.94893,50.55765]]]}},{"type":"Feature","properties":{"k":"PTR","s":0.0},"geometry":{"type":"Polygon","coordinates":[]}},{"type":"Feature","properties":{"k":"BTH","s":0.791},"geometry":{"type":"Polygon","coordinates":[[[1.94558,50.55806],[1.945,50.55833],[1.94637,50.55946],[1.94693,50.55918],[1.94558,50.55806]]]}},{"type":"Feature","properties":{"k":"ORH","s":0.642},"geometry":{"type":"MultiPolygon","coordinates":[[[[1.94634,50.55948],[1.94365,50.55723],[1.94349,50.55731],[1.94608,50.5596],[1.94634,50.55948]]]]}},{"type":"Feature","properties":{"k":"ORH","s":0.0},"geometry":{"type":"Polygon","coordinates":[]}},{"type":"Feature","properties":{"k":"BTH","s":0.0},"geometry":{"type":"Polygon","coordinates":[]}},{"type":"Feature","properties":{"k":"MIS","s":3.149},"geometry":{"type":"Polygon","coordinates":[[[1.93543,50.55992],[1.93651,50.55872],[1.935,50.55771],[1.93274,50.55772],[1.93543,50.55992]]]}},{"type":"Feature","properties":{"k":"PPH","s":0.0},"geometry":{"type":"Polygon","coordinates":[]}}]}