{"type":"FeatureCollection","features":[{"type":"Feature","properties":{"k":"PPH","s":6.832},"geometry":{"type":"Polygon","coordinates":[[[1.9582,50.40385],[1.95835,50.40423],[1.95871,50.40433],[1.95965,50.40412],[1.96023,50.40367],[1.96113,50.40337],[1.96168,50.40353],[1.96178,50.40427],[1.96206,50.40434],[1.96293,50.40409],[1.96377,50.40419],[1.96115,50.40169],[1.95683,50.40334],[1.95693,50.4037],[1.95767,50.40359],[1.9582,50.40385]]]}},{"type":"Feature","properties":{"k":"PPH","s":1.554},"geometry":{"type":"Polygon","coordinates":[[[1.95322,50.40459],[1.95441,50.4046],[1.9537,50.40385],[1.95451,50.40347],[1.95395,50.40305],[1.95225,50.40359],[1.95322,50.40459]]]}},{"type":"Feature","properties":{"k":"PPH","s":0.152},"geometry":{"type":"Polygon","coordinates":[[[1.93783,50.41508],[1.93838,50.41565],[1.93836,50.41495],[1.93783,50.41508]]]}},{"type":"Feature","properties":{"k":"PPH","s":0.51},"geometry":{"type":"Polygon","coordinates":[[[1.92722,50.41698],[1.92598,50.4152],[1.92567,50.41529],[1.92699,50.41697],[1.92722,50.41698]]]}},{"type":"Feature","properties":{"k":"PTC","s":5.508},"geometry":{"type":"Polygon","coordinates":[[[1.90608,50.39098],[1.91029,50.39338],[1.91136,50.3945],[1.9112,50.39467],[1.91204,50.39391],[1.91064,50.39243],[1.90764,50.39019],[1.90608,50.39098]]]}},{"type":"Feature","properties":{"k":"LIF","s":7.051},"geometry":{"type":"Polygon","coordinates":[[[1.91484,50.39414],[1.91542,50.39386],[1.91428,50.39298],[1.91498,50.39259],[1.91012,50.38891],[1.90882,50.38959],[1.91484,50.39414]]]}},{"type":"Feature","properties":{"k":"PTC","s":6.778},"geometry":{"type":"Polygon","coordinates":[[[1.90763,50.39018],[1.91064,50.39243],[1.91204,50.39391],[1.91229,50.39368],[1.91015,50.39159],[1.91097,50.39219],[1.91235,50.39364],[1.91266,50.39349],[1.91397,50.39456],[1.91483,50.39415],[1.90881,50.38958],[1.90763,50.39018]]]}},{"type":"Feature","properties":{"k":"PPH","s":1.888},"geometry":{"type":"Polygon","coordinates":[[[1.95532,50.39382],[1.95588,50.39367],[1.9564,50.39388],[1.95724,50.39467],[1.95756,50.39464],[1.95767,50.39477],[1.95821,50.39465],[1.95764,50.39388],[1.95661,50.39329],[1.95491,50.39303],[1.95519,50.39288],[1.95491,50.39278],[1.95441,50.39302],[1.95532,50.39382]]]}},{"type":"Feature","properties":{"k":"BTH","s":2.062},"geometry":{"type":"Polygon","coordinates":[[[1.9256,50.40293],[1.92415,50.40202],[1.92248,50.40232],[1.92457,50.40372],[1.9256,50.40293]]]}},{"type":"Feature","properties":{"k":"PPH","s":5.208},"geometry":{"type":"Polygon","coordinates":[[[1.92329,50.40451],[1.92419,50.40381],[1.92437,50.40388],[1.92457,50.40374],[1.92247,50.40233],[1.92167,50.40254],[1.92035,50.40383],[1.92106,50.40416],[1.92079,50.4045],[1.92263,50.40513],[1.92343,50.40462],[1.92329,50.40451]]]}},{"type":"Feature","properties":{"k":"BTH","s":3.904},"geometry":{"type":"Polygon","coordinates":[[[1.9173,50.40728],[1.91788,50.40742],[1.92173,50.40498],[1.92051,50.40453],[1.9168,50.40684],[1.9173,50.40728]]]}},{"type":"Feature","properties":{"k":"PPH","s":2.336},"geometry":{"type":"Polygon","coordinates":[[[1.91884,50.40761],[1.92244,50.40536],[1.92172,50.40503],[1.91793,50.40739],[1.91884,50.40761]]]}},{"type":"Feature","properties":{"k":"PPH","s":5.013},"geometry":{"type":"Polygon","coordinates":[[[1.92051,50.40783],[1.92265,50.40648],[1.92347,50.40687],[1.92394,50.40659],[1.92523,50.40769],[1.92578,50.40742],[1.92444,50.40629],[1.92257,50.40528],[1.91884,50.40761],[1.92051,50.40783]]]}},{"type":"Feature","properties":{"k":"CHU","s":1.786},"geometry":{"type":"Polygon","coordinates":[[[1.91607,50.38835],[1.91705,50.38785],[1.91536,50.38658],[1.91418,50.3869],[1.91607,50.38835]]]}},{"type":"Feature","properties":{"k":"CHU","s":1.874},"geometry":{"type":"Polygon","coordinates":[[[1.913,50.38748],[1.91488,50.38895],[1.91587,50.38845],[1.91397,50.387],[1.913,50.38748]]]}},{"type":"Feature","properties":{"k":"AVP","s":0.683},"geometry":{"type":"Polygon","coordinates":[[[1.91397,50.387],[1.91587,50.38845],[1.91496,50.38902],[1.91713,50.38792],[1.91607,50.38835],[1.91418,50.3869],[1.91452,50.38671],[1.91293,50.38743],[1.91397,50.387]]]}},{"type":"Feature","properties":{"k":"BTH","s":3.965},"geometry":{"type":"Polygon","coordinates":[[[1.91293,50.38743],[1.91101,50.38844],[1.91306,50.39],[1.91496,50.38902],[1.91293,50.38743]]]}},{"type":"Feature","properties":{"k":"PTC","s":4.764},"geometry":{"type":"Polygon","coordinates":[[[1.91264,50.39022],[1.91365,50.39098],[1.91823,50.38866],[1.91726,50.38785],[1.91264,50.39022]]]}},{"type":"Feature","properties":{"k":"BTH","s":7.34},"geometry":{"type":"Polygon","coordinates":[[[1.9153,50.39222],[1.91929,50.3902],[1.91922,50.38954],[1.91823,50.38866],[1.91365,50.39098],[1.9153,50.39222]]]}},{"type":"Feature","properties":{"k":"BTH","s":0.227},"geometry":{"type":"Polygon","coordinates":[[[1.91726,50.38783],[1.91705,50.38763],[1.91536,50.38658],[1.91713,50.38792],[1.91726,50.38783]]]}},{"type":"Feature","properties":{"k":"LIF","s":0.158},"geometry":{"type":"Polygon","coordinates":[[[1.92069,50.38818],[1.92085,50.38867],[1.92079,50.38754],[1.92063,50.38753],[1.92069,50.38818]]]}},{"type":"Feature","properties":{"k":"MIS","s":0.375},"geometry":{"type":"Polygon","coordinates":[[[1.92134,50.39074],[1.92136,50.39074],[1.92168,50.39057],[1.92049,50.38854],[1.92134,50.39074]]]}},{"type":"Feature","properties":{"k":"BTH","s":1.926},"geometry":{"type":"Polygon","coordinates":[[[1.91531,50.39232],[1.91079,50.38889],[1.91045,50.38873],[1.91012,50.38888],[1.91501,50.39259],[1.91531,50.39232]]]}},{"type":"Feature","properties":{"k":"BTH","s":4.078},"geometry":{"type":"Polygon","coordinates":[[[1.91,50.40306],[1.90736,50.40256],[1.90805,50.40411],[1.91024,50.40495],[1.91099,50.40497],[1.91152,50.40476],[1.91,50.40306]]]}},{"type":"Feature","properties":{"k":"BTH","s":1.626},"geometry":{"type":"Polygon","coordinates":[[[1.913,50.40418],[1.91243,50.40374],[1.91,50.40306],[1.91152,50.40476],[1.913,50.40418]]]}},{"type":"Feature","properties":{"k":"MIS","s":6.481},"geometry":{"type":"Polygon","coordinates":[[[1.91324,50.39473],[1.91232,50.39366],[1.90921,50.39644],[1.91429,50.39702],[1.91324,50.39473]]]}},{"type":"Feature","properties":{"k":"ORP","s":0.006},"geometry":{"type":"Polygon","coordinates":[[[1.9112,50.39467],[1.91119,50.39466],[1.9103,50.39549],[1.9112,50.39467]]]}},{"type":"Feature","properties":{"k":"PTC","s":0.036},"geometry":{"type":"Polygon","coordinates":[[[1.90925,50.3964],[1.90872,50.3962],[1.90867,50.39631],[1.90925,50.3964]]]}},{"type":"Feature","properties":{"k":"ORP","s":1.666},"geometry":{"type":"Polygon","coordinates":[[[1.9144,50.404],[1.91671,50.40111],[1.91617,50.40096],[1.91376,50.40395],[1.9144,50.404]]]}},{"type":"Feature","properties":{"k":"CZH","s":5.448},"geometry":{"type":"MultiPolygon","coordinates":[[[[1.92044,50.38775],[1.92006,50.38746],[1.91919,50.3878],[1.91865,50.3878],[1.91754,50.38808],[1.9193,50.38956],[1.91936,50.3901],[1.91955,50.39011],[1.92027,50.39179],[1.92076,50.39164],[1.92084,50.39079],[1.92134,50.39074],[1.92043,50.38838],[1.92044,50.38775]]],[[[1.92025,50.38744],[1.92015,50.38745],[1.92063,50.38753],[1.92025,50.38744]]],[[[1.91726,50.38785],[1.91737,50.38793],[1.91726,50.38783],[1.91726,50.38785]]]]}},{"type":"Feature","properties":{"k":"MIS","s":1.635},"geometry":{"type":"Polygon","coordinates":[[[1.91633,50.40404],[1.91423,50.40407],[1.9126,50.40379],[1.9144,50.40527],[1.91633,50.40404]]]}},{"type":"Feature","properties":{"k":"ORH","s":0.868},"geometry":{"type":"Polygon","coordinates":[[[1.91686,50.40484],[1.91805,50.40408],[1.91747,50.40402],[1.91498,50.40559],[1.91534,50.40579],[1.91686,50.40484]]]}},{"type":"Feature","properties":{"k":"BTH","s":1.24},"geometry":{"type":"Polygon","coordinates":[[[1.91498,50.40559],[1.91747,50.40402],[1.91633,50.40404],[1.91442,50.40526],[1.91498,50.40559]]]}},{"type":"Feature","properties":{"k":"BTN","s":4.983},"geometry":{"type":"Polygon","coordinates":[[[1.91675,50.40681],[1.92053,50.40451],[1.91806,50.40407],[1.91533,50.40581],[1.91675,50.40681]]]}},{"type":"Feature","properties":{"k":"PPH","s":1.202},"geometry":{"type":"Polygon","coordinates":[[[1.92347,50.40687],[1.92398,50.40741],[1.92316,50.40791],[1.92452,50.40829],[1.92445,50.40805],[1.92514,50.40761],[1.92394,50.40659],[1.92347,50.40687]]]}},{"type":"Feature","properties":{"k":"BTH","s":3.387},"geometry":{"type":"Polygon","coordinates":[[[1.91671,50.40111],[1.9144,50.404],[1.91597,50.40397],[1.91806,50.40149],[1.91671,50.40111]]]}},{"type":"Feature","properties":{"k":"MIS","s":3.306},"geometry":{"type":"Polygon","coordinates":[[[1.91558,50.39758],[1.91441,50.39708],[1.91163,50.39676],[1.91121,50.39757],[1.91575,50.39824],[1.91679,50.39827],[1.91693,50.3979],[1.91558,50.39758]]]}},{"type":"Feature","properties":{"k":"MIS","s":6.892},"geometry":{"type":"Polygon","coordinates":[[[1.91781,50.39665],[1.92178,50.39805],[1.9219,50.39791],[1.92089,50.39718],[1.91975,50.39685],[1.91821,50.39604],[1.91542,50.39386],[1.91391,50.39462],[1.9147,50.39589],[1.91539,50.39655],[1.91588,50.39666],[1.91603,50.39639],[1.91781,50.39665]]]}},{"type":"Feature","properties":{"k":"PPH","s":3.231},"geometry":{"type":"Polygon","coordinates":[[[1.92321,50.3959],[1.92375,50.39646],[1.92473,50.3962],[1.92366,50.39513],[1.92231,50.39428],[1.92083,50.39489],[1.92213,50.39622],[1.92321,50.3959]]]}},{"type":"Feature","properties":{"k":"PPH","s":1.09},"geometry":{"type":"Polygon","coordinates":[[[1.9251,50.39643],[1.92572,50.39614],[1.92489,50.39542],[1.9245,50.39547],[1.92295,50.39408],[1.92245,50.39428],[1.92429,50.39556],[1.9251,50.39643]]]}},{"type":"Feature","properties":{"k":"MIS","s":3.138},"geometry":{"type":"Polygon","coordinates":[[[1.92389,50.39869],[1.92421,50.39909],[1.92558,50.39856],[1.92293,50.39597],[1.92232,50.39615],[1.9234,50.39781],[1.92238,50.39812],[1.92389,50.39869]]]}},{"type":"Feature","properties":{"k":"BTH","s":15.952},"geometry":{"type":"Polygon","coordinates":[[[1.91913,50.39132],[1.91878,50.39047],[1.9153,50.39222],[1.9155,50.39239],[1.91443,50.39301],[1.9182,50.39596],[1.91843,50.3961],[1.91843,50.39611],[1.919,50.39641],[1.92148,50.39555],[1.92062,50.39468],[1.91796,50.39245],[1.91778,50.3923],[1.91753,50.39209],[1.91757,50.39206],[1.91938,50.39359],[1.91983,50.39337],[1.92011,50.39365],[1.92054,50.39348],[1.91934,50.39182],[1.91913,50.39132]]]}},{"type":"Feature","properties":{"k":"BTH","s":3.314},"geometry":{"type":"Polygon","coordinates":[[[1.91983,50.40431],[1.92165,50.40252],[1.92208,50.40241],[1.92168,50.4025],[1.91988,50.402],[1.91803,50.40399],[1.91983,50.40431]]]}},{"type":"Feature","properties":{"k":"MIS","s":3.811},"geometry":{"type":"Polygon","coordinates":[[[1.92088,50.39712],[1.92238,50.39812],[1.92333,50.39782],[1.92148,50.39555],[1.919,50.39641],[1.92088,50.39712]]]}},{"type":"Feature","properties":{"k":"PPH","s":2.435},"geometry":{"type":"Polygon","coordinates":[[[1.92099,50.39892],[1.91695,50.39789],[1.91678,50.3983],[1.9179,50.39859],[1.91956,50.3993],[1.92228,50.39985],[1.92099,50.39892]]]}},{"type":"Feature","properties":{"k":"MSW","s":1.295},"geometry":{"type":"Polygon","coordinates":[[[1.92084,50.39489],[1.92167,50.39455],[1.92055,50.39348],[1.92011,50.39365],[1.91983,50.39337],[1.91938,50.39359],[1.91757,50.39206],[1.92084,50.39489]]]}},{"type":"Feature","properties":{"k":"PPH","s":0.454},"geometry":{"type":"Polygon","coordinates":[[[1.92243,50.39427],[1.92319,50.39397],[1.92249,50.39348],[1.92174,50.39382],[1.92243,50.39427]]]}},{"type":"Feature","properties":{"k":"MSW","s":1.12},"geometry":{"type":"Polygon","coordinates":[[[1.92116,50.39324],[1.92068,50.39173],[1.92017,50.39182],[1.92033,50.3926],[1.92094,50.39364],[1.92194,50.39444],[1.92231,50.39428],[1.92116,50.39324]]]}},{"type":"Feature","properties":{"k":"PPH","s":8.037},"geometry":{"type":"Polygon","coordinates":[[[1.91781,50.39665],[1.91603,50.39639],[1.91554,50.39743],[1.91663,50.39779],[1.91966,50.39841],[1.92386,50.39963],[1.92495,50.40024],[1.92614,50.4006],[1.92443,50.39953],[1.92387,50.39876],[1.92267,50.39842],[1.9219,50.39791],[1.92178,50.39805],[1.91781,50.39665]]]}},{"type":"Feature","properties":{"k":"PPH","s":2.726},"geometry":{"type":"Polygon","coordinates":[[[1.92383,50.40059],[1.92626,50.40127],[1.92648,50.40093],[1.92614,50.4006],[1.92495,50.40024],[1.92386,50.39963],[1.92087,50.39875],[1.92383,50.40059]]]}},{"type":"Feature","properties":{"k":"MIS","s":3.72},"geometry":{"type":"Polygon","coordinates":[[[1.91689,50.40292],[1.91598,50.40397],[1.91801,50.40398],[1.91987,50.402],[1.91807,50.40149],[1.91689,50.40292]]]}},{"type":"Feature","properties":{"k":"CZH","s":0.641},"geometry":{"type":"Polygon","coordinates":[[[1.92147,50.39229],[1.92179,50.39281],[1.92212,50.39303],[1.92248,50.39295],[1.9234,50.39348],[1.92356,50.39334],[1.92328,50.39312],[1.92201,50.39276],[1.92173,50.39236],[1.92136,50.39074],[1.92118,50.39076],[1.92147,50.39229]]]}},{"type":"Feature","properties":{"k":"NVT","s":0.027},"geometry":{"type":"MultiPolygon","coordinates":[[[[1.92097,50.38893],[1.92111,50.38914],[1.92096,50.38865],[1.92097,50.38893]]],[[[1.92147,50.39002],[1.92133,50.38967],[1.92135,50.38974],[1.92147,50.39002]]],[[[1.9217,50.39065],[1.92172,50.39065],[1.92169,50.39056],[1.9217,50.39065]]]]}},{"type":"Feature","properties":{"k":"MIS","s":1.145},"geometry":{"type":"Polygon","coordinates":[[[1.92103,50.39231],[1.92125,50.39227],[1.92116,50.39078],[1.92089,50.3908],[1.92079,50.39243],[1.9213,50.39345],[1.92174,50.39382],[1.92247,50.39349],[1.92224,50.39354],[1.92103,50.39231]]]}},{"type":"Feature","properties":{"k":"MIS","s":1.969},"geometry":{"type":"Polygon","coordinates":[[[1.92033,50.3926],[1.92028,50.39179],[1.91955,50.39011],[1.91936,50.3901],[1.91878,50.39047],[1.91934,50.39182],[1.92054,50.39348],[1.92167,50.39455],[1.92194,50.39444],[1.92131,50.39401],[1.92033,50.3926]]]}},{"type":"Feature","properties":{"k":"PPH","s":2.571},"geometry":{"type":"Polygon","coordinates":[[[1.93388,50.41123],[1.93319,50.41024],[1.93157,50.41056],[1.93122,50.41075],[1.93145,50.41108],[1.9308,50.41153],[1.93056,50.41197],[1.9308,50.41215],[1.93388,50.41123]]]}},{"type":"Feature","properties":{"k":"PPH","s":1.11},"geometry":{"type":"Polygon","coordinates":[[[1.9324,50.40604],[1.9323,50.40606],[1.93366,50.40713],[1.93486,50.40681],[1.93509,50.4066],[1.9324,50.40604]]]}},{"type":"Feature","properties":{"k":"PPH","s":1.402},"geometry":{"type":"Polygon","coordinates":[[[1.92482,50.40873],[1.924,50.409],[1.92465,50.4096],[1.92743,50.40885],[1.92719,50.40849],[1.92674,50.40863],[1.92482,50.40873]]]}},{"type":"Feature","properties":{"k":"PTR","s":0.425},"geometry":{"type":"Polygon","coordinates":[[[1.92748,50.40871],[1.92765,50.40868],[1.92791,50.40845],[1.92679,50.40768],[1.92643,50.40789],[1.92748,50.40871]]]}},{"type":"Feature","properties":{"k":"PTR","s":0.311},"geometry":{"type":"Polygon","coordinates":[[[1.92595,50.40636],[1.9257,50.40651],[1.92638,50.40651],[1.92718,50.40601],[1.9269,50.40581],[1.92595,50.40636]]]}},{"type":"Feature","properties":{"k":"PPH","s":0.583},"geometry":{"type":"Polygon","coordinates":[[[1.92698,50.40691],[1.9275,50.40711],[1.92696,50.40673],[1.92696,50.40654],[1.92657,50.40658],[1.92566,50.4072],[1.92625,50.40753],[1.92698,50.40691]]]}},{"type":"Feature","properties":{"k":"PPH","s":0.641},"geometry":{"type":"Polygon","coordinates":[[[1.92934,50.40798],[1.92916,50.40781],[1.92946,50.4076],[1.92908,50.40729],[1.92838,50.40767],[1.9276,50.40717],[1.92831,50.40771],[1.928,50.40791],[1.9284,50.40827],[1.92934,50.40798]]]}},{"type":"Feature","properties":{"k":"PPH","s":0.843},"geometry":{"type":"Polygon","coordinates":[[[1.92951,50.40375],[1.92929,50.40425],[1.92948,50.4051],[1.9309,50.40533],[1.92951,50.40375]]]}},{"type":"Feature","properties":{"k":"PPH","s":0.573},"geometry":{"type":"Polygon","coordinates":[[[1.92841,50.40602],[1.92901,50.40559],[1.92824,50.40508],[1.92754,50.40549],[1.92841,50.40602]]]}},{"type":"Feature","properties":{"k":"BTH","s":5.612},"geometry":{"type":"Polygon","coordinates":[[[1.9274,50.4055],[1.92512,50.40347],[1.92285,50.40515],[1.92498,50.40637],[1.92581,50.40588],[1.92624,50.40619],[1.9274,50.4055]]]}},{"type":"Feature","properties":{"k":"PPH","s":4.543},"geometry":{"type":"Polygon","coordinates":[[[1.92824,50.40508],[1.92901,50.40559],[1.92938,50.40515],[1.92897,50.40445],[1.92653,50.40244],[1.92589,50.40214],[1.92506,50.40231],[1.92489,50.40241],[1.92563,50.40291],[1.92592,50.40276],[1.92615,50.40296],[1.92588,50.40311],[1.92673,50.40376],[1.92653,50.40387],[1.92677,50.40412],[1.92629,50.40431],[1.92752,50.40549],[1.92824,50.40508]],[[1.92619,50.40277],[1.92724,50.40366],[1.92707,50.40361],[1.9257,50.40238],[1.92619,50.40277]]]}},{"type":"Feature","properties":{"k":"BTH","s":14.425},"geometry":{"type":"Polygon","coordinates":[[[1.93286,50.40101],[1.93182,50.40098],[1.93384,50.40325],[1.93222,50.40417],[1.93047,50.40231],[1.92953,50.40261],[1.92958,50.40357],[1.93035,50.4045],[1.93101,50.40439],[1.9323,50.40606],[1.93509,50.4066],[1.93601,50.40611],[1.93599,50.40591],[1.93715,50.40553],[1.93286,50.40101]]]}},{"type":"Feature","properties":{"k":"MIS","s":8.969},"geometry":{"type":"Polygon","coordinates":[[[1.93715,50.40553],[1.93887,50.40504],[1.93883,50.40493],[1.93823,50.40508],[1.93783,50.40435],[1.93751,50.40442],[1.93721,50.40392],[1.93752,50.40385],[1.93724,50.40318],[1.93783,50.40309],[1.93785,50.40277],[1.93698,50.40053],[1.93359,50.40174],[1.93715,50.40553]]]}},{"type":"Feature","properties":{"k":"BTH","s":4.568},"geometry":{"type":"Polygon","coordinates":[[[1.9393,50.40428],[1.93868,50.40447],[1.93908,50.40543],[1.93926,50.40543],[1.94224,50.40416],[1.94187,50.40371],[1.94363,50.40308],[1.94316,50.40253],[1.939,50.40381],[1.9393,50.40428]]]}},{"type":"Feature","properties":{"k":"PPH","s":1.711},"geometry":{"type":"Polygon","coordinates":[[[1.94732,50.40239],[1.94544,50.40311],[1.94614,50.40371],[1.94853,50.40302],[1.94799,50.40272],[1.94808,50.40241],[1.94732,50.40239]]]}},{"type":"Feature","properties":{"k":"BTH","s":3.384},"geometry":{"type":"Polygon","coordinates":[[[1.94492,50.39852],[1.94636,50.39896],[1.94798,50.40045],[1.94889,50.40003],[1.94655,50.3982],[1.94376,50.39712],[1.94376,50.39751],[1.94492,50.39852]]]}},{"type":"Feature","properties":{"k":"TRE","s":1.348},"geometry":{"type":"Polygon","coordinates":[[[1.94856,50.39967],[1.94899,50.39941],[1.949,50.39899],[1.94806,50.39835],[1.94729,50.39805],[1.94672,50.39835],[1.94856,50.39967]]]}},{"type":"Feature","properties":{"k":"CZH","s":10.95},"geometry":{"type":"Polygon","coordinates":[[[1.94734,50.39766],[1.94797,50.39803],[1.94806,50.39835],[1.94902,50.39904],[1.94943,50.39891],[1.95021,50.39944],[1.95038,50.39925],[1.95102,50.39915],[1.9519,50.39943],[1.95167,50.39905],[1.95247,50.39871],[1.95264,50.39821],[1.94913,50.39502],[1.94622,50.39705],[1.94702,50.39703],[1.94778,50.39738],[1.94843,50.39709],[1.94849,50.39722],[1.94734,50.39766]]]}},{"type":"Feature","properties":{"k":"JAC","s":1.863},"geometry":{"type":"Polygon","coordinates":[[[1.92219,50.40768],[1.92316,50.40791],[1.92398,50.40741],[1.92352,50.40693],[1.92265,50.40648],[1.92068,50.40781],[1.92219,50.40768]]]}},{"type":"Feature","properties":{"k":"PPH","s":3.724},"geometry":{"type":"Polygon","coordinates":[[[1.92069,50.41077],[1.92031,50.41037],[1.92132,50.41008],[1.92001,50.40848],[1.91804,50.40874],[1.91847,50.40919],[1.91881,50.4093],[1.9177,50.40957],[1.91835,50.41003],[1.91973,50.40968],[1.91999,50.40999],[1.91877,50.41037],[1.91956,50.41108],[1.92069,50.41077]]]}},{"type":"Feature","properties":{"k":"MIS","s":2.473},"geometry":{"type":"Polygon","coordinates":[[[1.91676,50.4098],[1.91797,50.41073],[1.91878,50.41033],[1.91999,50.40999],[1.91973,50.40968],[1.91835,50.41003],[1.91803,50.40985],[1.917,50.40908],[1.91574,50.40756],[1.91543,50.40767],[1.91676,50.4098]]]}},{"type":"Feature","properties":{"k":"PPH","s":0.028},"geometry":{"type":"MultiPolygon","coordinates":[[[[1.91644,50.40695],[1.91651,50.40691],[1.91617,50.40702],[1.91584,50.40728],[1.91644,50.40695]]],[[[1.9163,50.40645],[1.91645,50.40658],[1.91641,50.40653],[1.9163,50.40645]]]]}},{"type":"Feature","properties":{"k":"PPH","s":0.366},"geometry":{"type":"MultiPolygon","coordinates":[[[[1.91631,50.41159],[1.91634,50.41163],[1.91631,50.41158],[1.91631,50.41159]]],[[[1.91699,50.41186],[1.91721,50.4118],[1.9168,50.41136],[1.91772,50.411],[1.91814,50.41143],[1.91855,50.4113],[1.91793,50.41077],[1.91658,50.41143],[1.91699,50.41186]]]]}},{"type":"Feature","properties":{"k":"BOR","s":0.0},"geometry":{"type":"Polygon","coordinates":[]}},{"type":"Feature","properties":{"k":"ORH","s":9.505},"geometry":{"type":"Polygon","coordinates":[[[1.94823,50.39302],[1.94712,50.39371],[1.94306,50.39547],[1.94395,50.39681],[1.94502,50.3967],[1.94622,50.39705],[1.94913,50.39502],[1.94835,50.39447],[1.94823,50.39302]]]}},{"type":"Feature","properties":{"k":"TRU","s":0.998},"geometry":{"type":"Polygon","coordinates":[[[1.94545,50.39731],[1.944,50.3969],[1.94395,50.39719],[1.94672,50.39835],[1.94729,50.39805],[1.94545,50.39731]]]}},{"type":"Feature","properties":{"k":"PPH","s":12.653},"geometry":{"type":"Polygon","coordinates":[[[1.943,50.3985],[1.94391,50.39873],[1.94458,50.39902],[1.94499,50.39955],[1.94485,50.39985],[1.94377,50.40024],[1.94335,50.40019],[1.94302,50.39997],[1.94275,50.40004],[1.94265,50.40032],[1.94341,50.40119],[1.9455,50.40041],[1.94682,50.40192],[1.94756,50.40167],[1.94776,50.40222],[1.94906,50.40235],[1.94888,50.40209],[1.94827,50.40191],[1.94801,50.40149],[1.94854,50.40128],[1.94835,50.40106],[1.94854,50.40099],[1.94625,50.39901],[1.9447,50.39859],[1.94415,50.39822],[1.94227,50.39802],[1.94222,50.39777],[1.94262,50.39754],[1.93941,50.39454],[1.93868,50.39498],[1.93972,50.39534],[1.93924,50.39655],[1.93942,50.39705],[1.94035,50.39777],[1.94107,50.39788],[1.94253,50.39855],[1.943,50.3985]]]}},{"type":"Feature","properties":{"k":"PPH","s":3.291},"geometry":{"type":"Polygon","coordinates":[[[1.94288,50.39512],[1.94106,50.39591],[1.94308,50.39787],[1.94347,50.39806],[1.94438,50.39819],[1.94366,50.39735],[1.94343,50.39624],[1.94288,50.39512]]]}},{"type":"Feature","properties":{"k":"BTH","s":8.397},"geometry":{"type":"Polygon","coordinates":[[[1.94316,50.40253],[1.94363,50.40308],[1.94682,50.40192],[1.9455,50.40041],[1.93853,50.40298],[1.93887,50.40364],[1.93958,50.40345],[1.93967,50.4036],[1.94316,50.40253]]]}},{"type":"Feature","properties":{"k":"BTH","s":5.547},"geometry":{"type":"Polygon","coordinates":[[[1.94341,50.40118],[1.94269,50.40038],[1.9402,50.40109],[1.93988,50.40087],[1.93766,50.40172],[1.93791,50.40318],[1.94341,50.40118]]]}},{"type":"Feature","properties":{"k":"MIS","s":3.818},"geometry":{"type":"Polygon","coordinates":[[[1.93764,50.4017],[1.93986,50.40087],[1.93885,50.39954],[1.93791,50.39912],[1.93674,50.39947],[1.93764,50.4017]]]}},{"type":"Feature","properties":{"k":"MIS","s":1.194},"geometry":{"type":"Polygon","coordinates":[[[1.93693,50.40048],[1.93682,50.40008],[1.93328,50.40141],[1.93359,50.40174],[1.93693,50.40048]]]}},{"type":"Feature","properties":{"k":"BTH","s":0.231},"geometry":{"type":"Polygon","coordinates":[[[1.9552,50.39288],[1.95575,50.39259],[1.95546,50.39215],[1.95492,50.39277],[1.9552,50.39288]]]}},{"type":"Feature","properties":{"k":"BOR","s":0.068},"geometry":{"type":"Polygon","coordinates":[[[1.95508,50.39232],[1.95493,50.39274],[1.95546,50.39215],[1.95508,50.39232]]]}},{"type":"Feature","properties":{"k":"ORH","s":0.06},"geometry":{"type":"Polygon","coordinates":[[[1.95605,50.39165],[1.9561,50.39163],[1.95518,50.39123],[1.95605,50.39165]]]}},{"type":"Feature","properties":{"k":"BTH","s":2.32},"geometry":{"type":"Polygon","coordinates":[[[1.95754,50.39897],[1.95812,50.39865],[1.95447,50.39555],[1.95385,50.39585],[1.95754,50.39897]]]}},{"type":"Feature","properties":{"k":"PPH","s":0.064},"geometry":{"type":"Polygon","coordinates":[[[1.95228,50.39978],[1.95207,50.40022],[1.95208,50.40023],[1.9526,50.40004],[1.95228,50.39978]]]}},{"type":"Feature","properties":{"k":"PPH","s":0.172},"geometry":{"type":"Polygon","coordinates":[[[1.9526,50.40004],[1.95208,50.40023],[1.95237,50.40056],[1.95287,50.40035],[1.9526,50.40004]]]}},{"type":"Feature","properties":{"k":"TRE","s":3.533},"geometry":{"type":"Polygon","coordinates":[[[1.95228,50.39978],[1.95188,50.39942],[1.95102,50.39915],[1.94958,50.39994],[1.94903,50.40006],[1.94915,50.39984],[1.95024,50.39942],[1.94975,50.39913],[1.94962,50.39929],[1.94901,50.3994],[1.94911,50.39903],[1.94899,50.39941],[1.94856,50.39967],[1.9489,50.39995],[1.94889,50.40003],[1.94798,50.40045],[1.94886,50.4012],[1.95017,50.4006],[1.95207,50.40021],[1.95228,50.39978]]]}},{"type":"Feature","properties":{"k":"BTH","s":2.864},"geometry":{"type":"Polygon","coordinates":[[[1.9337,50.40022],[1.93324,50.40038],[1.93313,50.40093],[1.93671,50.39955],[1.93641,50.39845],[1.93477,50.39883],[1.9337,50.40022]]]}},{"type":"Feature","properties":{"k":"PPH","s":1.282},"geometry":{"type":"Polygon","coordinates":[[[1.93334,50.39862],[1.93245,50.39836],[1.93133,50.40018],[1.93217,50.40023],[1.93334,50.39862]]]}},{"type":"Feature","properties":{"k":"PPH","s":0.534},"geometry":{"type":"Polygon","coordinates":[[[1.94952,50.40123],[1.95007,50.40122],[1.95108,50.4015],[1.95017,50.4006],[1.9493,50.40099],[1.94952,50.40123]]]}},{"type":"Feature","properties":{"k":"LIF","s":0.077},"geometry":{"type":"Polygon","coordinates":[[[1.95924,50.39948],[1.95935,50.39944],[1.95837,50.39866],[1.95924,50.39948]]]}},{"type":"Feature","properties":{"k":"BTH","s":0.399},"geometry":{"type":"Polygon","coordinates":[[[1.95867,50.39965],[1.95917,50.3995],[1.95825,50.39872],[1.95783,50.39895],[1.95867,50.39965]]]}},{"type":"Feature","properties":{"k":"BTH","s":0.246},"geometry":{"type":"Polygon","coordinates":[[[1.95987,50.39994],[1.95949,50.39994],[1.95951,50.39957],[1.95872,50.39984],[1.95909,50.40011],[1.95987,50.39994]]]}},{"type":"Feature","properties":{"k":"PPH","s":1.263},"geometry":{"type":"Polygon","coordinates":[[[1.95813,50.40185],[1.95716,50.4023],[1.95783,50.40289],[1.95867,50.40249],[1.95887,50.40214],[1.96009,50.40168],[1.95993,50.40142],[1.95813,50.40185]]]}},{"type":"Feature","properties":{"k":"PPH","s":0.461},"geometry":{"type":"Polygon","coordinates":[[[1.95818,50.40181],[1.95885,50.40168],[1.95828,50.40099],[1.95751,50.40126],[1.95818,50.40181]]]}},{"type":"Feature","properties":{"k":"PPH","s":0.619},"geometry":{"type":"Polygon","coordinates":[[[1.95794,50.40064],[1.95885,50.40166],[1.9594,50.40152],[1.95848,50.40042],[1.95794,50.40064]]]}},{"type":"Feature","properties":{"k":"MIS","s":0.592},"geometry":{"type":"Polygon","coordinates":[[[1.95862,50.40037],[1.95943,50.4015],[1.95981,50.40141],[1.95993,50.40136],[1.95914,50.40019],[1.95882,50.40029],[1.95862,50.40037]]]}},{"type":"Feature","properties":{"k":"PPH","s":0.147},"geometry":{"type":"Polygon","coordinates":[[[1.96067,50.40157],[1.96226,50.40098],[1.96214,50.4009],[1.96092,50.40145],[1.96006,50.40156],[1.96067,50.40157]]]}},{"type":"Feature","properties":{"k":"BTH","s":0.352},"geometry":{"type":"Polygon","coordinates":[[[1.95754,50.39897],[1.95638,50.39798],[1.95607,50.39811],[1.95729,50.39911],[1.95754,50.39897]]]}},{"type":"Feature","properties":{"k":"BTN","s":4.424},"geometry":{"type":"Polygon","coordinates":[[[1.95589,50.39516],[1.95447,50.39555],[1.95812,50.39865],[1.95921,50.39806],[1.95589,50.39516]]]}},{"type":"Feature","properties":{"k":"LIF","s":3.522},"geometry":{"type":"Polygon","coordinates":[[[1.96029,50.39754],[1.95765,50.39533],[1.95744,50.39543],[1.9567,50.39474],[1.95594,50.3952],[1.95921,50.39806],[1.96029,50.39754]]]}},{"type":"Feature","properties":{"k":"MIS","s":0.002},"geometry":{"type":"Polygon","coordinates":[[[1.96409,50.40081],[1.96391,50.40079],[1.96392,50.40083],[1.96409,50.40081]]]}},{"type":"Feature","properties":{"k":"PPH","s":3.052},"geometry":{"type":"Polygon","coordinates":[[[1.96774,50.40177],[1.96871,50.4012],[1.96815,50.4009],[1.96593,50.40071],[1.96587,50.402],[1.96494,50.4018],[1.96352,50.40221],[1.96412,50.40275],[1.96774,50.40177]]]}},{"type":"Feature","properties":{"k":"PPH","s":0.023},"geometry":{"type":"MultiPolygon","coordinates":[[[[1.96625,50.40261],[1.96624,50.40265],[1.96625,50.40267],[1.96625,50.40261]]],[[[1.96793,50.40181],[1.96779,50.40187],[1.96816,50.40196],[1.96793,50.40181]]]]}},{"type":"Feature","properties":{"k":"MLG","s":0.413},"geometry":{"type":"Polygon","coordinates":[[[1.91222,50.38964],[1.91078,50.38856],[1.91064,50.3887],[1.91215,50.38985],[1.91264,50.39022],[1.91284,50.39011],[1.91222,50.38964]]]}},{"type":"Feature","properties":{"k":"BTH","s":0.493},"geometry":{"type":"Polygon","coordinates":[[[1.91284,50.39011],[1.91306,50.39],[1.91101,50.38844],[1.91078,50.38856],[1.91284,50.39011]]]}},{"type":"Feature","properties":{"k":"PPH","s":0.02},"geometry":{"type":"Polygon","coordinates":[[[1.96947,50.40102],[1.9697,50.40099],[1.96962,50.40091],[1.96926,50.40102],[1.96947,50.40102]]]}},{"type":"Feature","properties":{"k":"PPH","s":0.028},"geometry":{"type":"Polygon","coordinates":[[[1.96989,50.40119],[1.96979,50.40109],[1.96962,50.40111],[1.96966,50.40132],[1.96989,50.40119]]]}},{"type":"Feature","properties":{"k":"LIF","s":0.002},"geometry":{"type":"Polygon","coordinates":[[[1.94351,50.38477],[1.94319,50.38455],[1.94317,50.38455],[1.94351,50.38477]]]}},{"type":"Feature","properties":{"k":"PPH","s":5.62},"geometry":{"type":"Polygon","coordinates":[[[1.93145,50.40066],[1.93133,50.40018],[1.93,50.40117],[1.92969,50.40168],[1.93011,50.40165],[1.93134,50.40338],[1.93222,50.40417],[1.93384,50.40325],[1.93215,50.40152],[1.93172,50.40074],[1.93145,50.40066]]]}},{"type":"Feature","properties":{"k":"MIS","s":0.145},"geometry":{"type":"Polygon","coordinates":[[[1.9297,50.40128],[1.93002,50.40105],[1.92902,50.40075],[1.9297,50.40128]]]}},{"type":"Feature","properties":{"k":"BTN","s":10.681},"geometry":{"type":"Polygon","coordinates":[[[1.92736,50.39858],[1.92473,50.3962],[1.92427,50.39632],[1.92417,50.39634],[1.92415,50.39635],[1.92375,50.39646],[1.92321,50.3959],[1.92293,50.39597],[1.92558,50.39856],[1.92421,50.39909],[1.92438,50.39938],[1.92613,50.40049],[1.92791,50.40215],[1.92862,50.40183],[1.92943,50.4026],[1.92961,50.40131],[1.92857,50.40059],[1.92433,50.39652],[1.92894,50.40076],[1.92736,50.39858]]]}},{"type":"Feature","properties":{"k":"MIS","s":5.159},"geometry":{"type":"Polygon","coordinates":[[[1.9288,50.40001],[1.92902,50.40075],[1.93003,50.40105],[1.93109,50.40027],[1.93179,50.39921],[1.92734,50.39793],[1.9288,50.40001]]]}},{"type":"Feature","properties":{"k":"CZH","s":2.5},"geometry":{"type":"Polygon","coordinates":[[[1.94289,50.38486],[1.93818,50.38376],[1.93791,50.38436],[1.94249,50.38541],[1.94289,50.38486]]]}},{"type":"Feature","properties":{"k":"BTH","s":1.661},"geometry":{"type":"Polygon","coordinates":[[[1.93898,50.3837],[1.93836,50.38375],[1.94289,50.38486],[1.94313,50.38453],[1.93931,50.38334],[1.93898,50.3837]]]}},{"type":"Feature","properties":{"k":"MIS","s":0.518},"geometry":{"type":"Polygon","coordinates":[[[1.93604,50.38414],[1.93775,50.38463],[1.9379,50.38426],[1.93639,50.38383],[1.93604,50.38414]]]}},{"type":"Feature","properties":{"k":"CZH","s":1.336},"geometry":{"type":"Polygon","coordinates":[[[1.9364,50.38384],[1.9379,50.38426],[1.9384,50.38309],[1.93733,50.3828],[1.9364,50.38384]]]}},{"type":"Feature","properties":{"k":"JAC","s":0.059},"geometry":{"type":"Polygon","coordinates":[[[1.93713,50.38284],[1.93722,50.38277],[1.93715,50.38275],[1.93617,50.38392],[1.93713,50.38284]]]}},{"type":"Feature","properties":{"k":"BTH","s":2.727},"geometry":{"type":"Polygon","coordinates":[[[1.92734,50.39793],[1.93179,50.39921],[1.93216,50.3986],[1.92711,50.39717],[1.92734,50.39793]]]}},{"type":"Feature","properties":{"k":"CZH","s":3.917},"geometry":{"type":"Polygon","coordinates":[[[1.93332,50.39692],[1.92851,50.39592],[1.92767,50.39671],[1.93265,50.39783],[1.93332,50.39692]]]}},{"type":"Feature","properties":{"k":"PPH","s":3.098},"geometry":{"type":"Polygon","coordinates":[[[1.9275,50.39845],[1.92611,50.39539],[1.92487,50.39417],[1.92438,50.39466],[1.92572,50.39615],[1.92516,50.39643],[1.92714,50.3983],[1.9275,50.39845]]]}},{"type":"Feature","properties":{"k":"MIS","s":4.105},"geometry":{"type":"Polygon","coordinates":[[[1.92867,50.39395],[1.92805,50.39328],[1.92601,50.39517],[1.92685,50.39664],[1.92997,50.39377],[1.92972,50.39371],[1.92936,50.39413],[1.92867,50.39395]]]}},{"type":"Feature","properties":{"k":"BTN","s":5.092},"geometry":{"type":"Polygon","coordinates":[[[1.93216,50.3986],[1.93265,50.39783],[1.92767,50.39671],[1.93067,50.39391],[1.92997,50.39377],[1.92685,50.39664],[1.92711,50.39717],[1.93216,50.3986]]]}},{"type":"Feature","properties":{"k":"PTC","s":8.673},"geometry":{"type":"Polygon","coordinates":[[[1.9342,50.39591],[1.93432,50.39465],[1.93067,50.39391],[1.92851,50.39592],[1.93332,50.39692],[1.9342,50.39591]]]}},{"type":"Feature","properties":{"k":"BFS","s":0.028},"geometry":{"type":"Polygon","coordinates":[[[1.93634,50.39398],[1.93595,50.39344],[1.93587,50.39335],[1.93675,50.39495],[1.93676,50.39495],[1.93634,50.39398]]]}},{"type":"Feature","properties":{"k":"CZH","s":4.708},"geometry":{"type":"Polygon","coordinates":[[[1.93941,50.39454],[1.93706,50.39253],[1.93606,50.39266],[1.93534,50.39296],[1.93592,50.39339],[1.93656,50.3947],[1.93718,50.39523],[1.93769,50.39548],[1.93941,50.39454]]]}},{"type":"Feature","properties":{"k":"PPH","s":6.145},"geometry":{"type":"Polygon","coordinates":[[[1.93726,50.39031],[1.93646,50.39041],[1.93435,50.39107],[1.93361,50.39155],[1.93428,50.39338],[1.93568,50.39322],[1.93534,50.39296],[1.93548,50.39288],[1.93706,50.39253],[1.93643,50.39197],[1.93812,50.39126],[1.93726,50.39031]]]}},{"type":"Feature","properties":{"k":"MIS","s":4.405},"geometry":{"type":"Polygon","coordinates":[[[1.93414,50.39343],[1.93295,50.39034],[1.93128,50.39061],[1.93134,50.39152],[1.93172,50.39199],[1.93133,50.39285],[1.93414,50.39343]]]}},{"type":"Feature","properties":{"k":"BTH","s":4.377},"geometry":{"type":"Polygon","coordinates":[[[1.93198,50.39419],[1.93432,50.39465],[1.93415,50.39345],[1.93115,50.39283],[1.9315,50.39203],[1.93089,50.39189],[1.93067,50.39247],[1.92969,50.39371],[1.93198,50.39419]]]}},{"type":"Feature","properties":{"k":"MSW","s":0.014},"geometry":{"type":"Polygon","coordinates":[[[1.92972,50.39371],[1.92929,50.39412],[1.92936,50.39413],[1.92972,50.39371]]]}},{"type":"Feature","properties":{"k":"BTH","s":7.064},"geometry":{"type":"Polygon","coordinates":[[[1.92601,50.39517],[1.92805,50.39328],[1.92753,50.39273],[1.92771,50.39269],[1.92683,50.39181],[1.9256,50.39171],[1.9234,50.39348],[1.92452,50.39445],[1.92487,50.39416],[1.92601,50.39517]]]}},{"type":"Feature","properties":{"k":"BTH","s":0.009},"geometry":{"type":"Polygon","coordinates":[[[1.92688,50.3918],[1.92757,50.39187],[1.92756,50.39184],[1.92676,50.39178],[1.92688,50.3918]]]}},{"type":"Feature","properties":{"k":"BTH","s":0.594},"geometry":{"type":"MultiPolygon","coordinates":[[[[1.92775,50.39268],[1.9279,50.39264],[1.92757,50.39187],[1.92688,50.3918],[1.92775,50.39268]]],[[[1.92996,50.39336],[1.93037,50.39276],[1.92916,50.394],[1.92996,50.39336]]],[[[1.93073,50.3922],[1.93094,50.39112],[1.93087,50.39014],[1.93055,50.39253],[1.93073,50.3922]]]]}},{"type":"Feature","properties":{"k":"BTH","s":1.125},"geometry":{"type":"Polygon","coordinates":[[[1.93198,50.38971],[1.93186,50.38867],[1.93044,50.38879],[1.93081,50.38984],[1.93198,50.38971]]]}},{"type":"Feature","properties":{"k":"NVT","s":1.156},"geometry":{"type":"Polygon","coordinates":[[[1.93198,50.38971],[1.93279,50.3896],[1.93283,50.38861],[1.93233,50.38786],[1.93159,50.38808],[1.93203,50.38866],[1.93186,50.38867],[1.93198,50.38971]]]}},{"type":"Feature","properties":{"k":"JAC","s":0.933},"geometry":{"type":"Polygon","coordinates":[[[1.93429,50.39056],[1.93337,50.39092],[1.93349,50.3912],[1.93486,50.39059],[1.93946,50.38938],[1.93429,50.39056]]]}},{"type":"Feature","properties":{"k":"CZH","s":1.516},"geometry":{"type":"Polygon","coordinates":[[[1.93725,50.39006],[1.93643,50.39015],[1.93444,50.39072],[1.93349,50.3912],[1.9336,50.39147],[1.93489,50.39081],[1.93643,50.39037],[1.93726,50.39032],[1.94142,50.38898],[1.94121,50.38881],[1.93725,50.39006]]]}},{"type":"Feature","properties":{"k":"CZH","s":1.052},"geometry":{"type":"Polygon","coordinates":[[[1.94207,50.38965],[1.94146,50.38901],[1.94002,50.38948],[1.94063,50.39024],[1.94207,50.38965]]]}},{"type":"Feature","properties":{"k":"JAC","s":0.13},"geometry":{"type":"Polygon","coordinates":[[[1.94001,50.38905],[1.94009,50.38918],[1.94121,50.38881],[1.94096,50.38875],[1.94001,50.38905]]]}},{"type":"Feature","properties":{"k":"VRC","s":2.219},"geometry":{"type":"Polygon","coordinates":[[[1.93812,50.39126],[1.94063,50.39024],[1.94002,50.38948],[1.93732,50.39037],[1.93812,50.39126]]]}},{"type":"Feature","properties":{"k":"BTH","s":13.712},"geometry":{"type":"Polygon","coordinates":[[[1.94012,50.3951],[1.94772,50.39164],[1.94678,50.3906],[1.94608,50.39015],[1.93842,50.39361],[1.94012,50.3951]]]}},{"type":"Feature","properties":{"k":"LIF","s":5.205},"geometry":{"type":"Polygon","coordinates":[[[1.93842,50.39361],[1.94608,50.39015],[1.94521,50.38967],[1.93776,50.39304],[1.93842,50.39361]]]}},{"type":"Feature","properties":{"k":"BTN","s":4.996},"geometry":{"type":"Polygon","coordinates":[[[1.93776,50.39304],[1.94521,50.38967],[1.94454,50.3893],[1.93698,50.39236],[1.93776,50.39304]]]}},{"type":"Feature","properties":{"k":"BTH","s":9.4},"geometry":{"type":"Polygon","coordinates":[[[1.94823,50.39302],[1.94772,50.39164],[1.94012,50.3951],[1.94106,50.39591],[1.94288,50.39512],[1.94306,50.39547],[1.94712,50.39371],[1.94823,50.39302]]]}},{"type":"Feature","properties":{"k":"ORH","s":14.33},"geometry":{"type":"Polygon","coordinates":[[[1.94786,50.39174],[1.94818,50.39246],[1.95147,50.39015],[1.94631,50.38671],[1.94408,50.38898],[1.94573,50.38978],[1.9468,50.39042],[1.94786,50.39174]]]}},{"type":"Feature","properties":{"k":"MIS","s":6.52},"geometry":{"type":"Polygon","coordinates":[[[1.94631,50.38671],[1.94402,50.38512],[1.94206,50.38777],[1.94408,50.38898],[1.94631,50.38671]]]}}]}