{"type":"FeatureCollection","features":[{"type":"Feature","properties":{"k":"PPH","s":0.065},"geometry":{"type":"MultiPolygon","coordinates":[[[[1.72949,50.51544],[1.73059,50.5153],[1.73056,50.51526],[1.72869,50.51556],[1.72949,50.51544]]]]}},{"type":"Feature","properties":{"k":"LIF","s":4.02},"geometry":{"type":"Polygon","coordinates":[[[1.74024,50.52791],[1.74036,50.52805],[1.74051,50.52799],[1.74068,50.52845],[1.74111,50.52845],[1.74585,50.52513],[1.74496,50.52475],[1.74024,50.52791]]]}},{"type":"Feature","properties":{"k":"PPH","s":0.017},"geometry":{"type":"Polygon","coordinates":[[[1.73348,50.51576],[1.73189,50.51601],[1.7319,50.51603],[1.73348,50.51576]]]}},{"type":"Feature","properties":{"k":"MIS","s":1.575},"geometry":{"type":"Polygon","coordinates":[[[1.73278,50.5175],[1.73358,50.51684],[1.73369,50.51624],[1.73348,50.51576],[1.7319,50.51603],[1.73278,50.5175]]]}},{"type":"Feature","properties":{"k":"PPH","s":0.835},"geometry":{"type":"Polygon","coordinates":[[[1.73456,50.51827],[1.73376,50.51686],[1.73359,50.51787],[1.73417,50.51876],[1.7347,50.5187],[1.73456,50.51827]]]}},{"type":"Feature","properties":{"k":"MIS","s":8.702},"geometry":{"type":"Polygon","coordinates":[[[1.73473,50.5187],[1.73419,50.51878],[1.73445,50.51961],[1.73494,50.52025],[1.73604,50.52009],[1.73673,50.52247],[1.73777,50.52224],[1.73648,50.51911],[1.73688,50.51717],[1.73525,50.51647],[1.73401,50.51632],[1.73383,50.51684],[1.73473,50.5187]]]}},{"type":"Feature","properties":{"k":"PTR","s":1.567},"geometry":{"type":"Polygon","coordinates":[[[1.73773,50.51659],[1.73688,50.51705],[1.7383,50.51794],[1.73929,50.51719],[1.73886,50.51653],[1.73773,50.51659]]]}},{"type":"Feature","properties":{"k":"CZH","s":0.026},"geometry":{"type":"MultiPolygon","coordinates":[[[[1.73831,50.51655],[1.73867,50.51653],[1.7378,50.51655],[1.73831,50.51655]]],[[[1.74021,50.51652],[1.74087,50.51648],[1.73951,50.51651],[1.74021,50.51652]]]]}},{"type":"Feature","properties":{"k":"MIS","s":5.109},"geometry":{"type":"Polygon","coordinates":[[[1.74589,50.52225],[1.74429,50.52041],[1.74274,50.51936],[1.74146,50.5189],[1.73883,50.51849],[1.73695,50.51723],[1.73682,50.51801],[1.73845,50.51895],[1.7413,50.51935],[1.74331,50.52038],[1.74431,50.5212],[1.74487,50.52223],[1.74625,50.52294],[1.74655,50.52257],[1.74589,50.52225]]]}},{"type":"Feature","properties":{"k":"PPH","s":4.045},"geometry":{"type":"Polygon","coordinates":[[[1.74074,50.5193],[1.73848,50.519],[1.73678,50.51806],[1.73661,50.51851],[1.73941,50.52034],[1.7401,50.51998],[1.7412,50.52036],[1.74221,50.52094],[1.74314,50.52033],[1.74074,50.5193]]]}},{"type":"Feature","properties":{"k":"PPH","s":5.576},"geometry":{"type":"Polygon","coordinates":[[[1.74318,50.52298],[1.74447,50.52215],[1.74459,50.52195],[1.74431,50.5212],[1.74314,50.52033],[1.74162,50.52141],[1.74038,50.52205],[1.73983,50.52224],[1.73925,50.52214],[1.73798,50.52276],[1.73822,50.52347],[1.74187,50.52193],[1.74318,50.52298]]]}},{"type":"Feature","properties":{"k":"TCR","s":2.605},"geometry":{"type":"Polygon","coordinates":[[[1.74506,50.52419],[1.74625,50.52294],[1.74468,50.52201],[1.74318,50.52299],[1.74506,50.52419]]]}},{"type":"Feature","properties":{"k":"BTH","s":0.088},"geometry":{"type":"Polygon","coordinates":[[[1.74331,50.52308],[1.74318,50.52298],[1.74192,50.52381],[1.74331,50.52308]]]}},{"type":"Feature","properties":{"k":"ORP","s":5.859},"geometry":{"type":"Polygon","coordinates":[[[1.74187,50.52193],[1.73822,50.52347],[1.73863,50.52488],[1.74161,50.52401],[1.7432,50.52297],[1.74187,50.52193]]]}},{"type":"Feature","properties":{"k":"LUZ","s":3.409},"geometry":{"type":"Polygon","coordinates":[[[1.73769,50.52185],[1.73788,50.52228],[1.73807,50.52227],[1.73866,50.52179],[1.73844,50.52079],[1.73941,50.52034],[1.73661,50.51851],[1.73769,50.52185]]]}},{"type":"Feature","properties":{"k":"PPH","s":0.563},"geometry":{"type":"Polygon","coordinates":[[[1.73582,50.52176],[1.73566,50.52232],[1.73488,50.5222],[1.73612,50.52261],[1.73671,50.52248],[1.73646,50.52183],[1.73582,50.52176]]]}},{"type":"Feature","properties":{"k":"PPH","s":0.64},"geometry":{"type":"Polygon","coordinates":[[[1.73346,50.52839],[1.73377,50.52842],[1.73479,50.52769],[1.73444,50.52752],[1.73398,50.52751],[1.7333,50.52807],[1.73346,50.52839]]]}},{"type":"Feature","properties":{"k":"PPH","s":2.007},"geometry":{"type":"Polygon","coordinates":[[[1.73321,50.51988],[1.73439,50.5198],[1.73413,50.51927],[1.73285,50.51946],[1.73311,50.52014],[1.73277,50.52056],[1.73279,50.52103],[1.73321,50.52264],[1.73419,50.5225],[1.7332,50.52028],[1.73321,50.51988]]]}},{"type":"Feature","properties":{"k":"PPR","s":1.033},"geometry":{"type":"Polygon","coordinates":[[[1.72799,50.5239],[1.72908,50.52268],[1.72743,50.52266],[1.72745,50.52359],[1.72746,50.52382],[1.72799,50.5239]]]}},{"type":"Feature","properties":{"k":"CZH","s":7.595},"geometry":{"type":"Polygon","coordinates":[[[1.72664,50.52426],[1.72867,50.52427],[1.72876,50.52373],[1.73024,50.52252],[1.73036,50.52166],[1.72654,50.52175],[1.72422,50.52428],[1.72656,50.52437],[1.72664,50.52426]],[[1.72746,50.52382],[1.72743,50.52266],[1.72908,50.52268],[1.72799,50.5239],[1.72746,50.52382]]]}},{"type":"Feature","properties":{"k":"ORH","s":5.806},"geometry":{"type":"Polygon","coordinates":[[[1.72622,50.52168],[1.72803,50.52164],[1.72691,50.51917],[1.72511,50.51954],[1.72374,50.52167],[1.72391,50.52196],[1.72622,50.52168]]]}},{"type":"Feature","properties":{"k":"PPH","s":3.584},"geometry":{"type":"Polygon","coordinates":[[[1.73019,50.52259],[1.73159,50.52298],[1.73294,50.52285],[1.73311,50.52256],[1.73245,50.5209],[1.73105,50.52093],[1.73048,50.52165],[1.73019,50.52259]]]}},{"type":"Feature","properties":{"k":"PTR","s":0.137},"geometry":{"type":"Polygon","coordinates":[[[1.73145,50.52058],[1.73126,50.52039],[1.73106,50.52093],[1.73146,50.52096],[1.73145,50.52058]]]}},{"type":"Feature","properties":{"k":"PPH","s":0.696},"geometry":{"type":"Polygon","coordinates":[[[1.73168,50.51954],[1.7313,50.51949],[1.73122,50.52024],[1.73155,50.52074],[1.73237,50.52059],[1.73168,50.51954]]]}},{"type":"Feature","properties":{"k":"PPH","s":0.705},"geometry":{"type":"Polygon","coordinates":[[[1.73147,50.51828],[1.73119,50.51814],[1.73096,50.51821],[1.73167,50.51905],[1.73157,50.51938],[1.73208,50.51949],[1.73273,50.51937],[1.73147,50.51828]]]}},{"type":"Feature","properties":{"k":"PPH","s":1.58},"geometry":{"type":"Polygon","coordinates":[[[1.73203,50.51863],[1.73381,50.51836],[1.73284,50.51754],[1.73067,50.51774],[1.73203,50.51863]]]}},{"type":"Feature","properties":{"k":"PPH","s":3.066},"geometry":{"type":"Polygon","coordinates":[[[1.73193,50.5152],[1.73067,50.51525],[1.73049,50.51648],[1.7306,50.51775],[1.73278,50.51748],[1.73231,50.51704],[1.73189,50.51601],[1.73193,50.5152]]]}},{"type":"Feature","properties":{"k":"PPH","s":11.489},"geometry":{"type":"Polygon","coordinates":[[[1.72814,50.51892],[1.72859,50.51885],[1.7293,50.51931],[1.7305,50.52077],[1.73085,50.52069],[1.73115,50.51952],[1.73085,50.51953],[1.73084,50.5194],[1.73164,50.51907],[1.73043,50.51757],[1.73063,50.51531],[1.72743,50.51569],[1.72685,50.51618],[1.72682,50.51688],[1.72622,50.51783],[1.72702,50.51766],[1.72814,50.51892]]]}},{"type":"Feature","properties":{"k":"CZH","s":0.005},"geometry":{"type":"Polygon","coordinates":[[[1.72677,50.51653],[1.72677,50.51639],[1.72673,50.51688],[1.72677,50.51653]]]}},{"type":"Feature","properties":{"k":"PPH","s":3.134},"geometry":{"type":"Polygon","coordinates":[[[1.73382,50.52849],[1.73334,50.52845],[1.73318,50.52818],[1.73333,50.52741],[1.73204,50.52698],[1.73156,50.52853],[1.73217,50.52866],[1.7324,50.52912],[1.73359,50.52916],[1.73451,50.52935],[1.73467,50.52919],[1.73454,50.52798],[1.73382,50.52849]]]}},{"type":"Feature","properties":{"k":"BTH","s":0.764},"geometry":{"type":"Polygon","coordinates":[[[1.73454,50.52796],[1.73467,50.52919],[1.73594,50.52783],[1.73454,50.52796]]]}},{"type":"Feature","properties":{"k":"TCR","s":0.764},"geometry":{"type":"Polygon","coordinates":[[[1.73594,50.52733],[1.73545,50.52724],[1.73494,50.52779],[1.73573,50.52771],[1.73672,50.52809],[1.73664,50.52683],[1.73648,50.52677],[1.7366,50.52691],[1.73594,50.52733]]]}},{"type":"Feature","properties":{"k":"MIS","s":7.222},"geometry":{"type":"Polygon","coordinates":[[[1.71766,50.53226],[1.71669,50.53379],[1.7189,50.53356],[1.71988,50.53321],[1.72005,50.53302],[1.71991,50.53285],[1.72053,50.53252],[1.72169,50.53129],[1.72175,50.53117],[1.72075,50.53082],[1.72018,50.53033],[1.71925,50.53009],[1.71766,50.53226]]]}},{"type":"Feature","properties":{"k":"ORH","s":5.009},"geometry":{"type":"Polygon","coordinates":[[[1.71993,50.5297],[1.72174,50.52721],[1.71926,50.52686],[1.71763,50.52911],[1.71993,50.5297]]]}},{"type":"Feature","properties":{"k":"MIS","s":0.0},"geometry":{"type":"Polygon","coordinates":[[[1.7202,50.53039],[1.72018,50.53033],[1.72018,50.5304],[1.7202,50.53039]]]}},{"type":"Feature","properties":{"k":"CZH","s":0.002},"geometry":{"type":"Polygon","coordinates":[[[1.72045,50.53063],[1.7205,50.53065],[1.7202,50.53039],[1.72045,50.53063]]]}},{"type":"Feature","properties":{"k":"BTH","s":0.002},"geometry":{"type":"Polygon","coordinates":[[[1.71832,50.52256],[1.71828,50.52254],[1.71837,50.52264],[1.71832,50.52256]]]}},{"type":"Feature","properties":{"k":"MIS","s":1.51},"geometry":{"type":"Polygon","coordinates":[[[1.71891,50.52328],[1.72039,50.52167],[1.71784,50.52191],[1.71891,50.52328]]]}},{"type":"Feature","properties":{"k":"BTH","s":5.245},"geometry":{"type":"Polygon","coordinates":[[[1.72409,50.52201],[1.72323,50.52229],[1.72137,50.52417],[1.72422,50.52428],[1.72654,50.52175],[1.72409,50.52201]]]}},{"type":"Feature","properties":{"k":"PTC","s":9.179},"geometry":{"type":"Polygon","coordinates":[[[1.71915,50.52357],[1.71799,50.52508],[1.72001,50.52573],[1.7239,50.52134],[1.72039,50.52167],[1.71891,50.52328],[1.71915,50.52357]]]}},{"type":"Feature","properties":{"k":"BTH","s":0.956},"geometry":{"type":"Polygon","coordinates":[[[1.71969,50.52173],[1.7194,50.52123],[1.71737,50.52119],[1.71784,50.52191],[1.71969,50.52173]]]}},{"type":"Feature","properties":{"k":"BTP","s":2.598},"geometry":{"type":"Polygon","coordinates":[[[1.71926,50.52686],[1.7219,50.52724],[1.72261,50.52591],[1.72011,50.52582],[1.71926,50.52686]]]}},{"type":"Feature","properties":{"k":"JAC","s":0.161},"geometry":{"type":"Polygon","coordinates":[[[1.74021,50.52442],[1.73864,50.52488],[1.73868,50.52513],[1.74021,50.52442]]]}},{"type":"Feature","properties":{"k":"MLG","s":0.005},"geometry":{"type":"Polygon","coordinates":[[[1.71996,50.53286],[1.72049,50.53258],[1.72044,50.53258],[1.71996,50.53286]]]}},{"type":"Feature","properties":{"k":"BTH","s":0.391},"geometry":{"type":"Polygon","coordinates":[[[1.73874,50.52535],[1.74138,50.52408],[1.74021,50.52442],[1.73868,50.52513],[1.73874,50.52535]]]}},{"type":"Feature","properties":{"k":"BTN","s":3.393},"geometry":{"type":"Polygon","coordinates":[[[1.71439,50.53383],[1.71457,50.53392],[1.71669,50.53379],[1.71771,50.53227],[1.71571,50.53179],[1.71439,50.53383]]]}},{"type":"Feature","properties":{"k":"ORP","s":5.376},"geometry":{"type":"Polygon","coordinates":[[[1.73647,50.52668],[1.73672,50.52809],[1.73931,50.52848],[1.7405,50.52845],[1.73908,50.5267],[1.7388,50.52592],[1.73669,50.52615],[1.73647,50.52668]]]}},{"type":"Feature","properties":{"k":"BTN","s":3.933},"geometry":{"type":"Polygon","coordinates":[[[1.72174,50.52722],[1.71993,50.5297],[1.72019,50.52977],[1.72082,50.52946],[1.72127,50.52858],[1.72183,50.52876],[1.72281,50.52878],[1.72321,50.52835],[1.7234,50.52749],[1.72281,50.52737],[1.72357,50.52599],[1.72261,50.52591],[1.72191,50.52724],[1.72174,50.52722]]]}},{"type":"Feature","properties":{"k":"BTP","s":5.132},"geometry":{"type":"Polygon","coordinates":[[[1.71571,50.53179],[1.71766,50.53226],[1.71925,50.53009],[1.72018,50.53033],[1.72003,50.52988],[1.72019,50.52977],[1.71763,50.52911],[1.71702,50.53015],[1.71685,50.5301],[1.71571,50.53179]]]}},{"type":"Feature","properties":{"k":"PPH","s":0.047},"geometry":{"type":"MultiPolygon","coordinates":[[[[1.72891,50.52917],[1.72897,50.52913],[1.72879,50.52809],[1.72891,50.52917]]],[[[1.72086,50.52941],[1.72073,50.52951],[1.72082,50.52946],[1.72086,50.52941]]],[[[1.72019,50.5298],[1.72035,50.52971],[1.72019,50.52977],[1.72019,50.5298]]]]}},{"type":"Feature","properties":{"k":"ORP","s":0.014},"geometry":{"type":"Polygon","coordinates":[[[1.74433,50.52819],[1.74421,50.52838],[1.74456,50.52793],[1.74433,50.52819]]]}},{"type":"Feature","properties":{"k":"BTN","s":1.976},"geometry":{"type":"Polygon","coordinates":[[[1.7463,50.52538],[1.74584,50.52514],[1.74111,50.52845],[1.74189,50.52843],[1.7463,50.52538]]]}},{"type":"Feature","properties":{"k":"BTN","s":3.41},"geometry":{"type":"Polygon","coordinates":[[[1.72076,50.52491],[1.72696,50.52517],[1.72658,50.52438],[1.72138,50.52419],[1.72076,50.52491]]]}},{"type":"Feature","properties":{"k":"ORH","s":3.649},"geometry":{"type":"Polygon","coordinates":[[[1.72726,50.52593],[1.72917,50.52534],[1.72989,50.52535],[1.73054,50.52432],[1.72872,50.52396],[1.72866,50.52429],[1.72664,50.52427],[1.72726,50.52593]]]}},{"type":"Feature","properties":{"k":"PPH","s":9.025},"geometry":{"type":"Polygon","coordinates":[[[1.73029,50.52669],[1.72999,50.52665],[1.72985,50.52686],[1.72917,50.52667],[1.72948,50.52664],[1.72963,50.52632],[1.72908,50.52622],[1.72928,50.52583],[1.72987,50.52595],[1.73027,50.52569],[1.73026,50.52551],[1.72973,50.5254],[1.72952,50.52584],[1.72864,50.52571],[1.72781,50.52606],[1.72583,50.52614],[1.72358,50.52599],[1.72281,50.52737],[1.72592,50.52801],[1.7281,50.52808],[1.72845,50.52721],[1.73007,50.52743],[1.73029,50.52669]]]}},{"type":"Feature","properties":{"k":"PPH","s":2.924},"geometry":{"type":"Polygon","coordinates":[[[1.72846,50.52721],[1.72821,50.52807],[1.72885,50.52809],[1.72898,50.52913],[1.7298,50.52912],[1.73007,50.52925],[1.73001,50.52951],[1.73038,50.52956],[1.73074,50.52909],[1.73079,50.5279],[1.73012,50.52768],[1.73006,50.52744],[1.72846,50.52721]]]}},{"type":"Feature","properties":{"k":"BTH","s":11.873},"geometry":{"type":"Polygon","coordinates":[[[1.73874,50.52535],[1.73913,50.52664],[1.74024,50.52791],[1.74497,50.52474],[1.74506,50.52419],[1.74331,50.52307],[1.73874,50.52535]]]}},{"type":"Feature","properties":{"k":"MIS","s":10.446},"geometry":{"type":"Polygon","coordinates":[[[1.74189,50.52843],[1.7442,50.52838],[1.74475,50.52767],[1.74574,50.52747],[1.74633,50.5267],[1.74773,50.52571],[1.74896,50.52328],[1.74655,50.52257],[1.74593,50.52331],[1.74595,50.52362],[1.74501,50.52446],[1.74496,50.52475],[1.7463,50.52538],[1.74189,50.52843]]]}},{"type":"Feature","properties":{"k":"BTH","s":4.67},"geometry":{"type":"Polygon","coordinates":[[[1.72436,50.52601],[1.72724,50.52591],[1.727,50.52518],[1.72077,50.52492],[1.7202,50.52573],[1.72436,50.52601]]]}},{"type":"Feature","properties":{"k":"BTN","s":4.445},"geometry":{"type":"Polygon","coordinates":[[[1.72728,50.5191],[1.72842,50.52163],[1.73015,50.52164],[1.73063,50.52126],[1.73033,50.5207],[1.72948,50.51963],[1.72854,50.51885],[1.72728,50.5191]]]}},{"type":"Feature","properties":{"k":"ORH","s":2.304},"geometry":{"type":"Polygon","coordinates":[[[1.72702,50.51766],[1.72622,50.51783],[1.7251,50.51954],[1.72814,50.51892],[1.72702,50.51766]]]}},{"type":"Feature","properties":{"k":"PPH","s":0.017},"geometry":{"type":"Polygon","coordinates":[[[1.74542,50.52759],[1.74554,50.52754],[1.74476,50.52768],[1.74472,50.52772],[1.74542,50.52759]]]}},{"type":"Feature","properties":{"k":"PHF","s":0.833},"geometry":{"type":"Polygon","coordinates":[[[1.71969,50.52173],[1.72354,50.52133],[1.7194,50.52123],[1.71969,50.52173]]]}},{"type":"Feature","properties":{"k":"PPH","s":0.198},"geometry":{"type":"Polygon","coordinates":[[[1.73484,50.52091],[1.73485,50.52061],[1.73392,50.52077],[1.73412,50.52101],[1.73484,50.52091]]]}}]}