{"type":"FeatureCollection","features":[{"type":"Feature","properties":{"k":"BTN","s":1.759},"geometry":{"type":"Polygon","coordinates":[[[2.52676,50.49835],[2.52754,50.49913],[2.52929,50.49856],[2.52737,50.49742],[2.52681,50.49775],[2.52733,50.49809],[2.52676,50.49835]]]}},{"type":"Feature","properties":{"k":"BTH","s":6.4},"geometry":{"type":"Polygon","coordinates":[[[2.5019,50.51214],[2.50254,50.51136],[2.50115,50.51078],[2.50109,50.51063],[2.4998,50.51027],[2.49982,50.50976],[2.49788,50.5094],[2.497,50.50905],[2.49709,50.50979],[2.4962,50.51059],[2.5019,50.51214]]]}},{"type":"Feature","properties":{"k":"PTC","s":8.794},"geometry":{"type":"Polygon","coordinates":[[[2.51984,50.49362],[2.51798,50.49519],[2.52245,50.49735],[2.52439,50.49585],[2.51984,50.49362]],[[2.52253,50.49591],[2.52248,50.49594],[2.52219,50.49578],[2.52253,50.49591]]]}},{"type":"Feature","properties":{"k":"MIS","s":18.508},"geometry":{"type":"Polygon","coordinates":[[[2.5129,50.4986],[2.51462,50.50012],[2.5163,50.50006],[2.51751,50.49972],[2.51962,50.49952],[2.5161,50.49795],[2.51777,50.49673],[2.52316,50.49902],[2.52448,50.49885],[2.52571,50.49828],[2.52312,50.49684],[2.52245,50.49736],[2.51798,50.49519],[2.51625,50.49657],[2.51638,50.49664],[2.5129,50.4986]]]}},{"type":"Feature","properties":{"k":"BTH","s":7.154},"geometry":{"type":"Polygon","coordinates":[[[2.52144,50.49936],[2.52316,50.49902],[2.51777,50.49673],[2.5161,50.49795],[2.51962,50.49952],[2.52144,50.49936]]]}},{"type":"Feature","properties":{"k":"PTR","s":2.513},"geometry":{"type":"Polygon","coordinates":[[[2.51286,50.49849],[2.514,50.49793],[2.51163,50.49623],[2.51121,50.49683],[2.5112,50.49756],[2.51286,50.49849]]]}},{"type":"Feature","properties":{"k":"BTH","s":3.543},"geometry":{"type":"Polygon","coordinates":[[[2.51415,50.49586],[2.51367,50.49609],[2.51266,50.49589],[2.51166,50.49624],[2.51402,50.49791],[2.51575,50.49683],[2.51415,50.49586]]]}},{"type":"Feature","properties":{"k":"BTH","s":3.016},"geometry":{"type":"Polygon","coordinates":[[[2.526,50.4981],[2.52636,50.49783],[2.52655,50.49698],[2.5245,50.4959],[2.52314,50.49685],[2.52462,50.4976],[2.52484,50.49744],[2.526,50.4981]]]}},{"type":"Feature","properties":{"k":"BTH","s":7.001},"geometry":{"type":"Polygon","coordinates":[[[2.51579,50.49419],[2.51571,50.49506],[2.51711,50.49576],[2.51973,50.49356],[2.51709,50.49214],[2.51525,50.4936],[2.51579,50.49419]]]}},{"type":"Feature","properties":{"k":"BTH","s":6.818},"geometry":{"type":"Polygon","coordinates":[[[2.51014,50.49245],[2.51065,50.49263],[2.51161,50.49203],[2.51255,50.49188],[2.51334,50.49196],[2.5143,50.49235],[2.51525,50.4936],[2.51709,50.49214],[2.51468,50.49087],[2.51345,50.49043],[2.51121,50.49174],[2.51066,50.49152],[2.5093,50.49253],[2.51014,50.49245]]]}},{"type":"Feature","properties":{"k":"BTH","s":0.816},"geometry":{"type":"Polygon","coordinates":[[[2.50848,50.49694],[2.50875,50.4968],[2.50847,50.49654],[2.50902,50.49624],[2.50804,50.49551],[2.5073,50.49586],[2.50848,50.49694]]]}},{"type":"Feature","properties":{"k":"PPH","s":0.568},"geometry":{"type":"Polygon","coordinates":[[[2.51744,50.50424],[2.51778,50.50447],[2.51859,50.50397],[2.51815,50.50354],[2.51694,50.50419],[2.51708,50.5044],[2.51744,50.50424]]]}},{"type":"Feature","properties":{"k":"BTN","s":0.066},"geometry":{"type":"Polygon","coordinates":[[[2.51675,50.5041],[2.51798,50.5034],[2.51679,50.50406],[2.51629,50.50368],[2.51626,50.5037],[2.51675,50.5041]]]}},{"type":"Feature","properties":{"k":"BTH","s":5.36},"geometry":{"type":"Polygon","coordinates":[[[2.51613,50.50014],[2.51451,50.50027],[2.51535,50.50126],[2.51873,50.50405],[2.51949,50.50339],[2.51866,50.50277],[2.51912,50.50249],[2.51613,50.50014]]]}},{"type":"Feature","properties":{"k":"BTN","s":6.064},"geometry":{"type":"Polygon","coordinates":[[[2.5158,50.50393],[2.51629,50.50368],[2.51679,50.50406],[2.51793,50.50339],[2.51462,50.50056],[2.51443,50.50063],[2.51423,50.50041],[2.51271,50.50098],[2.5158,50.50393]]]}},{"type":"Feature","properties":{"k":"BTH","s":2.681},"geometry":{"type":"Polygon","coordinates":[[[2.51158,50.49945],[2.51226,50.499],[2.51396,50.5004],[2.51449,50.50016],[2.51278,50.49851],[2.51129,50.4977],[2.51074,50.49825],[2.51075,50.49865],[2.51158,50.49945]]]}},{"type":"Feature","properties":{"k":"BTH","s":5.372},"geometry":{"type":"Polygon","coordinates":[[[2.51615,50.50015],[2.51968,50.50284],[2.5212,50.50185],[2.51815,50.49972],[2.51615,50.50015]]]}},{"type":"Feature","properties":{"k":"MIS","s":9.137},"geometry":{"type":"Polygon","coordinates":[[[2.52384,50.50028],[2.52713,50.49927],[2.52589,50.49828],[2.52439,50.49893],[2.52151,50.49943],[2.51815,50.49972],[2.5212,50.50185],[2.52384,50.50028]]]}},{"type":"Feature","properties":{"k":"PTC","s":0.001},"geometry":{"type":"Polygon","coordinates":[[[2.51191,50.51348],[2.51202,50.51343],[2.51198,50.51344],[2.51191,50.51348]]]}},{"type":"Feature","properties":{"k":"BTH","s":0.011},"geometry":{"type":"MultiPolygon","coordinates":[[[[2.513,50.50932],[2.51334,50.50913],[2.51313,50.50924],[2.513,50.50932]]],[[[2.50996,50.51126],[2.51008,50.51132],[2.51016,50.51126],[2.50996,50.51126]]]]}},{"type":"Feature","properties":{"k":"MIS","s":1.421},"geometry":{"type":"Polygon","coordinates":[[[2.51005,50.51402],[2.5108,50.51382],[2.50965,50.51312],[2.50799,50.514],[2.50864,50.5145],[2.51005,50.51402]]]}},{"type":"Feature","properties":{"k":"PPH","s":2.749},"geometry":{"type":"Polygon","coordinates":[[[2.50772,50.51413],[2.50798,50.51402],[2.50857,50.51452],[2.50799,50.514],[2.50965,50.51312],[2.5108,50.51382],[2.51175,50.51355],[2.50928,50.51231],[2.5085,50.51272],[2.50818,50.51245],[2.50807,50.51252],[2.50841,50.51277],[2.50693,50.5136],[2.50772,50.51413]]]}},{"type":"Feature","properties":{"k":"PPH","s":0.33},"geometry":{"type":"Polygon","coordinates":[[[2.49261,50.50907],[2.48993,50.51033],[2.49289,50.50928],[2.49261,50.50907]]]}},{"type":"Feature","properties":{"k":"BTH","s":0.012},"geometry":{"type":"Polygon","coordinates":[[[2.49618,50.51062],[2.49723,50.5109],[2.4962,50.51059],[2.49618,50.51062]]]}},{"type":"Feature","properties":{"k":"BTH","s":4.777},"geometry":{"type":"Polygon","coordinates":[[[2.49718,50.50962],[2.49702,50.50907],[2.49682,50.50901],[2.49715,50.50823],[2.49523,50.5083],[2.49362,50.50864],[2.49262,50.50906],[2.49289,50.50928],[2.49363,50.50902],[2.49567,50.51048],[2.49618,50.51062],[2.49718,50.50962]]]}},{"type":"Feature","properties":{"k":"PPH","s":6.765},"geometry":{"type":"Polygon","coordinates":[[[2.4899,50.5103],[2.49346,50.50865],[2.49529,50.50826],[2.49655,50.50816],[2.49713,50.5069],[2.49561,50.50697],[2.49418,50.5073],[2.48912,50.50943],[2.4899,50.5103]]]}},{"type":"Feature","properties":{"k":"PPH","s":3.753},"geometry":{"type":"Polygon","coordinates":[[[2.50253,50.50799],[2.50244,50.50927],[2.50398,50.50965],[2.50451,50.50918],[2.50425,50.5091],[2.50434,50.50894],[2.50481,50.5091],[2.50503,50.50874],[2.50555,50.50888],[2.50566,50.50871],[2.50674,50.50895],[2.50751,50.50795],[2.50705,50.5079],[2.50598,50.50824],[2.50253,50.50799]]]}},{"type":"Feature","properties":{"k":"PTR","s":1.919},"geometry":{"type":"Polygon","coordinates":[[[2.51578,50.49684],[2.51715,50.49579],[2.51568,50.49506],[2.51497,50.49567],[2.51422,50.49587],[2.51578,50.49684]]]}},{"type":"Feature","properties":{"k":"PPH","s":0.008},"geometry":{"type":"Polygon","coordinates":[[[2.50829,50.51461],[2.50857,50.51452],[2.5084,50.51452],[2.50829,50.51461]]]}}]}