{"type":"FeatureCollection","features":[{"type":"Feature","properties":{"k":"PPH","s":2.438},"geometry":{"type":"Polygon","coordinates":[[[1.86615,50.68396],[1.86636,50.68496],[1.8687,50.68486],[1.86795,50.68381],[1.86699,50.6833],[1.86584,50.68361],[1.86615,50.68396]]]}},{"type":"Feature","properties":{"k":"PPH","s":1.197},"geometry":{"type":"Polygon","coordinates":[[[1.85757,50.68263],[1.8576,50.68213],[1.85786,50.68194],[1.85666,50.68112],[1.85602,50.6821],[1.85757,50.68263]]]}},{"type":"Feature","properties":{"k":"BTH","s":5.232},"geometry":{"type":"Polygon","coordinates":[[[1.85261,50.67531],[1.85239,50.67548],[1.85218,50.67598],[1.85153,50.67646],[1.85194,50.67682],[1.85076,50.67857],[1.85213,50.67889],[1.85322,50.67719],[1.8542,50.67747],[1.85501,50.67657],[1.85428,50.67612],[1.85347,50.67683],[1.8542,50.67608],[1.85261,50.67531]]]}},{"type":"Feature","properties":{"k":"PPH","s":2.064},"geometry":{"type":"Polygon","coordinates":[[[1.84778,50.67758],[1.84859,50.6777],[1.84889,50.67729],[1.84983,50.67689],[1.85021,50.67659],[1.84997,50.67654],[1.85016,50.67617],[1.84993,50.67611],[1.8502,50.67573],[1.84946,50.67554],[1.84913,50.67607],[1.84875,50.67598],[1.84778,50.67758]]]}},{"type":"Feature","properties":{"k":"PPH","s":0.648},"geometry":{"type":"Polygon","coordinates":[[[1.84911,50.67795],[1.84938,50.67762],[1.85018,50.6772],[1.84991,50.67701],[1.85032,50.67669],[1.85021,50.67659],[1.84889,50.67729],[1.84859,50.67795],[1.84882,50.67802],[1.84889,50.67789],[1.84911,50.67795]]]}},{"type":"Feature","properties":{"k":"PPH","s":1.614},"geometry":{"type":"Polygon","coordinates":[[[1.8499,50.68106],[1.85115,50.67917],[1.85004,50.67892],[1.84913,50.68043],[1.8499,50.68106]]]}},{"type":"Feature","properties":{"k":"MIS","s":2.107},"geometry":{"type":"Polygon","coordinates":[[[1.84906,50.6782],[1.84823,50.67954],[1.84863,50.67988],[1.84937,50.68005],[1.85004,50.67892],[1.85115,50.67917],[1.85138,50.67877],[1.84906,50.6782]]]}},{"type":"Feature","properties":{"k":"PPH","s":1.103},"geometry":{"type":"Polygon","coordinates":[[[1.84662,50.68055],[1.84583,50.68027],[1.8458,50.68078],[1.84597,50.68087],[1.84654,50.68086],[1.84668,50.68064],[1.84704,50.68075],[1.84831,50.67923],[1.84765,50.67918],[1.84662,50.68055]]]}},{"type":"Feature","properties":{"k":"MIS","s":0.946},"geometry":{"type":"Polygon","coordinates":[[[1.84559,50.68014],[1.84662,50.68055],[1.84737,50.67956],[1.8463,50.67929],[1.84559,50.68014]]]}},{"type":"Feature","properties":{"k":"PPH","s":9.463},"geometry":{"type":"Polygon","coordinates":[[[1.8452,50.68017],[1.84559,50.6801],[1.84629,50.67929],[1.84738,50.67955],[1.84854,50.678],[1.84859,50.6777],[1.84778,50.67758],[1.84819,50.67676],[1.84725,50.67654],[1.84646,50.67758],[1.8455,50.67733],[1.84461,50.67747],[1.84412,50.67711],[1.84264,50.67957],[1.8452,50.68017]]]}},{"type":"Feature","properties":{"k":"BTH","s":0.92},"geometry":{"type":"Polygon","coordinates":[[[1.84299,50.67653],[1.84354,50.67693],[1.84412,50.67709],[1.84466,50.67666],[1.84348,50.67595],[1.84285,50.6761],[1.84299,50.67653]]]}},{"type":"Feature","properties":{"k":"PPH","s":1.574},"geometry":{"type":"Polygon","coordinates":[[[1.84751,50.67605],[1.84716,50.67593],[1.84658,50.67639],[1.84618,50.67624],[1.8447,50.67748],[1.84551,50.67732],[1.84658,50.67755],[1.84751,50.67605]]]}},{"type":"Feature","properties":{"k":"PPH","s":0.225},"geometry":{"type":"Polygon","coordinates":[[[1.8481,50.67561],[1.84829,50.6747],[1.84791,50.67479],[1.84777,50.67552],[1.8481,50.67561]]]}},{"type":"Feature","properties":{"k":"PTR","s":1.232},"geometry":{"type":"Polygon","coordinates":[[[1.84466,50.67666],[1.84619,50.67544],[1.84548,50.6753],[1.84348,50.67595],[1.84466,50.67666]]]}},{"type":"Feature","properties":{"k":"PPH","s":1.265},"geometry":{"type":"Polygon","coordinates":[[[1.84568,50.67489],[1.84382,50.67515],[1.84279,50.67577],[1.84285,50.6761],[1.84549,50.6753],[1.84568,50.67489]]]}},{"type":"Feature","properties":{"k":"PPH","s":4.13},"geometry":{"type":"Polygon","coordinates":[[[1.84714,50.6754],[1.84745,50.67497],[1.84787,50.67503],[1.84788,50.67479],[1.84673,50.67444],[1.84565,50.67461],[1.84533,50.67426],[1.84388,50.67409],[1.84356,50.67377],[1.84359,50.67337],[1.84321,50.67355],[1.84236,50.67447],[1.84277,50.67496],[1.84224,50.67547],[1.84279,50.67577],[1.84382,50.67515],[1.84536,50.67488],[1.84568,50.67489],[1.84549,50.67531],[1.84714,50.6754]]]}},{"type":"Feature","properties":{"k":"PPH","s":8.569},"geometry":{"type":"Polygon","coordinates":[[[1.84367,50.67389],[1.84407,50.67416],[1.84536,50.67425],[1.84566,50.67458],[1.84672,50.6744],[1.8479,50.67478],[1.84927,50.67443],[1.8489,50.67403],[1.84888,50.67328],[1.84721,50.6731],[1.84767,50.67361],[1.84701,50.67395],[1.84622,50.67351],[1.84665,50.67298],[1.84741,50.67261],[1.8477,50.67276],[1.84722,50.67305],[1.84886,50.67322],[1.84919,50.67232],[1.84754,50.67134],[1.84699,50.67163],[1.84648,50.67153],[1.84618,50.67216],[1.84412,50.67306],[1.84354,50.67353],[1.84367,50.67389]]]}},{"type":"Feature","properties":{"k":"PPH","s":1.47},"geometry":{"type":"Polygon","coordinates":[[[1.84913,50.67607],[1.84946,50.67554],[1.8502,50.67573],[1.8511,50.67499],[1.84947,50.67459],[1.8485,50.67579],[1.84913,50.67607]]]}},{"type":"Feature","properties":{"k":"PPH","s":1.246},"geometry":{"type":"Polygon","coordinates":[[[1.85156,50.67724],[1.8519,50.67678],[1.85149,50.67646],[1.85216,50.67598],[1.85248,50.67525],[1.85192,50.67515],[1.85141,50.67569],[1.85075,50.67687],[1.85156,50.67724]]]}},{"type":"Feature","properties":{"k":"PPH","s":2.442},"geometry":{"type":"Polygon","coordinates":[[[1.85405,50.67121],[1.85395,50.67211],[1.85473,50.67234],[1.85469,50.67315],[1.85601,50.67342],[1.85628,50.67289],[1.85519,50.67266],[1.85495,50.67238],[1.85603,50.67112],[1.85489,50.67077],[1.85405,50.67121]]]}},{"type":"Feature","properties":{"k":"MIS","s":2.113},"geometry":{"type":"Polygon","coordinates":[[[1.85247,50.67157],[1.85328,50.67113],[1.85368,50.67139],[1.85382,50.67132],[1.85418,50.67061],[1.85254,50.66996],[1.85125,50.67076],[1.85247,50.67157]]]}},{"type":"Feature","properties":{"k":"ORH","s":1.366},"geometry":{"type":"Polygon","coordinates":[[[1.85392,50.66963],[1.85442,50.66913],[1.85333,50.66821],[1.85256,50.66805],[1.85221,50.66842],[1.85328,50.6689],[1.85281,50.66941],[1.85392,50.66963]]]}},{"type":"Feature","properties":{"k":"MIS","s":2.548},"geometry":{"type":"Polygon","coordinates":[[[1.84766,50.67037],[1.84879,50.67071],[1.84871,50.67109],[1.84938,50.6717],[1.85064,50.67093],[1.84916,50.66937],[1.84766,50.67037]]]}},{"type":"Feature","properties":{"k":"PPH","s":0.443},"geometry":{"type":"Polygon","coordinates":[[[1.84914,50.67223],[1.84921,50.67223],[1.84933,50.67172],[1.84886,50.67122],[1.84819,50.67164],[1.84914,50.67223]]]}},{"type":"Feature","properties":{"k":"BTH","s":0.204},"geometry":{"type":"Polygon","coordinates":[[[1.85219,50.66843],[1.85256,50.66803],[1.85131,50.66797],[1.85219,50.66843]]]}},{"type":"Feature","properties":{"k":"PPH","s":12.489},"geometry":{"type":"Polygon","coordinates":[[[1.85261,50.66517],[1.85216,50.66534],[1.85168,50.66603],[1.85145,50.66711],[1.85233,50.6676],[1.8534,50.66666],[1.85472,50.66589],[1.8574,50.66544],[1.85863,50.66545],[1.85945,50.66563],[1.86011,50.66483],[1.85888,50.66403],[1.85824,50.66318],[1.85798,50.66338],[1.85604,50.66318],[1.85565,50.66422],[1.85496,50.66429],[1.85463,50.66447],[1.85375,50.66408],[1.85261,50.66517]]]}},{"type":"Feature","properties":{"k":"BTH","s":5.25},"geometry":{"type":"Polygon","coordinates":[[[1.86143,50.66669],[1.8563,50.66697],[1.85417,50.6679],[1.8598,50.66803],[1.86042,50.66794],[1.86113,50.66761],[1.86143,50.66669]]]}},{"type":"Feature","properties":{"k":"JAC","s":2.264},"geometry":{"type":"Polygon","coordinates":[[[1.86036,50.66662],[1.85902,50.66646],[1.85625,50.66661],[1.85516,50.66693],[1.85384,50.66772],[1.85258,50.66758],[1.85245,50.66769],[1.8527,50.66783],[1.85417,50.6679],[1.8563,50.66697],[1.86141,50.66672],[1.86143,50.66648],[1.86036,50.66662]]]}},{"type":"Feature","properties":{"k":"PPH","s":2.157},"geometry":{"type":"Polygon","coordinates":[[[1.85321,50.66807],[1.85317,50.66809],[1.85384,50.66853],[1.85926,50.66865],[1.85959,50.66818],[1.85321,50.66807]]]}},{"type":"Feature","properties":{"k":"PPH","s":0.953},"geometry":{"type":"Polygon","coordinates":[[[1.85504,50.67824],[1.85468,50.67789],[1.85402,50.67814],[1.85291,50.67775],[1.85265,50.67815],[1.8547,50.67865],[1.85588,50.67794],[1.85504,50.67824]]]}},{"type":"Feature","properties":{"k":"PPH","s":8.359},"geometry":{"type":"Polygon","coordinates":[[[1.85954,50.67155],[1.85779,50.67112],[1.85763,50.67079],[1.85812,50.67024],[1.85528,50.66985],[1.85493,50.6707],[1.85605,50.67111],[1.85502,50.67239],[1.85522,50.67265],[1.85623,50.67282],[1.85717,50.6733],[1.8586,50.67368],[1.85923,50.6727],[1.85954,50.67155]]]}},{"type":"Feature","properties":{"k":"PPH","s":2.276},"geometry":{"type":"Polygon","coordinates":[[[1.85976,50.67033],[1.86027,50.67005],[1.86117,50.66818],[1.86023,50.66815],[1.8597,50.66843],[1.85879,50.6702],[1.85976,50.67033]]]}},{"type":"Feature","properties":{"k":"MIS","s":0.631},"geometry":{"type":"Polygon","coordinates":[[[1.86173,50.6691],[1.86153,50.66923],[1.86475,50.66999],[1.86491,50.66977],[1.86173,50.6691]]]}},{"type":"Feature","properties":{"k":"BTA","s":0.052},"geometry":{"type":"Polygon","coordinates":[[[1.86283,50.66862],[1.86331,50.66831],[1.86219,50.66893],[1.86283,50.66862]]]}},{"type":"Feature","properties":{"k":"MIS","s":1.807},"geometry":{"type":"Polygon","coordinates":[[[1.86227,50.66895],[1.86507,50.66956],[1.86563,50.66873],[1.86326,50.66836],[1.86227,50.66895]]]}},{"type":"Feature","properties":{"k":"MIS","s":1.479},"geometry":{"type":"Polygon","coordinates":[[[1.86129,50.67045],[1.86363,50.67108],[1.86412,50.67095],[1.86439,50.67054],[1.86172,50.66987],[1.86129,50.67045]]]}},{"type":"Feature","properties":{"k":"ORH","s":1.245},"geometry":{"type":"Polygon","coordinates":[[[1.86194,50.66941],[1.86172,50.66987],[1.86439,50.67054],[1.86475,50.66999],[1.86194,50.66941]]]}},{"type":"Feature","properties":{"k":"PPH","s":1.934},"geometry":{"type":"Polygon","coordinates":[[[1.86842,50.6728],[1.86799,50.67251],[1.86808,50.6723],[1.86603,50.67172],[1.86675,50.67095],[1.86633,50.67094],[1.86542,50.67195],[1.86522,50.67247],[1.86555,50.67255],[1.86591,50.67178],[1.86729,50.67342],[1.86842,50.6728]]]}},{"type":"Feature","properties":{"k":"MIS","s":2.001},"geometry":{"type":"Polygon","coordinates":[[[1.86838,50.66998],[1.86621,50.6696],[1.86565,50.67083],[1.86805,50.67086],[1.86838,50.66998]]]}},{"type":"Feature","properties":{"k":"BOR","s":0.081},"geometry":{"type":"Polygon","coordinates":[[[1.86772,50.6689],[1.86737,50.66878],[1.86872,50.66929],[1.86772,50.6689]]]}},{"type":"Feature","properties":{"k":"PTR","s":4.454},"geometry":{"type":"Polygon","coordinates":[[[1.86933,50.66835],[1.86873,50.66758],[1.86713,50.66637],[1.86573,50.66862],[1.86817,50.66915],[1.86737,50.66878],[1.86877,50.66922],[1.86933,50.66835]]]}},{"type":"Feature","properties":{"k":"MIS","s":6.427},"geometry":{"type":"Polygon","coordinates":[[[1.86475,50.66228],[1.86358,50.6636],[1.86397,50.6637],[1.8641,50.66354],[1.86448,50.66363],[1.86465,50.66384],[1.86513,50.66385],[1.86762,50.66322],[1.86974,50.66318],[1.87151,50.66283],[1.87197,50.66226],[1.86475,50.66228]]]}},{"type":"Feature","properties":{"k":"ORH","s":2.142},"geometry":{"type":"Polygon","coordinates":[[[1.86232,50.66237],[1.86167,50.6634],[1.86246,50.66362],[1.86355,50.66362],[1.86475,50.66228],[1.86232,50.66237]]]}},{"type":"Feature","properties":{"k":"PPH","s":0.0},"geometry":{"type":"Polygon","coordinates":[]}},{"type":"Feature","properties":{"k":"PPH","s":1.115},"geometry":{"type":"Polygon","coordinates":[[[1.85846,50.66311],[1.86003,50.66237],[1.85895,50.66208],[1.85831,50.66267],[1.85883,50.66203],[1.8584,50.66181],[1.85768,50.66238],[1.85846,50.66311]]]}},{"type":"Feature","properties":{"k":"BTH","s":0.771},"geometry":{"type":"MultiPolygon","coordinates":[[[[1.86228,50.66233],[1.86354,50.6623],[1.86404,50.6614],[1.86334,50.6613],[1.86228,50.66233]]],[[[1.85989,50.66229],[1.85975,50.66225],[1.85983,50.66228],[1.85989,50.66229]]]]}},{"type":"Feature","properties":{"k":"BTN","s":0.441},"geometry":{"type":"Polygon","coordinates":[[[1.86467,50.6603],[1.86468,50.66028],[1.86422,50.66044],[1.86334,50.6613],[1.86404,50.6614],[1.86467,50.6603]]]}},{"type":"Feature","properties":{"k":"BTH","s":13.413},"geometry":{"type":"Polygon","coordinates":[[[1.86869,50.66222],[1.86894,50.66133],[1.87009,50.6612],[1.87094,50.65713],[1.86971,50.65706],[1.86859,50.65972],[1.86563,50.65996],[1.86473,50.66026],[1.86357,50.66229],[1.86869,50.66222]]]}},{"type":"Feature","properties":{"k":"BTH","s":0.661},"geometry":{"type":"Polygon","coordinates":[[[1.87092,50.65712],[1.87105,50.65647],[1.86987,50.65633],[1.8698,50.65706],[1.87092,50.65712]]]}},{"type":"Feature","properties":{"k":"PPH","s":0.008},"geometry":{"type":"Polygon","coordinates":[]}},{"type":"Feature","properties":{"k":"BTH","s":5.357},"geometry":{"type":"Polygon","coordinates":[[[1.87146,50.66042],[1.8719,50.659],[1.87335,50.65902],[1.87383,50.65776],[1.87203,50.65711],[1.87103,50.65691],[1.8703,50.6604],[1.87146,50.66042]]]}},{"type":"Feature","properties":{"k":"PTR","s":2.816},"geometry":{"type":"Polygon","coordinates":[[[1.86894,50.66133],[1.86869,50.66222],[1.87199,50.66223],[1.87255,50.66116],[1.87029,50.66118],[1.86894,50.66133]]]}},{"type":"Feature","properties":{"k":"MIS","s":0.863},"geometry":{"type":"Polygon","coordinates":[[[1.8754,50.66396],[1.87385,50.6641],[1.87391,50.66456],[1.87624,50.66445],[1.87622,50.66425],[1.8754,50.66396]]]}},{"type":"Feature","properties":{"k":"ORH","s":0.307},"geometry":{"type":"Polygon","coordinates":[[[1.87676,50.66513],[1.87709,50.66476],[1.87632,50.66451],[1.87621,50.66415],[1.87631,50.66522],[1.87676,50.66513]]]}},{"type":"Feature","properties":{"k":"PTR","s":2.281},"geometry":{"type":"Polygon","coordinates":[[[1.87624,50.66445],[1.87391,50.66456],[1.87385,50.6641],[1.87356,50.66413],[1.8737,50.66565],[1.87615,50.66548],[1.87624,50.66445]]]}},{"type":"Feature","properties":{"k":"MIS","s":1.359},"geometry":{"type":"Polygon","coordinates":[[[1.87583,50.6661],[1.87615,50.66548],[1.8737,50.66565],[1.87379,50.66662],[1.87583,50.6661]]]}},{"type":"Feature","properties":{"k":"PTR","s":4.19},"geometry":{"type":"Polygon","coordinates":[[[1.87167,50.67065],[1.87419,50.6707],[1.8742,50.67054],[1.87204,50.67041],[1.8716,50.67055],[1.87156,50.66996],[1.8665,50.66899],[1.86621,50.6696],[1.86838,50.66998],[1.86806,50.67086],[1.87167,50.67065]]]}},{"type":"Feature","properties":{"k":"BTH","s":0.926},"geometry":{"type":"Polygon","coordinates":[[[1.87422,50.669],[1.87332,50.66925],[1.87233,50.6699],[1.87423,50.67003],[1.87422,50.669]]]}},{"type":"Feature","properties":{"k":"ORH","s":0.706},"geometry":{"type":"Polygon","coordinates":[[[1.8728,50.67082],[1.87344,50.67158],[1.87422,50.67187],[1.87423,50.67083],[1.8728,50.67082]]]}},{"type":"Feature","properties":{"k":"LUZ","s":1.274},"geometry":{"type":"Polygon","coordinates":[[[1.87343,50.67161],[1.87312,50.67112],[1.87279,50.67283],[1.87385,50.67309],[1.87412,50.67185],[1.87343,50.67161]]]}},{"type":"Feature","properties":{"k":"PTR","s":1.711},"geometry":{"type":"Polygon","coordinates":[[[1.87272,50.67314],[1.87312,50.67112],[1.87271,50.67081],[1.87183,50.67082],[1.87211,50.67297],[1.87272,50.67314]]]}},{"type":"Feature","properties":{"k":"PPH","s":3.3},"geometry":{"type":"Polygon","coordinates":[[[1.87024,50.67356],[1.87023,50.6742],[1.87064,50.67431],[1.8723,50.67303],[1.87177,50.67283],[1.87156,50.67157],[1.87024,50.67145],[1.87013,50.67154],[1.87025,50.6724],[1.86962,50.67356],[1.87024,50.67356]]]}},{"type":"Feature","properties":{"k":"PPH","s":0.758},"geometry":{"type":"Polygon","coordinates":[[[1.86897,50.67561],[1.86953,50.6752],[1.86827,50.67441],[1.86763,50.67464],[1.86897,50.67561]]]}},{"type":"Feature","properties":{"k":"PPH","s":4.05},"geometry":{"type":"Polygon","coordinates":[[[1.87123,50.67534],[1.87061,50.67503],[1.87051,50.67537],[1.87048,50.67568],[1.8716,50.67618],[1.87261,50.67612],[1.87304,50.67588],[1.87438,50.67557],[1.87498,50.67522],[1.87212,50.67448],[1.87065,50.67434],[1.87061,50.67499],[1.87119,50.6753],[1.87175,50.675],[1.87123,50.67534]]]}},{"type":"Feature","properties":{"k":"PPH","s":2.205},"geometry":{"type":"MultiPolygon","coordinates":[[[[1.87286,50.67464],[1.87335,50.67407],[1.87355,50.67409],[1.87376,50.6734],[1.87228,50.67304],[1.87064,50.67431],[1.87286,50.67464]]],[[[1.87396,50.67494],[1.87414,50.67497],[1.87366,50.67485],[1.87396,50.67494]]]]}},{"type":"Feature","properties":{"k":"PTR","s":0.285},"geometry":{"type":"Polygon","coordinates":[[[1.87376,50.6734],[1.87385,50.67309],[1.87279,50.67283],[1.87272,50.67314],[1.87376,50.6734]]]}},{"type":"Feature","properties":{"k":"PPH","s":0.017},"geometry":{"type":"Polygon","coordinates":[[[1.87456,50.67554],[1.87509,50.67527],[1.87502,50.67523],[1.87456,50.67554]]]}},{"type":"Feature","properties":{"k":"PPH","s":0.017},"geometry":{"type":"MultiPolygon","coordinates":[[[[1.87448,50.67747],[1.87431,50.67745],[1.87461,50.67765],[1.87448,50.67747]]],[[[1.87469,50.67855],[1.87471,50.67855],[1.87469,50.67811],[1.87469,50.67855]]]]}},{"type":"Feature","properties":{"k":"PPH","s":3.712},"geometry":{"type":"Polygon","coordinates":[[[1.8749,50.68037],[1.87583,50.67896],[1.87397,50.67837],[1.87383,50.67867],[1.87225,50.67827],[1.87211,50.67914],[1.87267,50.67939],[1.87326,50.67999],[1.87457,50.68039],[1.8749,50.68037]]]}},{"type":"Feature","properties":{"k":"PPH","s":2.048},"geometry":{"type":"Polygon","coordinates":[[[1.87191,50.68156],[1.87227,50.68172],[1.87324,50.67996],[1.87209,50.67916],[1.8722,50.67825],[1.87198,50.67816],[1.87143,50.67942],[1.87202,50.67951],[1.8717,50.68088],[1.87207,50.68102],[1.87191,50.68156]]]}},{"type":"Feature","properties":{"k":"PPH","s":2.109},"geometry":{"type":"Polygon","coordinates":[[[1.87276,50.67807],[1.87216,50.67762],[1.87159,50.6778],[1.87053,50.67848],[1.86978,50.67811],[1.86875,50.67867],[1.86922,50.67913],[1.87037,50.67859],[1.87092,50.67925],[1.8714,50.67941],[1.87197,50.67812],[1.87247,50.6783],[1.87276,50.67807]]]}},{"type":"Feature","properties":{"k":"PTR","s":2.293},"geometry":{"type":"Polygon","coordinates":[[[1.87068,50.68088],[1.87164,50.6795],[1.87092,50.67927],[1.87036,50.67861],[1.86913,50.67921],[1.86965,50.67981],[1.86941,50.68015],[1.87068,50.68088]]]}},{"type":"Feature","properties":{"k":"PPH","s":2.047},"geometry":{"type":"Polygon","coordinates":[[[1.86929,50.68181],[1.86826,50.68159],[1.86851,50.68132],[1.86735,50.68092],[1.8668,50.68224],[1.86922,50.68272],[1.86929,50.68181]]]}},{"type":"Feature","properties":{"k":"MIS","s":1.711},"geometry":{"type":"Polygon","coordinates":[[[1.87122,50.68134],[1.87042,50.68078],[1.86935,50.68166],[1.86926,50.68273],[1.87002,50.68292],[1.8706,50.68181],[1.87122,50.68134]]]}},{"type":"Feature","properties":{"k":"PPH","s":1.036},"geometry":{"type":"Polygon","coordinates":[[[1.87522,50.68065],[1.87501,50.68052],[1.87483,50.68048],[1.87305,50.68187],[1.87245,50.68213],[1.87282,50.68271],[1.87328,50.68279],[1.87294,50.68244],[1.87522,50.68065]]]}},{"type":"Feature","properties":{"k":"PPH","s":1.336},"geometry":{"type":"Polygon","coordinates":[[[1.87026,50.68255],[1.87131,50.68274],[1.87204,50.6823],[1.87185,50.6822],[1.87216,50.68177],[1.8712,50.68138],[1.8703,50.68222],[1.87026,50.68255]]]}},{"type":"Feature","properties":{"k":"PPH","s":0.287},"geometry":{"type":"Polygon","coordinates":[[[1.87187,50.68281],[1.87169,50.68265],[1.87123,50.68302],[1.87146,50.68313],[1.8725,50.68284],[1.87271,50.68301],[1.8728,50.68282],[1.87256,50.68264],[1.87187,50.68281]]]}},{"type":"Feature","properties":{"k":"PPH","s":6.97},"geometry":{"type":"MultiPolygon","coordinates":[[[[1.86628,50.68499],[1.8657,50.6846],[1.86481,50.68331],[1.86418,50.68352],[1.86459,50.68413],[1.86448,50.68428],[1.86511,50.68598],[1.86576,50.68688],[1.86568,50.68712],[1.86592,50.68716],[1.86602,50.68739],[1.8666,50.68748],[1.86773,50.68714],[1.86886,50.68649],[1.86981,50.68628],[1.86926,50.6862],[1.86919,50.6858],[1.86852,50.68564],[1.86868,50.68526],[1.86832,50.6852],[1.86738,50.6865],[1.86771,50.6867],[1.86675,50.68703],[1.86664,50.68675],[1.8673,50.68651],[1.8683,50.68499],[1.86628,50.68499]]],[[[1.87025,50.68625],[1.87099,50.68631],[1.87044,50.68624],[1.87025,50.68625]]]]}},{"type":"Feature","properties":{"k":"PPH","s":1.322},"geometry":{"type":"Polygon","coordinates":[[[1.87276,50.68536],[1.87324,50.68515],[1.87308,50.68495],[1.87246,50.68487],[1.87077,50.68422],[1.87025,50.68445],[1.87049,50.68487],[1.87118,50.68486],[1.8714,50.68554],[1.87245,50.68523],[1.87276,50.68536]]]}},{"type":"Feature","properties":{"k":"PPH","s":4.025},"geometry":{"type":"Polygon","coordinates":[[[1.87308,50.68495],[1.87372,50.68562],[1.87526,50.68415],[1.87423,50.68373],[1.87422,50.68336],[1.87335,50.68291],[1.87274,50.68378],[1.87207,50.68344],[1.87122,50.68439],[1.87308,50.68495]]]}},{"type":"Feature","properties":{"k":"PPH","s":2.724},"geometry":{"type":"Polygon","coordinates":[[[1.87619,50.68406],[1.87552,50.68501],[1.87651,50.68581],[1.87751,50.68489],[1.87821,50.68357],[1.87685,50.68309],[1.87655,50.68351],[1.87708,50.68365],[1.87667,50.6842],[1.87619,50.68406]]]}},{"type":"Feature","properties":{"k":"PPH","s":0.807},"geometry":{"type":"Polygon","coordinates":[[[1.87489,50.68604],[1.87552,50.68593],[1.87602,50.68605],[1.87631,50.6858],[1.87526,50.68495],[1.87475,50.68553],[1.87489,50.68604]]]}},{"type":"Feature","properties":{"k":"PPH","s":0.514},"geometry":{"type":"Polygon","coordinates":[[[1.8781,50.68725],[1.87742,50.68728],[1.87691,50.68783],[1.87779,50.68806],[1.87822,50.68714],[1.87831,50.68652],[1.8781,50.68725]]]}},{"type":"Feature","properties":{"k":"PPH","s":0.011},"geometry":{"type":"Polygon","coordinates":[[[1.87822,50.68352],[1.87756,50.68331],[1.8782,50.68356],[1.87822,50.68352]]]}},{"type":"Feature","properties":{"k":"PPH","s":3.211},"geometry":{"type":"Polygon","coordinates":[[[1.87411,50.68326],[1.87561,50.68248],[1.87579,50.68144],[1.87563,50.68092],[1.87525,50.68066],[1.87301,50.68254],[1.87411,50.68326]]]}},{"type":"Feature","properties":{"k":"PPH","s":0.0},"geometry":{"type":"MultiPolygon","coordinates":[[[[1.87757,50.68808],[1.87762,50.68808],[1.87761,50.68807],[1.87757,50.68808]]]]}},{"type":"Feature","properties":{"k":"PPH","s":0.635},"geometry":{"type":"Polygon","coordinates":[[[1.8603,50.68355],[1.86074,50.6831],[1.86039,50.68254],[1.8601,50.68248],[1.85942,50.68336],[1.8603,50.68355]]]}},{"type":"Feature","properties":{"k":"BTH","s":2.064},"geometry":{"type":"Polygon","coordinates":[[[1.85767,50.68357],[1.85904,50.68401],[1.8593,50.6833],[1.85998,50.68249],[1.85864,50.6818],[1.85767,50.68357]]]}},{"type":"Feature","properties":{"k":"PPH","s":8.706},"geometry":{"type":"Polygon","coordinates":[[[1.85608,50.68216],[1.85569,50.68255],[1.85431,50.68223],[1.85486,50.68168],[1.85424,50.68134],[1.85252,50.68278],[1.8513,50.68258],[1.85053,50.68324],[1.85237,50.68406],[1.8531,50.68343],[1.8565,50.68457],[1.85792,50.68332],[1.85848,50.68178],[1.85779,50.68267],[1.85608,50.68216]]]}},{"type":"Feature","properties":{"k":"MLG","s":0.535},"geometry":{"type":"Polygon","coordinates":[[[1.85753,50.68089],[1.858,50.68126],[1.85906,50.68032],[1.85868,50.68013],[1.85753,50.68089]]]}},{"type":"Feature","properties":{"k":"MLG","s":0.906},"geometry":{"type":"Polygon","coordinates":[[[1.85981,50.68129],[1.85859,50.68076],[1.85805,50.68128],[1.8592,50.68201],[1.85981,50.68129]]]}},{"type":"Feature","properties":{"k":"MLG","s":0.414},"geometry":{"type":"Polygon","coordinates":[[[1.85924,50.682],[1.85965,50.68222],[1.85994,50.68232],[1.86023,50.68199],[1.86044,50.68207],[1.86025,50.68237],[1.86119,50.6823],[1.8595,50.68168],[1.85924,50.682]]]}},{"type":"Feature","properties":{"k":"PPH","s":0.517},"geometry":{"type":"Polygon","coordinates":[[[1.85486,50.68168],[1.85431,50.68223],[1.85491,50.68237],[1.8558,50.68153],[1.8554,50.68131],[1.85486,50.68168]]]}},{"type":"Feature","properties":{"k":"PPH","s":1.742},"geometry":{"type":"Polygon","coordinates":[[[1.85255,50.68272],[1.85424,50.68129],[1.8541,50.68097],[1.85348,50.68084],[1.85207,50.68211],[1.85155,50.6823],[1.85129,50.68256],[1.85255,50.68272]]]}},{"type":"Feature","properties":{"k":"BTA","s":0.094},"geometry":{"type":"Polygon","coordinates":[[[1.86366,50.68158],[1.86401,50.68123],[1.86422,50.68135],[1.86469,50.68267],[1.8642,50.68127],[1.86389,50.68119],[1.86366,50.68158]]]}},{"type":"Feature","properties":{"k":"ORP","s":6.853},"geometry":{"type":"Polygon","coordinates":[[[1.8619,50.68283],[1.86296,50.68293],[1.86289,50.6842],[1.86315,50.68432],[1.86392,50.68367],[1.86469,50.68267],[1.86422,50.68135],[1.86401,50.68123],[1.86366,50.68158],[1.86341,50.68157],[1.86232,50.68074],[1.86063,50.68048],[1.8595,50.68168],[1.86119,50.6823],[1.862,50.68203],[1.8619,50.68283]]]}},{"type":"Feature","properties":{"k":"MIS","s":0.379},"geometry":{"type":"Polygon","coordinates":[[[1.86641,50.6829],[1.86561,50.68318],[1.86589,50.68358],[1.86698,50.68329],[1.86641,50.6829]]]}},{"type":"Feature","properties":{"k":"MIS","s":0.89},"geometry":{"type":"Polygon","coordinates":[[[1.86738,50.68338],[1.86808,50.68252],[1.86679,50.68222],[1.86666,50.68246],[1.86618,50.68248],[1.86738,50.68338]],[[1.86741,50.68273],[1.86734,50.68287],[1.86718,50.6828],[1.86741,50.68273]]]}},{"type":"Feature","properties":{"k":"PTR","s":1.553},"geometry":{"type":"Polygon","coordinates":[[[1.8658,50.68164],[1.867,50.68174],[1.86741,50.68044],[1.86573,50.68037],[1.8658,50.68164]]]}},{"type":"Feature","properties":{"k":"MIS","s":2.576},"geometry":{"type":"Polygon","coordinates":[[[1.86572,50.68029],[1.86744,50.68041],[1.86825,50.68097],[1.86881,50.6805],[1.86849,50.6803],[1.86906,50.67993],[1.86828,50.67891],[1.86728,50.67955],[1.8671,50.67947],[1.86662,50.67978],[1.86562,50.67977],[1.86572,50.68029]]]}},{"type":"Feature","properties":{"k":"PPH","s":5.46},"geometry":{"type":"Polygon","coordinates":[[[1.8672,50.67505],[1.86703,50.67517],[1.86746,50.67552],[1.86499,50.67639],[1.86568,50.67729],[1.86523,50.67765],[1.86535,50.67778],[1.86583,50.67762],[1.86593,50.67774],[1.86702,50.67688],[1.86775,50.67726],[1.86838,50.67736],[1.86899,50.67726],[1.86789,50.67669],[1.8687,50.67613],[1.86831,50.6759],[1.86846,50.67582],[1.86963,50.67669],[1.87016,50.67658],[1.87044,50.6757],[1.86955,50.67519],[1.86897,50.67561],[1.86825,50.67511],[1.86777,50.67536],[1.86839,50.67575],[1.86821,50.6758],[1.8672,50.67505]]]}},{"type":"Feature","properties":{"k":"PPH","s":2.277},"geometry":{"type":"Polygon","coordinates":[[[1.85923,50.67383],[1.85881,50.67423],[1.85915,50.67444],[1.85935,50.67434],[1.86002,50.67478],[1.85971,50.675],[1.8603,50.67532],[1.861,50.67461],[1.86037,50.67436],[1.86084,50.67385],[1.8602,50.67349],[1.86031,50.67341],[1.8596,50.67275],[1.85972,50.67233],[1.85943,50.67205],[1.85923,50.67383]]]}},{"type":"Feature","properties":{"k":"PPH","s":5.797},"geometry":{"type":"Polygon","coordinates":[[[1.85584,50.67345],[1.85609,50.67402],[1.85763,50.67452],[1.85574,50.6741],[1.85546,50.67477],[1.85677,50.67521],[1.85789,50.67593],[1.85839,50.67653],[1.85888,50.67623],[1.85916,50.67658],[1.86032,50.67665],[1.86001,50.67618],[1.86054,50.67601],[1.86013,50.67536],[1.85986,50.67546],[1.86002,50.67574],[1.85926,50.67556],[1.85946,50.67631],[1.85928,50.67642],[1.85882,50.67596],[1.85908,50.67546],[1.85877,50.67511],[1.85843,50.67512],[1.85804,50.67474],[1.85761,50.67459],[1.85836,50.67448],[1.85887,50.67394],[1.8563,50.67291],[1.85606,50.67345],[1.85584,50.67345]]]}},{"type":"Feature","properties":{"k":"MLG","s":3.618},"geometry":{"type":"Polygon","coordinates":[[[1.85599,50.6788],[1.85838,50.67879],[1.85946,50.67898],[1.86007,50.67927],[1.86138,50.67918],[1.86122,50.67855],[1.85991,50.67731],[1.85919,50.67794],[1.85854,50.67823],[1.85594,50.67834],[1.85599,50.6788]]]}},{"type":"Feature","properties":{"k":"MLG","s":3.272},"geometry":{"type":"Polygon","coordinates":[[[1.85958,50.68017],[1.85944,50.68],[1.85998,50.67935],[1.85975,50.67914],[1.85812,50.67882],[1.85596,50.67886],[1.85615,50.67944],[1.85675,50.68018],[1.85707,50.67995],[1.85722,50.68012],[1.85774,50.6797],[1.85906,50.68032],[1.85958,50.68017]]]}},{"type":"Feature","properties":{"k":"PPH","s":0.993},"geometry":{"type":"Polygon","coordinates":[[[1.85363,50.68036],[1.85348,50.68081],[1.85393,50.68083],[1.85527,50.67968],[1.85431,50.67903],[1.85424,50.6795],[1.85363,50.68036]]]}},{"type":"Feature","properties":{"k":"BTA","s":0.139},"geometry":{"type":"Polygon","coordinates":[[[1.85456,50.68489],[1.85253,50.68404],[1.85457,50.68495],[1.85566,50.68429],[1.85456,50.68489]]]}},{"type":"Feature","properties":{"k":"CZH","s":3.202},"geometry":{"type":"Polygon","coordinates":[[[1.85036,50.68038],[1.85155,50.68045],[1.85344,50.68082],[1.85406,50.67985],[1.85407,50.67938],[1.85341,50.67923],[1.85302,50.67977],[1.85203,50.67965],[1.85231,50.67899],[1.85138,50.67877],[1.85036,50.68038]]]}},{"type":"Feature","properties":{"k":"PPH","s":1.264},"geometry":{"type":"Polygon","coordinates":[[[1.85217,50.67891],[1.85402,50.67936],[1.85422,50.67901],[1.85475,50.67868],[1.85265,50.67815],[1.85217,50.67891]]]}},{"type":"Feature","properties":{"k":"PPH","s":0.674},"geometry":{"type":"Polygon","coordinates":[[[1.84273,50.67495],[1.84273,50.67479],[1.8423,50.6746],[1.84206,50.67511],[1.84132,50.6754],[1.84089,50.67585],[1.84124,50.67603],[1.84273,50.67495]]]}},{"type":"Feature","properties":{"k":"PPH","s":0.016},"geometry":{"type":"Polygon","coordinates":[[[1.84075,50.67589],[1.84014,50.67611],[1.84063,50.67599],[1.84075,50.67589]]]}},{"type":"Feature","properties":{"k":"PPH","s":2.515},"geometry":{"type":"Polygon","coordinates":[[[1.84313,50.67672],[1.84283,50.67635],[1.84284,50.67581],[1.84223,50.6755],[1.84125,50.67609],[1.84153,50.67642],[1.84094,50.67704],[1.84372,50.67764],[1.84412,50.67711],[1.84313,50.67672]]]}},{"type":"Feature","properties":{"k":"PPH","s":8.664},"geometry":{"type":"Polygon","coordinates":[[[1.84909,50.68049],[1.84861,50.68013],[1.84781,50.68045],[1.84756,50.68032],[1.8469,50.68098],[1.84638,50.68112],[1.84774,50.68206],[1.84795,50.6819],[1.84828,50.68198],[1.85054,50.68328],[1.85344,50.68082],[1.85155,50.68045],[1.85036,50.68038],[1.84991,50.6811],[1.84915,50.68041],[1.84909,50.68049]]]}},{"type":"Feature","properties":{"k":"PTR","s":1.62},"geometry":{"type":"Polygon","coordinates":[[[1.85491,50.68164],[1.85631,50.68068],[1.85622,50.68052],[1.85489,50.68001],[1.85397,50.68089],[1.85491,50.68164]]]}},{"type":"Feature","properties":{"k":"MIS","s":1.64},"geometry":{"type":"Polygon","coordinates":[[[1.85308,50.68347],[1.85257,50.684],[1.85456,50.68489],[1.85559,50.68426],[1.85308,50.68347]]]}},{"type":"Feature","properties":{"k":"PTR","s":5.147},"geometry":{"type":"Polygon","coordinates":[[[1.854,50.66964],[1.85844,50.67021],[1.85874,50.67003],[1.85945,50.66853],[1.85983,50.66818],[1.85959,50.66818],[1.85926,50.66865],[1.85384,50.66853],[1.85444,50.66922],[1.854,50.66964]]]}}]}