{"type":"FeatureCollection","features":[{"type":"Feature","properties":{"k":"BTH","s":5.735},"geometry":{"type":"Polygon","coordinates":[[[2.10523,50.65198],[2.108,50.65066],[2.10631,50.64949],[2.10263,50.64989],[2.10523,50.65198]]]}},{"type":"Feature","properties":{"k":"MIS","s":2.196},"geometry":{"type":"Polygon","coordinates":[[[2.10542,50.64953],[2.10382,50.64682],[2.1029,50.64711],[2.10444,50.64964],[2.10542,50.64953]]]}},{"type":"Feature","properties":{"k":"BTH","s":4.854},"geometry":{"type":"Polygon","coordinates":[[[2.10461,50.64653],[2.10458,50.64653],[2.10382,50.64682],[2.10542,50.64953],[2.10642,50.64946],[2.10696,50.64981],[2.10741,50.64961],[2.10608,50.64711],[2.106,50.64633],[2.10461,50.64653]],[[2.10491,50.6465],[2.10491,50.64657],[2.10456,50.64669],[2.10461,50.64653],[2.10491,50.6465]]]}},{"type":"Feature","properties":{"k":"BTH","s":4.961},"geometry":{"type":"Polygon","coordinates":[[[2.12837,50.62374],[2.12545,50.6248],[2.1257,50.62518],[2.12544,50.62527],[2.12678,50.62666],[2.12846,50.62614],[2.12768,50.62532],[2.12973,50.62468],[2.12837,50.62374]]]}},{"type":"Feature","properties":{"k":"PPH","s":8.567},"geometry":{"type":"Polygon","coordinates":[[[2.12103,50.63509],[2.12196,50.63577],[2.12232,50.63553],[2.12276,50.63576],[2.12381,50.63655],[2.12408,50.63749],[2.12453,50.63744],[2.12479,50.63772],[2.12527,50.63738],[2.12613,50.63744],[2.12736,50.63709],[2.12595,50.63558],[2.12331,50.6339],[2.12267,50.63375],[2.1223,50.6344],[2.12103,50.63509]]]}},{"type":"Feature","properties":{"k":"PTR","s":0.012},"geometry":{"type":"Polygon","coordinates":[]}},{"type":"Feature","properties":{"k":"MIS","s":0.015},"geometry":{"type":"MultiPolygon","coordinates":[[[[2.11372,50.65776],[2.11373,50.6578],[2.11454,50.65725],[2.11372,50.65776]]]]}},{"type":"Feature","properties":{"k":"PPH","s":2.045},"geometry":{"type":"Polygon","coordinates":[[[2.11147,50.65662],[2.11228,50.65726],[2.11303,50.65689],[2.11372,50.65776],[2.11466,50.65716],[2.11303,50.65589],[2.11147,50.65662]]]}},{"type":"Feature","properties":{"k":"PPH","s":3.413},"geometry":{"type":"Polygon","coordinates":[[[2.1104,50.65401],[2.10921,50.65436],[2.11026,50.65564],[2.11145,50.65662],[2.11303,50.65589],[2.1116,50.65463],[2.11083,50.65488],[2.1104,50.65401]]]}},{"type":"Feature","properties":{"k":"PPH","s":0.592},"geometry":{"type":"Polygon","coordinates":[[[2.11299,50.65693],[2.11227,50.65727],[2.11329,50.65802],[2.1137,50.65782],[2.11299,50.65693]]]}},{"type":"Feature","properties":{"k":"ORH","s":5.842},"geometry":{"type":"Polygon","coordinates":[[[2.1184,50.61715],[2.11741,50.61677],[2.116,50.61647],[2.11582,50.61669],[2.1163,50.61751],[2.11782,50.61898],[2.11938,50.61956],[2.12017,50.61924],[2.12129,50.61911],[2.12147,50.61899],[2.1184,50.61715]]]}},{"type":"Feature","properties":{"k":"ORH","s":1.788},"geometry":{"type":"Polygon","coordinates":[[[2.11909,50.6157],[2.11746,50.61674],[2.11879,50.61733],[2.12046,50.61637],[2.11964,50.61612],[2.11909,50.6157]]]}},{"type":"Feature","properties":{"k":"ORH","s":3.686},"geometry":{"type":"Polygon","coordinates":[[[2.12115,50.61878],[2.12307,50.61766],[2.12199,50.61739],[2.12047,50.61637],[2.11879,50.61733],[2.12115,50.61878]]]}},{"type":"Feature","properties":{"k":"FLP","s":0.079},"geometry":{"type":"Polygon","coordinates":[[[2.08333,50.63964],[2.08309,50.63952],[2.08281,50.63977],[2.08305,50.63991],[2.08333,50.63964]]]}},{"type":"Feature","properties":{"k":"PPH","s":6.598},"geometry":{"type":"Polygon","coordinates":[[[2.07743,50.63667],[2.07455,50.63867],[2.07763,50.63934],[2.0784,50.63925],[2.07905,50.63891],[2.07938,50.63802],[2.0781,50.63765],[2.07948,50.637],[2.07824,50.63621],[2.07987,50.63522],[2.07743,50.63667]]]}},{"type":"Feature","properties":{"k":"MIS","s":8.715},"geometry":{"type":"Polygon","coordinates":[[[2.10754,50.63915],[2.10721,50.63964],[2.10676,50.64155],[2.109,50.64106],[2.11026,50.64031],[2.11274,50.63983],[2.11196,50.63808],[2.10754,50.63915]]]}},{"type":"Feature","properties":{"k":"MLG","s":4.046},"geometry":{"type":"Polygon","coordinates":[[[2.10404,50.63661],[2.10532,50.63813],[2.10774,50.63772],[2.10795,50.63703],[2.10821,50.63692],[2.10861,50.63622],[2.10595,50.63668],[2.10588,50.63639],[2.10404,50.63661]]]}},{"type":"Feature","properties":{"k":"PPH","s":4.506},"geometry":{"type":"Polygon","coordinates":[[[2.10274,50.63648],[2.10325,50.6363],[2.10372,50.63718],[2.10424,50.63701],[2.10404,50.63661],[2.10589,50.63638],[2.10598,50.63666],[2.10862,50.63621],[2.10878,50.63577],[2.10877,50.63549],[2.10828,50.63558],[2.10813,50.63531],[2.10706,50.63533],[2.10711,50.63575],[2.10665,50.63587],[2.10642,50.63544],[2.10373,50.63592],[2.10304,50.63538],[2.10228,50.63566],[2.10274,50.63648]]]}},{"type":"Feature","properties":{"k":"PPH","s":2.134},"geometry":{"type":"Polygon","coordinates":[[[2.11318,50.63625],[2.11312,50.63587],[2.10877,50.63618],[2.10831,50.63707],[2.11318,50.63625]]]}},{"type":"Feature","properties":{"k":"BTH","s":1.017},"geometry":{"type":"Polygon","coordinates":[[[2.11196,50.63803],[2.11149,50.63734],[2.10992,50.63769],[2.11029,50.6384],[2.11196,50.63803]]]}},{"type":"Feature","properties":{"k":"PTC","s":4.203},"geometry":{"type":"Polygon","coordinates":[[[2.11274,50.63983],[2.11532,50.63931],[2.11913,50.63881],[2.11868,50.63789],[2.11242,50.63911],[2.11274,50.63983]]]}},{"type":"Feature","properties":{"k":"MIS","s":5.714},"geometry":{"type":"Polygon","coordinates":[[[2.11196,50.63808],[2.11242,50.63911],[2.11868,50.63789],[2.11816,50.63681],[2.11196,50.63808]]]}},{"type":"Feature","properties":{"k":"BTH","s":3.352},"geometry":{"type":"Polygon","coordinates":[[[2.11266,50.63789],[2.1182,50.63671],[2.11787,50.63606],[2.11221,50.63719],[2.11266,50.63789]]]}},{"type":"Feature","properties":{"k":"PTR","s":2.81},"geometry":{"type":"Polygon","coordinates":[[[2.11221,50.63719],[2.11787,50.63606],[2.11768,50.63573],[2.11615,50.63578],[2.11616,50.6359],[2.11534,50.63603],[2.11175,50.63649],[2.11221,50.63719]]]}},{"type":"Feature","properties":{"k":"BTH","s":2.241},"geometry":{"type":"Polygon","coordinates":[[[2.11817,50.63682],[2.11914,50.63882],[2.12089,50.63862],[2.119,50.63664],[2.11817,50.63682]]]}},{"type":"Feature","properties":{"k":"PPH","s":0.795},"geometry":{"type":"Polygon","coordinates":[[[2.11822,50.63673],[2.119,50.63655],[2.11896,50.63597],[2.11864,50.63563],[2.11771,50.63576],[2.11822,50.63673]]]}},{"type":"Feature","properties":{"k":"BTH","s":0.797},"geometry":{"type":"Polygon","coordinates":[[[2.12176,50.63663],[2.12165,50.63651],[2.12024,50.63708],[2.11921,50.63607],[2.11919,50.63668],[2.11972,50.6374],[2.12176,50.63663]]]}},{"type":"Feature","properties":{"k":"PPH","s":0.881},"geometry":{"type":"Polygon","coordinates":[[[2.12091,50.63767],[2.12221,50.63712],[2.12176,50.63663],[2.11987,50.63743],[2.12091,50.63767]]]}},{"type":"Feature","properties":{"k":"PPH","s":2.284},"geometry":{"type":"Polygon","coordinates":[[[2.12089,50.63862],[2.1212,50.63857],[2.12186,50.6388],[2.12323,50.63848],[2.12279,50.63783],[2.12311,50.63769],[2.12283,50.63745],[2.12258,50.63756],[2.12228,50.63713],[2.12165,50.63743],[2.1221,50.63784],[2.12164,50.63806],[2.12139,50.63783],[2.12179,50.63765],[2.12155,50.63746],[2.12078,50.63774],[2.1198,50.63747],[2.12089,50.63862]]]}},{"type":"Feature","properties":{"k":"PPH","s":9.24},"geometry":{"type":"Polygon","coordinates":[[[2.11836,50.64109],[2.11825,50.63999],[2.11914,50.63978],[2.12243,50.63948],[2.12215,50.63903],[2.12347,50.63881],[2.12338,50.63863],[2.12196,50.63891],[2.12122,50.63859],[2.11744,50.6391],[2.11797,50.64002],[2.11402,50.64094],[2.11267,50.64169],[2.11378,50.64273],[2.11836,50.64109]]]}},{"type":"Feature","properties":{"k":"BTH","s":0.423},"geometry":{"type":"Polygon","coordinates":[[[2.11898,50.63991],[2.11832,50.6401],[2.11842,50.64064],[2.11951,50.6404],[2.11898,50.63991]]]}},{"type":"Feature","properties":{"k":"BTH","s":5.769},"geometry":{"type":"Polygon","coordinates":[[[2.11986,50.6398],[2.11991,50.64027],[2.11869,50.64058],[2.11992,50.64208],[2.12427,50.64049],[2.12263,50.63961],[2.11986,50.6398]],[[2.1222,50.6412],[2.12217,50.64123],[2.12217,50.64118],[2.1222,50.6412]]]}},{"type":"Feature","properties":{"k":"PPH","s":0.563},"geometry":{"type":"Polygon","coordinates":[[[2.09029,50.63721],[2.09095,50.63739],[2.09187,50.63666],[2.09137,50.63635],[2.09029,50.63721]]]}},{"type":"Feature","properties":{"k":"BTH","s":0.955},"geometry":{"type":"Polygon","coordinates":[[[2.09023,50.63557],[2.08879,50.63679],[2.08956,50.637],[2.09088,50.63595],[2.09023,50.63557]]]}},{"type":"Feature","properties":{"k":"PPH","s":1.809},"geometry":{"type":"Polygon","coordinates":[[[2.11265,50.61999],[2.11225,50.61958],[2.1122,50.61905],[2.11055,50.6199],[2.10986,50.62045],[2.11046,50.62091],[2.11265,50.61999]]]}},{"type":"Feature","properties":{"k":"PPH","s":3.776},"geometry":{"type":"Polygon","coordinates":[[[2.11009,50.61852],[2.10846,50.61887],[2.10854,50.61904],[2.10907,50.61889],[2.10951,50.61932],[2.11052,50.619],[2.11107,50.61964],[2.11226,50.619],[2.11229,50.61807],[2.11261,50.61757],[2.11237,50.61723],[2.10975,50.61788],[2.11009,50.61852]]]}},{"type":"Feature","properties":{"k":"PPH","s":0.354},"geometry":{"type":"Polygon","coordinates":[[[2.10848,50.61986],[2.10858,50.62006],[2.10886,50.61997],[2.10844,50.61913],[2.10788,50.6193],[2.10825,50.61992],[2.10848,50.61986]]]}},{"type":"Feature","properties":{"k":"BTH","s":1.468},"geometry":{"type":"Polygon","coordinates":[[[2.10758,50.61887],[2.10505,50.61962],[2.10546,50.62016],[2.10799,50.61959],[2.10758,50.61887]]]}},{"type":"Feature","properties":{"k":"PPH","s":0.004},"geometry":{"type":"Polygon","coordinates":[[[2.10974,50.61786],[2.10974,50.61788],[2.1106,50.61766],[2.10974,50.61786]]]}},{"type":"Feature","properties":{"k":"PTR","s":3.257},"geometry":{"type":"Polygon","coordinates":[[[2.12277,50.61962],[2.12535,50.61826],[2.1231,50.61767],[2.12116,50.61878],[2.12277,50.61962]]]}},{"type":"Feature","properties":{"k":"PPH","s":0.362},"geometry":{"type":"MultiPolygon","coordinates":[[[[2.09761,50.62142],[2.09846,50.62149],[2.09844,50.621],[2.09738,50.62092],[2.09761,50.62142]]],[[[2.09897,50.62105],[2.09888,50.62104],[2.0996,50.62121],[2.09897,50.62105]]],[[[2.10102,50.6217],[2.10095,50.6217],[2.10097,50.62171],[2.10102,50.6217]]]]}},{"type":"Feature","properties":{"k":"BTH","s":0.0},"geometry":{"type":"Polygon","coordinates":[]}},{"type":"Feature","properties":{"k":"BTH","s":8.253},"geometry":{"type":"Polygon","coordinates":[[[2.0984,50.62283],[2.09972,50.62492],[2.10425,50.62437],[2.10281,50.62212],[2.0984,50.62283]]]}},{"type":"Feature","properties":{"k":"PPH","s":2.185},"geometry":{"type":"Polygon","coordinates":[[[2.09733,50.62308],[2.10095,50.62242],[2.10076,50.62199],[2.0999,50.6217],[2.09868,50.62208],[2.09686,50.62228],[2.09733,50.62308]]]}},{"type":"Feature","properties":{"k":"MIS","s":0.007},"geometry":{"type":"Polygon","coordinates":[[[2.12645,50.64655],[2.12645,50.64657],[2.12675,50.6464],[2.12645,50.64655]]]}},{"type":"Feature","properties":{"k":"BTH","s":2.414},"geometry":{"type":"Polygon","coordinates":[[[2.1267,50.64639],[2.12542,50.64594],[2.12315,50.64588],[2.12315,50.64706],[2.12645,50.64653],[2.1267,50.64639]]]}},{"type":"Feature","properties":{"k":"BTH","s":5.452},"geometry":{"type":"Polygon","coordinates":[[[2.12265,50.6438],[2.12526,50.64579],[2.12693,50.6463],[2.12786,50.64578],[2.12417,50.64296],[2.12265,50.6438]]]}},{"type":"Feature","properties":{"k":"BTH","s":5.545},"geometry":{"type":"Polygon","coordinates":[[[2.1242,50.64298],[2.12762,50.64562],[2.12914,50.64479],[2.12649,50.64253],[2.12633,50.64246],[2.1242,50.64298]]]}},{"type":"Feature","properties":{"k":"PPH","s":0.342},"geometry":{"type":"Polygon","coordinates":[[[2.12917,50.64477],[2.12764,50.64561],[2.12786,50.64578],[2.12934,50.64495],[2.12917,50.64477]]]}},{"type":"Feature","properties":{"k":"PPH","s":2.48},"geometry":{"type":"Polygon","coordinates":[[[2.12937,50.64375],[2.12863,50.64405],[2.12992,50.64538],[2.13089,50.6449],[2.13158,50.64507],[2.12944,50.6429],[2.1288,50.64313],[2.12937,50.64375]]]}},{"type":"Feature","properties":{"k":"PPH","s":3.793},"geometry":{"type":"Polygon","coordinates":[[[2.13111,50.64225],[2.12946,50.6429],[2.13163,50.6451],[2.13232,50.64529],[2.13293,50.64484],[2.13111,50.64225]]]}},{"type":"Feature","properties":{"k":"PPH","s":0.0},"geometry":{"type":"Polygon","coordinates":[[[2.13155,50.64509],[2.13159,50.6451],[2.13159,50.64509],[2.13155,50.64509]]]}},{"type":"Feature","properties":{"k":"CZH","s":0.996},"geometry":{"type":"MultiPolygon","coordinates":[[[[2.13326,50.63991],[2.1327,50.63998],[2.13387,50.64171],[2.13446,50.64153],[2.13326,50.63991]]],[[[2.13424,50.64239],[2.13441,50.64257],[2.13412,50.64221],[2.13424,50.64239]]],[[[2.13511,50.64362],[2.13463,50.64387],[2.13525,50.64377],[2.13505,50.64338],[2.13449,50.64268],[2.13511,50.64362]]]]}},{"type":"Feature","properties":{"k":"PPH","s":3.458},"geometry":{"type":"MultiPolygon","coordinates":[[[[2.13266,50.63922],[2.13242,50.63939],[2.13211,50.63929],[2.13187,50.63877],[2.13161,50.63884],[2.13228,50.64029],[2.13336,50.64187],[2.13387,50.64171],[2.1327,50.63998],[2.13326,50.63991],[2.13342,50.64022],[2.13381,50.64009],[2.133,50.638],[2.13213,50.63821],[2.13266,50.63922]]],[[[2.13441,50.64346],[2.1345,50.64393],[2.13511,50.64362],[2.13411,50.64221],[2.1337,50.64237],[2.13441,50.64346]]]]}},{"type":"Feature","properties":{"k":"PPH","s":7.553},"geometry":{"type":"Polygon","coordinates":[[[2.12761,50.6413],[2.12929,50.64067],[2.12911,50.64049],[2.12801,50.64043],[2.12727,50.64061],[2.12711,50.64067],[2.1273,50.64115],[2.12659,50.64116],[2.12633,50.64127],[2.12636,50.64146],[2.12602,50.64146],[2.12624,50.64218],[2.12861,50.64403],[2.12933,50.64373],[2.12876,50.64312],[2.1312,50.64219],[2.13056,50.64099],[2.12933,50.6411],[2.1278,50.6416],[2.12761,50.6413]]]}},{"type":"Feature","properties":{"k":"PPH","s":0.415},"geometry":{"type":"Polygon","coordinates":[[[2.12592,50.64171],[2.12585,50.64118],[2.12552,50.64118],[2.12544,50.64077],[2.12525,50.64086],[2.12503,50.64065],[2.12557,50.64018],[2.1254,50.64006],[2.12459,50.64044],[2.12592,50.64171]]]}},{"type":"Feature","properties":{"k":"MIS","s":0.26},"geometry":{"type":"Polygon","coordinates":[[[2.12451,50.64041],[2.12294,50.63958],[2.12263,50.63961],[2.12427,50.64049],[2.12451,50.64041]]]}},{"type":"Feature","properties":{"k":"PPH","s":2.248},"geometry":{"type":"Polygon","coordinates":[[[2.12816,50.63953],[2.12818,50.63966],[2.12744,50.64004],[2.12762,50.64037],[2.12915,50.6403],[2.12959,50.64091],[2.12977,50.64091],[2.13062,50.64069],[2.12946,50.639],[2.12816,50.63953]]]}},{"type":"Feature","properties":{"k":"MIS","s":2.877},"geometry":{"type":"Polygon","coordinates":[[[2.1299,50.63942],[2.1308,50.63907],[2.13029,50.63814],[2.12889,50.63669],[2.12753,50.63703],[2.12875,50.63823],[2.1294,50.63815],[2.12956,50.63832],[2.12895,50.63843],[2.1299,50.63942]]]}},{"type":"Feature","properties":{"k":"PPH","s":1.491},"geometry":{"type":"Polygon","coordinates":[[[2.12621,50.63906],[2.12793,50.63832],[2.12691,50.6373],[2.12615,50.63754],[2.12641,50.63793],[2.12631,50.63817],[2.12566,50.63847],[2.12621,50.63906]]]}},{"type":"Feature","properties":{"k":"PPH","s":0.968},"geometry":{"type":"Polygon","coordinates":[[[2.12543,50.63961],[2.1258,50.63948],[2.12596,50.63957],[2.12614,50.63937],[2.12544,50.63855],[2.12515,50.6383],[2.12441,50.63859],[2.12497,50.63936],[2.12543,50.63961]]]}},{"type":"Feature","properties":{"k":"PPH","s":0.509},"geometry":{"type":"Polygon","coordinates":[[[2.12354,50.63938],[2.12436,50.63913],[2.12424,50.63894],[2.12231,50.63914],[2.12247,50.63948],[2.12354,50.63938]]]}},{"type":"Feature","properties":{"k":"PPH","s":0.083},"geometry":{"type":"Polygon","coordinates":[[[2.12304,50.63818],[2.12345,50.63813],[2.12336,50.63798],[2.12279,50.63783],[2.12304,50.63818]]]}},{"type":"Feature","properties":{"k":"PPH","s":0.428},"geometry":{"type":"Polygon","coordinates":[[[2.12442,50.63742],[2.1241,50.63749],[2.1244,50.63851],[2.12504,50.63826],[2.12442,50.63742]]]}},{"type":"Feature","properties":{"k":"PPH","s":0.722},"geometry":{"type":"Polygon","coordinates":[[[2.12569,50.63844],[2.1263,50.63817],[2.12639,50.63794],[2.12613,50.63755],[2.12573,50.6374],[2.12528,50.63742],[2.125,50.6376],[2.12569,50.63844]]]}},{"type":"Feature","properties":{"k":"PPH","s":4.137},"geometry":{"type":"Polygon","coordinates":[[[2.12751,50.63701],[2.12893,50.63662],[2.12916,50.63687],[2.13084,50.6365],[2.12959,50.63488],[2.12786,50.6352],[2.12815,50.63545],[2.12651,50.63606],[2.12751,50.63701]]]}},{"type":"Feature","properties":{"k":"PPH","s":3.242},"geometry":{"type":"Polygon","coordinates":[[[2.13213,50.63821],[2.13297,50.63799],[2.13093,50.63457],[2.12961,50.63488],[2.13088,50.63649],[2.13122,50.63645],[2.13213,50.63821]]]}},{"type":"Feature","properties":{"k":"PPH","s":0.006},"geometry":{"type":"MultiPolygon","coordinates":[[[[2.13243,50.6369],[2.13215,50.63636],[2.13212,50.63634],[2.13243,50.6369]]]]}},{"type":"Feature","properties":{"k":"BTH","s":0.003},"geometry":{"type":"MultiPolygon","coordinates":[]}},{"type":"Feature","properties":{"k":"PTR","s":0.003},"geometry":{"type":"Polygon","coordinates":[]}},{"type":"Feature","properties":{"k":"PPH","s":0.654},"geometry":{"type":"Polygon","coordinates":[[[2.12296,50.62328],[2.12379,50.62391],[2.12424,50.62372],[2.12488,50.62414],[2.12526,50.62418],[2.12352,50.62295],[2.12296,50.62328]]]}},{"type":"Feature","properties":{"k":"BTH","s":6.259},"geometry":{"type":"Polygon","coordinates":[[[2.12743,50.62248],[2.12606,50.62153],[2.12327,50.6229],[2.12354,50.62295],[2.12565,50.62453],[2.12829,50.62357],[2.12743,50.62248]]]}},{"type":"Feature","properties":{"k":"BTH","s":0.658},"geometry":{"type":"Polygon","coordinates":[[[2.12331,50.62288],[2.12603,50.62154],[2.12578,50.62137],[2.12309,50.62265],[2.12331,50.62288]]]}},{"type":"Feature","properties":{"k":"MIS","s":0.843},"geometry":{"type":"Polygon","coordinates":[[[2.12543,50.62115],[2.12281,50.62237],[2.12309,50.62265],[2.12578,50.62137],[2.12543,50.62115]]]}},{"type":"Feature","properties":{"k":"PTR","s":1.281},"geometry":{"type":"Polygon","coordinates":[[[2.1224,50.62195],[2.12281,50.62237],[2.12543,50.62115],[2.12484,50.62076],[2.1224,50.62195]]]}},{"type":"Feature","properties":{"k":"BTH","s":0.013},"geometry":{"type":"Polygon","coordinates":[[[2.09348,50.64819],[2.09356,50.64878],[2.09354,50.64819],[2.09348,50.64819]]]}},{"type":"Feature","properties":{"k":"PTR","s":0.019},"geometry":{"type":"Polygon","coordinates":[]}},{"type":"Feature","properties":{"k":"MIS","s":3.764},"geometry":{"type":"Polygon","coordinates":[[[2.09841,50.65133],[2.09795,50.65024],[2.09771,50.6503],[2.09696,50.64918],[2.0951,50.64959],[2.09665,50.65177],[2.09841,50.65133]]]}},{"type":"Feature","properties":{"k":"BTH","s":4.299},"geometry":{"type":"Polygon","coordinates":[[[2.09371,50.64988],[2.09628,50.64924],[2.09612,50.64816],[2.09507,50.64816],[2.0949,50.64701],[2.09332,50.64703],[2.09371,50.64988]]]}},{"type":"Feature","properties":{"k":"CZH","s":3.828},"geometry":{"type":"Polygon","coordinates":[[[2.09471,50.64593],[2.09509,50.64816],[2.09734,50.64811],[2.09692,50.64601],[2.09471,50.64593]]]}},{"type":"Feature","properties":{"k":"BTH","s":1.037},"geometry":{"type":"Polygon","coordinates":[[[2.09471,50.64593],[2.09355,50.6459],[2.09375,50.64691],[2.09331,50.64691],[2.09332,50.64703],[2.09491,50.64701],[2.09471,50.64593]]]}},{"type":"Feature","properties":{"k":"BTH","s":2.205},"geometry":{"type":"Polygon","coordinates":[[[2.09495,50.6458],[2.09454,50.64515],[2.09292,50.6454],[2.09172,50.64538],[2.0912,50.64449],[2.09033,50.64447],[2.09035,50.64565],[2.09495,50.6458]]]}},{"type":"Feature","properties":{"k":"ORH","s":0.984},"geometry":{"type":"Polygon","coordinates":[[[2.09033,50.64447],[2.0912,50.64449],[2.09245,50.64384],[2.08988,50.64365],[2.09033,50.64447]]]}},{"type":"Feature","properties":{"k":"BTH","s":3.455},"geometry":{"type":"Polygon","coordinates":[[[2.09722,50.64578],[2.09813,50.6456],[2.09647,50.64352],[2.09599,50.6437],[2.09561,50.64337],[2.0948,50.64369],[2.09612,50.64575],[2.09722,50.64578]]]}},{"type":"Feature","properties":{"k":"MIS","s":3.86},"geometry":{"type":"Polygon","coordinates":[[[2.09438,50.64139],[2.09697,50.64396],[2.09817,50.64561],[2.09875,50.64557],[2.09746,50.64393],[2.09497,50.64104],[2.09286,50.63946],[2.092,50.63991],[2.09438,50.64139]]]}},{"type":"Feature","properties":{"k":"PPH","s":1.079},"geometry":{"type":"Polygon","coordinates":[[[2.09751,50.64026],[2.09641,50.64069],[2.09702,50.64151],[2.09841,50.64106],[2.09751,50.64026]]]}},{"type":"Feature","properties":{"k":"PPH","s":0.862},"geometry":{"type":"Polygon","coordinates":[[[2.0966,50.64059],[2.09563,50.6397],[2.09476,50.64007],[2.09572,50.64091],[2.0966,50.64059]]]}},{"type":"Feature","properties":{"k":"MIS","s":8.979},"geometry":{"type":"Polygon","coordinates":[[[2.10617,50.64711],[2.1075,50.64955],[2.10983,50.64865],[2.11012,50.64945],[2.11134,50.65045],[2.1122,50.64983],[2.11129,50.64906],[2.11038,50.64916],[2.10927,50.64603],[2.10631,50.64628],[2.10617,50.64711]]]}},{"type":"Feature","properties":{"k":"LIF","s":3.02},"geometry":{"type":"Polygon","coordinates":[[[2.10659,50.6435],[2.10444,50.64367],[2.10486,50.64581],[2.10609,50.64582],[2.10659,50.6435]]]}},{"type":"Feature","properties":{"k":"BTN","s":3.323},"geometry":{"type":"Polygon","coordinates":[[[2.10444,50.64367],[2.10659,50.6435],[2.10665,50.64313],[2.10298,50.6434],[2.10366,50.64604],[2.10485,50.64582],[2.10444,50.64367]]]}},{"type":"Feature","properties":{"k":"MIS","s":1.733},"geometry":{"type":"Polygon","coordinates":[[[2.10126,50.64353],[2.10364,50.64604],[2.10366,50.64604],[2.10298,50.6434],[2.10126,50.64353]]]}},{"type":"Feature","properties":{"k":"PPH","s":1.348},"geometry":{"type":"Polygon","coordinates":[[[2.08765,50.64301],[2.08714,50.64326],[2.0857,50.64454],[2.08632,50.64463],[2.08849,50.64345],[2.08765,50.64301]]]}},{"type":"Feature","properties":{"k":"MIS","s":2.534},"geometry":{"type":"Polygon","coordinates":[[[2.09009,50.64405],[2.08836,50.64415],[2.08795,50.6456],[2.09026,50.64564],[2.09009,50.64405]]]}},{"type":"Feature","properties":{"k":"BTH","s":0.0},"geometry":{"type":"Polygon","coordinates":[]}},{"type":"Feature","properties":{"k":"PPH","s":1.81},"geometry":{"type":"Polygon","coordinates":[[[2.08041,50.64373],[2.08164,50.64265],[2.08004,50.64235],[2.07875,50.64365],[2.08128,50.64386],[2.08041,50.64373]]]}},{"type":"Feature","properties":{"k":"PPH","s":0.527},"geometry":{"type":"Polygon","coordinates":[[[2.12899,50.63389],[2.12766,50.63195],[2.12752,50.63203],[2.12854,50.63401],[2.12899,50.63389]]]}},{"type":"Feature","properties":{"k":"JAC","s":0.151},"geometry":{"type":"Polygon","coordinates":[[[2.12698,50.63106],[2.12773,50.63189],[2.12717,50.63089],[2.12679,50.63098],[2.12698,50.63106]]]}},{"type":"Feature","properties":{"k":"BTH","s":3.661},"geometry":{"type":"Polygon","coordinates":[[[2.10122,50.64359],[2.10005,50.6439],[2.10204,50.64663],[2.10352,50.64608],[2.10122,50.64359]]]}},{"type":"Feature","properties":{"k":"PPH","s":9.235},"geometry":{"type":"Polygon","coordinates":[[[2.10017,50.64618],[2.10065,50.64667],[2.10201,50.64664],[2.1013,50.64598],[2.10102,50.64549],[2.10119,50.64547],[2.09998,50.64388],[2.10041,50.64377],[2.09785,50.64133],[2.09849,50.64113],[2.09841,50.64106],[2.09698,50.64152],[2.09636,50.64068],[2.09536,50.64103],[2.09716,50.64301],[2.09789,50.64266],[2.09887,50.64353],[2.09745,50.64393],[2.09875,50.64557],[2.10017,50.64618]]]}},{"type":"Feature","properties":{"k":"PPH","s":5.794},"geometry":{"type":"Polygon","coordinates":[[[2.08123,50.63617],[2.0781,50.63765],[2.07938,50.63802],[2.08204,50.63806],[2.08267,50.6377],[2.08338,50.63791],[2.08341,50.63639],[2.0832,50.63562],[2.08179,50.63631],[2.08139,50.63606],[2.08123,50.63617]]]}},{"type":"Feature","properties":{"k":"BTH","s":5.087},"geometry":{"type":"Polygon","coordinates":[[[2.09612,50.64816],[2.09628,50.64924],[2.09923,50.64892],[2.09924,50.64692],[2.09774,50.6462],[2.09692,50.64601],[2.09734,50.64811],[2.09612,50.64816]]]}},{"type":"Feature","properties":{"k":"PPH","s":1.018},"geometry":{"type":"Polygon","coordinates":[[[2.10008,50.64697],[2.09932,50.64693],[2.09931,50.64823],[2.09955,50.64807],[2.09964,50.64876],[2.10037,50.64857],[2.10007,50.64798],[2.10008,50.64697]]]}},{"type":"Feature","properties":{"k":"PPH","s":0.841},"geometry":{"type":"Polygon","coordinates":[[[2.12487,50.6242],[2.12437,50.62384],[2.12379,50.62399],[2.12446,50.62498],[2.12555,50.6246],[2.12525,50.62423],[2.12487,50.6242]]]}},{"type":"Feature","properties":{"k":"PPH","s":1.53},"geometry":{"type":"Polygon","coordinates":[[[2.12781,50.63198],[2.12895,50.63176],[2.12843,50.6306],[2.1277,50.63084],[2.12704,50.62985],[2.12656,50.63],[2.12781,50.63198]]]}},{"type":"Feature","properties":{"k":"BTH","s":0.013},"geometry":{"type":"Polygon","coordinates":[[[2.0794,50.64371],[2.07767,50.64357],[2.0794,50.64373],[2.0794,50.64371]]]}},{"type":"Feature","properties":{"k":"PPH","s":2.695},"geometry":{"type":"MultiPolygon","coordinates":[[[[2.0822,50.64397],[2.08243,50.6438],[2.08403,50.64385],[2.08404,50.64385],[2.08491,50.64319],[2.08301,50.64306],[2.08318,50.64292],[2.08164,50.64265],[2.08041,50.64373],[2.0822,50.64397]]],[[[2.0846,50.64393],[2.08461,50.64392],[2.08404,50.64385],[2.0846,50.64393]]]]}},{"type":"Feature","properties":{"k":"PPH","s":1.661},"geometry":{"type":"Polygon","coordinates":[[[2.12587,50.63433],[2.12563,50.63446],[2.12589,50.63464],[2.12528,50.63501],[2.12652,50.63604],[2.12811,50.63545],[2.12785,50.63521],[2.12749,50.63528],[2.12656,50.63457],[2.12631,50.63469],[2.12587,50.63433]]]}},{"type":"Feature","properties":{"k":"PPH","s":0.058},"geometry":{"type":"MultiPolygon","coordinates":[[[[2.12995,50.63102],[2.1288,50.62939],[2.12886,50.62954],[2.12995,50.63102]]],[[[2.12957,50.63203],[2.12915,50.63211],[2.1296,50.63205],[2.12925,50.63141],[2.12957,50.63203]]]]}},{"type":"Feature","properties":{"k":"JAC","s":0.117},"geometry":{"type":"Polygon","coordinates":[[[2.12478,50.63145],[2.12483,50.63154],[2.12622,50.63122],[2.12478,50.63145]]]}},{"type":"Feature","properties":{"k":"PPH","s":8.53},"geometry":{"type":"Polygon","coordinates":[[[2.1071,50.62394],[2.10678,50.62186],[2.10786,50.62162],[2.10752,50.62101],[2.10844,50.6208],[2.10831,50.62058],[2.10499,50.62133],[2.10087,50.62173],[2.10076,50.62199],[2.10095,50.62242],[2.10281,50.62212],[2.10425,50.62437],[2.1071,50.62394]],[[2.10735,50.62102],[2.10764,50.6216],[2.10525,50.62212],[2.10477,50.62148],[2.10662,50.62105],[2.10735,50.62102]]]}},{"type":"Feature","properties":{"k":"PTR","s":1.473},"geometry":{"type":"Polygon","coordinates":[[[2.10764,50.6216],[2.10735,50.62102],[2.10662,50.62105],[2.10477,50.62148],[2.10525,50.62212],[2.10764,50.6216]]]}},{"type":"Feature","properties":{"k":"MIS","s":1.958},"geometry":{"type":"Polygon","coordinates":[[[2.1061,50.62103],[2.10833,50.62051],[2.1084,50.62038],[2.10799,50.61959],[2.10546,50.62016],[2.1061,50.62103]]]}},{"type":"Feature","properties":{"k":"PPH","s":1.602},"geometry":{"type":"Polygon","coordinates":[[[2.11245,50.62223],[2.11307,50.62192],[2.11161,50.62041],[2.11042,50.62095],[2.11073,50.62144],[2.11045,50.62157],[2.11138,50.62125],[2.11179,50.62189],[2.11196,50.62186],[2.11245,50.62223]]]}},{"type":"Feature","properties":{"k":"PPH","s":0.377},"geometry":{"type":"Polygon","coordinates":[[[2.11116,50.62216],[2.11172,50.6227],[2.11234,50.62248],[2.11171,50.62192],[2.11116,50.62216]]]}},{"type":"Feature","properties":{"k":"PTR","s":0.685},"geometry":{"type":"Polygon","coordinates":[[[2.11204,50.62376],[2.11181,50.62345],[2.10958,50.62391],[2.10988,50.62427],[2.11204,50.62376]]]}},{"type":"Feature","properties":{"k":"PTR","s":0.07},"geometry":{"type":"Polygon","coordinates":[[[2.11152,50.62388],[2.1116,50.62399],[2.11214,50.62392],[2.11204,50.62376],[2.11152,50.62388]]]}},{"type":"Feature","properties":{"k":"PPH","s":0.058},"geometry":{"type":"Polygon","coordinates":[[[2.1126,50.62353],[2.11289,50.62344],[2.11274,50.62324],[2.11244,50.62334],[2.1126,50.62353]]]}},{"type":"Feature","properties":{"k":"PPH","s":0.617},"geometry":{"type":"Polygon","coordinates":[[[2.11339,50.6236],[2.11362,50.62391],[2.11444,50.62344],[2.11399,50.62293],[2.11379,50.62298],[2.11394,50.62326],[2.11374,50.62337],[2.11318,50.62269],[2.113,50.62277],[2.11332,50.62319],[2.11274,50.62324],[2.11339,50.6236]]]}},{"type":"Feature","properties":{"k":"PPH","s":0.887},"geometry":{"type":"Polygon","coordinates":[[[2.11575,50.62453],[2.11584,50.62432],[2.11523,50.62357],[2.11537,50.62337],[2.1142,50.62236],[2.1139,50.6227],[2.11575,50.62453]]]}},{"type":"Feature","properties":{"k":"PPH","s":0.706},"geometry":{"type":"Polygon","coordinates":[[[2.11625,50.62196],[2.11706,50.62165],[2.11597,50.62059],[2.11572,50.62068],[2.11625,50.62196]]]}},{"type":"Feature","properties":{"k":"PPH","s":1.132},"geometry":{"type":"Polygon","coordinates":[[[2.11634,50.62037],[2.11595,50.62046],[2.11634,50.62081],[2.11685,50.6208],[2.11711,50.62116],[2.11799,50.62099],[2.11791,50.62084],[2.11845,50.6207],[2.11786,50.62012],[2.11634,50.62037]]]}},{"type":"Feature","properties":{"k":"BTH","s":5.236},"geometry":{"type":"Polygon","coordinates":[[[2.12141,50.61915],[2.12046,50.61921],[2.11984,50.61942],[2.1224,50.62195],[2.12481,50.62074],[2.12301,50.61977],[2.12141,50.61915]]]}},{"type":"Feature","properties":{"k":"PPH","s":0.704},"geometry":{"type":"Polygon","coordinates":[[[2.12242,50.62271],[2.12293,50.62255],[2.12158,50.62113],[2.12113,50.62132],[2.12242,50.62271]]]}},{"type":"Feature","properties":{"k":"PPH","s":5.481},"geometry":{"type":"Polygon","coordinates":[[[2.11901,50.62241],[2.12015,50.62282],[2.12141,50.62352],[2.12199,50.6236],[2.12215,50.62342],[2.12164,50.62278],[2.12225,50.62256],[2.12007,50.62009],[2.11848,50.62065],[2.11944,50.62153],[2.11862,50.62179],[2.11901,50.62241]]]}},{"type":"Feature","properties":{"k":"PPH","s":0.39},"geometry":{"type":"Polygon","coordinates":[[[2.11907,50.6226],[2.12032,50.62384],[2.12067,50.62374],[2.11987,50.62287],[2.11907,50.6226]]]}},{"type":"Feature","properties":{"k":"PPH","s":0.297},"geometry":{"type":"Polygon","coordinates":[[[2.11823,50.62276],[2.1181,50.62278],[2.11862,50.62365],[2.1191,50.62353],[2.11823,50.62276]]]}},{"type":"Feature","properties":{"k":"PPH","s":2.896},"geometry":{"type":"Polygon","coordinates":[[[2.12016,50.62553],[2.1204,50.62664],[2.1213,50.62636],[2.12047,50.62448],[2.12147,50.62425],[2.12114,50.62361],[2.12032,50.62384],[2.11907,50.6226],[2.11873,50.62266],[2.11934,50.62336],[2.11905,50.62342],[2.12016,50.62553]]]}},{"type":"Feature","properties":{"k":"BTH","s":2.549},"geometry":{"type":"Polygon","coordinates":[[[2.1221,50.62366],[2.12124,50.6236],[2.12157,50.62453],[2.12294,50.62684],[2.12401,50.62648],[2.1221,50.62366]]]}},{"type":"Feature","properties":{"k":"LUZ","s":2.527},"geometry":{"type":"Polygon","coordinates":[[[2.12143,50.62427],[2.12049,50.62449],[2.121,50.62545],[2.12083,50.62551],[2.12182,50.62719],[2.12294,50.62684],[2.12143,50.62427]]]}},{"type":"Feature","properties":{"k":"PPH","s":1.555},"geometry":{"type":"Polygon","coordinates":[[[2.11676,50.62712],[2.11653,50.62742],[2.11659,50.62787],[2.11609,50.62811],[2.11632,50.62835],[2.11857,50.62786],[2.11765,50.6268],[2.11676,50.62712]]]}},{"type":"Feature","properties":{"k":"PPH","s":1.511},"geometry":{"type":"Polygon","coordinates":[[[2.11508,50.62664],[2.11455,50.62696],[2.11515,50.6282],[2.11459,50.62828],[2.11464,50.6286],[2.11555,50.62851],[2.11544,50.62825],[2.11641,50.62786],[2.11508,50.62664]]]}},{"type":"Feature","properties":{"k":"PPH","s":1.724},"geometry":{"type":"Polygon","coordinates":[[[2.11547,50.62659],[2.11533,50.62649],[2.11509,50.62662],[2.11628,50.62753],[2.11674,50.62696],[2.11756,50.62668],[2.1168,50.62581],[2.11607,50.62566],[2.11547,50.62659]]]}},{"type":"Feature","properties":{"k":"MIS","s":0.707},"geometry":{"type":"Polygon","coordinates":[[[2.11048,50.62532],[2.1106,50.62553],[2.11027,50.62561],[2.11031,50.62572],[2.11283,50.62516],[2.11264,50.62479],[2.11048,50.62532]]]}},{"type":"Feature","properties":{"k":"PTR","s":0.804},"geometry":{"type":"Polygon","coordinates":[[[2.1125,50.62692],[2.11213,50.62662],[2.11083,50.62705],[2.10981,50.62711],[2.10991,50.62751],[2.1111,50.6274],[2.1125,50.62692]]]}},{"type":"Feature","properties":{"k":"MIS","s":3.349},"geometry":{"type":"Polygon","coordinates":[[[2.11016,50.62576],[2.11067,50.627],[2.11223,50.6265],[2.11299,50.62724],[2.11368,50.62681],[2.11282,50.62516],[2.11016,50.62576]]]}},{"type":"Feature","properties":{"k":"BTH","s":1.522},"geometry":{"type":"Polygon","coordinates":[[[2.11006,50.62882],[2.11072,50.62869],[2.11301,50.62736],[2.1125,50.62692],[2.1107,50.62793],[2.11002,50.62815],[2.11006,50.62882]]]}},{"type":"Feature","properties":{"k":"PPH","s":0.695},"geometry":{"type":"Polygon","coordinates":[[[2.11002,50.62815],[2.11256,50.62697],[2.1111,50.6274],[2.10991,50.62751],[2.11002,50.62815]]]}},{"type":"Feature","properties":{"k":"PPH","s":0.435},"geometry":{"type":"Polygon","coordinates":[[[2.11375,50.62907],[2.11362,50.62806],[2.11316,50.62817],[2.11325,50.62921],[2.11375,50.62907]]]}},{"type":"Feature","properties":{"k":"BTH","s":3.275},"geometry":{"type":"Polygon","coordinates":[[[2.11102,50.63095],[2.11124,50.63027],[2.11336,50.62975],[2.11279,50.62929],[2.11073,50.62886],[2.10887,50.62907],[2.11102,50.63095]]]}},{"type":"Feature","properties":{"k":"PPH","s":0.797},"geometry":{"type":"Polygon","coordinates":[[[2.11604,50.63062],[2.11518,50.63001],[2.11417,50.63043],[2.11497,50.63107],[2.11604,50.63062]]]}},{"type":"Feature","properties":{"k":"MIS","s":3.471},"geometry":{"type":"MultiPolygon","coordinates":[[[[2.11499,50.63289],[2.11477,50.63312],[2.11342,50.63112],[2.11468,50.63092],[2.11336,50.62985],[2.11182,50.63021],[2.11413,50.63356],[2.11459,50.63332],[2.115,50.63289],[2.11499,50.63289]]],[[[2.11608,50.63237],[2.11546,50.63167],[2.11605,50.63238],[2.11608,50.63237]]]]}},{"type":"Feature","properties":{"k":"PPH","s":0.429},"geometry":{"type":"Polygon","coordinates":[[[2.11611,50.63234],[2.11714,50.63193],[2.11673,50.63154],[2.11577,50.63195],[2.11611,50.63234]]]}},{"type":"Feature","properties":{"k":"PPH","s":0.79},"geometry":{"type":"Polygon","coordinates":[[[2.11578,50.63192],[2.11722,50.6313],[2.11645,50.63087],[2.11532,50.63145],[2.11578,50.63192]]]}},{"type":"Feature","properties":{"k":"PPH","s":2.443},"geometry":{"type":"Polygon","coordinates":[[[2.12028,50.62865],[2.12169,50.63036],[2.12185,50.63084],[2.12278,50.63059],[2.12271,50.62997],[2.12144,50.62828],[2.12028,50.62865]]]}},{"type":"Feature","properties":{"k":"PPH","s":1.198},"geometry":{"type":"Polygon","coordinates":[[[2.12302,50.63183],[2.12381,50.63164],[2.12276,50.62999],[2.12278,50.63059],[2.12189,50.63082],[2.12195,50.63135],[2.12263,50.63128],[2.12302,50.63183]]]}},{"type":"Feature","properties":{"k":"PPH","s":0.295},"geometry":{"type":"Polygon","coordinates":[[[2.1222,50.63192],[2.12294,50.63181],[2.1226,50.6313],[2.12195,50.63136],[2.1222,50.63192]]]}},{"type":"Feature","properties":{"k":"PPH","s":1.636},"geometry":{"type":"Polygon","coordinates":[[[2.11765,50.63079],[2.11864,50.63035],[2.11797,50.62954],[2.11739,50.62965],[2.11656,50.62933],[2.11608,50.62945],[2.11625,50.62954],[2.11601,50.62968],[2.11698,50.63038],[2.11662,50.63053],[2.11692,50.63072],[2.11737,50.63051],[2.11765,50.63079]]]}},{"type":"Feature","properties":{"k":"BTH","s":0.774},"geometry":{"type":"Polygon","coordinates":[[[2.11845,50.63435],[2.11737,50.63324],[2.11676,50.63349],[2.11776,50.63457],[2.11845,50.63435]]]}},{"type":"Feature","properties":{"k":"BTH","s":9.639},"geometry":{"type":"Polygon","coordinates":[[[2.10942,50.63518],[2.11018,50.63555],[2.11804,50.635],[2.11605,50.63246],[2.1141,50.63363],[2.11019,50.63458],[2.10942,50.63518]]]}},{"type":"Feature","properties":{"k":"PPH","s":2.254},"geometry":{"type":"Polygon","coordinates":[[[2.11342,50.63112],[2.11477,50.63312],[2.11605,50.63238],[2.11468,50.63092],[2.11342,50.63112]]]}},{"type":"Feature","properties":{"k":"BTH","s":3.644},"geometry":{"type":"Polygon","coordinates":[[[2.11117,50.63056],[2.1111,50.6313],[2.11288,50.63389],[2.11411,50.63355],[2.11182,50.63022],[2.11117,50.63056]]]}},{"type":"Feature","properties":{"k":"ORH","s":2.359},"geometry":{"type":"Polygon","coordinates":[[[2.11014,50.63216],[2.11132,50.63387],[2.11266,50.63359],[2.11108,50.6313],[2.11014,50.63216]]]}},{"type":"Feature","properties":{"k":"BTN","s":0.39},"geometry":{"type":"Polygon","coordinates":[[[2.11155,50.63419],[2.11288,50.63391],[2.11266,50.63359],[2.11132,50.63387],[2.11155,50.63419]]]}},{"type":"Feature","properties":{"k":"MIS","s":2.264},"geometry":{"type":"Polygon","coordinates":[[[2.10944,50.63508],[2.1103,50.63447],[2.11154,50.63419],[2.11064,50.63288],[2.10869,50.6335],[2.10937,50.63408],[2.10968,50.63402],[2.11001,50.63437],[2.10877,50.63504],[2.10884,50.63521],[2.10944,50.63508]]]}},{"type":"Feature","properties":{"k":"BTN","s":0.602},"geometry":{"type":"Polygon","coordinates":[[[2.10877,50.63504],[2.11001,50.63437],[2.10959,50.63401],[2.10852,50.63442],[2.10877,50.63504]]]}},{"type":"Feature","properties":{"k":"PPH","s":0.904},"geometry":{"type":"Polygon","coordinates":[[[2.10671,50.63505],[2.10732,50.63502],[2.10737,50.63528],[2.1081,50.63525],[2.10759,50.63439],[2.10823,50.6341],[2.10808,50.63382],[2.10673,50.63454],[2.10671,50.63505]]]}},{"type":"Feature","properties":{"k":"PPH","s":0.281},"geometry":{"type":"Polygon","coordinates":[[[2.1087,50.63519],[2.10845,50.63453],[2.10792,50.6347],[2.10819,50.63525],[2.1087,50.63519]]]}},{"type":"Feature","properties":{"k":"PPH","s":0.318},"geometry":{"type":"Polygon","coordinates":[[[2.10542,50.63406],[2.10503,50.63428],[2.10553,50.63493],[2.10595,50.6348],[2.10542,50.63406]]]}},{"type":"Feature","properties":{"k":"PPH","s":0.895},"geometry":{"type":"Polygon","coordinates":[[[2.1054,50.63397],[2.10604,50.63357],[2.10375,50.63264],[2.10344,50.63289],[2.1054,50.63397]]]}},{"type":"Feature","properties":{"k":"MIS","s":5.307},"geometry":{"type":"Polygon","coordinates":[[[2.10605,50.63357],[2.10684,50.63288],[2.10984,50.63179],[2.10875,50.63083],[2.10375,50.6326],[2.10605,50.63357]]]}},{"type":"Feature","properties":{"k":"BTH","s":0.528},"geometry":{"type":"Polygon","coordinates":[[[2.11064,50.63288],[2.11014,50.63216],[2.1094,50.63256],[2.10981,50.63315],[2.11064,50.63288]]]}},{"type":"Feature","properties":{"k":"MIS","s":1.563},"geometry":{"type":"Polygon","coordinates":[[[2.11074,50.63154],[2.11098,50.63125],[2.11102,50.63095],[2.11031,50.63031],[2.10876,50.63083],[2.10984,50.63179],[2.11074,50.63154]]]}},{"type":"Feature","properties":{"k":"BTH","s":2.545},"geometry":{"type":"Polygon","coordinates":[[[2.10985,50.62883],[2.10996,50.6287],[2.10992,50.62756],[2.10706,50.62812],[2.10752,50.62914],[2.10985,50.62883]]]}},{"type":"Feature","properties":{"k":"BTH","s":4.211},"geometry":{"type":"Polygon","coordinates":[[[2.10751,50.62914],[2.10703,50.62812],[2.10197,50.62879],[2.10257,50.62979],[2.10751,50.62914]]]}},{"type":"Feature","properties":{"k":"BTH","s":9.416},"geometry":{"type":"Polygon","coordinates":[[[2.10524,50.632],[2.10571,50.63188],[2.11031,50.63031],[2.10886,50.62906],[2.1033,50.62977],[2.10475,50.63185],[2.10524,50.632]]]}},{"type":"Feature","properties":{"k":"LUZ","s":1.821},"geometry":{"type":"Polygon","coordinates":[[[2.1052,50.63203],[2.10154,50.63075],[2.09866,50.63181],[2.10089,50.63108],[2.10428,50.63239],[2.1052,50.63203]]]}},{"type":"Feature","properties":{"k":"MIS","s":2.247},"geometry":{"type":"Polygon","coordinates":[[[2.10251,50.62989],[2.10156,50.63075],[2.10469,50.63183],[2.10323,50.62978],[2.10251,50.62989]]]}},{"type":"Feature","properties":{"k":"JAC","s":1.7},"geometry":{"type":"Polygon","coordinates":[[[2.1017,50.62838],[2.10195,50.6288],[2.10637,50.62821],[2.10146,50.62797],[2.1013,50.62828],[2.1017,50.62838]]]}},{"type":"Feature","properties":{"k":"BTH","s":1.362},"geometry":{"type":"Polygon","coordinates":[[[2.10168,50.62837],[2.10035,50.62824],[2.10151,50.62977],[2.10256,50.6298],[2.10168,50.62837]]]}},{"type":"Feature","properties":{"k":"PPH","s":3.428},"geometry":{"type":"Polygon","coordinates":[[[2.09803,50.62823],[2.09885,50.62944],[2.10151,50.62977],[2.10032,50.6282],[2.10129,50.62828],[2.10149,50.62788],[2.09953,50.62768],[2.09953,50.628],[2.09803,50.62823]]]}},{"type":"Feature","properties":{"k":"PPH","s":1.399},"geometry":{"type":"Polygon","coordinates":[[[2.10155,50.63073],[2.10247,50.6299],[2.09893,50.62956],[2.09876,50.62966],[2.10155,50.63073]]]}},{"type":"Feature","properties":{"k":"PPH","s":2.739},"geometry":{"type":"Polygon","coordinates":[[[2.09864,50.63182],[2.10158,50.63074],[2.09989,50.63012],[2.0972,50.63111],[2.09864,50.63182]]]}},{"type":"Feature","properties":{"k":"BTH","s":4.803},"geometry":{"type":"Polygon","coordinates":[[[2.09887,50.63192],[2.10204,50.63348],[2.10316,50.63275],[2.10342,50.63286],[2.10428,50.63239],[2.10087,50.63109],[2.09887,50.63192]]]}},{"type":"Feature","properties":{"k":"BTH","s":2.602},"geometry":{"type":"Polygon","coordinates":[[[2.10282,50.6344],[2.10345,50.63416],[2.10401,50.63477],[2.10537,50.63398],[2.10313,50.63277],[2.10204,50.63348],[2.10282,50.6344]]]}},{"type":"Feature","properties":{"k":"LUZ","s":0.822},"geometry":{"type":"Polygon","coordinates":[[[2.10236,50.63391],[2.1016,50.63421],[2.10268,50.63539],[2.10311,50.6352],[2.10236,50.63391]]]}},{"type":"Feature","properties":{"k":"MIS","s":0.462},"geometry":{"type":"Polygon","coordinates":[[[2.10161,50.63588],[2.10075,50.63494],[2.10031,50.63512],[2.10115,50.63608],[2.10161,50.63588]]]}},{"type":"Feature","properties":{"k":"MIS","s":4.388},"geometry":{"type":"Polygon","coordinates":[[[2.10075,50.63493],[2.10161,50.63588],[2.10268,50.63539],[2.1016,50.63421],[2.10236,50.63391],[2.10098,50.63302],[2.09856,50.6344],[2.1002,50.63517],[2.10075,50.63493]]]}},{"type":"Feature","properties":{"k":"PPH","s":3.194},"geometry":{"type":"Polygon","coordinates":[[[2.0962,50.63366],[2.09956,50.63525],[2.1007,50.63637],[2.10114,50.63609],[2.10028,50.63513],[2.09856,50.6344],[2.10098,50.63302],[2.10034,50.63297],[2.09878,50.6335],[2.0962,50.63366]]]}},{"type":"Feature","properties":{"k":"PPH","s":1.79},"geometry":{"type":"Polygon","coordinates":[[[2.09951,50.63524],[2.09735,50.6343],[2.09657,50.63464],[2.09764,50.63589],[2.09951,50.63524]]]}},{"type":"Feature","properties":{"k":"MLC","s":2.354},"geometry":{"type":"Polygon","coordinates":[[[2.09432,50.6332],[2.09353,50.63372],[2.09453,50.63434],[2.09565,50.63624],[2.09598,50.63616],[2.09571,50.63498],[2.09525,50.63431],[2.09619,50.63368],[2.09432,50.6332]]]}},{"type":"Feature","properties":{"k":"PPH","s":1.074},"geometry":{"type":"Polygon","coordinates":[[[2.09571,50.63498],[2.09729,50.63428],[2.09619,50.63368],[2.09525,50.63431],[2.09571,50.63498]]]}},{"type":"Feature","properties":{"k":"PPH","s":1.757},"geometry":{"type":"Polygon","coordinates":[[[2.09604,50.6336],[2.0987,50.63346],[2.09578,50.63251],[2.09473,50.63329],[2.09604,50.6336]]]}},{"type":"Feature","properties":{"k":"PPH","s":3.782},"geometry":{"type":"Polygon","coordinates":[[[2.09443,50.63129],[2.09382,50.63174],[2.09491,50.63268],[2.09535,50.63235],[2.09871,50.63345],[2.10072,50.63289],[2.09879,50.63195],[2.09738,50.63269],[2.09443,50.63129]]]}},{"type":"Feature","properties":{"k":"PPH","s":7.441},"geometry":{"type":"Polygon","coordinates":[[[2.09578,50.63251],[2.09536,50.63237],[2.09492,50.63271],[2.09445,50.63234],[2.09105,50.63437],[2.09484,50.63728],[2.09562,50.63813],[2.09482,50.63842],[2.09513,50.63851],[2.0973,50.63826],[2.09739,50.63814],[2.09714,50.6377],[2.09618,50.63794],[2.09492,50.6364],[2.0934,50.63377],[2.09429,50.63316],[2.09473,50.63329],[2.09578,50.63251]]]}},{"type":"Feature","properties":{"k":"BTH","s":3.729},"geometry":{"type":"Polygon","coordinates":[[[2.08877,50.63475],[2.08706,50.63369],[2.08639,50.63421],[2.08515,50.63569],[2.08705,50.63621],[2.08877,50.63475]]]}},{"type":"Feature","properties":{"k":"PPH","s":0.574},"geometry":{"type":"Polygon","coordinates":[[[2.0848,50.63273],[2.08674,50.63389],[2.08703,50.63367],[2.085,50.6326],[2.0848,50.63273]]]}},{"type":"Feature","properties":{"k":"BFS","s":0.016},"geometry":{"type":"Polygon","coordinates":[[[2.08691,50.63264],[2.08689,50.63264],[2.0862,50.63305],[2.08691,50.63264]]]}},{"type":"Feature","properties":{"k":"BTH","s":8.65},"geometry":{"type":"Polygon","coordinates":[[[2.08841,50.63092],[2.08607,50.632],[2.08691,50.63264],[2.08622,50.63308],[2.0874,50.63385],[2.09056,50.63203],[2.09255,50.63346],[2.09332,50.633],[2.08986,50.63049],[2.08841,50.63092]]]}},{"type":"Feature","properties":{"k":"MIS","s":6.114},"geometry":{"type":"Polygon","coordinates":[[[2.08742,50.63384],[2.08958,50.63514],[2.09255,50.63346],[2.09056,50.63203],[2.08742,50.63384]]]}},{"type":"Feature","properties":{"k":"BTH","s":1.395},"geometry":{"type":"Polygon","coordinates":[[[2.08646,50.62883],[2.08572,50.62897],[2.08786,50.63107],[2.08846,50.63084],[2.08646,50.62883]]]}},{"type":"Feature","properties":{"k":"ORH","s":1.731},"geometry":{"type":"Polygon","coordinates":[[[2.08733,50.62861],[2.08646,50.62883],[2.08846,50.63082],[2.08934,50.63057],[2.08733,50.62861]]]}},{"type":"Feature","properties":{"k":"MIS","s":5.31},"geometry":{"type":"Polygon","coordinates":[[[2.08733,50.62861],[2.08934,50.63057],[2.09137,50.63007],[2.09202,50.63005],[2.08973,50.62772],[2.08733,50.62861]]]}},{"type":"Feature","properties":{"k":"BTH","s":5.722},"geometry":{"type":"Polygon","coordinates":[[[2.09467,50.62986],[2.09179,50.62698],[2.08973,50.62772],[2.09202,50.63005],[2.09227,50.63004],[2.09268,50.63004],[2.09467,50.62986]],[[2.09202,50.63004],[2.09154,50.62955],[2.09171,50.6295],[2.09227,50.63004],[2.09202,50.63004]]]}},{"type":"Feature","properties":{"k":"BTH","s":1.732},"geometry":{"type":"Polygon","coordinates":[[[2.0901,50.63066],[2.09331,50.63298],[2.09377,50.63267],[2.09055,50.63032],[2.08997,50.63047],[2.0901,50.63066]]]}},{"type":"Feature","properties":{"k":"LUZ","s":0.11},"geometry":{"type":"Polygon","coordinates":[[[2.09481,50.63101],[2.09579,50.63047],[2.09564,50.6304],[2.09475,50.63089],[2.09481,50.63101]]]}},{"type":"Feature","properties":{"k":"BTH","s":3.411},"geometry":{"type":"Polygon","coordinates":[[[2.09579,50.63047],[2.09443,50.63129],[2.09738,50.63269],[2.09863,50.63203],[2.09867,50.63189],[2.09579,50.63047]]]}},{"type":"Feature","properties":{"k":"PTR","s":3.312},"geometry":{"type":"Polygon","coordinates":[[[2.0972,50.63111],[2.09989,50.63012],[2.09876,50.62966],[2.09893,50.62956],[2.09847,50.62947],[2.09496,50.62995],[2.0972,50.63111]]]}},{"type":"Feature","properties":{"k":"BTH","s":2.163},"geometry":{"type":"Polygon","coordinates":[[[2.09831,50.62867],[2.09413,50.62932],[2.09467,50.62985],[2.09807,50.62938],[2.09883,50.62944],[2.09831,50.62867]]]}},{"type":"Feature","properties":{"k":"MIS","s":7.917},"geometry":{"type":"Polygon","coordinates":[[[2.09313,50.62649],[2.09528,50.62914],[2.09831,50.62867],[2.09636,50.62574],[2.09313,50.62649]]]}},{"type":"Feature","properties":{"k":"BTH","s":3.059},"geometry":{"type":"Polygon","coordinates":[[[2.09312,50.62652],[2.09316,50.62656],[2.09296,50.62658],[2.09179,50.62698],[2.09413,50.62932],[2.09528,50.62914],[2.09315,50.62651],[2.09312,50.62652]]]}},{"type":"Feature","properties":{"k":"MIS","s":8.174},"geometry":{"type":"Polygon","coordinates":[[[2.09322,50.62643],[2.09314,50.62632],[2.09494,50.62601],[2.09284,50.62312],[2.09521,50.62252],[2.09358,50.62283],[2.0921,50.62337],[2.09237,50.6237],[2.09054,50.62439],[2.0908,50.62731],[2.09322,50.62643]]]}},{"type":"Feature","properties":{"k":"PPH","s":8.95},"geometry":{"type":"MultiPolygon","coordinates":[[[[2.09105,50.62281],[2.08986,50.62312],[2.08858,50.62407],[2.08852,50.62517],[2.08886,50.62638],[2.08868,50.62727],[2.0892,50.62786],[2.08943,50.62778],[2.08934,50.62654],[2.08983,50.62653],[2.08968,50.62469],[2.09235,50.6237],[2.09209,50.62336],[2.09344,50.62288],[2.09305,50.62237],[2.09306,50.62204],[2.09383,50.62197],[2.09359,50.62197],[2.09341,50.62172],[2.09309,50.62178],[2.09236,50.62225],[2.09162,50.62245],[2.09105,50.62281]]],[[[2.09752,50.62221],[2.09731,50.62088],[2.0957,50.62115],[2.09582,50.62167],[2.09519,50.62177],[2.09557,50.62244],[2.09752,50.62221]]]]}},{"type":"Feature","properties":{"k":"ORH","s":6.0},"geometry":{"type":"Polygon","coordinates":[[[2.09514,50.62254],[2.09284,50.62312],[2.09494,50.62601],[2.09704,50.62546],[2.09514,50.62254]]]}},{"type":"Feature","properties":{"k":"BTH","s":4.294},"geometry":{"type":"Polygon","coordinates":[[[2.09678,50.62228],[2.09511,50.62255],[2.09708,50.62551],[2.09863,50.62516],[2.09678,50.62228]]]}},{"type":"Feature","properties":{"k":"MIS","s":0.026},"geometry":{"type":"Polygon","coordinates":[[[2.09733,50.62083],[2.09732,50.62082],[2.09569,50.62113],[2.09733,50.62083]]]}},{"type":"Feature","properties":{"k":"PPH","s":0.029},"geometry":{"type":"Polygon","coordinates":[]}},{"type":"Feature","properties":{"k":"BTH","s":0.001},"geometry":{"type":"Polygon","coordinates":[[[2.08858,50.62401],[2.08846,50.62406],[2.08856,50.62403],[2.08858,50.62401]]]}},{"type":"Feature","properties":{"k":"LUZ","s":1.999},"geometry":{"type":"Polygon","coordinates":[[[2.0897,50.62468],[2.08992,50.62762],[2.09077,50.62732],[2.09054,50.62439],[2.0897,50.62468]]]}},{"type":"Feature","properties":{"k":"PTR","s":0.37},"geometry":{"type":"Polygon","coordinates":[[[2.08986,50.62762],[2.08978,50.62655],[2.08937,50.62654],[2.08946,50.62776],[2.08986,50.62762]]]}},{"type":"Feature","properties":{"k":"BFS","s":0.039},"geometry":{"type":"Polygon","coordinates":[[[2.08715,50.62551],[2.08791,50.6273],[2.08869,50.62808],[2.08793,50.62729],[2.08717,50.62551],[2.08711,50.62493],[2.08715,50.62551]]]}},{"type":"Feature","properties":{"k":"MLG","s":9.18},"geometry":{"type":"Polygon","coordinates":[[[2.08389,50.62506],[2.0827,50.62679],[2.08433,50.6267],[2.08581,50.62825],[2.08653,50.62792],[2.08722,50.62858],[2.08869,50.62808],[2.08791,50.6273],[2.08715,50.62551],[2.08711,50.62493],[2.08389,50.62506]]]}},{"type":"Feature","properties":{"k":"MIS","s":0.494},"geometry":{"type":"Polygon","coordinates":[[[2.08461,50.627],[2.08433,50.6267],[2.0827,50.62679],[2.08241,50.62714],[2.08461,50.627]]]}},{"type":"Feature","properties":{"k":"PPH","s":0.381},"geometry":{"type":"Polygon","coordinates":[[[2.082,50.63432],[2.08272,50.63488],[2.08293,50.63384],[2.082,50.63432]]]}},{"type":"Feature","properties":{"k":"PPH","s":2.223},"geometry":{"type":"Polygon","coordinates":[[[2.08382,50.63319],[2.08306,50.63388],[2.08563,50.63513],[2.08639,50.63421],[2.08382,50.63319]]]}},{"type":"Feature","properties":{"k":"BTH","s":1.655},"geometry":{"type":"Polygon","coordinates":[[[2.08408,50.63535],[2.08508,50.63572],[2.08563,50.63513],[2.08306,50.63388],[2.08292,50.63458],[2.08408,50.63535]]]}},{"type":"Feature","properties":{"k":"PPH","s":1.05},"geometry":{"type":"Polygon","coordinates":[[[2.08336,50.6349],[2.08291,50.63459],[2.08274,50.6349],[2.08337,50.63582],[2.08444,50.63603],[2.08495,50.63596],[2.08508,50.63574],[2.08408,50.63537],[2.08336,50.6349]]]}},{"type":"Feature","properties":{"k":"PPH","s":0.998},"geometry":{"type":"Polygon","coordinates":[[[2.0807,50.63558],[2.08139,50.63603],[2.08287,50.63529],[2.08238,50.63476],[2.0807,50.63558]]]}},{"type":"Feature","properties":{"k":"PPH","s":0.694},"geometry":{"type":"Polygon","coordinates":[[[2.08177,50.63505],[2.08103,50.63461],[2.07999,50.63512],[2.08139,50.63606],[2.0807,50.63558],[2.08177,50.63505]]]}},{"type":"Feature","properties":{"k":"BTH","s":1.86},"geometry":{"type":"Polygon","coordinates":[[[2.10444,50.64964],[2.103,50.64728],[2.10213,50.64749],[2.10346,50.64975],[2.10444,50.64964]]]}},{"type":"Feature","properties":{"k":"BTH","s":4.354},"geometry":{"type":"Polygon","coordinates":[[[2.10015,50.64749],[2.10036,50.64854],[2.10096,50.64922],[2.10035,50.64951],[2.10145,50.64993],[2.10335,50.64964],[2.10204,50.64741],[2.10015,50.64749]]]}},{"type":"Feature","properties":{"k":"PPH","s":0.569},"geometry":{"type":"Polygon","coordinates":[[[2.09904,50.65015],[2.10058,50.64984],[2.09972,50.6493],[2.0993,50.64944],[2.09923,50.64981],[2.09886,50.64987],[2.09904,50.65015]]]}},{"type":"Feature","properties":{"k":"PPH","s":2.183},"geometry":{"type":"Polygon","coordinates":[[[2.10069,50.65034],[2.10071,50.64984],[2.09904,50.65015],[2.0988,50.64987],[2.09923,50.64981],[2.09927,50.64946],[2.09974,50.64929],[2.09948,50.64912],[2.09918,50.64915],[2.09925,50.64931],[2.09779,50.6497],[2.09746,50.64918],[2.09696,50.64918],[2.09771,50.6503],[2.09795,50.65025],[2.09822,50.65082],[2.10069,50.65034]]]}},{"type":"Feature","properties":{"k":"ORH","s":5.125},"geometry":{"type":"Polygon","coordinates":[[[2.09944,50.65361],[2.10084,50.65279],[2.09996,50.65187],[2.09935,50.65061],[2.09823,50.65082],[2.09843,50.65133],[2.09665,50.65177],[2.09758,50.65284],[2.09944,50.65361]]]}},{"type":"Feature","properties":{"k":"ORH","s":0.539},"geometry":{"type":"Polygon","coordinates":[[[2.0997,50.65054],[2.09935,50.65061],[2.10008,50.65202],[2.10054,50.65194],[2.0997,50.65054]]]}},{"type":"Feature","properties":{"k":"PPH","s":1.58},"geometry":{"type":"Polygon","coordinates":[[[2.10175,50.65314],[2.10184,50.65307],[2.10114,50.6527],[2.10147,50.65241],[2.10056,50.6518],[2.10138,50.65154],[2.10085,50.65094],[2.10066,50.65034],[2.0997,50.65054],[2.10054,50.65194],[2.10008,50.65202],[2.10073,50.65268],[2.10175,50.65314]]]}},{"type":"Feature","properties":{"k":"PPH","s":1.192},"geometry":{"type":"MultiPolygon","coordinates":[[[[2.10084,50.65279],[2.09944,50.65361],[2.10089,50.65395],[2.102,50.65332],[2.10084,50.65279]]],[[[2.09892,50.65346],[2.09905,50.65352],[2.09944,50.65361],[2.09892,50.65346]]]]}},{"type":"Feature","properties":{"k":"PPH","s":0.876},"geometry":{"type":"Polygon","coordinates":[[[2.1031,50.65393],[2.102,50.65332],[2.10089,50.65395],[2.10193,50.6542],[2.10219,50.65439],[2.1031,50.65393]]]}},{"type":"Feature","properties":{"k":"PPH","s":1.055},"geometry":{"type":"Polygon","coordinates":[[[2.10278,50.65413],[2.10225,50.65442],[2.10436,50.65592],[2.10482,50.65561],[2.10278,50.65413]]]}},{"type":"Feature","properties":{"k":"LIF","s":2.096},"geometry":{"type":"Polygon","coordinates":[[[2.12511,50.62084],[2.1265,50.62],[2.12597,50.6189],[2.12371,50.62005],[2.12511,50.62084]]]}},{"type":"Feature","properties":{"k":"MIS","s":1.825},"geometry":{"type":"Polygon","coordinates":[[[2.12597,50.6189],[2.12576,50.6185],[2.12538,50.61829],[2.12277,50.61962],[2.12359,50.62002],[2.12597,50.6189]]]}},{"type":"Feature","properties":{"k":"MIS","s":0.215},"geometry":{"type":"Polygon","coordinates":[[[2.10429,50.65601],[2.10317,50.65514],[2.10249,50.6547],[2.10427,50.65614],[2.10597,50.65691],[2.10429,50.65601]]]}},{"type":"Feature","properties":{"k":"MIS","s":0.004},"geometry":{"type":"Polygon","coordinates":[[[2.10681,50.65734],[2.10732,50.65756],[2.10734,50.65755],[2.10681,50.65734]]]}},{"type":"Feature","properties":{"k":"PTR","s":1.543},"geometry":{"type":"Polygon","coordinates":[[[2.11288,50.65825],[2.10863,50.65729],[2.10694,50.65666],[2.10654,50.65698],[2.11248,50.65851],[2.11288,50.65825]]]}},{"type":"Feature","properties":{"k":"BTH","s":0.021},"geometry":{"type":"MultiPolygon","coordinates":[[[[2.10898,50.65808],[2.10857,50.65798],[2.10954,50.65825],[2.10898,50.65808]]],[[[2.10734,50.65755],[2.10732,50.65756],[2.10812,50.65786],[2.10841,50.65794],[2.10734,50.65755]]]]}},{"type":"Feature","properties":{"k":"PPH","s":7.374},"geometry":{"type":"Polygon","coordinates":[[[2.1111,50.65647],[2.11057,50.65696],[2.10878,50.65649],[2.10723,50.6558],[2.10699,50.6561],[2.10574,50.65564],[2.10538,50.65584],[2.10487,50.65557],[2.10432,50.65594],[2.10599,50.65689],[2.10796,50.6577],[2.11195,50.65886],[2.11248,50.65851],[2.10654,50.65698],[2.10694,50.65666],[2.10916,50.65743],[2.11288,50.65825],[2.11306,50.65806],[2.1111,50.65647]]]}},{"type":"Feature","properties":{"k":"BTH","s":3.6},"geometry":{"type":"Polygon","coordinates":[[[2.10736,50.65583],[2.10721,50.65578],[2.10878,50.65649],[2.11057,50.65696],[2.1111,50.65647],[2.10902,50.65433],[2.10736,50.65583]]]}},{"type":"Feature","properties":{"k":"PPH","s":4.001},"geometry":{"type":"Polygon","coordinates":[[[2.10765,50.65381],[2.10745,50.65356],[2.10721,50.65363],[2.10679,50.65338],[2.10517,50.65459],[2.10736,50.65583],[2.10902,50.65433],[2.10817,50.6536],[2.10765,50.65381]]]}},{"type":"Feature","properties":{"k":"BTN","s":0.925},"geometry":{"type":"Polygon","coordinates":[[[2.10468,50.65424],[2.10496,50.65448],[2.10727,50.65297],[2.10681,50.65284],[2.10468,50.65424]]]}},{"type":"Feature","properties":{"k":"PPH","s":3.068},"geometry":{"type":"Polygon","coordinates":[[[2.10185,50.65316],[2.103,50.65384],[2.10362,50.65399],[2.10408,50.65372],[2.10468,50.65424],[2.10696,50.65274],[2.1065,50.65261],[2.10578,50.65274],[2.10409,50.65368],[2.10245,50.65261],[2.10137,50.65156],[2.10058,50.6518],[2.10218,50.65283],[2.10185,50.65316]]]}},{"type":"Feature","properties":{"k":"BTH","s":7.661},"geometry":{"type":"Polygon","coordinates":[[[2.10249,50.65261],[2.1041,50.65367],[2.10575,50.65274],[2.10668,50.6526],[2.10567,50.6518],[2.10523,50.65198],[2.10263,50.64989],[2.10138,50.64999],[2.10178,50.65022],[2.10151,50.65046],[2.10178,50.65066],[2.10085,50.65094],[2.10249,50.65261]],[[2.10626,50.6523],[2.1065,50.65248],[2.10646,50.6525],[2.10626,50.6523]]]}},{"type":"Feature","properties":{"k":"PPH","s":2.265},"geometry":{"type":"Polygon","coordinates":[[[2.10772,50.65243],[2.10733,50.65232],[2.10749,50.65212],[2.10845,50.65158],[2.108,50.65066],[2.10567,50.65179],[2.10664,50.65257],[2.10736,50.65282],[2.10772,50.65243]]]}},{"type":"Feature","properties":{"k":"PPH","s":0.949},"geometry":{"type":"Polygon","coordinates":[[[2.10841,50.65174],[2.10837,50.65196],[2.1086,50.65214],[2.1081,50.65224],[2.10806,50.65259],[2.10829,50.65257],[2.10836,50.65275],[2.10783,50.6528],[2.10791,50.65301],[2.10842,50.65305],[2.10938,50.65288],[2.10959,50.65284],[2.10865,50.65166],[2.10841,50.65174]]]}},{"type":"Feature","properties":{"k":"MIS","s":8.454},"geometry":{"type":"Polygon","coordinates":[[[2.1116,50.65463],[2.11259,50.65431],[2.11536,50.65266],[2.11446,50.65237],[2.11338,50.65108],[2.11214,50.65],[2.11073,50.65089],[2.11157,50.65241],[2.11102,50.65311],[2.1116,50.65463]]]}},{"type":"Feature","properties":{"k":"PTR","s":0.151},"geometry":{"type":"Polygon","coordinates":[[[2.1109,50.65256],[2.11104,50.65311],[2.11137,50.65266],[2.11157,50.65241],[2.1109,50.65256]]]}},{"type":"Feature","properties":{"k":"PPH","s":1.784},"geometry":{"type":"Polygon","coordinates":[[[2.11012,50.65302],[2.10862,50.65337],[2.10888,50.65365],[2.11104,50.65311],[2.1109,50.65256],[2.11157,50.65241],[2.11136,50.65202],[2.11094,50.65207],[2.11064,50.65153],[2.11003,50.65171],[2.11014,50.65194],[2.10952,50.65219],[2.11012,50.65302]]]}},{"type":"Feature","properties":{"k":"PPH","s":2.002},"geometry":{"type":"Polygon","coordinates":[[[2.1116,50.65463],[2.11102,50.65311],[2.10848,50.6538],[2.10918,50.65434],[2.1104,50.65401],[2.11083,50.65488],[2.1116,50.65463]]]}},{"type":"Feature","properties":{"k":"BTH","s":9.23},"geometry":{"type":"Polygon","coordinates":[[[2.11743,50.65273],[2.11534,50.65266],[2.11259,50.65431],[2.1116,50.65463],[2.11369,50.6564],[2.11855,50.65305],[2.11743,50.65273]]]}},{"type":"Feature","properties":{"k":"MIS","s":5.827},"geometry":{"type":"Polygon","coordinates":[[[2.12006,50.65344],[2.122,50.65234],[2.11888,50.6509],[2.11584,50.65261],[2.1176,50.65269],[2.12006,50.65344]]]}},{"type":"Feature","properties":{"k":"ORH","s":0.014},"geometry":{"type":"Polygon","coordinates":[[[2.12159,50.65209],[2.12289,50.65136],[2.12288,50.65135],[2.12159,50.65209]]]}},{"type":"Feature","properties":{"k":"MIS","s":2.625},"geometry":{"type":"Polygon","coordinates":[[[2.12165,50.65423],[2.12361,50.65309],[2.12203,50.65235],[2.12005,50.65345],[2.12165,50.65423]]]}},{"type":"Feature","properties":{"k":"PTC","s":1.274},"geometry":{"type":"Polygon","coordinates":[[[2.11986,50.65548],[2.12158,50.65426],[2.12083,50.65386],[2.11921,50.65497],[2.11986,50.65548]]]}},{"type":"Feature","properties":{"k":"MIS","s":6.934},"geometry":{"type":"Polygon","coordinates":[[[2.11855,50.65305],[2.11369,50.6564],[2.11466,50.65716],[2.11858,50.65449],[2.11921,50.65497],[2.12083,50.65386],[2.11855,50.65305]]]}},{"type":"Feature","properties":{"k":"ORP","s":7.924},"geometry":{"type":"Polygon","coordinates":[[[2.10685,50.6406],[2.10219,50.64094],[2.10325,50.64338],[2.10665,50.64313],[2.10685,50.6406]]]}},{"type":"Feature","properties":{"k":"BTH","s":10.295},"geometry":{"type":"Polygon","coordinates":[[[2.10714,50.64148],[2.10676,50.64157],[2.10682,50.64272],[2.10627,50.64582],[2.10986,50.64589],[2.109,50.64106],[2.10676,50.64155],[2.10714,50.64148]]]}},{"type":"Feature","properties":{"k":"PPH","s":0.72},"geometry":{"type":"Polygon","coordinates":[[[2.1139,50.62039],[2.11397,50.62061],[2.11532,50.62051],[2.11488,50.62024],[2.11532,50.62004],[2.1147,50.61957],[2.1139,50.62039]]]}},{"type":"Feature","properties":{"k":"BTN","s":2.719},"geometry":{"type":"Polygon","coordinates":[[[2.10233,50.6401],[2.10256,50.64091],[2.10649,50.64063],[2.10651,50.63976],[2.10233,50.6401]]]}},{"type":"Feature","properties":{"k":"PPH","s":2.916},"geometry":{"type":"Polygon","coordinates":[[[2.09598,50.63616],[2.09565,50.63624],[2.09453,50.63434],[2.09353,50.63372],[2.09341,50.63378],[2.09491,50.63639],[2.0962,50.63791],[2.09722,50.63766],[2.09598,50.63616]]]}},{"type":"Feature","properties":{"k":"BTH","s":1.801},"geometry":{"type":"Polygon","coordinates":[[[2.10041,50.64377],[2.10121,50.64357],[2.09849,50.64113],[2.09785,50.64133],[2.10041,50.64377]]]}},{"type":"Feature","properties":{"k":"PTR","s":2.771},"geometry":{"type":"Polygon","coordinates":[[[2.12676,50.63098],[2.12717,50.63089],[2.12653,50.62998],[2.1268,50.62989],[2.12565,50.62838],[2.12597,50.6283],[2.12441,50.62638],[2.12356,50.62667],[2.12577,50.6294],[2.12676,50.63098]]]}},{"type":"Feature","properties":{"k":"ORH","s":3.976},"geometry":{"type":"Polygon","coordinates":[[[2.10126,50.64353],[2.10325,50.64338],[2.10244,50.64152],[2.0993,50.64171],[2.10126,50.64353]]]}},{"type":"Feature","properties":{"k":"BTH","s":1.964},"geometry":{"type":"Polygon","coordinates":[[[2.09845,50.62291],[2.09736,50.62319],[2.09863,50.62515],[2.09972,50.62492],[2.09845,50.62291]]]}},{"type":"Feature","properties":{"k":"PPH","s":1.409},"geometry":{"type":"Polygon","coordinates":[[[2.12157,50.62111],[2.11982,50.61943],[2.11954,50.61963],[2.11931,50.6196],[2.11883,50.61933],[2.11781,50.61906],[2.11922,50.62031],[2.1201,50.62007],[2.12125,50.62124],[2.12157,50.62111]]]}},{"type":"Feature","properties":{"k":"MIS","s":8.089},"geometry":{"type":"Polygon","coordinates":[[[2.10139,50.62785],[2.10019,50.62491],[2.09641,50.62573],[2.09802,50.62822],[2.09949,50.62798],[2.09953,50.62768],[2.10139,50.62785]]]}},{"type":"Feature","properties":{"k":"PTR","s":5.935},"geometry":{"type":"Polygon","coordinates":[[[2.10129,50.62727],[2.10449,50.62742],[2.10399,50.62586],[2.10311,50.62593],[2.10268,50.62462],[2.10032,50.62494],[2.10129,50.62727]]]}},{"type":"Feature","properties":{"k":"PPH","s":4.941},"geometry":{"type":"Polygon","coordinates":[[[2.10959,50.62459],[2.10925,50.62412],[2.10942,50.62388],[2.10882,50.6235],[2.10766,50.62404],[2.10268,50.62462],[2.10311,50.62593],[2.10399,50.62586],[2.10378,50.62534],[2.10959,50.62459]],[[2.10351,50.62477],[2.10343,50.62477],[2.1034,50.62468],[2.10351,50.62477]]]}},{"type":"Feature","properties":{"k":"BTH","s":2.286},"geometry":{"type":"Polygon","coordinates":[[[2.10604,50.62752],[2.10628,50.62748],[2.10568,50.62576],[2.10399,50.62586],[2.10449,50.62742],[2.10604,50.62752]],[[2.10622,50.62741],[2.10623,50.62746],[2.10601,50.62748],[2.10622,50.62741]]]}},{"type":"Feature","properties":{"k":"MIS","s":4.117},"geometry":{"type":"Polygon","coordinates":[[[2.10613,50.62822],[2.10992,50.62758],[2.10981,50.6271],[2.10601,50.62755],[2.1012,50.62733],[2.10146,50.62797],[2.10613,50.62822]]]}},{"type":"Feature","properties":{"k":"MIS","s":5.449},"geometry":{"type":"Polygon","coordinates":[[[2.10964,50.62583],[2.10949,50.62553],[2.10568,50.62576],[2.10628,50.62748],[2.11061,50.627],[2.11015,50.62577],[2.10964,50.62583]]]}},{"type":"Feature","properties":{"k":"PPH","s":5.001},"geometry":{"type":"Polygon","coordinates":[[[2.10378,50.62534],[2.10399,50.62586],[2.10949,50.62553],[2.10964,50.62583],[2.11015,50.62577],[2.1106,50.62553],[2.11015,50.62493],[2.11036,50.62488],[2.11063,50.62503],[2.11245,50.62444],[2.11217,50.62403],[2.10969,50.62462],[2.10378,50.62534]]]}},{"type":"Feature","properties":{"k":"PPH","s":0.179},"geometry":{"type":"Polygon","coordinates":[[[2.10958,50.62391],[2.10935,50.62412],[2.10968,50.62457],[2.11008,50.62451],[2.10958,50.62391]]]}},{"type":"Feature","properties":{"k":"AME","s":0.109},"geometry":{"type":"Polygon","coordinates":[[[2.11055,50.6244],[2.11037,50.62416],[2.10988,50.62427],[2.11008,50.62451],[2.11055,50.6244]]]}},{"type":"Feature","properties":{"k":"PPH","s":1.076},"geometry":{"type":"Polygon","coordinates":[[[2.10958,50.62382],[2.11156,50.62338],[2.11177,50.62332],[2.11156,50.62276],[2.10914,50.6235],[2.10958,50.62382]]]}},{"type":"Feature","properties":{"k":"PPH","s":0.695},"geometry":{"type":"Polygon","coordinates":[[[2.11717,50.61951],[2.11793,50.61924],[2.11677,50.61851],[2.11656,50.61867],[2.11632,50.61856],[2.11617,50.61877],[2.11717,50.61951]]]}},{"type":"Feature","properties":{"k":"PPH","s":0.585},"geometry":{"type":"Polygon","coordinates":[[[2.10922,50.62243],[2.10921,50.6232],[2.11041,50.62285],[2.10994,50.6222],[2.10922,50.62243]]]}},{"type":"Feature","properties":{"k":"BTH","s":3.378},"geometry":{"type":"Polygon","coordinates":[[[2.1071,50.62394],[2.10768,50.62391],[2.10854,50.62346],[2.10905,50.62344],[2.10886,50.62158],[2.10825,50.62169],[2.10816,50.62155],[2.10678,50.62186],[2.1071,50.62394]]]}},{"type":"Feature","properties":{"k":"PPH","s":0.903},"geometry":{"type":"Polygon","coordinates":[[[2.09806,50.63639],[2.10002,50.63562],[2.09951,50.63524],[2.09764,50.63589],[2.09806,50.63639]]]}},{"type":"Feature","properties":{"k":"PPH","s":0.909},"geometry":{"type":"Polygon","coordinates":[[[2.09883,50.63727],[2.09983,50.63693],[2.09905,50.63605],[2.09805,50.6364],[2.09883,50.63727]]]}},{"type":"Feature","properties":{"k":"PPH","s":0.781},"geometry":{"type":"Polygon","coordinates":[[[2.10189,50.63653],[2.10167,50.63658],[2.10138,50.63607],[2.10086,50.63636],[2.10031,50.637],[2.1006,50.63721],[2.10199,50.63687],[2.10189,50.63653]]]}},{"type":"Feature","properties":{"k":"ORH","s":2.217},"geometry":{"type":"Polygon","coordinates":[[[2.10182,50.63802],[2.10381,50.63735],[2.10325,50.6363],[2.10256,50.63654],[2.10191,50.63655],[2.10199,50.63687],[2.10061,50.63721],[2.10182,50.63802]]]}},{"type":"Feature","properties":{"k":"ORH","s":5.038},"geometry":{"type":"Polygon","coordinates":[[[2.09957,50.63908],[2.10736,50.63842],[2.10774,50.63772],[2.10532,50.63813],[2.10424,50.63701],[2.10372,50.63718],[2.10381,50.63735],[2.10182,50.63802],[2.09957,50.63908]]]}},{"type":"Feature","properties":{"k":"PPH","s":6.096},"geometry":{"type":"Polygon","coordinates":[[[2.09982,50.63944],[2.0989,50.63951],[2.09921,50.63995],[2.10176,50.63995],[2.10707,50.63951],[2.10746,50.63842],[2.09957,50.63911],[2.09982,50.63944]],[[2.10107,50.63958],[2.10102,50.6395],[2.10498,50.63909],[2.10107,50.63958]]]}},{"type":"Feature","properties":{"k":"PTR","s":4.306},"geometry":{"type":"Polygon","coordinates":[[[2.09742,50.63779],[2.09743,50.63838],[2.09923,50.63915],[2.10177,50.63804],[2.10006,50.63693],[2.09742,50.63779]]]}},{"type":"Feature","properties":{"k":"PPH","s":1.274},"geometry":{"type":"Polygon","coordinates":[[[2.1133,50.61697],[2.11299,50.61696],[2.11272,50.61723],[2.11241,50.61902],[2.11365,50.61865],[2.1133,50.61697]]]}},{"type":"Feature","properties":{"k":"PPH","s":1.905},"geometry":{"type":"Polygon","coordinates":[[[2.09921,50.63995],[2.09734,50.64014],[2.09812,50.64065],[2.10198,50.64046],[2.10176,50.63995],[2.09921,50.63995]]]}},{"type":"Feature","properties":{"k":"BTH","s":3.065},"geometry":{"type":"Polygon","coordinates":[[[2.11594,50.62043],[2.1178,50.62011],[2.1155,50.61832],[2.11395,50.61861],[2.11594,50.62043]]]}},{"type":"Feature","properties":{"k":"BTH","s":4.547},"geometry":{"type":"Polygon","coordinates":[[[2.12241,50.62936],[2.12382,50.63163],[2.12584,50.63114],[2.1246,50.62966],[2.12344,50.62975],[2.12267,50.62883],[2.12307,50.62875],[2.12255,50.62805],[2.12217,50.62815],[2.12152,50.62735],[2.12089,50.62753],[2.12241,50.62936]]]}},{"type":"Feature","properties":{"k":"PTR","s":5.533},"geometry":{"type":"Polygon","coordinates":[[[2.09482,50.63842],[2.09562,50.63813],[2.09484,50.63728],[2.09105,50.63437],[2.08963,50.63516],[2.09482,50.63842]]]}},{"type":"Feature","properties":{"k":"PPH","s":3.369},"geometry":{"type":"Polygon","coordinates":[[[2.09885,50.63947],[2.09923,50.63914],[2.09743,50.63838],[2.0953,50.63866],[2.0956,50.63906],[2.09707,50.64007],[2.09921,50.63995],[2.09885,50.63947]]]}},{"type":"Feature","properties":{"k":"BTH","s":2.999},"geometry":{"type":"Polygon","coordinates":[[[2.09923,50.64165],[2.10244,50.64152],[2.10198,50.64046],[2.09812,50.64065],[2.09923,50.64165]]]}},{"type":"Feature","properties":{"k":"PPH","s":1.478},"geometry":{"type":"Polygon","coordinates":[[[2.11239,50.61903],[2.11237,50.61957],[2.1127,50.61987],[2.11323,50.61969],[2.11403,50.62016],[2.1145,50.61968],[2.11396,50.61938],[2.11434,50.61923],[2.11366,50.61866],[2.11239,50.61903]]]}},{"type":"Feature","properties":{"k":"BTH","s":0.461},"geometry":{"type":"Polygon","coordinates":[[[2.08447,50.64419],[2.0846,50.64393],[2.08243,50.6438],[2.0822,50.64397],[2.08131,50.6439],[2.08447,50.64419]]]}},{"type":"Feature","properties":{"k":"MIS","s":1.5},"geometry":{"type":"Polygon","coordinates":[[[2.10223,50.63987],[2.10177,50.63997],[2.10219,50.64094],[2.10256,50.64091],[2.10233,50.6401],[2.10651,50.63976],[2.10649,50.64063],[2.10685,50.6406],[2.10711,50.63956],[2.10223,50.63987]]]}},{"type":"Feature","properties":{"k":"BTH","s":0.004},"geometry":{"type":"MultiPolygon","coordinates":[]}},{"type":"Feature","properties":{"k":"PPH","s":6.563},"geometry":{"type":"MultiPolygon","coordinates":[[[[2.07875,50.64365],[2.0792,50.64316],[2.07717,50.64281],[2.0793,50.64309],[2.08028,50.64212],[2.07652,50.64193],[2.07551,50.64312],[2.07681,50.64349],[2.07875,50.64365]]],[[[2.07964,50.64058],[2.08095,50.63876],[2.07951,50.63884],[2.07859,50.63925],[2.07773,50.6394],[2.07927,50.64051],[2.07964,50.64058]]]]}},{"type":"Feature","properties":{"k":"ORH","s":0.002},"geometry":{"type":"Polygon","coordinates":[[[2.12801,50.62319],[2.12811,50.62329],[2.12788,50.62302],[2.12801,50.62319]]]}},{"type":"Feature","properties":{"k":"MIS","s":2.612},"geometry":{"type":"Polygon","coordinates":[[[2.12631,50.63464],[2.12661,50.63451],[2.12478,50.63145],[2.1235,50.6318],[2.12414,50.6327],[2.12631,50.63464]]]}},{"type":"Feature","properties":{"k":"PTR","s":2.608},"geometry":{"type":"Polygon","coordinates":[[[2.1234,50.63246],[2.12308,50.63252],[2.12443,50.63404],[2.12308,50.63256],[2.12231,50.63268],[2.12421,50.6344],[2.1249,50.63402],[2.12451,50.63362],[2.12556,50.63448],[2.12585,50.63433],[2.12437,50.633],[2.1235,50.6318],[2.12332,50.63195],[2.1234,50.63246]]]}},{"type":"Feature","properties":{"k":"ORH","s":5.508},"geometry":{"type":"Polygon","coordinates":[[[2.12483,50.63154],[2.12652,50.63442],[2.12749,50.63528],[2.12892,50.63497],[2.12807,50.63413],[2.12825,50.63406],[2.12709,50.63204],[2.12622,50.63122],[2.12483,50.63154]]]}},{"type":"Feature","properties":{"k":"PTR","s":0.479},"geometry":{"type":"Polygon","coordinates":[[[2.12769,50.63232],[2.1271,50.63203],[2.12827,50.63406],[2.1285,50.63399],[2.12769,50.63232]]]}},{"type":"Feature","properties":{"k":"CZH","s":3.464},"geometry":{"type":"Polygon","coordinates":[[[2.09659,50.63466],[2.09571,50.63498],[2.09598,50.63616],[2.09722,50.63766],[2.0988,50.63727],[2.09659,50.63466]]]}},{"type":"Feature","properties":{"k":"PPH","s":0.517},"geometry":{"type":"Polygon","coordinates":[[[2.08179,50.63629],[2.08319,50.63562],[2.08289,50.63529],[2.08142,50.63603],[2.08179,50.63629]]]}},{"type":"Feature","properties":{"k":"PPH","s":2.434},"geometry":{"type":"Polygon","coordinates":[[[2.0791,50.63889],[2.07972,50.63874],[2.07976,50.63846],[2.08014,50.63851],[2.08007,50.63805],[2.0808,50.63806],[2.08151,50.63809],[2.08169,50.63847],[2.08201,50.63834],[2.08208,50.63852],[2.08245,50.63858],[2.08256,50.63845],[2.08302,50.63876],[2.08358,50.63864],[2.08379,50.63876],[2.08351,50.63909],[2.08372,50.6392],[2.08406,50.63881],[2.08511,50.63916],[2.08542,50.63899],[2.08547,50.63868],[2.08269,50.63771],[2.08206,50.63807],[2.07943,50.63803],[2.0791,50.63889]]]}},{"type":"Feature","properties":{"k":"PPH","s":1.074},"geometry":{"type":"Polygon","coordinates":[[[2.08143,50.63998],[2.08177,50.6394],[2.08201,50.63946],[2.08248,50.63899],[2.08098,50.63875],[2.08041,50.63972],[2.08143,50.63998]]]}},{"type":"Feature","properties":{"k":"ORP","s":0.462},"geometry":{"type":"Polygon","coordinates":[[[2.12692,50.63186],[2.12746,50.63204],[2.12759,50.63194],[2.12681,50.63109],[2.1263,50.63111],[2.12692,50.63186]]]}},{"type":"Feature","properties":{"k":"BTH","s":0.004},"geometry":{"type":"Polygon","coordinates":[[[2.08449,50.64419],[2.08451,50.64419],[2.0846,50.64391],[2.08449,50.64419]]]}},{"type":"Feature","properties":{"k":"MIS","s":6.525},"geometry":{"type":"Polygon","coordinates":[[[2.12217,50.62815],[2.12255,50.62805],[2.12307,50.62875],[2.12267,50.62883],[2.12344,50.62975],[2.1246,50.62966],[2.12573,50.63116],[2.12676,50.63098],[2.12577,50.6294],[2.12356,50.62667],[2.12152,50.62735],[2.12217,50.62815]]]}},{"type":"Feature","properties":{"k":"PPH","s":2.168},"geometry":{"type":"Polygon","coordinates":[[[2.12734,50.62841],[2.12925,50.63141],[2.13006,50.63117],[2.12782,50.62802],[2.12754,50.62812],[2.12765,50.62831],[2.12734,50.62841]]]}},{"type":"Feature","properties":{"k":"PPH","s":0.594},"geometry":{"type":"Polygon","coordinates":[[[2.12934,50.63278],[2.12873,50.633],[2.12986,50.63392],[2.13085,50.63432],[2.12988,50.63356],[2.12934,50.63278]]]}},{"type":"Feature","properties":{"k":"MIS","s":4.807},"geometry":{"type":"Polygon","coordinates":[[[2.07927,50.64051],[2.07829,50.63983],[2.07652,50.64193],[2.08028,50.64212],[2.0814,50.64088],[2.07927,50.64051]]]}},{"type":"Feature","properties":{"k":"BTH","s":0.0},"geometry":{"type":"Polygon","coordinates":[]}},{"type":"Feature","properties":{"k":"PPH","s":6.057},"geometry":{"type":"Polygon","coordinates":[[[2.08143,50.64088],[2.08194,50.64039],[2.08781,50.64132],[2.08647,50.64108],[2.08716,50.64041],[2.0825,50.63898],[2.08201,50.63945],[2.08178,50.6394],[2.08143,50.64001],[2.08036,50.63975],[2.07967,50.64054],[2.08143,50.64088]],[[2.08333,50.63964],[2.08305,50.63991],[2.08281,50.63977],[2.08309,50.63952],[2.08333,50.63964]]]}},{"type":"Feature","properties":{"k":"PTR","s":3.225},"geometry":{"type":"Polygon","coordinates":[[[2.08548,50.64128],[2.08271,50.64195],[2.08038,50.64201],[2.08007,50.64235],[2.08243,50.64276],[2.08307,50.64209],[2.0844,50.64209],[2.0849,50.64167],[2.08902,50.64243],[2.08908,50.64201],[2.08548,50.64128]]]}},{"type":"Feature","properties":{"k":"PPH","s":1.226},"geometry":{"type":"Polygon","coordinates":[[[2.1254,50.62487],[2.12469,50.62526],[2.12616,50.62686],[2.12678,50.62666],[2.12544,50.62527],[2.1257,50.62518],[2.12545,50.6248],[2.12637,50.62453],[2.12626,50.62442],[2.1253,50.62469],[2.1254,50.62487]]]}},{"type":"Feature","properties":{"k":"BTH","s":2.329},"geometry":{"type":"Polygon","coordinates":[[[2.07948,50.637],[2.08138,50.63606],[2.08,50.63513],[2.07824,50.63621],[2.07948,50.637]]]}},{"type":"Feature","properties":{"k":"PPH","s":2.804},"geometry":{"type":"Polygon","coordinates":[[[2.1144,50.61794],[2.11525,50.6179],[2.11756,50.61879],[2.11641,50.61772],[2.11579,50.61672],[2.11488,50.61684],[2.11449,50.61635],[2.11446,50.61645],[2.1137,50.6165],[2.1138,50.61677],[2.11341,50.61687],[2.11362,50.61811],[2.1138,50.61806],[2.1137,50.61764],[2.11397,50.61749],[2.11456,50.61772],[2.1144,50.61794]]]}},{"type":"Feature","properties":{"k":"ORH","s":0.003},"geometry":{"type":"Polygon","coordinates":[[[2.11666,50.6166],[2.11678,50.61661],[2.11614,50.61647],[2.11666,50.6166]]]}},{"type":"Feature","properties":{"k":"PTR","s":4.75},"geometry":{"type":"MultiPolygon","coordinates":[[[[2.09748,50.64025],[2.09683,50.64006],[2.0949,50.63863],[2.09439,50.63872],[2.09286,50.63946],[2.09497,50.64104],[2.09746,50.64393],[2.09876,50.64363],[2.09887,50.64353],[2.09814,50.64376],[2.09729,50.64299],[2.09716,50.64301],[2.09536,50.64103],[2.09572,50.64091],[2.09476,50.64007],[2.09563,50.6397],[2.0966,50.64059],[2.09748,50.64025]]],[[[2.09789,50.64266],[2.09724,50.64294],[2.0979,50.64267],[2.09789,50.64266]]],[[[2.09723,50.64295],[2.09729,50.64299],[2.09724,50.64294],[2.09723,50.64295]]]]}},{"type":"Feature","properties":{"k":"BTH","s":3.003},"geometry":{"type":"Polygon","coordinates":[[[2.09435,50.6414],[2.092,50.63991],[2.09069,50.64096],[2.09359,50.64207],[2.09428,50.64179],[2.09403,50.64155],[2.09435,50.6414]]]}},{"type":"Feature","properties":{"k":"BTH","s":3.139},"geometry":{"type":"Polygon","coordinates":[[[2.08917,50.64203],[2.09211,50.64269],[2.09359,50.64207],[2.09069,50.64096],[2.08917,50.64203]]]}},{"type":"Feature","properties":{"k":"ORH","s":1.479},"geometry":{"type":"Polygon","coordinates":[[[2.08988,50.64364],[2.09152,50.6426],[2.08917,50.64203],[2.08909,50.64249],[2.08988,50.64364]]]}},{"type":"Feature","properties":{"k":"ORH","s":0.864},"geometry":{"type":"Polygon","coordinates":[[[2.08732,50.64235],[2.08798,50.64262],[2.08868,50.64338],[2.08934,50.64301],[2.08902,50.64243],[2.0877,50.64213],[2.08732,50.64235]]]}},{"type":"Feature","properties":{"k":"PPH","s":5.831},"geometry":{"type":"Polygon","coordinates":[[[2.08678,50.64272],[2.08709,50.64255],[2.08775,50.64275],[2.08781,50.64309],[2.08853,50.64344],[2.08632,50.64462],[2.08811,50.64488],[2.08836,50.64415],[2.09009,50.64405],[2.08934,50.64301],[2.08868,50.64338],[2.08798,50.64262],[2.08732,50.64235],[2.08771,50.64213],[2.0849,50.64167],[2.0844,50.64209],[2.08307,50.64209],[2.08243,50.64276],[2.08321,50.6429],[2.08301,50.64306],[2.08491,50.64319],[2.08571,50.64264],[2.08678,50.64272]]]}},{"type":"Feature","properties":{"k":"PPH","s":1.358},"geometry":{"type":"Polygon","coordinates":[[[2.08539,50.64401],[2.08667,50.64306],[2.08622,50.64291],[2.08634,50.64273],[2.08571,50.64264],[2.08406,50.64383],[2.08539,50.64401]]]}},{"type":"Feature","properties":{"k":"BTH","s":0.71},"geometry":{"type":"Polygon","coordinates":[[[2.08781,50.64132],[2.08826,50.64078],[2.08716,50.6404],[2.08649,50.64107],[2.08781,50.64132]]]}},{"type":"Feature","properties":{"k":"BTH","s":5.859},"geometry":{"type":"Polygon","coordinates":[[[2.08997,50.6413],[2.08828,50.64079],[2.08781,50.64131],[2.08939,50.64166],[2.08194,50.64039],[2.08038,50.64201],[2.08271,50.64195],[2.08473,50.64153],[2.08481,50.6415],[2.08548,50.64128],[2.08914,50.64193],[2.08997,50.6413]]]}},{"type":"Feature","properties":{"k":"MIS","s":7.29},"geometry":{"type":"Polygon","coordinates":[[[2.09014,50.64122],[2.09187,50.6399],[2.09432,50.63868],[2.09147,50.63794],[2.0901,50.63909],[2.08973,50.63901],[2.08764,50.6405],[2.09014,50.64122]]]}},{"type":"Feature","properties":{"k":"PPH","s":10.561},"geometry":{"type":"Polygon","coordinates":[[[2.09187,50.63666],[2.09039,50.63786],[2.08918,50.63765],[2.08903,50.63779],[2.08633,50.6372],[2.08436,50.63819],[2.08548,50.63867],[2.08796,50.63938],[2.08674,50.64019],[2.08764,50.6405],[2.08973,50.63901],[2.0901,50.63909],[2.09147,50.63794],[2.09432,50.63868],[2.09484,50.63858],[2.09187,50.63666]]]}},{"type":"Feature","properties":{"k":"PPH","s":3.816},"geometry":{"type":"Polygon","coordinates":[[[2.08495,50.63596],[2.08442,50.63604],[2.08339,50.63583],[2.08343,50.6379],[2.08433,50.63817],[2.08537,50.63771],[2.08492,50.63743],[2.08495,50.63689],[2.08529,50.63638],[2.08691,50.63684],[2.0877,50.6364],[2.08514,50.63569],[2.08495,50.63596]]]}},{"type":"Feature","properties":{"k":"PPH","s":0.752},"geometry":{"type":"Polygon","coordinates":[[[2.08495,50.63699],[2.0861,50.63731],[2.08692,50.63684],[2.0853,50.63641],[2.08495,50.63699]]]}},{"type":"Feature","properties":{"k":"BTH","s":2.593},"geometry":{"type":"Polygon","coordinates":[[[2.08877,50.63475],[2.08705,50.63621],[2.08879,50.63679],[2.09023,50.63557],[2.08877,50.63475]]]}},{"type":"Feature","properties":{"k":"PPH","s":3.268},"geometry":{"type":"Polygon","coordinates":[[[2.09039,50.63786],[2.09097,50.6374],[2.09029,50.63721],[2.09137,50.63635],[2.09101,50.63603],[2.09088,50.63595],[2.08956,50.637],[2.08757,50.63647],[2.0863,50.6372],[2.08848,50.63767],[2.09039,50.63786]]]}},{"type":"Feature","properties":{"k":"MIS","s":10.181},"geometry":{"type":"Polygon","coordinates":[[[2.12337,50.64274],[2.12485,50.6427],[2.12612,50.64233],[2.12592,50.64171],[2.12459,50.64044],[2.11992,50.64208],[2.11869,50.64058],[2.11841,50.64065],[2.11849,50.64107],[2.11814,50.64124],[2.12014,50.64371],[2.12337,50.64274]],[[2.11949,50.64169],[2.1199,50.64207],[2.11984,50.64209],[2.11949,50.64169]]]}},{"type":"Feature","properties":{"k":"BTH","s":4.852},"geometry":{"type":"Polygon","coordinates":[[[2.11615,50.6419],[2.11815,50.64434],[2.12014,50.64371],[2.11814,50.64124],[2.11615,50.6419]]]}},{"type":"Feature","properties":{"k":"ORH","s":1.699},"geometry":{"type":"Polygon","coordinates":[[[2.11551,50.64212],[2.11732,50.6445],[2.11815,50.64434],[2.11604,50.64193],[2.11551,50.64212]]]}},{"type":"Feature","properties":{"k":"ORP","s":3.353},"geometry":{"type":"Polygon","coordinates":[[[2.11398,50.64271],[2.11531,50.64455],[2.11732,50.6445],[2.11551,50.64212],[2.11398,50.64271]]]}},{"type":"Feature","properties":{"k":"ORH","s":9.372},"geometry":{"type":"Polygon","coordinates":[[[2.10992,50.64052],[2.11272,50.64314],[2.11378,50.64273],[2.11251,50.64168],[2.11403,50.64091],[2.11793,50.64],[2.11739,50.63909],[2.11517,50.63936],[2.11026,50.64032],[2.10992,50.64052]]]}},{"type":"Feature","properties":{"k":"MIS","s":7.508},"geometry":{"type":"Polygon","coordinates":[[[2.11272,50.64314],[2.1099,50.6405],[2.10898,50.64102],[2.1099,50.64585],[2.11104,50.64577],[2.11092,50.64363],[2.11272,50.64314]]]}},{"type":"Feature","properties":{"k":"PTR","s":4.002},"geometry":{"type":"Polygon","coordinates":[[[2.11417,50.64872],[2.11327,50.64576],[2.11159,50.64588],[2.11257,50.64891],[2.11417,50.64872]]]}},{"type":"Feature","properties":{"k":"MIS","s":2.995},"geometry":{"type":"Polygon","coordinates":[[[2.11444,50.64868],[2.11531,50.6479],[2.11498,50.6458],[2.11327,50.64576],[2.11417,50.64872],[2.11444,50.64868]]]}},{"type":"Feature","properties":{"k":"PPH","s":1.928},"geometry":{"type":"Polygon","coordinates":[[[2.11516,50.6473],[2.11554,50.64779],[2.11764,50.6458],[2.11582,50.64577],[2.11516,50.6473]]]}},{"type":"Feature","properties":{"k":"PTR","s":2.136},"geometry":{"type":"Polygon","coordinates":[[[2.11378,50.64564],[2.11767,50.64568],[2.11867,50.64499],[2.11409,50.64537],[2.11129,50.64545],[2.11136,50.64579],[2.11378,50.64564]],[[2.11784,50.64548],[2.1177,50.64546],[2.11784,50.64533],[2.11784,50.64548]]]}},{"type":"Feature","properties":{"k":"PTR","s":1.971},"geometry":{"type":"Polygon","coordinates":[[[2.11398,50.64271],[2.11275,50.6432],[2.11373,50.64455],[2.11531,50.64455],[2.11426,50.64311],[2.11412,50.64313],[2.11398,50.64271]]]}},{"type":"Feature","properties":{"k":"PPH","s":7.031},"geometry":{"type":"Polygon","coordinates":[[[2.11406,50.64536],[2.11872,50.64497],[2.1212,50.64431],[2.12266,50.6437],[2.12364,50.64307],[2.12468,50.64273],[2.12308,50.64285],[2.11723,50.64461],[2.11377,50.64473],[2.11112,50.64452],[2.11127,50.64545],[2.11406,50.64536]]]}},{"type":"Feature","properties":{"k":"MIS","s":6.079},"geometry":{"type":"Polygon","coordinates":[[[2.12107,50.64448],[2.11886,50.645],[2.11787,50.64569],[2.12526,50.64579],[2.12266,50.64381],[2.12107,50.64448]]]}},{"type":"Feature","properties":{"k":"BTH","s":5.448},"geometry":{"type":"Polygon","coordinates":[[[2.11858,50.64676],[2.11847,50.64714],[2.12314,50.64706],[2.12311,50.64584],[2.11775,50.6458],[2.11706,50.64652],[2.11858,50.64676]]]}},{"type":"Feature","properties":{"k":"PPH","s":1.134},"geometry":{"type":"Polygon","coordinates":[[[2.11857,50.64678],[2.11698,50.6466],[2.11636,50.64727],[2.11807,50.64761],[2.11857,50.64678]]]}},{"type":"Feature","properties":{"k":"PPH","s":1.092},"geometry":{"type":"Polygon","coordinates":[[[2.11939,50.64826],[2.11779,50.64791],[2.11716,50.64849],[2.11761,50.64892],[2.11792,50.64878],[2.11806,50.64888],[2.11851,50.64871],[2.11929,50.6487],[2.11939,50.64826]]]}},{"type":"Feature","properties":{"k":"ORH","s":3.633},"geometry":{"type":"MultiPolygon","coordinates":[[[[2.11942,50.64824],[2.11934,50.64871],[2.11958,50.64868],[2.12145,50.64821],[2.12199,50.64821],[2.122,50.6471],[2.11846,50.64715],[2.1178,50.64791],[2.11942,50.64824]]]]}},{"type":"Feature","properties":{"k":"BTH","s":5.601},"geometry":{"type":"Polygon","coordinates":[[[2.11907,50.65066],[2.11982,50.65101],[2.11977,50.65126],[2.12157,50.65208],[2.12288,50.65135],[2.12116,50.6504],[2.12148,50.64828],[2.11961,50.64874],[2.11873,50.64877],[2.12008,50.6495],[2.11876,50.6503],[2.11918,50.65058],[2.11907,50.65066]]]}},{"type":"Feature","properties":{"k":"PPH","s":9.664},"geometry":{"type":"Polygon","coordinates":[[[2.11684,50.64962],[2.11652,50.64905],[2.11599,50.64906],[2.11508,50.64946],[2.11562,50.64999],[2.11533,50.65011],[2.11511,50.65014],[2.11469,50.64977],[2.11462,50.64945],[2.11431,50.64965],[2.11461,50.64991],[2.11418,50.65008],[2.11329,50.64941],[2.11235,50.64987],[2.1126,50.64993],[2.11235,50.65007],[2.113,50.65066],[2.11349,50.65052],[2.11364,50.65068],[2.11324,50.65086],[2.11447,50.65228],[2.11525,50.65258],[2.11584,50.65261],[2.11888,50.6509],[2.11684,50.64962]],[[2.11728,50.65052],[2.11708,50.65063],[2.11696,50.65055],[2.11716,50.65043],[2.11728,50.65052]]]}},{"type":"Feature","properties":{"k":"PPH","s":0.606},"geometry":{"type":"Polygon","coordinates":[[[2.11414,50.64898],[2.11424,50.64873],[2.11229,50.64895],[2.11288,50.64946],[2.11414,50.64898]]]}},{"type":"Feature","properties":{"k":"MIS","s":5.552},"geometry":{"type":"Polygon","coordinates":[[[2.11159,50.64588],[2.10927,50.64603],[2.11041,50.64915],[2.11257,50.64891],[2.1117,50.64624],[2.11156,50.64626],[2.11159,50.64588]]]}},{"type":"Feature","properties":{"k":"MIS","s":0.521},"geometry":{"type":"Polygon","coordinates":[[[2.11231,50.64895],[2.11133,50.64904],[2.11225,50.64983],[2.11273,50.64944],[2.11231,50.64895]]]}},{"type":"Feature","properties":{"k":"PPH","s":0.989},"geometry":{"type":"Polygon","coordinates":[[[2.11088,50.65073],[2.11044,50.65032],[2.1084,50.65113],[2.10858,50.65144],[2.10891,50.65133],[2.10913,50.65146],[2.11088,50.65073]]]}},{"type":"Feature","properties":{"k":"MIS","s":1.012},"geometry":{"type":"Polygon","coordinates":[[[2.1079,50.65029],[2.1084,50.65113],[2.10971,50.65061],[2.10915,50.64984],[2.1079,50.65029]]]}},{"type":"Feature","properties":{"k":"PTR","s":2.723},"geometry":{"type":"Polygon","coordinates":[[[2.11044,50.65032],[2.11088,50.65073],[2.11133,50.65044],[2.11012,50.64945],[2.10983,50.64865],[2.1075,50.64955],[2.1079,50.65029],[2.10915,50.64984],[2.10968,50.65053],[2.10973,50.6506],[2.11044,50.65032]]]}}]}