{"type":"FeatureCollection","features":[{"type":"Feature","properties":{"k":"LBF","s":7.897},"geometry":{"type":"Polygon","coordinates":[[[2.87764,50.02186],[2.87128,50.02487],[2.87223,50.02608],[2.87741,50.02367],[2.87703,50.02341],[2.87774,50.02306],[2.87764,50.02186]]]}},{"type":"Feature","properties":{"k":"BTH","s":0.857},"geometry":{"type":"Polygon","coordinates":[[[2.87299,50.03106],[2.87528,50.03125],[2.87547,50.0308],[2.87388,50.03057],[2.87381,50.03083],[2.87314,50.03075],[2.87299,50.03106]]]}},{"type":"Feature","properties":{"k":"BTH","s":0.058},"geometry":{"type":"Polygon","coordinates":[[[2.87602,50.03579],[2.87524,50.03554],[2.87711,50.0362],[2.87602,50.03579]]]}},{"type":"Feature","properties":{"k":"BOR","s":0.085},"geometry":{"type":"Polygon","coordinates":[[[2.87266,50.03455],[2.87333,50.0339],[2.87322,50.03385],[2.87266,50.03455]]]}},{"type":"Feature","properties":{"k":"PPH","s":0.648},"geometry":{"type":"Polygon","coordinates":[[[2.8714,50.03225],[2.87166,50.03176],[2.87015,50.03146],[2.87003,50.03232],[2.87021,50.03202],[2.8714,50.03225]]]}},{"type":"Feature","properties":{"k":"PPH","s":0.524},"geometry":{"type":"Polygon","coordinates":[[[2.87322,50.03175],[2.87315,50.03197],[2.8725,50.03222],[2.87381,50.0325],[2.87409,50.03187],[2.87322,50.03175]]]}},{"type":"Feature","properties":{"k":"PTC","s":5.057},"geometry":{"type":"Polygon","coordinates":[[[2.87036,50.035],[2.87154,50.0342],[2.87175,50.03375],[2.8679,50.03243],[2.86679,50.03363],[2.87036,50.035]]]}},{"type":"Feature","properties":{"k":"PPH","s":0.889},"geometry":{"type":"Polygon","coordinates":[[[2.87157,50.03149],[2.87175,50.03112],[2.87038,50.03085],[2.87015,50.03144],[2.87243,50.0319],[2.87252,50.03171],[2.87157,50.03149]]]}},{"type":"Feature","properties":{"k":"PPH","s":6.514},"geometry":{"type":"Polygon","coordinates":[[[2.86832,50.02932],[2.86629,50.03188],[2.86945,50.03298],[2.86993,50.03253],[2.87,50.03193],[2.86982,50.03181],[2.8703,50.03074],[2.86908,50.03035],[2.86936,50.02956],[2.86832,50.02932]]]}},{"type":"Feature","properties":{"k":"PPH","s":6.274},"geometry":{"type":"Polygon","coordinates":[[[2.86775,50.02896],[2.86834,50.0292],[2.87126,50.02981],[2.87134,50.02961],[2.87163,50.02964],[2.87172,50.02914],[2.87241,50.02908],[2.87212,50.02854],[2.87157,50.02862],[2.87138,50.02809],[2.87161,50.02838],[2.87199,50.02833],[2.87183,50.02792],[2.87337,50.02769],[2.87405,50.02695],[2.87368,50.02678],[2.86753,50.02866],[2.86775,50.02896]]]}},{"type":"Feature","properties":{"k":"JAC","s":0.017},"geometry":{"type":"Polygon","coordinates":[[[2.87418,50.03516],[2.87414,50.03517],[2.87523,50.03555],[2.87418,50.03516]]]}},{"type":"Feature","properties":{"k":"BTH","s":0.7},"geometry":{"type":"Polygon","coordinates":[[[2.86125,50.03417],[2.85703,50.03256],[2.85685,50.03268],[2.86102,50.03433],[2.86125,50.03417]]]}},{"type":"Feature","properties":{"k":"BTH","s":3.611},"geometry":{"type":"Polygon","coordinates":[[[2.86103,50.03431],[2.85683,50.03271],[2.85639,50.033],[2.85798,50.03448],[2.85984,50.0351],[2.86103,50.03431]]]}},{"type":"Feature","properties":{"k":"BTH","s":0.033},"geometry":{"type":"Polygon","coordinates":[[[2.85806,50.03456],[2.85842,50.03489],[2.85848,50.03471],[2.85806,50.03456]]]}},{"type":"Feature","properties":{"k":"BTN","s":0.199},"geometry":{"type":"Polygon","coordinates":[[[2.85848,50.03471],[2.85842,50.03489],[2.85871,50.03516],[2.85968,50.03516],[2.85848,50.03471]]]}},{"type":"Feature","properties":{"k":"BTH","s":4.504},"geometry":{"type":"Polygon","coordinates":[[[2.86125,50.03417],[2.86259,50.03329],[2.85827,50.03175],[2.85703,50.03256],[2.86125,50.03417]]]}},{"type":"Feature","properties":{"k":"BTH","s":4.189},"geometry":{"type":"Polygon","coordinates":[[[2.86091,50.02698],[2.85875,50.02924],[2.86031,50.03031],[2.86229,50.02736],[2.86091,50.02698]]]}},{"type":"Feature","properties":{"k":"BTN","s":4.305},"geometry":{"type":"Polygon","coordinates":[[[2.86093,50.02697],[2.85947,50.02657],[2.85671,50.02784],[2.85871,50.02924],[2.86093,50.02697]]]}},{"type":"Feature","properties":{"k":"PHF","s":9.161},"geometry":{"type":"Polygon","coordinates":[[[2.85814,50.03175],[2.8603,50.03031],[2.85671,50.02784],[2.85495,50.02865],[2.85456,50.02859],[2.85393,50.02888],[2.85814,50.03175]]]}},{"type":"Feature","properties":{"k":"PTC","s":0.036},"geometry":{"type":"Polygon","coordinates":[[[2.87711,50.0362],[2.87764,50.03638],[2.8777,50.03631],[2.87711,50.0362]]]}},{"type":"Feature","properties":{"k":"BTH","s":1.925},"geometry":{"type":"Polygon","coordinates":[[[2.85365,50.03201],[2.85466,50.03201],[2.8515,50.03017],[2.85051,50.03071],[2.85365,50.03201]]]}},{"type":"Feature","properties":{"k":"MIS","s":0.878},"geometry":{"type":"Polygon","coordinates":[[[2.85265,50.02914],[2.8527,50.02946],[2.85325,50.02983],[2.85456,50.02939],[2.85384,50.02881],[2.85265,50.02914]]]}},{"type":"Feature","properties":{"k":"BTH","s":1.899},"geometry":{"type":"MultiPolygon","coordinates":[[[[2.85659,50.02782],[2.85696,50.02768],[2.85703,50.02764],[2.85685,50.02752],[2.85877,50.02637],[2.8586,50.02635],[2.8569,50.02656],[2.85757,50.02675],[2.85754,50.02701],[2.85658,50.02757],[2.85456,50.0283],[2.84983,50.02936],[2.84961,50.02977],[2.85659,50.02782]]],[[[2.85737,50.02749],[2.85934,50.02652],[2.85703,50.02764],[2.85737,50.02749]]],[[[2.85918,50.02646],[2.85891,50.02638],[2.85877,50.02637],[2.85934,50.02652],[2.85918,50.02646]]]]}},{"type":"Feature","properties":{"k":"BTH","s":0.017},"geometry":{"type":"MultiPolygon","coordinates":[[[[2.84947,50.02944],[2.84953,50.02959],[2.84954,50.02959],[2.84972,50.02939],[2.84947,50.02944]]]]}},{"type":"Feature","properties":{"k":"MIS","s":1.728},"geometry":{"type":"Polygon","coordinates":[[[2.85051,50.03071],[2.85189,50.03001],[2.85229,50.02967],[2.85205,50.02949],[2.85204,50.02917],[2.84961,50.02977],[2.85001,50.03048],[2.85051,50.03071]]]}},{"type":"Feature","properties":{"k":"ORP","s":0.002},"geometry":{"type":"Polygon","coordinates":[]}},{"type":"Feature","properties":{"k":"MIS","s":0.0},"geometry":{"type":"Polygon","coordinates":[[[2.85655,50.02404],[2.85659,50.02408],[2.85656,50.02403],[2.85655,50.02404]]]}},{"type":"Feature","properties":{"k":"CZH","s":2.342},"geometry":{"type":"Polygon","coordinates":[[[2.85712,50.0265],[2.8577,50.02638],[2.85834,50.02599],[2.85706,50.02464],[2.85556,50.02575],[2.85576,50.02612],[2.85712,50.0265]]]}},{"type":"Feature","properties":{"k":"CZH","s":0.028},"geometry":{"type":"Polygon","coordinates":[[[2.85554,50.02571],[2.85556,50.02575],[2.85678,50.02484],[2.85554,50.02571]]]}},{"type":"Feature","properties":{"k":"MIS","s":0.605},"geometry":{"type":"Polygon","coordinates":[[[2.85833,50.02696],[2.85934,50.02652],[2.85877,50.02637],[2.8576,50.02697],[2.85685,50.02752],[2.85703,50.02764],[2.85833,50.02696]]]}},{"type":"Feature","properties":{"k":"BTH","s":1.064},"geometry":{"type":"Polygon","coordinates":[[[2.86376,50.02102],[2.86494,50.02167],[2.86495,50.02091],[2.86468,50.02028],[2.86383,50.01992],[2.86376,50.02102]]]}},{"type":"Feature","properties":{"k":"LIF","s":0.072},"geometry":{"type":"MultiPolygon","coordinates":[[[[2.86383,50.01992],[2.86377,50.01991],[2.86369,50.01993],[2.86376,50.02102],[2.86383,50.01992]]]]}},{"type":"Feature","properties":{"k":"MIS","s":1.019},"geometry":{"type":"Polygon","coordinates":[[[2.86546,50.02282],[2.865,50.02172],[2.86376,50.02104],[2.86354,50.0218],[2.86546,50.02282]]]}},{"type":"Feature","properties":{"k":"MIS","s":0.742},"geometry":{"type":"Polygon","coordinates":[[[2.86545,50.02253],[2.8656,50.02284],[2.86835,50.02242],[2.86827,50.02209],[2.86545,50.02253]]]}},{"type":"Feature","properties":{"k":"BTH","s":2.396},"geometry":{"type":"Polygon","coordinates":[[[2.86511,50.02122],[2.86545,50.02253],[2.86829,50.02209],[2.86807,50.02142],[2.86511,50.02122]]]}},{"type":"Feature","properties":{"k":"BTH","s":0.757},"geometry":{"type":"MultiPolygon","coordinates":[[[[2.865,50.02051],[2.86509,50.02121],[2.86726,50.02136],[2.865,50.02051]]],[[[2.86807,50.02141],[2.86794,50.02104],[2.86733,50.02136],[2.86807,50.02141]]]]}},{"type":"Feature","properties":{"k":"LUZ","s":0.001},"geometry":{"type":"Polygon","coordinates":[[[2.86534,50.02056],[2.86538,50.02057],[2.865,50.02041],[2.86534,50.02056]]]}},{"type":"Feature","properties":{"k":"BTN","s":16.089},"geometry":{"type":"Polygon","coordinates":[[[2.87128,50.02487],[2.87764,50.02186],[2.87724,50.02057],[2.87658,50.02023],[2.87602,50.02048],[2.87517,50.01984],[2.86967,50.02248],[2.87128,50.02487]]]}},{"type":"Feature","properties":{"k":"BTH","s":1.654},"geometry":{"type":"Polygon","coordinates":[[[2.8659,50.02345],[2.8697,50.02286],[2.86952,50.02245],[2.86844,50.02295],[2.86835,50.02242],[2.8656,50.02284],[2.8659,50.02345]]]}},{"type":"Feature","properties":{"k":"BTH","s":2.976},"geometry":{"type":"Polygon","coordinates":[[[2.86626,50.02434],[2.8703,50.02373],[2.86972,50.02288],[2.86591,50.02346],[2.86626,50.02434]]]}},{"type":"Feature","properties":{"k":"BTH","s":5.738},"geometry":{"type":"Polygon","coordinates":[[[2.86814,50.0259],[2.86839,50.02598],[2.87158,50.02549],[2.8704,50.02383],[2.86615,50.02444],[2.86801,50.02604],[2.86814,50.0259]]]}},{"type":"Feature","properties":{"k":"MIS","s":4.493},"geometry":{"type":"Polygon","coordinates":[[[2.87205,50.02607],[2.87014,50.02661],[2.87064,50.02692],[2.86686,50.02806],[2.86651,50.02857],[2.86722,50.02871],[2.87363,50.02679],[2.87205,50.02607]]]}},{"type":"Feature","properties":{"k":"PPH","s":0.446},"geometry":{"type":"Polygon","coordinates":[[[2.86813,50.02722],[2.86984,50.02642],[2.86839,50.02598],[2.86955,50.02634],[2.86814,50.02703],[2.8678,50.02676],[2.8681,50.02638],[2.86815,50.02602],[2.86801,50.02604],[2.86765,50.0269],[2.86813,50.02722]]]}},{"type":"Feature","properties":{"k":"MIS","s":9.376},"geometry":{"type":"Polygon","coordinates":[[[2.87064,50.02692],[2.87014,50.02661],[2.87206,50.02606],[2.87158,50.02549],[2.86842,50.02597],[2.86984,50.02642],[2.86813,50.02722],[2.8676,50.02681],[2.86799,50.02627],[2.86795,50.02589],[2.8665,50.0248],[2.86419,50.02787],[2.86648,50.0286],[2.86686,50.02806],[2.87064,50.02692]]]}},{"type":"Feature","properties":{"k":"BTH","s":3.217},"geometry":{"type":"Polygon","coordinates":[[[2.86597,50.02421],[2.86427,50.02571],[2.86365,50.02766],[2.86419,50.02786],[2.8665,50.0248],[2.86597,50.02421]]]}},{"type":"Feature","properties":{"k":"PHF","s":6.334},"geometry":{"type":"Polygon","coordinates":[[[2.86225,50.02716],[2.8635,50.02771],[2.8642,50.02558],[2.86594,50.02416],[2.8656,50.0231],[2.86059,50.0268],[2.86225,50.02716]]]}},{"type":"Feature","properties":{"k":"BTN","s":11.143},"geometry":{"type":"Polygon","coordinates":[[[2.85844,50.02588],[2.85904,50.02633],[2.86059,50.0268],[2.8656,50.0231],[2.86532,50.02273],[2.86354,50.0218],[2.85844,50.02588]]]}},{"type":"Feature","properties":{"k":"MIS","s":9.037},"geometry":{"type":"Polygon","coordinates":[[[2.8609,50.02952],[2.86496,50.03099],[2.86666,50.02875],[2.86311,50.02773],[2.8625,50.02742],[2.86228,50.02749],[2.8609,50.02952]]]}},{"type":"Feature","properties":{"k":"BTN","s":2.438},"geometry":{"type":"Polygon","coordinates":[[[2.86742,50.02897],[2.86535,50.03155],[2.86629,50.03188],[2.86832,50.02932],[2.86742,50.02897]]]}},{"type":"Feature","properties":{"k":"PPH","s":0.409},"geometry":{"type":"Polygon","coordinates":[[[2.87313,50.02797],[2.87267,50.028],[2.87242,50.02836],[2.87333,50.02841],[2.87385,50.02778],[2.87345,50.02766],[2.87313,50.02797]]]}},{"type":"Feature","properties":{"k":"PTC","s":3.197},"geometry":{"type":"Polygon","coordinates":[[[2.87544,50.02945],[2.87841,50.029],[2.87835,50.02827],[2.8759,50.02757],[2.87623,50.02722],[2.87577,50.02708],[2.87544,50.02945]]]}},{"type":"Feature","properties":{"k":"JNO","s":0.121},"geometry":{"type":"Polygon","coordinates":[[[2.87579,50.02712],[2.87577,50.02708],[2.87565,50.02731],[2.87543,50.02945],[2.87579,50.02712]]]}},{"type":"Feature","properties":{"k":"LIF","s":0.082},"geometry":{"type":"Polygon","coordinates":[[[2.87949,50.02879],[2.87947,50.02859],[2.87908,50.02847],[2.8791,50.0288],[2.87949,50.02879]]]}},{"type":"Feature","properties":{"k":"BTH","s":2.431},"geometry":{"type":"Polygon","coordinates":[[[2.87688,50.03123],[2.87844,50.03165],[2.87839,50.02935],[2.87709,50.02941],[2.87688,50.03123]]]}},{"type":"Feature","properties":{"k":"BTH","s":2.279},"geometry":{"type":"Polygon","coordinates":[[[2.87688,50.03123],[2.87708,50.02941],[2.87522,50.02954],[2.87507,50.03017],[2.87467,50.0306],[2.87688,50.03123]]]}},{"type":"Feature","properties":{"k":"PPH","s":0.514},"geometry":{"type":"Polygon","coordinates":[[[2.87517,50.02953],[2.87422,50.0295],[2.87406,50.03012],[2.87502,50.0302],[2.87517,50.02953]]]}},{"type":"Feature","properties":{"k":"PPH","s":1.975},"geometry":{"type":"Polygon","coordinates":[[[2.87142,50.03099],[2.87149,50.0308],[2.87277,50.03111],[2.87282,50.03098],[2.87167,50.0307],[2.87188,50.03005],[2.871,50.03001],[2.87105,50.02987],[2.86945,50.02956],[2.86915,50.03036],[2.87142,50.03099]]]}},{"type":"Feature","properties":{"k":"ORH","s":3.253},"geometry":{"type":"Polygon","coordinates":[[[2.8784,50.03315],[2.87833,50.03168],[2.87665,50.03123],[2.87648,50.0315],[2.87538,50.03129],[2.87494,50.03212],[2.8784,50.03315]]]}},{"type":"Feature","properties":{"k":"BTH","s":4.433},"geometry":{"type":"Polygon","coordinates":[[[2.87416,50.03189],[2.87366,50.033],[2.87823,50.03435],[2.8784,50.03315],[2.87416,50.03189]]]}},{"type":"Feature","properties":{"k":"PPH","s":1.286},"geometry":{"type":"Polygon","coordinates":[[[2.87368,50.0328],[2.87301,50.03276],[2.87274,50.0332],[2.87304,50.0333],[2.87275,50.03368],[2.87321,50.03383],[2.87348,50.03354],[2.87501,50.03398],[2.87533,50.03349],[2.87366,50.033],[2.87368,50.0328]]]}},{"type":"Feature","properties":{"k":"LBF","s":5.709},"geometry":{"type":"Polygon","coordinates":[[[2.87266,50.03455],[2.8777,50.03631],[2.87816,50.03577],[2.87819,50.03499],[2.87351,50.03354],[2.87266,50.03455]]]}},{"type":"Feature","properties":{"k":"PTC","s":1.526},"geometry":{"type":"Polygon","coordinates":[[[2.87551,50.03415],[2.87819,50.03499],[2.87823,50.03435],[2.87533,50.03349],[2.87501,50.03398],[2.87551,50.03415]]]}},{"type":"Feature","properties":{"k":"BTH","s":9.602},"geometry":{"type":"Polygon","coordinates":[[[2.87914,50.02942],[2.87904,50.03323],[2.88271,50.034],[2.88366,50.03142],[2.88206,50.03123],[2.88208,50.03107],[2.87937,50.03045],[2.87951,50.02927],[2.87914,50.02942]]]}},{"type":"Feature","properties":{"k":"BTN","s":2.135},"geometry":{"type":"Polygon","coordinates":[[[2.88278,50.03422],[2.87897,50.03331],[2.87901,50.03457],[2.87957,50.03408],[2.88262,50.03471],[2.88278,50.03422]]]}},{"type":"Feature","properties":{"k":"BTH","s":0.112},"geometry":{"type":"Polygon","coordinates":[[[2.88366,50.03142],[2.88208,50.03107],[2.88206,50.03123],[2.88366,50.03142]]]}},{"type":"Feature","properties":{"k":"PPH","s":0.409},"geometry":{"type":"Polygon","coordinates":[[[2.87494,50.02745],[2.87446,50.02709],[2.87412,50.02796],[2.87472,50.028],[2.87494,50.02745]]]}},{"type":"Feature","properties":{"k":"MIS","s":1.446},"geometry":{"type":"Polygon","coordinates":[[[2.86682,50.02886],[2.86484,50.03127],[2.86542,50.03146],[2.8674,50.02895],[2.86682,50.02886]]]}},{"type":"Feature","properties":{"k":"BTN","s":10.421},"geometry":{"type":"Polygon","coordinates":[[[2.86375,50.0325],[2.86365,50.0324],[2.86496,50.03099],[2.8609,50.02952],[2.86021,50.03048],[2.85837,50.03179],[2.86259,50.03329],[2.86375,50.0325]]]}},{"type":"Feature","properties":{"k":"PTC","s":7.369},"geometry":{"type":"Polygon","coordinates":[[[2.87468,50.02707],[2.8752,50.0275],[2.87597,50.02652],[2.87798,50.02491],[2.87786,50.02399],[2.87741,50.02367],[2.87225,50.02609],[2.87468,50.02707]]]}},{"type":"Feature","properties":{"k":"JAC","s":0.306},"geometry":{"type":"Polygon","coordinates":[[[2.87046,50.03268],[2.86996,50.03257],[2.86945,50.03298],[2.87009,50.03327],[2.87046,50.03268]]]}},{"type":"Feature","properties":{"k":"BTH","s":0.117},"geometry":{"type":"Polygon","coordinates":[[[2.86945,50.03468],[2.86891,50.03449],[2.87012,50.03511],[2.87036,50.035],[2.86945,50.03468]]]}},{"type":"Feature","properties":{"k":"PPH","s":0.325},"geometry":{"type":"Polygon","coordinates":[[[2.87158,50.02989],[2.87185,50.02993],[2.8719,50.02974],[2.87241,50.02982],[2.87247,50.02936],[2.87173,50.02932],[2.87158,50.02989]]]}},{"type":"Feature","properties":{"k":"BTN","s":3.796},"geometry":{"type":"Polygon","coordinates":[[[2.86477,50.03135],[2.86395,50.03263],[2.86679,50.03363],[2.8679,50.03243],[2.86477,50.03135]]]}},{"type":"Feature","properties":{"k":"BTH","s":8.189},"geometry":{"type":"Polygon","coordinates":[[[2.8527,50.02946],[2.85151,50.03015],[2.85468,50.03201],[2.85534,50.03202],[2.85635,50.03296],[2.85809,50.03179],[2.85456,50.02939],[2.85325,50.02983],[2.8527,50.02946]]]}}]}