{"type":"FeatureCollection","features":[{"type":"Feature","properties":{"k":"PTC","s":0.938},"geometry":{"type":"Polygon","coordinates":[[[3.03568,50.08272],[3.04025,50.08161],[3.04075,50.08114],[3.03565,50.08258],[3.03568,50.08272]]]}},{"type":"Feature","properties":{"k":"BTH","s":0.9},"geometry":{"type":"Polygon","coordinates":[[[3.03818,50.07297],[3.03675,50.0718],[3.03611,50.07211],[3.03735,50.07314],[3.03818,50.07297]]]}},{"type":"Feature","properties":{"k":"BTH","s":2.213},"geometry":{"type":"Polygon","coordinates":[[[3.03924,50.07568],[3.03824,50.07305],[3.03712,50.0733],[3.03842,50.07586],[3.03924,50.07568]]]}},{"type":"Feature","properties":{"k":"BTH","s":0.475},"geometry":{"type":"Polygon","coordinates":[[[3.03863,50.07627],[3.03961,50.07666],[3.03924,50.07568],[3.03842,50.07586],[3.03863,50.07627]]]}},{"type":"Feature","properties":{"k":"BTH","s":2.442},"geometry":{"type":"Polygon","coordinates":[[[3.03936,50.07942],[3.04122,50.07886],[3.041,50.07845],[3.03985,50.07878],[3.03865,50.07637],[3.03766,50.07601],[3.03936,50.07942]]]}},{"type":"Feature","properties":{"k":"BTH","s":1.242},"geometry":{"type":"Polygon","coordinates":[[[3.03935,50.0794],[3.03916,50.07903],[3.03568,50.08002],[3.03582,50.0804],[3.03935,50.0794]]]}},{"type":"Feature","properties":{"k":"BTH","s":2.727},"geometry":{"type":"Polygon","coordinates":[[[3.04119,50.07887],[3.03807,50.0798],[3.03869,50.0807],[3.04173,50.07978],[3.04119,50.07887]]]}},{"type":"Feature","properties":{"k":"BTN","s":4.801},"geometry":{"type":"Polygon","coordinates":[[[3.04177,50.07984],[3.03532,50.08169],[3.03565,50.08258],[3.04075,50.08114],[3.0417,50.08021],[3.04177,50.07984]]]}},{"type":"Feature","properties":{"k":"BTH","s":0.675},"geometry":{"type":"Polygon","coordinates":[[[3.03521,50.08146],[3.03531,50.08169],[3.03869,50.0807],[3.03854,50.08049],[3.03521,50.08146]]]}},{"type":"Feature","properties":{"k":"JAC","s":0.3},"geometry":{"type":"Polygon","coordinates":[[[3.03582,50.0804],[3.03568,50.08002],[3.03477,50.08028],[3.03492,50.08065],[3.03582,50.0804]]]}},{"type":"Feature","properties":{"k":"BTH","s":2.196},"geometry":{"type":"Polygon","coordinates":[[[3.03804,50.07981],[3.03492,50.08065],[3.03526,50.08143],[3.03854,50.08048],[3.03804,50.07981]]]}},{"type":"Feature","properties":{"k":"CZH","s":6.584},"geometry":{"type":"Polygon","coordinates":[[[3.03841,50.07748],[3.03417,50.07836],[3.03477,50.08028],[3.03916,50.07903],[3.03841,50.07748]]]}},{"type":"Feature","properties":{"k":"LBF","s":3.498},"geometry":{"type":"Polygon","coordinates":[[[3.02244,50.07754],[3.02383,50.07817],[3.02718,50.07667],[3.02616,50.07586],[3.02244,50.07754]]]}},{"type":"Feature","properties":{"k":"PHF","s":3.726},"geometry":{"type":"Polygon","coordinates":[[[3.02726,50.07664],[3.02844,50.07611],[3.0251,50.07357],[3.02402,50.07414],[3.02726,50.07664]]]}},{"type":"Feature","properties":{"k":"BTH","s":6.68},"geometry":{"type":"Polygon","coordinates":[[[3.03039,50.07529],[3.02666,50.07234],[3.02512,50.07356],[3.02844,50.07611],[3.03039,50.07529]]]}},{"type":"Feature","properties":{"k":"BTH","s":5.209},"geometry":{"type":"Polygon","coordinates":[[[3.03319,50.07489],[3.03417,50.07836],[3.03652,50.07787],[3.03518,50.07525],[3.03319,50.07489]]]}},{"type":"Feature","properties":{"k":"PTC","s":3.469},"geometry":{"type":"Polygon","coordinates":[[[3.03766,50.07601],[3.03518,50.07525],[3.03652,50.07787],[3.03841,50.07748],[3.03766,50.07601]]]}},{"type":"Feature","properties":{"k":"MIS","s":0.535},"geometry":{"type":"Polygon","coordinates":[[[3.03381,50.07463],[3.03402,50.07498],[3.03517,50.07519],[3.03469,50.07429],[3.03381,50.07463]]]}},{"type":"Feature","properties":{"k":"LBF","s":4.219},"geometry":{"type":"Polygon","coordinates":[[[3.03517,50.07519],[3.03858,50.07628],[3.03708,50.07334],[3.03472,50.07427],[3.03517,50.07519]]]}},{"type":"Feature","properties":{"k":"BTH","s":1.332},"geometry":{"type":"Polygon","coordinates":[[[3.03735,50.07314],[3.0361,50.07211],[3.03501,50.07263],[3.03624,50.07358],[3.03735,50.07314]]]}},{"type":"Feature","properties":{"k":"BTN","s":1.426},"geometry":{"type":"Polygon","coordinates":[[[3.03255,50.07332],[3.03272,50.0737],[3.03675,50.0718],[3.03639,50.07151],[3.03255,50.07332]]]}},{"type":"Feature","properties":{"k":"LBF","s":2.924},"geometry":{"type":"Polygon","coordinates":[[[3.03338,50.07467],[3.03624,50.07358],[3.035,50.07263],[3.03274,50.07372],[3.03301,50.07452],[3.03338,50.07467]]]}},{"type":"Feature","properties":{"k":"BTN","s":1.78},"geometry":{"type":"Polygon","coordinates":[[[3.0301,50.07091],[3.03058,50.07132],[3.03411,50.0696],[3.03363,50.06921],[3.0301,50.07091]]]}},{"type":"Feature","properties":{"k":"BTH","s":2.915},"geometry":{"type":"Polygon","coordinates":[[[3.03411,50.0696],[3.03058,50.07132],[3.03128,50.07198],[3.03492,50.07025],[3.03411,50.0696]]]}},{"type":"Feature","properties":{"k":"BTH","s":5.768},"geometry":{"type":"Polygon","coordinates":[[[3.03255,50.07332],[3.03639,50.07151],[3.03492,50.07025],[3.03128,50.07199],[3.03255,50.07332]]]}},{"type":"Feature","properties":{"k":"BTH","s":0.064},"geometry":{"type":"Polygon","coordinates":[[[3.03411,50.0696],[3.03456,50.06993],[3.03335,50.06889],[3.03411,50.0696]]]}},{"type":"Feature","properties":{"k":"BTH","s":2.562},"geometry":{"type":"Polygon","coordinates":[[[3.03211,50.06805],[3.03071,50.06872],[3.03086,50.06885],[3.03034,50.06911],[3.03018,50.06897],[3.02871,50.06968],[3.02942,50.0703],[3.0329,50.06863],[3.03211,50.06805]]]}},{"type":"Feature","properties":{"k":"BTH","s":0.091},"geometry":{"type":"Polygon","coordinates":[[[3.03285,50.0686],[3.03301,50.06858],[3.03236,50.06802],[3.03215,50.06804],[3.03285,50.0686]]]}},{"type":"Feature","properties":{"k":"BTH","s":0.036},"geometry":{"type":"Polygon","coordinates":[[[3.03323,50.06889],[3.03335,50.06888],[3.03301,50.06858],[3.03286,50.0686],[3.03323,50.06889]]]}},{"type":"Feature","properties":{"k":"BTH","s":2.596},"geometry":{"type":"Polygon","coordinates":[[[3.03363,50.06921],[3.0329,50.06863],[3.02943,50.0703],[3.03014,50.07089],[3.03363,50.06921]]]}},{"type":"Feature","properties":{"k":"JAC","s":0.282},"geometry":{"type":"Polygon","coordinates":[[[3.02954,50.06887],[3.02928,50.06868],[3.02811,50.06924],[3.02836,50.06941],[3.02954,50.06887]]]}},{"type":"Feature","properties":{"k":"LBF","s":6.128},"geometry":{"type":"Polygon","coordinates":[[[3.02981,50.06909],[3.032,50.06803],[3.02886,50.06556],[3.02753,50.06731],[3.02981,50.06909]]]}},{"type":"Feature","properties":{"k":"BTH","s":2.009},"geometry":{"type":"Polygon","coordinates":[[[3.0284,50.0652],[3.02546,50.06886],[3.02613,50.06894],[3.02886,50.06556],[3.0284,50.0652]]]}},{"type":"Feature","properties":{"k":"PTC","s":4.924},"geometry":{"type":"Polygon","coordinates":[[[3.02467,50.06859],[3.02546,50.06886],[3.0284,50.0652],[3.027,50.0641],[3.02643,50.06486],[3.02687,50.06507],[3.0258,50.06654],[3.02564,50.06651],[3.02467,50.06859]]]}},{"type":"Feature","properties":{"k":"JAC","s":0.056},"geometry":{"type":"Polygon","coordinates":[[[3.02425,50.06966],[3.02421,50.06969],[3.02475,50.07001],[3.02485,50.06993],[3.02425,50.06966]]]}},{"type":"Feature","properties":{"k":"JAC","s":0.743},"geometry":{"type":"Polygon","coordinates":[[[3.0241,50.07052],[3.0238,50.07074],[3.02417,50.07095],[3.02523,50.07026],[3.02417,50.06976],[3.02358,50.07023],[3.0241,50.07052]]]}},{"type":"Feature","properties":{"k":"BTN","s":2.505},"geometry":{"type":"Polygon","coordinates":[[[3.02623,50.07194],[3.02471,50.07057],[3.02372,50.07141],[3.0258,50.07303],[3.02666,50.07234],[3.02623,50.07194]]]}},{"type":"Feature","properties":{"k":"ORP","s":9.885},"geometry":{"type":"Polygon","coordinates":[[[3.024,50.07414],[3.0258,50.07303],[3.02371,50.07139],[3.02276,50.07207],[3.02096,50.07267],[3.0209,50.07258],[3.02018,50.0731],[3.02321,50.07581],[3.02502,50.07493],[3.024,50.07414]]]}},{"type":"Feature","properties":{"k":"JAC","s":0.388},"geometry":{"type":"Polygon","coordinates":[[[3.01882,50.07267],[3.01921,50.07231],[3.01846,50.07192],[3.018,50.07231],[3.01882,50.07267]]]}},{"type":"Feature","properties":{"k":"PPH","s":0.607},"geometry":{"type":"Polygon","coordinates":[[[3.0211,50.07057],[3.02129,50.07036],[3.02164,50.07054],[3.02175,50.07044],[3.02254,50.07085],[3.02274,50.07069],[3.02091,50.0698],[3.02048,50.07027],[3.0211,50.07057]]]}},{"type":"Feature","properties":{"k":"PPH","s":0.715},"geometry":{"type":"Polygon","coordinates":[[[3.02328,50.07168],[3.02236,50.07118],[3.02164,50.07184],[3.02233,50.07222],[3.02328,50.07168]]]}},{"type":"Feature","properties":{"k":"JAC","s":0.196},"geometry":{"type":"Polygon","coordinates":[[[3.02335,50.07022],[3.02226,50.06981],[3.02211,50.06995],[3.02309,50.07042],[3.02335,50.07022]]]}},{"type":"Feature","properties":{"k":"JAC","s":0.116},"geometry":{"type":"Polygon","coordinates":[[[3.02226,50.06981],[3.02159,50.06948],[3.02143,50.06962],[3.02211,50.06995],[3.02226,50.06981]]]}},{"type":"Feature","properties":{"k":"BOR","s":0.033},"geometry":{"type":"Polygon","coordinates":[[[3.02297,50.06782],[3.02254,50.06758],[3.02295,50.06785],[3.02361,50.06817],[3.02376,50.06818],[3.02297,50.06782]]]}},{"type":"Feature","properties":{"k":"BTH","s":3.038},"geometry":{"type":"Polygon","coordinates":[[[3.02566,50.06617],[3.0246,50.06577],[3.02254,50.06758],[3.02376,50.06818],[3.02433,50.0677],[3.0247,50.06784],[3.02494,50.06764],[3.02566,50.06617]]]}},{"type":"Feature","properties":{"k":"PPH","s":0.599},"geometry":{"type":"Polygon","coordinates":[[[3.02242,50.06711],[3.02169,50.06672],[3.02139,50.06699],[3.0226,50.06752],[3.02342,50.06682],[3.02302,50.06661],[3.02242,50.06711]]]}},{"type":"Feature","properties":{"k":"PPH","s":0.24},"geometry":{"type":"Polygon","coordinates":[[[3.02062,50.06871],[3.02018,50.06848],[3.01943,50.06884],[3.01984,50.06903],[3.02062,50.06871]]]}},{"type":"Feature","properties":{"k":"LBF","s":0.12},"geometry":{"type":"Polygon","coordinates":[[[3.01438,50.06909],[3.01563,50.06943],[3.01566,50.06937],[3.01446,50.06894],[3.01438,50.06909]]]}},{"type":"Feature","properties":{"k":"PTC","s":1.889},"geometry":{"type":"MultiPolygon","coordinates":[[[[3.01468,50.06859],[3.01582,50.06905],[3.01624,50.06817],[3.01806,50.06857],[3.01816,50.06847],[3.01742,50.06819],[3.01751,50.06807],[3.01724,50.06825],[3.01579,50.06758],[3.01514,50.06795],[3.01468,50.06859]]],[[[3.02105,50.06952],[3.01887,50.0686],[3.02066,50.06959],[3.02,50.07073],[3.02016,50.07079],[3.02105,50.06952]]]]}},{"type":"Feature","properties":{"k":"JAC","s":0.095},"geometry":{"type":"Polygon","coordinates":[[[3.01684,50.06772],[3.01659,50.06793],[3.01579,50.06758],[3.01659,50.068],[3.01687,50.0678],[3.01778,50.06814],[3.01684,50.06772]]]}},{"type":"Feature","properties":{"k":"PTR","s":0.136},"geometry":{"type":"Polygon","coordinates":[[[3.01687,50.0678],[3.01664,50.06796],[3.01724,50.06825],[3.01747,50.06805],[3.01687,50.0678]]]}},{"type":"Feature","properties":{"k":"BTH","s":3.626},"geometry":{"type":"MultiPolygon","coordinates":[[[[3.01449,50.06651],[3.01349,50.06647],[3.01349,50.0681],[3.01271,50.06811],[3.01288,50.06812],[3.01279,50.06949],[3.01404,50.06951],[3.01472,50.06806],[3.01357,50.06788],[3.01359,50.06713],[3.01575,50.06751],[3.01654,50.06703],[3.01449,50.06651]]],[[[3.01173,50.06528],[3.01149,50.06536],[3.01265,50.06571],[3.01277,50.06548],[3.01173,50.06528]]]]}},{"type":"Feature","properties":{"k":"JAC","s":0.143},"geometry":{"type":"Polygon","coordinates":[[[3.01283,50.06875],[3.01286,50.06812],[3.01271,50.06814],[3.01267,50.06949],[3.01283,50.06875]]]}},{"type":"Feature","properties":{"k":"BTH","s":0.001},"geometry":{"type":"Polygon","coordinates":[[[3.01349,50.06951],[3.01403,50.06952],[3.01404,50.06951],[3.01349,50.06951]]]}},{"type":"Feature","properties":{"k":"PTC","s":4.448},"geometry":{"type":"Polygon","coordinates":[[[3.02019,50.0731],[3.01914,50.07399],[3.02168,50.07653],[3.02321,50.07581],[3.02019,50.0731]]]}},{"type":"Feature","properties":{"k":"BTH","s":4.073},"geometry":{"type":"Polygon","coordinates":[[[3.02494,50.07499],[3.02168,50.07653],[3.02195,50.0768],[3.02144,50.07714],[3.02243,50.07754],[3.02611,50.07585],[3.02494,50.07499]]]}},{"type":"Feature","properties":{"k":"PHF","s":0.111},"geometry":{"type":"Polygon","coordinates":[[[3.02294,50.07822],[3.02205,50.07784],[3.02311,50.07851],[3.02332,50.07841],[3.02294,50.07822]]]}},{"type":"Feature","properties":{"k":"BTH","s":0.002},"geometry":{"type":"Polygon","coordinates":[[[3.00665,50.06251],[3.00628,50.06281],[3.00666,50.06252],[3.00665,50.06251]]]}},{"type":"Feature","properties":{"k":"BTH","s":4.749},"geometry":{"type":"Polygon","coordinates":[[[3.01063,50.06246],[3.00892,50.06161],[3.0066,50.06349],[3.00892,50.06457],[3.01063,50.06246]]]}},{"type":"Feature","properties":{"k":"BTN","s":1.015},"geometry":{"type":"Polygon","coordinates":[[[3.01179,50.06416],[3.01142,50.06485],[3.01169,50.06504],[3.01256,50.0641],[3.00984,50.06355],[3.00948,50.06396],[3.01179,50.06416]]]}},{"type":"Feature","properties":{"k":"BTH","s":1.578},"geometry":{"type":"Polygon","coordinates":[[[3.01034,50.06293],[3.00983,50.06355],[3.01255,50.06409],[3.01307,50.06347],[3.01034,50.06293]]]}},{"type":"Feature","properties":{"k":"JAC","s":0.054},"geometry":{"type":"Polygon","coordinates":[[[3.00883,50.06076],[3.0088,50.06078],[3.01084,50.06178],[3.00883,50.06076]]]}},{"type":"Feature","properties":{"k":"BTH","s":4.616},"geometry":{"type":"Polygon","coordinates":[[[3.01063,50.06246],[3.01219,50.06052],[3.00999,50.05943],[3.01002,50.0598],[3.00967,50.06008],[3.01147,50.06096],[3.00964,50.0601],[3.00883,50.06076],[3.01086,50.06176],[3.0088,50.06078],[3.0082,50.06126],[3.01063,50.06246]]]}},{"type":"Feature","properties":{"k":"JAC","s":0.048},"geometry":{"type":"Polygon","coordinates":[[[3.01147,50.06096],[3.00964,50.0601],[3.01145,50.06099],[3.01147,50.06096]]]}},{"type":"Feature","properties":{"k":"BTH","s":1.136},"geometry":{"type":"Polygon","coordinates":[[[3.01069,50.05916],[3.01062,50.05924],[3.00994,50.05891],[3.00999,50.05943],[3.01219,50.06052],[3.01255,50.06007],[3.01069,50.05916]]]}},{"type":"Feature","properties":{"k":"BTH","s":1.704},"geometry":{"type":"Polygon","coordinates":[[[3.00586,50.06314],[3.00658,50.06348],[3.00891,50.06161],[3.00821,50.06126],[3.00586,50.06314]]]}},{"type":"Feature","properties":{"k":"LBF","s":0.003},"geometry":{"type":"Polygon","coordinates":[[[3.00722,50.06205],[3.00665,50.06251],[3.00666,50.06252],[3.00722,50.06205]]]}},{"type":"Feature","properties":{"k":"BTN","s":0.558},"geometry":{"type":"Polygon","coordinates":[[[3.02288,50.05653],[3.02408,50.05655],[3.02356,50.05551],[3.02348,50.05539],[3.02288,50.05653]]]}},{"type":"Feature","properties":{"k":"BTH","s":3.843},"geometry":{"type":"Polygon","coordinates":[[[3.02405,50.05655],[3.02288,50.05653],[3.02261,50.05703],[3.01965,50.05692],[3.01951,50.05746],[3.01884,50.05755],[3.01883,50.05769],[3.02473,50.05789],[3.02405,50.05655]]]}},{"type":"Feature","properties":{"k":"ORH","s":6.063},"geometry":{"type":"Polygon","coordinates":[[[3.02474,50.05789],[3.01881,50.05769],[3.01828,50.05861],[3.01892,50.05896],[3.02417,50.05914],[3.02474,50.05789]]]}},{"type":"Feature","properties":{"k":"BTN","s":0.002},"geometry":{"type":"MultiPolygon","coordinates":[[[[3.01883,50.05755],[3.01881,50.05756],[3.0188,50.05769],[3.01883,50.05755]]]]}},{"type":"Feature","properties":{"k":"BTH","s":2.381},"geometry":{"type":"Polygon","coordinates":[[[3.01356,50.05887],[3.01174,50.05805],[3.01069,50.05915],[3.01255,50.06007],[3.01356,50.05887]]]}},{"type":"Feature","properties":{"k":"BTH","s":2.93},"geometry":{"type":"Polygon","coordinates":[[[3.01565,50.0601],[3.01618,50.05878],[3.01828,50.05861],[3.0188,50.05769],[3.01544,50.05802],[3.01532,50.05867],[3.01488,50.05925],[3.01565,50.0601]]]}},{"type":"Feature","properties":{"k":"BTN","s":1.165},"geometry":{"type":"Polygon","coordinates":[[[3.01619,50.05879],[3.01571,50.06005],[3.01618,50.06062],[3.01729,50.05869],[3.01619,50.05879]]]}},{"type":"Feature","properties":{"k":"BTH","s":9.589},"geometry":{"type":"Polygon","coordinates":[[[3.01478,50.05928],[3.01359,50.05891],[3.01033,50.06293],[3.0131,50.06344],[3.01546,50.06059],[3.01572,50.06024],[3.01478,50.05928]]]}},{"type":"Feature","properties":{"k":"BTN","s":8.607},"geometry":{"type":"Polygon","coordinates":[[[3.01429,50.0639],[3.01652,50.0611],[3.01572,50.06024],[3.01168,50.06518],[3.0137,50.06544],[3.01375,50.06534],[3.01467,50.06562],[3.01467,50.06576],[3.01571,50.06592],[3.01665,50.06473],[3.01429,50.0639]]]}},{"type":"Feature","properties":{"k":"JAC","s":0.222},"geometry":{"type":"Polygon","coordinates":[[[3.01589,50.06603],[3.01576,50.06624],[3.01681,50.06651],[3.01689,50.06625],[3.01589,50.06603]]]}},{"type":"Feature","properties":{"k":"BTH","s":7.655},"geometry":{"type":"Polygon","coordinates":[[[3.01827,50.06269],[3.01652,50.0611],[3.01429,50.0639],[3.01665,50.06473],[3.01652,50.06491],[3.01739,50.06514],[3.01878,50.06388],[3.01827,50.06269]]]}},{"type":"Feature","properties":{"k":"JAC","s":0.663},"geometry":{"type":"Polygon","coordinates":[[[3.01883,50.06354],[3.01899,50.06393],[3.01971,50.06433],[3.02056,50.06367],[3.01883,50.06354]]]}},{"type":"Feature","properties":{"k":"ORP","s":0.652},"geometry":{"type":"Polygon","coordinates":[[[3.01888,50.06501],[3.01954,50.06448],[3.01878,50.06388],[3.01802,50.06461],[3.01888,50.06501]]]}},{"type":"Feature","properties":{"k":"BTH","s":2.449},"geometry":{"type":"Polygon","coordinates":[[[3.01891,50.06615],[3.02212,50.06379],[3.02039,50.06389],[3.01816,50.06576],[3.01891,50.06615]]]}},{"type":"Feature","properties":{"k":"PHF","s":4.461},"geometry":{"type":"Polygon","coordinates":[[[3.02209,50.06382],[3.01894,50.06612],[3.01974,50.06648],[3.02039,50.06656],[3.02446,50.06355],[3.02209,50.06382]]]}},{"type":"Feature","properties":{"k":"BTH","s":9.134},"geometry":{"type":"Polygon","coordinates":[[[3.02039,50.06656],[3.02145,50.06694],[3.02169,50.06672],[3.02242,50.06711],[3.02302,50.06661],[3.02342,50.06682],[3.02463,50.06574],[3.02568,50.06614],[3.02635,50.06458],[3.02683,50.06411],[3.0267,50.06324],[3.02454,50.06354],[3.02039,50.06656]]]}},{"type":"Feature","properties":{"k":"BTH","s":8.92},"geometry":{"type":"Polygon","coordinates":[[[3.02602,50.06237],[3.02562,50.06061],[3.02315,50.06088],[3.02233,50.06206],[3.02056,50.06379],[3.02253,50.06373],[3.02589,50.06333],[3.02657,50.06312],[3.02602,50.06237]]]}},{"type":"Feature","properties":{"k":"BTH","s":14.797},"geometry":{"type":"Polygon","coordinates":[[[3.01826,50.06002],[3.01891,50.05896],[3.01828,50.05861],[3.01743,50.05868],[3.01623,50.06067],[3.01724,50.06173],[3.01839,50.06261],[3.01883,50.06354],[3.02066,50.06355],[3.0222,50.06199],[3.02344,50.06023],[3.01826,50.06002]]]}},{"type":"Feature","properties":{"k":"BTH","s":4.427},"geometry":{"type":"Polygon","coordinates":[[[3.01826,50.06002],[3.0234,50.06022],[3.02396,50.05915],[3.01892,50.05896],[3.01826,50.06002]]]}},{"type":"Feature","properties":{"k":"BTH","s":2.398},"geometry":{"type":"Polygon","coordinates":[[[3.02487,50.05835],[3.02481,50.0583],[3.02316,50.06088],[3.02562,50.06061],[3.02487,50.05835]]]}},{"type":"Feature","properties":{"k":"PTC","s":1.769},"geometry":{"type":"Polygon","coordinates":[[[3.02712,50.05961],[3.02513,50.05881],[3.02541,50.05962],[3.02815,50.06078],[3.02858,50.06025],[3.02712,50.05961]]]}},{"type":"Feature","properties":{"k":"LBF","s":0.003},"geometry":{"type":"Polygon","coordinates":[[[3.02821,50.06074],[3.02857,50.06027],[3.02819,50.06073],[3.02821,50.06074]]]}},{"type":"Feature","properties":{"k":"BTH","s":0.004},"geometry":{"type":"Polygon","coordinates":[]}},{"type":"Feature","properties":{"k":"BTH","s":2.562},"geometry":{"type":"Polygon","coordinates":[[[3.02614,50.06239],[3.02671,50.06313],[3.02946,50.06272],[3.0259,50.06119],[3.02614,50.06239]]]}},{"type":"Feature","properties":{"k":"BTN","s":2.274},"geometry":{"type":"MultiPolygon","coordinates":[[[[3.02816,50.06078],[3.02541,50.05962],[3.0259,50.06119],[3.02736,50.06181],[3.02816,50.06078]]],[[[3.02948,50.06271],[3.02878,50.06242],[3.02946,50.06272],[3.02948,50.06271]]]]}},{"type":"Feature","properties":{"k":"JAC","s":0.222},"geometry":{"type":"Polygon","coordinates":[[[3.02586,50.06605],[3.02615,50.06612],[3.02659,50.06548],[3.02622,50.06531],[3.02586,50.06605]]]}},{"type":"Feature","properties":{"k":"BTH","s":0.001},"geometry":{"type":"MultiPolygon","coordinates":[]}},{"type":"Feature","properties":{"k":"PTC","s":1.353},"geometry":{"type":"Polygon","coordinates":[[[3.02696,50.06318],[3.027,50.0641],[3.0274,50.0644],[3.02942,50.0628],[3.02696,50.06318]]]}},{"type":"Feature","properties":{"k":"PTC","s":1.628},"geometry":{"type":"Polygon","coordinates":[[[3.03065,50.05762],[3.02611,50.05679],[3.03004,50.0584],[3.03065,50.05762]]]}},{"type":"Feature","properties":{"k":"BTH","s":7.873},"geometry":{"type":"Polygon","coordinates":[[[3.025,50.05756],[3.0249,50.058],[3.02512,50.058],[3.02536,50.05883],[3.02513,50.05881],[3.02859,50.06025],[3.03004,50.0584],[3.02611,50.05679],[3.02566,50.05675],[3.025,50.05756]]]}},{"type":"Feature","properties":{"k":"BTH","s":0.856},"geometry":{"type":"Polygon","coordinates":[[[3.02516,50.05709],[3.02463,50.05584],[3.02397,50.05613],[3.02479,50.0578],[3.02516,50.05709]]]}},{"type":"Feature","properties":{"k":"BTH","s":1.849},"geometry":{"type":"Polygon","coordinates":[[[3.02516,50.05709],[3.02559,50.05669],[3.02506,50.05461],[3.0236,50.05528],[3.02397,50.05613],[3.02463,50.05584],[3.02516,50.05709]]]}}]}