{"type":"FeatureCollection","features":[{"type":"Feature","properties":{"k":"MIS","s":3.099},"geometry":{"type":"Polygon","coordinates":[[[2.00713,50.84245],[2.00889,50.8447],[2.01015,50.84422],[2.00839,50.84189],[2.00713,50.84245]]]}},{"type":"Feature","properties":{"k":"PPH","s":0.381},"geometry":{"type":"Polygon","coordinates":[[[2.00833,50.85288],[2.00943,50.85366],[2.00984,50.85345],[2.00938,50.85326],[2.00878,50.85271],[2.00833,50.85288]]]}},{"type":"Feature","properties":{"k":"PPH","s":4.87},"geometry":{"type":"Polygon","coordinates":[[[2.01215,50.85248],[2.01133,50.85081],[2.00894,50.84776],[2.00899,50.84737],[2.00768,50.84795],[2.01117,50.85238],[2.01215,50.85248]]]}},{"type":"Feature","properties":{"k":"BTH","s":2.966},"geometry":{"type":"Polygon","coordinates":[[[2.00982,50.85225],[2.0108,50.85197],[2.00893,50.84959],[2.00752,50.85013],[2.00948,50.85216],[2.00982,50.85225]]]}},{"type":"Feature","properties":{"k":"TCR","s":0.693},"geometry":{"type":"Polygon","coordinates":[[[2.0204,50.84019],[2.02013,50.83959],[2.01897,50.8398],[2.01941,50.84066],[2.0204,50.84019]]]}},{"type":"Feature","properties":{"k":"PPH","s":1.526},"geometry":{"type":"Polygon","coordinates":[[[2.0205,50.84257],[2.02042,50.8429],[2.01987,50.84311],[2.02134,50.84411],[2.02177,50.84388],[2.02182,50.84302],[2.02165,50.84253],[2.0205,50.84257]]]}},{"type":"Feature","properties":{"k":"PPH","s":1.414},"geometry":{"type":"Polygon","coordinates":[[[2.01816,50.84734],[2.01876,50.84653],[2.01712,50.84646],[2.01737,50.84664],[2.01684,50.84788],[2.01792,50.84816],[2.01816,50.84734]],[[2.0178,50.84688],[2.0179,50.8469],[2.01788,50.84693],[2.0178,50.84688]],[[2.01806,50.84705],[2.01813,50.84709],[2.01807,50.84714],[2.01806,50.84705]]]}},{"type":"Feature","properties":{"k":"BTA","s":0.247},"geometry":{"type":"Polygon","coordinates":[[[2.01738,50.84935],[2.01491,50.85216],[2.01744,50.84937],[2.01779,50.84818],[2.01738,50.84935]]]}},{"type":"Feature","properties":{"k":"BTH","s":8.75},"geometry":{"type":"Polygon","coordinates":[[[2.01738,50.84935],[2.01787,50.84815],[2.01507,50.84747],[2.01337,50.8506],[2.01491,50.85216],[2.01738,50.84935]]]}},{"type":"Feature","properties":{"k":"BTN","s":0.923},"geometry":{"type":"Polygon","coordinates":[[[2.01166,50.85136],[2.01329,50.85077],[2.01288,50.85019],[2.01138,50.8508],[2.01166,50.85136]]]}},{"type":"Feature","properties":{"k":"BTH","s":2.205},"geometry":{"type":"Polygon","coordinates":[[[2.01287,50.85019],[2.01182,50.84883],[2.01021,50.84938],[2.01124,50.85076],[2.01287,50.85019]]]}},{"type":"Feature","properties":{"k":"PPH","s":0.301},"geometry":{"type":"Polygon","coordinates":[[[2.0105,50.84734],[2.01169,50.84887],[2.01183,50.84882],[2.01061,50.8472],[2.01003,50.84752],[2.0105,50.84734]]]}},{"type":"Feature","properties":{"k":"PTC","s":4.576},"geometry":{"type":"Polygon","coordinates":[[[2.0164,50.84491],[2.01624,50.84434],[2.01243,50.84942],[2.01327,50.85049],[2.0164,50.84491]]]}},{"type":"Feature","properties":{"k":"BTN","s":1.198},"geometry":{"type":"Polygon","coordinates":[[[1.99845,50.85137],[2.0003,50.85059],[1.99984,50.85011],[1.99728,50.8511],[1.99845,50.85137]]]}},{"type":"Feature","properties":{"k":"BTH","s":0.0},"geometry":{"type":"Polygon","coordinates":[[[1.99626,50.83589],[1.99627,50.83587],[1.99624,50.83586],[1.99626,50.83589]]]}},{"type":"Feature","properties":{"k":"NVT","s":2.396},"geometry":{"type":"Polygon","coordinates":[[[2.01514,50.83728],[2.01692,50.83665],[2.01614,50.83536],[2.01395,50.83635],[2.01514,50.83728]]]}},{"type":"Feature","properties":{"k":"LIF","s":0.02},"geometry":{"type":"Polygon","coordinates":[[[1.99632,50.85746],[1.996,50.85737],[1.99695,50.85774],[1.99632,50.85746]]]}},{"type":"Feature","properties":{"k":"BTH","s":0.008},"geometry":{"type":"Polygon","coordinates":[[[1.99711,50.85783],[1.99831,50.85856],[1.99766,50.85815],[1.99711,50.85783]]]}},{"type":"Feature","properties":{"k":"BTH","s":0.023},"geometry":{"type":"MultiPolygon","coordinates":[[[[1.99762,50.85293],[1.99759,50.85271],[1.99756,50.85319],[1.99762,50.85293]]],[[[1.99713,50.85209],[1.99691,50.85188],[1.99759,50.8527],[1.99713,50.85209]]]]}},{"type":"Feature","properties":{"k":"BTH","s":1.785},"geometry":{"type":"Polygon","coordinates":[[[1.99515,50.83665],[1.9961,50.83594],[1.9952,50.835],[1.99335,50.8355],[1.99515,50.83665]]]}},{"type":"Feature","properties":{"k":"PPH","s":0.228},"geometry":{"type":"Polygon","coordinates":[[[2.00943,50.85366],[2.00994,50.85407],[2.0104,50.85387],[2.00984,50.85345],[2.00943,50.85366]]]}},{"type":"Feature","properties":{"k":"BTA","s":0.072},"geometry":{"type":"Polygon","coordinates":[[[1.99925,50.84715],[2.00048,50.8476],[1.99835,50.84668],[1.99925,50.84715]]]}},{"type":"Feature","properties":{"k":"PTR","s":0.196},"geometry":{"type":"Polygon","coordinates":[[[2.0104,50.85387],[2.00994,50.85407],[2.01041,50.85442],[2.01084,50.85419],[2.0104,50.85387]]]}},{"type":"Feature","properties":{"k":"PPH","s":1.673},"geometry":{"type":"Polygon","coordinates":[[[1.99843,50.85754],[1.99987,50.85844],[2.00117,50.8575],[1.99902,50.85689],[1.99843,50.85754]]]}},{"type":"Feature","properties":{"k":"PTC","s":0.003},"geometry":{"type":"Polygon","coordinates":[[[2.00017,50.85899],[1.99982,50.85928],[2.00023,50.85896],[2.00017,50.85899]]]}},{"type":"Feature","properties":{"k":"BTH","s":7.966},"geometry":{"type":"Polygon","coordinates":[[[2.0008,50.8548],[1.99883,50.85495],[1.99804,50.85568],[1.99817,50.85661],[1.99689,50.8568],[1.99618,50.85739],[1.99976,50.85928],[2.00036,50.85875],[1.99843,50.85754],[1.99902,50.85689],[2.00023,50.85724],[2.0017,50.85576],[2.00053,50.85522],[2.0008,50.8548]]]}},{"type":"Feature","properties":{"k":"BTN","s":3.431},"geometry":{"type":"Polygon","coordinates":[[[2.01005,50.83862],[2.01168,50.83989],[2.01187,50.83985],[2.01212,50.84004],[2.01367,50.83938],[2.01129,50.83757],[2.01005,50.83862]]]}},{"type":"Feature","properties":{"k":"PHF","s":3.858},"geometry":{"type":"Polygon","coordinates":[[[2.00427,50.85647],[2.00274,50.85598],[2.00224,50.85546],[2.00177,50.85569],[2.00023,50.85724],[2.0019,50.85767],[2.00223,50.85796],[2.00427,50.85647]]]}},{"type":"Feature","properties":{"k":"CZH","s":2.933},"geometry":{"type":"Polygon","coordinates":[[[2.0094,50.85518],[2.01092,50.85426],[2.01041,50.85442],[2.00881,50.85322],[2.00715,50.85399],[2.008,50.85481],[2.0094,50.85518]]]}},{"type":"Feature","properties":{"k":"PTC","s":4.082},"geometry":{"type":"Polygon","coordinates":[[[2.01371,50.83619],[2.01207,50.83694],[2.01468,50.83891],[2.01633,50.83817],[2.01371,50.83619]]]}},{"type":"Feature","properties":{"k":"LBF","s":1.856},"geometry":{"type":"Polygon","coordinates":[[[2.01129,50.83756],[2.01368,50.83938],[2.01449,50.83903],[2.01191,50.83709],[2.01129,50.83756]]]}},{"type":"Feature","properties":{"k":"PHF","s":1.599},"geometry":{"type":"Polygon","coordinates":[[[1.99779,50.84759],[1.99873,50.84833],[2.00025,50.84765],[1.99819,50.84677],[1.9975,50.84713],[1.99796,50.8475],[1.99779,50.84759]]]}},{"type":"Feature","properties":{"k":"PPH","s":0.258},"geometry":{"type":"Polygon","coordinates":[[[2.00025,50.84765],[1.99873,50.84833],[1.99779,50.84759],[1.99796,50.8475],[1.9975,50.84713],[1.99787,50.8475],[1.9977,50.84758],[1.99871,50.84836],[2.00036,50.84764],[1.99819,50.84677],[2.00025,50.84765]]]}},{"type":"Feature","properties":{"k":"BTA","s":0.303},"geometry":{"type":"Polygon","coordinates":[[[1.99341,50.84438],[1.99408,50.84444],[1.99652,50.84591],[1.99781,50.8465],[1.99818,50.84656],[1.99603,50.84559],[1.99428,50.84447],[1.99223,50.84393],[1.99341,50.84438]]]}},{"type":"Feature","properties":{"k":"BTH","s":12.102},"geometry":{"type":"Polygon","coordinates":[[[1.99337,50.8443],[1.99428,50.84447],[1.99603,50.84559],[1.99818,50.84656],[2.00009,50.8456],[1.99486,50.84176],[1.99229,50.84388],[1.99337,50.8443]]]}},{"type":"Feature","properties":{"k":"PPH","s":1.996},"geometry":{"type":"Polygon","coordinates":[[[2.00199,50.85773],[2.00198,50.85773],[2.00113,50.85823],[2.00188,50.85879],[2.0026,50.85846],[2.00324,50.85899],[2.00446,50.85824],[2.00366,50.85779],[2.00396,50.85758],[2.00352,50.85733],[2.00241,50.85813],[2.00199,50.85773]]]}},{"type":"Feature","properties":{"k":"BTH","s":6.904},"geometry":{"type":"Polygon","coordinates":[[[2.00113,50.84781],[2.00398,50.84664],[2.00207,50.84476],[1.99839,50.84671],[2.00113,50.84781]]]}},{"type":"Feature","properties":{"k":"BTA","s":0.011},"geometry":{"type":"MultiPolygon","coordinates":[[[[1.99432,50.84459],[1.99414,50.8445],[1.99522,50.84515],[1.99432,50.84459]]],[[[1.994,50.84444],[1.99386,50.84444],[1.99405,50.84446],[1.994,50.84444]]],[[[1.99276,50.84414],[1.99282,50.84415],[1.99279,50.84414],[1.99276,50.84414]]]]}},{"type":"Feature","properties":{"k":"JAC","s":0.183},"geometry":{"type":"Polygon","coordinates":[[[2.00499,50.8545],[2.00548,50.855],[2.00605,50.85491],[2.00713,50.85559],[2.00768,50.85526],[2.0082,50.85557],[2.00848,50.8554],[2.00921,50.85579],[2.00847,50.85536],[2.00822,50.85555],[2.00768,50.85522],[2.00714,50.85556],[2.00606,50.85488],[2.0055,50.85498],[2.00501,50.85447],[2.00258,50.85519],[2.00499,50.8545]]]}},{"type":"Feature","properties":{"k":"BTA","s":0.08},"geometry":{"type":"Polygon","coordinates":[[[2.0043,50.85292],[2.00425,50.85294],[2.00563,50.85414],[2.0043,50.85292]]]}},{"type":"Feature","properties":{"k":"PPH","s":0.002},"geometry":{"type":"Polygon","coordinates":[[[2.00251,50.86046],[2.00286,50.86069],[2.00287,50.86068],[2.00251,50.86046]]]}},{"type":"Feature","properties":{"k":"PPH","s":1.063},"geometry":{"type":"Polygon","coordinates":[[[2.0026,50.85846],[2.00188,50.8588],[2.00414,50.86046],[2.00517,50.85991],[2.00435,50.86025],[2.00296,50.8593],[2.00341,50.8591],[2.0026,50.85846]]]}},{"type":"Feature","properties":{"k":"PPH","s":0.091},"geometry":{"type":"Polygon","coordinates":[[[2.00305,50.85935],[2.00435,50.86025],[2.00306,50.85926],[2.00305,50.85935]]]}},{"type":"Feature","properties":{"k":"JAC","s":0.898},"geometry":{"type":"Polygon","coordinates":[[[2.00066,50.85854],[2.00341,50.86033],[2.00363,50.86022],[2.00244,50.85945],[2.00252,50.85931],[2.00113,50.85823],[2.00066,50.85854]]]}},{"type":"Feature","properties":{"k":"ORP","s":1.328},"geometry":{"type":"Polygon","coordinates":[[[2.00293,50.86065],[2.00341,50.86033],[2.00066,50.85854],[2.00033,50.85894],[2.00293,50.86065]]]}},{"type":"Feature","properties":{"k":"JAC","s":0.134},"geometry":{"type":"Polygon","coordinates":[[[2.00034,50.85894],[2.00028,50.85891],[2.00288,50.86068],[2.00034,50.85894]]]}},{"type":"Feature","properties":{"k":"BTA","s":0.13},"geometry":{"type":"Polygon","coordinates":[[[2.01168,50.83989],[2.01005,50.83862],[2.01015,50.83843],[2.00996,50.83862],[2.01166,50.83995],[2.01212,50.84004],[2.01168,50.83989]]]}},{"type":"Feature","properties":{"k":"BTN","s":2.448},"geometry":{"type":"Polygon","coordinates":[[[2.00771,50.85361],[2.00553,50.85241],[2.0043,50.85292],[2.00563,50.85414],[2.00638,50.85414],[2.00771,50.85361]]]}},{"type":"Feature","properties":{"k":"MIS","s":1.626},"geometry":{"type":"Polygon","coordinates":[[[2.00781,50.85366],[2.00829,50.85345],[2.00488,50.85131],[2.00427,50.85157],[2.00781,50.85366]]]}},{"type":"Feature","properties":{"k":"FLA","s":3.67},"geometry":{"type":"Polygon","coordinates":[[[2.00881,50.85322],[2.00833,50.85288],[2.00894,50.85265],[2.00644,50.85056],[2.00488,50.85131],[2.00829,50.85345],[2.00881,50.85322]]]}},{"type":"Feature","properties":{"k":"PPH","s":0.724},"geometry":{"type":"Polygon","coordinates":[[[2.00452,50.85174],[2.00401,50.85195],[2.00335,50.8516],[2.00386,50.85194],[2.00366,50.85206],[2.00473,50.85272],[2.00552,50.85238],[2.00452,50.85174]]]}},{"type":"Feature","properties":{"k":"PPH","s":1.878},"geometry":{"type":"Polygon","coordinates":[[[1.99864,50.84886],[1.998,50.84908],[1.99765,50.84865],[1.99711,50.84873],[1.99752,50.8491],[1.99666,50.84924],[1.99722,50.84968],[1.99668,50.84992],[1.99718,50.85037],[1.99933,50.84954],[1.99864,50.84886]]]}},{"type":"Feature","properties":{"k":"LIF","s":8.913},"geometry":{"type":"Polygon","coordinates":[[[2.00089,50.85474],[2.00155,50.8545],[2.00134,50.854],[2.00144,50.85292],[2.00102,50.85237],[2.00069,50.85214],[1.99841,50.85146],[1.99717,50.85208],[1.99766,50.85282],[1.99759,50.85394],[1.99784,50.85499],[2.00089,50.85474]]]}},{"type":"Feature","properties":{"k":"PPH","s":0.511},"geometry":{"type":"Polygon","coordinates":[[[2.00235,50.85515],[2.00218,50.8548],[2.00167,50.85462],[2.00155,50.85505],[2.00185,50.85522],[2.00128,50.85557],[2.0017,50.85576],[2.00235,50.85515]]]}},{"type":"Feature","properties":{"k":"CAR","s":0.213},"geometry":{"type":"Polygon","coordinates":[[[1.99826,50.85013],[1.99813,50.85002],[1.9964,50.85068],[1.99665,50.85075],[1.99826,50.85013]]]}},{"type":"Feature","properties":{"k":"FLA","s":1.013},"geometry":{"type":"Polygon","coordinates":[[[2.01563,50.84757],[2.0167,50.84568],[2.01645,50.84503],[2.01511,50.84744],[2.01563,50.84757]]]}},{"type":"Feature","properties":{"k":"BTH","s":1.435},"geometry":{"type":"Polygon","coordinates":[[[2.01684,50.84788],[2.01733,50.84672],[2.01703,50.84655],[2.0167,50.84568],[2.01563,50.84757],[2.01684,50.84788]]]}},{"type":"Feature","properties":{"k":"PPH","s":0.149},"geometry":{"type":"Polygon","coordinates":[[[2.01658,50.84507],[2.01646,50.84502],[2.01703,50.84655],[2.01733,50.84672],[2.01658,50.84507]]]}},{"type":"Feature","properties":{"k":"PPH","s":2.262},"geometry":{"type":"Polygon","coordinates":[[[2.0169,50.84563],[2.01833,50.84542],[2.01634,50.8431],[2.0157,50.84278],[2.01518,50.84305],[2.01601,50.84381],[2.0169,50.84563]]]}},{"type":"Feature","properties":{"k":"PHF","s":2.091},"geometry":{"type":"Polygon","coordinates":[[[2.01052,50.84619],[2.01499,50.8444],[2.01447,50.84399],[2.01013,50.84578],[2.01052,50.84619]]]}},{"type":"Feature","properties":{"k":"PHF","s":5.409},"geometry":{"type":"Polygon","coordinates":[[[2.0101,50.84636],[2.01052,50.84619],[2.01013,50.84578],[2.01447,50.84399],[2.01327,50.84302],[2.00898,50.84478],[2.0101,50.84636]]]}},{"type":"Feature","properties":{"k":"LIF","s":6.793},"geometry":{"type":"Polygon","coordinates":[[[2.01196,50.84883],[2.01503,50.84479],[2.01531,50.84467],[2.01499,50.8444],[2.0101,50.84636],[2.01196,50.84883]]]}},{"type":"Feature","properties":{"k":"PHF","s":2.996},"geometry":{"type":"Polygon","coordinates":[[[2.01503,50.8448],[2.01196,50.84883],[2.01243,50.84942],[2.01611,50.84439],[2.01503,50.8448]]]}},{"type":"Feature","properties":{"k":"PPH","s":2.97},"geometry":{"type":"Polygon","coordinates":[[[2.00606,50.84858],[2.01022,50.84672],[2.00982,50.84617],[2.006,50.84725],[2.00668,50.84806],[2.00592,50.8484],[2.00571,50.84827],[2.00606,50.84858]]]}},{"type":"Feature","properties":{"k":"PPH","s":1.775},"geometry":{"type":"Polygon","coordinates":[[[2.00822,50.84609],[2.00839,50.84655],[2.00866,50.84629],[2.00926,50.84634],[2.00921,50.84598],[2.00958,50.84584],[2.00905,50.84514],[2.00873,50.84521],[2.00835,50.845],[2.00691,50.84506],[2.00753,50.8459],[2.00822,50.84609]]]}},{"type":"Feature","properties":{"k":"PTC","s":4.449},"geometry":{"type":"Polygon","coordinates":[[[2.00743,50.85017],[2.00499,50.84766],[2.00471,50.84764],[2.00398,50.84941],[2.00554,50.85091],[2.00743,50.85017]]]}},{"type":"Feature","properties":{"k":"PTC","s":2.305},"geometry":{"type":"Polygon","coordinates":[[[2.00618,50.84875],[2.00752,50.85013],[2.00893,50.84959],[2.00774,50.84807],[2.00618,50.84875]]]}},{"type":"Feature","properties":{"k":"LBF","s":4.07},"geometry":{"type":"Polygon","coordinates":[[[2.01657,50.84018],[2.01487,50.83903],[2.01227,50.84019],[2.01392,50.8414],[2.01657,50.84018]]]}},{"type":"Feature","properties":{"k":"JAC","s":0.134},"geometry":{"type":"Polygon","coordinates":[[[2.01392,50.8414],[2.01402,50.84149],[2.01514,50.84105],[2.01499,50.84093],[2.01392,50.8414]]]}},{"type":"Feature","properties":{"k":"PTR","s":0.094},"geometry":{"type":"Polygon","coordinates":[[[2.01333,50.843],[2.01327,50.84302],[2.01536,50.84465],[2.01333,50.843]]]}},{"type":"Feature","properties":{"k":"PTC","s":4.634},"geometry":{"type":"Polygon","coordinates":[[[2.01205,50.8429],[2.01432,50.84194],[2.01206,50.84026],[2.00988,50.84124],[2.01205,50.8429]]]}},{"type":"Feature","properties":{"k":"JAC","s":0.002},"geometry":{"type":"Polygon","coordinates":[[[2.02016,50.83957],[2.02001,50.83925],[2.02014,50.83957],[2.02016,50.83957]]]}},{"type":"Feature","properties":{"k":"JAC","s":0.112},"geometry":{"type":"Polygon","coordinates":[[[2.02009,50.83958],[2.01909,50.83728],[2.01904,50.8373],[2.02009,50.83958]]]}},{"type":"Feature","properties":{"k":"BTP","s":7.943},"geometry":{"type":"Polygon","coordinates":[[[2.01938,50.84066],[2.01895,50.83979],[2.02005,50.83959],[2.01904,50.8373],[2.01504,50.83897],[2.01811,50.84115],[2.01938,50.84066]]]}},{"type":"Feature","properties":{"k":"BTH","s":1.993},"geometry":{"type":"Polygon","coordinates":[[[2.00743,50.85017],[2.00644,50.85056],[2.00894,50.85265],[2.0096,50.8524],[2.00743,50.85017]]]}},{"type":"Feature","properties":{"k":"PTR","s":0.083},"geometry":{"type":"Polygon","coordinates":[[[2.00554,50.85091],[2.00398,50.84941],[2.00396,50.84947],[2.00554,50.85091]]]}},{"type":"Feature","properties":{"k":"MIS","s":1.299},"geometry":{"type":"Polygon","coordinates":[[[2.00285,50.85099],[2.00344,50.85138],[2.00217,50.85018],[2.00084,50.85077],[2.0019,50.85167],[2.00285,50.85099]]]}},{"type":"Feature","properties":{"k":"BTH","s":4.428},"geometry":{"type":"Polygon","coordinates":[[[2.00214,50.84892],[2.00258,50.84983],[2.00388,50.8494],[2.00469,50.84734],[2.00417,50.84682],[2.00129,50.84802],[2.00214,50.84892]],[[2.00232,50.84835],[2.00218,50.84841],[2.00206,50.84833],[2.00224,50.84825],[2.00232,50.84835]]]}},{"type":"Feature","properties":{"k":"NVT","s":0.172},"geometry":{"type":"Polygon","coordinates":[[[1.99728,50.8511],[1.99753,50.851],[1.9964,50.85068],[1.99609,50.8508],[1.99728,50.8511]]]}},{"type":"Feature","properties":{"k":"PTC","s":0.357},"geometry":{"type":"Polygon","coordinates":[[[1.99658,50.85105],[1.99614,50.85093],[1.99677,50.85171],[1.99763,50.85126],[1.99658,50.85105]]]}},{"type":"Feature","properties":{"k":"MIS","s":0.305},"geometry":{"type":"MultiPolygon","coordinates":[[[[1.99784,50.85505],[1.99804,50.85568],[1.99883,50.85495],[1.99784,50.85505]]],[[[1.99618,50.85739],[1.9967,50.85691],[1.99599,50.85733],[1.99618,50.85739]]]]}},{"type":"Feature","properties":{"k":"PPH","s":0.242},"geometry":{"type":"Polygon","coordinates":[[[2.00342,50.85714],[2.00223,50.85796],[2.00241,50.85813],[2.00352,50.85733],[2.00342,50.85714]]]}},{"type":"Feature","properties":{"k":"LBF","s":3.84},"geometry":{"type":"Polygon","coordinates":[[[1.99951,50.84974],[2.0003,50.85059],[1.99844,50.85137],[1.99999,50.85183],[2.00094,50.8513],[2.00056,50.85087],[2.00252,50.85001],[2.00182,50.84878],[1.99951,50.84974]]]}},{"type":"Feature","properties":{"k":"POR","s":0.115},"geometry":{"type":"Polygon","coordinates":[[[1.99984,50.85011],[1.99947,50.84969],[1.99919,50.8498],[1.99959,50.85021],[1.99984,50.85011]]]}},{"type":"Feature","properties":{"k":"PTC","s":1.055},"geometry":{"type":"Polygon","coordinates":[[[1.99959,50.85021],[1.99919,50.8498],[1.99665,50.85075],[1.99753,50.851],[1.99959,50.85021]]]}},{"type":"Feature","properties":{"k":"MDI","s":0.168},"geometry":{"type":"Polygon","coordinates":[[[1.99826,50.85013],[1.99947,50.84969],[1.99937,50.84954],[1.99813,50.85002],[1.99826,50.85013]]]}},{"type":"Feature","properties":{"k":"PPH","s":1.905},"geometry":{"type":"Polygon","coordinates":[[[2.00097,50.84791],[2.00043,50.84772],[2.00048,50.84785],[1.99991,50.84811],[2.00068,50.84853],[2.00114,50.84899],[2.00093,50.84907],[2.00008,50.84848],[1.99961,50.84866],[1.99949,50.84897],[1.99906,50.84915],[1.99951,50.84974],[2.00185,50.84872],[2.00097,50.84791]]]}},{"type":"Feature","properties":{"k":"BTA","s":0.073},"geometry":{"type":"Polygon","coordinates":[[[2.00237,50.84982],[2.00252,50.85001],[2.00188,50.84875],[2.00237,50.84982]]]}},{"type":"Feature","properties":{"k":"BTA","s":0.114},"geometry":{"type":"Polygon","coordinates":[[[2.00214,50.84892],[2.00125,50.84798],[2.00208,50.84894],[2.00256,50.84978],[2.00214,50.84892]]]}},{"type":"Feature","properties":{"k":"BTN","s":1.084},"geometry":{"type":"Polygon","coordinates":[[[2.00405,50.86139],[2.00507,50.86191],[2.00532,50.86142],[2.0038,50.86043],[2.00349,50.8604],[2.00308,50.86074],[2.00405,50.86139]]]}},{"type":"Feature","properties":{"k":"JAC","s":0.099},"geometry":{"type":"Polygon","coordinates":[[[2.00405,50.86139],[2.00303,50.86071],[2.004,50.86142],[2.00501,50.86188],[2.00405,50.86139]]]}},{"type":"Feature","properties":{"k":"JAC","s":0.079},"geometry":{"type":"Polygon","coordinates":[[[2.00394,50.86148],[2.00449,50.86176],[2.00293,50.86076],[2.00394,50.86148]]]}},{"type":"Feature","properties":{"k":"JAC","s":0.427},"geometry":{"type":"Polygon","coordinates":[[[2.00327,50.86217],[2.00319,50.86232],[2.00386,50.86255],[2.00449,50.86176],[2.00406,50.86154],[2.00348,50.86222],[2.00327,50.86217]]]}},{"type":"Feature","properties":{"k":"BTN","s":1.125},"geometry":{"type":"Polygon","coordinates":[[[2.00287,50.8608],[2.00215,50.86176],[2.00348,50.86222],[2.00394,50.86148],[2.00287,50.8608]]]}},{"type":"Feature","properties":{"k":"PPH","s":1.207},"geometry":{"type":"Polygon","coordinates":[[[2.00313,50.86252],[2.00304,50.86267],[2.0055,50.86353],[2.00555,50.86315],[2.00317,50.86232],[2.00325,50.86218],[2.00213,50.86177],[2.00177,50.86219],[2.00313,50.86252]]]}},{"type":"Feature","properties":{"k":"PPH","s":2.699},"geometry":{"type":"Polygon","coordinates":[[[2.00118,50.86382],[2.00487,50.86541],[2.00543,50.86457],[2.00192,50.86327],[2.00118,50.86382]]]}},{"type":"Feature","properties":{"k":"JAC","s":0.026},"geometry":{"type":"Polygon","coordinates":[[[2.00128,50.86308],[2.00188,50.8633],[2.00192,50.86327],[2.00128,50.86308]]]}},{"type":"Feature","properties":{"k":"PPH","s":1.795},"geometry":{"type":"Polygon","coordinates":[[[2.00654,50.86687],[2.00717,50.86599],[2.00477,50.8657],[2.00417,50.86655],[2.00654,50.86687]]]}},{"type":"Feature","properties":{"k":"PPH","s":3.639},"geometry":{"type":"Polygon","coordinates":[[[2.00899,50.86618],[2.00925,50.86511],[2.00553,50.86451],[2.00482,50.8656],[2.00899,50.86618]]]}},{"type":"Feature","properties":{"k":"PPH","s":1.508},"geometry":{"type":"Polygon","coordinates":[[[2.00275,50.86299],[2.00255,50.86326],[2.00306,50.86344],[2.00288,50.86362],[2.00543,50.86456],[2.00585,50.86393],[2.00275,50.86299]]]}},{"type":"Feature","properties":{"k":"PPH","s":3.853},"geometry":{"type":"Polygon","coordinates":[[[2.00866,50.86501],[2.00912,50.86401],[2.00723,50.86271],[2.0072,50.86307],[2.00642,50.8629],[2.00553,50.86451],[2.00866,50.86501]]]}},{"type":"Feature","properties":{"k":"MIS","s":0.44},"geometry":{"type":"Polygon","coordinates":[[[2.00965,50.86429],[2.00916,50.86404],[2.00866,50.86501],[2.00925,50.8651],[2.00965,50.86429]]]}},{"type":"Feature","properties":{"k":"PPH","s":2.047},"geometry":{"type":"Polygon","coordinates":[[[2.00908,50.86677],[2.00949,50.86683],[2.00939,50.86718],[2.01076,50.86735],[2.01153,50.86615],[2.0092,50.86572],[2.00908,50.86677]]]}},{"type":"Feature","properties":{"k":"ORH","s":2.07},"geometry":{"type":"Polygon","coordinates":[[[2.01281,50.85872],[2.01155,50.85837],[2.01034,50.86011],[2.01164,50.86055],[2.01281,50.85872]]]}},{"type":"Feature","properties":{"k":"JAC","s":1.871},"geometry":{"type":"Polygon","coordinates":[[[2.00913,50.85976],[2.01162,50.86061],[2.01034,50.86011],[2.01155,50.85837],[2.01047,50.85808],[2.00913,50.85976]],[[2.01089,50.85861],[2.01064,50.85896],[2.01032,50.85887],[2.01058,50.85853],[2.01089,50.85861]]]}},{"type":"Feature","properties":{"k":"PPH","s":1.796},"geometry":{"type":"Polygon","coordinates":[[[2.00737,50.85992],[2.00836,50.86041],[2.00913,50.85968],[2.00823,50.85932],[2.00797,50.85949],[2.00751,50.85925],[2.00726,50.85944],[2.00667,50.85919],[2.00577,50.85969],[2.0068,50.86037],[2.00737,50.85992]]]}},{"type":"Feature","properties":{"k":"PPH","s":1.468},"geometry":{"type":"Polygon","coordinates":[[[2.01147,50.86133],[2.01158,50.86061],[2.00913,50.85976],[2.00865,50.86025],[2.01147,50.86133]]]}},{"type":"Feature","properties":{"k":"PPH","s":2.906},"geometry":{"type":"Polygon","coordinates":[[[2.01146,50.86132],[2.00863,50.86025],[2.00787,50.86099],[2.01054,50.86248],[2.01146,50.86132]]]}},{"type":"Feature","properties":{"k":"PPH","s":4.03},"geometry":{"type":"Polygon","coordinates":[[[2.0072,50.86146],[2.00643,50.86287],[2.00718,50.86304],[2.0072,50.86265],[2.00766,50.86237],[2.00989,50.8639],[2.01011,50.86332],[2.0095,50.86298],[2.00976,50.86276],[2.01026,50.86299],[2.01054,50.86248],[2.00787,50.86099],[2.0072,50.86146]]]}},{"type":"Feature","properties":{"k":"BTA","s":0.236},"geometry":{"type":"Polygon","coordinates":[[[2.00825,50.86042],[2.00707,50.86142],[2.0064,50.86287],[2.00714,50.86145],[2.00835,50.86041],[2.00733,50.85998],[2.00825,50.86042]]]}},{"type":"Feature","properties":{"k":"ORP","s":2.968},"geometry":{"type":"Polygon","coordinates":[[[2.00498,50.86221],[2.00575,50.8624],[2.00566,50.86271],[2.00631,50.86285],[2.00707,50.86142],[2.00825,50.86042],[2.00733,50.85998],[2.00542,50.8614],[2.00498,50.86221]]]}},{"type":"Feature","properties":{"k":"LIF","s":3.787},"geometry":{"type":"Polygon","coordinates":[[[2.00711,50.8588],[2.0066,50.85827],[2.00618,50.85853],[2.00498,50.85793],[2.00326,50.85899],[2.00341,50.8591],[2.00306,50.85926],[2.00441,50.86021],[2.00711,50.8588]]]}},{"type":"Feature","properties":{"k":"PPH","s":0.424},"geometry":{"type":"Polygon","coordinates":[[[2.0071,50.85795],[2.00745,50.85767],[2.00648,50.8571],[2.00603,50.85739],[2.0071,50.85795]]]}},{"type":"Feature","properties":{"k":"JAC","s":0.074},"geometry":{"type":"Polygon","coordinates":[[[2.00545,50.85633],[2.00566,50.85655],[2.00545,50.85606],[2.00451,50.85545],[2.00352,50.85605],[2.0045,50.85549],[2.00542,50.85608],[2.00545,50.85633]]]}},{"type":"Feature","properties":{"k":"LIF","s":7.192},"geometry":{"type":"Polygon","coordinates":[[[2.00643,50.85623],[2.00714,50.85667],[2.00648,50.8571],[2.00807,50.85788],[2.0089,50.85675],[2.0092,50.85582],[2.00848,50.8554],[2.0082,50.85557],[2.00768,50.85526],[2.00713,50.85559],[2.00605,50.85491],[2.00548,50.855],[2.00499,50.8545],[2.00252,50.8552],[2.00253,50.85571],[2.00353,50.85609],[2.00451,50.85545],[2.00545,50.85606],[2.00569,50.85657],[2.00643,50.85623]]]}},{"type":"Feature","properties":{"k":"MIS","s":1.997},"geometry":{"type":"Polygon","coordinates":[[[2.00916,50.85611],[2.00917,50.85672],[2.01144,50.85731],[2.01186,50.85645],[2.00941,50.85571],[2.00916,50.85611]]]}},{"type":"Feature","properties":{"k":"PPH","s":3.998},"geometry":{"type":"Polygon","coordinates":[[[2.00226,50.84468],[2.00343,50.84591],[2.0045,50.84557],[2.00539,50.84484],[2.00616,50.8445],[2.00505,50.84336],[2.00226,50.84468]]]}},{"type":"Feature","properties":{"k":"BTH","s":8.572},"geometry":{"type":"Polygon","coordinates":[[[2.00577,50.84285],[2.0073,50.84217],[2.00197,50.83756],[2.00042,50.83832],[2.00577,50.84285]]]}},{"type":"Feature","properties":{"k":"MIS","s":8.289},"geometry":{"type":"Polygon","coordinates":[[[2.00239,50.84225],[2.00404,50.84362],[2.00577,50.84285],[2.00042,50.83832],[1.99943,50.8388],[2.00239,50.84225]]]}},{"type":"Feature","properties":{"k":"BTN","s":11.159},"geometry":{"type":"Polygon","coordinates":[[[2.00385,50.84368],[2.00056,50.84034],[1.99876,50.83915],[1.99675,50.84047],[2.00223,50.84451],[2.00385,50.84368]]]}},{"type":"Feature","properties":{"k":"BTN","s":0.981},"geometry":{"type":"Polygon","coordinates":[[[1.99948,50.84249],[1.99675,50.84047],[1.99659,50.84058],[2.00202,50.8446],[2.0022,50.84451],[1.99948,50.84249]]]}},{"type":"Feature","properties":{"k":"MIS","s":1.422},"geometry":{"type":"Polygon","coordinates":[[[2.00202,50.8446],[1.99659,50.84058],[1.99635,50.84073],[2.00176,50.84474],[2.00202,50.8446]]]}},{"type":"Feature","properties":{"k":"MIS","s":8.871},"geometry":{"type":"Polygon","coordinates":[[[2.00176,50.84474],[1.99635,50.84073],[1.99486,50.84176],[2.00014,50.84558],[2.00176,50.84474]]]}},{"type":"Feature","properties":{"k":"ORP","s":1.774},"geometry":{"type":"Polygon","coordinates":[[[1.99408,50.83748],[1.99763,50.83977],[1.99814,50.83944],[1.99454,50.83715],[1.99408,50.83748]]]}},{"type":"Feature","properties":{"k":"BTH","s":3.286},"geometry":{"type":"Polygon","coordinates":[[[1.99408,50.83748],[1.9932,50.83812],[1.99674,50.84035],[1.99763,50.83977],[1.99408,50.83748]]]}},{"type":"Feature","properties":{"k":"BTH","s":5.796},"geometry":{"type":"Polygon","coordinates":[[[1.99674,50.84035],[1.99167,50.83713],[1.99044,50.83784],[1.99416,50.84021],[1.99427,50.84012],[1.99576,50.84102],[1.99674,50.84035]]]}},{"type":"Feature","properties":{"k":"BTN","s":3.454},"geometry":{"type":"Polygon","coordinates":[[[1.99518,50.83668],[1.99329,50.83552],[1.99241,50.83576],[1.9931,50.83629],[1.99167,50.83713],[1.9932,50.83812],[1.99518,50.83668]]]}},{"type":"Feature","properties":{"k":"MIS","s":1.056},"geometry":{"type":"Polygon","coordinates":[[[1.99621,50.83593],[1.99566,50.83633],[1.99902,50.8386],[1.99621,50.83593]]]}},{"type":"Feature","properties":{"k":"LIF","s":4.202},"geometry":{"type":"Polygon","coordinates":[[[1.99566,50.83633],[1.99454,50.83715],[1.99814,50.83944],[1.99918,50.83877],[1.99566,50.83633]]]}},{"type":"Feature","properties":{"k":"BTH","s":0.13},"geometry":{"type":"MultiPolygon","coordinates":[[[[1.99627,50.83589],[1.99624,50.83586],[1.99619,50.83588],[1.99629,50.83598],[1.99627,50.83589]]],[[[1.99673,50.83644],[1.9972,50.8368],[1.99654,50.83624],[1.99673,50.83644]]],[[[2.00199,50.83752],[2.00194,50.83747],[1.99937,50.83881],[2.00199,50.83752]]]]}},{"type":"Feature","properties":{"k":"PTC","s":6.471},"geometry":{"type":"Polygon","coordinates":[[[2.00408,50.83938],[2.00737,50.83839],[2.00434,50.83638],[2.00194,50.83754],[2.00408,50.83938]],[[2.00353,50.83696],[2.00352,50.83701],[2.00346,50.837],[2.00353,50.83696]]]}},{"type":"Feature","properties":{"k":"LIF","s":0.152},"geometry":{"type":"Polygon","coordinates":[[[2.00434,50.83638],[2.00425,50.83632],[2.00199,50.83752],[2.00434,50.83638]]]}},{"type":"Feature","properties":{"k":"ORH","s":3.956},"geometry":{"type":"Polygon","coordinates":[[[2.01094,50.85723],[2.00908,50.85672],[2.00766,50.85889],[2.00826,50.8593],[2.00911,50.8596],[2.01094,50.85723]]]}},{"type":"Feature","properties":{"k":"BTA","s":0.15},"geometry":{"type":"Polygon","coordinates":[[[2.00908,50.85964],[2.00914,50.85967],[2.011,50.85724],[2.00908,50.85964]]]}},{"type":"Feature","properties":{"k":"PTR","s":3.065},"geometry":{"type":"Polygon","coordinates":[[[2.01154,50.85743],[2.0111,50.85733],[2.01051,50.85808],[2.01175,50.85843],[2.01236,50.85761],[2.01365,50.85454],[2.01422,50.85475],[2.0143,50.85464],[2.01311,50.85422],[2.01154,50.85743]]]}},{"type":"Feature","properties":{"k":"PHF","s":3.649},"geometry":{"type":"Polygon","coordinates":[[[2.01453,50.85544],[2.01417,50.85503],[2.01422,50.85475],[2.01365,50.85454],[2.01236,50.85761],[2.01175,50.85843],[2.01281,50.85872],[2.01453,50.85544]]]}},{"type":"Feature","properties":{"k":"BTA","s":0.174},"geometry":{"type":"Polygon","coordinates":[[[2.01149,50.85736],[2.01106,50.85725],[2.01045,50.85807],[2.0111,50.85733],[2.01154,50.85743],[2.01237,50.85546],[2.01149,50.85736]]]}},{"type":"Feature","properties":{"k":"BTH","s":2.031},"geometry":{"type":"Polygon","coordinates":[[[2.0099,50.83869],[2.00942,50.83925],[2.00813,50.83825],[2.00783,50.83834],[2.01078,50.84063],[2.01178,50.84016],[2.0099,50.83869]]]}},{"type":"Feature","properties":{"k":"BTA","s":0.112},"geometry":{"type":"Polygon","coordinates":[[[2.01197,50.84008],[2.00994,50.83865],[2.0099,50.83869],[2.0116,50.84001],[2.01197,50.84008]]]}},{"type":"Feature","properties":{"k":"BTN","s":2.0},"geometry":{"type":"Polygon","coordinates":[[[2.01006,50.84095],[2.01078,50.84063],[2.00778,50.83835],[2.00698,50.83857],[2.01006,50.84095]]]}},{"type":"Feature","properties":{"k":"BTH","s":8.12},"geometry":{"type":"Polygon","coordinates":[[[2.00698,50.83857],[2.00416,50.83944],[2.00732,50.84216],[2.01004,50.84096],[2.00698,50.83857]]]}},{"type":"Feature","properties":{"k":"PTR","s":2.221},"geometry":{"type":"Polygon","coordinates":[[[2.00637,50.84426],[2.00656,50.84443],[2.00722,50.84449],[2.00828,50.84415],[2.00756,50.8432],[2.0064,50.84279],[2.00585,50.84302],[2.00589,50.84365],[2.00563,50.84393],[2.00616,50.8445],[2.00609,50.84437],[2.00637,50.84426]]]}},{"type":"Feature","properties":{"k":"MIS","s":2.051},"geometry":{"type":"Polygon","coordinates":[[[2.00924,50.84809],[2.0102,50.84938],[2.01169,50.84887],[2.0105,50.84734],[2.00924,50.84809]]]}},{"type":"Feature","properties":{"k":"MIS","s":4.68},"geometry":{"type":"Polygon","coordinates":[[[2.00986,50.84123],[2.00839,50.84189],[2.01015,50.84422],[2.01251,50.84326],[2.00986,50.84123]]]}},{"type":"Feature","properties":{"k":"PTR","s":0.02},"geometry":{"type":"Polygon","coordinates":[[[2.01192,50.8401],[2.0118,50.83999],[2.01162,50.84002],[2.01192,50.8401]]]}},{"type":"Feature","properties":{"k":"BTA","s":0.17},"geometry":{"type":"Polygon","coordinates":[[[2.01227,50.84019],[2.01218,50.84023],[2.01391,50.84153],[2.01227,50.84019]]]}},{"type":"Feature","properties":{"k":"BTA","s":0.123},"geometry":{"type":"Polygon","coordinates":[[[2.01212,50.84023],[2.01206,50.84026],[2.01432,50.84194],[2.01212,50.84023]]]}},{"type":"Feature","properties":{"k":"ORP","s":2.147},"geometry":{"type":"Polygon","coordinates":[[[2.01227,50.85548],[2.01026,50.85478],[2.00949,50.85528],[2.00941,50.85571],[2.01186,50.85645],[2.01227,50.85548]]]}},{"type":"Feature","properties":{"k":"BTA","s":0.226},"geometry":{"type":"Polygon","coordinates":[[[2.01233,50.85536],[2.01042,50.85469],[2.01026,50.85478],[2.01227,50.85548],[2.01233,50.85536]]]}},{"type":"Feature","properties":{"k":"PTR","s":0.988},"geometry":{"type":"Polygon","coordinates":[[[2.01233,50.85536],[2.01265,50.85464],[2.01135,50.85414],[2.01042,50.85469],[2.01078,50.85481],[2.01096,50.85466],[2.01115,50.85474],[2.01097,50.85488],[2.01144,50.85505],[2.01158,50.85484],[2.01186,50.85496],[2.01168,50.85513],[2.01233,50.85536]]]}},{"type":"Feature","properties":{"k":"PPH","s":0.693},"geometry":{"type":"MultiPolygon","coordinates":[[[[2.01136,50.85414],[2.01156,50.85415],[2.01253,50.85449],[2.01308,50.85398],[2.01243,50.85353],[2.01136,50.85414]]],[[[2.01191,50.85438],[2.01265,50.85464],[2.01298,50.85421],[2.01306,50.85406],[2.01308,50.85398],[2.01268,50.85459],[2.01136,50.85414],[2.01191,50.85438]]]]}},{"type":"Feature","properties":{"k":"PPH","s":1.545},"geometry":{"type":"Polygon","coordinates":[[[2.01471,50.8554],[2.01442,50.85596],[2.01453,50.85654],[2.01582,50.85476],[2.01528,50.85371],[2.01482,50.85388],[2.01498,50.85417],[2.01442,50.85469],[2.01431,50.85503],[2.01471,50.8554]]]}},{"type":"Feature","properties":{"k":"LUZ","s":0.83},"geometry":{"type":"Polygon","coordinates":[[[2.01359,50.8518],[2.01326,50.85142],[2.01257,50.85166],[2.01242,50.85152],[2.0137,50.85107],[2.01356,50.85096],[2.0118,50.85168],[2.01217,50.85236],[2.01359,50.8518]]]}},{"type":"Feature","properties":{"k":"BTH","s":0.005},"geometry":{"type":"Polygon","coordinates":[[[2.01751,50.83656],[2.01809,50.8364],[2.01705,50.83667],[2.01751,50.83656]]]}}]}