{"type":"FeatureCollection","features":[{"type":"Feature","properties":{"k":"BTH","s":1.364},"geometry":{"type":"Polygon","coordinates":[[[2.87419,50.34372],[2.87243,50.34332],[2.87176,50.34396],[2.87301,50.34465],[2.87419,50.34372]]]}},{"type":"Feature","properties":{"k":"BTH","s":0.357},"geometry":{"type":"Polygon","coordinates":[[[2.89694,50.34431],[2.89649,50.34451],[2.89802,50.34491],[2.8982,50.34463],[2.89694,50.34431]]]}},{"type":"Feature","properties":{"k":"PHF","s":3.001},"geometry":{"type":"Polygon","coordinates":[[[2.86943,50.34228],[2.87402,50.3391],[2.87337,50.33872],[2.86865,50.34202],[2.86943,50.34228]]]}},{"type":"Feature","properties":{"k":"BTH","s":3.409},"geometry":{"type":"Polygon","coordinates":[[[2.86828,50.35021],[2.87181,50.34809],[2.87063,50.34762],[2.86893,50.34864],[2.8706,50.34762],[2.87043,50.34754],[2.8677,50.34922],[2.86828,50.35021]]]}},{"type":"Feature","properties":{"k":"BTH","s":0.027},"geometry":{"type":"Polygon","coordinates":[[[2.86881,50.35114],[2.87057,50.3519],[2.87059,50.35189],[2.86881,50.35114]]]}},{"type":"Feature","properties":{"k":"BTN","s":0.005},"geometry":{"type":"Polygon","coordinates":[[[2.87059,50.35191],[2.87111,50.35213],[2.87061,50.35189],[2.87059,50.35191]]]}},{"type":"Feature","properties":{"k":"BTN","s":4.427},"geometry":{"type":"Polygon","coordinates":[[[2.87519,50.34946],[2.87388,50.34893],[2.86968,50.35148],[2.871,50.35201],[2.87519,50.34946]]]}},{"type":"Feature","properties":{"k":"BTH","s":6.702},"geometry":{"type":"Polygon","coordinates":[[[2.86828,50.35021],[2.8688,50.35112],[2.86968,50.35148],[2.87388,50.34893],[2.87181,50.34809],[2.86828,50.35021]]]}},{"type":"Feature","properties":{"k":"PTC","s":0.998},"geometry":{"type":"Polygon","coordinates":[[[2.86749,50.34884],[2.8677,50.34922],[2.87043,50.34754],[2.87,50.34736],[2.86749,50.34884]]]}},{"type":"Feature","properties":{"k":"PTC","s":0.768},"geometry":{"type":"Polygon","coordinates":[[[2.86729,50.34859],[2.86749,50.34883],[2.86998,50.34733],[2.86955,50.34715],[2.86729,50.34859]]]}},{"type":"Feature","properties":{"k":"BTN","s":0.238},"geometry":{"type":"Polygon","coordinates":[[[2.87911,50.35551],[2.8789,50.35564],[2.88021,50.35626],[2.88038,50.3561],[2.87911,50.35551]]]}},{"type":"Feature","properties":{"k":"JAC","s":0.379},"geometry":{"type":"Polygon","coordinates":[[[2.87917,50.3555],[2.88038,50.3561],[2.8807,50.35582],[2.87953,50.35527],[2.87917,50.3555]]]}},{"type":"Feature","properties":{"k":"BTN","s":1.0},"geometry":{"type":"Polygon","coordinates":[[[2.87973,50.35684],[2.88229,50.35722],[2.88065,50.35599],[2.87973,50.35684]]]}},{"type":"Feature","properties":{"k":"MIS","s":0.004},"geometry":{"type":"Polygon","coordinates":[[[2.88473,50.35758],[2.88477,50.35759],[2.88502,50.35746],[2.88473,50.35758]]]}},{"type":"Feature","properties":{"k":"ORP","s":0.203},"geometry":{"type":"Polygon","coordinates":[[[2.88021,50.35626],[2.8789,50.35564],[2.87873,50.35576],[2.88006,50.35638],[2.88021,50.35626]]]}},{"type":"Feature","properties":{"k":"PHF","s":0.019},"geometry":{"type":"Polygon","coordinates":[[[2.88102,50.33873],[2.87899,50.34036],[2.88104,50.33873],[2.88102,50.33873]]]}},{"type":"Feature","properties":{"k":"BTN","s":1.108},"geometry":{"type":"Polygon","coordinates":[[[2.87797,50.34119],[2.87833,50.34136],[2.88148,50.33882],[2.88106,50.33873],[2.87797,50.34119]]]}},{"type":"Feature","properties":{"k":"PTC","s":15.878},"geometry":{"type":"Polygon","coordinates":[[[2.87869,50.34489],[2.88189,50.34267],[2.88543,50.33988],[2.88378,50.33931],[2.88148,50.33882],[2.87833,50.34136],[2.88008,50.34219],[2.87698,50.34428],[2.87869,50.34489]],[[2.88143,50.34132],[2.88133,50.34141],[2.88123,50.34131],[2.88143,50.34132]]]}},{"type":"Feature","properties":{"k":"PTC","s":7.561},"geometry":{"type":"Polygon","coordinates":[[[2.88543,50.33988],[2.88189,50.34267],[2.87884,50.34478],[2.87978,50.34527],[2.87963,50.34538],[2.88002,50.34561],[2.88116,50.34474],[2.88099,50.34463],[2.88265,50.34354],[2.88621,50.34075],[2.8857,50.33997],[2.88543,50.33988]],[[2.88099,50.34466],[2.88104,50.3447],[2.88097,50.34476],[2.88095,50.34478],[2.88099,50.34466]]]}},{"type":"Feature","properties":{"k":"BTN","s":5.632},"geometry":{"type":"Polygon","coordinates":[[[2.88099,50.34463],[2.88116,50.34474],[2.88002,50.34561],[2.8807,50.34601],[2.88409,50.34366],[2.88672,50.34156],[2.88621,50.34075],[2.88265,50.34354],[2.88099,50.34463]]]}},{"type":"Feature","properties":{"k":"BTH","s":12.841},"geometry":{"type":"Polygon","coordinates":[[[2.8845,50.34519],[2.88631,50.34571],[2.88857,50.34447],[2.88712,50.34221],[2.88688,50.34225],[2.88653,50.3417],[2.88409,50.34366],[2.8807,50.34601],[2.88219,50.34701],[2.8845,50.34519]]]}},{"type":"Feature","properties":{"k":"BTH","s":1.891},"geometry":{"type":"Polygon","coordinates":[[[2.87699,50.34428],[2.88008,50.34219],[2.8794,50.34187],[2.87625,50.34405],[2.87699,50.34428]]]}},{"type":"Feature","properties":{"k":"PHF","s":2.922},"geometry":{"type":"Polygon","coordinates":[[[2.87516,50.34379],[2.87854,50.34145],[2.8776,50.34104],[2.87398,50.34362],[2.87516,50.34379]]]}},{"type":"Feature","properties":{"k":"MIS","s":2.595},"geometry":{"type":"Polygon","coordinates":[[[2.87599,50.34321],[2.87516,50.34379],[2.87624,50.34404],[2.87941,50.34186],[2.87854,50.34145],[2.87599,50.34321]]]}},{"type":"Feature","properties":{"k":"CZH","s":4.118},"geometry":{"type":"Polygon","coordinates":[[[2.87398,50.34361],[2.8776,50.34104],[2.87645,50.34051],[2.87249,50.34326],[2.87398,50.34361]]]}},{"type":"Feature","properties":{"k":"BOR","s":0.272},"geometry":{"type":"Polygon","coordinates":[[[2.8764,50.34051],[2.87249,50.34326],[2.87645,50.34051],[2.8754,50.33992],[2.87119,50.34286],[2.87541,50.33995],[2.8764,50.34051]]]}},{"type":"Feature","properties":{"k":"LIF","s":0.719},"geometry":{"type":"Polygon","coordinates":[[[2.8754,50.33992],[2.87522,50.33981],[2.87099,50.3428],[2.87119,50.34286],[2.8754,50.33992]]]}},{"type":"Feature","properties":{"k":"BTH","s":3.986},"geometry":{"type":"Polygon","coordinates":[[[2.87248,50.34326],[2.8764,50.34051],[2.87541,50.33995],[2.87119,50.34286],[2.87248,50.34326]]]}},{"type":"Feature","properties":{"k":"BTH","s":1.041},"geometry":{"type":"Polygon","coordinates":[[[2.87231,50.34562],[2.87464,50.3438],[2.87419,50.34372],[2.87127,50.34598],[2.87159,50.34621],[2.87231,50.34562]]]}},{"type":"Feature","properties":{"k":"BTH","s":1.331},"geometry":{"type":"Polygon","coordinates":[[[2.87234,50.34611],[2.87525,50.34389],[2.87464,50.3438],[2.87159,50.34621],[2.87189,50.34644],[2.87234,50.34611]]]}},{"type":"Feature","properties":{"k":"PTC","s":10.13},"geometry":{"type":"Polygon","coordinates":[[[2.87292,50.34851],[2.8779,50.34466],[2.87528,50.34387],[2.87186,50.34649],[2.87243,50.34689],[2.87122,50.34783],[2.87292,50.34851]]]}},{"type":"Feature","properties":{"k":"BTH","s":5.527},"geometry":{"type":"Polygon","coordinates":[[[2.87099,50.3428],[2.87522,50.33981],[2.87404,50.33911],[2.86943,50.34228],[2.87099,50.3428]]]}},{"type":"Feature","properties":{"k":"CZH","s":9.052},"geometry":{"type":"Polygon","coordinates":[[[2.87697,50.35011],[2.88146,50.34662],[2.87976,50.34552],[2.87489,50.34928],[2.87697,50.35011]]]}},{"type":"Feature","properties":{"k":"BTH","s":7.882},"geometry":{"type":"Polygon","coordinates":[[[2.88308,50.34774],[2.88147,50.34662],[2.87697,50.35011],[2.87892,50.35089],[2.88308,50.34774]],[[2.88181,50.34689],[2.88305,50.34774],[2.88182,50.34696],[2.88068,50.3479],[2.88181,50.34689]]]}},{"type":"Feature","properties":{"k":"BTH","s":10.079},"geometry":{"type":"Polygon","coordinates":[[[2.88311,50.34775],[2.87902,50.35091],[2.88181,50.35203],[2.88531,50.34946],[2.88311,50.34775]]]}},{"type":"Feature","properties":{"k":"BTH","s":3.355},"geometry":{"type":"Polygon","coordinates":[[[2.8857,50.35023],[2.88605,50.34998],[2.88531,50.34946],[2.88262,50.35154],[2.88321,50.35178],[2.88254,50.3523],[2.88329,50.35256],[2.88602,50.35049],[2.8857,50.35023]]]}},{"type":"Feature","properties":{"k":"BTH","s":2.664},"geometry":{"type":"Polygon","coordinates":[[[2.87948,50.35117],[2.87823,50.35188],[2.881,50.35298],[2.88225,50.35225],[2.87948,50.35117]]]}},{"type":"Feature","properties":{"k":"ORH","s":11.852},"geometry":{"type":"Polygon","coordinates":[[[2.87468,50.35399],[2.87728,50.35245],[2.88199,50.35429],[2.88254,50.3536],[2.87823,50.35188],[2.87948,50.35117],[2.87707,50.35023],[2.87267,50.35293],[2.87468,50.35399]]]}},{"type":"Feature","properties":{"k":"LIF","s":6.58},"geometry":{"type":"Polygon","coordinates":[[[2.87266,50.35294],[2.8771,50.35022],[2.87519,50.34946],[2.871,50.35201],[2.87266,50.35294]]]}},{"type":"Feature","properties":{"k":"BTH","s":0.0},"geometry":{"type":"Polygon","coordinates":[]}},{"type":"Feature","properties":{"k":"BTN","s":0.01},"geometry":{"type":"MultiPolygon","coordinates":[[[[2.87488,50.35419],[2.87508,50.35439],[2.87509,50.35439],[2.87488,50.35419]]]]}},{"type":"Feature","properties":{"k":"BTH","s":3.316},"geometry":{"type":"Polygon","coordinates":[[[2.88002,50.35492],[2.87705,50.35372],[2.87556,50.35469],[2.87873,50.35576],[2.88002,50.35492]]]}},{"type":"Feature","properties":{"k":"BTN","s":6.575},"geometry":{"type":"Polygon","coordinates":[[[2.87531,50.35459],[2.87678,50.35362],[2.88119,50.35538],[2.88199,50.35429],[2.87728,50.35245],[2.87468,50.35399],[2.87531,50.35459]]]}},{"type":"Feature","properties":{"k":"BTH","s":0.32},"geometry":{"type":"Polygon","coordinates":[[[2.87556,50.35469],[2.87704,50.35373],[2.87678,50.35362],[2.87541,50.35464],[2.87556,50.35469]]]}},{"type":"Feature","properties":{"k":"BTH","s":1.231},"geometry":{"type":"Polygon","coordinates":[[[2.88254,50.3536],[2.8832,50.35263],[2.88225,50.35225],[2.881,50.35298],[2.88254,50.3536]]]}},{"type":"Feature","properties":{"k":"BTH","s":11.917},"geometry":{"type":"Polygon","coordinates":[[[2.88466,50.35757],[2.88727,50.35643],[2.88301,50.3532],[2.8823,50.35403],[2.8818,50.35503],[2.88066,50.35599],[2.88229,50.35722],[2.88466,50.35757]]]}},{"type":"Feature","properties":{"k":"VRG","s":0.01},"geometry":{"type":"Polygon","coordinates":[[[2.87976,50.35536],[2.88017,50.35557],[2.88058,50.35574],[2.87976,50.35536]]]}},{"type":"Feature","properties":{"k":"BOR","s":0.089},"geometry":{"type":"Polygon","coordinates":[[[2.87917,50.3555],[2.88003,50.35495],[2.88119,50.35538],[2.88002,50.35492],[2.87911,50.3555],[2.88037,50.35606],[2.87917,50.3555]]]}},{"type":"Feature","properties":{"k":"POT","s":0.244},"geometry":{"type":"Polygon","coordinates":[[[2.88017,50.35557],[2.8807,50.35582],[2.88093,50.35561],[2.87998,50.3552],[2.87978,50.35511],[2.87953,50.35527],[2.88017,50.35557]],[[2.87976,50.35536],[2.88058,50.35574],[2.88017,50.35557],[2.87976,50.35536]],[[2.8808,50.35558],[2.87995,50.35521],[2.87998,50.3552],[2.8808,50.35558]]]}},{"type":"Feature","properties":{"k":"BTH","s":2.595},"geometry":{"type":"MultiPolygon","coordinates":[[[[2.87122,50.34783],[2.87243,50.34689],[2.8712,50.34603],[2.87252,50.34502],[2.86935,50.34706],[2.87122,50.34783]]],[[[2.8721,50.34417],[2.87294,50.3447],[2.87301,50.34465],[2.8721,50.34417]]],[[[2.87169,50.34359],[2.87207,50.3432],[2.87186,50.34313],[2.87145,50.34377],[2.87176,50.34396],[2.87199,50.34372],[2.87169,50.34359]]]]}},{"type":"Feature","properties":{"k":"PWT","s":0.016},"geometry":{"type":"Polygon","coordinates":[[[2.87998,50.3552],[2.87995,50.35521],[2.8808,50.35558],[2.87998,50.3552]]]}},{"type":"Feature","properties":{"k":"BTH","s":0.014},"geometry":{"type":"Polygon","coordinates":[[[2.87756,50.3553],[2.87748,50.35528],[2.87906,50.35596],[2.87756,50.3553]]]}},{"type":"Feature","properties":{"k":"POR","s":0.258},"geometry":{"type":"Polygon","coordinates":[[[2.88117,50.3554],[2.88003,50.35495],[2.87978,50.35511],[2.88093,50.35561],[2.88117,50.3554]]]}},{"type":"Feature","properties":{"k":"PTC","s":0.371},"geometry":{"type":"Polygon","coordinates":[[[2.8673,50.34858],[2.86955,50.34714],[2.86935,50.34706],[2.86715,50.34848],[2.8673,50.34858]]]}},{"type":"Feature","properties":{"k":"PTC","s":3.992},"geometry":{"type":"Polygon","coordinates":[[[2.88856,50.35552],[2.8893,50.35622],[2.89316,50.35338],[2.8926,50.35259],[2.88856,50.35552]]]}},{"type":"Feature","properties":{"k":"CZH","s":7.835},"geometry":{"type":"Polygon","coordinates":[[[2.89639,50.35648],[2.89889,50.35732],[2.89948,50.35568],[2.89341,50.35362],[2.89427,50.35575],[2.89639,50.35648]]]}},{"type":"Feature","properties":{"k":"BTN","s":2.389},"geometry":{"type":"Polygon","coordinates":[[[2.89304,50.35302],[2.8934,50.35361],[2.89949,50.35568],[2.89965,50.35525],[2.89304,50.35302]]]}},{"type":"Feature","properties":{"k":"BTH","s":9.05},"geometry":{"type":"Polygon","coordinates":[[[2.89565,50.35261],[2.89607,50.35216],[2.89244,50.35096],[2.89252,50.35224],[2.89304,50.35302],[2.89965,50.35525],[2.90005,50.3541],[2.89565,50.35261]]]}},{"type":"Feature","properties":{"k":"MIS","s":6.967},"geometry":{"type":"Polygon","coordinates":[[[2.89607,50.35216],[2.89565,50.35261],[2.89661,50.35292],[2.8998,50.3496],[2.89872,50.34942],[2.89688,50.35129],[2.89236,50.34977],[2.89244,50.35096],[2.89607,50.35216]]]}},{"type":"Feature","properties":{"k":"BOR","s":0.049},"geometry":{"type":"Polygon","coordinates":[[[2.89664,50.34965],[2.89726,50.34984],[2.89528,50.34909],[2.89664,50.34965]]]}},{"type":"Feature","properties":{"k":"BTH","s":1.685},"geometry":{"type":"Polygon","coordinates":[[[2.89664,50.34966],[2.89527,50.34912],[2.895,50.34986],[2.89747,50.35068],[2.89812,50.35003],[2.89664,50.34966]]]}},{"type":"Feature","properties":{"k":"BTH","s":2.774},"geometry":{"type":"Polygon","coordinates":[[[2.89236,50.34977],[2.89688,50.35129],[2.89747,50.35069],[2.89366,50.3494],[2.89343,50.34962],[2.89233,50.34928],[2.89236,50.34977]]]}},{"type":"Feature","properties":{"k":"PPH","s":0.902},"geometry":{"type":"Polygon","coordinates":[[[2.89417,50.34872],[2.89362,50.34939],[2.895,50.34986],[2.89527,50.34897],[2.89493,50.34877],[2.89417,50.34872]],[[2.89472,50.34881],[2.89495,50.34888],[2.89483,50.34898],[2.89472,50.34881]]]}},{"type":"Feature","properties":{"k":"JAC","s":0.035},"geometry":{"type":"Polygon","coordinates":[[[2.89343,50.34962],[2.89366,50.3494],[2.89343,50.34959],[2.89237,50.34929],[2.89343,50.34962]]]}},{"type":"Feature","properties":{"k":"BTH","s":8.341},"geometry":{"type":"Polygon","coordinates":[[[2.89094,50.3537],[2.89248,50.35248],[2.89237,50.35167],[2.88956,50.3496],[2.88908,50.35002],[2.88875,50.34985],[2.88756,50.35108],[2.89094,50.3537]]]}},{"type":"Feature","properties":{"k":"JAC","s":0.216},"geometry":{"type":"Polygon","coordinates":[[[2.88828,50.35027],[2.88756,50.35108],[2.88875,50.34985],[2.88842,50.34969],[2.88801,50.35015],[2.88828,50.35027]]]}},{"type":"Feature","properties":{"k":"JAC","s":0.023},"geometry":{"type":"Polygon","coordinates":[[[2.8857,50.35023],[2.88605,50.35051],[2.88574,50.35023],[2.88602,50.35],[2.8857,50.35023]]]}},{"type":"Feature","properties":{"k":"PPH","s":3.097},"geometry":{"type":"Polygon","coordinates":[[[2.89218,50.34915],[2.89137,50.34882],[2.89075,50.34927],[2.89027,50.34907],[2.88961,50.3496],[2.89239,50.35167],[2.89218,50.34915]]]}},{"type":"Feature","properties":{"k":"PPH","s":1.224},"geometry":{"type":"Polygon","coordinates":[[[2.88725,50.34592],[2.88741,50.34577],[2.88711,50.34553],[2.88741,50.34526],[2.88868,50.34571],[2.8892,50.3452],[2.8888,50.34472],[2.88849,50.34487],[2.88826,50.34463],[2.88631,50.34571],[2.88725,50.34592]]]}},{"type":"Feature","properties":{"k":"BOR","s":0.04},"geometry":{"type":"Polygon","coordinates":[[[2.89679,50.34833],[2.89593,50.34807],[2.89669,50.34836],[2.89679,50.34833]]]}},{"type":"Feature","properties":{"k":"BOR","s":0.021},"geometry":{"type":"Polygon","coordinates":[[[2.89679,50.34833],[2.89677,50.34835],[2.89761,50.34867],[2.89679,50.34833]]]}},{"type":"Feature","properties":{"k":"BTH","s":0.896},"geometry":{"type":"Polygon","coordinates":[[[2.89856,50.34764],[2.89787,50.34728],[2.89679,50.34833],[2.89763,50.34864],[2.89856,50.34764]]]}},{"type":"Feature","properties":{"k":"MIS","s":0.955},"geometry":{"type":"Polygon","coordinates":[[[2.89786,50.34727],[2.89713,50.34693],[2.89597,50.34802],[2.89679,50.34833],[2.89786,50.34727]]]}},{"type":"Feature","properties":{"k":"BOR","s":0.087},"geometry":{"type":"Polygon","coordinates":[[[2.89559,50.3449],[2.89793,50.34548],[2.89727,50.3453],[2.89559,50.3449]]]}},{"type":"Feature","properties":{"k":"BTP","s":0.354},"geometry":{"type":"Polygon","coordinates":[[[2.89046,50.35349],[2.89,50.35383],[2.89039,50.35409],[2.89093,50.35369],[2.88951,50.35264],[2.89046,50.35349]]]}},{"type":"Feature","properties":{"k":"PHS","s":0.017},"geometry":{"type":"Polygon","coordinates":[[[2.89125,50.3608],[2.89136,50.36085],[2.89152,50.36072],[2.89125,50.3608]]]}},{"type":"Feature","properties":{"k":"BTN","s":0.029},"geometry":{"type":"Polygon","coordinates":[[[2.8989,50.35727],[2.89856,50.35825],[2.89933,50.35615],[2.8989,50.35727]]]}},{"type":"Feature","properties":{"k":"BTH","s":0.682},"geometry":{"type":"Polygon","coordinates":[[[2.89843,50.35716],[2.89769,50.35907],[2.89813,50.3587],[2.89833,50.35888],[2.89889,50.35732],[2.89843,50.35716]]]}},{"type":"Feature","properties":{"k":"BTN","s":6.249},"geometry":{"type":"Polygon","coordinates":[[[2.89455,50.35644],[2.89582,50.35964],[2.89705,50.35881],[2.89767,50.35907],[2.89843,50.35716],[2.8949,50.35597],[2.89455,50.35644]]]}},{"type":"Feature","properties":{"k":"BTH","s":6.451},"geometry":{"type":"Polygon","coordinates":[[[2.89457,50.3574],[2.89359,50.3551],[2.89049,50.35737],[2.89225,50.35904],[2.89457,50.3574]]]}},{"type":"Feature","properties":{"k":"BTN","s":0.836},"geometry":{"type":"Polygon","coordinates":[[[2.89184,50.36081],[2.8943,50.35896],[2.89475,50.35924],[2.89535,50.35871],[2.89511,50.35816],[2.89171,50.36073],[2.89184,50.36081]]]}},{"type":"Feature","properties":{"k":"PHS","s":9.601},"geometry":{"type":"Polygon","coordinates":[[[2.89171,50.36073],[2.89512,50.35815],[2.89481,50.35738],[2.8923,50.35914],[2.89035,50.35733],[2.88783,50.35918],[2.89008,50.36076],[2.89056,50.3604],[2.89125,50.3608],[2.89143,50.36066],[2.89171,50.36073]]]}},{"type":"Feature","properties":{"k":"BTH","s":0.12},"geometry":{"type":"MultiPolygon","coordinates":[[[[2.88957,50.36046],[2.88918,50.36022],[2.89004,50.36079],[2.88957,50.36046]]],[[[2.88784,50.35923],[2.88728,50.35875],[2.88815,50.35953],[2.88992,50.36067],[2.88784,50.35923]]]]}},{"type":"Feature","properties":{"k":"BTH","s":2.114},"geometry":{"type":"Polygon","coordinates":[[[2.90148,50.34109],[2.90394,50.33648],[2.90341,50.33639],[2.90097,50.34095],[2.90148,50.34109]]]}},{"type":"Feature","properties":{"k":"BTH","s":2.628},"geometry":{"type":"Polygon","coordinates":[[[2.90097,50.34096],[2.90341,50.33638],[2.90277,50.33627],[2.90032,50.34078],[2.89934,50.34055],[2.90097,50.34096]]]}},{"type":"Feature","properties":{"k":"BTH","s":2.462},"geometry":{"type":"Polygon","coordinates":[[[2.90233,50.34137],[2.89648,50.33987],[2.89605,50.3403],[2.9015,50.3417],[2.90233,50.34137]]]}},{"type":"Feature","properties":{"k":"BTN","s":11.986},"geometry":{"type":"Polygon","coordinates":[[[2.90535,50.34472],[2.90727,50.34264],[2.90253,50.34142],[2.90034,50.34223],[2.89884,50.3431],[2.90535,50.34472]]]}},{"type":"Feature","properties":{"k":"PTC","s":5.553},"geometry":{"type":"Polygon","coordinates":[[[2.90459,50.34559],[2.90538,50.34472],[2.89883,50.34309],[2.89772,50.34386],[2.90395,50.34543],[2.90404,50.3453],[2.90459,50.34559]]]}},{"type":"Feature","properties":{"k":"PPH","s":0.224},"geometry":{"type":"Polygon","coordinates":[[[2.90159,50.34483],[2.89953,50.34431],[2.89944,50.34444],[2.90124,50.34488],[2.90159,50.34483]]]}},{"type":"Feature","properties":{"k":"PTC","s":0.845},"geometry":{"type":"Polygon","coordinates":[[[2.89847,50.3442],[2.89822,50.34461],[2.9001,50.34506],[2.90114,50.34487],[2.89847,50.3442]]]}},{"type":"Feature","properties":{"k":"BTH","s":0.443},"geometry":{"type":"Polygon","coordinates":[[[2.89822,50.34461],[2.89804,50.34492],[2.89926,50.34523],[2.9001,50.34507],[2.89822,50.34461]]]}},{"type":"Feature","properties":{"k":"BTH","s":2.208},"geometry":{"type":"Polygon","coordinates":[[[2.90636,50.33964],[2.9074,50.33991],[2.90868,50.3375],[2.90761,50.33731],[2.90636,50.33964]]]}},{"type":"Feature","properties":{"k":"BTN","s":11.218},"geometry":{"type":"Polygon","coordinates":[[[2.8917,50.34425],[2.89503,50.34509],[2.89727,50.34406],[2.89926,50.34269],[2.89465,50.34156],[2.8917,50.34425]]]}},{"type":"Feature","properties":{"k":"LBF","s":2.862},"geometry":{"type":"Polygon","coordinates":[[[2.90021,50.34219],[2.8953,50.34095],[2.89465,50.34156],[2.89926,50.34269],[2.90021,50.34219]]]}},{"type":"Feature","properties":{"k":"BTN","s":21.061},"geometry":{"type":"Polygon","coordinates":[[[2.89241,50.34361],[2.89533,50.34093],[2.90024,50.34218],[2.9015,50.34171],[2.89604,50.34029],[2.89648,50.33987],[2.89379,50.3392],[2.89153,50.34124],[2.88585,50.33977],[2.88689,50.34159],[2.89026,50.34247],[2.88854,50.3442],[2.88915,50.34493],[2.89161,50.34316],[2.89241,50.34361]]]}},{"type":"Feature","properties":{"k":"BTN","s":1.214},"geometry":{"type":"Polygon","coordinates":[[[2.89504,50.3451],[2.89171,50.34426],[2.89133,50.34463],[2.89382,50.34533],[2.89409,50.3452],[2.89459,50.34535],[2.89504,50.3451]]]}},{"type":"Feature","properties":{"k":"PHF","s":2.628},"geometry":{"type":"Polygon","coordinates":[[[2.88854,50.3442],[2.89026,50.34247],[2.88794,50.34187],[2.88742,50.34244],[2.88854,50.3442]]]}},{"type":"Feature","properties":{"k":"BTH","s":2.736},"geometry":{"type":"Polygon","coordinates":[[[2.88919,50.35621],[2.88663,50.35815],[2.8874,50.35886],[2.88996,50.35696],[2.88919,50.35621]]]}},{"type":"Feature","properties":{"k":"CZH","s":0.272},"geometry":{"type":"Polygon","coordinates":[[[2.88661,50.35813],[2.88678,50.35804],[2.88588,50.35712],[2.88561,50.35723],[2.88728,50.35875],[2.88661,50.35813]]]}},{"type":"Feature","properties":{"k":"CZH","s":2.392},"geometry":{"type":"Polygon","coordinates":[[[2.88716,50.35658],[2.88588,50.35712],[2.88678,50.35804],[2.88919,50.35621],[2.88851,50.35557],[2.88716,50.35658]]]}},{"type":"Feature","properties":{"k":"BTH","s":1.111},"geometry":{"type":"Polygon","coordinates":[[[2.8903,50.35731],[2.88999,50.357],[2.88745,50.35885],[2.88781,50.35916],[2.8903,50.35731]]]}},{"type":"Feature","properties":{"k":"MIS","s":5.766},"geometry":{"type":"Polygon","coordinates":[[[2.89379,50.35495],[2.89316,50.35338],[2.8893,50.35622],[2.89049,50.35737],[2.89379,50.35495]]]}},{"type":"Feature","properties":{"k":"BTH","s":5.657},"geometry":{"type":"Polygon","coordinates":[[[2.88941,50.35271],[2.8859,50.35535],[2.88727,50.35639],[2.89039,50.35409],[2.89,50.35383],[2.89046,50.35349],[2.88941,50.35271]]]}},{"type":"Feature","properties":{"k":"BTH","s":11.748},"geometry":{"type":"Polygon","coordinates":[[[2.88798,50.35152],[2.88711,50.35206],[2.88558,50.35095],[2.88333,50.35271],[2.88301,50.3532],[2.88587,50.35536],[2.8895,50.35263],[2.88798,50.35152]]]}},{"type":"Feature","properties":{"k":"BOR","s":0.021},"geometry":{"type":"Polygon","coordinates":[[[2.88915,50.34493],[2.88917,50.34496],[2.88972,50.34456],[2.88915,50.34493]]]}},{"type":"Feature","properties":{"k":"PHF","s":0.301},"geometry":{"type":"Polygon","coordinates":[[[2.88689,50.34159],[2.88742,50.34244],[2.88794,50.34187],[2.88689,50.34159]]]}},{"type":"Feature","properties":{"k":"BTH","s":2.428},"geometry":{"type":"Polygon","coordinates":[[[2.88584,50.33977],[2.89153,50.34124],[2.89188,50.34092],[2.88587,50.33923],[2.88584,50.33977]]]}},{"type":"Feature","properties":{"k":"ORP","s":1.928},"geometry":{"type":"Polygon","coordinates":[[[2.90063,50.3483],[2.89912,50.34792],[2.89819,50.34894],[2.89775,50.34879],[2.8975,50.34908],[2.89955,50.34947],[2.90063,50.3483]]]}},{"type":"Feature","properties":{"k":"MIS","s":1.177},"geometry":{"type":"Polygon","coordinates":[[[2.89793,50.34548],[2.89926,50.34523],[2.89648,50.34451],[2.89574,50.34489],[2.89793,50.34548]]]}},{"type":"Feature","properties":{"k":"MIS","s":9.996},"geometry":{"type":"Polygon","coordinates":[[[2.90082,50.34502],[2.89851,50.34761],[2.89915,50.34794],[2.90185,50.3486],[2.9045,50.34567],[2.90177,50.34492],[2.90082,50.34502]]]}},{"type":"Feature","properties":{"k":"BOR","s":0.052},"geometry":{"type":"Polygon","coordinates":[[[2.89812,50.35002],[2.8987,50.34943],[2.8986,50.34942],[2.89812,50.35002]]]}},{"type":"Feature","properties":{"k":"BTH","s":1.345},"geometry":{"type":"Polygon","coordinates":[[[2.90063,50.3483],[2.89955,50.34947],[2.90076,50.34973],[2.90183,50.3486],[2.90063,50.3483]]]}},{"type":"Feature","properties":{"k":"BTH","s":0.001},"geometry":{"type":"Polygon","coordinates":[]}},{"type":"Feature","properties":{"k":"BTH","s":6.339},"geometry":{"type":"Polygon","coordinates":[[[2.90061,50.35253],[2.89888,50.35197],[2.9008,50.34985],[2.8998,50.3496],[2.89661,50.35292],[2.90006,50.35409],[2.90061,50.35253]]]}},{"type":"Feature","properties":{"k":"BTH","s":14.473},"geometry":{"type":"Polygon","coordinates":[[[2.91103,50.33796],[2.91001,50.33774],[2.9074,50.34257],[2.91074,50.34343],[2.91319,50.33894],[2.91103,50.33796]]]}},{"type":"Feature","properties":{"k":"BTH","s":4.15},"geometry":{"type":"Polygon","coordinates":[[[2.90372,50.34164],[2.90625,50.33696],[2.90522,50.33673],[2.90277,50.34141],[2.90372,50.34164]]]}},{"type":"Feature","properties":{"k":"BTN","s":5.255},"geometry":{"type":"Polygon","coordinates":[[[2.90395,50.33647],[2.90149,50.3411],[2.90277,50.34141],[2.90522,50.33673],[2.90395,50.33647]]]}},{"type":"Feature","properties":{"k":"BTN","s":3.713},"geometry":{"type":"Polygon","coordinates":[[[2.9074,50.33991],[2.90636,50.33964],[2.90762,50.33728],[2.90723,50.33719],[2.90469,50.3419],[2.90597,50.34222],[2.90707,50.3402],[2.90716,50.34032],[2.90614,50.34219],[2.9074,50.33991]]]}},{"type":"Feature","properties":{"k":"PTC","s":4.013},"geometry":{"type":"MultiPolygon","coordinates":[[[[2.90477,50.34174],[2.90515,50.34106],[2.90555,50.3403],[2.90571,50.34003],[2.90723,50.33719],[2.9063,50.33698],[2.90713,50.33728],[2.90721,50.3372],[2.90715,50.33732],[2.90619,50.33708],[2.9038,50.34153],[2.90477,50.34174]]],[[[2.90468,50.34188],[2.90471,50.34185],[2.90477,50.34174],[2.90468,50.34188]]],[[[2.90468,50.34177],[2.90385,50.34157],[2.90378,50.34166],[2.90468,50.34188],[2.90468,50.34177]]]]}},{"type":"Feature","properties":{"k":"BTH","s":5.317},"geometry":{"type":"Polygon","coordinates":[[[2.90997,50.33774],[2.90868,50.3375],[2.90622,50.34228],[2.90735,50.34256],[2.90997,50.33774]]]}},{"type":"Feature","properties":{"k":"BTH","s":9.025},"geometry":{"type":"Polygon","coordinates":[[[2.87975,50.34551],[2.8779,50.34466],[2.87292,50.34851],[2.87488,50.34928],[2.87975,50.34551]]]}}]}