{"type":"FeatureCollection","features":[{"type":"Feature","properties":{"k":"MIS","s":0.765},"geometry":{"type":"Polygon","coordinates":[[[2.48837,50.45733],[2.48817,50.45617],[2.48697,50.4566],[2.4877,50.4573],[2.48837,50.45733]]]}},{"type":"Feature","properties":{"k":"BFS","s":0.06},"geometry":{"type":"Polygon","coordinates":[[[2.48936,50.45279],[2.48867,50.45273],[2.48931,50.45283],[2.48993,50.45335],[2.48936,50.45279]]]}},{"type":"Feature","properties":{"k":"MIS","s":9.761},"geometry":{"type":"Polygon","coordinates":[[[2.48816,50.45612],[2.48813,50.45588],[2.48942,50.45556],[2.48993,50.45335],[2.48918,50.45279],[2.48867,50.45273],[2.48701,50.45309],[2.48407,50.45562],[2.48419,50.45576],[2.48578,50.45528],[2.48682,50.45658],[2.48816,50.45612]]]}},{"type":"Feature","properties":{"k":"PPH","s":0.369},"geometry":{"type":"Polygon","coordinates":[[[2.48421,50.45318],[2.48465,50.45311],[2.48453,50.45214],[2.48401,50.4524],[2.48421,50.45318]]]}},{"type":"Feature","properties":{"k":"PPH","s":0.778},"geometry":{"type":"Polygon","coordinates":[[[2.48128,50.45377],[2.48099,50.45382],[2.48101,50.4543],[2.48172,50.45437],[2.4818,50.45501],[2.48276,50.45461],[2.48292,50.45423],[2.48241,50.45399],[2.48208,50.454],[2.48192,50.45433],[2.4815,50.45429],[2.48128,50.45377]]]}},{"type":"Feature","properties":{"k":"PPH","s":0.499},"geometry":{"type":"Polygon","coordinates":[[[2.48071,50.45769],[2.48193,50.45823],[2.48175,50.4574],[2.48106,50.45738],[2.48071,50.45769]]]}},{"type":"Feature","properties":{"k":"LUZ","s":0.423},"geometry":{"type":"Polygon","coordinates":[[[2.48231,50.44588],[2.482,50.44558],[2.4814,50.44589],[2.48123,50.44577],[2.48063,50.446],[2.48094,50.44633],[2.48231,50.44588]]]}},{"type":"Feature","properties":{"k":"MIS","s":0.001},"geometry":{"type":"Polygon","coordinates":[[[2.48428,50.44543],[2.48398,50.44534],[2.48398,50.44535],[2.48428,50.44543]]]}},{"type":"Feature","properties":{"k":"MIS","s":0.774},"geometry":{"type":"Polygon","coordinates":[[[2.48296,50.45734],[2.48347,50.45724],[2.48386,50.45799],[2.4843,50.45792],[2.48316,50.45602],[2.48296,50.45734]]]}},{"type":"Feature","properties":{"k":"BTH","s":0.003},"geometry":{"type":"MultiPolygon","coordinates":[[[[2.48705,50.44625],[2.48695,50.44638],[2.48675,50.44672],[2.48705,50.44625]]],[[[2.48659,50.44698],[2.48661,50.44696],[2.48657,50.44697],[2.48659,50.44698]]]]}},{"type":"Feature","properties":{"k":"ORH","s":5.465},"geometry":{"type":"Polygon","coordinates":[[[2.48591,50.449],[2.48575,50.44775],[2.48646,50.447],[2.48714,50.44597],[2.48702,50.4459],[2.48528,50.44586],[2.48312,50.44831],[2.48551,50.44938],[2.48591,50.449]]]}},{"type":"Feature","properties":{"k":"BTH","s":2.905},"geometry":{"type":"Polygon","coordinates":[[[2.48324,50.45605],[2.48438,50.45789],[2.48622,50.45757],[2.48467,50.45562],[2.48324,50.45605]]]}},{"type":"Feature","properties":{"k":"BTH","s":2.233},"geometry":{"type":"Polygon","coordinates":[[[2.48467,50.45562],[2.48622,50.45757],[2.48761,50.45732],[2.4858,50.45535],[2.48467,50.45562]]]}},{"type":"Feature","properties":{"k":"BTH","s":4.862},"geometry":{"type":"Polygon","coordinates":[[[2.4851,50.45792],[2.48383,50.45863],[2.48666,50.46023],[2.48781,50.45835],[2.48725,50.45744],[2.4851,50.45792]]]}},{"type":"Feature","properties":{"k":"PPH","s":0.018},"geometry":{"type":"MultiPolygon","coordinates":[[[[2.48412,50.45999],[2.48435,50.46011],[2.48417,50.45996],[2.48457,50.4596],[2.48435,50.45937],[2.48453,50.4596],[2.48412,50.45999]]]]}},{"type":"Feature","properties":{"k":"PPH","s":0.684},"geometry":{"type":"Polygon","coordinates":[[[2.48278,50.46046],[2.48164,50.4607],[2.48143,50.46043],[2.48056,50.46076],[2.48096,50.46125],[2.48296,50.46062],[2.48278,50.46046]]]}},{"type":"Feature","properties":{"k":"PPH","s":0.237},"geometry":{"type":"Polygon","coordinates":[[[2.48302,50.46127],[2.48289,50.46114],[2.48138,50.46164],[2.48154,50.46182],[2.48302,50.46127]]]}},{"type":"Feature","properties":{"k":"PPH","s":1.562},"geometry":{"type":"Polygon","coordinates":[[[2.48319,50.4617],[2.48297,50.46166],[2.48186,50.46214],[2.48049,50.46078],[2.47972,50.46079],[2.47949,50.46112],[2.48145,50.46243],[2.48185,50.46224],[2.48206,50.46238],[2.4829,50.46204],[2.48319,50.4617]]]}},{"type":"Feature","properties":{"k":"MIS","s":0.071},"geometry":{"type":"Polygon","coordinates":[[[2.48145,50.46243],[2.48163,50.46255],[2.48206,50.46238],[2.48181,50.46226],[2.48145,50.46243]]]}},{"type":"Feature","properties":{"k":"MIS","s":0.002},"geometry":{"type":"Polygon","coordinates":[[[2.48153,50.46259],[2.48153,50.46258],[2.48046,50.46299],[2.48153,50.46259]]]}},{"type":"Feature","properties":{"k":"PPR","s":0.637},"geometry":{"type":"Polygon","coordinates":[[[2.45437,50.45324],[2.45484,50.45401],[2.45526,50.45374],[2.45336,50.45192],[2.45298,50.45203],[2.45437,50.45324]]]}},{"type":"Feature","properties":{"k":"PPH","s":0.087},"geometry":{"type":"MultiPolygon","coordinates":[[[[2.45417,50.45864],[2.45413,50.4586],[2.45271,50.45921],[2.45417,50.45864]]],[[[2.45155,50.45839],[2.45059,50.45764],[2.45148,50.45842],[2.45155,50.45839]]]]}},{"type":"Feature","properties":{"k":"PPH","s":0.012},"geometry":{"type":"MultiPolygon","coordinates":[[[[2.45415,50.45859],[2.45416,50.45861],[2.45473,50.45834],[2.45415,50.45859]]],[[[2.45497,50.4578],[2.45526,50.45809],[2.45529,50.45807],[2.45497,50.4578]]]]}},{"type":"Feature","properties":{"k":"MIS","s":0.012},"geometry":{"type":"Polygon","coordinates":[[[2.45402,50.46345],[2.45423,50.46387],[2.45428,50.46386],[2.45402,50.46345]]]}},{"type":"Feature","properties":{"k":"MIS","s":0.2},"geometry":{"type":"Polygon","coordinates":[[[2.46397,50.46756],[2.46536,50.46844],[2.46448,50.46752],[2.46397,50.46756]]]}},{"type":"Feature","properties":{"k":"PHF","s":1.68},"geometry":{"type":"Polygon","coordinates":[[[2.46583,50.46744],[2.46448,50.46752],[2.46536,50.46844],[2.46618,50.46896],[2.46714,50.46808],[2.46583,50.46744]]]}},{"type":"Feature","properties":{"k":"CZH","s":0.021},"geometry":{"type":"Polygon","coordinates":[[[2.47369,50.47026],[2.47304,50.46962],[2.47402,50.47067],[2.47369,50.47026]]]}},{"type":"Feature","properties":{"k":"MIS","s":9.503},"geometry":{"type":"Polygon","coordinates":[[[2.47449,50.47115],[2.47498,50.4712],[2.47732,50.46947],[2.4738,50.46738],[2.47059,50.46583],[2.46913,50.46547],[2.46887,50.46563],[2.47438,50.46898],[2.47311,50.46967],[2.47449,50.47115]]]}},{"type":"Feature","properties":{"k":"BTH","s":10.815},"geometry":{"type":"Polygon","coordinates":[[[2.47106,50.46593],[2.47393,50.46732],[2.47546,50.46825],[2.47749,50.46676],[2.47509,50.46513],[2.47587,50.46481],[2.47419,50.4637],[2.47106,50.46593]]]}},{"type":"Feature","properties":{"k":"BTH","s":0.004},"geometry":{"type":"Polygon","coordinates":[]}},{"type":"Feature","properties":{"k":"PPH","s":0.542},"geometry":{"type":"Polygon","coordinates":[[[2.4815,50.44873],[2.48037,50.44768],[2.48005,50.44786],[2.48157,50.44924],[2.48189,50.44909],[2.4815,50.44873]]]}},{"type":"Feature","properties":{"k":"PPH","s":0.255},"geometry":{"type":"Polygon","coordinates":[[[2.47293,50.44135],[2.47322,50.44147],[2.47373,50.44076],[2.47323,50.44066],[2.47293,50.44135]]]}},{"type":"Feature","properties":{"k":"PPH","s":8.517},"geometry":{"type":"Polygon","coordinates":[[[2.48105,50.4505],[2.48063,50.45066],[2.48094,50.45121],[2.48074,50.45197],[2.48114,50.45248],[2.48212,50.45312],[2.48201,50.45385],[2.4832,50.45426],[2.48417,50.45317],[2.4839,50.45234],[2.48534,50.45162],[2.48436,50.45065],[2.48354,50.45096],[2.48259,50.45004],[2.48119,50.4506],[2.48105,50.4505]]]}},{"type":"Feature","properties":{"k":"BTH","s":0.538},"geometry":{"type":"Polygon","coordinates":[[[2.48487,50.45109],[2.48574,50.45085],[2.48558,50.45018],[2.48443,50.45063],[2.48487,50.45109]]]}},{"type":"Feature","properties":{"k":"ORH","s":5.572},"geometry":{"type":"Polygon","coordinates":[[[2.48154,50.46256],[2.4795,50.46122],[2.4791,50.46137],[2.47701,50.46001],[2.47564,50.46058],[2.47967,50.46328],[2.48154,50.46256]]]}},{"type":"Feature","properties":{"k":"BTH","s":4.353},"geometry":{"type":"Polygon","coordinates":[[[2.47784,50.464],[2.4726,50.46061],[2.47203,50.46129],[2.47683,50.46441],[2.47784,50.464]]]}},{"type":"Feature","properties":{"k":"BTH","s":5.898},"geometry":{"type":"Polygon","coordinates":[[[2.47397,50.46135],[2.47793,50.46395],[2.47967,50.46328],[2.47564,50.46058],[2.47397,50.46135]]]}},{"type":"Feature","properties":{"k":"CZH","s":3.367},"geometry":{"type":"Polygon","coordinates":[[[2.47157,50.4619],[2.47596,50.46477],[2.47683,50.46441],[2.472,50.46132],[2.47157,50.4619]]]}},{"type":"Feature","properties":{"k":"MIS","s":4.799},"geometry":{"type":"Polygon","coordinates":[[[2.4704,50.46285],[2.471,50.4633],[2.47077,50.46349],[2.46986,50.46331],[2.46974,50.46339],[2.47246,50.46487],[2.47417,50.46367],[2.47159,50.46199],[2.47132,50.46199],[2.4704,50.46285]]]}},{"type":"Feature","properties":{"k":"PPH","s":1.735},"geometry":{"type":"Polygon","coordinates":[[[2.47331,50.45948],[2.47269,50.46049],[2.47384,50.46124],[2.47519,50.46071],[2.47331,50.45948]]]}},{"type":"Feature","properties":{"k":"BTH","s":12.001},"geometry":{"type":"Polygon","coordinates":[[[2.46816,50.46462],[2.47151,50.46163],[2.47262,50.46024],[2.4718,50.45981],[2.47117,50.45991],[2.47065,50.45957],[2.46998,50.45974],[2.46583,50.46309],[2.46816,50.46462]]]}},{"type":"Feature","properties":{"k":"PPH","s":0.285},"geometry":{"type":"Polygon","coordinates":[[[2.46986,50.46331],[2.47077,50.46349],[2.471,50.4633],[2.47037,50.46288],[2.46986,50.46331]]]}},{"type":"Feature","properties":{"k":"PTC","s":4.405},"geometry":{"type":"Polygon","coordinates":[[[2.46882,50.46408],[2.46835,50.46476],[2.46943,50.46541],[2.47098,50.46591],[2.47246,50.46487],[2.46974,50.46339],[2.46882,50.46408]]]}},{"type":"Feature","properties":{"k":"BTN","s":5.894},"geometry":{"type":"Polygon","coordinates":[[[2.46887,50.46563],[2.46784,50.46628],[2.47236,50.46919],[2.47268,50.46926],[2.47311,50.46967],[2.47438,50.46898],[2.46887,50.46563]]]}},{"type":"Feature","properties":{"k":"PPH","s":0.535},"geometry":{"type":"Polygon","coordinates":[[[2.48475,50.45253],[2.48594,50.45216],[2.48566,50.45167],[2.48465,50.45205],[2.48475,50.45253]]]}},{"type":"Feature","properties":{"k":"MIS","s":1.649},"geometry":{"type":"Polygon","coordinates":[[[2.46737,50.46812],[2.46849,50.46677],[2.47025,50.46788],[2.46781,50.4663],[2.46612,50.46739],[2.46737,50.46812]]]}},{"type":"Feature","properties":{"k":"ORP","s":1.726},"geometry":{"type":"Polygon","coordinates":[[[2.46475,50.46457],[2.46706,50.4662],[2.46571,50.46711],[2.46602,50.46732],[2.46787,50.46614],[2.46519,50.46431],[2.46475,50.46457]]]}},{"type":"Feature","properties":{"k":"BTH","s":8.808},"geometry":{"type":"Polygon","coordinates":[[[2.4659,50.46326],[2.46283,50.46514],[2.46527,50.46725],[2.46706,50.4662],[2.46475,50.46457],[2.46519,50.46431],[2.46787,50.46614],[2.46904,50.46539],[2.4659,50.46326]]]}},{"type":"Feature","properties":{"k":"MIS","s":3.305},"geometry":{"type":"Polygon","coordinates":[[[2.46057,50.46649],[2.46575,50.46318],[2.46512,50.46274],[2.4605,50.46565],[2.46057,50.46649]]]}},{"type":"Feature","properties":{"k":"BTH","s":3.025},"geometry":{"type":"Polygon","coordinates":[[[2.4648,50.46253],[2.46444,50.46228],[2.46034,50.46484],[2.4605,50.46565],[2.46512,50.46274],[2.4648,50.46253]]]}},{"type":"Feature","properties":{"k":"BTN","s":2.975},"geometry":{"type":"Polygon","coordinates":[[[2.46388,50.4675],[2.46545,50.4674],[2.46283,50.46515],[2.46171,50.46585],[2.46351,50.46739],[2.46388,50.4675]]]}},{"type":"Feature","properties":{"k":"ORH","s":2.418},"geometry":{"type":"Polygon","coordinates":[[[2.46118,50.46767],[2.46351,50.46739],[2.46171,50.46585],[2.46057,50.46656],[2.46062,50.46706],[2.46118,50.46767]]]}},{"type":"Feature","properties":{"k":"LIF","s":0.041},"geometry":{"type":"Polygon","coordinates":[]}},{"type":"Feature","properties":{"k":"MIS","s":0.002},"geometry":{"type":"Polygon","coordinates":[[[2.45945,50.46389],[2.45958,50.46402],[2.4596,50.46401],[2.45945,50.46389]]]}},{"type":"Feature","properties":{"k":"MIS","s":0.004},"geometry":{"type":"Polygon","coordinates":[[[2.46026,50.46484],[2.46024,50.46484],[2.46033,50.46509],[2.46026,50.46484]]]}},{"type":"Feature","properties":{"k":"POR","s":0.013},"geometry":{"type":"MultiPolygon","coordinates":[[[[2.46024,50.46483],[2.46025,50.46483],[2.4602,50.46469],[2.46024,50.46483]]],[[[2.45999,50.46441],[2.45967,50.46409],[2.46018,50.46464],[2.45999,50.46441]]]]}},{"type":"Feature","properties":{"k":"MIS","s":6.516},"geometry":{"type":"Polygon","coordinates":[[[2.45412,50.46232],[2.45402,50.46345],[2.45428,50.46386],[2.45759,50.46324],[2.45632,50.46227],[2.45659,50.46211],[2.45371,50.46],[2.45348,50.46025],[2.45341,50.4609],[2.45298,50.46126],[2.45412,50.46232]]]}},{"type":"Feature","properties":{"k":"PPH","s":1.845},"geometry":{"type":"Polygon","coordinates":[[[2.4579,50.46093],[2.45764,50.46098],[2.45711,50.46067],[2.45713,50.4605],[2.4568,50.4604],[2.45518,50.46102],[2.45659,50.46211],[2.45817,50.46118],[2.4579,50.46093]],[[2.45677,50.46157],[2.45679,50.46173],[2.45653,50.46172],[2.45616,50.46124],[2.4562,50.46112],[2.45646,50.46115],[2.45677,50.46157]]]}},{"type":"Feature","properties":{"k":"MIS","s":4.113},"geometry":{"type":"Polygon","coordinates":[[[2.46077,50.45954],[2.45649,50.46229],[2.45715,50.46281],[2.46187,50.46023],[2.46077,50.45954]]]}},{"type":"Feature","properties":{"k":"BTH","s":3.996},"geometry":{"type":"Polygon","coordinates":[[[2.48552,50.4502],[2.48558,50.44942],[2.4831,50.44832],[2.48298,50.44863],[2.48221,50.4491],[2.48289,50.4499],[2.48265,50.45001],[2.48357,50.45092],[2.48552,50.4502]]]}},{"type":"Feature","properties":{"k":"BTH","s":0.087},"geometry":{"type":"Polygon","coordinates":[[[2.49206,50.44793],[2.49232,50.44792],[2.49168,50.44757],[2.49167,50.44776],[2.49206,50.44793]]]}},{"type":"Feature","properties":{"k":"BTH","s":0.245},"geometry":{"type":"Polygon","coordinates":[[[2.49079,50.4475],[2.49167,50.44776],[2.49168,50.44757],[2.49036,50.44704],[2.49033,50.44718],[2.49079,50.4475]]]}},{"type":"Feature","properties":{"k":"BTH","s":0.041},"geometry":{"type":"Polygon","coordinates":[[[2.48964,50.44683],[2.48852,50.44678],[2.48959,50.44689],[2.48964,50.44683]]]}},{"type":"Feature","properties":{"k":"LIF","s":5.751},"geometry":{"type":"Polygon","coordinates":[[[2.46068,50.46261],[2.46331,50.46138],[2.46187,50.46023],[2.45715,50.46281],[2.4577,50.46322],[2.46068,50.46261]]]}},{"type":"Feature","properties":{"k":"BTH","s":5.762},"geometry":{"type":"Polygon","coordinates":[[[2.4644,50.46224],[2.46342,50.46149],[2.46203,50.46201],[2.46102,50.46262],[2.45926,50.46304],[2.45909,50.46319],[2.45912,50.46353],[2.45974,50.46396],[2.46039,50.46479],[2.4644,50.46224]]]}},{"type":"Feature","properties":{"k":"BTN","s":4.868},"geometry":{"type":"Polygon","coordinates":[[[2.46714,50.46091],[2.4654,50.46087],[2.46355,50.46145],[2.46583,50.46309],[2.46998,50.45974],[2.46856,50.46018],[2.46714,50.46091]],[[2.46541,50.4622],[2.46496,50.46191],[2.46604,50.46116],[2.46646,50.46141],[2.46541,50.4622]]]}},{"type":"Feature","properties":{"k":"BTN","s":0.497},"geometry":{"type":"Polygon","coordinates":[[[2.46646,50.46141],[2.46604,50.46116],[2.46496,50.46191],[2.46541,50.4622],[2.46646,50.46141]]]}},{"type":"Feature","properties":{"k":"CZH","s":4.421},"geometry":{"type":"Polygon","coordinates":[[[2.46356,50.46131],[2.46528,50.46072],[2.46703,50.4608],[2.4674,50.46069],[2.46591,50.45928],[2.46494,50.45973],[2.46279,50.45982],[2.46202,50.46013],[2.46356,50.46131]]]}},{"type":"Feature","properties":{"k":"PPH","s":1.582},"geometry":{"type":"Polygon","coordinates":[[[2.4674,50.46069],[2.46844,50.46008],[2.46665,50.45892],[2.46587,50.45931],[2.4674,50.46069]]]}},{"type":"Feature","properties":{"k":"PPH","s":2.254},"geometry":{"type":"Polygon","coordinates":[[[2.46788,50.45762],[2.46933,50.45623],[2.46773,50.4558],[2.46617,50.45727],[2.46788,50.45762]]]}},{"type":"Feature","properties":{"k":"SPH","s":1.727},"geometry":{"type":"Polygon","coordinates":[[[2.46508,50.45568],[2.46608,50.45666],[2.4666,50.45687],[2.46773,50.4558],[2.4668,50.45548],[2.46578,50.45541],[2.46508,50.45568]]]}},{"type":"Feature","properties":{"k":"MIS","s":2.995},"geometry":{"type":"Polygon","coordinates":[[[2.4651,50.45527],[2.46299,50.45715],[2.46054,50.45688],[2.4605,50.45697],[2.46255,50.45724],[2.46617,50.45727],[2.4666,50.45687],[2.46608,50.45666],[2.46508,50.45568],[2.46578,50.45541],[2.4651,50.45527]]]}},{"type":"Feature","properties":{"k":"MIS","s":10.827},"geometry":{"type":"Polygon","coordinates":[[[2.46512,50.45958],[2.46842,50.45781],[2.46723,50.45748],[2.46562,50.45728],[2.46207,50.45729],[2.45991,50.45692],[2.45938,50.45713],[2.46313,50.45973],[2.46512,50.45958]]]}},{"type":"Feature","properties":{"k":"MIS","s":4.002},"geometry":{"type":"Polygon","coordinates":[[[2.45992,50.45897],[2.46194,50.46011],[2.46312,50.45972],[2.45938,50.45713],[2.45817,50.45764],[2.45992,50.45897]]]}},{"type":"Feature","properties":{"k":"BTH","s":5.346},"geometry":{"type":"Polygon","coordinates":[[[2.45585,50.4595],[2.4568,50.4604],[2.45713,50.4605],[2.45859,50.45986],[2.45867,50.46001],[2.45751,50.46065],[2.45809,50.46106],[2.4606,50.45946],[2.45866,50.45813],[2.45585,50.4595]]]}},{"type":"Feature","properties":{"k":"BTH","s":3.926},"geometry":{"type":"Polygon","coordinates":[[[2.45578,50.45787],[2.4556,50.45847],[2.45658,50.45913],[2.45866,50.45813],[2.45608,50.45662],[2.45469,50.45754],[2.45534,50.45808],[2.45578,50.45787]]]}},{"type":"Feature","properties":{"k":"PTR","s":0.601},"geometry":{"type":"Polygon","coordinates":[[[2.45564,50.45632],[2.45437,50.45723],[2.45469,50.45754],[2.45609,50.45661],[2.45564,50.45632]]]}},{"type":"Feature","properties":{"k":"BTH","s":4.462},"geometry":{"type":"Polygon","coordinates":[[[2.45574,50.4549],[2.45464,50.4554],[2.45607,50.45654],[2.458,50.45758],[2.45987,50.45687],[2.45574,50.4549]]]}},{"type":"Feature","properties":{"k":"BTH","s":12.14},"geometry":{"type":"Polygon","coordinates":[[[2.45547,50.45461],[2.45596,50.45504],[2.45829,50.45355],[2.45858,50.45374],[2.45641,50.45521],[2.45602,50.45508],[2.45987,50.45687],[2.46204,50.45493],[2.46097,50.45422],[2.46177,50.45364],[2.46049,50.45279],[2.46034,50.45288],[2.45977,50.45229],[2.4584,50.45298],[2.45811,50.45292],[2.45547,50.45461]]]}},{"type":"Feature","properties":{"k":"BTH","s":0.653},"geometry":{"type":"Polygon","coordinates":[[[2.45628,50.4552],[2.45858,50.45374],[2.45829,50.45355],[2.45597,50.45505],[2.45628,50.4552]]]}},{"type":"Feature","properties":{"k":"ORH","s":1.868},"geometry":{"type":"Polygon","coordinates":[[[2.45484,50.45401],[2.45547,50.45461],[2.45811,50.45292],[2.45712,50.45261],[2.45484,50.45401]]]}},{"type":"Feature","properties":{"k":"PPH","s":2.964},"geometry":{"type":"Polygon","coordinates":[[[2.4645,50.45126],[2.46073,50.4528],[2.46263,50.45411],[2.46418,50.45481],[2.46461,50.45454],[2.46161,50.45281],[2.46313,50.45243],[2.46488,50.45155],[2.4645,50.45126]]]}},{"type":"Feature","properties":{"k":"PHF","s":1.855},"geometry":{"type":"Polygon","coordinates":[[[2.4644,50.45317],[2.46594,50.4524],[2.46488,50.45155],[2.46313,50.45243],[2.4644,50.45317]]]}},{"type":"Feature","properties":{"k":"PPH","s":0.931},"geometry":{"type":"Polygon","coordinates":[[[2.46097,50.45422],[2.46204,50.45493],[2.46283,50.45434],[2.4618,50.45366],[2.46097,50.45422]]]}},{"type":"Feature","properties":{"k":"BTH","s":5.998},"geometry":{"type":"Polygon","coordinates":[[[2.46283,50.45434],[2.45991,50.45686],[2.46299,50.45715],[2.4651,50.45527],[2.46283,50.45434]]]}},{"type":"Feature","properties":{"k":"MIS","s":3.502},"geometry":{"type":"Polygon","coordinates":[[[2.46579,50.45372],[2.46636,50.45414],[2.46659,50.45406],[2.46741,50.45484],[2.46962,50.45359],[2.46803,50.45242],[2.46579,50.45372]]]}},{"type":"Feature","properties":{"k":"PPH","s":0.385},"geometry":{"type":"Polygon","coordinates":[[[2.47237,50.45215],[2.47229,50.45206],[2.47213,50.45211],[2.47199,50.45195],[2.47069,50.4528],[2.47087,50.45295],[2.47237,50.45215]]]}},{"type":"Feature","properties":{"k":"PPH","s":17.773},"geometry":{"type":"Polygon","coordinates":[[[2.46539,50.45351],[2.46508,50.45362],[2.46372,50.45298],[2.46305,50.45245],[2.46164,50.45282],[2.46461,50.45454],[2.46428,50.45485],[2.46519,50.45521],[2.46703,50.45545],[2.46884,50.45604],[2.47226,50.45675],[2.47308,50.45667],[2.47269,50.45636],[2.47325,50.45599],[2.47263,50.45589],[2.47271,50.45565],[2.474,50.45574],[2.47454,50.45505],[2.47363,50.45454],[2.47305,50.45496],[2.47249,50.45458],[2.47149,50.45519],[2.47139,50.45511],[2.47307,50.45404],[2.47217,50.45298],[2.47156,50.45318],[2.47142,50.45303],[2.47101,50.45317],[2.47065,50.4528],[2.46962,50.45359],[2.46741,50.45484],[2.46659,50.45406],[2.46636,50.45414],[2.46539,50.45351]]]}},{"type":"Feature","properties":{"k":"PPH","s":2.94},"geometry":{"type":"Polygon","coordinates":[[[2.46853,50.45773],[2.46973,50.45753],[2.47077,50.45765],[2.47221,50.45686],[2.46933,50.45623],[2.46788,50.45762],[2.46853,50.45773]]]}},{"type":"Feature","properties":{"k":"PPH","s":3.704},"geometry":{"type":"Polygon","coordinates":[[[2.47015,50.45851],[2.47153,50.458],[2.47101,50.45766],[2.46942,50.45763],[2.46858,50.45779],[2.46665,50.45892],[2.46797,50.45977],[2.47015,50.45851]]]}},{"type":"Feature","properties":{"k":"BTH","s":2.207},"geometry":{"type":"Polygon","coordinates":[[[2.47061,50.45947],[2.47195,50.45863],[2.47118,50.45814],[2.47003,50.45863],[2.46804,50.4598],[2.46849,50.46009],[2.47061,50.45947]]]}},{"type":"Feature","properties":{"k":"BTH","s":0.204},"geometry":{"type":"Polygon","coordinates":[[[2.47223,50.45849],[2.47154,50.458],[2.47117,50.45815],[2.47197,50.45863],[2.47223,50.45849]]]}},{"type":"Feature","properties":{"k":"PPH","s":1.584},"geometry":{"type":"Polygon","coordinates":[[[2.47117,50.45991],[2.4718,50.45981],[2.47262,50.46024],[2.47345,50.45911],[2.47162,50.45896],[2.47068,50.45956],[2.47117,50.45991]]]}},{"type":"Feature","properties":{"k":"PPH","s":0.153},"geometry":{"type":"Polygon","coordinates":[[[2.47371,50.45914],[2.47344,50.45938],[2.47379,50.45951],[2.47446,50.45918],[2.47371,50.45914]]]}},{"type":"Feature","properties":{"k":"PPH","s":0.339},"geometry":{"type":"Polygon","coordinates":[[[2.47289,50.45809],[2.47366,50.4584],[2.47402,50.45803],[2.47318,50.45767],[2.47289,50.45809]]]}},{"type":"Feature","properties":{"k":"PPH","s":0.976},"geometry":{"type":"Polygon","coordinates":[[[2.47327,50.45875],[2.47234,50.45857],[2.47182,50.45884],[2.47368,50.45901],[2.47504,50.45774],[2.47458,50.45747],[2.47327,50.45875]]]}},{"type":"Feature","properties":{"k":"JAC","s":0.033},"geometry":{"type":"Polygon","coordinates":[[[2.47238,50.45686],[2.47319,50.45745],[2.47257,50.45695],[2.47238,50.45686]]]}},{"type":"Feature","properties":{"k":"BTH","s":0.512},"geometry":{"type":"Polygon","coordinates":[[[2.47193,50.45712],[2.47233,50.45736],[2.47212,50.45749],[2.4728,50.45792],[2.47319,50.45745],[2.47238,50.45686],[2.47193,50.45712]]]}},{"type":"Feature","properties":{"k":"BTH","s":0.852},"geometry":{"type":"Polygon","coordinates":[[[2.4728,50.45792],[2.4717,50.45724],[2.47101,50.45765],[2.47228,50.45847],[2.4728,50.45792]]]}},{"type":"Feature","properties":{"k":"PPH","s":1.263},"geometry":{"type":"Polygon","coordinates":[[[2.47498,50.45791],[2.47378,50.45904],[2.47453,50.45905],[2.47586,50.4584],[2.47553,50.45799],[2.47622,50.45771],[2.4756,50.45723],[2.47498,50.45791]]]}},{"type":"Feature","properties":{"k":"BTH","s":2.323},"geometry":{"type":"Polygon","coordinates":[[[2.47521,50.46072],[2.47705,50.45996],[2.47603,50.45893],[2.47384,50.45983],[2.47521,50.46072]]]}},{"type":"Feature","properties":{"k":"PPH","s":2.832},"geometry":{"type":"Polygon","coordinates":[[[2.47379,50.45951],[2.47344,50.45938],[2.47331,50.45948],[2.47384,50.45983],[2.47603,50.45893],[2.47705,50.45996],[2.47909,50.46128],[2.47949,50.46112],[2.47971,50.46081],[2.47857,50.45935],[2.47732,50.45985],[2.47607,50.4586],[2.47379,50.45951]]]}},{"type":"Feature","properties":{"k":"PPH","s":1.056},"geometry":{"type":"Polygon","coordinates":[[[2.47656,50.45821],[2.47694,50.45852],[2.47897,50.45856],[2.4791,50.45796],[2.47763,50.45791],[2.47656,50.45821]]]}},{"type":"Feature","properties":{"k":"PPH","s":2.159},"geometry":{"type":"Polygon","coordinates":[[[2.47685,50.45854],[2.47652,50.45824],[2.47596,50.45849],[2.47732,50.45985],[2.47931,50.45904],[2.47897,50.45856],[2.47685,50.45854]]]}},{"type":"Feature","properties":{"k":"PPH","s":2.294},"geometry":{"type":"Polygon","coordinates":[[[2.48163,50.45955],[2.48118,50.45897],[2.48164,50.4588],[2.48143,50.45861],[2.48072,50.45891],[2.48016,50.45873],[2.47857,50.45935],[2.47917,50.4603],[2.48163,50.45955]]]}},{"type":"Feature","properties":{"k":"PTR","s":0.172},"geometry":{"type":"Polygon","coordinates":[[[2.47915,50.45879],[2.47936,50.45902],[2.48001,50.45877],[2.47965,50.45852],[2.47941,50.4586],[2.47915,50.45879]]]}},{"type":"Feature","properties":{"k":"PPH","s":0.491},"geometry":{"type":"Polygon","coordinates":[[[2.4775,50.45784],[2.47841,50.45783],[2.47825,50.45703],[2.47728,50.45741],[2.4775,50.45784]]]}},{"type":"Feature","properties":{"k":"PPH","s":0.63},"geometry":{"type":"Polygon","coordinates":[[[2.47907,50.4565],[2.47908,50.45623],[2.47882,50.45623],[2.47862,50.45593],[2.47884,50.45676],[2.47903,50.45672],[2.47886,50.45697],[2.47921,50.45743],[2.47951,50.45739],[2.47978,50.45617],[2.47955,50.45615],[2.47951,50.45653],[2.47907,50.4565]]]}},{"type":"Feature","properties":{"k":"PPH","s":3.164},"geometry":{"type":"Polygon","coordinates":[[[2.47836,50.45583],[2.47917,50.45578],[2.47957,50.45497],[2.48011,50.45449],[2.47916,50.45408],[2.47937,50.45398],[2.47955,50.45413],[2.48029,50.45374],[2.48024,50.45357],[2.4797,50.45351],[2.47847,50.45414],[2.47761,50.45374],[2.47648,50.45461],[2.47757,50.45517],[2.47937,50.45424],[2.47842,50.45485],[2.47877,50.45521],[2.47833,50.45538],[2.47836,50.45583]]]}},{"type":"Feature","properties":{"k":"PPH","s":0.209},"geometry":{"type":"Polygon","coordinates":[[[2.4754,50.45557],[2.47527,50.45585],[2.47578,50.45609],[2.47614,50.45576],[2.4757,50.45555],[2.4754,50.45557]]]}},{"type":"Feature","properties":{"k":"PPH","s":0.452},"geometry":{"type":"Polygon","coordinates":[[[2.474,50.45574],[2.47435,50.45596],[2.47522,50.45473],[2.47492,50.45457],[2.474,50.45574]]]}},{"type":"Feature","properties":{"k":"PPH","s":0.408},"geometry":{"type":"Polygon","coordinates":[[[2.47585,50.45294],[2.47704,50.45309],[2.47712,50.45293],[2.47596,50.45246],[2.47546,50.45273],[2.47585,50.45294]]]}},{"type":"Feature","properties":{"k":"PPH","s":1.278},"geometry":{"type":"Polygon","coordinates":[[[2.4806,50.45188],[2.48066,50.45153],[2.47884,50.45182],[2.48028,50.45255],[2.48076,50.45313],[2.48153,50.45306],[2.4806,50.45188]]]}},{"type":"Feature","properties":{"k":"PPH","s":1.878},"geometry":{"type":"Polygon","coordinates":[[[2.47338,50.45264],[2.47518,50.45285],[2.4776,50.45151],[2.47749,50.45138],[2.47655,50.45163],[2.47641,50.45138],[2.47518,50.45165],[2.47516,50.45203],[2.47338,50.45264]]]}},{"type":"Feature","properties":{"k":"PPH","s":1.727},"geometry":{"type":"Polygon","coordinates":[[[2.47391,50.45194],[2.47504,50.4515],[2.47484,50.45104],[2.47728,50.4504],[2.47711,50.45017],[2.47478,50.4509],[2.47247,50.45197],[2.47292,50.45251],[2.47407,50.45215],[2.47391,50.45194]]]}},{"type":"Feature","properties":{"k":"BTH","s":0.519},"geometry":{"type":"Polygon","coordinates":[[[2.47478,50.4509],[2.47711,50.45017],[2.47688,50.44989],[2.47469,50.45071],[2.47478,50.4509]]]}},{"type":"Feature","properties":{"k":"PPH","s":0.815},"geometry":{"type":"Polygon","coordinates":[[[2.47649,50.45081],[2.47636,50.45065],[2.47485,50.45104],[2.47506,50.45152],[2.47707,50.45107],[2.47693,50.45092],[2.47763,50.45076],[2.4769,50.45088],[2.47678,50.45074],[2.47649,50.45081]]]}},{"type":"Feature","properties":{"k":"PPH","s":0.692},"geometry":{"type":"Polygon","coordinates":[[[2.47561,50.44879],[2.47632,50.4493],[2.47706,50.44891],[2.47688,50.44814],[2.47561,50.44879]]]}},{"type":"Feature","properties":{"k":"PPH","s":0.274},"geometry":{"type":"Polygon","coordinates":[[[2.47728,50.44937],[2.47708,50.44893],[2.47632,50.44933],[2.47677,50.44965],[2.47728,50.44937]]]}},{"type":"Feature","properties":{"k":"PPH","s":0.955},"geometry":{"type":"Polygon","coordinates":[[[2.47866,50.44998],[2.47753,50.44932],[2.47687,50.44969],[2.47768,50.45071],[2.47866,50.44998]]]}},{"type":"Feature","properties":{"k":"BTA","s":0.093},"geometry":{"type":"Polygon","coordinates":[[[2.47941,50.4491],[2.4785,50.44852],[2.47934,50.44912],[2.47983,50.44989],[2.4799,50.44988],[2.47941,50.4491]]]}},{"type":"Feature","properties":{"k":"MIS","s":0.784},"geometry":{"type":"Polygon","coordinates":[[[2.47941,50.4491],[2.4799,50.44988],[2.4803,50.44978],[2.47968,50.44921],[2.48016,50.44901],[2.47926,50.4482],[2.47858,50.44852],[2.47941,50.4491]]]}},{"type":"Feature","properties":{"k":"LUZ","s":0.56},"geometry":{"type":"Polygon","coordinates":[[[2.47653,50.44675],[2.47907,50.44675],[2.47901,50.44643],[2.47667,50.44643],[2.47653,50.44675]]]}},{"type":"Feature","properties":{"k":"LUZ","s":0.153},"geometry":{"type":"Polygon","coordinates":[[[2.4794,50.44641],[2.4795,50.44674],[2.48004,50.44663],[2.47984,50.44627],[2.4794,50.44641]]]}},{"type":"Feature","properties":{"k":"ORH","s":11.497},"geometry":{"type":"Polygon","coordinates":[[[2.48272,50.4459],[2.47976,50.44675],[2.47677,50.44681],[2.47508,50.44653],[2.47469,50.44695],[2.47704,50.44771],[2.47863,50.44846],[2.48068,50.44748],[2.48225,50.44893],[2.48278,50.44857],[2.48512,50.44584],[2.48371,50.44541],[2.48272,50.4459]]]}},{"type":"Feature","properties":{"k":"PPH","s":0.299},"geometry":{"type":"Polygon","coordinates":[[[2.48095,50.44635],[2.48065,50.44601],[2.47984,50.44627],[2.48005,50.44665],[2.48095,50.44635]]]}},{"type":"Feature","properties":{"k":"PPH","s":0.597},"geometry":{"type":"Polygon","coordinates":[[[2.47427,50.4462],[2.47653,50.44676],[2.47658,50.44644],[2.47449,50.44593],[2.47427,50.4462]]]}},{"type":"Feature","properties":{"k":"BTH","s":1.187},"geometry":{"type":"Polygon","coordinates":[[[2.47479,50.44209],[2.4753,50.44137],[2.47373,50.44076],[2.47322,50.44147],[2.47479,50.44209]]]}},{"type":"Feature","properties":{"k":"BTN","s":1.638},"geometry":{"type":"Polygon","coordinates":[[[2.47699,50.44298],[2.47726,50.4429],[2.4776,50.44243],[2.4753,50.44137],[2.4748,50.44209],[2.47699,50.44298]]]}},{"type":"Feature","properties":{"k":"JAC","s":0.245},"geometry":{"type":"Polygon","coordinates":[[[2.475,50.4435],[2.47322,50.44397],[2.47706,50.44305],[2.475,50.4435]]]}},{"type":"Feature","properties":{"k":"BTA","s":0.3},"geometry":{"type":"Polygon","coordinates":[[[2.47704,50.44771],[2.47474,50.44697],[2.47677,50.44772],[2.47799,50.44838],[2.47863,50.44846],[2.47704,50.44771]]]}},{"type":"Feature","properties":{"k":"PPH","s":0.642},"geometry":{"type":"Polygon","coordinates":[[[2.4726,50.44826],[2.47384,50.44741],[2.47327,50.44715],[2.47208,50.44795],[2.4726,50.44826]]]}},{"type":"Feature","properties":{"k":"PPH","s":0.883},"geometry":{"type":"Polygon","coordinates":[[[2.47218,50.44686],[2.4707,50.44637],[2.47067,50.4462],[2.47003,50.44634],[2.47275,50.44748],[2.47333,50.44709],[2.47244,50.44675],[2.47218,50.44686]]]}},{"type":"Feature","properties":{"k":"PPH","s":0.01},"geometry":{"type":"MultiPolygon","coordinates":[[[[2.47117,50.44595],[2.47125,50.44589],[2.47048,50.44622],[2.47117,50.44595]]]]}},{"type":"Feature","properties":{"k":"ORH","s":5.388},"geometry":{"type":"Polygon","coordinates":[[[2.47014,50.44641],[2.46977,50.44646],[2.4688,50.44712],[2.47064,50.44949],[2.47092,50.44962],[2.4726,50.44826],[2.47208,50.44795],[2.47323,50.44718],[2.47281,50.44745],[2.47014,50.44641]]]}},{"type":"Feature","properties":{"k":"PTC","s":0.063},"geometry":{"type":"Polygon","coordinates":[[[2.46918,50.44942],[2.46905,50.44933],[2.46857,50.4496],[2.46872,50.44969],[2.46918,50.44942]]]}},{"type":"Feature","properties":{"k":"BTH","s":0.324},"geometry":{"type":"Polygon","coordinates":[[[2.46872,50.44969],[2.46857,50.4496],[2.46818,50.44982],[2.46955,50.44977],[2.46923,50.44943],[2.46995,50.44912],[2.46967,50.44897],[2.46905,50.44933],[2.46918,50.44942],[2.46872,50.44969]]]}},{"type":"Feature","properties":{"k":"ORH","s":13.844},"geometry":{"type":"Polygon","coordinates":[[[2.47332,50.44402],[2.47395,50.44433],[2.47431,50.44433],[2.47433,50.44453],[2.47484,50.44475],[2.47595,50.445],[2.47691,50.44502],[2.47899,50.44469],[2.48215,50.44337],[2.48375,50.44095],[2.48211,50.44128],[2.48,50.44222],[2.47899,50.44221],[2.4776,50.44243],[2.47706,50.44305],[2.47332,50.44402]]]}},{"type":"Feature","properties":{"k":"ORH","s":8.916},"geometry":{"type":"Polygon","coordinates":[[[2.47231,50.45173],[2.47463,50.45057],[2.47469,50.45071],[2.47687,50.44989],[2.47482,50.44833],[2.474,50.44892],[2.47272,50.44819],[2.47088,50.4497],[2.47231,50.45173]]]}},{"type":"Feature","properties":{"k":"ORH","s":0.676},"geometry":{"type":"Polygon","coordinates":[[[2.47476,50.45094],[2.47463,50.45057],[2.47231,50.45173],[2.47246,50.45195],[2.47476,50.45094]]]}},{"type":"Feature","properties":{"k":"PHF","s":3.44},"geometry":{"type":"Polygon","coordinates":[[[2.46807,50.45242],[2.46961,50.45348],[2.47078,50.45271],[2.47015,50.45215],[2.4716,50.45115],[2.47112,50.45052],[2.4709,50.45052],[2.46807,50.45242]]]}},{"type":"Feature","properties":{"k":"PTC","s":3.168},"geometry":{"type":"Polygon","coordinates":[[[2.46696,50.4531],[2.47087,50.45044],[2.47076,50.45018],[2.46857,50.45152],[2.46586,50.45155],[2.46531,50.45182],[2.46696,50.4531]]]}},{"type":"Feature","properties":{"k":"MIS","s":5.603},"geometry":{"type":"Polygon","coordinates":[[[2.46857,50.45152],[2.47074,50.45015],[2.47047,50.44992],[2.46987,50.45018],[2.46946,50.44985],[2.46676,50.44996],[2.46456,50.45123],[2.46531,50.45182],[2.46586,50.45155],[2.46857,50.45152]]]}},{"type":"Feature","properties":{"k":"BTN","s":5.946},"geometry":{"type":"Polygon","coordinates":[[[2.46606,50.45027],[2.46668,50.44986],[2.46818,50.44982],[2.46967,50.44897],[2.46995,50.44912],[2.46851,50.44722],[2.46782,50.4475],[2.46461,50.44991],[2.46606,50.45027]]]}},{"type":"Feature","properties":{"k":"PTC","s":6.554},"geometry":{"type":"MultiPolygon","coordinates":[[[[2.46191,50.44942],[2.46326,50.44856],[2.4613,50.44794],[2.46059,50.44924],[2.46191,50.44942]]],[[[2.46461,50.44991],[2.46782,50.4475],[2.46711,50.44779],[2.4655,50.44726],[2.46231,50.44949],[2.46461,50.44991]]]]}},{"type":"Feature","properties":{"k":"JAC","s":0.004},"geometry":{"type":"Polygon","coordinates":[[[2.46051,50.44922],[2.46046,50.44921],[2.46043,50.4493],[2.46051,50.44922]]]}},{"type":"Feature","properties":{"k":"BTH","s":0.201},"geometry":{"type":"Polygon","coordinates":[[[2.46117,50.4479],[2.46091,50.44781],[2.46046,50.44921],[2.46117,50.4479]]]}},{"type":"Feature","properties":{"k":"JAC","s":0.04},"geometry":{"type":"Polygon","coordinates":[[[2.45298,50.45203],[2.45336,50.45192],[2.45325,50.45182],[2.45286,50.45194],[2.45298,50.45203]]]}},{"type":"Feature","properties":{"k":"MIS","s":0.007},"geometry":{"type":"Polygon","coordinates":[[[2.45354,50.45163],[2.45366,50.45156],[2.45296,50.45186],[2.45354,50.45163]]]}}]}