{"type":"FeatureCollection","features":[{"type":"Feature","properties":{"k":"PPH","s":18.295},"geometry":{"type":"Polygon","coordinates":[[[1.60206,50.68637],[1.60163,50.68557],[1.59968,50.68443],[1.5992,50.68489],[1.59833,50.6853],[1.59335,50.68319],[1.59421,50.68138],[1.59249,50.68129],[1.59214,50.68329],[1.59129,50.68274],[1.5904,50.68313],[1.58897,50.68136],[1.58983,50.68138],[1.59004,50.68123],[1.58966,50.68061],[1.59064,50.68126],[1.58971,50.68054],[1.58866,50.68041],[1.58866,50.6808],[1.58817,50.68077],[1.58817,50.68046],[1.58738,50.68043],[1.58738,50.68073],[1.58721,50.68075],[1.58733,50.68115],[1.58683,50.68123],[1.58784,50.68256],[1.58974,50.68418],[1.59083,50.68377],[1.59276,50.68446],[1.59296,50.68429],[1.59565,50.68545],[1.59618,50.68643],[1.59654,50.68564],[1.59864,50.68648],[1.59951,50.6862],[1.59986,50.68704],[1.60038,50.68691],[1.59925,50.68556],[1.59965,50.68538],[1.60025,50.68576],[1.60092,50.68584],[1.60129,50.68639],[1.60114,50.68646],[1.60128,50.68674],[1.60183,50.68662],[1.60206,50.68637]]]}},{"type":"Feature","properties":{"k":"MIS","s":2.325},"geometry":{"type":"Polygon","coordinates":[[[1.58171,50.68222],[1.58365,50.68261],[1.58343,50.68298],[1.58574,50.6836],[1.58632,50.68286],[1.58331,50.68203],[1.58176,50.68206],[1.58171,50.68222]]]}},{"type":"Feature","properties":{"k":"PPH","s":16.371},"geometry":{"type":"Polygon","coordinates":[[[1.59623,50.68656],[1.5972,50.68713],[1.59535,50.68785],[1.59513,50.68752],[1.5954,50.68802],[1.59444,50.68776],[1.59404,50.68723],[1.59253,50.68805],[1.59324,50.68863],[1.59378,50.6894],[1.59292,50.68951],[1.59393,50.69135],[1.59355,50.69146],[1.59441,50.69297],[1.59576,50.69256],[1.59692,50.69195],[1.59461,50.69099],[1.59624,50.68958],[1.59592,50.68946],[1.59591,50.68918],[1.59632,50.6891],[1.59658,50.68929],[1.59787,50.68908],[1.59938,50.6895],[1.59961,50.68941],[1.6016,50.68952],[1.60178,50.68947],[1.6018,50.68876],[1.60269,50.68915],[1.60301,50.68896],[1.60335,50.68914],[1.60372,50.68866],[1.60113,50.68811],[1.60115,50.68768],[1.60026,50.68771],[1.59963,50.68878],[1.59874,50.68852],[1.5979,50.68876],[1.59818,50.68853],[1.59802,50.68851],[1.59819,50.68823],[1.59802,50.68807],[1.59726,50.68841],[1.59696,50.68824],[1.59778,50.68781],[1.59704,50.68684],[1.59641,50.68656],[1.596,50.68654],[1.59483,50.68701],[1.59623,50.68656]]]}},{"type":"Feature","properties":{"k":"ORH","s":0.635},"geometry":{"type":"Polygon","coordinates":[[[1.59907,50.68698],[1.59828,50.68634],[1.59753,50.68678],[1.59846,50.68734],[1.59907,50.68698]]]}},{"type":"Feature","properties":{"k":"PPH","s":1.118},"geometry":{"type":"Polygon","coordinates":[[[1.59769,50.68602],[1.59655,50.68566],[1.59631,50.68644],[1.59717,50.68677],[1.59761,50.6872],[1.59791,50.687],[1.59753,50.68678],[1.59832,50.68631],[1.59769,50.68602]]]}},{"type":"Feature","properties":{"k":"PPH","s":0.563},"geometry":{"type":"Polygon","coordinates":[[[1.59457,50.68783],[1.5954,50.68802],[1.59482,50.68699],[1.59404,50.68723],[1.59457,50.68783]]]}},{"type":"Feature","properties":{"k":"MIS","s":1.381},"geometry":{"type":"Polygon","coordinates":[[[1.59535,50.68785],[1.5972,50.68713],[1.59686,50.68683],[1.59606,50.68656],[1.59483,50.687],[1.59535,50.68785]]]}},{"type":"Feature","properties":{"k":"ORH","s":1.365},"geometry":{"type":"Polygon","coordinates":[[[1.59173,50.68638],[1.59122,50.68649],[1.59146,50.68711],[1.59131,50.68816],[1.59146,50.68841],[1.59223,50.68815],[1.5927,50.68781],[1.59173,50.68638]]]}},{"type":"Feature","properties":{"k":"BTH","s":1.26},"geometry":{"type":"Polygon","coordinates":[[[1.59412,50.68711],[1.59279,50.68629],[1.5919,50.68662],[1.5927,50.68781],[1.59412,50.68711]]]}},{"type":"Feature","properties":{"k":"PPH","s":1.634},"geometry":{"type":"Polygon","coordinates":[[[1.59565,50.68545],[1.59296,50.68429],[1.59281,50.68466],[1.59338,50.68498],[1.5934,50.68523],[1.59459,50.68573],[1.59475,50.68565],[1.59618,50.68643],[1.59565,50.68545]]]}},{"type":"Feature","properties":{"k":"MIS","s":2.911},"geometry":{"type":"Polygon","coordinates":[[[1.59003,50.68604],[1.58985,50.68668],[1.58931,50.68687],[1.59035,50.68701],[1.59054,50.68724],[1.59129,50.68746],[1.5913,50.68691],[1.59002,50.68458],[1.58815,50.68551],[1.59003,50.68604]]]}},{"type":"Feature","properties":{"k":"BTH","s":1.089},"geometry":{"type":"Polygon","coordinates":[[[1.58975,50.68863],[1.59122,50.68844],[1.59122,50.68764],[1.58875,50.68825],[1.58975,50.68863]]]}},{"type":"Feature","properties":{"k":"PPH","s":4.906},"geometry":{"type":"Polygon","coordinates":[[[1.58859,50.68772],[1.58997,50.68716],[1.58741,50.68634],[1.5876,50.68854],[1.58721,50.68913],[1.58743,50.68936],[1.58731,50.68959],[1.58836,50.68993],[1.58905,50.68932],[1.58973,50.68902],[1.59002,50.68919],[1.59132,50.68881],[1.59123,50.68839],[1.58975,50.68863],[1.58868,50.68816],[1.58859,50.68772]]]}},{"type":"Feature","properties":{"k":"BTH","s":6.749},"geometry":{"type":"Polygon","coordinates":[[[1.59393,50.69135],[1.59292,50.68951],[1.59378,50.6894],[1.59324,50.68863],[1.59253,50.68805],[1.59137,50.68858],[1.59192,50.69125],[1.59247,50.69274],[1.59294,50.69328],[1.59441,50.69297],[1.59355,50.69146],[1.59393,50.69135]]]}},{"type":"Feature","properties":{"k":"PPH","s":2.265},"geometry":{"type":"Polygon","coordinates":[[[1.58911,50.6929],[1.58868,50.69318],[1.58933,50.69339],[1.58929,50.69361],[1.5909,50.69356],[1.59065,50.69386],[1.59128,50.69404],[1.59175,50.69372],[1.59189,50.6935],[1.59171,50.69369],[1.59026,50.69318],[1.5897,50.69266],[1.58956,50.69221],[1.59093,50.69137],[1.59049,50.6911],[1.58835,50.69252],[1.58911,50.6929]]]}},{"type":"Feature","properties":{"k":"BTH","s":11.712},"geometry":{"type":"Polygon","coordinates":[[[1.5857,50.69149],[1.58692,50.69205],[1.58786,50.69229],[1.58999,50.6908],[1.59093,50.69137],[1.58956,50.69221],[1.58991,50.69299],[1.59171,50.69369],[1.59243,50.6929],[1.59164,50.69072],[1.59132,50.68881],[1.59002,50.68919],[1.58973,50.68902],[1.58905,50.68932],[1.58836,50.68993],[1.58787,50.68986],[1.58649,50.69076],[1.58669,50.6909],[1.5857,50.69149]]]}},{"type":"Feature","properties":{"k":"PPH","s":4.93},"geometry":{"type":"Polygon","coordinates":[[[1.59482,50.68248],[1.59378,50.6822],[1.59335,50.68319],[1.59833,50.6853],[1.5992,50.68489],[1.59934,50.6847],[1.59892,50.68464],[1.59482,50.68248]]]}},{"type":"Feature","properties":{"k":"PPH","s":8.665},"geometry":{"type":"Polygon","coordinates":[[[1.58161,50.69091],[1.58301,50.69237],[1.58543,50.69198],[1.58864,50.69319],[1.58909,50.6929],[1.58833,50.69253],[1.59049,50.6911],[1.58997,50.6908],[1.58786,50.6923],[1.58446,50.69115],[1.58537,50.69042],[1.58278,50.68897],[1.58204,50.6896],[1.58266,50.68993],[1.58161,50.69091]]]}},{"type":"Feature","properties":{"k":"PPH","s":7.928},"geometry":{"type":"Polygon","coordinates":[[[1.57758,50.69251],[1.57816,50.69339],[1.57885,50.69304],[1.57999,50.69424],[1.58075,50.69377],[1.58027,50.69338],[1.5812,50.69282],[1.58141,50.69305],[1.58286,50.6924],[1.58342,50.69283],[1.5816,50.69091],[1.5818,50.69069],[1.58129,50.69041],[1.57999,50.69105],[1.57968,50.69087],[1.57758,50.69251]]]}},{"type":"Feature","properties":{"k":"BTH","s":1.996},"geometry":{"type":"Polygon","coordinates":[[[1.57833,50.69005],[1.57758,50.69129],[1.57762,50.69247],[1.57971,50.69085],[1.57833,50.69005]]]}},{"type":"Feature","properties":{"k":"BTH","s":0.404},"geometry":{"type":"Polygon","coordinates":[[[1.57739,50.69254],[1.57691,50.69151],[1.57633,50.69227],[1.57739,50.69254]]]}},{"type":"Feature","properties":{"k":"MIS","s":4.851},"geometry":{"type":"Polygon","coordinates":[[[1.57834,50.69006],[1.57998,50.69105],[1.58129,50.6904],[1.5818,50.69068],[1.58266,50.68993],[1.57937,50.68831],[1.57834,50.69006]]]}},{"type":"Feature","properties":{"k":"BTH","s":2.456},"geometry":{"type":"Polygon","coordinates":[[[1.58223,50.68856],[1.57994,50.68741],[1.57941,50.68826],[1.5797,50.68843],[1.58207,50.68956],[1.58286,50.68889],[1.58223,50.68856]]]}},{"type":"Feature","properties":{"k":"BTN","s":1.52},"geometry":{"type":"Polygon","coordinates":[[[1.58336,50.68778],[1.58358,50.68738],[1.58039,50.68654],[1.5799,50.68739],[1.58063,50.68776],[1.58103,50.68719],[1.58336,50.68778]]]}},{"type":"Feature","properties":{"k":"BTH","s":0.981},"geometry":{"type":"Polygon","coordinates":[[[1.58208,50.68482],[1.58168,50.68472],[1.58154,50.68514],[1.58112,50.68504],[1.58045,50.68649],[1.58107,50.68668],[1.58208,50.68482]]]}},{"type":"Feature","properties":{"k":"PPH","s":2.12},"geometry":{"type":"Polygon","coordinates":[[[1.57517,50.69789],[1.57579,50.69813],[1.5763,50.69731],[1.57686,50.69743],[1.57802,50.69519],[1.57777,50.69481],[1.57719,50.69517],[1.57599,50.69715],[1.57517,50.69789]]]}},{"type":"Feature","properties":{"k":"PPH","s":4.085},"geometry":{"type":"Polygon","coordinates":[[[1.58027,50.69608],[1.57934,50.69581],[1.57951,50.69675],[1.5798,50.69715],[1.58021,50.69687],[1.58162,50.69765],[1.58207,50.69717],[1.58158,50.69707],[1.58224,50.69603],[1.58326,50.69529],[1.58248,50.69469],[1.58184,50.69504],[1.58156,50.69487],[1.58027,50.69608]]]}},{"type":"Feature","properties":{"k":"BTH","s":1.538},"geometry":{"type":"Polygon","coordinates":[[[1.57884,50.69305],[1.57818,50.69341],[1.57915,50.6947],[1.57932,50.69537],[1.58039,50.6946],[1.57884,50.69305]]]}},{"type":"Feature","properties":{"k":"MIS","s":2.71},"geometry":{"type":"Polygon","coordinates":[[[1.58188,50.6939],[1.58312,50.69356],[1.58331,50.69288],[1.58286,50.69242],[1.58141,50.69306],[1.5812,50.69282],[1.58028,50.69338],[1.58075,50.69377],[1.57999,50.69425],[1.58051,50.69467],[1.58188,50.6939]]]}},{"type":"Feature","properties":{"k":"BTA","s":0.227},"geometry":{"type":"Polygon","coordinates":[[[1.58205,50.6939],[1.58323,50.69359],[1.5834,50.69294],[1.58331,50.69288],[1.58312,50.69356],[1.58173,50.69396],[1.58052,50.69467],[1.58205,50.6939]]]}},{"type":"Feature","properties":{"k":"PPH","s":1.896},"geometry":{"type":"Polygon","coordinates":[[[1.58156,50.69487],[1.58184,50.69504],[1.58393,50.69389],[1.58362,50.69351],[1.58206,50.69399],[1.58016,50.69504],[1.58091,50.69539],[1.58156,50.69487]]]}},{"type":"Feature","properties":{"k":"PPH","s":10.12},"geometry":{"type":"Polygon","coordinates":[[[1.58324,50.69361],[1.58362,50.69351],[1.58393,50.69389],[1.58248,50.69469],[1.58326,50.69529],[1.58234,50.69593],[1.58189,50.69657],[1.58158,50.69707],[1.58207,50.69717],[1.58278,50.69658],[1.58251,50.69652],[1.58303,50.69586],[1.58454,50.69489],[1.58469,50.69507],[1.58514,50.69455],[1.58641,50.69492],[1.58757,50.69359],[1.58918,50.69394],[1.58932,50.69341],[1.58545,50.692],[1.58302,50.69237],[1.58345,50.69284],[1.58324,50.69361]]]}},{"type":"Feature","properties":{"k":"PPH","s":1.613},"geometry":{"type":"Polygon","coordinates":[[[1.58278,50.69658],[1.58223,50.69705],[1.58189,50.69761],[1.58208,50.69765],[1.58296,50.69659],[1.58279,50.69637],[1.58313,50.69595],[1.58478,50.69557],[1.58575,50.69683],[1.58693,50.69668],[1.58601,50.6962],[1.58562,50.69629],[1.58454,50.69489],[1.58303,50.69586],[1.58251,50.69652],[1.58278,50.69658]]]}},{"type":"Feature","properties":{"k":"PTR","s":3.282},"geometry":{"type":"Polygon","coordinates":[[[1.5834,50.69732],[1.58433,50.69722],[1.58575,50.69683],[1.58478,50.69557],[1.58313,50.69595],[1.58293,50.69615],[1.58279,50.69637],[1.58296,50.69659],[1.58208,50.69765],[1.58318,50.69787],[1.5834,50.69732]]]}},{"type":"Feature","properties":{"k":"MIS","s":0.999},"geometry":{"type":"Polygon","coordinates":[[[1.59559,50.69688],[1.59612,50.69757],[1.59662,50.6971],[1.59756,50.69716],[1.59772,50.69654],[1.59676,50.69647],[1.59559,50.69688]]]}},{"type":"Feature","properties":{"k":"PPH","s":0.639},"geometry":{"type":"Polygon","coordinates":[[[1.5963,50.69863],[1.59604,50.69943],[1.59709,50.69964],[1.59746,50.69878],[1.59686,50.69871],[1.59676,50.69909],[1.5964,50.69906],[1.59651,50.69867],[1.5963,50.69863]]]}},{"type":"Feature","properties":{"k":"PPH","s":6.014},"geometry":{"type":"Polygon","coordinates":[[[1.58963,50.69762],[1.59016,50.69778],[1.59188,50.6979],[1.59493,50.69847],[1.59501,50.69818],[1.59592,50.69844],[1.59635,50.69822],[1.59544,50.69683],[1.59311,50.69619],[1.59267,50.69691],[1.59154,50.6968],[1.59117,50.69764],[1.58968,50.69734],[1.58963,50.69762]],[[1.59601,50.69807],[1.59612,50.69807],[1.59609,50.69823],[1.59601,50.69807]]]}},{"type":"Feature","properties":{"k":"MIS","s":0.478},"geometry":{"type":"Polygon","coordinates":[[[1.59512,50.69647],[1.59483,50.6961],[1.59324,50.69601],[1.59311,50.69619],[1.59445,50.69655],[1.59457,50.69637],[1.59512,50.69647]]]}},{"type":"Feature","properties":{"k":"ORH","s":2.981},"geometry":{"type":"Polygon","coordinates":[[[1.59323,50.69601],[1.59482,50.6961],[1.5943,50.69422],[1.59325,50.69361],[1.59208,50.69513],[1.59247,50.69517],[1.59243,50.69554],[1.59348,50.69559],[1.59323,50.69601]],[[1.59409,50.69426],[1.59393,50.69445],[1.59366,50.69441],[1.59379,50.69423],[1.59409,50.69426]],[[1.59386,50.69459],[1.59385,50.69484],[1.5934,50.69477],[1.59347,50.69454],[1.59386,50.69459]]]}},{"type":"Feature","properties":{"k":"PPH","s":4.093},"geometry":{"type":"Polygon","coordinates":[[[1.59348,50.69559],[1.59243,50.69554],[1.59247,50.69517],[1.59073,50.69503],[1.59029,50.69604],[1.59192,50.69611],[1.5917,50.69643],[1.59007,50.69636],[1.58968,50.69733],[1.59116,50.69764],[1.59153,50.69679],[1.59266,50.6969],[1.59348,50.69559]]]}},{"type":"Feature","properties":{"k":"PPH","s":1.699},"geometry":{"type":"Polygon","coordinates":[[[1.58981,50.6964],[1.59033,50.69547],[1.58754,50.69554],[1.58754,50.69579],[1.58707,50.69588],[1.58758,50.69615],[1.58981,50.6964]]]}},{"type":"Feature","properties":{"k":"MIS","s":0.25},"geometry":{"type":"Polygon","coordinates":[[[1.59277,50.69335],[1.59243,50.6929],[1.59171,50.6937],[1.59277,50.69335]]]}},{"type":"Feature","properties":{"k":"ORP","s":0.171},"geometry":{"type":"Polygon","coordinates":[[[1.59325,50.69361],[1.59314,50.69356],[1.59196,50.69512],[1.59325,50.69361]]]}},{"type":"Feature","properties":{"k":"MIS","s":1.582},"geometry":{"type":"Polygon","coordinates":[[[1.59151,50.69398],[1.59064,50.69503],[1.59195,50.69513],[1.59314,50.69356],[1.59292,50.69343],[1.59151,50.69398]]]}},{"type":"Feature","properties":{"k":"PPH","s":11.615},"geometry":{"type":"Polygon","coordinates":[[[1.59489,50.696],[1.59588,50.69585],[1.59616,50.69659],[1.59676,50.69647],[1.59772,50.69654],[1.59757,50.69794],[1.59795,50.69787],[1.59806,50.69801],[1.59779,50.69873],[1.59807,50.69881],[1.59813,50.69904],[1.59883,50.69889],[1.59963,50.69898],[1.59982,50.69852],[1.60035,50.69856],[1.60032,50.69806],[1.60083,50.69696],[1.6007,50.69651],[1.60035,50.69623],[1.60013,50.69735],[1.59887,50.69714],[1.59913,50.69626],[1.60028,50.69619],[1.59965,50.69586],[1.59983,50.69518],[1.59964,50.69497],[1.59778,50.69453],[1.59444,50.69427],[1.59489,50.696]],[[1.59783,50.69527],[1.59781,50.6952],[1.59794,50.69519],[1.59797,50.6953],[1.59783,50.69527]],[[1.5963,50.69519],[1.59639,50.69519],[1.59639,50.69529],[1.5963,50.69519]],[[1.59809,50.69557],[1.59806,50.69547],[1.59818,50.69546],[1.59809,50.69557]],[[1.59759,50.69548],[1.59757,50.69556],[1.59746,50.69554],[1.59759,50.69548]],[[1.59761,50.69582],[1.5976,50.69574],[1.59773,50.69574],[1.59761,50.69582]],[[1.59704,50.69624],[1.59719,50.69621],[1.59724,50.69631],[1.59704,50.69624]]]}},{"type":"Feature","properties":{"k":"ORH","s":1.002},"geometry":{"type":"Polygon","coordinates":[[[1.59913,50.69626],[1.59887,50.69714],[1.60013,50.69735],[1.60035,50.69623],[1.59913,50.69626]]]}},{"type":"Feature","properties":{"k":"MIS","s":2.708},"geometry":{"type":"Polygon","coordinates":[[[1.57463,50.69822],[1.57588,50.69713],[1.57508,50.69691],[1.5743,50.69718],[1.57409,50.69678],[1.57274,50.69653],[1.57221,50.69758],[1.57463,50.69822]]]}},{"type":"Feature","properties":{"k":"MIS","s":3.674},"geometry":{"type":"Polygon","coordinates":[[[1.57262,50.69644],[1.57412,50.69676],[1.57486,50.6965],[1.57592,50.69494],[1.57393,50.69436],[1.57262,50.69644]]]}},{"type":"Feature","properties":{"k":"ORH","s":1.332},"geometry":{"type":"Polygon","coordinates":[[[1.58523,50.68398],[1.58574,50.6836],[1.5817,50.68256],[1.58167,50.68293],[1.58523,50.68398]]]}},{"type":"Feature","properties":{"k":"BTH","s":6.18},"geometry":{"type":"Polygon","coordinates":[[[1.58131,50.68448],[1.58643,50.68594],[1.58624,50.68499],[1.58636,50.68453],[1.58602,50.68429],[1.58268,50.68323],[1.5826,50.68332],[1.58153,50.68301],[1.58131,50.68448]]]}},{"type":"Feature","properties":{"k":"MIS","s":4.414},"geometry":{"type":"Polygon","coordinates":[[[1.58178,50.682],[1.58331,50.68202],[1.58636,50.68284],[1.58614,50.68209],[1.58428,50.68153],[1.58472,50.68073],[1.58249,50.6801],[1.58178,50.682]]]}},{"type":"Feature","properties":{"k":"BTH","s":2.187},"geometry":{"type":"Polygon","coordinates":[[[1.58341,50.68517],[1.58211,50.68483],[1.58107,50.68668],[1.58229,50.68708],[1.58341,50.68517]]]}},{"type":"Feature","properties":{"k":"BTH","s":4.556},"geometry":{"type":"Polygon","coordinates":[[[1.58623,50.68787],[1.58663,50.68759],[1.58551,50.68749],[1.58535,50.68568],[1.58342,50.68516],[1.58229,50.68709],[1.58623,50.68787]]]}},{"type":"Feature","properties":{"k":"BTH","s":1.705},"geometry":{"type":"Polygon","coordinates":[[[1.58341,50.68811],[1.58381,50.68745],[1.58358,50.68738],[1.58336,50.68778],[1.58103,50.68719],[1.58063,50.68776],[1.58223,50.68856],[1.58341,50.68811]]]}},{"type":"Feature","properties":{"k":"MIS","s":2.064},"geometry":{"type":"Polygon","coordinates":[[[1.58661,50.68702],[1.58723,50.687],[1.58738,50.68742],[1.58736,50.68635],[1.58535,50.68568],[1.58551,50.68749],[1.58666,50.68756],[1.58661,50.68702]]]}},{"type":"Feature","properties":{"k":"PPH","s":2.91},"geometry":{"type":"Polygon","coordinates":[[[1.58643,50.68594],[1.58932,50.68686],[1.58983,50.68668],[1.59004,50.68604],[1.58767,50.68537],[1.58636,50.68453],[1.58643,50.68594]]]}},{"type":"Feature","properties":{"k":"BTN","s":4.017},"geometry":{"type":"Polygon","coordinates":[[[1.5884,50.68311],[1.58601,50.6843],[1.58762,50.68533],[1.58815,50.68551],[1.59002,50.68458],[1.5884,50.68311]]]}},{"type":"Feature","properties":{"k":"BTH","s":1.777},"geometry":{"type":"Polygon","coordinates":[[[1.58839,50.6831],[1.58774,50.68257],[1.58665,50.68317],[1.58632,50.68285],[1.58572,50.68364],[1.58523,50.68398],[1.58504,50.68392],[1.58602,50.68429],[1.58839,50.6831]]]}},{"type":"Feature","properties":{"k":"AVP","s":0.789},"geometry":{"type":"Polygon","coordinates":[[[1.57594,50.69709],[1.57658,50.69606],[1.57581,50.69581],[1.57513,50.6969],[1.57594,50.69709]]]}},{"type":"Feature","properties":{"k":"MIS","s":1.401},"geometry":{"type":"Polygon","coordinates":[[[1.58625,50.67997],[1.58603,50.6798],[1.58521,50.67983],[1.58474,50.68072],[1.58357,50.6804],[1.5868,50.68133],[1.58625,50.67997]],[[1.58614,50.68],[1.58573,50.68006],[1.58585,50.67987],[1.58614,50.68]]]}},{"type":"Feature","properties":{"k":"PTR","s":1.58},"geometry":{"type":"Polygon","coordinates":[[[1.58428,50.68153],[1.58611,50.68208],[1.58699,50.68158],[1.5868,50.68133],[1.58472,50.68073],[1.58428,50.68153]]]}},{"type":"Feature","properties":{"k":"MIS","s":1.11},"geometry":{"type":"Polygon","coordinates":[[[1.58665,50.68317],[1.58774,50.68257],[1.58699,50.68158],[1.58611,50.68208],[1.58665,50.68317]]]}},{"type":"Feature","properties":{"k":"PTR","s":0.177},"geometry":{"type":"Polygon","coordinates":[[[1.58733,50.68115],[1.58721,50.68075],[1.58667,50.68081],[1.5868,50.68118],[1.58733,50.68115]]]}},{"type":"Feature","properties":{"k":"JAC","s":0.243},"geometry":{"type":"Polygon","coordinates":[[[1.58556,50.6913],[1.5857,50.69149],[1.58669,50.6909],[1.58649,50.69076],[1.58556,50.6913]]]}}]}