{"type":"FeatureCollection","features":[{"type":"Feature","properties":{"k":"BTN","s":1.334},"geometry":{"type":"Polygon","coordinates":[[[2.94279,50.29966],[2.94274,50.30166],[2.94472,50.30139],[2.94552,50.3014],[2.945,50.30134],[2.94292,50.3016],[2.9431,50.29988],[2.94438,50.29712],[2.94421,50.297],[2.94261,50.29966],[2.94279,50.29966]]]}},{"type":"Feature","properties":{"k":"PPH","s":0.061},"geometry":{"type":"Polygon","coordinates":[[[2.9452,50.30195],[2.9457,50.30147],[2.94543,50.30145],[2.9452,50.30195]]]}},{"type":"Feature","properties":{"k":"BTH","s":0.064},"geometry":{"type":"Polygon","coordinates":[[[2.89632,50.27964],[2.89634,50.27966],[2.89814,50.27835],[2.89891,50.27779],[2.89632,50.27964]]]}},{"type":"Feature","properties":{"k":"MIS","s":0.852},"geometry":{"type":"Polygon","coordinates":[[[2.89736,50.27892],[2.89853,50.27953],[2.89921,50.27903],[2.89814,50.27835],[2.89736,50.27892]]]}},{"type":"Feature","properties":{"k":"BTH","s":2.385},"geometry":{"type":"Polygon","coordinates":[[[2.89459,50.28305],[2.8985,50.28158],[2.89778,50.28107],[2.89408,50.28245],[2.89459,50.28305]]]}},{"type":"Feature","properties":{"k":"BTN","s":8.61},"geometry":{"type":"Polygon","coordinates":[[[2.8914,50.28264],[2.8905,50.28298],[2.89099,50.28359],[2.89779,50.28105],[2.89592,50.27952],[2.89382,50.28016],[2.89478,50.28139],[2.89286,50.28209],[2.89193,50.28088],[2.89052,50.28154],[2.8914,50.28264]]]}},{"type":"Feature","properties":{"k":"PHF","s":2.376},"geometry":{"type":"Polygon","coordinates":[[[2.89192,50.28088],[2.89286,50.28208],[2.89476,50.28139],[2.8938,50.28017],[2.89192,50.28088]]]}},{"type":"Feature","properties":{"k":"LUZ","s":0.913},"geometry":{"type":"Polygon","coordinates":[[[2.88983,50.28208],[2.8905,50.28297],[2.89138,50.28264],[2.89049,50.28156],[2.88983,50.28208]]]}},{"type":"Feature","properties":{"k":"BTH","s":0.103},"geometry":{"type":"Polygon","coordinates":[[[2.88896,50.28547],[2.88898,50.28553],[2.89102,50.28508],[2.88896,50.28547]]]}},{"type":"Feature","properties":{"k":"LUZ","s":0.792},"geometry":{"type":"Polygon","coordinates":[[[2.8912,50.28593],[2.89221,50.28589],[2.89189,50.28484],[2.89109,50.28509],[2.8912,50.28593]]]}},{"type":"Feature","properties":{"k":"BTH","s":3.54},"geometry":{"type":"Polygon","coordinates":[[[2.89241,50.28697],[2.89224,50.28589],[2.8912,50.28593],[2.89109,50.28507],[2.88898,50.28554],[2.88932,50.28686],[2.89241,50.28697]]]}},{"type":"Feature","properties":{"k":"BTH","s":1.547},"geometry":{"type":"Polygon","coordinates":[[[2.919,50.27795],[2.92477,50.27885],[2.92364,50.27829],[2.919,50.27766],[2.919,50.27795]]]}},{"type":"Feature","properties":{"k":"PPH","s":0.172},"geometry":{"type":"MultiPolygon","coordinates":[[[[2.90429,50.27521],[2.90429,50.27517],[2.90397,50.27535],[2.90429,50.27521]]],[[[2.90439,50.27475],[2.904,50.27427],[2.90417,50.27392],[2.90403,50.2738],[2.90381,50.2742],[2.90429,50.27517],[2.90439,50.27475]]]]}},{"type":"Feature","properties":{"k":"MIS","s":2.46},"geometry":{"type":"Polygon","coordinates":[[[2.91215,50.29516],[2.91251,50.29374],[2.91053,50.29382],[2.9099,50.29533],[2.91215,50.29516]]]}},{"type":"Feature","properties":{"k":"PPH","s":1.366},"geometry":{"type":"Polygon","coordinates":[[[2.91187,50.29338],[2.91127,50.29335],[2.91114,50.29378],[2.91397,50.29353],[2.9149,50.2929],[2.91449,50.29266],[2.91187,50.29338]]]}},{"type":"Feature","properties":{"k":"PPH","s":2.893},"geometry":{"type":"Polygon","coordinates":[[[2.91003,50.29234],[2.90901,50.29316],[2.91187,50.29331],[2.91432,50.29268],[2.91432,50.2925],[2.91394,50.29232],[2.91312,50.29235],[2.91275,50.29258],[2.91267,50.29199],[2.9124,50.29199],[2.91228,50.29249],[2.91003,50.29234]]]}},{"type":"Feature","properties":{"k":"BTH","s":1.874},"geometry":{"type":"Polygon","coordinates":[[[2.91849,50.29264],[2.91864,50.29245],[2.91884,50.2925],[2.91955,50.2915],[2.91833,50.29085],[2.91734,50.29212],[2.91727,50.29254],[2.91849,50.29264]]]}},{"type":"Feature","properties":{"k":"PPH","s":1.779},"geometry":{"type":"Polygon","coordinates":[[[2.91833,50.29085],[2.91955,50.2915],[2.91873,50.29268],[2.91964,50.29271],[2.92023,50.29196],[2.91995,50.29187],[2.92016,50.29139],[2.91878,50.2906],[2.91844,50.29085],[2.91713,50.2906],[2.91712,50.29106],[2.91816,50.29116],[2.91833,50.29085]]]}},{"type":"Feature","properties":{"k":"JAC","s":0.394},"geometry":{"type":"Polygon","coordinates":[[[2.91792,50.29136],[2.91816,50.29116],[2.91736,50.29108],[2.91729,50.29135],[2.91692,50.2913],[2.91688,50.29145],[2.91726,50.29152],[2.91725,50.29164],[2.91755,50.29163],[2.91759,50.29176],[2.91724,50.29178],[2.91727,50.29254],[2.91734,50.29212],[2.91792,50.29136]]]}},{"type":"Feature","properties":{"k":"MIS","s":0.475},"geometry":{"type":"Polygon","coordinates":[[[2.911,50.27314],[2.91155,50.27339],[2.91253,50.27233],[2.91221,50.27261],[2.91165,50.27238],[2.911,50.27314]]]}},{"type":"Feature","properties":{"k":"BTH","s":0.762},"geometry":{"type":"Polygon","coordinates":[[[2.91265,50.27222],[2.91228,50.27262],[2.91392,50.27336],[2.91432,50.27295],[2.91265,50.27222]]]}},{"type":"Feature","properties":{"k":"PHF","s":1.268},"geometry":{"type":"Polygon","coordinates":[[[2.91222,50.2726],[2.91156,50.27341],[2.91296,50.27405],[2.91367,50.27326],[2.91222,50.2726]]]}},{"type":"Feature","properties":{"k":"MIS","s":1.944},"geometry":{"type":"Polygon","coordinates":[[[2.91513,50.27269],[2.91552,50.27229],[2.91347,50.27128],[2.91265,50.27222],[2.91432,50.27295],[2.91513,50.27269]]]}},{"type":"Feature","properties":{"k":"PPH","s":0.017},"geometry":{"type":"Polygon","coordinates":[[[2.91265,50.27219],[2.91307,50.27169],[2.91249,50.27231],[2.91265,50.27219]]]}},{"type":"Feature","properties":{"k":"MIS","s":0.0},"geometry":{"type":"Polygon","coordinates":[]}},{"type":"Feature","properties":{"k":"ORH","s":0.597},"geometry":{"type":"Polygon","coordinates":[[[2.9157,50.27295],[2.91652,50.27351],[2.91666,50.27329],[2.91625,50.27298],[2.91642,50.27278],[2.91624,50.27256],[2.91563,50.2722],[2.91513,50.27269],[2.9157,50.27295]]]}},{"type":"Feature","properties":{"k":"LIF","s":0.002},"geometry":{"type":"Polygon","coordinates":[[[2.91654,50.27318],[2.91663,50.27324],[2.91656,50.27315],[2.91654,50.27318]]]}},{"type":"Feature","properties":{"k":"BTH","s":0.015},"geometry":{"type":"MultiPolygon","coordinates":[[[[2.91652,50.27318],[2.91631,50.27293],[2.91626,50.27298],[2.91652,50.27318]]]]}},{"type":"Feature","properties":{"k":"MIS","s":2.78},"geometry":{"type":"Polygon","coordinates":[[[2.92056,50.27636],[2.91804,50.2748],[2.91679,50.27364],[2.91616,50.27401],[2.91726,50.27513],[2.91994,50.27681],[2.92056,50.27636]]]}},{"type":"Feature","properties":{"k":"BTH","s":2.764},"geometry":{"type":"Polygon","coordinates":[[[2.9209,50.28561],[2.92041,50.28609],[2.92081,50.28611],[2.92072,50.28658],[2.92107,50.28659],[2.92125,50.28727],[2.92359,50.28745],[2.92283,50.28628],[2.92286,50.28589],[2.9209,50.28561]]]}},{"type":"Feature","properties":{"k":"PTR","s":1.286},"geometry":{"type":"Polygon","coordinates":[[[2.92286,50.28549],[2.92457,50.2857],[2.92399,50.28477],[2.92192,50.28474],[2.92157,50.2851],[2.92295,50.28518],[2.92286,50.28549]]]}},{"type":"Feature","properties":{"k":"BTH","s":4.739},"geometry":{"type":"Polygon","coordinates":[[[2.91614,50.27401],[2.9167,50.27366],[2.91526,50.27276],[2.91466,50.27278],[2.9134,50.27401],[2.9163,50.27578],[2.9172,50.27517],[2.91614,50.27401]]]}},{"type":"Feature","properties":{"k":"PTC","s":6.842},"geometry":{"type":"Polygon","coordinates":[[[2.89927,50.28208],[2.9023,50.27985],[2.89992,50.27856],[2.8973,50.28054],[2.89927,50.28208]]]}},{"type":"Feature","properties":{"k":"LUZ","s":0.935},"geometry":{"type":"Polygon","coordinates":[[[2.92468,50.29612],[2.92566,50.29513],[2.92472,50.29478],[2.92381,50.29573],[2.92468,50.29612]]]}},{"type":"Feature","properties":{"k":"BTH","s":0.023},"geometry":{"type":"Polygon","coordinates":[[[2.91748,50.2741],[2.91715,50.27378],[2.91678,50.27356],[2.91748,50.2741]]]}},{"type":"Feature","properties":{"k":"PPH","s":1.063},"geometry":{"type":"Polygon","coordinates":[[[2.92531,50.29662],[2.92653,50.29545],[2.92568,50.29511],[2.92468,50.29613],[2.92531,50.29662]]]}},{"type":"Feature","properties":{"k":"PPH","s":0.918},"geometry":{"type":"Polygon","coordinates":[[[2.91304,50.2744],[2.91491,50.27551],[2.91539,50.27521],[2.91339,50.27401],[2.91304,50.2744]]]}},{"type":"Feature","properties":{"k":"MIS","s":0.205},"geometry":{"type":"Polygon","coordinates":[[[2.91319,50.27415],[2.91391,50.27336],[2.91367,50.27326],[2.91296,50.27405],[2.91319,50.27415]]]}},{"type":"Feature","properties":{"k":"MIS","s":10.431},"geometry":{"type":"Polygon","coordinates":[[[2.92582,50.28742],[2.92883,50.28714],[2.92769,50.28551],[2.928,50.28541],[2.92655,50.28315],[2.92587,50.28155],[2.92498,50.28266],[2.92398,50.28324],[2.92538,50.28552],[2.92475,50.28568],[2.92582,50.28742]]]}},{"type":"Feature","properties":{"k":"BTN","s":3.219},"geometry":{"type":"Polygon","coordinates":[[[2.92298,50.28555],[2.92283,50.28628],[2.92359,50.28745],[2.92474,50.28753],[2.92582,50.28742],[2.92475,50.28568],[2.92298,50.28555]]]}},{"type":"Feature","properties":{"k":"MIS","s":6.008},"geometry":{"type":"Polygon","coordinates":[[[2.92271,50.29093],[2.92488,50.29095],[2.92503,50.29113],[2.92584,50.29117],[2.92438,50.28757],[2.92311,50.28746],[2.92271,50.29093]]]}},{"type":"Feature","properties":{"k":"MIS","s":1.903},"geometry":{"type":"Polygon","coordinates":[[[2.92667,50.2913],[2.9249,50.28757],[2.92438,50.28757],[2.92586,50.29122],[2.92667,50.2913]]]}},{"type":"Feature","properties":{"k":"PPH","s":2.157},"geometry":{"type":"Polygon","coordinates":[[[2.92474,50.29476],[2.92262,50.29394],[2.92182,50.2948],[2.92383,50.29571],[2.92474,50.29476]]]}},{"type":"Feature","properties":{"k":"PTR","s":0.108},"geometry":{"type":"Polygon","coordinates":[[[2.88961,50.28751],[2.89029,50.2874],[2.89036,50.2879],[2.89061,50.28786],[2.89036,50.28733],[2.88961,50.28751]]]}},{"type":"Feature","properties":{"k":"PPH","s":0.845},"geometry":{"type":"Polygon","coordinates":[[[2.916,50.2756],[2.9155,50.27528],[2.91466,50.27581],[2.91471,50.27609],[2.91354,50.27682],[2.91387,50.27698],[2.916,50.2756]]]}},{"type":"Feature","properties":{"k":"BTH","s":1.808},"geometry":{"type":"Polygon","coordinates":[[[2.9082,50.27721],[2.90734,50.27692],[2.90419,50.27826],[2.90455,50.2788],[2.9082,50.27721]]]}},{"type":"Feature","properties":{"k":"BTH","s":3.695},"geometry":{"type":"Polygon","coordinates":[[[2.90494,50.27944],[2.90588,50.28019],[2.90997,50.27837],[2.90941,50.27799],[2.90942,50.27772],[2.90806,50.27807],[2.90494,50.27944]]]}},{"type":"Feature","properties":{"k":"PTC","s":3.158},"geometry":{"type":"Polygon","coordinates":[[[2.90842,50.27689],[2.9082,50.27721],[2.90452,50.27881],[2.90491,50.27941],[2.90797,50.27808],[2.90942,50.27772],[2.90989,50.27719],[2.90842,50.27689]]]}},{"type":"Feature","properties":{"k":"MIS","s":3.048},"geometry":{"type":"Polygon","coordinates":[[[2.90945,50.27793],[2.91136,50.27921],[2.91203,50.27747],[2.91059,50.27653],[2.90945,50.27793]]]}},{"type":"Feature","properties":{"k":"BTN","s":3.285},"geometry":{"type":"Polygon","coordinates":[[[2.90842,50.27689],[2.90989,50.2772],[2.91083,50.27619],[2.90725,50.27536],[2.90655,50.27621],[2.90842,50.27689]]]}},{"type":"Feature","properties":{"k":"MIS","s":1.054},"geometry":{"type":"Polygon","coordinates":[[[2.91994,50.27681],[2.91721,50.27517],[2.91684,50.27543],[2.91954,50.2771],[2.91994,50.27681]]]}},{"type":"Feature","properties":{"k":"BTH","s":1.071},"geometry":{"type":"Polygon","coordinates":[[[2.92205,50.28474],[2.92401,50.28477],[2.92345,50.28386],[2.92297,50.2837],[2.92205,50.28474]]]}},{"type":"Feature","properties":{"k":"BTH","s":2.363},"geometry":{"type":"Polygon","coordinates":[[[2.92116,50.27682],[2.92023,50.27664],[2.91904,50.27757],[2.92362,50.27829],[2.92116,50.27682]]]}},{"type":"Feature","properties":{"k":"PPH","s":0.996},"geometry":{"type":"Polygon","coordinates":[[[2.9093,50.27461],[2.90918,50.27477],[2.90814,50.27436],[2.90894,50.27336],[2.90836,50.27323],[2.90787,50.27378],[2.90811,50.27393],[2.90789,50.27461],[2.90934,50.27535],[2.90973,50.27469],[2.9093,50.27461]]]}},{"type":"Feature","properties":{"k":"PPH","s":0.582},"geometry":{"type":"Polygon","coordinates":[[[2.90892,50.2755],[2.90912,50.27514],[2.90788,50.27462],[2.90746,50.27513],[2.90892,50.2755]]]}},{"type":"Feature","properties":{"k":"MIS","s":0.579},"geometry":{"type":"Polygon","coordinates":[[[2.89184,50.28724],[2.89239,50.28706],[2.88966,50.28696],[2.88963,50.28738],[2.89184,50.28724]]]}},{"type":"Feature","properties":{"k":"BOR","s":0.12},"geometry":{"type":"Polygon","coordinates":[[[2.92503,50.29113],[2.92488,50.29095],[2.92271,50.29093],[2.92488,50.29099],[2.92495,50.29116],[2.92584,50.29117],[2.92503,50.29113]]]}},{"type":"Feature","properties":{"k":"PTC","s":3.698},"geometry":{"type":"Polygon","coordinates":[[[2.91233,50.28171],[2.91888,50.28327],[2.91888,50.28255],[2.91264,50.28106],[2.91233,50.28171]]]}},{"type":"Feature","properties":{"k":"BTN","s":3.143},"geometry":{"type":"Polygon","coordinates":[[[2.91566,50.28112],[2.91292,50.28044],[2.91265,50.28105],[2.91888,50.28255],[2.91887,50.28192],[2.91566,50.28112]]]}},{"type":"Feature","properties":{"k":"PTC","s":2.078},"geometry":{"type":"Polygon","coordinates":[[[2.91543,50.28689],[2.91128,50.28588],[2.91151,50.28658],[2.91531,50.28753],[2.91543,50.28689]]]}},{"type":"Feature","properties":{"k":"ORH","s":1.453},"geometry":{"type":"Polygon","coordinates":[[[2.91399,50.28448],[2.91137,50.28384],[2.91124,50.28454],[2.91363,50.28512],[2.91399,50.28448]]]}},{"type":"Feature","properties":{"k":"BTH","s":4.48},"geometry":{"type":"Polygon","coordinates":[[[2.91215,50.28213],[2.91179,50.2829],[2.91825,50.28447],[2.91878,50.2838],[2.91215,50.28213]]]}},{"type":"Feature","properties":{"k":"MIS","s":2.091},"geometry":{"type":"Polygon","coordinates":[[[2.92262,50.28387],[2.92032,50.28351],[2.92014,50.284],[2.91887,50.28381],[2.91865,50.28423],[2.92181,50.28473],[2.92262,50.28387]]]}},{"type":"Feature","properties":{"k":"PPH","s":0.4},"geometry":{"type":"Polygon","coordinates":[[[2.91816,50.28515],[2.91799,50.28544],[2.91977,50.28573],[2.92002,50.28551],[2.91816,50.28515]]]}},{"type":"Feature","properties":{"k":"MIS","s":7.541},"geometry":{"type":"Polygon","coordinates":[[[2.91832,50.27853],[2.91894,50.27816],[2.91895,50.27757],[2.91954,50.2771],[2.91682,50.27543],[2.9163,50.27578],[2.91602,50.2756],[2.9139,50.27698],[2.91656,50.2781],[2.91832,50.27853]]]}},{"type":"Feature","properties":{"k":"BTH","s":3.522},"geometry":{"type":"Polygon","coordinates":[[[2.9054,50.27995],[2.90089,50.28329],[2.90151,50.2838],[2.90608,50.28044],[2.9054,50.27995]]]}},{"type":"Feature","properties":{"k":"BTH","s":7.267},"geometry":{"type":"Polygon","coordinates":[[[2.90088,50.28327],[2.9054,50.27995],[2.90466,50.27926],[2.90324,50.28036],[2.9023,50.27984],[2.89929,50.28207],[2.90088,50.28327]]]}},{"type":"Feature","properties":{"k":"MIS","s":0.769},"geometry":{"type":"Polygon","coordinates":[[[2.89279,50.2875],[2.89297,50.2871],[2.89189,50.28732],[2.89039,50.28739],[2.89061,50.28786],[2.89279,50.2875]]]}},{"type":"Feature","properties":{"k":"JAC","s":0.233},"geometry":{"type":"Polygon","coordinates":[[[2.93576,50.29922],[2.93589,50.30097],[2.93603,50.29914],[2.93576,50.29922]]]}},{"type":"Feature","properties":{"k":"JAC","s":0.194},"geometry":{"type":"Polygon","coordinates":[[[2.93603,50.29914],[2.93602,50.30098],[2.93618,50.29913],[2.93603,50.29914]]]}},{"type":"Feature","properties":{"k":"BTH","s":0.967},"geometry":{"type":"Polygon","coordinates":[[[2.93538,50.30092],[2.93583,50.30096],[2.93576,50.29922],[2.93483,50.29949],[2.93538,50.30092]]]}},{"type":"Feature","properties":{"k":"LIF","s":9.278},"geometry":{"type":"Polygon","coordinates":[[[2.93422,50.2861],[2.93295,50.28678],[2.93812,50.2904],[2.9398,50.28923],[2.93562,50.28618],[2.93422,50.2861]]]}},{"type":"Feature","properties":{"k":"PPH","s":0.598},"geometry":{"type":"Polygon","coordinates":[[[2.93599,50.29037],[2.93629,50.29074],[2.93759,50.29007],[2.93703,50.28965],[2.93599,50.29037]]]}},{"type":"Feature","properties":{"k":"MIS","s":1.409},"geometry":{"type":"Polygon","coordinates":[[[2.94417,50.29697],[2.94375,50.29667],[2.94188,50.29981],[2.94256,50.2997],[2.94417,50.29697]]]}},{"type":"Feature","properties":{"k":"MIS","s":0.056},"geometry":{"type":"Polygon","coordinates":[[[2.93914,50.29223],[2.93889,50.29115],[2.93901,50.29223],[2.93914,50.29223]]]}},{"type":"Feature","properties":{"k":"BTH","s":0.597},"geometry":{"type":"Polygon","coordinates":[[[2.93901,50.29223],[2.93879,50.29069],[2.93835,50.29098],[2.93846,50.29221],[2.93901,50.29223]]]}},{"type":"Feature","properties":{"k":"BTH","s":0.172},"geometry":{"type":"Polygon","coordinates":[[[2.93828,50.29226],[2.93846,50.29226],[2.93835,50.29097],[2.93828,50.29226]]]}},{"type":"Feature","properties":{"k":"MIS","s":2.079},"geometry":{"type":"Polygon","coordinates":[[[2.93753,50.29232],[2.93813,50.29229],[2.93799,50.29037],[2.93759,50.29007],[2.93629,50.29074],[2.93753,50.29232]]]}},{"type":"Feature","properties":{"k":"MIS","s":1.518},"geometry":{"type":"Polygon","coordinates":[[[2.93753,50.29232],[2.93599,50.29037],[2.93513,50.29073],[2.93662,50.29239],[2.93753,50.29232]]]}},{"type":"Feature","properties":{"k":"MIS","s":6.42},"geometry":{"type":"Polygon","coordinates":[[[2.93674,50.29247],[2.93477,50.2924],[2.93477,50.29293],[2.93577,50.29357],[2.93845,50.29469],[2.93982,50.294],[2.93975,50.29228],[2.93674,50.29247]]]}},{"type":"Feature","properties":{"k":"BTH","s":4.202},"geometry":{"type":"Polygon","coordinates":[[[2.93933,50.29504],[2.93663,50.29628],[2.94018,50.29725],[2.94117,50.29556],[2.93933,50.29504]]]}},{"type":"Feature","properties":{"k":"PTC","s":2.09},"geometry":{"type":"Polygon","coordinates":[[[2.94318,50.29633],[2.94101,50.29997],[2.94188,50.29981],[2.94375,50.29667],[2.94318,50.29633]]]}},{"type":"Feature","properties":{"k":"PTC","s":4.649},"geometry":{"type":"Polygon","coordinates":[[[2.94097,50.30076],[2.94101,50.29997],[2.94318,50.29633],[2.9422,50.29586],[2.93987,50.2998],[2.93981,50.30082],[2.94097,50.30076]]]}},{"type":"Feature","properties":{"k":"CZH","s":7.38},"geometry":{"type":"Polygon","coordinates":[[[2.93636,50.2991],[2.93877,50.29957],[2.94018,50.29725],[2.93663,50.29628],[2.93597,50.29654],[2.93636,50.2991]]]}},{"type":"Feature","properties":{"k":"ORH","s":0.772},"geometry":{"type":"Polygon","coordinates":[[[2.90871,50.28484],[2.90825,50.28461],[2.90645,50.28599],[2.9071,50.28606],[2.90871,50.28484]]]}},{"type":"Feature","properties":{"k":"MIS","s":0.706},"geometry":{"type":"Polygon","coordinates":[[[2.9079,50.2844],[2.9059,50.28592],[2.90643,50.28598],[2.90825,50.28461],[2.9079,50.2844]]]}},{"type":"Feature","properties":{"k":"PPH","s":1.795},"geometry":{"type":"Polygon","coordinates":[[[2.90337,50.28568],[2.90328,50.28574],[2.90367,50.28629],[2.906,50.28655],[2.90596,50.28722],[2.90652,50.28729],[2.90666,50.28605],[2.90337,50.28568]]]}},{"type":"Feature","properties":{"k":"PPH","s":4.417},"geometry":{"type":"Polygon","coordinates":[[[2.90526,50.28768],[2.90637,50.28787],[2.90627,50.28886],[2.90547,50.28878],[2.90564,50.28909],[2.90689,50.28933],[2.90684,50.28885],[2.9073,50.28894],[2.90736,50.28942],[2.90777,50.2895],[2.90772,50.28903],[2.90815,50.28911],[2.90792,50.28745],[2.90596,50.28722],[2.906,50.28655],[2.90369,50.28629],[2.9043,50.28718],[2.90535,50.28742],[2.90526,50.28768]]]}},{"type":"Feature","properties":{"k":"BTN","s":5.355},"geometry":{"type":"Polygon","coordinates":[[[2.90666,50.28618],[2.90658,50.28729],[2.90792,50.28745],[2.9081,50.28881],[2.90993,50.28911],[2.90924,50.28758],[2.90925,50.28714],[2.91168,50.28735],[2.91148,50.28682],[2.91007,50.28671],[2.91006,50.2864],[2.90774,50.28619],[2.90773,50.28631],[2.90666,50.28618]]]}},{"type":"Feature","properties":{"k":"BTH","s":0.768},"geometry":{"type":"Polygon","coordinates":[[[2.90924,50.28752],[2.91198,50.28774],[2.91167,50.28735],[2.90924,50.28713],[2.90924,50.28752]]]}},{"type":"Feature","properties":{"k":"BTH","s":0.765},"geometry":{"type":"Polygon","coordinates":[[[2.90937,50.28785],[2.91229,50.28814],[2.91198,50.28776],[2.90924,50.28759],[2.90937,50.28785]]]}},{"type":"Feature","properties":{"k":"PTR","s":0.304},"geometry":{"type":"Polygon","coordinates":[[[2.90815,50.28911],[2.90942,50.28938],[2.9094,50.28908],[2.9081,50.28881],[2.90815,50.28911]]]}},{"type":"Feature","properties":{"k":"BTN","s":1.093},"geometry":{"type":"Polygon","coordinates":[[[2.91115,50.28967],[2.91052,50.28824],[2.90947,50.28815],[2.91015,50.28951],[2.91115,50.28967]]]}},{"type":"Feature","properties":{"k":"BOR","s":0.024},"geometry":{"type":"Polygon","coordinates":[[[2.91015,50.28951],[2.90993,50.28911],[2.91012,50.28953],[2.91051,50.28959],[2.91015,50.28951]]]}},{"type":"Feature","properties":{"k":"JAC","s":0.037},"geometry":{"type":"Polygon","coordinates":[[[2.91038,50.29013],[2.91046,50.29015],[2.9102,50.28955],[2.91038,50.29013]]]}},{"type":"Feature","properties":{"k":"BOR","s":0.128},"geometry":{"type":"Polygon","coordinates":[[[2.9077,50.2909],[2.90715,50.28948],[2.90764,50.29095],[2.9089,50.29096],[2.90903,50.2909],[2.9077,50.2909]]]}},{"type":"Feature","properties":{"k":"MIS","s":1.54},"geometry":{"type":"Polygon","coordinates":[[[2.90907,50.28991],[2.90716,50.28949],[2.9077,50.2909],[2.90903,50.2909],[2.90907,50.28991]]]}},{"type":"Feature","properties":{"k":"LUZ","s":0.37},"geometry":{"type":"Polygon","coordinates":[[[2.90555,50.29109],[2.90569,50.29111],[2.90555,50.29085],[2.9058,50.29091],[2.90515,50.28939],[2.90564,50.2894],[2.90551,50.28917],[2.90497,50.28901],[2.90555,50.29109]]]}},{"type":"Feature","properties":{"k":"BTN","s":2.369},"geometry":{"type":"Polygon","coordinates":[[[2.90335,50.29052],[2.90555,50.29109],[2.90497,50.28901],[2.90551,50.28917],[2.90503,50.28902],[2.90435,50.28884],[2.90413,50.28942],[2.90364,50.28934],[2.90335,50.29052]]]}},{"type":"Feature","properties":{"k":"MIS","s":1.766},"geometry":{"type":"Polygon","coordinates":[[[2.90334,50.29051],[2.90382,50.2887],[2.90266,50.2884],[2.90217,50.29008],[2.90334,50.29051]]]}},{"type":"Feature","properties":{"k":"BTN","s":1.066},"geometry":{"type":"Polygon","coordinates":[[[2.90143,50.28965],[2.90215,50.29006],[2.90265,50.28839],[2.90183,50.28818],[2.90143,50.28965]]]}},{"type":"Feature","properties":{"k":"PPH","s":0.014},"geometry":{"type":"Polygon","coordinates":[[[2.89281,50.28751],[2.89334,50.28743],[2.89286,50.28744],[2.89281,50.28751]]]}},{"type":"Feature","properties":{"k":"MIS","s":0.426},"geometry":{"type":"Polygon","coordinates":[[[2.90943,50.27562],[2.90746,50.27513],[2.90726,50.27536],[2.90927,50.27584],[2.90943,50.27562]]]}},{"type":"Feature","properties":{"k":"PPH","s":0.322},"geometry":{"type":"Polygon","coordinates":[[[2.91083,50.27619],[2.91104,50.27599],[2.90943,50.27562],[2.90927,50.27584],[2.91083,50.27619]]]}},{"type":"Feature","properties":{"k":"PPH","s":1.252},"geometry":{"type":"Polygon","coordinates":[[[2.91109,50.27589],[2.91175,50.27569],[2.91191,50.27549],[2.90973,50.27469],[2.90931,50.2754],[2.91109,50.27589]]]}},{"type":"Feature","properties":{"k":"PTC","s":5.008},"geometry":{"type":"Polygon","coordinates":[[[2.90151,50.2838],[2.90229,50.28458],[2.90704,50.28109],[2.90608,50.28044],[2.90151,50.2838]]]}},{"type":"Feature","properties":{"k":"BTH","s":3.794},"geometry":{"type":"Polygon","coordinates":[[[2.92374,50.27868],[2.919,50.27795],[2.91914,50.27877],[2.92532,50.27971],[2.92477,50.27885],[2.92374,50.27868]]]}},{"type":"Feature","properties":{"k":"PPH","s":2.624},"geometry":{"type":"Polygon","coordinates":[[[2.91976,50.29282],[2.9231,50.29407],[2.92397,50.29308],[2.92172,50.29256],[2.92127,50.29309],[2.92093,50.293],[2.92136,50.29245],[2.92022,50.29226],[2.91976,50.29282]]]}},{"type":"Feature","properties":{"k":"PPH","s":2.605},"geometry":{"type":"Polygon","coordinates":[[[2.91939,50.29324],[2.91903,50.29336],[2.91945,50.29402],[2.92024,50.29408],[2.9218,50.29483],[2.92262,50.29393],[2.91968,50.29286],[2.91939,50.29324]]]}},{"type":"Feature","properties":{"k":"BOR","s":0.023},"geometry":{"type":"Polygon","coordinates":[[[2.92076,50.29004],[2.9207,50.29002],[2.92121,50.2903],[2.92076,50.29004]]]}},{"type":"Feature","properties":{"k":"LIF","s":2.588},"geometry":{"type":"Polygon","coordinates":[[[2.92111,50.28919],[2.92199,50.28738],[2.92093,50.2873],[2.91968,50.28999],[2.92008,50.29008],[2.91978,50.29064],[2.92011,50.29081],[2.92023,50.29055],[2.92043,50.29059],[2.92111,50.28919]]]}},{"type":"Feature","properties":{"k":"MIS","s":1.161},"geometry":{"type":"Polygon","coordinates":[[[2.92231,50.2874],[2.92112,50.29058],[2.92167,50.29066],[2.92262,50.28742],[2.92231,50.2874]]]}},{"type":"Feature","properties":{"k":"PPH","s":2.03},"geometry":{"type":"Polygon","coordinates":[[[2.92311,50.28746],[2.92265,50.28744],[2.9217,50.29073],[2.9227,50.29098],[2.92311,50.28746]]]}},{"type":"Feature","properties":{"k":"PPH","s":0.745},"geometry":{"type":"Polygon","coordinates":[[[2.89302,50.2871],[2.89286,50.28742],[2.894,50.28732],[2.89598,50.28771],[2.89608,50.28729],[2.89302,50.2871]]]}},{"type":"Feature","properties":{"k":"BTH","s":1.044},"geometry":{"type":"Polygon","coordinates":[[[2.92231,50.2874],[2.92199,50.28738],[2.9207,50.29002],[2.92123,50.29025],[2.92231,50.2874]]]}},{"type":"Feature","properties":{"k":"MIS","s":1.96},"geometry":{"type":"Polygon","coordinates":[[[2.92048,50.28826],[2.92093,50.2873],[2.92013,50.28724],[2.91886,50.28945],[2.91916,50.28986],[2.91968,50.28999],[2.92048,50.28826]]]}},{"type":"Feature","properties":{"k":"BTH","s":3.116},"geometry":{"type":"Polygon","coordinates":[[[2.91878,50.28714],[2.92026,50.28597],[2.91792,50.28558],[2.91749,50.28665],[2.91719,50.28856],[2.91878,50.28714]]]}},{"type":"Feature","properties":{"k":"PPH","s":0.125},"geometry":{"type":"Polygon","coordinates":[[[2.91715,50.29009],[2.91691,50.29029],[2.91713,50.29036],[2.91775,50.28976],[2.91754,50.28971],[2.91715,50.29009]]]}},{"type":"Feature","properties":{"k":"BOR","s":0.112},"geometry":{"type":"Polygon","coordinates":[[[2.91201,50.28956],[2.91206,50.29],[2.91114,50.28965],[2.91123,50.28985],[2.91212,50.29008],[2.9121,50.28958],[2.91231,50.28946],[2.91201,50.28956]]]}},{"type":"Feature","properties":{"k":"MIS","s":1.103},"geometry":{"type":"Polygon","coordinates":[[[2.91114,50.28965],[2.91206,50.29],[2.91202,50.28954],[2.91293,50.28945],[2.91283,50.28919],[2.91137,50.28909],[2.91104,50.2883],[2.91053,50.28825],[2.91114,50.28965]]]}},{"type":"Feature","properties":{"k":"BTH","s":1.083},"geometry":{"type":"Polygon","coordinates":[[[2.9128,50.28846],[2.91282,50.28833],[2.91409,50.28885],[2.91415,50.28858],[2.91502,50.28883],[2.91514,50.28845],[2.91208,50.2877],[2.9128,50.28846]]]}},{"type":"Feature","properties":{"k":"BTH","s":2.489},"geometry":{"type":"Polygon","coordinates":[[[2.89967,50.28763],[2.89939,50.28795],[2.89945,50.28877],[2.90142,50.28966],[2.90183,50.28817],[2.89967,50.28763]]]}},{"type":"Feature","properties":{"k":"MIS","s":1.425},"geometry":{"type":"Polygon","coordinates":[[[2.91095,50.29339],[2.90827,50.29323],[2.90651,50.29259],[2.90639,50.29294],[2.90698,50.29307],[2.90688,50.29344],[2.91079,50.29377],[2.91095,50.29339]]]}},{"type":"Feature","properties":{"k":"BTA","s":0.166},"geometry":{"type":"Polygon","coordinates":[[[2.90653,50.29254],[2.9083,50.29324],[2.91097,50.29334],[2.90831,50.2932],[2.90653,50.29254]]]}},{"type":"Feature","properties":{"k":"PPH","s":0.645},"geometry":{"type":"Polygon","coordinates":[[[2.90939,50.29526],[2.90991,50.29532],[2.91051,50.29383],[2.90998,50.2938],[2.90939,50.29526]]]}},{"type":"Feature","properties":{"k":"MIS","s":1.142},"geometry":{"type":"Polygon","coordinates":[[[2.90939,50.29526],[2.90998,50.2938],[2.90897,50.29369],[2.90851,50.29508],[2.90939,50.29526]]]}},{"type":"Feature","properties":{"k":"MIS","s":1.709},"geometry":{"type":"Polygon","coordinates":[[[2.90851,50.29508],[2.90897,50.29369],[2.90753,50.29358],[2.90691,50.29489],[2.90851,50.29508]]]}},{"type":"Feature","properties":{"k":"PPH","s":1.452},"geometry":{"type":"Polygon","coordinates":[[[2.90753,50.29356],[2.90626,50.29345],[2.90568,50.29459],[2.9069,50.29491],[2.90753,50.29356]]]}},{"type":"Feature","properties":{"k":"BTH","s":1.898},"geometry":{"type":"Polygon","coordinates":[[[2.89734,50.28803],[2.89926,50.28873],[2.89915,50.28762],[2.89608,50.28729],[2.89598,50.28771],[2.89734,50.28803]]]}},{"type":"Feature","properties":{"k":"PPH","s":1.595},"geometry":{"type":"Polygon","coordinates":[[[2.8964,50.28531],[2.89791,50.28738],[2.89878,50.28747],[2.89858,50.28724],[2.89878,50.28721],[2.89769,50.28582],[2.89737,50.2858],[2.89722,50.28561],[2.89751,50.28551],[2.89726,50.28522],[2.8964,50.28531]]]}},{"type":"Feature","properties":{"k":"LUZ","s":1.305},"geometry":{"type":"Polygon","coordinates":[[[2.89896,50.28737],[2.89953,50.28722],[2.89767,50.28509],[2.89696,50.28449],[2.89676,50.28456],[2.89896,50.28737]]]}},{"type":"Feature","properties":{"k":"MIS","s":2.634},"geometry":{"type":"Polygon","coordinates":[[[2.89573,50.28711],[2.89778,50.28725],[2.8958,50.28449],[2.89537,50.28451],[2.89573,50.28711]]]}},{"type":"Feature","properties":{"k":"MIS","s":0.817},"geometry":{"type":"Polygon","coordinates":[[[2.89572,50.28441],[2.89539,50.28397],[2.89504,50.28409],[2.89539,50.28709],[2.89573,50.28711],[2.89537,50.28451],[2.89572,50.28441]]]}},{"type":"Feature","properties":{"k":"BTN","s":5.881},"geometry":{"type":"Polygon","coordinates":[[[2.89459,50.28305],[2.89408,50.28245],[2.89102,50.2836],[2.89193,50.28472],[2.89913,50.28207],[2.8985,50.28158],[2.89459,50.28305]]]}},{"type":"Feature","properties":{"k":"PPH","s":0.994},"geometry":{"type":"Polygon","coordinates":[[[2.89615,50.28369],[2.89539,50.28397],[2.8964,50.28531],[2.89716,50.28513],[2.89615,50.28369]]]}},{"type":"Feature","properties":{"k":"BTN","s":11.62},"geometry":{"type":"Polygon","coordinates":[[[2.8922,50.2851],[2.89255,50.28698],[2.89539,50.28709],[2.89504,50.28409],[2.89616,50.28368],[2.89675,50.28455],[2.90054,50.28316],[2.89914,50.28208],[2.89192,50.28475],[2.8922,50.2851]]]}},{"type":"Feature","properties":{"k":"BTN","s":4.953},"geometry":{"type":"Polygon","coordinates":[[[2.90195,50.28439],[2.90057,50.28317],[2.89697,50.28449],[2.89833,50.28571],[2.90195,50.28439]]]}},{"type":"Feature","properties":{"k":"BTN","s":0.833},"geometry":{"type":"Polygon","coordinates":[[[2.89884,50.28553],[2.89833,50.28571],[2.89965,50.28738],[2.90009,50.28706],[2.89884,50.28553]]]}},{"type":"Feature","properties":{"k":"BTH","s":3.515},"geometry":{"type":"Polygon","coordinates":[[[2.90124,50.28622],[2.90216,50.28521],[2.90224,50.28476],[2.90196,50.28439],[2.89884,50.28553],[2.90013,50.28703],[2.90124,50.28622]]]}},{"type":"Feature","properties":{"k":"BTN","s":3.697},"geometry":{"type":"Polygon","coordinates":[[[2.9032,50.28562],[2.90616,50.28343],[2.90487,50.2827],[2.9023,50.28459],[2.9032,50.28562]]]}},{"type":"Feature","properties":{"k":"MIS","s":4.511},"geometry":{"type":"Polygon","coordinates":[[[2.90589,50.28592],[2.90789,50.2844],[2.90616,50.28343],[2.9032,50.28562],[2.90589,50.28592]]]}},{"type":"Feature","properties":{"k":"BTH","s":2.775},"geometry":{"type":"Polygon","coordinates":[[[2.9083,50.28209],[2.90633,50.28353],[2.90789,50.2844],[2.90939,50.28329],[2.9083,50.28209]]]}},{"type":"Feature","properties":{"k":"ORH","s":1.028},"geometry":{"type":"Polygon","coordinates":[[[2.91088,50.28321],[2.91013,50.28238],[2.90911,50.28285],[2.90997,50.28381],[2.91088,50.28321]]]}},{"type":"Feature","properties":{"k":"PTR","s":0.377},"geometry":{"type":"Polygon","coordinates":[[[2.90997,50.28381],[2.91014,50.284],[2.91071,50.28366],[2.91124,50.28395],[2.91135,50.28372],[2.91095,50.28328],[2.90997,50.28381]]]}},{"type":"Feature","properties":{"k":"BTH","s":1.119},"geometry":{"type":"Polygon","coordinates":[[[2.9087,50.28484],[2.90993,50.28389],[2.90939,50.28329],[2.90789,50.2844],[2.9087,50.28484]]]}},{"type":"Feature","properties":{"k":"ORH","s":0.937},"geometry":{"type":"Polygon","coordinates":[[[2.91049,50.28455],[2.91023,50.28426],[2.90772,50.28614],[2.90832,50.2862],[2.91049,50.28455]]]}},{"type":"Feature","properties":{"k":"PHF","s":1.93},"geometry":{"type":"Polygon","coordinates":[[[2.91106,50.2856],[2.9105,50.28455],[2.90833,50.2862],[2.91013,50.28636],[2.91106,50.2856]]]}},{"type":"Feature","properties":{"k":"PTR","s":0.292},"geometry":{"type":"Polygon","coordinates":[[[2.91134,50.28643],[2.91111,50.28572],[2.91033,50.28636],[2.91134,50.28643]]]}},{"type":"Feature","properties":{"k":"BTH","s":0.347},"geometry":{"type":"Polygon","coordinates":[[[2.91008,50.2867],[2.91148,50.28682],[2.91134,50.28648],[2.91003,50.2864],[2.91008,50.2867]]]}},{"type":"Feature","properties":{"k":"MIS","s":0.799},"geometry":{"type":"Polygon","coordinates":[[[2.91245,50.27676],[2.91371,50.27744],[2.91405,50.2771],[2.91221,50.27605],[2.91182,50.27641],[2.91245,50.27676]]]}},{"type":"Feature","properties":{"k":"PPH","s":1.104},"geometry":{"type":"Polygon","coordinates":[[[2.91137,50.27921],[2.91146,50.27928],[2.91208,50.27881],[2.91271,50.27915],[2.91367,50.2783],[2.913,50.27802],[2.91302,50.27839],[2.91231,50.27861],[2.91204,50.27824],[2.91252,50.27775],[2.91206,50.27746],[2.91137,50.27921]]]}},{"type":"Feature","properties":{"k":"PTR","s":1.976},"geometry":{"type":"Polygon","coordinates":[[[2.92538,50.29308],[2.92528,50.29338],[2.92623,50.29384],[2.92685,50.29383],[2.92703,50.29357],[2.92748,50.29367],[2.92776,50.29327],[2.92481,50.29232],[2.92432,50.29281],[2.92538,50.29308]]]}},{"type":"Feature","properties":{"k":"PPH","s":2.366},"geometry":{"type":"Polygon","coordinates":[[[2.92603,50.29518],[2.92641,50.29474],[2.92643,50.29403],[2.92524,50.29343],[2.92458,50.29329],[2.92373,50.29429],[2.92603,50.29518]]]}},{"type":"Feature","properties":{"k":"BTH","s":2.094},"geometry":{"type":"Polygon","coordinates":[[[2.92322,50.28155],[2.91908,50.2809],[2.91898,50.28151],[2.92341,50.28218],[2.92322,50.28155]]]}},{"type":"Feature","properties":{"k":"PTR","s":4.572},"geometry":{"type":"Polygon","coordinates":[[[2.92734,50.29573],[2.92611,50.29703],[2.92792,50.29752],[2.92898,50.29803],[2.93141,50.2973],[2.92734,50.29573]]]}},{"type":"Feature","properties":{"k":"BTH","s":15.922},"geometry":{"type":"Polygon","coordinates":[[[2.91898,50.2833],[2.92263,50.28385],[2.92368,50.28323],[2.92367,50.28304],[2.92439,50.28294],[2.92485,50.28266],[2.92576,50.28151],[2.92532,50.27972],[2.91914,50.27877],[2.91921,50.28003],[2.92292,50.28057],[2.92342,50.28218],[2.91899,50.28152],[2.91898,50.2833]],[[2.92428,50.28167],[2.92428,50.28191],[2.92388,50.28071],[2.92428,50.28167]]]}},{"type":"Feature","properties":{"k":"MIS","s":3.172},"geometry":{"type":"Polygon","coordinates":[[[2.90706,50.28108],[2.90487,50.2827],[2.90633,50.28353],[2.9083,50.28209],[2.90706,50.28108]]]}},{"type":"Feature","properties":{"k":"MLG","s":0.539},"geometry":{"type":"Polygon","coordinates":[[[2.91897,50.2833],[2.91885,50.2838],[2.92014,50.284],[2.92032,50.28351],[2.91897,50.2833]]]}},{"type":"Feature","properties":{"k":"BTH","s":2.399},"geometry":{"type":"Polygon","coordinates":[[[2.92079,50.2856],[2.92183,50.28473],[2.91863,50.28424],[2.91815,50.28518],[2.92079,50.2856]]]}},{"type":"Feature","properties":{"k":"PPH","s":1.687},"geometry":{"type":"Polygon","coordinates":[[[2.91345,50.2782],[2.91433,50.27724],[2.91405,50.2771],[2.91371,50.27745],[2.91182,50.27641],[2.91126,50.27692],[2.91345,50.2782]]]}},{"type":"Feature","properties":{"k":"PPH","s":0.299},"geometry":{"type":"Polygon","coordinates":[[[2.91085,50.27669],[2.91177,50.27578],[2.91138,50.27579],[2.91061,50.27653],[2.91085,50.27669]]]}},{"type":"Feature","properties":{"k":"PPH","s":1.661},"geometry":{"type":"Polygon","coordinates":[[[2.91873,50.27868],[2.91687,50.27828],[2.91623,50.27894],[2.91908,50.27962],[2.91904,50.27895],[2.91873,50.27868]]]}},{"type":"Feature","properties":{"k":"BTH","s":2.512},"geometry":{"type":"Polygon","coordinates":[[[2.9189,50.28327],[2.91233,50.28171],[2.91214,50.28213],[2.91879,50.28375],[2.9189,50.28327]]]}},{"type":"Feature","properties":{"k":"PPH","s":2.539},"geometry":{"type":"Polygon","coordinates":[[[2.91319,50.27658],[2.9148,50.27559],[2.91304,50.27441],[2.91185,50.27576],[2.91319,50.27658]]]}},{"type":"Feature","properties":{"k":"BTH","s":2.843},"geometry":{"type":"Polygon","coordinates":[[[2.92292,50.28057],[2.91921,50.28003],[2.91908,50.2809],[2.92322,50.28155],[2.92292,50.28057]]]}},{"type":"Feature","properties":{"k":"MIS","s":1.078},"geometry":{"type":"Polygon","coordinates":[[[2.92732,50.29574],[2.92653,50.29545],[2.92531,50.29662],[2.92613,50.297],[2.92732,50.29574]]]}},{"type":"Feature","properties":{"k":"PTC","s":3.021},"geometry":{"type":"Polygon","coordinates":[[[2.91474,50.28007],[2.91402,50.28072],[2.91887,50.28191],[2.91898,50.28108],[2.91474,50.28007]]]}},{"type":"Feature","properties":{"k":"BTH","s":1.726},"geometry":{"type":"Polygon","coordinates":[[[2.91521,50.27964],[2.91473,50.28007],[2.91897,50.28108],[2.91906,50.28056],[2.91521,50.27964]]]}},{"type":"Feature","properties":{"k":"BTH","s":3.306},"geometry":{"type":"Polygon","coordinates":[[[2.90331,50.28587],[2.90176,50.28755],[2.90404,50.28824],[2.90376,50.28859],[2.90548,50.28903],[2.90472,50.28816],[2.90331,50.28587]]]}},{"type":"Feature","properties":{"k":"PPH","s":1.556},"geometry":{"type":"Polygon","coordinates":[[[2.9152,50.27872],[2.9159,50.27792],[2.91435,50.27725],[2.91347,50.27821],[2.9152,50.27872]]]}},{"type":"Feature","properties":{"k":"PPH","s":5.505},"geometry":{"type":"Polygon","coordinates":[[[2.91387,50.2793],[2.91906,50.28056],[2.91909,50.27962],[2.9137,50.27829],[2.91271,50.27915],[2.91208,50.27881],[2.91146,50.27928],[2.91274,50.28012],[2.91387,50.2793]]]}},{"type":"Feature","properties":{"k":"MIS","s":0.975},"geometry":{"type":"Polygon","coordinates":[[[2.90989,50.27265],[2.91098,50.27314],[2.91163,50.27235],[2.91045,50.27183],[2.90989,50.27265]]]}},{"type":"Feature","properties":{"k":"BTH","s":3.463},"geometry":{"type":"Polygon","coordinates":[[[2.92526,50.28752],[2.92781,50.29187],[2.92973,50.29211],[2.92546,50.2875],[2.92526,50.28752]]]}},{"type":"Feature","properties":{"k":"BTN","s":3.536},"geometry":{"type":"Polygon","coordinates":[[[2.93144,50.29215],[2.92567,50.28749],[2.92546,50.2875],[2.92975,50.29211],[2.93144,50.29215]]]}},{"type":"Feature","properties":{"k":"BTH","s":1.526},"geometry":{"type":"Polygon","coordinates":[[[2.91519,50.27965],[2.91378,50.2793],[2.91279,50.28014],[2.91292,50.28044],[2.91402,50.28072],[2.91519,50.27965]]]}},{"type":"Feature","properties":{"k":"MIS","s":0.3},"geometry":{"type":"Polygon","coordinates":[[[2.91116,50.28351],[2.91133,50.2837],[2.91144,50.28348],[2.91037,50.28227],[2.91016,50.28237],[2.91116,50.28351]]]}},{"type":"Feature","properties":{"k":"BTH","s":5.1},"geometry":{"type":"Polygon","coordinates":[[[2.93134,50.29432],[2.93179,50.29334],[2.93231,50.29342],[2.93212,50.29213],[2.93145,50.29223],[2.93154,50.29333],[2.93127,50.29331],[2.93119,50.29226],[2.93054,50.29231],[2.93056,50.29337],[2.93013,50.29327],[2.9301,50.29227],[2.92795,50.29197],[2.92725,50.29301],[2.93134,50.29432]]]}},{"type":"Feature","properties":{"k":"LUZ","s":1.214},"geometry":{"type":"Polygon","coordinates":[[[2.92659,50.29221],[2.92563,50.29208],[2.9254,50.29243],[2.92721,50.293],[2.92789,50.29197],[2.92673,50.29185],[2.92659,50.29221]]]}},{"type":"Feature","properties":{"k":"ORH","s":1.205},"geometry":{"type":"Polygon","coordinates":[[[2.90514,50.27519],[2.90439,50.27475],[2.90434,50.27516],[2.90412,50.27531],[2.90617,50.27656],[2.90659,50.27609],[2.90514,50.27519]]]}},{"type":"Feature","properties":{"k":"PPH","s":0.662},"geometry":{"type":"Polygon","coordinates":[[[2.92175,50.28532],[2.92171,50.2855],[2.92114,50.28543],[2.92092,50.28559],[2.92286,50.28587],[2.92295,50.28518],[2.92196,50.28518],[2.92175,50.28532]]]}},{"type":"Feature","properties":{"k":"BTH","s":3.347},"geometry":{"type":"Polygon","coordinates":[[[2.93611,50.29762],[2.93597,50.29654],[2.93432,50.29727],[2.93454,50.29808],[2.93446,50.29952],[2.93636,50.2991],[2.93611,50.29762]]]}},{"type":"Feature","properties":{"k":"MIS","s":1.468},"geometry":{"type":"Polygon","coordinates":[[[2.93171,50.29865],[2.93285,50.29914],[2.93366,50.29844],[2.93367,50.29818],[2.93295,50.29788],[2.9306,50.29856],[2.93171,50.29865]]]}},{"type":"Feature","properties":{"k":"MIS","s":0.706},"geometry":{"type":"Polygon","coordinates":[[[2.90983,50.27961],[2.91049,50.28005],[2.91171,50.2795],[2.91106,50.27907],[2.90983,50.27961]]]}},{"type":"Feature","properties":{"k":"MIS","s":8.396},"geometry":{"type":"Polygon","coordinates":[[[2.93364,50.29674],[2.93556,50.29616],[2.93831,50.29475],[2.93562,50.29362],[2.93367,50.29223],[2.93318,50.29206],[2.93386,50.29359],[2.93361,50.29448],[2.93364,50.29674]]]}},{"type":"Feature","properties":{"k":"MIS","s":0.354},"geometry":{"type":"Polygon","coordinates":[[[2.93054,50.29231],[2.9301,50.29227],[2.93013,50.29327],[2.93056,50.29337],[2.93054,50.29231]]]}},{"type":"Feature","properties":{"k":"ORH","s":0.227},"geometry":{"type":"Polygon","coordinates":[[[2.93127,50.29331],[2.93154,50.29333],[2.93145,50.29223],[2.93119,50.29226],[2.93127,50.29331]]]}},{"type":"Feature","properties":{"k":"BTH","s":1.98},"geometry":{"type":"Polygon","coordinates":[[[2.93231,50.29342],[2.9319,50.29337],[2.93144,50.29435],[2.93232,50.29461],[2.93276,50.29348],[2.93361,50.29348],[2.93296,50.29203],[2.93212,50.29213],[2.93231,50.29342]]]}},{"type":"Feature","properties":{"k":"MIS","s":2.71},"geometry":{"type":"Polygon","coordinates":[[[2.93418,50.28765],[2.93353,50.28723],[2.93065,50.28858],[2.9313,50.28961],[2.93328,50.28869],[2.93293,50.28839],[2.93324,50.28805],[2.93418,50.28765]]]}},{"type":"Feature","properties":{"k":"BTH","s":4.137},"geometry":{"type":"Polygon","coordinates":[[[2.93342,50.29199],[2.93567,50.29242],[2.93263,50.28905],[2.93136,50.28964],[2.93342,50.29199]]]}},{"type":"Feature","properties":{"k":"MIS","s":2.829},"geometry":{"type":"Polygon","coordinates":[[[2.93562,50.29238],[2.93662,50.29239],[2.93335,50.28871],[2.93263,50.28905],[2.93562,50.29238]]]}},{"type":"Feature","properties":{"k":"BTH","s":10.897},"geometry":{"type":"Polygon","coordinates":[[[2.93294,50.29194],[2.93286,50.29158],[2.93137,50.2899],[2.92978,50.28764],[2.92854,50.2872],[2.92567,50.28749],[2.93144,50.29215],[2.93294,50.29194]]]}},{"type":"Feature","properties":{"k":"BTN","s":2.496},"geometry":{"type":"Polygon","coordinates":[[[2.90324,50.28036],[2.90466,50.27926],[2.90391,50.27803],[2.90186,50.27961],[2.90324,50.28036]]]}},{"type":"Feature","properties":{"k":"LUZ","s":1.005},"geometry":{"type":"Polygon","coordinates":[[[2.93276,50.29348],[2.93233,50.2946],[2.93333,50.2949],[2.93356,50.29347],[2.93276,50.29348]]]}},{"type":"Feature","properties":{"k":"PPH","s":1.182},"geometry":{"type":"Polygon","coordinates":[[[2.92851,50.29407],[2.9306,50.29492],[2.931,50.29424],[2.92879,50.29355],[2.92851,50.29407]]]}},{"type":"Feature","properties":{"k":"BTN","s":3.654},"geometry":{"type":"Polygon","coordinates":[[[2.90247,50.27659],[2.89991,50.27856],[2.90138,50.27935],[2.9036,50.27762],[2.90247,50.27659]]]}},{"type":"Feature","properties":{"k":"PPH","s":3.825},"geometry":{"type":"Polygon","coordinates":[[[2.91404,50.29359],[2.91401,50.29376],[2.91471,50.29426],[2.91512,50.29448],[2.91771,50.29429],[2.91818,50.29354],[2.91793,50.29365],[2.91666,50.29291],[2.91543,50.29268],[2.91404,50.29359]]]}},{"type":"Feature","properties":{"k":"LUZ","s":1.08},"geometry":{"type":"Polygon","coordinates":[[[2.90138,50.27935],[2.90186,50.27961],[2.9039,50.27804],[2.90359,50.27763],[2.90138,50.27935]]]}},{"type":"Feature","properties":{"k":"BTH","s":9.045},"geometry":{"type":"Polygon","coordinates":[[[2.9077,50.28127],[2.90838,50.28196],[2.91187,50.28044],[2.9126,50.28096],[2.91286,50.28033],[2.9117,50.27951],[2.91049,50.28005],[2.90983,50.27961],[2.91105,50.27908],[2.90997,50.27837],[2.90589,50.28019],[2.9077,50.28127]]]}},{"type":"Feature","properties":{"k":"MIS","s":0.861},"geometry":{"type":"Polygon","coordinates":[[[2.89992,50.2785],[2.89891,50.27779],[2.89814,50.27835],[2.89921,50.27903],[2.89992,50.2785]]]}},{"type":"Feature","properties":{"k":"BTH","s":0.004},"geometry":{"type":"Polygon","coordinates":[[[2.89905,50.27788],[2.89892,50.27776],[2.89891,50.27779],[2.89905,50.27788]]]}},{"type":"Feature","properties":{"k":"BOR","s":0.133},"geometry":{"type":"Polygon","coordinates":[[[2.91137,50.28909],[2.91283,50.28919],[2.91142,50.28904],[2.91105,50.28836],[2.91137,50.28909]]]}},{"type":"Feature","properties":{"k":"MIS","s":5.185},"geometry":{"type":"Polygon","coordinates":[[[2.92878,50.28017],[2.92643,50.27826],[2.92477,50.27872],[2.92536,50.27951],[2.92588,50.28143],[2.92878,50.28017]]]}},{"type":"Feature","properties":{"k":"PPH","s":0.007},"geometry":{"type":"MultiPolygon","coordinates":[[[[2.92677,50.27799],[2.92619,50.27822],[2.92633,50.27817],[2.92677,50.27799]]]]}},{"type":"Feature","properties":{"k":"MIS","s":2.217},"geometry":{"type":"Polygon","coordinates":[[[2.90243,50.27657],[2.90165,50.27606],[2.89919,50.27795],[2.89905,50.27788],[2.89994,50.2785],[2.90243,50.27657]]]}},{"type":"Feature","properties":{"k":"PTR","s":1.235},"geometry":{"type":"Polygon","coordinates":[[[2.90284,50.27592],[2.90395,50.27534],[2.90213,50.27627],[2.90376,50.27765],[2.90447,50.27737],[2.90284,50.27592]]]}},{"type":"Feature","properties":{"k":"MIS","s":2.57},"geometry":{"type":"Polygon","coordinates":[[[2.90615,50.27656],[2.9041,50.27532],[2.90284,50.27592],[2.90454,50.27733],[2.90615,50.27656]]]}},{"type":"Feature","properties":{"k":"BTH","s":2.872},"geometry":{"type":"Polygon","coordinates":[[[2.90576,50.27382],[2.90503,50.27512],[2.90658,50.27608],[2.90797,50.27442],[2.90576,50.27382]]]}},{"type":"Feature","properties":{"k":"MIS","s":0.611},"geometry":{"type":"Polygon","coordinates":[[[2.9053,50.27351],[2.90462,50.27486],[2.90502,50.27512],[2.90576,50.27382],[2.9053,50.27351]]]}},{"type":"Feature","properties":{"k":"BTH","s":1.074},"geometry":{"type":"Polygon","coordinates":[[[2.90544,50.27307],[2.90475,50.273],[2.90436,50.2736],[2.90404,50.27426],[2.90462,50.27486],[2.90544,50.27307]]]}},{"type":"Feature","properties":{"k":"PPH","s":0.931},"geometry":{"type":"Polygon","coordinates":[[[2.9125,50.29378],[2.91221,50.29499],[2.91355,50.29437],[2.91384,50.29366],[2.9125,50.29378]]]}},{"type":"Feature","properties":{"k":"PPH","s":0.084},"geometry":{"type":"Polygon","coordinates":[[[2.90949,50.27268],[2.91006,50.27185],[2.90906,50.27308],[2.90922,50.27309],[2.90949,50.27268]]]}},{"type":"Feature","properties":{"k":"PPH","s":0.389},"geometry":{"type":"Polygon","coordinates":[[[2.91017,50.27173],[2.90918,50.27314],[2.90947,50.27327],[2.91042,50.27183],[2.91017,50.27173]]]}},{"type":"Feature","properties":{"k":"BTH","s":4.732},"geometry":{"type":"Polygon","coordinates":[[[2.90913,50.28284],[2.91037,50.28227],[2.91144,50.28348],[2.9126,50.28096],[2.91187,50.28044],[2.9084,50.282],[2.90913,50.28284]]]}},{"type":"Feature","properties":{"k":"BOR","s":0.028},"geometry":{"type":"Polygon","coordinates":[[[2.91638,50.28882],[2.91643,50.28859],[2.91706,50.28861],[2.91639,50.28855],[2.91638,50.28882]]]}},{"type":"Feature","properties":{"k":"PTC","s":2.674},"geometry":{"type":"Polygon","coordinates":[[[2.91531,50.28753],[2.91153,50.28659],[2.91208,50.2877],[2.91514,50.28845],[2.91531,50.28753]]]}},{"type":"Feature","properties":{"k":"MIS","s":2.906},"geometry":{"type":"Polygon","coordinates":[[[2.93446,50.28995],[2.93613,50.28899],[2.93419,50.28764],[2.93299,50.28825],[2.93446,50.28995]]]}},{"type":"Feature","properties":{"k":"PTC","s":2.628},"geometry":{"type":"Polygon","coordinates":[[[2.91543,50.28689],[2.91556,50.28616],[2.91102,50.28506],[2.91128,50.28588],[2.91543,50.28689]]]}},{"type":"Feature","properties":{"k":"BTH","s":13.915},"geometry":{"type":"Polygon","coordinates":[[[2.91757,50.28608],[2.91841,50.28451],[2.91179,50.28292],[2.91137,50.28384],[2.91399,50.28448],[2.91363,50.28512],[2.91124,50.28454],[2.911,50.28505],[2.91556,50.28616],[2.91514,50.28846],[2.91637,50.28881],[2.91639,50.28855],[2.91706,50.28857],[2.91757,50.28608]]]}},{"type":"Feature","properties":{"k":"PPH","s":0.422},"geometry":{"type":"Polygon","coordinates":[[[2.94109,50.30343],[2.94169,50.30256],[2.94113,50.3025],[2.94055,50.30367],[2.94094,50.30372],[2.94109,50.30343]]]}},{"type":"Feature","properties":{"k":"MIS","s":1.196},"geometry":{"type":"Polygon","coordinates":[[[2.94274,50.30162],[2.94273,50.30121],[2.93972,50.30139],[2.93957,50.30199],[2.94274,50.30162]]]}},{"type":"Feature","properties":{"k":"MIS","s":2.517},"geometry":{"type":"Polygon","coordinates":[[[2.94101,50.29997],[2.94097,50.3008],[2.93975,50.30089],[2.93972,50.30139],[2.94274,50.30119],[2.94279,50.29966],[2.94101,50.29997]]]}},{"type":"Feature","properties":{"k":"PPH","s":2.476},"geometry":{"type":"Polygon","coordinates":[[[2.93502,50.30131],[2.93601,50.30165],[2.93949,50.30204],[2.93964,50.30128],[2.93532,50.30093],[2.93496,50.30108],[2.93502,50.30131]]]}},{"type":"Feature","properties":{"k":"LUZ","s":0.974},"geometry":{"type":"Polygon","coordinates":[[[2.93799,50.30039],[2.93792,50.30115],[2.93966,50.30127],[2.93971,50.30065],[2.93799,50.30039]]]}},{"type":"Feature","properties":{"k":"CZH","s":1.15},"geometry":{"type":"Polygon","coordinates":[[[2.93971,50.30063],[2.93975,50.29986],[2.93808,50.2995],[2.938,50.30039],[2.93971,50.30063]]]}},{"type":"Feature","properties":{"k":"MIS","s":1.463},"geometry":{"type":"Polygon","coordinates":[[[2.93806,50.2995],[2.937,50.29929],[2.93686,50.30105],[2.93792,50.30115],[2.93806,50.2995]]]}},{"type":"Feature","properties":{"k":"BTH","s":1.215},"geometry":{"type":"Polygon","coordinates":[[[2.93618,50.29913],[2.93602,50.30098],[2.93686,50.30105],[2.937,50.29929],[2.93618,50.29913]]]}}]}