{"type":"FeatureCollection","features":[{"type":"Feature","properties":{"k":"BTN","s":2.232},"geometry":{"type":"Polygon","coordinates":[[[2.47664,50.33102],[2.47635,50.33082],[2.47324,50.33183],[2.47404,50.33098],[2.4757,50.33041],[2.47478,50.32977],[2.47215,50.33243],[2.47664,50.33102]]]}},{"type":"Feature","properties":{"k":"CHV","s":0.443},"geometry":{"type":"Polygon","coordinates":[[[2.47512,50.33127],[2.47484,50.33101],[2.47364,50.33141],[2.47324,50.33183],[2.47512,50.33127]]]}},{"type":"Feature","properties":{"k":"LUZ","s":0.201},"geometry":{"type":"Polygon","coordinates":[[[2.47442,50.3319],[2.4767,50.33106],[2.4721,50.33249],[2.47442,50.3319]]]}},{"type":"Feature","properties":{"k":"CHV","s":1.488},"geometry":{"type":"Polygon","coordinates":[[[2.47202,50.33256],[2.47231,50.33276],[2.47384,50.3325],[2.47714,50.33137],[2.47675,50.3311],[2.47446,50.33194],[2.47202,50.33256]]]}},{"type":"Feature","properties":{"k":"CHV","s":0.209},"geometry":{"type":"Polygon","coordinates":[[[2.47446,50.33194],[2.47675,50.3311],[2.47203,50.33256],[2.47446,50.33194]]]}},{"type":"Feature","properties":{"k":"PTC","s":6.091},"geometry":{"type":"Polygon","coordinates":[[[2.4667,50.32997],[2.4662,50.33103],[2.4713,50.33229],[2.47243,50.33105],[2.46811,50.32999],[2.46797,50.33029],[2.4667,50.32997]]]}},{"type":"Feature","properties":{"k":"CHV","s":0.224},"geometry":{"type":"Polygon","coordinates":[[[2.47085,50.33294],[2.47089,50.33297],[2.47192,50.33282],[2.47132,50.33239],[2.47085,50.33294]]]}},{"type":"Feature","properties":{"k":"MIS","s":0.179},"geometry":{"type":"Polygon","coordinates":[[[2.47132,50.33239],[2.47193,50.33282],[2.47231,50.33275],[2.47149,50.3322],[2.47132,50.33239]]]}},{"type":"Feature","properties":{"k":"AVP","s":0.985},"geometry":{"type":"Polygon","coordinates":[[[2.46874,50.33348],[2.46808,50.33377],[2.46808,50.33392],[2.47186,50.33321],[2.47184,50.33297],[2.47166,50.33293],[2.46874,50.33348]]]}},{"type":"Feature","properties":{"k":"BTH","s":8.248},"geometry":{"type":"Polygon","coordinates":[[[2.47203,50.33654],[2.47186,50.33321],[2.46808,50.33392],[2.46819,50.33599],[2.47203,50.33654]]]}},{"type":"Feature","properties":{"k":"BTH","s":4.995},"geometry":{"type":"Polygon","coordinates":[[[2.47198,50.33467],[2.47209,50.33614],[2.47595,50.33672],[2.47667,50.33536],[2.47198,50.33467]]]}},{"type":"Feature","properties":{"k":"ORP","s":4.95},"geometry":{"type":"Polygon","coordinates":[[[2.47185,50.3329],[2.47198,50.33467],[2.47374,50.33493],[2.47365,50.33405],[2.47481,50.33397],[2.47537,50.3341],[2.47522,50.33217],[2.47351,50.33266],[2.47185,50.3329]]]}},{"type":"Feature","properties":{"k":"LIF","s":6.636},"geometry":{"type":"Polygon","coordinates":[[[2.47737,50.33134],[2.47522,50.33217],[2.47534,50.33371],[2.47793,50.33408],[2.47943,50.33211],[2.4794,50.33191],[2.47853,50.33101],[2.47751,50.33147],[2.47737,50.33134]]]}},{"type":"Feature","properties":{"k":"MIS","s":1.196},"geometry":{"type":"Polygon","coordinates":[[[2.47538,50.33438],[2.47718,50.33468],[2.47793,50.33408],[2.47534,50.33371],[2.47538,50.33438]]]}},{"type":"Feature","properties":{"k":"BTH","s":2.287},"geometry":{"type":"Polygon","coordinates":[[[2.47716,50.3347],[2.47538,50.33438],[2.47537,50.3341],[2.4751,50.33402],[2.47365,50.33405],[2.47374,50.33493],[2.47666,50.33535],[2.47716,50.3347]]]}},{"type":"Feature","properties":{"k":"MIS","s":0.009},"geometry":{"type":"Polygon","coordinates":[[[2.47728,50.33476],[2.47742,50.33465],[2.47734,50.33464],[2.47728,50.33476]]]}},{"type":"Feature","properties":{"k":"BTH","s":2.458},"geometry":{"type":"Polygon","coordinates":[[[2.47728,50.33476],[2.48213,50.33499],[2.4815,50.33411],[2.478,50.33421],[2.47728,50.33476]]]}},{"type":"Feature","properties":{"k":"BTH","s":2.289},"geometry":{"type":"Polygon","coordinates":[[[2.47678,50.33528],[2.48224,50.33554],[2.48213,50.33499],[2.47718,50.33476],[2.47678,50.33528]]]}},{"type":"Feature","properties":{"k":"MIS","s":3.823},"geometry":{"type":"Polygon","coordinates":[[[2.47946,50.33217],[2.47787,50.33423],[2.4815,50.33411],[2.48022,50.33173],[2.4797,50.33224],[2.47946,50.33217]]]}},{"type":"Feature","properties":{"k":"PTC","s":2.07},"geometry":{"type":"Polygon","coordinates":[[[2.48043,50.33181],[2.48114,50.33289],[2.48199,50.33268],[2.48183,50.33243],[2.48282,50.33137],[2.48175,50.33086],[2.48043,50.33181]]]}},{"type":"Feature","properties":{"k":"PPH","s":1.707},"geometry":{"type":"Polygon","coordinates":[[[2.48169,50.33078],[2.48028,50.32989],[2.47937,50.33053],[2.48036,50.3318],[2.48169,50.33078]]]}},{"type":"Feature","properties":{"k":"LIF","s":0.145},"geometry":{"type":"Polygon","coordinates":[[[2.47751,50.33147],[2.47853,50.33101],[2.47842,50.33089],[2.47748,50.33129],[2.47751,50.33147]]]}},{"type":"Feature","properties":{"k":"MIS","s":0.772},"geometry":{"type":"Polygon","coordinates":[[[2.47738,50.32895],[2.47566,50.33038],[2.47589,50.33053],[2.47749,50.32922],[2.47896,50.33056],[2.47878,50.33012],[2.47738,50.32895]]]}},{"type":"Feature","properties":{"k":"LBF","s":2.646},"geometry":{"type":"Polygon","coordinates":[[[2.47749,50.32922],[2.47589,50.33053],[2.47714,50.33137],[2.47896,50.33056],[2.47749,50.32922]]]}},{"type":"Feature","properties":{"k":"JAC","s":0.547},"geometry":{"type":"Polygon","coordinates":[[[2.47723,50.32905],[2.47701,50.32886],[2.47533,50.33016],[2.47565,50.33038],[2.47723,50.32905]]]}},{"type":"Feature","properties":{"k":"PPH","s":0.724},"geometry":{"type":"Polygon","coordinates":[[[2.47624,50.32944],[2.47695,50.32888],[2.47669,50.32869],[2.47657,50.32879],[2.47517,50.32835],[2.47497,50.32853],[2.47624,50.32944]]]}},{"type":"Feature","properties":{"k":"BTN","s":3.774},"geometry":{"type":"Polygon","coordinates":[[[2.5021,50.33866],[2.49854,50.3384],[2.4989,50.33895],[2.50129,50.33921],[2.50403,50.34061],[2.50455,50.34015],[2.50513,50.3403],[2.50229,50.33832],[2.5021,50.33866]]]}},{"type":"Feature","properties":{"k":"MIS","s":3.29},"geometry":{"type":"Polygon","coordinates":[[[2.50229,50.3383],[2.50513,50.34032],[2.50571,50.34044],[2.50607,50.33934],[2.5048,50.33817],[2.50229,50.3383]]]}},{"type":"Feature","properties":{"k":"PTC","s":3.252},"geometry":{"type":"Polygon","coordinates":[[[2.50561,50.33688],[2.50477,50.33811],[2.50597,50.33922],[2.50868,50.33552],[2.50821,50.33539],[2.50681,50.33725],[2.50561,50.33688]]]}},{"type":"Feature","properties":{"k":"BTH","s":6.128},"geometry":{"type":"Polygon","coordinates":[[[2.4934,50.33551],[2.49352,50.33449],[2.489,50.33522],[2.48701,50.33456],[2.48777,50.33659],[2.49304,50.33575],[2.4934,50.33551]]]}},{"type":"Feature","properties":{"k":"JAC","s":0.197},"geometry":{"type":"Polygon","coordinates":[[[2.49011,50.33711],[2.49335,50.33659],[2.48804,50.33739],[2.49011,50.33711]]]}},{"type":"Feature","properties":{"k":"BTH","s":3.572},"geometry":{"type":"Polygon","coordinates":[[[2.48777,50.33659],[2.48804,50.33738],[2.49329,50.33653],[2.49323,50.33572],[2.48777,50.33659]]]}},{"type":"Feature","properties":{"k":"BTN","s":4.668},"geometry":{"type":"Polygon","coordinates":[[[2.49384,50.33727],[2.4912,50.33765],[2.49236,50.33965],[2.49519,50.33917],[2.49384,50.33727]]]}},{"type":"Feature","properties":{"k":"LIF","s":1.235},"geometry":{"type":"Polygon","coordinates":[[[2.47428,50.33649],[2.47209,50.33615],[2.47207,50.33658],[2.47572,50.33712],[2.47591,50.33673],[2.47428,50.33649]]]}},{"type":"Feature","properties":{"k":"BTH","s":1.454},"geometry":{"type":"Polygon","coordinates":[[[2.47206,50.33659],[2.47189,50.33707],[2.47547,50.33759],[2.47573,50.33712],[2.47206,50.33659]]]}},{"type":"Feature","properties":{"k":"MIS","s":3.782},"geometry":{"type":"Polygon","coordinates":[[[2.49268,50.3404],[2.49121,50.33766],[2.49021,50.33814],[2.4895,50.33977],[2.49268,50.3404]]]}},{"type":"Feature","properties":{"k":"BTH","s":7.517},"geometry":{"type":"Polygon","coordinates":[[[2.46709,50.33754],[2.4749,50.33869],[2.47547,50.3376],[2.46711,50.33638],[2.46709,50.33754]]]}},{"type":"Feature","properties":{"k":"BTH","s":2.015},"geometry":{"type":"Polygon","coordinates":[[[2.47188,50.33706],[2.47205,50.33659],[2.46698,50.33584],[2.46701,50.33635],[2.47188,50.33706]]]}},{"type":"Feature","properties":{"k":"CHV","s":0.575},"geometry":{"type":"Polygon","coordinates":[[[2.47107,50.33863],[2.47115,50.3384],[2.46843,50.33796],[2.46834,50.33822],[2.47107,50.33863]]]}},{"type":"Feature","properties":{"k":"BTN","s":1.46},"geometry":{"type":"Polygon","coordinates":[[[2.48802,50.3393],[2.48822,50.33947],[2.4895,50.33977],[2.49021,50.33814],[2.48963,50.33842],[2.4884,50.33868],[2.48802,50.3393]]]}},{"type":"Feature","properties":{"k":"CHV","s":0.882},"geometry":{"type":"Polygon","coordinates":[[[2.49039,50.34045],[2.49072,50.34052],[2.49051,50.34008],[2.48794,50.33947],[2.48775,50.33983],[2.49039,50.34045]]]}},{"type":"Feature","properties":{"k":"LIF","s":8.112},"geometry":{"type":"Polygon","coordinates":[[[2.49168,50.34033],[2.49137,50.34048],[2.49064,50.34031],[2.49073,50.34053],[2.48775,50.33983],[2.48716,50.34136],[2.49331,50.34276],[2.49268,50.34048],[2.49168,50.34033]]]}},{"type":"Feature","properties":{"k":"PPH","s":4.54},"geometry":{"type":"Polygon","coordinates":[[[2.49269,50.34048],[2.49331,50.34276],[2.49478,50.3429],[2.49491,50.34233],[2.49569,50.34126],[2.49551,50.34033],[2.49577,50.34025],[2.49269,50.34048]]]}},{"type":"Feature","properties":{"k":"BTN","s":0.121},"geometry":{"type":"Polygon","coordinates":[[[2.49195,50.34254],[2.49353,50.34285],[2.49476,50.34296],[2.49195,50.34254]]]}},{"type":"Feature","properties":{"k":"ORH","s":5.581},"geometry":{"type":"Polygon","coordinates":[[[2.48748,50.34144],[2.48716,50.34136],[2.48724,50.34281],[2.48767,50.34407],[2.48808,50.34431],[2.48942,50.34322],[2.49034,50.34349],[2.4908,50.34328],[2.49075,50.34308],[2.49197,50.34252],[2.48748,50.34144]]]}},{"type":"Feature","properties":{"k":"LUZ","s":1.675},"geometry":{"type":"Polygon","coordinates":[[[2.47484,50.33882],[2.47491,50.33869],[2.46708,50.33755],[2.46711,50.33801],[2.46892,50.3384],[2.46834,50.33822],[2.46843,50.33796],[2.47115,50.3384],[2.47107,50.33863],[2.47179,50.33874],[2.47189,50.33838],[2.47484,50.33882]]]}},{"type":"Feature","properties":{"k":"PPH","s":1.137},"geometry":{"type":"Polygon","coordinates":[[[2.47205,50.34027],[2.47281,50.33885],[2.47183,50.33871],[2.47171,50.33913],[2.471,50.33997],[2.47205,50.34027]]]}},{"type":"Feature","properties":{"k":"PPH","s":1.015},"geometry":{"type":"Polygon","coordinates":[[[2.48711,50.33406],[2.48701,50.33453],[2.48874,50.33515],[2.48918,50.33444],[2.48711,50.33406]]]}},{"type":"Feature","properties":{"k":"PPH","s":0.4},"geometry":{"type":"Polygon","coordinates":[[[2.48979,50.33312],[2.48968,50.33268],[2.48841,50.33261],[2.48855,50.333],[2.48979,50.33312]]]}},{"type":"Feature","properties":{"k":"PPH","s":1.076},"geometry":{"type":"Polygon","coordinates":[[[2.48966,50.33359],[2.48979,50.33312],[2.48707,50.33289],[2.48717,50.33338],[2.48966,50.33359]]]}},{"type":"Feature","properties":{"k":"LIF","s":0.006},"geometry":{"type":"Polygon","coordinates":[[[2.48683,50.34117],[2.48672,50.34114],[2.48696,50.34129],[2.48683,50.34117]]]}},{"type":"Feature","properties":{"k":"MIS","s":0.104},"geometry":{"type":"Polygon","coordinates":[[[2.48182,50.34056],[2.48199,50.34054],[2.48191,50.33982],[2.48173,50.33982],[2.48182,50.34056]]]}},{"type":"Feature","properties":{"k":"MIS","s":0.068},"geometry":{"type":"Polygon","coordinates":[[[2.48188,50.34104],[2.48201,50.34104],[2.48199,50.34054],[2.48182,50.34056],[2.48188,50.34104]]]}},{"type":"Feature","properties":{"k":"LIF","s":0.234},"geometry":{"type":"Polygon","coordinates":[[[2.4831,50.34148],[2.48256,50.34158],[2.4822,50.34136],[2.48227,50.34188],[2.48312,50.34185],[2.4831,50.34148]]]}},{"type":"Feature","properties":{"k":"LIF","s":4.196},"geometry":{"type":"Polygon","coordinates":[[[2.4822,50.34136],[2.48244,50.34154],[2.48256,50.34157],[2.48218,50.34133],[2.48238,50.34286],[2.48275,50.34427],[2.48316,50.34456],[2.48335,50.34439],[2.48398,50.34463],[2.484,50.34493],[2.48423,50.3446],[2.48401,50.34112],[2.48246,50.34113],[2.48311,50.34147],[2.48312,50.34185],[2.48227,50.34188],[2.4822,50.34136]]]}},{"type":"Feature","properties":{"k":"LIF","s":0.251},"geometry":{"type":"Polygon","coordinates":[[[2.48368,50.34534],[2.48424,50.345],[2.48315,50.34462],[2.48368,50.34534]]]}},{"type":"Feature","properties":{"k":"ORH","s":0.535},"geometry":{"type":"Polygon","coordinates":[[[2.48496,50.34452],[2.48264,50.34628],[2.48286,50.34636],[2.48477,50.34484],[2.48552,50.34495],[2.48562,50.34475],[2.48496,50.34452]]]}},{"type":"Feature","properties":{"k":"MIS","s":0.018},"geometry":{"type":"Polygon","coordinates":[[[2.48578,50.34444],[2.4855,50.34469],[2.48563,50.34473],[2.48578,50.34444]]]}},{"type":"Feature","properties":{"k":"LUZ","s":0.141},"geometry":{"type":"Polygon","coordinates":[[[2.4794,50.34474],[2.47982,50.34493],[2.48014,50.34466],[2.47973,50.34446],[2.4794,50.34474]]]}},{"type":"Feature","properties":{"k":"TRE","s":0.109},"geometry":{"type":"Polygon","coordinates":[[[2.47973,50.34446],[2.4795,50.34433],[2.47849,50.34391],[2.47962,50.34455],[2.47973,50.34446]]]}},{"type":"Feature","properties":{"k":"ORP","s":0.278},"geometry":{"type":"Polygon","coordinates":[[[2.47842,50.34399],[2.47823,50.34419],[2.4794,50.34474],[2.47962,50.34455],[2.47842,50.34399]]]}},{"type":"Feature","properties":{"k":"LUZ","s":0.029},"geometry":{"type":"Polygon","coordinates":[[[2.48042,50.34404],[2.48077,50.34379],[2.4807,50.34375],[2.48042,50.34404]]]}},{"type":"Feature","properties":{"k":"LIF","s":2.325},"geometry":{"type":"Polygon","coordinates":[[[2.50238,50.33445],[2.5021,50.3366],[2.50366,50.33635],[2.50391,50.33483],[2.50238,50.33445]]]}},{"type":"Feature","properties":{"k":"LIF","s":1.591},"geometry":{"type":"Polygon","coordinates":[[[2.50227,50.33438],[2.50137,50.33408],[2.50112,50.33644],[2.50206,50.33628],[2.50227,50.33438]]]}},{"type":"Feature","properties":{"k":"BTN","s":9.917},"geometry":{"type":"Polygon","coordinates":[[[2.50707,50.33182],[2.50393,50.33245],[2.50348,50.33391],[2.50416,50.33406],[2.50375,50.33468],[2.50487,50.33494],[2.50716,50.33509],[2.50903,50.3347],[2.50707,50.33182]]]}},{"type":"Feature","properties":{"k":"BTH","s":8.699},"geometry":{"type":"Polygon","coordinates":[[[2.5029,50.33443],[2.50329,50.33388],[2.50348,50.33391],[2.50393,50.33245],[2.50707,50.33182],[2.5061,50.32998],[2.50285,50.33062],[2.50177,50.33408],[2.5029,50.33443]]]}},{"type":"Feature","properties":{"k":"BTH","s":6.46},"geometry":{"type":"Polygon","coordinates":[[[2.50226,50.33073],[2.50192,50.33079],[2.50267,50.32855],[2.50139,50.32826],[2.49973,50.3335],[2.50126,50.33395],[2.50226,50.33073]]]}},{"type":"Feature","properties":{"k":"LIF","s":5.152},"geometry":{"type":"Polygon","coordinates":[[[2.48367,50.34538],[2.4826,50.34424],[2.48229,50.3429],[2.47982,50.34493],[2.47804,50.3441],[2.4817,50.34588],[2.48254,50.3467],[2.48283,50.3465],[2.48266,50.34629],[2.48367,50.34538]]]}},{"type":"Feature","properties":{"k":"CHV","s":0.851},"geometry":{"type":"Polygon","coordinates":[[[2.48229,50.3429],[2.48223,50.3425],[2.48077,50.34379],[2.47974,50.34446],[2.48014,50.34466],[2.48229,50.3429]]]}},{"type":"Feature","properties":{"k":"BTH","s":7.515},"geometry":{"type":"Polygon","coordinates":[[[2.50487,50.32812],[2.50373,50.32733],[2.50275,50.32839],[2.50192,50.33079],[2.50226,50.33073],[2.50127,50.33394],[2.50176,50.3341],[2.50288,50.33058],[2.50608,50.32996],[2.50487,50.32812]]]}},{"type":"Feature","properties":{"k":"BTH","s":10.815},"geometry":{"type":"Polygon","coordinates":[[[2.49949,50.33342],[2.49977,50.33343],[2.50139,50.32826],[2.50101,50.32816],[2.50136,50.3268],[2.49962,50.32661],[2.49779,50.33238],[2.49949,50.33342]],[[2.49798,50.33245],[2.49803,50.33237],[2.49831,50.33254],[2.49798,50.33245]]]}},{"type":"Feature","properties":{"k":"BTH","s":4.275},"geometry":{"type":"Polygon","coordinates":[[[2.4987,50.32656],[2.49694,50.33199],[2.49779,50.33238],[2.49962,50.32661],[2.4987,50.32656]]]}},{"type":"Feature","properties":{"k":"PTC","s":3.295},"geometry":{"type":"Polygon","coordinates":[[[2.49696,50.3319],[2.49867,50.32665],[2.4978,50.32669],[2.49628,50.33164],[2.49696,50.3319]]]}},{"type":"Feature","properties":{"k":"BTH","s":6.827},"geometry":{"type":"Polygon","coordinates":[[[2.49311,50.3316],[2.4919,50.33157],[2.49252,50.33275],[2.49133,50.33294],[2.49052,50.33146],[2.48923,50.33141],[2.48971,50.33249],[2.4902,50.33239],[2.48971,50.3325],[2.48986,50.33313],[2.48972,50.33368],[2.48719,50.33347],[2.48711,50.33406],[2.48918,50.33444],[2.48944,50.33398],[2.49349,50.33346],[2.49345,50.33371],[2.49363,50.33369],[2.49368,50.33257],[2.49311,50.3316]]]}},{"type":"Feature","properties":{"k":"LUZ","s":0.01},"geometry":{"type":"Polygon","coordinates":[[[2.4803,50.3438],[2.48026,50.34387],[2.48037,50.3439],[2.4803,50.3438]]]}},{"type":"Feature","properties":{"k":"MIS","s":0.722},"geometry":{"type":"Polygon","coordinates":[[[2.47975,50.3437],[2.47924,50.34427],[2.4795,50.34433],[2.48034,50.34382],[2.48213,50.34184],[2.48208,50.34153],[2.48002,50.34381],[2.47975,50.3437]]]}},{"type":"Feature","properties":{"k":"CHV","s":0.615},"geometry":{"type":"Polygon","coordinates":[[[2.48049,50.34386],[2.48222,50.34244],[2.48213,50.34184],[2.48034,50.34382],[2.48049,50.34386]]]}},{"type":"Feature","properties":{"k":"MIS","s":2.222},"geometry":{"type":"Polygon","coordinates":[[[2.49729,50.32664],[2.49571,50.33156],[2.49623,50.33172],[2.49783,50.3266],[2.49729,50.32664]]]}},{"type":"Feature","properties":{"k":"LIF","s":0.71},"geometry":{"type":"Polygon","coordinates":[[[2.47975,50.3437],[2.48002,50.34381],[2.48208,50.34153],[2.48204,50.34126],[2.47975,50.3437]]]}},{"type":"Feature","properties":{"k":"ORP","s":2.542},"geometry":{"type":"Polygon","coordinates":[[[2.48106,50.34106],[2.47842,50.34399],[2.47924,50.34427],[2.48202,50.34118],[2.48106,50.34106]]]}},{"type":"Feature","properties":{"k":"BTH","s":8.001},"geometry":{"type":"Polygon","coordinates":[[[2.49511,50.32678],[2.49365,50.33142],[2.49573,50.33157],[2.49729,50.32664],[2.49511,50.32678]]]}},{"type":"Feature","properties":{"k":"BTP","s":0.054},"geometry":{"type":"Polygon","coordinates":[]}},{"type":"Feature","properties":{"k":"BTH","s":2.219},"geometry":{"type":"Polygon","coordinates":[[[2.49369,50.3315],[2.49378,50.33327],[2.49519,50.33334],[2.4954,50.33157],[2.49369,50.3315]]]}},{"type":"Feature","properties":{"k":"CHV","s":4.744},"geometry":{"type":"Polygon","coordinates":[[[2.47687,50.34359],[2.47824,50.34419],[2.48094,50.34119],[2.47862,50.34105],[2.47687,50.34359]]]}},{"type":"Feature","properties":{"k":"MIS","s":0.206},"geometry":{"type":"Polygon","coordinates":[[[2.49517,50.33351],[2.49519,50.33334],[2.49378,50.33327],[2.49373,50.33344],[2.49517,50.33351]]]}},{"type":"Feature","properties":{"k":"BTH","s":9.705},"geometry":{"type":"Polygon","coordinates":[[[2.4954,50.33158],[2.49486,50.33591],[2.49863,50.33531],[2.4989,50.33322],[2.49624,50.33185],[2.4954,50.33158]]]}},{"type":"Feature","properties":{"k":"PTC","s":6.095},"geometry":{"type":"Polygon","coordinates":[[[2.50137,50.33408],[2.49891,50.33322],[2.49846,50.33686],[2.50112,50.33644],[2.50137,50.33408]]]}},{"type":"Feature","properties":{"k":"LIF","s":0.138},"geometry":{"type":"MultiPolygon","coordinates":[[[[2.47524,50.34294],[2.47498,50.34312],[2.47523,50.34302],[2.47802,50.34412],[2.47524,50.34294]]],[[[2.4741,50.34343],[2.47414,50.34345],[2.47431,50.34339],[2.4741,50.34343]]]]}},{"type":"Feature","properties":{"k":"BTH","s":5.523},"geometry":{"type":"Polygon","coordinates":[[[2.4958,50.33607],[2.49613,50.33667],[2.49852,50.33627],[2.49863,50.33531],[2.49486,50.33591],[2.49516,50.33351],[2.49372,50.33344],[2.49334,50.33644],[2.4958,50.33607]]]}},{"type":"Feature","properties":{"k":"PHF","s":3.954},"geometry":{"type":"Polygon","coordinates":[[[2.49345,50.33371],[2.49349,50.33346],[2.48944,50.33398],[2.48875,50.33514],[2.489,50.33522],[2.49352,50.33449],[2.49363,50.33369],[2.49345,50.33371]]]}},{"type":"Feature","properties":{"k":"MIS","s":4.009},"geometry":{"type":"Polygon","coordinates":[[[2.47524,50.34294],[2.47683,50.34359],[2.47869,50.34095],[2.47694,50.34094],[2.47642,50.3417],[2.47667,50.34183],[2.4765,50.34217],[2.47609,50.34229],[2.47676,50.34088],[2.47624,50.34083],[2.47524,50.34294]]]}},{"type":"Feature","properties":{"k":"JAC","s":0.201},"geometry":{"type":"Polygon","coordinates":[[[2.48094,50.34119],[2.48103,50.34108],[2.47868,50.34096],[2.47879,50.34107],[2.48094,50.34119]]]}},{"type":"Feature","properties":{"k":"MIS","s":1.286},"geometry":{"type":"Polygon","coordinates":[[[2.47529,50.33814],[2.48195,50.3385],[2.48204,50.33826],[2.47541,50.3379],[2.47529,50.33814]]]}},{"type":"Feature","properties":{"k":"PTC","s":9.187},"geometry":{"type":"Polygon","coordinates":[[[2.47593,50.33692],[2.4761,50.33695],[2.47598,50.33717],[2.48231,50.3375],[2.48224,50.33554],[2.47678,50.33529],[2.47593,50.33692]]]}},{"type":"Feature","properties":{"k":"MLG","s":2.406},"geometry":{"type":"Polygon","coordinates":[[[2.47557,50.3376],[2.48215,50.33797],[2.48231,50.3375],[2.4758,50.33717],[2.47557,50.3376]]]}},{"type":"Feature","properties":{"k":"PPH","s":0.908},"geometry":{"type":"Polygon","coordinates":[[[2.48283,50.3325],[2.48143,50.33293],[2.48368,50.3333],[2.48401,50.33281],[2.48283,50.3325]]]}},{"type":"Feature","properties":{"k":"BTH","s":3.787},"geometry":{"type":"Polygon","coordinates":[[[2.48195,50.3385],[2.47529,50.33814],[2.47492,50.33882],[2.48183,50.3392],[2.48195,50.3385]]]}},{"type":"Feature","properties":{"k":"PPH","s":2.61},"geometry":{"type":"Polygon","coordinates":[[[2.48401,50.33281],[2.48371,50.3333],[2.48516,50.33382],[2.48529,50.33362],[2.48691,50.33413],[2.487,50.33332],[2.48553,50.33323],[2.48442,50.33188],[2.48326,50.33224],[2.48301,50.33252],[2.48401,50.33281]]]}},{"type":"Feature","properties":{"k":"PPH","s":2.507},"geometry":{"type":"Polygon","coordinates":[[[2.48688,50.33443],[2.48518,50.33385],[2.48479,50.33577],[2.48717,50.33568],[2.48688,50.33443]]]}},{"type":"Feature","properties":{"k":"PTC","s":9.366},"geometry":{"type":"Polygon","coordinates":[[[2.48383,50.3378],[2.48399,50.33729],[2.48446,50.33733],[2.48518,50.33386],[2.48367,50.33331],[2.48143,50.33293],[2.4812,50.33323],[2.48135,50.33361],[2.48232,50.33508],[2.48243,50.33751],[2.48383,50.3378]]]}},{"type":"Feature","properties":{"k":"BTH","s":10.647},"geometry":{"type":"Polygon","coordinates":[[[2.48184,50.33921],[2.47491,50.33883],[2.47412,50.34066],[2.48188,50.34104],[2.48173,50.33982],[2.48191,50.33982],[2.48184,50.33921]]]}},{"type":"Feature","properties":{"k":"BTH","s":2.373},"geometry":{"type":"Polygon","coordinates":[[[2.4819,50.3392],[2.48484,50.3392],[2.48457,50.33821],[2.48366,50.33818],[2.48226,50.33782],[2.4819,50.3392]]]}},{"type":"Feature","properties":{"k":"LIF","s":8.205},"geometry":{"type":"Polygon","coordinates":[[[2.48217,50.34105],[2.48681,50.34108],[2.48799,50.33902],[2.48507,50.33922],[2.48193,50.33919],[2.48217,50.34105]]]}},{"type":"Feature","properties":{"k":"MIS","s":0.118},"geometry":{"type":"Polygon","coordinates":[[[2.47479,50.3394],[2.47461,50.3394],[2.47418,50.34021],[2.47435,50.34024],[2.47479,50.3394]]]}},{"type":"Feature","properties":{"k":"BTH","s":8.487},"geometry":{"type":"Polygon","coordinates":[[[2.48717,50.33568],[2.48479,50.33577],[2.48446,50.33733],[2.48484,50.3392],[2.48802,50.33897],[2.48811,50.33812],[2.48717,50.33568]]]}},{"type":"Feature","properties":{"k":"PPH","s":3.987},"geometry":{"type":"Polygon","coordinates":[[[2.49336,50.3366],[2.48807,50.33744],[2.4883,50.3387],[2.48964,50.33842],[2.4912,50.33765],[2.4938,50.33726],[2.49336,50.3366]]]}},{"type":"Feature","properties":{"k":"LIF","s":2.839},"geometry":{"type":"Polygon","coordinates":[[[2.47207,50.34024],[2.47387,50.34065],[2.47484,50.33882],[2.47297,50.33854],[2.47207,50.34024]]]}},{"type":"Feature","properties":{"k":"PPH","s":0.691},"geometry":{"type":"Polygon","coordinates":[[[2.48462,50.33177],[2.48566,50.33292],[2.48623,50.33293],[2.48526,50.33156],[2.48462,50.33177]]]}},{"type":"Feature","properties":{"k":"LIF","s":2.825},"geometry":{"type":"Polygon","coordinates":[[[2.48402,50.3449],[2.48424,50.345],[2.48494,50.34449],[2.48477,50.34151],[2.48697,50.34154],[2.48672,50.34114],[2.48401,50.34112],[2.48423,50.3446],[2.48402,50.3449]]]}},{"type":"Feature","properties":{"k":"PTC","s":4.545},"geometry":{"type":"Polygon","coordinates":[[[2.48646,50.34356],[2.4874,50.34352],[2.48709,50.34278],[2.48699,50.34155],[2.48478,50.34152],[2.48497,50.34454],[2.48546,50.3447],[2.48646,50.34356]]]}},{"type":"Feature","properties":{"k":"MLG","s":1.58},"geometry":{"type":"Polygon","coordinates":[[[2.47557,50.3376],[2.47541,50.3379],[2.48204,50.33826],[2.48212,50.33805],[2.47557,50.3376]]]}},{"type":"Feature","properties":{"k":"PPH","s":8.621},"geometry":{"type":"Polygon","coordinates":[[[2.48492,50.3297],[2.48516,50.33018],[2.48554,50.33003],[2.48554,50.32975],[2.48579,50.32974],[2.48581,50.33014],[2.48527,50.33018],[2.48528,50.33028],[2.48605,50.33091],[2.48631,50.33055],[2.48708,50.33074],[2.48839,50.3307],[2.4886,50.32979],[2.49045,50.32999],[2.49106,50.32859],[2.49028,50.32809],[2.48841,50.32842],[2.48681,50.32824],[2.48671,50.3287],[2.48543,50.32856],[2.48549,50.32886],[2.48516,50.32889],[2.48503,50.32907],[2.48522,50.32957],[2.48492,50.3297]]]}},{"type":"Feature","properties":{"k":"PPH","s":2.42},"geometry":{"type":"Polygon","coordinates":[[[2.48386,50.33175],[2.48411,50.33197],[2.48506,50.33152],[2.48403,50.32977],[2.48399,50.32999],[2.48355,50.33],[2.48363,50.32972],[2.48288,50.32964],[2.48289,50.33066],[2.4832,50.33152],[2.48369,50.3318],[2.48386,50.33175]]]}},{"type":"Feature","properties":{"k":"PPH","s":0.239},"geometry":{"type":"Polygon","coordinates":[[[2.48448,50.32995],[2.48439,50.32997],[2.48419,50.33006],[2.48459,50.33088],[2.48494,50.33079],[2.48448,50.32995]]]}},{"type":"Feature","properties":{"k":"PPH","s":0.658},"geometry":{"type":"Polygon","coordinates":[[[2.48908,50.33141],[2.48823,50.33132],[2.48859,50.33229],[2.48955,50.33235],[2.48908,50.33141]]]}},{"type":"Feature","properties":{"k":"PPH","s":1.292},"geometry":{"type":"Polygon","coordinates":[[[2.50684,50.33515],[2.50498,50.33504],[2.50495,50.33609],[2.50658,50.33598],[2.50684,50.33515]]]}},{"type":"Feature","properties":{"k":"MIS","s":4.526},"geometry":{"type":"Polygon","coordinates":[[[2.50672,50.33563],[2.5066,50.33599],[2.50493,50.33611],[2.50495,50.33503],[2.50392,50.33481],[2.5035,50.337],[2.50535,50.33684],[2.50681,50.33725],[2.50821,50.33539],[2.5071,50.33517],[2.50689,50.33565],[2.50672,50.33563]]]}},{"type":"Feature","properties":{"k":"MIS","s":0.297},"geometry":{"type":"Polygon","coordinates":[[[2.4919,50.33157],[2.49159,50.33157],[2.49225,50.33279],[2.49252,50.33275],[2.4919,50.33157]]]}},{"type":"Feature","properties":{"k":"PHS","s":4.302},"geometry":{"type":"Polygon","coordinates":[[[2.49365,50.33142],[2.49427,50.32949],[2.49136,50.32967],[2.49074,50.3314],[2.4916,50.33149],[2.49365,50.33142]]]}},{"type":"Feature","properties":{"k":"PPH","s":0.907},"geometry":{"type":"Polygon","coordinates":[[[2.48216,50.33264],[2.48271,50.33251],[2.48364,50.33179],[2.48283,50.33136],[2.48191,50.33234],[2.48216,50.33264]]]}},{"type":"Feature","properties":{"k":"BTP","s":0.376},"geometry":{"type":"Polygon","coordinates":[[[2.49068,50.32971],[2.49427,50.32949],[2.49431,50.32935],[2.49074,50.32958],[2.49068,50.32971]]]}},{"type":"Feature","properties":{"k":"PPH","s":0.19},"geometry":{"type":"Polygon","coordinates":[[[2.48996,50.33131],[2.49001,50.33113],[2.48962,50.33111],[2.4897,50.33087],[2.48932,50.33087],[2.48919,50.3313],[2.48996,50.33131]]]}},{"type":"Feature","properties":{"k":"PPH","s":0.436},"geometry":{"type":"Polygon","coordinates":[[[2.49012,50.33087],[2.49032,50.33044],[2.4891,50.33036],[2.48892,50.33083],[2.49012,50.33087]]]}},{"type":"Feature","properties":{"k":"PPH","s":0.871},"geometry":{"type":"Polygon","coordinates":[[[2.49021,50.33091],[2.49043,50.33093],[2.49035,50.33119],[2.4901,50.33115],[2.49007,50.33126],[2.49074,50.3314],[2.49136,50.32967],[2.49068,50.32971],[2.49021,50.33091]]]}},{"type":"Feature","properties":{"k":"MIS","s":1.047},"geometry":{"type":"Polygon","coordinates":[[[2.51413,50.33464],[2.51311,50.33651],[2.51375,50.33662],[2.5148,50.33461],[2.51413,50.33464]]]}},{"type":"Feature","properties":{"k":"BTH","s":1.366},"geometry":{"type":"Polygon","coordinates":[[[2.51454,50.33678],[2.51541,50.3351],[2.51538,50.33458],[2.51481,50.33461],[2.51376,50.33661],[2.51454,50.33678]]]}},{"type":"Feature","properties":{"k":"LIF","s":0.515},"geometry":{"type":"MultiPolygon","coordinates":[[[[2.51501,50.33597],[2.51525,50.33545],[2.51484,50.33621],[2.51501,50.33597]]],[[[2.51457,50.33679],[2.51455,50.33675],[2.51454,50.33678],[2.51457,50.33679]]],[[[2.51374,50.33467],[2.51538,50.33458],[2.51535,50.33421],[2.51369,50.33426],[2.51374,50.33467]]]]}},{"type":"Feature","properties":{"k":"JAC","s":0.612},"geometry":{"type":"Polygon","coordinates":[[[2.51369,50.33426],[2.51535,50.33421],[2.51532,50.33368],[2.51363,50.33388],[2.51369,50.33426]]]}},{"type":"Feature","properties":{"k":"BTH","s":0.037},"geometry":{"type":"Polygon","coordinates":[[[2.51614,50.32996],[2.51589,50.33102],[2.51616,50.33022],[2.51614,50.32996]]]}},{"type":"Feature","properties":{"k":"BTH","s":0.001},"geometry":{"type":"Polygon","coordinates":[[[2.51618,50.3299],[2.51619,50.32977],[2.51616,50.32989],[2.51618,50.3299]]]}},{"type":"Feature","properties":{"k":"ORH","s":6.272},"geometry":{"type":"Polygon","coordinates":[[[2.51392,50.32768],[2.51297,50.33143],[2.5158,50.33129],[2.51586,50.33109],[2.5162,50.32961],[2.51488,50.32924],[2.51538,50.3277],[2.51392,50.32768]]]}},{"type":"Feature","properties":{"k":"BTH","s":9.096},"geometry":{"type":"Polygon","coordinates":[[[2.50812,50.3331],[2.51531,50.33273],[2.5158,50.33129],[2.50729,50.33173],[2.5072,50.33185],[2.50812,50.3331]]]}},{"type":"Feature","properties":{"k":"PHF","s":4.116},"geometry":{"type":"Polygon","coordinates":[[[2.51265,50.32783],[2.51136,50.33152],[2.51297,50.33143],[2.51383,50.3277],[2.51265,50.32783]]]}},{"type":"Feature","properties":{"k":"BTN","s":8.258},"geometry":{"type":"Polygon","coordinates":[[[2.50708,50.33162],[2.51141,50.33138],[2.51212,50.32933],[2.50599,50.3297],[2.50708,50.33162]]]}},{"type":"Feature","properties":{"k":"BTN","s":0.439},"geometry":{"type":"Polygon","coordinates":[[[2.50714,50.33174],[2.51136,50.33152],[2.51141,50.33138],[2.50708,50.33162],[2.50714,50.33174]]]}},{"type":"Feature","properties":{"k":"BTH","s":6.04},"geometry":{"type":"Polygon","coordinates":[[[2.5111,50.333],[2.50812,50.3331],[2.50903,50.3344],[2.51532,50.33366],[2.51531,50.33274],[2.5111,50.333]]]}},{"type":"Feature","properties":{"k":"PPH","s":1.257},"geometry":{"type":"Polygon","coordinates":[[[2.51071,50.33424],[2.51085,50.33472],[2.51344,50.33469],[2.51335,50.33398],[2.51071,50.33424]]]}},{"type":"Feature","properties":{"k":"BTH","s":3.459},"geometry":{"type":"Polygon","coordinates":[[[2.51154,50.33471],[2.5108,50.33614],[2.51311,50.33651],[2.51413,50.33464],[2.51374,50.33467],[2.51364,50.33393],[2.51335,50.33397],[2.51344,50.33469],[2.51154,50.33471]]]}},{"type":"Feature","properties":{"k":"BTH","s":0.706},"geometry":{"type":"Polygon","coordinates":[[[2.50942,50.33559],[2.50951,50.33556],[2.50904,50.33472],[2.50726,50.3351],[2.50942,50.33559]]]}},{"type":"Feature","properties":{"k":"BTH","s":7.788},"geometry":{"type":"Polygon","coordinates":[[[2.50781,50.33972],[2.50832,50.33963],[2.51081,50.33621],[2.50868,50.33552],[2.50597,50.33922],[2.50781,50.33972]]]}},{"type":"Feature","properties":{"k":"BTN","s":0.848},"geometry":{"type":"MultiPolygon","coordinates":[[[[2.51078,50.3389],[2.51084,50.3394],[2.51112,50.33898],[2.51078,50.3389]]],[[[2.50931,50.33874],[2.51017,50.3388],[2.50936,50.33866],[2.50931,50.33874]]],[[[2.50781,50.33972],[2.50608,50.33931],[2.50571,50.34044],[2.50585,50.34047],[2.50644,50.33957],[2.50785,50.33989],[2.50898,50.33976],[2.50909,50.3391],[2.50884,50.33952],[2.50781,50.33972]]],[[[2.50455,50.34015],[2.50404,50.34062],[2.50467,50.34022],[2.50513,50.3403],[2.50455,50.34015]]]]}},{"type":"Feature","properties":{"k":"BTH","s":5.754},"geometry":{"type":"Polygon","coordinates":[[[2.5124,50.33649],[2.51088,50.33941],[2.51295,50.34],[2.51326,50.33948],[2.51305,50.33935],[2.51366,50.33875],[2.51458,50.33705],[2.51454,50.33685],[2.5124,50.33649]]]}},{"type":"Feature","properties":{"k":"ORP","s":2.008},"geometry":{"type":"Polygon","coordinates":[[[2.51109,50.33895],[2.51238,50.33647],[2.51171,50.33636],[2.51043,50.33834],[2.50962,50.3382],[2.50936,50.33866],[2.51109,50.33895]]]}},{"type":"Feature","properties":{"k":"BTH","s":0.308},"geometry":{"type":"MultiPolygon","coordinates":[[[[2.51485,50.33729],[2.51465,50.33692],[2.51366,50.33874],[2.51485,50.33729]]],[[[2.51335,50.33953],[2.51326,50.33948],[2.51305,50.33988],[2.51335,50.33953]]]]}},{"type":"Feature","properties":{"k":"BTH","s":0.0},"geometry":{"type":"Polygon","coordinates":[]}},{"type":"Feature","properties":{"k":"BTH","s":0.054},"geometry":{"type":"Polygon","coordinates":[[[2.49671,50.34023],[2.49577,50.34025],[2.49764,50.34029],[2.49671,50.34023]]]}},{"type":"Feature","properties":{"k":"ORP","s":0.049},"geometry":{"type":"Polygon","coordinates":[[[2.49885,50.33909],[2.49958,50.33903],[2.4989,50.33895],[2.49885,50.33909]]]}},{"type":"Feature","properties":{"k":"BTH","s":0.829},"geometry":{"type":"Polygon","coordinates":[[[2.49817,50.34023],[2.49868,50.33938],[2.49584,50.34012],[2.49817,50.34023]]]}},{"type":"Feature","properties":{"k":"BTH","s":0.836},"geometry":{"type":"Polygon","coordinates":[[[2.49889,50.33897],[2.49569,50.33981],[2.49584,50.34012],[2.49868,50.33937],[2.49889,50.33897]]]}},{"type":"Feature","properties":{"k":"BFS","s":0.008},"geometry":{"type":"Polygon","coordinates":[[[2.49525,50.33916],[2.49524,50.33915],[2.49564,50.33982],[2.49567,50.33981],[2.49525,50.33916]]]}},{"type":"Feature","properties":{"k":"LIF","s":3.354},"geometry":{"type":"Polygon","coordinates":[[[2.49567,50.33981],[2.49889,50.33897],[2.49815,50.33784],[2.49493,50.33871],[2.49567,50.33981]]]}},{"type":"Feature","properties":{"k":"BTH","s":1.401},"geometry":{"type":"Polygon","coordinates":[[[2.49788,50.33699],[2.49437,50.33791],[2.4947,50.33837],[2.49788,50.3375],[2.49788,50.33699]]]}},{"type":"Feature","properties":{"k":"CHV","s":1.016},"geometry":{"type":"Polygon","coordinates":[[[2.4947,50.33837],[2.49493,50.33871],[2.49813,50.33784],[2.49788,50.3375],[2.4947,50.33837]]]}},{"type":"Feature","properties":{"k":"BTH","s":2.478},"geometry":{"type":"Polygon","coordinates":[[[2.49846,50.33686],[2.49852,50.33627],[2.49616,50.33666],[2.49392,50.33728],[2.49437,50.33791],[2.49846,50.33686]]]}},{"type":"Feature","properties":{"k":"BTH","s":3.411},"geometry":{"type":"Polygon","coordinates":[[[2.50206,50.33737],[2.49788,50.33747],[2.49852,50.33839],[2.50208,50.33865],[2.50206,50.33737]]]}},{"type":"Feature","properties":{"k":"FVP","s":1.04},"geometry":{"type":"Polygon","coordinates":[[[2.502,50.33662],[2.50205,50.33628],[2.4979,50.33695],[2.49786,50.33727],[2.502,50.33662]]]}},{"type":"Feature","properties":{"k":"BTH","s":0.168},"geometry":{"type":"Polygon","coordinates":[[[2.50128,50.33921],[2.49958,50.33903],[2.50118,50.33923],[2.50353,50.34035],[2.50128,50.33921]]]}},{"type":"Feature","properties":{"k":"TRE","s":0.351},"geometry":{"type":"Polygon","coordinates":[[[2.47895,50.32902],[2.47845,50.32884],[2.47796,50.32935],[2.4785,50.32973],[2.47895,50.32902]]]}},{"type":"Feature","properties":{"k":"PPH","s":0.734},"geometry":{"type":"Polygon","coordinates":[[[2.4782,50.32824],[2.47816,50.32843],[2.47778,50.32827],[2.4772,50.32882],[2.47796,50.32935],[2.47865,50.32851],[2.47837,50.32839],[2.4788,50.32801],[2.4782,50.32824]]]}},{"type":"Feature","properties":{"k":"PPH","s":0.491},"geometry":{"type":"Polygon","coordinates":[[[2.48016,50.3294],[2.48069,50.32936],[2.47963,50.32895],[2.48009,50.3284],[2.47993,50.32834],[2.47958,50.32859],[2.47937,50.32848],[2.47886,50.32895],[2.48016,50.3294]]]}},{"type":"Feature","properties":{"k":"PPH","s":0.641},"geometry":{"type":"Polygon","coordinates":[[[2.4796,50.32963],[2.4792,50.32964],[2.47926,50.3293],[2.47895,50.32902],[2.47848,50.32978],[2.47875,50.33009],[2.47905,50.33],[2.47929,50.33017],[2.47991,50.32999],[2.4796,50.32963]]]}},{"type":"Feature","properties":{"k":"PPH","s":0.51},"geometry":{"type":"Polygon","coordinates":[[[2.48227,50.32808],[2.48059,50.32751],[2.48025,50.32793],[2.48122,50.3283],[2.48164,50.32789],[2.48215,50.3282],[2.48227,50.32808]]]}},{"type":"Feature","properties":{"k":"PPH","s":0.516},"geometry":{"type":"Polygon","coordinates":[[[2.48236,50.3281],[2.48258,50.32784],[2.48075,50.32718],[2.48064,50.32745],[2.48236,50.3281]]]}},{"type":"Feature","properties":{"k":"PPH","s":0.793},"geometry":{"type":"Polygon","coordinates":[[[2.48085,50.32697],[2.48032,50.32684],[2.47936,50.32667],[2.47861,50.32683],[2.47862,50.32694],[2.47934,50.32703],[2.47923,50.32723],[2.48053,50.32752],[2.48085,50.32697]]]}},{"type":"Feature","properties":{"k":"PPH","s":0.945},"geometry":{"type":"Polygon","coordinates":[[[2.4756,50.32787],[2.47516,50.32833],[2.47656,50.32877],[2.47718,50.32821],[2.477,50.32811],[2.47722,50.32741],[2.47698,50.32737],[2.47679,50.32807],[2.4756,50.32787]]]}},{"type":"Feature","properties":{"k":"PPH","s":0.405},"geometry":{"type":"Polygon","coordinates":[[[2.47658,50.32735],[2.47597,50.32727],[2.47563,50.32787],[2.47651,50.32798],[2.47658,50.32735]]]}},{"type":"Feature","properties":{"k":"PPH","s":4.045},"geometry":{"type":"Polygon","coordinates":[[[2.47727,50.32343],[2.47655,50.32253],[2.47423,50.32737],[2.47576,50.3272],[2.47564,50.3263],[2.4767,50.32606],[2.47606,50.32597],[2.47727,50.32343]]]}},{"type":"Feature","properties":{"k":"PPH","s":3.028},"geometry":{"type":"Polygon","coordinates":[[[2.47768,50.32506],[2.47845,50.32511],[2.47845,50.32493],[2.47728,50.32344],[2.47607,50.32597],[2.47729,50.32615],[2.47719,50.32732],[2.47761,50.3274],[2.47835,50.32694],[2.47772,50.32686],[2.47768,50.32506]]]}},{"type":"Feature","properties":{"k":"PPH","s":0.571},"geometry":{"type":"Polygon","coordinates":[[[2.48058,50.32503],[2.48014,50.32507],[2.48015,50.32522],[2.47953,50.32531],[2.4795,50.32562],[2.47856,50.32568],[2.4806,50.32582],[2.48058,50.32503]]]}},{"type":"Feature","properties":{"k":"PPH","s":0.91},"geometry":{"type":"Polygon","coordinates":[[[2.48032,50.32655],[2.48071,50.32664],[2.48105,50.32613],[2.48065,50.32601],[2.48064,50.32585],[2.47859,50.32662],[2.47862,50.32683],[2.47936,50.32666],[2.48031,50.32682],[2.48032,50.32655]]]}},{"type":"Feature","properties":{"k":"PPH","s":1.014},"geometry":{"type":"Polygon","coordinates":[[[2.4806,50.32582],[2.48255,50.3252],[2.48254,50.32474],[2.48059,50.32497],[2.4806,50.32582]]]}},{"type":"Feature","properties":{"k":"PPH","s":2.681},"geometry":{"type":"Polygon","coordinates":[[[2.48147,50.32348],[2.48034,50.32345],[2.48035,50.32356],[2.47866,50.32371],[2.4785,50.3249],[2.48158,50.32453],[2.48147,50.32348]]]}},{"type":"Feature","properties":{"k":"JAC","s":0.642},"geometry":{"type":"Polygon","coordinates":[[[2.48016,50.32318],[2.47779,50.32395],[2.47836,50.32466],[2.47853,50.32462],[2.47863,50.3237],[2.48035,50.32356],[2.48016,50.32318]]]}},{"type":"Feature","properties":{"k":"PTC","s":0.826},"geometry":{"type":"Polygon","coordinates":[[[2.48036,50.32344],[2.48225,50.32356],[2.48228,50.32305],[2.47998,50.32291],[2.48036,50.32344]]]}},{"type":"Feature","properties":{"k":"MIS","s":1.025},"geometry":{"type":"Polygon","coordinates":[[[2.47998,50.32291],[2.48228,50.32305],[2.48231,50.32261],[2.4828,50.32259],[2.48287,50.32215],[2.47989,50.32279],[2.47998,50.32291]]]}},{"type":"Feature","properties":{"k":"PTC","s":6.925},"geometry":{"type":"Polygon","coordinates":[[[2.4832,50.32101],[2.4846,50.32119],[2.48482,50.32036],[2.4835,50.31994],[2.48091,50.32075],[2.47871,50.32121],[2.47989,50.32279],[2.48287,50.32215],[2.4832,50.32101]]]}},{"type":"Feature","properties":{"k":"BTH","s":4.596},"geometry":{"type":"Polygon","coordinates":[[[2.47871,50.32121],[2.47637,50.32212],[2.47779,50.32395],[2.48016,50.32318],[2.47871,50.32121]]]}},{"type":"Feature","properties":{"k":"BTH","s":4.2},"geometry":{"type":"Polygon","coordinates":[[[2.47644,50.31942],[2.47487,50.31997],[2.47629,50.32205],[2.47865,50.32108],[2.47644,50.31942]]]}},{"type":"Feature","properties":{"k":"OIG","s":0.772},"geometry":{"type":"Polygon","coordinates":[[[2.4722,50.32508],[2.47344,50.32251],[2.47308,50.32252],[2.47182,50.32501],[2.4722,50.32508]]]}},{"type":"Feature","properties":{"k":"BTH","s":10.268},"geometry":{"type":"Polygon","coordinates":[[[2.47287,50.32247],[2.47486,50.32241],[2.4762,50.32212],[2.47534,50.32093],[2.46857,50.3204],[2.4675,50.32198],[2.47287,50.32247]]]}},{"type":"Feature","properties":{"k":"OIG","s":2.643},"geometry":{"type":"Polygon","coordinates":[[[2.47072,50.3234],[2.46849,50.32739],[2.46916,50.32743],[2.47188,50.32245],[2.47126,50.32239],[2.47072,50.3234]]]}},{"type":"Feature","properties":{"k":"PTR","s":2.193},"geometry":{"type":"Polygon","coordinates":[[[2.47273,50.32523],[2.47176,50.32504],[2.4704,50.32755],[2.47152,50.32765],[2.47273,50.32523]]]}},{"type":"Feature","properties":{"k":"PTC","s":5.125},"geometry":{"type":"Polygon","coordinates":[[[2.47176,50.32503],[2.47218,50.32513],[2.47182,50.32501],[2.47308,50.32252],[2.47188,50.32245],[2.46916,50.32743],[2.47038,50.32755],[2.47176,50.32503]]]}},{"type":"Feature","properties":{"k":"BTH","s":8.764},"geometry":{"type":"Polygon","coordinates":[[[2.47344,50.32251],[2.47218,50.32513],[2.47414,50.32551],[2.4732,50.32747],[2.47424,50.32737],[2.47653,50.32251],[2.47626,50.32223],[2.47344,50.32251]]]}},{"type":"Feature","properties":{"k":"PPH","s":2.723},"geometry":{"type":"Polygon","coordinates":[[[2.47152,50.32765],[2.4732,50.32747],[2.47413,50.32551],[2.47273,50.32523],[2.47152,50.32765]]]}},{"type":"Feature","properties":{"k":"PTC","s":14.201},"geometry":{"type":"Polygon","coordinates":[[[2.46849,50.32739],[2.47127,50.32238],[2.46778,50.32211],[2.46517,50.32692],[2.46849,50.32739]]]}},{"type":"Feature","properties":{"k":"PHF","s":4.034},"geometry":{"type":"Polygon","coordinates":[[[2.46025,50.32585],[2.45892,50.3287],[2.45882,50.3299],[2.45958,50.33011],[2.46138,50.32634],[2.46025,50.32585]]]}},{"type":"Feature","properties":{"k":"PHF","s":8.433},"geometry":{"type":"Polygon","coordinates":[[[2.46285,50.32173],[2.46259,50.32182],[2.46213,50.32237],[2.46191,50.3234],[2.46142,50.32431],[2.46037,50.32573],[2.4622,50.32651],[2.46245,50.32654],[2.46504,50.32189],[2.46285,50.32173]]]}},{"type":"Feature","properties":{"k":"LIF","s":0.007},"geometry":{"type":"Polygon","coordinates":[[[2.46124,50.32099],[2.46127,50.3211],[2.46136,50.32097],[2.46124,50.32099]]]}},{"type":"Feature","properties":{"k":"PPH","s":4.427},"geometry":{"type":"Polygon","coordinates":[[[2.46238,50.32014],[2.46253,50.32028],[2.4613,50.32117],[2.46167,50.3224],[2.46204,50.3225],[2.46257,50.32178],[2.46307,50.32169],[2.46434,50.31987],[2.46289,50.3194],[2.46299,50.31901],[2.46133,50.31934],[2.46168,50.32022],[2.46238,50.32014]]]}},{"type":"Feature","properties":{"k":"BTH","s":5.413},"geometry":{"type":"Polygon","coordinates":[[[2.46382,50.32672],[2.46643,50.32201],[2.46505,50.3219],[2.46245,50.32654],[2.46382,50.32672]]]}},{"type":"Feature","properties":{"k":"BTH","s":5.197},"geometry":{"type":"Polygon","coordinates":[[[2.46644,50.32201],[2.46381,50.32674],[2.46509,50.32692],[2.46774,50.32212],[2.46644,50.32201]]]}},{"type":"Feature","properties":{"k":"MIS","s":2.275},"geometry":{"type":"Polygon","coordinates":[[[2.46746,50.32205],[2.4698,50.31859],[2.46905,50.31851],[2.46666,50.32198],[2.46746,50.32205]]]}},{"type":"Feature","properties":{"k":"PHF","s":7.09},"geometry":{"type":"Polygon","coordinates":[[[2.46451,50.32151],[2.46431,50.32179],[2.46666,50.32198],[2.46904,50.31851],[2.46823,50.31842],[2.46697,50.31791],[2.46451,50.32151]]]}},{"type":"Feature","properties":{"k":"LIF","s":0.0},"geometry":{"type":"Polygon","coordinates":[]}},{"type":"Feature","properties":{"k":"LIF","s":0.483},"geometry":{"type":"Polygon","coordinates":[[[2.46538,50.31927],[2.46605,50.31836],[2.46549,50.31878],[2.46512,50.31866],[2.46475,50.31898],[2.46401,50.31871],[2.46361,50.31891],[2.46538,50.31927]]]}},{"type":"Feature","properties":{"k":"CHU","s":4.05},"geometry":{"type":"Polygon","coordinates":[[[2.46434,50.31987],[2.46307,50.32169],[2.46427,50.32178],[2.46697,50.31791],[2.46605,50.31836],[2.46538,50.31927],[2.46353,50.31891],[2.46299,50.31901],[2.46289,50.3194],[2.46434,50.31987]]]}},{"type":"Feature","properties":{"k":"LIF","s":7.727},"geometry":{"type":"Polygon","coordinates":[[[2.47432,50.31932],[2.46981,50.3186],[2.46859,50.32039],[2.47533,50.32092],[2.47432,50.31932]]]}},{"type":"Feature","properties":{"k":"MIS","s":0.743},"geometry":{"type":"Polygon","coordinates":[[[2.47644,50.31942],[2.47573,50.31901],[2.47454,50.31945],[2.47487,50.31997],[2.47644,50.31942]]]}},{"type":"Feature","properties":{"k":"PTR","s":0.36},"geometry":{"type":"Polygon","coordinates":[[[2.47503,50.31877],[2.47443,50.31899],[2.47454,50.31945],[2.47573,50.31901],[2.47503,50.31877]]]}},{"type":"Feature","properties":{"k":"CHU","s":0.797},"geometry":{"type":"Polygon","coordinates":[[[2.47641,50.31868],[2.47443,50.31801],[2.47443,50.31857],[2.47603,50.31911],[2.47641,50.31868]]]}},{"type":"Feature","properties":{"k":"BTH","s":0.003},"geometry":{"type":"Polygon","coordinates":[[[2.47605,50.3191],[2.47642,50.31868],[2.47641,50.31868],[2.47605,50.3191]]]}},{"type":"Feature","properties":{"k":"BTH","s":0.204},"geometry":{"type":"Polygon","coordinates":[[[2.486,50.32091],[2.48595,50.32112],[2.48608,50.3207],[2.48482,50.32036],[2.48477,50.32054],[2.486,50.32091]]]}},{"type":"Feature","properties":{"k":"PTC","s":2.163},"geometry":{"type":"Polygon","coordinates":[[[2.4866,50.32325],[2.48776,50.32213],[2.4883,50.32132],[2.48668,50.32088],[2.48608,50.32308],[2.4866,50.32325]]]}},{"type":"Feature","properties":{"k":"CEL","s":1.114},"geometry":{"type":"Polygon","coordinates":[[[2.48608,50.3207],[2.48552,50.32292],[2.48608,50.32308],[2.48668,50.32088],[2.48608,50.3207]]]}},{"type":"Feature","properties":{"k":"PPH","s":0.958},"geometry":{"type":"Polygon","coordinates":[[[2.48317,50.32385],[2.48395,50.32391],[2.48419,50.32268],[2.48297,50.32262],[2.48288,50.32332],[2.48329,50.32339],[2.48317,50.32385]]]}},{"type":"Feature","properties":{"k":"PPH","s":0.797},"geometry":{"type":"Polygon","coordinates":[[[2.48225,50.32356],[2.48206,50.32446],[2.4826,50.32433],[2.48287,50.32274],[2.4828,50.32259],[2.48231,50.32261],[2.48225,50.32356]]]}},{"type":"Feature","properties":{"k":"PPH","s":0.421},"geometry":{"type":"Polygon","coordinates":[[[2.48215,50.32357],[2.48151,50.32351],[2.48158,50.32452],[2.48204,50.32447],[2.48215,50.32357]]]}},{"type":"Feature","properties":{"k":"PPH","s":0.379},"geometry":{"type":"Polygon","coordinates":[[[2.48365,50.32626],[2.48387,50.32589],[2.48255,50.32564],[2.48247,50.326],[2.48365,50.32626]]]}},{"type":"Feature","properties":{"k":"PPH","s":2.007},"geometry":{"type":"Polygon","coordinates":[[[2.48259,50.32522],[2.48065,50.32582],[2.48066,50.32601],[2.4823,50.32638],[2.48242,50.3261],[2.48396,50.32654],[2.48406,50.32637],[2.48247,50.326],[2.48255,50.32564],[2.48329,50.32583],[2.48377,50.3254],[2.48426,50.32553],[2.4844,50.32535],[2.48475,50.32547],[2.48494,50.32523],[2.4843,50.32511],[2.48449,50.32487],[2.48259,50.32522]]]}},{"type":"Feature","properties":{"k":"PPH","s":1.835},"geometry":{"type":"Polygon","coordinates":[[[2.4808,50.32718],[2.48331,50.32809],[2.48349,50.32789],[2.48215,50.32736],[2.48273,50.32669],[2.48228,50.32641],[2.48105,50.32613],[2.48071,50.32664],[2.48032,50.32655],[2.48031,50.32682],[2.48088,50.32697],[2.4808,50.32718]]]}},{"type":"Feature","properties":{"k":"PPH","s":3.021},"geometry":{"type":"Polygon","coordinates":[[[2.48496,50.327],[2.48397,50.32695],[2.48394,50.32727],[2.48491,50.32735],[2.48564,50.32646],[2.48595,50.32657],[2.48623,50.32641],[2.48707,50.32644],[2.48748,50.3267],[2.48687,50.3272],[2.48656,50.3271],[2.48608,50.32766],[2.487,50.32776],[2.4868,50.32814],[2.48716,50.32819],[2.48774,50.3272],[2.48812,50.32729],[2.48865,50.32794],[2.48914,50.32783],[2.48814,50.32594],[2.48698,50.32621],[2.48704,50.32638],[2.48552,50.32614],[2.48548,50.32651],[2.48496,50.327]]]}},{"type":"Feature","properties":{"k":"PPH","s":1.14},"geometry":{"type":"Polygon","coordinates":[[[2.48893,50.32583],[2.49063,50.32521],[2.49068,50.32455],[2.48891,50.32516],[2.48882,50.325],[2.48837,50.32527],[2.48855,50.32568],[2.48893,50.32583]]]}},{"type":"Feature","properties":{"k":"JAC","s":0.035},"geometry":{"type":"Polygon","coordinates":[[[2.48936,50.32623],[2.48916,50.32581],[2.48906,50.32584],[2.48936,50.32623]]]}},{"type":"Feature","properties":{"k":"BTP","s":0.113},"geometry":{"type":"Polygon","coordinates":[[[2.49116,50.32856],[2.49117,50.32857],[2.49137,50.32814],[2.49069,50.32818],[2.49116,50.32856]]]}},{"type":"Feature","properties":{"k":"PPH","s":0.494},"geometry":{"type":"Polygon","coordinates":[[[2.4902,50.3276],[2.49151,50.32728],[2.4913,50.32693],[2.49002,50.32713],[2.4902,50.3276]]]}},{"type":"Feature","properties":{"k":"BTH","s":1.558},"geometry":{"type":"Polygon","coordinates":[[[2.48943,50.32663],[2.48952,50.32682],[2.48883,50.32692],[2.48902,50.3273],[2.49131,50.32694],[2.49115,50.32575],[2.48972,50.32633],[2.48943,50.32663]]]}},{"type":"Feature","properties":{"k":"BTP","s":0.202},"geometry":{"type":"Polygon","coordinates":[[[2.49137,50.32814],[2.49131,50.32827],[2.49398,50.32805],[2.49137,50.32814]]]}},{"type":"Feature","properties":{"k":"PPH","s":2.317},"geometry":{"type":"Polygon","coordinates":[[[2.49141,50.32743],[2.4905,50.32804],[2.49058,50.32818],[2.494,50.32798],[2.49431,50.32689],[2.49141,50.32743]]]}},{"type":"Feature","properties":{"k":"CEL","s":4.175},"geometry":{"type":"Polygon","coordinates":[[[2.49131,50.32827],[2.49074,50.32958],[2.49431,50.32935],[2.49507,50.32691],[2.49427,50.32703],[2.49396,50.32811],[2.49131,50.32827]]]}},{"type":"Feature","properties":{"k":"CEL","s":0.073},"geometry":{"type":"Polygon","coordinates":[[[2.49256,50.32806],[2.49257,50.32812],[2.494,50.32798],[2.49256,50.32806]]]}},{"type":"Feature","properties":{"k":"PPH","s":1.862},"geometry":{"type":"Polygon","coordinates":[[[2.49399,50.32687],[2.49508,50.32671],[2.49447,50.32436],[2.49361,50.32471],[2.49399,50.32687]]]}},{"type":"Feature","properties":{"k":"LIF","s":3.785},"geometry":{"type":"Polygon","coordinates":[[[2.49153,50.32725],[2.49396,50.32686],[2.49359,50.3247],[2.49115,50.32575],[2.49153,50.32725]]]}},{"type":"Feature","properties":{"k":"BTH","s":9.44},"geometry":{"type":"Polygon","coordinates":[[[2.49615,50.32632],[2.4956,50.32555],[2.4963,50.32519],[2.49728,50.32588],[2.49916,50.32513],[2.49813,50.32373],[2.49429,50.32372],[2.48916,50.32581],[2.48936,50.32623],[2.48965,50.32617],[2.48972,50.32633],[2.49443,50.32433],[2.4951,50.32671],[2.49615,50.32632]]]}},{"type":"Feature","properties":{"k":"MIS","s":0.383},"geometry":{"type":"Polygon","coordinates":[[[2.49076,50.3237],[2.49072,50.32436],[2.49225,50.32367],[2.49076,50.3237]]]}},{"type":"Feature","properties":{"k":"CEL","s":1.83},"geometry":{"type":"Polygon","coordinates":[[[2.49066,50.32525],[2.49411,50.32367],[2.49225,50.32367],[2.49072,50.32436],[2.49066,50.32525]]]}},{"type":"Feature","properties":{"k":"MIS","s":1.245},"geometry":{"type":"Polygon","coordinates":[[[2.4887,50.32484],[2.48893,50.32512],[2.49068,50.32453],[2.49072,50.32373],[2.48965,50.32372],[2.48961,50.32405],[2.4887,50.32484]]]}},{"type":"Feature","properties":{"k":"PPH","s":1.784},"geometry":{"type":"Polygon","coordinates":[[[2.48735,50.32355],[2.48689,50.32435],[2.4887,50.32484],[2.48961,50.32405],[2.48965,50.32372],[2.48735,50.32355]]]}},{"type":"Feature","properties":{"k":"BTH","s":0.047},"geometry":{"type":"MultiPolygon","coordinates":[[[[2.48787,50.32364],[2.48885,50.32366],[2.48772,50.32359],[2.48787,50.32364]]],[[[2.49152,50.32371],[2.49155,50.32367],[2.48964,50.32367],[2.49152,50.32371]]]]}},{"type":"Feature","properties":{"k":"MIS","s":3.796},"geometry":{"type":"Polygon","coordinates":[[[2.49429,50.32372],[2.49661,50.32374],[2.49855,50.32159],[2.49706,50.3209],[2.49516,50.32329],[2.49465,50.32367],[2.49411,50.32367],[2.49395,50.32385],[2.49429,50.32372]]]}},{"type":"Feature","properties":{"k":"ORH","s":2.191},"geometry":{"type":"Polygon","coordinates":[[[2.4994,50.32208],[2.49856,50.3216],[2.49661,50.32374],[2.49813,50.32373],[2.49946,50.32227],[2.4994,50.32208]]]}},{"type":"Feature","properties":{"k":"MIS","s":3.704},"geometry":{"type":"Polygon","coordinates":[[[2.49955,50.32218],[2.49813,50.32373],[2.49916,50.32513],[2.50126,50.32429],[2.49955,50.32218]]]}},{"type":"Feature","properties":{"k":"PPH","s":0.457},"geometry":{"type":"Polygon","coordinates":[[[2.49756,50.32654],[2.49718,50.326],[2.4956,50.32664],[2.49756,50.32654]]]}},{"type":"Feature","properties":{"k":"BTP","s":0.081},"geometry":{"type":"Polygon","coordinates":[[[2.49427,50.32703],[2.49507,50.32691],[2.49511,50.32678],[2.49427,50.32703]]]}},{"type":"Feature","properties":{"k":"BTP","s":0.063},"geometry":{"type":"Polygon","coordinates":[[[2.49867,50.32665],[2.4987,50.32656],[2.49783,50.3266],[2.4978,50.32669],[2.49867,50.32665]]]}},{"type":"Feature","properties":{"k":"LIF","s":1.582},"geometry":{"type":"Polygon","coordinates":[[[2.4999,50.32656],[2.49894,50.3253],[2.49718,50.326],[2.49756,50.32654],[2.4999,50.32656]]]}},{"type":"Feature","properties":{"k":"BTN","s":4.731},"geometry":{"type":"Polygon","coordinates":[[[2.5022,50.32537],[2.50133,50.32434],[2.49894,50.3253],[2.49993,50.32658],[2.50312,50.32682],[2.5022,50.32537]]]}},{"type":"Feature","properties":{"k":"PPH","s":1.8},"geometry":{"type":"Polygon","coordinates":[[[2.5025,50.32563],[2.50423,50.3245],[2.5038,50.32424],[2.5032,50.32447],[2.50276,50.32396],[2.50211,50.32404],[2.50147,50.32437],[2.5025,50.32563]]]}},{"type":"Feature","properties":{"k":"BTN","s":1.977},"geometry":{"type":"Polygon","coordinates":[[[2.50136,50.3268],[2.50112,50.32768],[2.50224,50.32797],[2.50278,50.32835],[2.50373,50.32733],[2.50318,50.32688],[2.50136,50.3268]]]}},{"type":"Feature","properties":{"k":"BTH","s":7.445},"geometry":{"type":"Polygon","coordinates":[[[2.50675,50.32719],[2.50439,50.32692],[2.50439,50.32703],[2.50347,50.32698],[2.50501,50.32813],[2.50581,50.32943],[2.50867,50.32927],[2.50933,50.32735],[2.50862,50.32718],[2.50675,50.32719]]]}},{"type":"Feature","properties":{"k":"PPH","s":3.925},"geometry":{"type":"Polygon","coordinates":[[[2.50538,50.32521],[2.50426,50.32453],[2.50251,50.32567],[2.50319,50.32674],[2.50563,50.32692],[2.50528,50.32673],[2.50547,50.32648],[2.50527,50.32643],[2.50562,50.32595],[2.50591,50.32603],[2.50602,50.3259],[2.50497,50.32557],[2.50538,50.32521]]]}},{"type":"Feature","properties":{"k":"PPH","s":5.123},"geometry":{"type":"Polygon","coordinates":[[[2.50653,50.32276],[2.50532,50.3241],[2.50521,50.32426],[2.50562,50.32446],[2.50548,50.32513],[2.50502,50.32553],[2.50604,50.32586],[2.50698,50.32469],[2.50722,50.32458],[2.50775,50.32476],[2.50779,50.32499],[2.50671,50.32645],[2.50695,50.32653],[2.50671,50.32682],[2.50684,50.32686],[2.50899,50.32409],[2.50653,50.32276]]]}},{"type":"Feature","properties":{"k":"BTH","s":1.697},"geometry":{"type":"Polygon","coordinates":[[[2.50103,50.32298],[2.50262,50.32284],[2.5006,50.32157],[2.49971,50.3222],[2.49998,50.32269],[2.50103,50.32298]]]}},{"type":"Feature","properties":{"k":"PPH","s":5.78},"geometry":{"type":"Polygon","coordinates":[[[2.50061,50.32156],[2.50265,50.32284],[2.50306,50.32256],[2.5032,50.32262],[2.50379,50.32236],[2.50383,50.32192],[2.50396,50.32173],[2.50422,50.32175],[2.50425,50.32135],[2.50503,50.32148],[2.50548,50.32083],[2.50613,50.32043],[2.50439,50.31975],[2.50292,50.32081],[2.50161,50.32123],[2.50044,50.32123],[2.50044,50.3215],[2.49971,50.32219],[2.50061,50.32156]]]}},{"type":"Feature","properties":{"k":"PPH","s":3.026},"geometry":{"type":"Polygon","coordinates":[[[2.50848,50.32024],[2.50631,50.32045],[2.50552,50.32094],[2.50532,50.32127],[2.50661,50.32181],[2.50616,50.32217],[2.50516,50.32184],[2.50519,50.32219],[2.50653,50.32268],[2.50848,50.32024]]]}},{"type":"Feature","properties":{"k":"MIS","s":0.176},"geometry":{"type":"Polygon","coordinates":[[[2.50586,50.31998],[2.50511,50.31969],[2.50492,50.31991],[2.50574,50.32021],[2.50586,50.31998]]]}},{"type":"Feature","properties":{"k":"LIF","s":0.094},"geometry":{"type":"Polygon","coordinates":[[[2.50611,50.31735],[2.50605,50.31747],[2.5071,50.31762],[2.50611,50.31735]]]}},{"type":"Feature","properties":{"k":"MIS","s":0.119},"geometry":{"type":"Polygon","coordinates":[[[2.50605,50.31747],[2.50611,50.31735],[2.50524,50.31711],[2.50515,50.31729],[2.50605,50.31747]]]}},{"type":"Feature","properties":{"k":"BTH","s":5.853},"geometry":{"type":"Polygon","coordinates":[[[2.50586,50.31998],[2.50706,50.3177],[2.50515,50.31729],[2.50524,50.31711],[2.50437,50.31687],[2.5031,50.31921],[2.50492,50.31991],[2.50511,50.31969],[2.50586,50.31998]]]}},{"type":"Feature","properties":{"k":"BTH","s":0.1},"geometry":{"type":"Polygon","coordinates":[[[2.5031,50.31921],[2.50364,50.31801],[2.50293,50.31912],[2.5031,50.31921]]]}},{"type":"Feature","properties":{"k":"PPH","s":0.001},"geometry":{"type":"Polygon","coordinates":[[[2.50292,50.31913],[2.50291,50.31915],[2.50299,50.31917],[2.50292,50.31913]]]}},{"type":"Feature","properties":{"k":"PTC","s":0.024},"geometry":{"type":"Polygon","coordinates":[[[2.51556,50.31935],[2.51621,50.31919],[2.51394,50.31969],[2.51556,50.31935]]]}},{"type":"Feature","properties":{"k":"BTH","s":1.452},"geometry":{"type":"Polygon","coordinates":[[[2.5133,50.31979],[2.51078,50.31881],[2.51022,50.32003],[2.5133,50.31979]]]}},{"type":"Feature","properties":{"k":"BTN","s":4.873},"geometry":{"type":"Polygon","coordinates":[[[2.5071,50.31762],[2.50574,50.32021],[2.5062,50.3204],[2.5084,50.32017],[2.50938,50.31826],[2.5071,50.31762]]]}},{"type":"Feature","properties":{"k":"MIS","s":2.13},"geometry":{"type":"Polygon","coordinates":[[[2.51022,50.32003],[2.51078,50.3188],[2.50938,50.31826],[2.5084,50.32017],[2.51022,50.32003]]]}},{"type":"Feature","properties":{"k":"BTH","s":3.838},"geometry":{"type":"Polygon","coordinates":[[[2.50769,50.32342],[2.51027,50.3201],[2.50852,50.32024],[2.50654,50.32271],[2.50769,50.32342]]]}},{"type":"Feature","properties":{"k":"BTH","s":5.801},"geometry":{"type":"Polygon","coordinates":[[[2.51027,50.3201],[2.50769,50.32342],[2.50907,50.32411],[2.51223,50.31994],[2.51027,50.3201]]]}},{"type":"Feature","properties":{"k":"BTN","s":2.554},"geometry":{"type":"Polygon","coordinates":[[[2.51234,50.31993],[2.50907,50.32411],[2.50964,50.32433],[2.51314,50.31987],[2.51234,50.31993]]]}},{"type":"Feature","properties":{"k":"BTH","s":1.903},"geometry":{"type":"Polygon","coordinates":[[[2.50899,50.32409],[2.50663,50.32712],[2.50746,50.32709],[2.50964,50.32435],[2.50899,50.32409]]]}},{"type":"Feature","properties":{"k":"MIS","s":5.496},"geometry":{"type":"Polygon","coordinates":[[[2.50933,50.32735],[2.50867,50.32927],[2.50581,50.32943],[2.50599,50.3297],[2.51212,50.32933],[2.51261,50.32783],[2.50933,50.32735]]]}},{"type":"Feature","properties":{"k":"BTH","s":18.965},"geometry":{"type":"Polygon","coordinates":[[[2.51186,50.3277],[2.51548,50.32309],[2.5117,50.32173],[2.50752,50.32708],[2.50834,50.32706],[2.51186,50.3277]],[[2.51322,50.32383],[2.51303,50.32381],[2.51306,50.32368],[2.51322,50.32383]]]}},{"type":"Feature","properties":{"k":"BTH","s":7.446},"geometry":{"type":"Polygon","coordinates":[[[2.51306,50.32619],[2.51186,50.3277],[2.51288,50.32776],[2.51408,50.32758],[2.51721,50.32361],[2.51548,50.32309],[2.51306,50.32619]]]}},{"type":"Feature","properties":{"k":"PTC","s":5.091},"geometry":{"type":"Polygon","coordinates":[[[2.51422,50.32759],[2.51538,50.32765],[2.5154,50.32743],[2.51595,50.32743],[2.51711,50.32777],[2.51869,50.32575],[2.51652,50.32532],[2.51594,50.32535],[2.51422,50.32759]]]}},{"type":"Feature","properties":{"k":"BTN","s":5.127},"geometry":{"type":"Polygon","coordinates":[[[2.51401,50.32256],[2.51574,50.31938],[2.51314,50.31987],[2.51157,50.32188],[2.5117,50.32173],[2.51401,50.32256]]]}},{"type":"Feature","properties":{"k":"BTN","s":2.287},"geometry":{"type":"Polygon","coordinates":[[[2.51472,50.32278],[2.51673,50.31911],[2.51574,50.31938],[2.51401,50.32256],[2.51472,50.32278]]]}},{"type":"Feature","properties":{"k":"BTH","s":2.442},"geometry":{"type":"Polygon","coordinates":[[[2.51673,50.31911],[2.51472,50.32278],[2.51533,50.32301],[2.51652,50.32116],[2.51756,50.31895],[2.51673,50.31911]]]}},{"type":"Feature","properties":{"k":"BTH","s":0.665},"geometry":{"type":"Polygon","coordinates":[[[2.47387,50.34065],[2.4672,50.33902],[2.46721,50.33917],[2.47383,50.34079],[2.47387,50.34065]]]}},{"type":"Feature","properties":{"k":"BTH","s":0.851},"geometry":{"type":"Polygon","coordinates":[[[2.47118,50.33975],[2.46719,50.33875],[2.46722,50.33902],[2.47099,50.33998],[2.47118,50.33975]]]}},{"type":"Feature","properties":{"k":"BTN","s":2.553},"geometry":{"type":"Polygon","coordinates":[[[2.47367,50.34112],[2.47383,50.34079],[2.46721,50.33917],[2.46722,50.3395],[2.46785,50.33981],[2.4736,50.34126],[2.47367,50.34112]]]}},{"type":"Feature","properties":{"k":"ORH","s":0.124},"geometry":{"type":"MultiPolygon","coordinates":[[[[2.47037,50.34244],[2.46993,50.34176],[2.46988,50.34188],[2.47037,50.34244]]],[[[2.47015,50.34112],[2.46877,50.34067],[2.46885,50.34074],[2.47015,50.34112]]]]}},{"type":"Feature","properties":{"k":"CHV","s":1.046},"geometry":{"type":"Polygon","coordinates":[[[2.47014,50.34113],[2.47327,50.34193],[2.4734,50.34165],[2.4685,50.34041],[2.47014,50.34113]]]}},{"type":"Feature","properties":{"k":"LBF","s":1.854},"geometry":{"type":"Polygon","coordinates":[[[2.4736,50.34126],[2.46785,50.33981],[2.4685,50.34041],[2.47336,50.34164],[2.4736,50.34126]]]}},{"type":"Feature","properties":{"k":"BTH","s":1.185},"geometry":{"type":"Polygon","coordinates":[[[2.47392,50.34071],[2.47361,50.34132],[2.47595,50.34145],[2.47624,50.34083],[2.47392,50.34071]]]}},{"type":"Feature","properties":{"k":"LUZ","s":3.313},"geometry":{"type":"Polygon","coordinates":[[[2.47287,50.34285],[2.47432,50.34338],[2.47524,50.34294],[2.47595,50.34145],[2.47364,50.34134],[2.47287,50.34285]]]}},{"type":"Feature","properties":{"k":"BFS","s":0.002},"geometry":{"type":"Polygon","coordinates":[[[2.47414,50.34334],[2.47407,50.34342],[2.4741,50.34343],[2.47414,50.34334]]]}},{"type":"Feature","properties":{"k":"LIF","s":0.097},"geometry":{"type":"MultiPolygon","coordinates":[[[[2.47286,50.34285],[2.47279,50.34292],[2.47396,50.34338],[2.47403,50.3433],[2.47286,50.34285]]]]}},{"type":"Feature","properties":{"k":"LUZ","s":2.41},"geometry":{"type":"Polygon","coordinates":[[[2.4704,50.34154],[2.47006,50.34146],[2.46994,50.34176],[2.47034,50.3426],[2.47243,50.34324],[2.47313,50.34224],[2.4704,50.34154]]]}},{"type":"Feature","properties":{"k":"PPH","s":0.002},"geometry":{"type":"Polygon","coordinates":[[[2.47036,50.34263],[2.47037,50.34264],[2.47085,50.34277],[2.47036,50.34263]]]}},{"type":"Feature","properties":{"k":"BTH","s":0.544},"geometry":{"type":"Polygon","coordinates":[[[2.4646,50.33567],[2.46523,50.33915],[2.46495,50.33554],[2.4646,50.33567]]]}},{"type":"Feature","properties":{"k":"BTH","s":3.172},"geometry":{"type":"Polygon","coordinates":[[[2.46495,50.33549],[2.46523,50.33915],[2.46626,50.33933],[2.46594,50.33512],[2.46495,50.33549]]]}},{"type":"Feature","properties":{"k":"PHI","s":0.915},"geometry":{"type":"Polygon","coordinates":[[[2.46716,50.33871],[2.46858,50.33906],[2.46892,50.3384],[2.46712,50.33808],[2.46716,50.33871]]]}},{"type":"Feature","properties":{"k":"BTH","s":3.171},"geometry":{"type":"Polygon","coordinates":[[[2.46626,50.33933],[2.46716,50.33949],[2.46674,50.33467],[2.46594,50.33512],[2.46626,50.33933]]]}},{"type":"Feature","properties":{"k":"BTH","s":1.656},"geometry":{"type":"Polygon","coordinates":[[[2.46816,50.33601],[2.46805,50.33378],[2.46689,50.33459],[2.46697,50.33579],[2.46816,50.33601]]]}},{"type":"Feature","properties":{"k":"BTN","s":5.544},"geometry":{"type":"Polygon","coordinates":[[[2.46645,50.33477],[2.46864,50.33337],[2.46643,50.33282],[2.46459,50.33255],[2.46305,50.33411],[2.46645,50.33477]]]}},{"type":"Feature","properties":{"k":"PTC","s":1.657},"geometry":{"type":"Polygon","coordinates":[[[2.45903,50.33334],[2.46304,50.33411],[2.46348,50.33366],[2.45944,50.33291],[2.45903,50.33334]]]}},{"type":"Feature","properties":{"k":"MIS","s":1.647},"geometry":{"type":"Polygon","coordinates":[[[2.45944,50.33291],[2.46348,50.33366],[2.46391,50.33321],[2.45985,50.33249],[2.45944,50.33291]]]}},{"type":"Feature","properties":{"k":"PTC","s":0.212},"geometry":{"type":"Polygon","coordinates":[[[2.46043,50.33207],[2.46385,50.33252],[2.46388,50.33245],[2.46043,50.33207]]]}},{"type":"Feature","properties":{"k":"MIS","s":1.987},"geometry":{"type":"Polygon","coordinates":[[[2.46034,50.33199],[2.45985,50.33249],[2.46391,50.33321],[2.46456,50.33254],[2.46034,50.33199]]]}},{"type":"Feature","properties":{"k":"MIS","s":0.371},"geometry":{"type":"Polygon","coordinates":[[[2.45909,50.33113],[2.46014,50.3319],[2.46048,50.33197],[2.46055,50.33183],[2.45923,50.33085],[2.45909,50.33113]]]}},{"type":"Feature","properties":{"k":"LIF","s":0.001},"geometry":{"type":"Polygon","coordinates":[[[2.45883,50.33047],[2.45868,50.33057],[2.4588,50.33051],[2.45883,50.33047]]]}},{"type":"Feature","properties":{"k":"JAC","s":0.489},"geometry":{"type":"Polygon","coordinates":[[[2.45893,50.33044],[2.45848,50.33072],[2.45909,50.33113],[2.45958,50.33011],[2.45882,50.3299],[2.45893,50.33044]]]}},{"type":"Feature","properties":{"k":"BTH","s":6.693},"geometry":{"type":"Polygon","coordinates":[[[2.46138,50.32634],[2.45923,50.33085],[2.46055,50.33183],[2.46294,50.32669],[2.46138,50.32634]]]}},{"type":"Feature","properties":{"k":"BTH","s":9.53},"geometry":{"type":"Polygon","coordinates":[[[2.46545,50.33263],[2.4679,50.32741],[2.46575,50.3271],[2.46329,50.33234],[2.46545,50.33263]]]}},{"type":"Feature","properties":{"k":"LIF","s":12.376},"geometry":{"type":"Polygon","coordinates":[[[2.46296,50.32669],[2.46048,50.33197],[2.46263,50.33225],[2.46269,50.33212],[2.46335,50.33221],[2.46569,50.32709],[2.46296,50.32669]]]}},{"type":"Feature","properties":{"k":"BTH","s":6.05},"geometry":{"type":"Polygon","coordinates":[[[2.46892,50.33334],[2.47068,50.333],[2.4713,50.33229],[2.4662,50.33103],[2.46545,50.33262],[2.46892,50.33334]]]}},{"type":"Feature","properties":{"k":"BTH","s":3.025},"geometry":{"type":"Polygon","coordinates":[[[2.4679,50.32741],[2.4667,50.32997],[2.46797,50.33029],[2.46929,50.32751],[2.4679,50.32741]]]}},{"type":"Feature","properties":{"k":"PHF","s":13.271},"geometry":{"type":"Polygon","coordinates":[[[2.47538,50.32793],[2.47565,50.32731],[2.47169,50.32772],[2.47081,50.32769],[2.47062,50.328],[2.46992,50.32791],[2.47005,50.32759],[2.46929,50.32751],[2.46811,50.32999],[2.47243,50.33105],[2.47538,50.32793]]]}},{"type":"Feature","properties":{"k":"LUZ","s":2.16},"geometry":{"type":"Polygon","coordinates":[[[2.47149,50.3322],[2.47202,50.33256],[2.47478,50.32977],[2.47412,50.32932],[2.47222,50.3314],[2.47254,50.33151],[2.47222,50.33187],[2.4719,50.33176],[2.47149,50.3322]]]}},{"type":"Feature","properties":{"k":"MIS","s":0.808},"geometry":{"type":"Polygon","coordinates":[[[2.47512,50.33127],[2.47635,50.33082],[2.4757,50.33041],[2.47404,50.33098],[2.47364,50.33141],[2.47484,50.33101],[2.47512,50.33127]]]}}]}