{"type":"FeatureCollection","features":[{"type":"Feature","properties":{"k":"BTH","s":7.685},"geometry":{"type":"Polygon","coordinates":[[[2.27552,50.51166],[2.27274,50.51077],[2.27154,50.51014],[2.27034,50.5113],[2.27449,50.51374],[2.27645,50.51231],[2.27552,50.51166]]]}},{"type":"Feature","properties":{"k":"LIF","s":4.113},"geometry":{"type":"Polygon","coordinates":[[[2.27355,50.51444],[2.2745,50.51374],[2.27036,50.51132],[2.26945,50.51206],[2.27355,50.51444]]]}},{"type":"Feature","properties":{"k":"ORH","s":1.156},"geometry":{"type":"Polygon","coordinates":[[[2.26556,50.51166],[2.26518,50.51205],[2.2679,50.51306],[2.26835,50.51272],[2.26556,50.51166]]]}},{"type":"Feature","properties":{"k":"ORH","s":3.392},"geometry":{"type":"Polygon","coordinates":[[[2.26464,50.51185],[2.2644,50.51211],[2.26362,50.51185],[2.26328,50.51232],[2.26503,50.51289],[2.26466,50.51323],[2.26658,50.51401],[2.26789,50.51306],[2.26464,50.51185]]]}},{"type":"Feature","properties":{"k":"ORH","s":0.234},"geometry":{"type":"Polygon","coordinates":[[[2.26464,50.51185],[2.26517,50.51205],[2.26556,50.51166],[2.26497,50.51145],[2.26464,50.51185]]]}},{"type":"Feature","properties":{"k":"PPH","s":1.288},"geometry":{"type":"Polygon","coordinates":[[[2.26601,50.51005],[2.26664,50.50922],[2.26608,50.50905],[2.26647,50.50845],[2.26593,50.50834],[2.26474,50.50967],[2.26601,50.51005]]]}},{"type":"Feature","properties":{"k":"BTH","s":2.351},"geometry":{"type":"Polygon","coordinates":[[[2.26996,50.51065],[2.27097,50.50983],[2.26841,50.50902],[2.26799,50.50962],[2.26668,50.50923],[2.26655,50.50942],[2.26996,50.51065]]]}},{"type":"Feature","properties":{"k":"BTN","s":8.03},"geometry":{"type":"Polygon","coordinates":[[[2.26995,50.51067],[2.26653,50.50942],[2.26575,50.51041],[2.26622,50.51058],[2.26533,50.51157],[2.26835,50.51272],[2.27117,50.51048],[2.27122,50.50994],[2.27098,50.50982],[2.26995,50.51067]]]}},{"type":"Feature","properties":{"k":"BTH","s":1.304},"geometry":{"type":"Polygon","coordinates":[[[2.27141,50.50996],[2.271,50.50933],[2.27101,50.50882],[2.27048,50.50899],[2.27118,50.50825],[2.2707,50.50787],[2.26946,50.50926],[2.27141,50.50996]]]}},{"type":"Feature","properties":{"k":"LIF","s":0.008},"geometry":{"type":"Polygon","coordinates":[[[2.27018,50.50744],[2.26997,50.50728],[2.26978,50.5072],[2.27018,50.50744]]]}},{"type":"Feature","properties":{"k":"BTH","s":2.449},"geometry":{"type":"Polygon","coordinates":[[[2.2694,50.50708],[2.26791,50.50877],[2.26945,50.50926],[2.27069,50.50787],[2.2694,50.50708]]]}},{"type":"Feature","properties":{"k":"PTC","s":1.165},"geometry":{"type":"Polygon","coordinates":[[[2.26725,50.50857],[2.26791,50.50877],[2.26941,50.50707],[2.26882,50.50678],[2.26725,50.50857]]]}},{"type":"Feature","properties":{"k":"MIS","s":1.055},"geometry":{"type":"Polygon","coordinates":[[[2.26799,50.50961],[2.26841,50.50902],[2.26653,50.50845],[2.26617,50.50905],[2.26799,50.50961]]]}},{"type":"Feature","properties":{"k":"PPH","s":1.551},"geometry":{"type":"Polygon","coordinates":[[[2.26729,50.50751],[2.26617,50.50683],[2.26459,50.50806],[2.2661,50.5083],[2.26729,50.50751]]]}},{"type":"Feature","properties":{"k":"PPH","s":1.992},"geometry":{"type":"Polygon","coordinates":[[[2.26351,50.50791],[2.26398,50.50754],[2.26436,50.5077],[2.26402,50.50797],[2.26459,50.50805],[2.26617,50.50683],[2.26508,50.50614],[2.26309,50.50784],[2.26351,50.50791]]]}},{"type":"Feature","properties":{"k":"BTH","s":5.926},"geometry":{"type":"Polygon","coordinates":[[[2.26569,50.50466],[2.2645,50.5039],[2.26426,50.50415],[2.26556,50.50501],[2.26489,50.50546],[2.26469,50.50534],[2.26441,50.50553],[2.26729,50.50751],[2.26617,50.50828],[2.26725,50.50857],[2.26882,50.50678],[2.26688,50.50569],[2.2668,50.50473],[2.26621,50.50432],[2.26569,50.50466]]]}},{"type":"Feature","properties":{"k":"MIS","s":0.007},"geometry":{"type":"Polygon","coordinates":[[[2.26496,50.50327],[2.26433,50.50288],[2.26477,50.50318],[2.26496,50.50327]]]}},{"type":"Feature","properties":{"k":"MIS","s":0.789},"geometry":{"type":"Polygon","coordinates":[[[2.26569,50.50466],[2.26629,50.50427],[2.26508,50.50335],[2.2645,50.5039],[2.26569,50.50466]]]}},{"type":"Feature","properties":{"k":"PPH","s":6.765},"geometry":{"type":"Polygon","coordinates":[[[2.26106,50.50141],[2.25931,50.50224],[2.2608,50.5026],[2.26054,50.50298],[2.2611,50.5032],[2.2609,50.50354],[2.26048,50.50345],[2.2602,50.50415],[2.26175,50.50451],[2.26186,50.50554],[2.26238,50.5057],[2.26419,50.50414],[2.26285,50.50308],[2.26148,50.50276],[2.26245,50.50206],[2.26106,50.50141]]]}},{"type":"Feature","properties":{"k":"PPH","s":0.923},"geometry":{"type":"Polygon","coordinates":[[[2.25896,50.5042],[2.26179,50.50488],[2.26172,50.50451],[2.25876,50.50379],[2.25896,50.5042]]]}},{"type":"Feature","properties":{"k":"PPH","s":1.848},"geometry":{"type":"Polygon","coordinates":[[[2.26366,50.50244],[2.26366,50.50105],[2.26284,50.50053],[2.26157,50.50158],[2.26366,50.50244]]]}},{"type":"Feature","properties":{"k":"MIS","s":2.213},"geometry":{"type":"Polygon","coordinates":[[[2.26285,50.50308],[2.26419,50.50414],[2.26498,50.5033],[2.26364,50.50246],[2.26245,50.50206],[2.26148,50.50276],[2.26285,50.50308]]]}},{"type":"Feature","properties":{"k":"BTH","s":0.39},"geometry":{"type":"Polygon","coordinates":[[[2.26284,50.50052],[2.26257,50.50033],[2.26208,50.50089],[2.26106,50.50141],[2.26156,50.50158],[2.26284,50.50052]]]}},{"type":"Feature","properties":{"k":"BTH","s":0.003},"geometry":{"type":"Polygon","coordinates":[[[2.26276,50.50043],[2.26299,50.50057],[2.26262,50.50033],[2.26276,50.50043]]]}},{"type":"Feature","properties":{"k":"BTH","s":0.005},"geometry":{"type":"MultiPolygon","coordinates":[[[[2.26325,50.49904],[2.26313,50.49921],[2.26337,50.49893],[2.26325,50.49904]]],[[[2.26262,50.50014],[2.26277,50.49978],[2.2626,50.50013],[2.26262,50.50014]]]]}},{"type":"Feature","properties":{"k":"LIF","s":2.135},"geometry":{"type":"Polygon","coordinates":[[[2.26324,50.49904],[2.26444,50.49805],[2.26296,50.49728],[2.26135,50.49841],[2.26324,50.49904]]]}},{"type":"Feature","properties":{"k":"PPH","s":1.08},"geometry":{"type":"Polygon","coordinates":[[[2.26148,50.49883],[2.2626,50.50013],[2.26322,50.49904],[2.26137,50.49842],[2.26114,50.4986],[2.26148,50.49883]]]}},{"type":"Feature","properties":{"k":"BTH","s":2.232},"geometry":{"type":"Polygon","coordinates":[[[2.26119,50.49872],[2.26044,50.49845],[2.26019,50.4985],[2.2596,50.49966],[2.26243,50.50037],[2.26249,50.50016],[2.26119,50.49872]]]}},{"type":"Feature","properties":{"k":"PPH","s":3.715},"geometry":{"type":"Polygon","coordinates":[[[2.25759,50.4972],[2.25755,50.49734],[2.25719,50.49735],[2.25711,50.49803],[2.25768,50.49808],[2.25767,50.49819],[2.25838,50.49801],[2.25846,50.49816],[2.25889,50.49804],[2.259,50.49818],[2.25811,50.4985],[2.25825,50.49865],[2.25776,50.49879],[2.25801,50.4991],[2.25901,50.49902],[2.25858,50.4997],[2.25862,50.5004],[2.25897,50.50049],[2.26051,50.49787],[2.25759,50.4972]]]}},{"type":"Feature","properties":{"k":"PPH","s":1.188},"geometry":{"type":"Polygon","coordinates":[[[2.25962,50.49968],[2.25937,50.50014],[2.26209,50.50085],[2.26245,50.50038],[2.25962,50.49968]]]}},{"type":"Feature","properties":{"k":"PPH","s":1.694},"geometry":{"type":"Polygon","coordinates":[[[2.2591,50.50119],[2.25924,50.5009],[2.26098,50.50141],[2.26208,50.50085],[2.25936,50.50016],[2.25858,50.50106],[2.2591,50.50119]]]}},{"type":"Feature","properties":{"k":"PPH","s":0.203},"geometry":{"type":"Polygon","coordinates":[[[2.25773,50.50077],[2.25677,50.50035],[2.25657,50.5006],[2.25752,50.50093],[2.25773,50.50077]]]}},{"type":"Feature","properties":{"k":"PPH","s":1.191},"geometry":{"type":"Polygon","coordinates":[[[2.25798,50.50114],[2.25688,50.50071],[2.25674,50.50089],[2.25566,50.50051],[2.25539,50.50121],[2.25641,50.50155],[2.25655,50.50144],[2.25799,50.50137],[2.25798,50.50114]]]}},{"type":"Feature","properties":{"k":"PPH","s":1.389},"geometry":{"type":"Polygon","coordinates":[[[2.25784,50.50077],[2.2576,50.50002],[2.25723,50.49952],[2.25655,50.49919],[2.25614,50.49952],[2.25668,50.49977],[2.25653,50.49988],[2.256,50.49964],[2.25564,50.50023],[2.25654,50.50056],[2.25675,50.50031],[2.25784,50.50077]]]}},{"type":"Feature","properties":{"k":"PPH","s":0.515},"geometry":{"type":"Polygon","coordinates":[[[2.25557,50.49935],[2.25599,50.49955],[2.25682,50.49887],[2.25695,50.49842],[2.25634,50.49846],[2.25636,50.49863],[2.25557,50.49935]]]}},{"type":"Feature","properties":{"k":"PPH","s":7.194},"geometry":{"type":"Polygon","coordinates":[[[2.25493,50.4981],[2.25428,50.49865],[2.25501,50.4998],[2.25632,50.4987],[2.25636,50.49846],[2.25695,50.49841],[2.2565,50.49788],[2.25608,50.49785],[2.25611,50.49765],[2.2565,50.49765],[2.25628,50.4975],[2.25645,50.49705],[2.25702,50.4971],[2.25671,50.49588],[2.25506,50.49536],[2.25276,50.49732],[2.25493,50.4981]],[[2.25616,50.49809],[2.25605,50.49842],[2.25564,50.49823],[2.25594,50.49805],[2.25616,50.49809]]]}},{"type":"Feature","properties":{"k":"PPH","s":1.615},"geometry":{"type":"Polygon","coordinates":[[[2.25493,50.4981],[2.25276,50.49732],[2.25185,50.49779],[2.25407,50.49874],[2.25493,50.4981]]]}},{"type":"Feature","properties":{"k":"PPH","s":0.131},"geometry":{"type":"Polygon","coordinates":[[[2.25664,50.50183],[2.25627,50.50171],[2.25637,50.50158],[2.25585,50.50162],[2.25576,50.50176],[2.25655,50.50196],[2.25664,50.50183]]]}},{"type":"Feature","properties":{"k":"PPH","s":0.496},"geometry":{"type":"Polygon","coordinates":[[[2.25634,50.50172],[2.2573,50.50204],[2.258,50.50139],[2.25655,50.50144],[2.25634,50.50172]]]}},{"type":"Feature","properties":{"k":"PPH","s":1.836},"geometry":{"type":"Polygon","coordinates":[[[2.25688,50.504],[2.25788,50.50325],[2.25746,50.50313],[2.25771,50.50262],[2.25822,50.50249],[2.25802,50.50138],[2.25596,50.5036],[2.25688,50.504]]]}},{"type":"Feature","properties":{"k":"PPH","s":0.059},"geometry":{"type":"Polygon","coordinates":[[[2.25557,50.50426],[2.25573,50.50411],[2.25535,50.50398],[2.25521,50.50412],[2.25557,50.50426]]]}},{"type":"Feature","properties":{"k":"PPH","s":0.227},"geometry":{"type":"Polygon","coordinates":[[[2.25533,50.50448],[2.25586,50.50438],[2.25587,50.50471],[2.25646,50.50437],[2.2558,50.50408],[2.25533,50.50448]]]}},{"type":"Feature","properties":{"k":"BOR","s":0.002},"geometry":{"type":"Polygon","coordinates":[[[2.25295,50.50423],[2.25302,50.50416],[2.25281,50.50416],[2.25295,50.50423]]]}},{"type":"Feature","properties":{"k":"PPH","s":0.446},"geometry":{"type":"Polygon","coordinates":[[[2.25343,50.5039],[2.25287,50.50373],[2.25244,50.50369],[2.25222,50.50394],[2.2521,50.50407],[2.25282,50.50448],[2.25347,50.50426],[2.25364,50.50432],[2.2539,50.50413],[2.25343,50.5039]],[[2.2524,50.50376],[2.25253,50.50381],[2.25222,50.50394],[2.2524,50.50376]],[[2.25288,50.50391],[2.25302,50.50381],[2.25315,50.50388],[2.25288,50.50391]],[[2.25315,50.50393],[2.25328,50.50398],[2.25325,50.50401],[2.25315,50.50393]],[[2.25274,50.50433],[2.25238,50.50411],[2.25241,50.50397],[2.25272,50.50389],[2.25306,50.50418],[2.25274,50.50433]],[[2.25284,50.50441],[2.25276,50.50434],[2.25305,50.50421],[2.25316,50.50429],[2.25284,50.50441]]]}},{"type":"Feature","properties":{"k":"VRG","s":0.018},"geometry":{"type":"Polygon","coordinates":[[[2.25302,50.50381],[2.25288,50.50391],[2.25301,50.50398],[2.25302,50.50381]]]}},{"type":"Feature","properties":{"k":"PRU","s":0.005},"geometry":{"type":"Polygon","coordinates":[[[2.25328,50.50398],[2.25315,50.50393],[2.25312,50.50397],[2.25328,50.50398]]]}},{"type":"Feature","properties":{"k":"NOX","s":0.023},"geometry":{"type":"Polygon","coordinates":[[[2.2524,50.50376],[2.25222,50.50394],[2.25234,50.50397],[2.25253,50.50381],[2.2524,50.50376]]]}},{"type":"Feature","properties":{"k":"BOR","s":0.005},"geometry":{"type":"Polygon","coordinates":[]}},{"type":"Feature","properties":{"k":"MDI","s":0.112},"geometry":{"type":"Polygon","coordinates":[[[2.25272,50.50389],[2.25256,50.50392],[2.25255,50.50392],[2.25253,50.50399],[2.25241,50.50397],[2.25238,50.50411],[2.2524,50.50412],[2.25258,50.50421],[2.25257,50.50422],[2.25274,50.50433],[2.25278,50.50431],[2.25296,50.50423],[2.25305,50.50419],[2.25306,50.50418],[2.25272,50.50389]],[[2.25275,50.50425],[2.25277,50.50424],[2.25278,50.50431],[2.25275,50.50425]],[[2.25276,50.50405],[2.25267,50.50404],[2.25253,50.50401],[2.25276,50.50405]],[[2.25271,50.50407],[2.25278,50.50413],[2.2527,50.50423],[2.25252,50.50412],[2.25267,50.50404],[2.25271,50.50407]],[[2.25289,50.5042],[2.25282,50.50418],[2.2528,50.50416],[2.25282,50.50417],[2.25288,50.50419],[2.253,50.50416],[2.25289,50.5042]]]}},{"type":"Feature","properties":{"k":"BOR","s":0.009},"geometry":{"type":"Polygon","coordinates":[[[2.25273,50.50414],[2.25263,50.50426],[2.25265,50.50427],[2.25278,50.50413],[2.25267,50.50408],[2.25276,50.50405],[2.25254,50.504],[2.25273,50.50414]]]}},{"type":"Feature","properties":{"k":"PWT","s":0.002},"geometry":{"type":"Polygon","coordinates":[[[2.25241,50.50412],[2.25257,50.50422],[2.25258,50.50421],[2.25241,50.50412]]]}},{"type":"Feature","properties":{"k":"PPH","s":0.33},"geometry":{"type":"Polygon","coordinates":[[[2.25172,50.50463],[2.25146,50.50495],[2.25282,50.50448],[2.2521,50.50407],[2.25172,50.50463]],[[2.25188,50.50469],[2.25187,50.50454],[2.25198,50.5047],[2.25175,50.50475],[2.25188,50.50469]]]}},{"type":"Feature","properties":{"k":"BOR","s":0.001},"geometry":{"type":"Polygon","coordinates":[[[2.25275,50.50425],[2.25278,50.50431],[2.2528,50.5043],[2.25275,50.50425]]]}},{"type":"Feature","properties":{"k":"NOX","s":0.028},"geometry":{"type":"Polygon","coordinates":[[[2.25305,50.50421],[2.25276,50.50434],[2.25284,50.50441],[2.25316,50.50429],[2.25305,50.50421]]]}},{"type":"Feature","properties":{"k":"PPH","s":2.524},"geometry":{"type":"Polygon","coordinates":[[[2.25459,50.50488],[2.25437,50.50475],[2.25482,50.50438],[2.25464,50.5043],[2.25404,50.50478],[2.25369,50.50458],[2.25355,50.50466],[2.25324,50.50434],[2.25142,50.50497],[2.25135,50.5052],[2.25205,50.50563],[2.25328,50.50611],[2.25459,50.50488]]]}},{"type":"Feature","properties":{"k":"PPH","s":0.443},"geometry":{"type":"Polygon","coordinates":[[[2.25367,50.50642],[2.25328,50.5062],[2.25235,50.50718],[2.25281,50.50732],[2.25367,50.50642]]]}},{"type":"Feature","properties":{"k":"MIS","s":2.061},"geometry":{"type":"Polygon","coordinates":[[[2.25242,50.50829],[2.25351,50.50702],[2.25424,50.50725],[2.25451,50.50688],[2.25367,50.50641],[2.25281,50.50732],[2.25236,50.50718],[2.25326,50.5062],[2.25276,50.506],[2.25129,50.50789],[2.25242,50.50829]]]}},{"type":"Feature","properties":{"k":"PPH","s":0.67},"geometry":{"type":"MultiPolygon","coordinates":[[[[2.255,50.50888],[2.25491,50.50905],[2.25539,50.5094],[2.25677,50.50988],[2.25702,50.50942],[2.255,50.50888]]]]}},{"type":"Feature","properties":{"k":"MIS","s":1.902},"geometry":{"type":"Polygon","coordinates":[[[2.25474,50.509],[2.25496,50.50894],[2.25556,50.50748],[2.25469,50.50698],[2.25374,50.5083],[2.25359,50.50826],[2.25335,50.50855],[2.25474,50.509]]]}},{"type":"Feature","properties":{"k":"MIS","s":1.287},"geometry":{"type":"Polygon","coordinates":[[[2.25451,50.50688],[2.25424,50.50725],[2.25351,50.50702],[2.25243,50.5083],[2.2533,50.50862],[2.25467,50.50697],[2.25451,50.50688]]]}},{"type":"Feature","properties":{"k":"PPH","s":2.292},"geometry":{"type":"Polygon","coordinates":[[[2.25705,50.50939],[2.25729,50.50792],[2.2556,50.50748],[2.25502,50.50886],[2.25705,50.50939]]]}},{"type":"Feature","properties":{"k":"PPH","s":0.761},"geometry":{"type":"Polygon","coordinates":[[[2.25892,50.50836],[2.25743,50.50789],[2.25741,50.50809],[2.25827,50.50843],[2.25808,50.50868],[2.25736,50.50842],[2.2573,50.50877],[2.25835,50.50913],[2.25892,50.50836]]]}},{"type":"Feature","properties":{"k":"PPH","s":0.782},"geometry":{"type":"Polygon","coordinates":[[[2.25673,50.50736],[2.25757,50.50658],[2.25689,50.50632],[2.2564,50.50671],[2.25612,50.50663],[2.25582,50.50718],[2.25673,50.50736]]]}},{"type":"Feature","properties":{"k":"PPH","s":2.379},"geometry":{"type":"Polygon","coordinates":[[[2.25558,50.50744],[2.25607,50.50661],[2.2564,50.50671],[2.25751,50.50582],[2.25663,50.50552],[2.25561,50.50642],[2.25432,50.50599],[2.25377,50.50562],[2.25329,50.50615],[2.25558,50.50744]]]}},{"type":"Feature","properties":{"k":"PPH","s":0.698},"geometry":{"type":"Polygon","coordinates":[[[2.25611,50.50525],[2.25488,50.50621],[2.25561,50.50642],[2.25662,50.50551],[2.25611,50.50525]]]}},{"type":"Feature","properties":{"k":"PPH","s":0.219},"geometry":{"type":"Polygon","coordinates":[[[2.2598,50.50565],[2.25973,50.50575],[2.2601,50.50542],[2.25911,50.50507],[2.25902,50.50522],[2.25883,50.50518],[2.2598,50.50565]]]}},{"type":"Feature","properties":{"k":"PPH","s":0.469},"geometry":{"type":"Polygon","coordinates":[[[2.25821,50.5071],[2.25897,50.50734],[2.25916,50.50713],[2.25891,50.50705],[2.25929,50.50653],[2.25894,50.50639],[2.25879,50.50663],[2.25838,50.50648],[2.25823,50.50677],[2.25843,50.50688],[2.25821,50.5071]]]}},{"type":"Feature","properties":{"k":"PPH","s":0.303},"geometry":{"type":"Polygon","coordinates":[[[2.25911,50.50621],[2.2593,50.50629],[2.2592,50.50641],[2.26003,50.50673],[2.26022,50.50645],[2.25909,50.506],[2.25887,50.50627],[2.25911,50.50621]]]}},{"type":"Feature","properties":{"k":"PPH","s":1.414},"geometry":{"type":"Polygon","coordinates":[[[2.26033,50.50683],[2.26122,50.50718],[2.26185,50.50542],[2.2618,50.50489],[2.26091,50.50473],[2.26072,50.50549],[2.26131,50.50566],[2.26033,50.50683]]]}},{"type":"Feature","properties":{"k":"PPH","s":0.533},"geometry":{"type":"Polygon","coordinates":[[[2.25946,50.50614],[2.26023,50.50645],[2.26068,50.50563],[2.2601,50.50542],[2.25946,50.50614]]]}},{"type":"Feature","properties":{"k":"PPH","s":1.051},"geometry":{"type":"Polygon","coordinates":[[[2.26066,50.50562],[2.26029,50.50631],[2.26074,50.50646],[2.26129,50.50566],[2.26069,50.5055],[2.26082,50.50514],[2.25886,50.50458],[2.25877,50.50496],[2.26066,50.50562]]]}},{"type":"Feature","properties":{"k":"PPH","s":5.099},"geometry":{"type":"Polygon","coordinates":[[[2.26267,50.50772],[2.26309,50.50784],[2.26508,50.50614],[2.26439,50.50553],[2.2647,50.50533],[2.2649,50.50545],[2.26555,50.505],[2.26425,50.50416],[2.26259,50.50568],[2.26256,50.50613],[2.26172,50.507],[2.26232,50.50732],[2.26209,50.50754],[2.26244,50.50765],[2.26277,50.50734],[2.26289,50.50745],[2.26267,50.50772]],[[2.26238,50.50678],[2.26228,50.50674],[2.26235,50.50668],[2.26238,50.50678]]]}},{"type":"Feature","properties":{"k":"PPH","s":0.06},"geometry":{"type":"Polygon","coordinates":[[[2.26277,50.50734],[2.26244,50.50765],[2.26267,50.50772],[2.26289,50.50745],[2.26277,50.50734]]]}},{"type":"Feature","properties":{"k":"PPH","s":2.057},"geometry":{"type":"Polygon","coordinates":[[[2.2631,50.50923],[2.26472,50.50968],[2.26592,50.50832],[2.26397,50.50804],[2.2631,50.50923]]]}},{"type":"Feature","properties":{"k":"PPH","s":0.567},"geometry":{"type":"Polygon","coordinates":[[[2.26128,50.50774],[2.26135,50.50757],[2.26114,50.50752],[2.26107,50.50795],[2.26048,50.50785],[2.25991,50.50869],[2.26062,50.50881],[2.26128,50.50774]]]}},{"type":"Feature","properties":{"k":"PPH","s":2.208},"geometry":{"type":"Polygon","coordinates":[[[2.26039,50.50694],[2.26004,50.50681],[2.25965,50.50766],[2.25778,50.50704],[2.25819,50.50728],[2.25777,50.50784],[2.25985,50.50876],[2.26078,50.50742],[2.26015,50.50722],[2.26039,50.50694]]]}},{"type":"Feature","properties":{"k":"PPH","s":3.002},"geometry":{"type":"MultiPolygon","coordinates":[[[[2.25972,50.51107],[2.25967,50.51161],[2.2597,50.51138],[2.25972,50.51107]]],[[[2.26012,50.50992],[2.25923,50.50968],[2.25981,50.50878],[2.25892,50.5084],[2.25835,50.50913],[2.2573,50.50877],[2.2569,50.50992],[2.25872,50.51055],[2.25901,50.51009],[2.25978,50.51047],[2.26012,50.50992]]]]}},{"type":"Feature","properties":{"k":"PPH","s":0.788},"geometry":{"type":"Polygon","coordinates":[[[2.26018,50.50991],[2.26081,50.50889],[2.25993,50.50872],[2.25929,50.50966],[2.26018,50.50991]]]}},{"type":"Feature","properties":{"k":"PPH","s":1.604},"geometry":{"type":"Polygon","coordinates":[[[2.26576,50.5104],[2.26603,50.51006],[2.2631,50.50923],[2.26325,50.50906],[2.26302,50.509],[2.26333,50.50852],[2.26311,50.50845],[2.26284,50.50877],[2.26258,50.50869],[2.26289,50.50817],[2.26268,50.50816],[2.26254,50.50835],[2.26238,50.50828],[2.26181,50.50916],[2.26576,50.5104]],[[2.26276,50.50901],[2.26261,50.50924],[2.2624,50.5092],[2.26257,50.50894],[2.26276,50.50901]]]}},{"type":"Feature","properties":{"k":"MIS","s":1.981},"geometry":{"type":"Polygon","coordinates":[[[2.26204,50.50977],[2.26546,50.51086],[2.26497,50.51145],[2.26534,50.51157],[2.26622,50.51058],[2.26227,50.50927],[2.26204,50.50977]]]}},{"type":"Feature","properties":{"k":"PTC","s":11.074},"geometry":{"type":"Polygon","coordinates":[[[2.26362,50.51185],[2.26443,50.51211],[2.26546,50.51086],[2.26204,50.50977],[2.26153,50.51084],[2.25977,50.51061],[2.25967,50.51161],[2.26121,50.51192],[2.26075,50.5128],[2.26347,50.51361],[2.26579,50.51454],[2.26599,50.51445],[2.26657,50.51401],[2.26466,50.51323],[2.26503,50.51289],[2.26304,50.51225],[2.26329,50.51232],[2.26362,50.51185]]]}},{"type":"Feature","properties":{"k":"MIS","s":1.209},"geometry":{"type":"Polygon","coordinates":[[[2.25086,50.50735],[2.25119,50.50747],[2.25101,50.50782],[2.25149,50.50799],[2.25128,50.5079],[2.25275,50.506],[2.25205,50.50571],[2.25086,50.50735]]]}},{"type":"Feature","properties":{"k":"BTH","s":0.866},"geometry":{"type":"Polygon","coordinates":[[[2.25205,50.5057],[2.25162,50.50546],[2.25032,50.50716],[2.25086,50.50735],[2.25205,50.5057]]]}},{"type":"Feature","properties":{"k":"AVP","s":4.129},"geometry":{"type":"Polygon","coordinates":[[[2.24933,50.50457],[2.24777,50.50609],[2.25031,50.50715],[2.25135,50.50578],[2.2507,50.50546],[2.2511,50.50513],[2.24933,50.50457]]]}},{"type":"Feature","properties":{"k":"AVP","s":0.334},"geometry":{"type":"Polygon","coordinates":[[[2.24666,50.50594],[2.2488,50.50661],[2.24887,50.50651],[2.24684,50.50572],[2.24666,50.50594]]]}},{"type":"Feature","properties":{"k":"ORH","s":0.825},"geometry":{"type":"Polygon","coordinates":[[[2.24124,50.49929],[2.24181,50.49951],[2.24285,50.49806],[2.24232,50.49784],[2.24124,50.49929]]]}},{"type":"Feature","properties":{"k":"CZH","s":2.516},"geometry":{"type":"Polygon","coordinates":[[[2.24513,50.49868],[2.24334,50.49791],[2.24223,50.49966],[2.24288,50.49983],[2.24388,50.49978],[2.24513,50.49868]]]}},{"type":"Feature","properties":{"k":"MIS","s":0.674},"geometry":{"type":"Polygon","coordinates":[[[2.24283,50.4977],[2.24261,50.49796],[2.24285,50.49806],[2.24181,50.49951],[2.24223,50.49966],[2.24334,50.49791],[2.24283,50.4977]]]}},{"type":"Feature","properties":{"k":"MIS","s":1.501},"geometry":{"type":"Polygon","coordinates":[[[2.24527,50.50022],[2.24646,50.49925],[2.24513,50.49868],[2.24405,50.49978],[2.24527,50.50022]]]}},{"type":"Feature","properties":{"k":"BTH","s":7.828},"geometry":{"type":"Polygon","coordinates":[[[2.24671,50.50182],[2.24734,50.50111],[2.24417,50.49988],[2.24299,50.49988],[2.2422,50.4997],[2.24066,50.50126],[2.24227,50.50196],[2.24463,50.50175],[2.24671,50.50182]]]}},{"type":"Feature","properties":{"k":"BTH","s":0.254},"geometry":{"type":"Polygon","coordinates":[[[2.26056,50.51868],[2.26047,50.51888],[2.26187,50.51925],[2.26201,50.51906],[2.26056,50.51868]]]}},{"type":"Feature","properties":{"k":"BTH","s":4.274},"geometry":{"type":"Polygon","coordinates":[[[2.26358,50.51674],[2.26086,50.51576],[2.26071,50.51646],[2.26138,50.51694],[2.26057,50.51868],[2.26202,50.51906],[2.26358,50.51674]]]}},{"type":"Feature","properties":{"k":"LIF","s":1.901},"geometry":{"type":"Polygon","coordinates":[[[2.26403,50.51606],[2.26102,50.51499],[2.26086,50.51576],[2.26357,50.51674],[2.26403,50.51606]]]}},{"type":"Feature","properties":{"k":"BTH","s":1.923},"geometry":{"type":"Polygon","coordinates":[[[2.26403,50.51606],[2.26443,50.51543],[2.26117,50.51427],[2.26102,50.51498],[2.26403,50.51606]]]}},{"type":"Feature","properties":{"k":"MIS","s":4.363},"geometry":{"type":"Polygon","coordinates":[[[2.26347,50.51361],[2.26075,50.5128],[2.26059,50.51311],[2.26147,50.51332],[2.26117,50.51427],[2.26442,50.51543],[2.26486,50.51492],[2.26579,50.51454],[2.26347,50.51361]]]}},{"type":"Feature","properties":{"k":"BTH","s":4.991},"geometry":{"type":"Polygon","coordinates":[[[2.26478,50.5151],[2.2641,50.51606],[2.26841,50.5185],[2.26943,50.51773],[2.26478,50.5151]]]}},{"type":"Feature","properties":{"k":"PTR","s":1.501},"geometry":{"type":"Polygon","coordinates":[[[2.26493,50.51502],[2.26767,50.51663],[2.26819,50.51625],[2.26557,50.51469],[2.26493,50.51502]]]}},{"type":"Feature","properties":{"k":"MIS","s":2.745},"geometry":{"type":"Polygon","coordinates":[[[2.26667,50.51402],[2.26557,50.51469],[2.26819,50.51625],[2.2692,50.51551],[2.26667,50.51402]]]}},{"type":"Feature","properties":{"k":"PTC","s":8.194},"geometry":{"type":"Polygon","coordinates":[[[2.26767,50.51663],[2.27024,50.51813],[2.27328,50.51587],[2.27073,50.51437],[2.26767,50.51663]]]}},{"type":"Feature","properties":{"k":"MIS","s":4.002},"geometry":{"type":"Polygon","coordinates":[[[2.26667,50.51402],[2.26925,50.51547],[2.27073,50.51437],[2.26824,50.5129],[2.26667,50.51402]]]}},{"type":"Feature","properties":{"k":"BTN","s":5.018},"geometry":{"type":"Polygon","coordinates":[[[2.27235,50.51531],[2.27353,50.51445],[2.26944,50.51207],[2.26824,50.5129],[2.27235,50.51531]]]}},{"type":"Feature","properties":{"k":"BTH","s":8.363},"geometry":{"type":"Polygon","coordinates":[[[2.27798,50.51515],[2.27712,50.51482],[2.2751,50.5133],[2.27235,50.51532],[2.27546,50.51712],[2.27798,50.51515]]]}},{"type":"Feature","properties":{"k":"PTC","s":6.977},"geometry":{"type":"Polygon","coordinates":[[[2.27547,50.51713],[2.27328,50.51587],[2.27024,50.51813],[2.27232,50.51935],[2.27547,50.51713]]]}},{"type":"Feature","properties":{"k":"BTH","s":6.936},"geometry":{"type":"Polygon","coordinates":[[[2.26943,50.51773],[2.26608,50.52025],[2.26745,50.52057],[2.26967,50.52049],[2.27206,50.51926],[2.26943,50.51773]]]}},{"type":"Feature","properties":{"k":"PHF","s":10.678},"geometry":{"type":"Polygon","coordinates":[[[2.26841,50.5185],[2.2641,50.51606],[2.26234,50.51868],[2.2643,50.51983],[2.26608,50.52025],[2.26841,50.5185]]]}},{"type":"Feature","properties":{"k":"PTC","s":1.62},"geometry":{"type":"Polygon","coordinates":[[[2.24005,50.49983],[2.24136,50.50016],[2.24068,50.50074],[2.23998,50.50052],[2.23966,50.50092],[2.24065,50.50127],[2.2422,50.4997],[2.24067,50.49913],[2.24005,50.49983]]]}},{"type":"Feature","properties":{"k":"ORH","s":4.179},"geometry":{"type":"Polygon","coordinates":[[[2.24477,50.50244],[2.24256,50.50214],[2.24058,50.50133],[2.23989,50.50197],[2.24132,50.50307],[2.24222,50.50341],[2.24213,50.50354],[2.24435,50.50334],[2.24477,50.50244]]]}},{"type":"Feature","properties":{"k":"CZH","s":1.36},"geometry":{"type":"Polygon","coordinates":[[[2.24398,50.50465],[2.24437,50.50426],[2.24434,50.50335],[2.24202,50.50356],[2.24398,50.50465]]]}},{"type":"Feature","properties":{"k":"BTH","s":0.004},"geometry":{"type":"Polygon","coordinates":[[[2.24396,50.50468],[2.24398,50.50465],[2.2437,50.50452],[2.24396,50.50468]]]}},{"type":"Feature","properties":{"k":"CZH","s":0.485},"geometry":{"type":"Polygon","coordinates":[[[2.24445,50.50393],[2.24446,50.50422],[2.2461,50.50465],[2.24631,50.50428],[2.24445,50.50393]]]}},{"type":"Feature","properties":{"k":"BTH","s":1.546},"geometry":{"type":"Polygon","coordinates":[[[2.24597,50.50301],[2.24667,50.50194],[2.24589,50.50197],[2.24572,50.50224],[2.24544,50.50218],[2.24555,50.50199],[2.24478,50.50249],[2.24439,50.50337],[2.24566,50.50348],[2.24597,50.50301]]]}},{"type":"Feature","properties":{"k":"BTH","s":0.742},"geometry":{"type":"Polygon","coordinates":[[[2.24477,50.50244],[2.24555,50.50193],[2.24473,50.50184],[2.24252,50.50208],[2.24477,50.50244]]]}},{"type":"Feature","properties":{"k":"PPH","s":1.306},"geometry":{"type":"Polygon","coordinates":[[[2.24869,50.50237],[2.24756,50.50399],[2.24831,50.50421],[2.24971,50.50193],[2.24931,50.50182],[2.24897,50.50244],[2.24869,50.50237]]]}},{"type":"Feature","properties":{"k":"PPH","s":0.984},"geometry":{"type":"Polygon","coordinates":[[[2.24868,50.50235],[2.24815,50.50219],[2.24682,50.50375],[2.24754,50.50398],[2.24868,50.50235]]]}},{"type":"Feature","properties":{"k":"PPH","s":0.959},"geometry":{"type":"Polygon","coordinates":[[[2.24703,50.50252],[2.24758,50.50172],[2.24668,50.50194],[2.24568,50.50347],[2.24634,50.50353],[2.24703,50.50252]]]}},{"type":"Feature","properties":{"k":"BTH","s":4.272},"geometry":{"type":"Polygon","coordinates":[[[2.24445,50.50393],[2.24634,50.50427],[2.24601,50.50478],[2.24685,50.50516],[2.24652,50.50559],[2.24777,50.50609],[2.24931,50.50458],[2.24614,50.50355],[2.2444,50.50339],[2.24445,50.50393]]]}},{"type":"Feature","properties":{"k":"PPH","s":1.743},"geometry":{"type":"Polygon","coordinates":[[[2.24889,50.50376],[2.25042,50.50423],[2.25151,50.50306],[2.25052,50.50261],[2.25,50.50316],[2.24938,50.50298],[2.24889,50.50376]]]}},{"type":"Feature","properties":{"k":"VRG","s":0.013},"geometry":{"type":"Polygon","coordinates":[[[2.2519,50.50466],[2.25187,50.50454],[2.25175,50.50475],[2.2519,50.50466]]]}},{"type":"Feature","properties":{"k":"PPH","s":0.636},"geometry":{"type":"Polygon","coordinates":[[[2.25195,50.50363],[2.25078,50.50492],[2.25131,50.50521],[2.25229,50.50376],[2.25195,50.50363]]]}},{"type":"Feature","properties":{"k":"PPH","s":3.215},"geometry":{"type":"Polygon","coordinates":[[[2.24969,50.50302],[2.25044,50.50211],[2.24972,50.50193],[2.24834,50.50422],[2.25075,50.5049],[2.25288,50.50257],[2.25216,50.50248],[2.25044,50.50426],[2.24884,50.50377],[2.24936,50.50297],[2.24969,50.50302]]]}},{"type":"Feature","properties":{"k":"PPH","s":0.318},"geometry":{"type":"Polygon","coordinates":[[[2.25099,50.50143],[2.25155,50.5006],[2.25113,50.50043],[2.2506,50.50116],[2.25099,50.50143]]]}},{"type":"Feature","properties":{"k":"PPH","s":12.944},"geometry":{"type":"Polygon","coordinates":[[[2.25156,50.5023],[2.25235,50.50242],[2.25289,50.50161],[2.25265,50.50147],[2.25329,50.50035],[2.25031,50.49906],[2.2509,50.49847],[2.25321,50.49953],[2.25407,50.49874],[2.25184,50.4978],[2.25072,50.49852],[2.24654,50.49927],[2.24537,50.50026],[2.24799,50.50133],[2.24884,50.50088],[2.24916,50.50102],[2.24875,50.5016],[2.24975,50.50185],[2.25113,50.50042],[2.25156,50.50059],[2.25235,50.50055],[2.25208,50.50165],[2.25156,50.5023]]]}},{"type":"Feature","properties":{"k":"PPH","s":0.881},"geometry":{"type":"Polygon","coordinates":[[[2.25095,50.49557],[2.25051,50.49599],[2.25171,50.49614],[2.25253,50.49548],[2.2514,50.49513],[2.25095,50.49557]]]}},{"type":"Feature","properties":{"k":"PTC","s":2.873},"geometry":{"type":"Polygon","coordinates":[[[2.25339,50.4968],[2.25172,50.49617],[2.25048,50.49602],[2.24836,50.49524],[2.24778,50.4956],[2.25242,50.49742],[2.25339,50.4968]]]}},{"type":"Feature","properties":{"k":"BTH","s":3.285},"geometry":{"type":"Polygon","coordinates":[[[2.24704,50.49533],[2.24632,50.49582],[2.25162,50.49788],[2.25242,50.49742],[2.24704,50.49533]]]}},{"type":"Feature","properties":{"k":"MIS","s":14.774},"geometry":{"type":"MultiPolygon","coordinates":[[[[2.25161,50.49788],[2.24456,50.49514],[2.24271,50.49781],[2.24281,50.49769],[2.24646,50.49925],[2.25051,50.49852],[2.25161,50.49788]]]]}},{"type":"Feature","properties":{"k":"PTR","s":1.169},"geometry":{"type":"Polygon","coordinates":[[[2.24615,50.49501],[2.24487,50.49451],[2.24457,50.49514],[2.24632,50.49582],[2.24704,50.49533],[2.24615,50.49501]]]}},{"type":"Feature","properties":{"k":"PPH","s":3.537},"geometry":{"type":"Polygon","coordinates":[[[2.24776,50.49561],[2.24836,50.49524],[2.24855,50.49531],[2.2497,50.49403],[2.24734,50.49335],[2.24616,50.495],[2.24776,50.49561]]]}},{"type":"Feature","properties":{"k":"BTH","s":5.665},"geometry":{"type":"Polygon","coordinates":[[[2.25318,50.49395],[2.2513,50.49289],[2.24995,50.49372],[2.24857,50.49528],[2.25051,50.49599],[2.2514,50.49513],[2.25182,50.49525],[2.25318,50.49395]]]}},{"type":"Feature","properties":{"k":"PPH","s":0.061},"geometry":{"type":"MultiPolygon","coordinates":[[[[2.24951,50.49395],[2.25021,50.4936],[2.24943,50.49392],[2.24951,50.49395]]],[[[2.25113,50.49298],[2.25079,50.49321],[2.25114,50.49298],[2.25113,50.49298]]]]}},{"type":"Feature","properties":{"k":"JAC","s":0.001},"geometry":{"type":"Polygon","coordinates":[]}},{"type":"Feature","properties":{"k":"MIS","s":4.065},"geometry":{"type":"Polygon","coordinates":[[[2.24615,50.495],[2.24732,50.49334],[2.24709,50.49324],[2.24747,50.49278],[2.24706,50.49194],[2.24749,50.49139],[2.24701,50.49122],[2.24483,50.49385],[2.24487,50.49449],[2.24615,50.495]]]}},{"type":"Feature","properties":{"k":"ORH","s":0.0},"geometry":{"type":"Polygon","coordinates":[[[2.24378,50.49353],[2.24366,50.49348],[2.24375,50.49353],[2.24378,50.49353]]]}},{"type":"Feature","properties":{"k":"PTC","s":2.881},"geometry":{"type":"Polygon","coordinates":[[[2.24484,50.49383],[2.247,50.49122],[2.24622,50.49095],[2.24507,50.49203],[2.2433,50.4933],[2.24484,50.49383]]]}},{"type":"Feature","properties":{"k":"BTH","s":0.01},"geometry":{"type":"Polygon","coordinates":[[[2.24482,50.49401],[2.2448,50.49384],[2.24475,50.49471],[2.24482,50.49401]]]}},{"type":"Feature","properties":{"k":"BTH","s":1.008},"geometry":{"type":"Polygon","coordinates":[[[2.25185,50.49526],[2.25253,50.49548],[2.25391,50.49437],[2.25323,50.49398],[2.25185,50.49526]]]}},{"type":"Feature","properties":{"k":"BTH","s":3.24},"geometry":{"type":"Polygon","coordinates":[[[2.25171,50.49614],[2.25342,50.49677],[2.25539,50.49497],[2.25392,50.49436],[2.25171,50.49614]]]}},{"type":"Feature","properties":{"k":"PPH","s":0.575},"geometry":{"type":"Polygon","coordinates":[[[2.25654,50.49528],[2.25569,50.49505],[2.25541,50.49506],[2.25505,50.49535],[2.25671,50.49588],[2.25654,50.49528]]]}},{"type":"Feature","properties":{"k":"MIS","s":5.791},"geometry":{"type":"Polygon","coordinates":[[[2.25681,50.49535],[2.25719,50.49715],[2.25846,50.49726],[2.26054,50.49785],[2.26153,50.49666],[2.26171,50.49589],[2.25866,50.4959],[2.25681,50.49535]]]}},{"type":"Feature","properties":{"k":"LIF","s":5.304},"geometry":{"type":"Polygon","coordinates":[[[2.26323,50.49599],[2.26188,50.49588],[2.2616,50.49667],[2.26027,50.49837],[2.2611,50.49855],[2.26394,50.49658],[2.26592,50.4957],[2.26422,50.49473],[2.26323,50.49599]]]}},{"type":"Feature","properties":{"k":"LUZ","s":0.992},"geometry":{"type":"Polygon","coordinates":[[[2.26513,50.49757],[2.26371,50.49679],[2.26298,50.4973],[2.26443,50.49805],[2.26513,50.49757]]]}},{"type":"Feature","properties":{"k":"MLG","s":0.061},"geometry":{"type":"Polygon","coordinates":[[[2.26323,50.49599],[2.26376,50.49532],[2.26315,50.49595],[2.2628,50.49593],[2.26323,50.49599]]]}},{"type":"Feature","properties":{"k":"PPH","s":0.021},"geometry":{"type":"Polygon","coordinates":[[[2.26369,50.49529],[2.26376,50.49532],[2.26413,50.49479],[2.26369,50.49529]]]}},{"type":"Feature","properties":{"k":"PPH","s":0.263},"geometry":{"type":"MultiPolygon","coordinates":[[[[2.26612,50.49426],[2.26634,50.49418],[2.26558,50.49437],[2.26612,50.49426]]],[[[2.26658,50.49412],[2.26639,50.49417],[2.26666,50.49418],[2.26658,50.49412]]],[[[2.26822,50.49358],[2.26889,50.49417],[2.2692,50.49401],[2.26847,50.49344],[2.26767,50.4938],[2.26822,50.49358]]]]}},{"type":"Feature","properties":{"k":"PTR","s":0.41},"geometry":{"type":"Polygon","coordinates":[[[2.2672,50.49502],[2.26614,50.49427],[2.26567,50.49444],[2.26683,50.49521],[2.2672,50.49502]]]}},{"type":"Feature","properties":{"k":"TRE","s":0.508},"geometry":{"type":"Polygon","coordinates":[[[2.26771,50.49481],[2.26717,50.49509],[2.26811,50.4959],[2.26856,50.49571],[2.26771,50.49481]]]}},{"type":"Feature","properties":{"k":"PPH","s":1.045},"geometry":{"type":"Polygon","coordinates":[[[2.26534,50.4945],[2.26422,50.49473],[2.26592,50.4957],[2.26668,50.49531],[2.26534,50.4945]]]}},{"type":"Feature","properties":{"k":"MIS","s":1.418},"geometry":{"type":"Polygon","coordinates":[[[2.26623,50.497],[2.2674,50.4963],[2.26627,50.49556],[2.26489,50.49617],[2.26623,50.497]]]}},{"type":"Feature","properties":{"k":"MIS","s":1.357},"geometry":{"type":"Polygon","coordinates":[[[2.26513,50.49757],[2.26621,50.49702],[2.26487,50.49619],[2.26371,50.49679],[2.26513,50.49757]]]}},{"type":"Feature","properties":{"k":"TRE","s":0.837},"geometry":{"type":"Polygon","coordinates":[[[2.26806,50.49592],[2.26717,50.49509],[2.26627,50.49556],[2.2674,50.4963],[2.26806,50.49592]]]}},{"type":"Feature","properties":{"k":"PPH","s":0.003},"geometry":{"type":"MultiPolygon","coordinates":[[[[2.2686,50.49572],[2.26841,50.49579],[2.2687,50.49569],[2.2686,50.49572]]],[[[2.26748,50.49628],[2.26792,50.49601],[2.26772,50.49612],[2.26748,50.49628]]]]}},{"type":"Feature","properties":{"k":"PPH","s":0.341},"geometry":{"type":"MultiPolygon","coordinates":[[[[2.26941,50.49396],[2.27003,50.49523],[2.27037,50.49518],[2.26967,50.49382],[2.26941,50.49396]]],[[[2.26872,50.49569],[2.26903,50.49558],[2.26871,50.49568],[2.26872,50.49569]]]]}},{"type":"Feature","properties":{"k":"PPH","s":1.755},"geometry":{"type":"Polygon","coordinates":[[[2.27006,50.49522],[2.26941,50.49396],[2.26772,50.4948],[2.26857,50.49568],[2.27006,50.49522]]]}},{"type":"Feature","properties":{"k":"PTR","s":0.337},"geometry":{"type":"Polygon","coordinates":[[[2.26744,50.49395],[2.26817,50.49453],[2.26862,50.4943],[2.26793,50.49374],[2.26744,50.49395]]]}},{"type":"Feature","properties":{"k":"BTH","s":1.453},"geometry":{"type":"Polygon","coordinates":[[[2.26967,50.49382],[2.27037,50.49518],[2.27105,50.4951],[2.27088,50.49314],[2.26967,50.49382]]]}}]}