{"type":"FeatureCollection","features":[{"type":"Feature","properties":{"k":"PPH","s":4.582},"geometry":{"type":"Polygon","coordinates":[[[1.73318,50.67498],[1.7333,50.67569],[1.7347,50.67609],[1.73516,50.67673],[1.73597,50.67686],[1.73607,50.67661],[1.7373,50.67578],[1.7352,50.67488],[1.73522,50.6746],[1.73487,50.6744],[1.73545,50.67402],[1.73496,50.6736],[1.73318,50.67498]]]}},{"type":"Feature","properties":{"k":"PPH","s":0.585},"geometry":{"type":"Polygon","coordinates":[[[1.75395,50.67233],[1.75431,50.67232],[1.75436,50.67177],[1.7534,50.67186],[1.75288,50.67208],[1.75388,50.67276],[1.75395,50.67233]]]}},{"type":"Feature","properties":{"k":"BTP","s":1.362},"geometry":{"type":"Polygon","coordinates":[[[1.75184,50.67254],[1.7534,50.67186],[1.75304,50.67155],[1.75369,50.67147],[1.75347,50.67119],[1.75238,50.67142],[1.75099,50.67202],[1.7509,50.6721],[1.75184,50.67254]]]}},{"type":"Feature","properties":{"k":"MIS","s":4.377},"geometry":{"type":"Polygon","coordinates":[[[1.75596,50.67398],[1.7577,50.6739],[1.75732,50.6729],[1.75758,50.67141],[1.75446,50.67217],[1.75445,50.67267],[1.75596,50.67398]]]}},{"type":"Feature","properties":{"k":"PPH","s":1.052},"geometry":{"type":"Polygon","coordinates":[[[1.75532,50.67074],[1.75505,50.6709],[1.75587,50.67128],[1.75497,50.6716],[1.75471,50.67137],[1.75441,50.67137],[1.75443,50.67215],[1.75668,50.67165],[1.75532,50.67074]]]}},{"type":"Feature","properties":{"k":"SGH","s":8.479},"geometry":{"type":"Polygon","coordinates":[[[1.76065,50.67343],[1.76046,50.67305],[1.7599,50.67286],[1.7598,50.67266],[1.7603,50.67232],[1.761,50.67247],[1.76135,50.67175],[1.76128,50.6706],[1.76085,50.6705],[1.76047,50.6709],[1.76005,50.67081],[1.75989,50.67057],[1.7593,50.67069],[1.75987,50.67217],[1.75849,50.67207],[1.75838,50.67107],[1.75807,50.67049],[1.75785,50.67043],[1.75737,50.6729],[1.75791,50.67485],[1.75974,50.67463],[1.76065,50.67343]]]}},{"type":"Feature","properties":{"k":"PTR","s":0.687},"geometry":{"type":"Polygon","coordinates":[[[1.75598,50.67478],[1.75565,50.67394],[1.75476,50.67435],[1.75566,50.67527],[1.75598,50.67478]]]}},{"type":"Feature","properties":{"k":"PTR","s":0.691},"geometry":{"type":"Polygon","coordinates":[[[1.75442,50.67406],[1.75528,50.67359],[1.75449,50.673],[1.75372,50.6734],[1.75442,50.67406]]]}},{"type":"Feature","properties":{"k":"LUZ","s":3.501},"geometry":{"type":"Polygon","coordinates":[[[1.75387,50.67604],[1.75549,50.67573],[1.75568,50.67531],[1.75362,50.67343],[1.75254,50.67437],[1.75387,50.67604]]]}},{"type":"Feature","properties":{"k":"MIS","s":0.005},"geometry":{"type":"Polygon","coordinates":[[[1.75518,50.67707],[1.75498,50.67712],[1.75559,50.67699],[1.75518,50.67707]]]}},{"type":"Feature","properties":{"k":"PTR","s":1.04},"geometry":{"type":"Polygon","coordinates":[[[1.75556,50.67696],[1.75549,50.67575],[1.75439,50.67595],[1.75455,50.6772],[1.75556,50.67696]]]}},{"type":"Feature","properties":{"k":"BTA","s":0.368},"geometry":{"type":"Polygon","coordinates":[[[1.76005,50.67081],[1.76032,50.6709],[1.76052,50.67088],[1.76085,50.6705],[1.76128,50.6706],[1.76138,50.67153],[1.761,50.67247],[1.7603,50.67232],[1.75996,50.67246],[1.7598,50.67266],[1.7599,50.67286],[1.76046,50.67305],[1.76065,50.67343],[1.75979,50.67467],[1.76072,50.67345],[1.76051,50.67301],[1.75986,50.67268],[1.76031,50.67237],[1.76104,50.67254],[1.76145,50.67153],[1.76135,50.67058],[1.76081,50.67045],[1.76031,50.67086],[1.75991,50.67061],[1.76005,50.67081]]]}},{"type":"Feature","properties":{"k":"MIS","s":1.875},"geometry":{"type":"Polygon","coordinates":[[[1.75805,50.67051],[1.75839,50.67104],[1.75843,50.67188],[1.75851,50.67205],[1.75987,50.67217],[1.75885,50.6696],[1.75805,50.67051]]]}},{"type":"Feature","properties":{"k":"PPH","s":0.797},"geometry":{"type":"Polygon","coordinates":[[[1.7586,50.66907],[1.7575,50.66951],[1.75785,50.67043],[1.75807,50.67049],[1.75879,50.66947],[1.7586,50.66907]]]}},{"type":"Feature","properties":{"k":"MIS","s":0.7},"geometry":{"type":"Polygon","coordinates":[[[1.75622,50.67126],[1.7574,50.67057],[1.75674,50.67019],[1.7556,50.67085],[1.75622,50.67126]]]}},{"type":"Feature","properties":{"k":"MIS","s":0.288},"geometry":{"type":"Polygon","coordinates":[[[1.75519,50.67064],[1.75635,50.66997],[1.75608,50.66981],[1.75491,50.67049],[1.75519,50.67064]]]}},{"type":"Feature","properties":{"k":"FRA","s":0.407},"geometry":{"type":"Polygon","coordinates":[[[1.7556,50.67085],[1.75674,50.67019],[1.75635,50.66997],[1.75519,50.67064],[1.7556,50.67085]]]}},{"type":"Feature","properties":{"k":"PPH","s":4.171},"geometry":{"type":"Polygon","coordinates":[[[1.75748,50.66952],[1.75536,50.66864],[1.75436,50.66943],[1.75429,50.67028],[1.75379,50.67051],[1.75403,50.67092],[1.75608,50.66981],[1.7574,50.67057],[1.75622,50.67126],[1.75668,50.67165],[1.75757,50.6714],[1.75783,50.67041],[1.75748,50.66952]]]}},{"type":"Feature","properties":{"k":"FVP","s":0.49},"geometry":{"type":"Polygon","coordinates":[[[1.75572,50.66873],[1.75749,50.66729],[1.75738,50.66707],[1.75544,50.66859],[1.75572,50.66873]]]}},{"type":"Feature","properties":{"k":"MIS","s":1.342},"geometry":{"type":"Polygon","coordinates":[[[1.75748,50.6693],[1.75644,50.66816],[1.7557,50.66876],[1.7575,50.66951],[1.7586,50.66907],[1.75751,50.66729],[1.75724,50.6675],[1.75824,50.66898],[1.75748,50.6693]]]}},{"type":"Feature","properties":{"k":"MIS","s":1.2},"geometry":{"type":"Polygon","coordinates":[[[1.75644,50.66816],[1.75748,50.6693],[1.75824,50.66898],[1.75724,50.6675],[1.75644,50.66816]]]}},{"type":"Feature","properties":{"k":"PPH","s":1.229},"geometry":{"type":"Polygon","coordinates":[[[1.75517,50.66809],[1.75443,50.66774],[1.75342,50.66817],[1.75538,50.66852],[1.75536,50.66823],[1.7572,50.66676],[1.75677,50.6665],[1.75656,50.66656],[1.75666,50.66676],[1.75517,50.66809]]]}},{"type":"Feature","properties":{"k":"PPH","s":7.77},"geometry":{"type":"Polygon","coordinates":[[[1.75701,50.66352],[1.75712,50.66342],[1.75755,50.66379],[1.75715,50.66424],[1.75643,50.664],[1.75571,50.66352],[1.75584,50.66342],[1.75564,50.66329],[1.75404,50.66403],[1.75458,50.66483],[1.75566,50.66543],[1.75748,50.66589],[1.75781,50.66587],[1.75889,50.66443],[1.7599,50.66454],[1.76083,50.66426],[1.7607,50.66382],[1.75946,50.6639],[1.75713,50.66269],[1.75661,50.66288],[1.75638,50.66275],[1.756,50.66303],[1.75701,50.66352]]]}},{"type":"Feature","properties":{"k":"PPH","s":0.07},"geometry":{"type":"MultiPolygon","coordinates":[[[[1.75798,50.66586],[1.75798,50.66581],[1.75796,50.66586],[1.75798,50.66586]]],[[[1.76175,50.66409],[1.7619,50.66414],[1.762,50.66405],[1.76175,50.66409]]],[[[1.76141,50.66415],[1.76148,50.66411],[1.76129,50.66411],[1.76141,50.66415]]],[[[1.76104,50.66412],[1.7609,50.66428],[1.76116,50.66412],[1.76104,50.66412]]],[[[1.75942,50.66459],[1.75983,50.66456],[1.75917,50.66451],[1.75942,50.66459]]],[[[1.75891,50.66449],[1.75876,50.66468],[1.759,50.66463],[1.75891,50.66449]]],[[[1.75865,50.66488],[1.75869,50.66477],[1.75853,50.66497],[1.75865,50.66488]]],[[[1.75818,50.66544],[1.75843,50.66509],[1.7582,50.66539],[1.75818,50.66544]]]]}},{"type":"Feature","properties":{"k":"PPH","s":0.41},"geometry":{"type":"Polygon","coordinates":[[[1.76412,50.66359],[1.76432,50.66393],[1.76467,50.66384],[1.76511,50.664],[1.7656,50.6634],[1.76412,50.66359]]]}},{"type":"Feature","properties":{"k":"PPH","s":0.053},"geometry":{"type":"MultiPolygon","coordinates":[[[[1.76433,50.66395],[1.76444,50.66394],[1.76432,50.66393],[1.76433,50.66395]]],[[[1.76423,50.66369],[1.76428,50.66382],[1.76427,50.66374],[1.76423,50.66369]]],[[[1.76452,50.66347],[1.7639,50.6635],[1.7635,50.66369],[1.76452,50.66347]]],[[[1.76495,50.66391],[1.76467,50.66384],[1.7645,50.66393],[1.76511,50.664],[1.76495,50.66391]]]]}},{"type":"Feature","properties":{"k":"PPH","s":7.562},"geometry":{"type":"Polygon","coordinates":[[[1.76156,50.66269],[1.76103,50.66315],[1.76078,50.66375],[1.761,50.66405],[1.7623,50.66388],[1.76276,50.66399],[1.7639,50.6635],[1.76316,50.66355],[1.76299,50.66343],[1.76324,50.66328],[1.76307,50.66316],[1.76352,50.66299],[1.76357,50.66273],[1.76404,50.6628],[1.76409,50.66253],[1.76377,50.66153],[1.76305,50.6603],[1.76154,50.66058],[1.76142,50.66117],[1.76196,50.66098],[1.76229,50.66123],[1.76195,50.66172],[1.76245,50.66196],[1.76209,50.66219],[1.76134,50.66144],[1.75994,50.66099],[1.75889,50.66151],[1.76156,50.66269]]]}},{"type":"Feature","properties":{"k":"MIS","s":6.005},"geometry":{"type":"Polygon","coordinates":[[[1.76392,50.66149],[1.76465,50.66147],[1.76604,50.66086],[1.76718,50.66092],[1.76887,50.65837],[1.7676,50.65849],[1.76495,50.65989],[1.76332,50.66027],[1.76392,50.66149]]]}},{"type":"Feature","properties":{"k":"MIS","s":8.025},"geometry":{"type":"Polygon","coordinates":[[[1.76243,50.65859],[1.76315,50.66018],[1.76478,50.65987],[1.76757,50.6584],[1.76764,50.65824],[1.76405,50.65667],[1.76243,50.65859]]]}},{"type":"Feature","properties":{"k":"MIS","s":0.001},"geometry":{"type":"Polygon","coordinates":[]}},{"type":"Feature","properties":{"k":"MIS","s":0.0},"geometry":{"type":"Polygon","coordinates":[]}},{"type":"Feature","properties":{"k":"PPH","s":0.288},"geometry":{"type":"MultiPolygon","coordinates":[[[[1.76245,50.6584],[1.76292,50.65777],[1.76206,50.65767],[1.76245,50.6584]]],[[[1.76399,50.65661],[1.7638,50.65683],[1.76401,50.65662],[1.76399,50.65661]]]]}},{"type":"Feature","properties":{"k":"MIS","s":2.491},"geometry":{"type":"Polygon","coordinates":[[[1.76147,50.66005],[1.76138,50.66049],[1.76304,50.66019],[1.76257,50.65895],[1.76121,50.65873],[1.76059,50.65882],[1.76037,50.65968],[1.76147,50.66005]]]}},{"type":"Feature","properties":{"k":"PPH","s":4.495},"geometry":{"type":"MultiPolygon","coordinates":[[[[1.75765,50.6578],[1.75631,50.65733],[1.75629,50.65734],[1.75765,50.6578]]],[[[1.75706,50.65937],[1.75727,50.65945],[1.75755,50.65911],[1.75821,50.65934],[1.75834,50.6601],[1.75884,50.66058],[1.75841,50.66082],[1.75739,50.6609],[1.75735,50.66169],[1.7576,50.66193],[1.75839,50.6616],[1.75792,50.66129],[1.75907,50.6608],[1.75888,50.66071],[1.75994,50.65956],[1.76035,50.65967],[1.76059,50.65881],[1.76118,50.65873],[1.7588,50.65835],[1.75803,50.65794],[1.75706,50.65937]]]]}},{"type":"Feature","properties":{"k":"MIS","s":3.913},"geometry":{"type":"Polygon","coordinates":[[[1.75399,50.65859],[1.75718,50.65973],[1.75724,50.65949],[1.75705,50.6594],[1.75801,50.65793],[1.75628,50.65735],[1.75399,50.65859]]]}},{"type":"Feature","properties":{"k":"PPH","s":1.827},"geometry":{"type":"Polygon","coordinates":[[[1.75457,50.6601],[1.75555,50.66034],[1.75654,50.66001],[1.75714,50.66007],[1.75721,50.65976],[1.75399,50.6586],[1.75365,50.65886],[1.75509,50.65949],[1.75457,50.6601]]]}},{"type":"Feature","properties":{"k":"MIS","s":2.939},"geometry":{"type":"Polygon","coordinates":[[[1.75616,50.66012],[1.75554,50.66035],[1.7546,50.66171],[1.75657,50.66222],[1.75737,50.661],[1.75703,50.66011],[1.75616,50.66012]]]}},{"type":"Feature","properties":{"k":"PTR","s":0.122},"geometry":{"type":"Polygon","coordinates":[[[1.75784,50.66279],[1.75895,50.66192],[1.75783,50.66271],[1.75701,50.6623],[1.75784,50.66279]]]}},{"type":"Feature","properties":{"k":"MIS","s":4.038},"geometry":{"type":"Polygon","coordinates":[[[1.75637,50.66275],[1.75661,50.66289],[1.75713,50.66269],[1.75958,50.66387],[1.76071,50.66381],[1.76103,50.66306],[1.76148,50.66269],[1.75929,50.66182],[1.75784,50.66279],[1.75695,50.66234],[1.75637,50.66275]]]}},{"type":"Feature","properties":{"k":"PPH","s":1.898},"geometry":{"type":"Polygon","coordinates":[[[1.75215,50.66326],[1.75102,50.66244],[1.75091,50.66253],[1.75134,50.66337],[1.75167,50.66352],[1.75263,50.66374],[1.75333,50.66349],[1.75409,50.66373],[1.75458,50.66344],[1.75384,50.66282],[1.75354,50.66281],[1.75297,50.66244],[1.75215,50.66326]]]}},{"type":"Feature","properties":{"k":"BTP","s":4.911},"geometry":{"type":"Polygon","coordinates":[[[1.75207,50.66046],[1.75389,50.66122],[1.75378,50.66167],[1.753,50.66243],[1.75357,50.6628],[1.75386,50.6628],[1.75551,50.66034],[1.75455,50.6601],[1.75507,50.65949],[1.75365,50.65886],[1.75207,50.66046]]]}},{"type":"Feature","properties":{"k":"BTH","s":1.396},"geometry":{"type":"Polygon","coordinates":[[[1.75389,50.66122],[1.75208,50.66046],[1.75169,50.66116],[1.75091,50.6619],[1.75081,50.66232],[1.75093,50.6624],[1.75199,50.6616],[1.75246,50.66105],[1.75375,50.66161],[1.75389,50.66122]]]}},{"type":"Feature","properties":{"k":"BTH","s":3.219},"geometry":{"type":"Polygon","coordinates":[[[1.7495,50.66029],[1.74889,50.66102],[1.74788,50.66087],[1.74684,50.66148],[1.74796,50.66183],[1.74858,50.66127],[1.75076,50.6619],[1.7516,50.66103],[1.75164,50.66044],[1.75002,50.66048],[1.7495,50.66029]]]}},{"type":"Feature","properties":{"k":"PPH","s":1.749},"geometry":{"type":"Polygon","coordinates":[[[1.75043,50.66052],[1.7515,50.66043],[1.75043,50.65954],[1.74943,50.66002],[1.7491,50.65917],[1.74891,50.65921],[1.74907,50.65963],[1.74893,50.66012],[1.74798,50.66085],[1.74889,50.66102],[1.7495,50.66028],[1.75043,50.66052]]]}},{"type":"Feature","properties":{"k":"PPH","s":0.264},"geometry":{"type":"Polygon","coordinates":[[[1.7508,50.6632],[1.75109,50.66342],[1.75067,50.66233],[1.75036,50.66244],[1.7508,50.6632]]]}},{"type":"Feature","properties":{"k":"PPH","s":0.78},"geometry":{"type":"Polygon","coordinates":[[[1.74767,50.66263],[1.74728,50.66253],[1.74741,50.66329],[1.74704,50.66341],[1.74692,50.66401],[1.74752,50.66375],[1.74747,50.66351],[1.74793,50.66343],[1.74806,50.66366],[1.74851,50.66353],[1.74767,50.66263]]]}},{"type":"Feature","properties":{"k":"BTH","s":4.726},"geometry":{"type":"Polygon","coordinates":[[[1.74029,50.66132],[1.73956,50.66273],[1.74187,50.66323],[1.74326,50.66381],[1.74405,50.66292],[1.74131,50.66123],[1.74029,50.66132]]]}},{"type":"Feature","properties":{"k":"MIS","s":1.446},"geometry":{"type":"Polygon","coordinates":[[[1.7426,50.66],[1.74199,50.65909],[1.74021,50.65982],[1.74085,50.66053],[1.7426,50.66]]]}},{"type":"Feature","properties":{"k":"PPH","s":10.118},"geometry":{"type":"Polygon","coordinates":[[[1.74403,50.66288],[1.74447,50.66225],[1.74547,50.6625],[1.7462,50.66187],[1.74653,50.66198],[1.7461,50.66173],[1.7467,50.66199],[1.74738,50.66205],[1.74864,50.6635],[1.74938,50.66304],[1.75027,50.6637],[1.75073,50.66344],[1.75042,50.66315],[1.74999,50.66211],[1.74976,50.66206],[1.74928,50.66226],[1.74832,50.66196],[1.74771,50.66207],[1.74727,50.66174],[1.74631,50.6616],[1.74613,50.66129],[1.74537,50.66108],[1.745,50.66038],[1.74426,50.66042],[1.7435,50.65948],[1.74308,50.65932],[1.74288,50.65939],[1.7429,50.65971],[1.74256,50.65978],[1.74265,50.66002],[1.74076,50.66057],[1.74139,50.66124],[1.74403,50.66288]]]}},{"type":"Feature","properties":{"k":"PPH","s":9.917},"geometry":{"type":"Polygon","coordinates":[[[1.7489,50.65735],[1.74683,50.65648],[1.74551,50.65773],[1.74638,50.65822],[1.74417,50.66009],[1.74432,50.66023],[1.74474,50.66017],[1.74527,50.66039],[1.74555,50.66104],[1.74629,50.66124],[1.74645,50.66148],[1.74668,50.66153],[1.74742,50.661],[1.74796,50.66083],[1.74891,50.6601],[1.7489,50.65971],[1.74802,50.65943],[1.7475,50.65891],[1.7478,50.65863],[1.74829,50.65867],[1.7489,50.65735]]]}},{"type":"Feature","properties":{"k":"MIS","s":2.123},"geometry":{"type":"Polygon","coordinates":[[[1.74424,50.66003],[1.74638,50.65822],[1.74536,50.65777],[1.74379,50.6589],[1.74352,50.6592],[1.74424,50.66003]]]}},{"type":"Feature","properties":{"k":"BTA","s":0.075},"geometry":{"type":"Polygon","coordinates":[[[1.7437,50.65943],[1.74418,50.66008],[1.74377,50.65937],[1.74345,50.65926],[1.7437,50.65943]]]}},{"type":"Feature","properties":{"k":"PPH","s":5.826},"geometry":{"type":"Polygon","coordinates":[[[1.74377,50.65747],[1.7423,50.65793],[1.74025,50.65611],[1.73912,50.65694],[1.73995,50.65736],[1.74053,50.65852],[1.74176,50.65856],[1.74225,50.65896],[1.74257,50.65955],[1.74279,50.65922],[1.74345,50.65926],[1.74536,50.65777],[1.74377,50.65747]]]}},{"type":"Feature","properties":{"k":"MIS","s":2.906},"geometry":{"type":"Polygon","coordinates":[[[1.7423,50.65793],[1.74377,50.65747],[1.74319,50.65707],[1.74261,50.65601],[1.74226,50.65588],[1.74178,50.65578],[1.74025,50.65611],[1.7423,50.65793]]]}},{"type":"Feature","properties":{"k":"PPH","s":5.24},"geometry":{"type":"Polygon","coordinates":[[[1.74263,50.65599],[1.74344,50.65728],[1.74423,50.65761],[1.74538,50.65774],[1.7465,50.65674],[1.7457,50.65649],[1.74475,50.65595],[1.74437,50.65528],[1.74431,50.65493],[1.74454,50.65473],[1.74437,50.65459],[1.74316,50.655],[1.7418,50.65573],[1.74263,50.65599]]]}},{"type":"Feature","properties":{"k":"PPH","s":0.329},"geometry":{"type":"Polygon","coordinates":[[[1.74904,50.65864],[1.74891,50.65745],[1.74837,50.65866],[1.74867,50.65877],[1.74904,50.65864]]]}},{"type":"Feature","properties":{"k":"PPH","s":3.605},"geometry":{"type":"Polygon","coordinates":[[[1.7516,50.65794],[1.75221,50.65796],[1.75198,50.65743],[1.74898,50.65742],[1.7491,50.6586],[1.74931,50.65852],[1.74954,50.65873],[1.75036,50.65849],[1.7505,50.65861],[1.75011,50.65893],[1.75089,50.65982],[1.75155,50.65922],[1.7516,50.65794]]]}},{"type":"Feature","properties":{"k":"PTR","s":0.91},"geometry":{"type":"Polygon","coordinates":[[[1.75152,50.66033],[1.75197,50.66027],[1.75218,50.65991],[1.75216,50.65901],[1.75166,50.659],[1.75097,50.65989],[1.75152,50.66033]]]}},{"type":"Feature","properties":{"k":"MIS","s":1.433},"geometry":{"type":"Polygon","coordinates":[[[1.75233,50.65882],[1.75242,50.65967],[1.7544,50.65825],[1.75239,50.65793],[1.75233,50.65882]]]}},{"type":"Feature","properties":{"k":"MIS","s":0.187},"geometry":{"type":"Polygon","coordinates":[[[1.75291,50.65663],[1.7554,50.65771],[1.75288,50.65659],[1.7518,50.65648],[1.75291,50.65663]]]}},{"type":"Feature","properties":{"k":"ORP","s":2.177},"geometry":{"type":"Polygon","coordinates":[[[1.75291,50.65663],[1.75184,50.65649],[1.75186,50.65666],[1.7522,50.65661],[1.75246,50.65736],[1.75211,50.65739],[1.75218,50.6576],[1.75294,50.65762],[1.75292,50.65798],[1.75442,50.65825],[1.75529,50.65777],[1.75291,50.65663]]]}},{"type":"Feature","properties":{"k":"MIS","s":7.461},"geometry":{"type":"Polygon","coordinates":[[[1.75032,50.65303],[1.7495,50.65422],[1.74932,50.65465],[1.74932,50.65466],[1.74931,50.65468],[1.74929,50.65472],[1.74918,50.65523],[1.75184,50.65529],[1.7522,50.6538],[1.75226,50.6523],[1.7518,50.651],[1.7494,50.65233],[1.74964,50.65259],[1.74948,50.65283],[1.75032,50.65303]]]}},{"type":"Feature","properties":{"k":"PPH","s":5.115},"geometry":{"type":"Polygon","coordinates":[[[1.74883,50.65345],[1.74841,50.65343],[1.74789,50.65317],[1.74811,50.653],[1.7483,50.65305],[1.74853,50.65215],[1.7489,50.6521],[1.74938,50.65227],[1.75017,50.65178],[1.74994,50.65162],[1.74891,50.65182],[1.74782,50.65227],[1.74689,50.65302],[1.74488,50.65399],[1.74476,50.65446],[1.74531,50.65445],[1.74589,50.65411],[1.7471,50.65378],[1.74806,50.65409],[1.7489,50.65518],[1.74917,50.65518],[1.7495,50.65422],[1.75032,50.65303],[1.74921,50.65278],[1.74883,50.65345]]]}},{"type":"Feature","properties":{"k":"PPH","s":0.001},"geometry":{"type":"MultiPolygon","coordinates":[]}},{"type":"Feature","properties":{"k":"BTA","s":0.001},"geometry":{"type":"Polygon","coordinates":[]}},{"type":"Feature","properties":{"k":"MLG","s":0.021},"geometry":{"type":"MultiPolygon","coordinates":[[[[1.72898,50.65576],[1.72897,50.65575],[1.72796,50.6564],[1.72898,50.65576]]]]}},{"type":"Feature","properties":{"k":"PPH","s":13.745},"geometry":{"type":"Polygon","coordinates":[[[1.73336,50.65615],[1.73307,50.65664],[1.7334,50.65706],[1.73417,50.65738],[1.73472,50.65782],[1.73566,50.65896],[1.73635,50.6586],[1.73667,50.65749],[1.73785,50.65679],[1.73704,50.65596],[1.73703,50.65511],[1.73595,50.65366],[1.73594,50.65301],[1.73468,50.65244],[1.73448,50.65247],[1.73387,50.65379],[1.73435,50.65399],[1.73248,50.65502],[1.73322,50.65574],[1.73336,50.65615]]]}},{"type":"Feature","properties":{"k":"BTH","s":0.01},"geometry":{"type":"Polygon","coordinates":[[[1.73169,50.65542],[1.73171,50.65543],[1.73242,50.65504],[1.73169,50.65542]]]}},{"type":"Feature","properties":{"k":"PPH","s":1.727},"geometry":{"type":"Polygon","coordinates":[[[1.73166,50.65248],[1.73282,50.65337],[1.73352,50.65239],[1.73261,50.65208],[1.73136,50.65124],[1.73104,50.6514],[1.73166,50.65248]]]}},{"type":"Feature","properties":{"k":"PPH","s":0.944},"geometry":{"type":"MultiPolygon","coordinates":[[[[1.73258,50.65497],[1.73435,50.65399],[1.7342,50.65394],[1.73426,50.65403],[1.73242,50.65504],[1.73258,50.65497]]],[[[1.73387,50.65379],[1.73452,50.65242],[1.73375,50.6527],[1.73353,50.65241],[1.73283,50.65338],[1.73407,50.65388],[1.73387,50.65379]]]]}},{"type":"Feature","properties":{"k":"PTR","s":4.174},"geometry":{"type":"Polygon","coordinates":[[[1.73051,50.65614],[1.73199,50.65715],[1.73268,50.65641],[1.73027,50.65418],[1.72904,50.65495],[1.72812,50.65424],[1.72767,50.65458],[1.72899,50.65571],[1.72956,50.65543],[1.73051,50.65614]]]}},{"type":"Feature","properties":{"k":"BTH","s":4.816},"geometry":{"type":"Polygon","coordinates":[[[1.73299,50.66055],[1.73334,50.65958],[1.73248,50.6588],[1.73018,50.65756],[1.72929,50.65923],[1.73299,50.66055]]]}},{"type":"Feature","properties":{"k":"PPH","s":5.985},"geometry":{"type":"Polygon","coordinates":[[[1.73248,50.6588],[1.73334,50.65958],[1.73299,50.66055],[1.73322,50.66061],[1.73483,50.6603],[1.7353,50.65999],[1.73505,50.66004],[1.73483,50.65977],[1.73437,50.65983],[1.73397,50.65895],[1.73319,50.65917],[1.73165,50.65751],[1.73199,50.65715],[1.72956,50.65543],[1.72798,50.6564],[1.73248,50.6588]]]}},{"type":"Feature","properties":{"k":"MIS","s":3.754},"geometry":{"type":"Polygon","coordinates":[[[1.73319,50.65917],[1.7353,50.65865],[1.73417,50.65754],[1.73328,50.65717],[1.73268,50.65641],[1.73165,50.65751],[1.73319,50.65917]]]}},{"type":"Feature","properties":{"k":"MIS","s":0.987},"geometry":{"type":"Polygon","coordinates":[[[1.73171,50.65545],[1.73307,50.65664],[1.73333,50.65591],[1.73248,50.65502],[1.73171,50.65545]]]}},{"type":"Feature","properties":{"k":"BTA","s":0.073},"geometry":{"type":"Polygon","coordinates":[[[1.74117,50.656],[1.74178,50.65578],[1.74025,50.65598],[1.74117,50.656]]]}},{"type":"Feature","properties":{"k":"BTA","s":0.122},"geometry":{"type":"Polygon","coordinates":[[[1.74199,50.65909],[1.7422,50.65955],[1.74248,50.65976],[1.74204,50.65902],[1.74106,50.65936],[1.74021,50.65982],[1.74199,50.65909]]]}},{"type":"Feature","properties":{"k":"PPH","s":13.109},"geometry":{"type":"Polygon","coordinates":[[[1.73902,50.66085],[1.73868,50.66111],[1.73713,50.66117],[1.73702,50.66076],[1.73641,50.6607],[1.73623,50.66085],[1.73535,50.66084],[1.73548,50.66189],[1.73637,50.66207],[1.73653,50.6615],[1.73877,50.66156],[1.74133,50.6612],[1.74018,50.65978],[1.74201,50.65896],[1.74155,50.65865],[1.74041,50.65864],[1.73987,50.65756],[1.73923,50.65732],[1.73858,50.65681],[1.73807,50.65675],[1.73749,50.65694],[1.73671,50.6575],[1.7365,50.65852],[1.73671,50.65915],[1.73639,50.65952],[1.73703,50.65982],[1.7366,50.65996],[1.73659,50.66029],[1.73753,50.6602],[1.73733,50.65983],[1.73806,50.65977],[1.73881,50.66006],[1.73902,50.66085]]]}},{"type":"Feature","properties":{"k":"BTH","s":2.467},"geometry":{"type":"Polygon","coordinates":[[[1.73877,50.66156],[1.73653,50.6615],[1.73637,50.66207],[1.73954,50.66272],[1.74027,50.66132],[1.73877,50.66156]]]}},{"type":"Feature","properties":{"k":"TRE","s":1.038},"geometry":{"type":"Polygon","coordinates":[[[1.73836,50.66256],[1.73806,50.66382],[1.73947,50.66376],[1.73975,50.66328],[1.73876,50.66307],[1.73897,50.66268],[1.73836,50.66256]]]}},{"type":"Feature","properties":{"k":"MIS","s":5.642},"geometry":{"type":"Polygon","coordinates":[[[1.73802,50.6638],[1.73842,50.66257],[1.73634,50.66216],[1.7363,50.66294],[1.73297,50.66304],[1.73266,50.66444],[1.73802,50.6638]]]}},{"type":"Feature","properties":{"k":"BTH","s":4.222},"geometry":{"type":"Polygon","coordinates":[[[1.73176,50.66166],[1.73064,50.66178],[1.73042,50.66259],[1.73167,50.66443],[1.73259,50.66442],[1.73292,50.66264],[1.73376,50.66233],[1.73176,50.66166]]]}},{"type":"Feature","properties":{"k":"PPH","s":2.049},"geometry":{"type":"Polygon","coordinates":[[[1.73576,50.66217],[1.73518,50.66179],[1.73306,50.66268],[1.73297,50.66304],[1.7363,50.66294],[1.73634,50.66216],[1.73576,50.66217]]]}},{"type":"Feature","properties":{"k":"PPH","s":3.165},"geometry":{"type":"Polygon","coordinates":[[[1.73462,50.6615],[1.73459,50.66117],[1.73514,50.66112],[1.73514,50.66092],[1.73461,50.66082],[1.73491,50.66055],[1.73474,50.66032],[1.73345,50.66061],[1.73305,50.66057],[1.73176,50.66166],[1.73374,50.66233],[1.73516,50.66177],[1.73516,50.6615],[1.73462,50.6615]]]}},{"type":"Feature","properties":{"k":"BTH","s":5.766},"geometry":{"type":"Polygon","coordinates":[[[1.72899,50.65996],[1.72821,50.66186],[1.72954,50.66191],[1.73166,50.66164],[1.73298,50.66055],[1.72945,50.65932],[1.72899,50.65996]]]}},{"type":"Feature","properties":{"k":"MIS","s":0.06},"geometry":{"type":"Polygon","coordinates":[[[1.72929,50.65923],[1.72899,50.65996],[1.72946,50.65932],[1.72929,50.65923]]]}},{"type":"Feature","properties":{"k":"BTH","s":2.699},"geometry":{"type":"Polygon","coordinates":[[[1.72904,50.66192],[1.72797,50.66392],[1.729,50.66434],[1.73039,50.66257],[1.73062,50.66178],[1.72904,50.66192]]]}},{"type":"Feature","properties":{"k":"PPH","s":0.077},"geometry":{"type":"MultiPolygon","coordinates":[[[[1.72882,50.66188],[1.72862,50.66271],[1.72906,50.66189],[1.72882,50.66188]]]]}},{"type":"Feature","properties":{"k":"BTH","s":0.009},"geometry":{"type":"Polygon","coordinates":[[[1.72818,50.65651],[1.72796,50.65641],[1.72943,50.65718],[1.72818,50.65651]]]}},{"type":"Feature","properties":{"k":"PPH","s":0.001},"geometry":{"type":"Polygon","coordinates":[]}},{"type":"Feature","properties":{"k":"PPH","s":0.081},"geometry":{"type":"Polygon","coordinates":[[[1.77179,50.66166],[1.77258,50.66142],[1.77242,50.66116],[1.77215,50.66111],[1.77232,50.66147],[1.77179,50.66166]]]}},{"type":"Feature","properties":{"k":"MIS","s":3.041},"geometry":{"type":"Polygon","coordinates":[[[1.7665,50.66159],[1.7715,50.66176],[1.77123,50.66099],[1.7674,50.6607],[1.7665,50.66159]]]}},{"type":"Feature","properties":{"k":"PPH","s":11.332},"geometry":{"type":"Polygon","coordinates":[[[1.76622,50.6624],[1.76583,50.66258],[1.76557,50.66238],[1.76468,50.66263],[1.76448,50.6634],[1.76558,50.66332],[1.76574,50.66306],[1.76653,50.66326],[1.76642,50.66347],[1.76717,50.66371],[1.76719,50.66408],[1.76759,50.66423],[1.76844,50.66424],[1.76966,50.66382],[1.77126,50.66432],[1.77181,50.66414],[1.77205,50.66278],[1.7715,50.66176],[1.7665,50.66159],[1.76596,50.66208],[1.76622,50.6624]]]}},{"type":"Feature","properties":{"k":"PPH","s":0.0},"geometry":{"type":"MultiPolygon","coordinates":[[[[1.77054,50.66406],[1.77055,50.66408],[1.77056,50.66407],[1.77054,50.66406]]]]}},{"type":"Feature","properties":{"k":"PPH","s":0.03},"geometry":{"type":"Polygon","coordinates":[[[1.77063,50.66409],[1.7712,50.66433],[1.77096,50.66422],[1.77063,50.66409]]]}},{"type":"Feature","properties":{"k":"BTH","s":2.42},"geometry":{"type":"Polygon","coordinates":[[[1.74057,50.67601],[1.74115,50.6756],[1.74162,50.67461],[1.74055,50.67426],[1.74115,50.67373],[1.74011,50.67327],[1.74004,50.67418],[1.73954,50.67463],[1.7398,50.67555],[1.74057,50.67601]]]}},{"type":"Feature","properties":{"k":"BTH","s":1.412},"geometry":{"type":"Polygon","coordinates":[[[1.73884,50.67335],[1.73865,50.67407],[1.73954,50.67463],[1.74004,50.67418],[1.74006,50.67334],[1.74042,50.67295],[1.74012,50.67282],[1.74042,50.6726],[1.74004,50.67278],[1.73963,50.67321],[1.73912,50.67307],[1.73884,50.67335]]]}},{"type":"Feature","properties":{"k":"PTC","s":0.3},"geometry":{"type":"Polygon","coordinates":[[[1.73913,50.67305],[1.73962,50.6732],[1.74032,50.67256],[1.73988,50.67242],[1.73913,50.67305]]]}},{"type":"Feature","properties":{"k":"PPH","s":1.713},"geometry":{"type":"Polygon","coordinates":[[[1.74285,50.67185],[1.74165,50.67158],[1.7385,50.67033],[1.73821,50.67083],[1.73901,50.67085],[1.7397,50.67111],[1.73984,50.67139],[1.74048,50.6717],[1.74037,50.67182],[1.74253,50.67236],[1.74285,50.67185]]]}},{"type":"Feature","properties":{"k":"PPH","s":0.788},"geometry":{"type":"Polygon","coordinates":[[[1.73879,50.6717],[1.73978,50.67134],[1.73967,50.67114],[1.73901,50.67088],[1.73822,50.67085],[1.73805,50.671],[1.73819,50.67146],[1.73879,50.6717]]]}},{"type":"Feature","properties":{"k":"MIS","s":3.064},"geometry":{"type":"Polygon","coordinates":[[[1.7385,50.67383],[1.73868,50.67327],[1.73964,50.67245],[1.73807,50.67151],[1.73745,50.67146],[1.73649,50.67264],[1.7385,50.67383]]]}},{"type":"Feature","properties":{"k":"PTR","s":0.408},"geometry":{"type":"Polygon","coordinates":[[[1.73964,50.67245],[1.73868,50.67327],[1.7385,50.67383],[1.73867,50.67391],[1.73883,50.67332],[1.73988,50.67242],[1.73857,50.67166],[1.73807,50.67151],[1.73964,50.67245]]]}},{"type":"Feature","properties":{"k":"MDI","s":0.186},"geometry":{"type":"Polygon","coordinates":[[[1.7344,50.67138],[1.73481,50.67152],[1.73494,50.67128],[1.73519,50.6713],[1.73522,50.67107],[1.73477,50.67096],[1.7344,50.67138]]]}},{"type":"Feature","properties":{"k":"PPH","s":2.358},"geometry":{"type":"Polygon","coordinates":[[[1.73598,50.67406],[1.73768,50.67499],[1.73867,50.67391],[1.73649,50.67264],[1.73625,50.67295],[1.73671,50.67347],[1.73598,50.67406]]]}},{"type":"Feature","properties":{"k":"PPH","s":9.289},"geometry":{"type":"Polygon","coordinates":[[[1.73547,50.67402],[1.73489,50.6744],[1.73522,50.6746],[1.73521,50.67488],[1.7373,50.67577],[1.73804,50.67592],[1.73833,50.67631],[1.73758,50.67709],[1.73773,50.67722],[1.73828,50.67742],[1.7386,50.67706],[1.73972,50.67665],[1.74067,50.67608],[1.73979,50.67556],[1.73959,50.6752],[1.7397,50.67475],[1.73865,50.67407],[1.73768,50.675],[1.73594,50.67407],[1.73669,50.67347],[1.73623,50.67295],[1.73743,50.67146],[1.7367,50.67129],[1.73632,50.67216],[1.73607,50.67209],[1.7362,50.67194],[1.73559,50.67175],[1.7351,50.67229],[1.73426,50.67272],[1.73547,50.67402]]]}},{"type":"Feature","properties":{"k":"MIS","s":1.841},"geometry":{"type":"Polygon","coordinates":[[[1.73262,50.67375],[1.73325,50.67426],[1.73287,50.67447],[1.73318,50.67498],[1.73493,50.6736],[1.73423,50.67286],[1.73262,50.67375]]]}},{"type":"Feature","properties":{"k":"BTP","s":1.034},"geometry":{"type":"Polygon","coordinates":[[[1.75231,50.67278],[1.75369,50.67344],[1.75388,50.67276],[1.75288,50.67208],[1.75184,50.67254],[1.75231,50.67278]]]}},{"type":"Feature","properties":{"k":"FLA","s":0.129},"geometry":{"type":"Polygon","coordinates":[[[1.7342,50.67267],[1.73471,50.67237],[1.73409,50.67222],[1.7342,50.67267]]]}},{"type":"Feature","properties":{"k":"MIS","s":2.73},"geometry":{"type":"Polygon","coordinates":[[[1.72828,50.66913],[1.72881,50.66876],[1.72792,50.66802],[1.72659,50.66876],[1.72737,50.66948],[1.72723,50.66955],[1.72878,50.67071],[1.7293,50.67037],[1.72941,50.66968],[1.72828,50.66913]]]}},{"type":"Feature","properties":{"k":"FVP","s":0.867},"geometry":{"type":"Polygon","coordinates":[[[1.73128,50.66549],[1.73391,50.66636],[1.73135,50.66542],[1.73161,50.66459],[1.73015,50.66458],[1.73043,50.66544],[1.7312,50.66616],[1.73048,50.66526],[1.73042,50.66484],[1.7313,50.66515],[1.73128,50.66549]]]}},{"type":"Feature","properties":{"k":"CZH","s":2.765},"geometry":{"type":"Polygon","coordinates":[[[1.7312,50.66616],[1.73274,50.66763],[1.734,50.66666],[1.73373,50.66655],[1.73391,50.66636],[1.73128,50.66549],[1.7313,50.66515],[1.73042,50.66484],[1.7312,50.66616]]]}},{"type":"Feature","properties":{"k":"MIS","s":2.862},"geometry":{"type":"Polygon","coordinates":[[[1.73258,50.66761],[1.73024,50.66517],[1.72935,50.66586],[1.73148,50.66808],[1.73173,50.66825],[1.73258,50.66761]]]}},{"type":"Feature","properties":{"k":"PPH","s":10.903},"geometry":{"type":"Polygon","coordinates":[[[1.72997,50.66456],[1.72912,50.66444],[1.72798,50.66397],[1.72701,50.66656],[1.72821,50.66755],[1.72765,50.66775],[1.72671,50.6673],[1.72567,50.6679],[1.72651,50.66859],[1.72726,50.66808],[1.72864,50.66756],[1.72963,50.66852],[1.73205,50.66919],[1.73354,50.6681],[1.73263,50.66768],[1.73182,50.66827],[1.73093,50.66871],[1.73047,50.6685],[1.73066,50.66832],[1.73111,50.66851],[1.73173,50.66825],[1.72935,50.66586],[1.73024,50.66506],[1.72997,50.66456]]]}},{"type":"Feature","properties":{"k":"BTA","s":0.05},"geometry":{"type":"Polygon","coordinates":[[[1.72833,50.6691],[1.72828,50.66913],[1.72884,50.66948],[1.7294,50.66968],[1.72833,50.6691]]]}},{"type":"Feature","properties":{"k":"PPH","s":7.018},"geometry":{"type":"Polygon","coordinates":[[[1.72878,50.67071],[1.72723,50.66955],[1.72737,50.66948],[1.72659,50.66876],[1.72792,50.66802],[1.72881,50.66876],[1.72948,50.66833],[1.72862,50.66756],[1.72724,50.6681],[1.72629,50.66874],[1.72695,50.66964],[1.7267,50.67003],[1.72709,50.67022],[1.72744,50.67013],[1.72786,50.67054],[1.72907,50.6712],[1.7301,50.67228],[1.73102,50.67185],[1.7348,50.67238],[1.73554,50.6717],[1.7344,50.67138],[1.73461,50.67114],[1.7336,50.67149],[1.73337,50.67138],[1.73307,50.67164],[1.73128,50.67095],[1.73129,50.67064],[1.72924,50.67042],[1.72878,50.67071]]]}},{"type":"Feature","properties":{"k":"MIS","s":1.263},"geometry":{"type":"Polygon","coordinates":[[[1.7293,50.67037],[1.73129,50.67064],[1.73175,50.67017],[1.73081,50.66978],[1.72941,50.66968],[1.7293,50.67037]]]}},{"type":"Feature","properties":{"k":"BTA","s":0.091},"geometry":{"type":"Polygon","coordinates":[[[1.72999,50.66979],[1.73081,50.66978],[1.7318,50.67014],[1.73082,50.66973],[1.7294,50.66968],[1.72999,50.66979]]]}},{"type":"Feature","properties":{"k":"PPH","s":6.136},"geometry":{"type":"Polygon","coordinates":[[[1.73314,50.6695],[1.72964,50.66852],[1.72947,50.66836],[1.72834,50.66909],[1.72943,50.66961],[1.73083,50.66972],[1.73184,50.67014],[1.73136,50.67059],[1.7313,50.67093],[1.73307,50.67162],[1.73406,50.67074],[1.73462,50.67113],[1.73475,50.67096],[1.73549,50.67125],[1.73606,50.6711],[1.7355,50.67094],[1.73567,50.67064],[1.73345,50.67017],[1.73261,50.67016],[1.73314,50.6695]]]}},{"type":"Feature","properties":{"k":"MDI","s":0.269},"geometry":{"type":"Polygon","coordinates":[[[1.73442,50.67099],[1.73406,50.67075],[1.73337,50.67138],[1.7336,50.67149],[1.73429,50.67121],[1.73442,50.67099]]]}},{"type":"Feature","properties":{"k":"BTA","s":0.188},"geometry":{"type":"Polygon","coordinates":[[[1.73408,50.6702],[1.73364,50.67013],[1.73265,50.67008],[1.73647,50.67084],[1.73408,50.6702]]]}},{"type":"Feature","properties":{"k":"CZH","s":5.689},"geometry":{"type":"Polygon","coordinates":[[[1.73408,50.6702],[1.73654,50.67077],[1.7374,50.66963],[1.73354,50.6681],[1.73206,50.66918],[1.73318,50.66949],[1.73267,50.67003],[1.73408,50.6702]]]}},{"type":"Feature","properties":{"k":"BTH","s":2.519},"geometry":{"type":"Polygon","coordinates":[[[1.73518,50.66876],[1.73586,50.66827],[1.73491,50.66785],[1.73547,50.66739],[1.73401,50.66666],[1.73275,50.66764],[1.73518,50.66876]]]}},{"type":"Feature","properties":{"k":"PTR","s":0.864},"geometry":{"type":"Polygon","coordinates":[[[1.7365,50.66856],[1.73703,50.66814],[1.73547,50.66738],[1.73492,50.66785],[1.7365,50.66856]]]}},{"type":"Feature","properties":{"k":"FVP","s":4.84},"geometry":{"type":"Polygon","coordinates":[[[1.73373,50.66655],[1.73703,50.66814],[1.7365,50.66856],[1.73588,50.66828],[1.7353,50.66878],[1.73597,50.66898],[1.73697,50.66902],[1.73762,50.66929],[1.73836,50.66929],[1.73936,50.66855],[1.73434,50.66597],[1.73373,50.66655]]]}},{"type":"Feature","properties":{"k":"BTA","s":0.062},"geometry":{"type":"Polygon","coordinates":[[[1.73665,50.67079],[1.7366,50.67085],[1.73798,50.67102],[1.73665,50.67079]]]}},{"type":"Feature","properties":{"k":"BTH","s":0.754},"geometry":{"type":"Polygon","coordinates":[[[1.73665,50.67079],[1.73802,50.67097],[1.73817,50.67079],[1.73787,50.6707],[1.73807,50.67033],[1.73745,50.66998],[1.73765,50.66983],[1.73749,50.66974],[1.73665,50.67079]]]}},{"type":"Feature","properties":{"k":"ORP","s":0.266},"geometry":{"type":"Polygon","coordinates":[[[1.73807,50.67033],[1.73787,50.6707],[1.73817,50.67079],[1.73846,50.67032],[1.73765,50.66983],[1.73745,50.66998],[1.73807,50.67033]]]}},{"type":"Feature","properties":{"k":"ORP","s":0.729},"geometry":{"type":"Polygon","coordinates":[[[1.7389,50.6702],[1.73969,50.67056],[1.74061,50.66983],[1.73982,50.66946],[1.7389,50.6702]]]}},{"type":"Feature","properties":{"k":"FVP","s":0.919},"geometry":{"type":"Polygon","coordinates":[[[1.73977,50.66924],[1.74079,50.66973],[1.74171,50.66904],[1.7407,50.66854],[1.73977,50.66924]]]}},{"type":"Feature","properties":{"k":"ORP","s":0.531},"geometry":{"type":"Polygon","coordinates":[[[1.74057,50.66864],[1.73983,50.66831],[1.73902,50.66888],[1.73984,50.66918],[1.74057,50.66864]]]}},{"type":"Feature","properties":{"k":"BTH","s":0.253},"geometry":{"type":"Polygon","coordinates":[[[1.73983,50.66831],[1.74053,50.66863],[1.74091,50.66836],[1.74022,50.66802],[1.73983,50.66831]]]}},{"type":"Feature","properties":{"k":"BTH","s":3.72},"geometry":{"type":"Polygon","coordinates":[[[1.73971,50.66829],[1.74261,50.66608],[1.74104,50.66523],[1.73888,50.6668],[1.74035,50.66748],[1.73942,50.66815],[1.73971,50.66829]]]}},{"type":"Feature","properties":{"k":"MIS","s":2.653},"geometry":{"type":"Polygon","coordinates":[[[1.74008,50.66469],[1.73723,50.66703],[1.73792,50.66747],[1.74104,50.66523],[1.74008,50.66469]]]}},{"type":"Feature","properties":{"k":"FVP","s":4.561},"geometry":{"type":"Polygon","coordinates":[[[1.73936,50.66855],[1.7397,50.6683],[1.73939,50.66815],[1.74031,50.66748],[1.73885,50.6668],[1.73792,50.66747],[1.73674,50.66668],[1.7381,50.66533],[1.73725,50.66498],[1.73617,50.66605],[1.7349,50.66545],[1.73434,50.66597],[1.73645,50.66696],[1.73936,50.66855]]]}},{"type":"Feature","properties":{"k":"MIS","s":8.772},"geometry":{"type":"Polygon","coordinates":[[[1.73369,50.66438],[1.73166,50.66449],[1.73137,50.66541],[1.734,50.66629],[1.7349,50.66543],[1.73617,50.66603],[1.73725,50.66496],[1.73814,50.66533],[1.73955,50.66391],[1.73751,50.66379],[1.73369,50.66438]]]}},{"type":"Feature","properties":{"k":"BTH","s":2.58},"geometry":{"type":"Polygon","coordinates":[[[1.73674,50.66668],[1.73723,50.66703],[1.74004,50.6647],[1.74065,50.66393],[1.73961,50.66384],[1.73674,50.66668]]]}},{"type":"Feature","properties":{"k":"PPH","s":1.501},"geometry":{"type":"Polygon","coordinates":[[[1.74517,50.6627],[1.74477,50.66252],[1.7446,50.66272],[1.74442,50.66264],[1.74337,50.66403],[1.7431,50.66407],[1.74312,50.66431],[1.74354,50.66453],[1.74429,50.66468],[1.74517,50.6627]]]}},{"type":"Feature","properties":{"k":"ORP","s":3.425},"geometry":{"type":"Polygon","coordinates":[[[1.74196,50.66579],[1.74255,50.66531],[1.74317,50.66561],[1.74438,50.66477],[1.74334,50.66458],[1.74197,50.66403],[1.74067,50.66394],[1.74008,50.66469],[1.74196,50.66579]]]}},{"type":"Feature","properties":{"k":"MIS","s":5.179},"geometry":{"type":"Polygon","coordinates":[[[1.74848,50.66722],[1.74844,50.66583],[1.74689,50.66534],[1.7446,50.66491],[1.74371,50.66534],[1.74336,50.66571],[1.74649,50.66696],[1.74653,50.66676],[1.74848,50.66722]]]}},{"type":"Feature","properties":{"k":"PTR","s":0.81},"geometry":{"type":"Polygon","coordinates":[[[1.74912,50.66416],[1.75015,50.66427],[1.75034,50.66396],[1.74881,50.66368],[1.74817,50.66374],[1.74785,50.6641],[1.74867,50.66442],[1.74912,50.66416]]]}},{"type":"Feature","properties":{"k":"PPH","s":0.625},"geometry":{"type":"Polygon","coordinates":[[[1.74725,50.66488],[1.74799,50.66526],[1.74883,50.66451],[1.74825,50.66422],[1.74725,50.66488]]]}},{"type":"Feature","properties":{"k":"PPH","s":5.367},"geometry":{"type":"Polygon","coordinates":[[[1.75183,50.66603],[1.75238,50.66613],[1.753,50.66582],[1.75463,50.66685],[1.75443,50.66711],[1.75447,50.66767],[1.75518,50.66806],[1.75658,50.66682],[1.75612,50.66662],[1.75601,50.66633],[1.75467,50.66592],[1.75393,50.66514],[1.75336,50.6652],[1.75268,50.66488],[1.75195,50.6648],[1.75132,50.66416],[1.75151,50.664],[1.75123,50.66368],[1.75113,50.66386],[1.75041,50.66414],[1.75071,50.66457],[1.75158,50.66507],[1.75183,50.66603]]]}},{"type":"Feature","properties":{"k":"PPH","s":2.456},"geometry":{"type":"Polygon","coordinates":[[[1.75234,50.66614],[1.75171,50.666],[1.75156,50.66511],[1.75045,50.66549],[1.75139,50.66628],[1.75114,50.66656],[1.7534,50.66812],[1.75406,50.66785],[1.75234,50.66614]]]}},{"type":"Feature","properties":{"k":"MIS","s":2.989},"geometry":{"type":"Polygon","coordinates":[[[1.74849,50.66726],[1.74656,50.66681],[1.74644,50.6674],[1.74668,50.66803],[1.74846,50.66852],[1.74888,50.66789],[1.74925,50.66663],[1.74922,50.66627],[1.74843,50.6659],[1.74849,50.66726]]]}},{"type":"Feature","properties":{"k":"MIS","s":2.935},"geometry":{"type":"Polygon","coordinates":[[[1.75089,50.66833],[1.75129,50.66779],[1.74935,50.66638],[1.74897,50.66794],[1.74821,50.66886],[1.74867,50.66914],[1.74946,50.66868],[1.75089,50.66833]]]}},{"type":"Feature","properties":{"k":"MIS","s":2.559},"geometry":{"type":"Polygon","coordinates":[[[1.75129,50.66779],[1.75089,50.66833],[1.74946,50.66868],[1.74987,50.66958],[1.75115,50.66931],[1.75124,50.66955],[1.75277,50.66921],[1.75129,50.66779]]]}},{"type":"Feature","properties":{"k":"PPH","s":0.016},"geometry":{"type":"Polygon","coordinates":[[[1.7514,50.67015],[1.75118,50.67026],[1.75151,50.6702],[1.7514,50.67015]]]}},{"type":"Feature","properties":{"k":"MIS","s":0.885},"geometry":{"type":"Polygon","coordinates":[[[1.75146,50.67015],[1.75326,50.66979],[1.75277,50.66921],[1.75124,50.66955],[1.75146,50.67015]]]}},{"type":"Feature","properties":{"k":"BTA","s":0.08},"geometry":{"type":"Polygon","coordinates":[[[1.75326,50.66979],[1.75146,50.67015],[1.75151,50.6702],[1.75326,50.66979]]]}},{"type":"Feature","properties":{"k":"PPH","s":2.363},"geometry":{"type":"Polygon","coordinates":[[[1.75236,50.67132],[1.75383,50.67098],[1.75365,50.67054],[1.75182,50.67049],[1.7516,50.67022],[1.75115,50.67034],[1.75073,50.6708],[1.75075,50.67207],[1.75236,50.67132]]]}},{"type":"Feature","properties":{"k":"PPH","s":0.868},"geometry":{"type":"Polygon","coordinates":[[[1.74442,50.6715],[1.74411,50.67153],[1.74423,50.67163],[1.74628,50.67143],[1.74642,50.67119],[1.74682,50.67122],[1.74715,50.67101],[1.74699,50.67059],[1.74442,50.6715]]]}},{"type":"Feature","properties":{"k":"BTH","s":1.334},"geometry":{"type":"Polygon","coordinates":[[[1.74617,50.6701],[1.74431,50.67092],[1.74376,50.67134],[1.74411,50.67153],[1.74442,50.6715],[1.74699,50.67059],[1.74702,50.67036],[1.74643,50.67047],[1.74617,50.6701]]]}},{"type":"Feature","properties":{"k":"PPH","s":4.327},"geometry":{"type":"Polygon","coordinates":[[[1.74488,50.67056],[1.74704,50.66974],[1.74846,50.66852],[1.74664,50.66802],[1.74382,50.66987],[1.74488,50.67056]]]}},{"type":"Feature","properties":{"k":"ORH","s":11.666},"geometry":{"type":"Polygon","coordinates":[[[1.74023,50.66802],[1.74382,50.66987],[1.74664,50.66802],[1.74649,50.66696],[1.74336,50.66571],[1.74023,50.66802]]]}},{"type":"Feature","properties":{"k":"BTH","s":0.17},"geometry":{"type":"Polygon","coordinates":[[[1.74171,50.66904],[1.74188,50.66892],[1.74088,50.66841],[1.7407,50.66854],[1.74171,50.66904]]]}},{"type":"Feature","properties":{"k":"BTH","s":7.1},"geometry":{"type":"Polygon","coordinates":[[[1.73902,50.66888],[1.73846,50.66932],[1.73749,50.66974],[1.73846,50.67032],[1.74162,50.67155],[1.74209,50.67165],[1.74247,50.67125],[1.7433,50.67146],[1.74484,50.67059],[1.74188,50.66892],[1.74079,50.66973],[1.73902,50.66888]],[[1.73969,50.67056],[1.7389,50.6702],[1.73982,50.66946],[1.74061,50.66983],[1.73969,50.67056]],[[1.74071,50.67049],[1.74116,50.67009],[1.74157,50.67027],[1.74114,50.67066],[1.74071,50.67049]],[[1.74367,50.67037],[1.74408,50.67059],[1.74314,50.67128],[1.74262,50.67117],[1.74367,50.67037]],[[1.7419,50.67071],[1.74228,50.67083],[1.74208,50.67104],[1.74172,50.67093],[1.7419,50.67071]]]}},{"type":"Feature","properties":{"k":"ORP","s":0.408},"geometry":{"type":"Polygon","coordinates":[[[1.74314,50.67128],[1.74408,50.67059],[1.74367,50.67037],[1.74262,50.67117],[1.74314,50.67128]]]}},{"type":"Feature","properties":{"k":"ORP","s":0.081},"geometry":{"type":"Polygon","coordinates":[[[1.74228,50.67083],[1.7419,50.67071],[1.74172,50.67093],[1.74208,50.67104],[1.74228,50.67083]]]}},{"type":"Feature","properties":{"k":"ORP","s":0.192},"geometry":{"type":"Polygon","coordinates":[[[1.74116,50.67009],[1.74071,50.67049],[1.74114,50.67066],[1.74157,50.67027],[1.74116,50.67009]]]}},{"type":"Feature","properties":{"k":"BTH","s":1.337},"geometry":{"type":"Polygon","coordinates":[[[1.74037,50.67182],[1.7405,50.67202],[1.73994,50.67237],[1.74167,50.67313],[1.74253,50.67236],[1.74037,50.67182]]]}},{"type":"Feature","properties":{"k":"PPH","s":3.294},"geometry":{"type":"Polygon","coordinates":[[[1.74629,50.67144],[1.74423,50.67165],[1.74354,50.67217],[1.74375,50.6725],[1.7468,50.67221],[1.74681,50.6719],[1.74908,50.67157],[1.74886,50.67096],[1.74744,50.67098],[1.74682,50.67124],[1.74644,50.67119],[1.74629,50.67144]]]}},{"type":"Feature","properties":{"k":"BTH","s":4.298},"geometry":{"type":"Polygon","coordinates":[[[1.74792,50.67327],[1.748,50.67245],[1.74931,50.67234],[1.74909,50.67158],[1.74681,50.6719],[1.7468,50.67221],[1.74377,50.67251],[1.74409,50.67273],[1.74445,50.67351],[1.74792,50.67327]]]}},{"type":"Feature","properties":{"k":"PTR","s":1.788},"geometry":{"type":"Polygon","coordinates":[[[1.7445,50.67377],[1.74386,50.67296],[1.74357,50.67316],[1.74334,50.67419],[1.74199,50.67561],[1.74275,50.6758],[1.7445,50.67377]]]}},{"type":"Feature","properties":{"k":"PPH","s":1.132},"geometry":{"type":"Polygon","coordinates":[[[1.74354,50.67317],[1.74391,50.67284],[1.74334,50.67217],[1.7431,50.67233],[1.74274,50.67401],[1.74217,50.67429],[1.74292,50.67447],[1.74344,50.67396],[1.74354,50.67317]]]}},{"type":"Feature","properties":{"k":"PPH","s":2.153},"geometry":{"type":"Polygon","coordinates":[[[1.74055,50.67426],[1.7418,50.67466],[1.74187,50.67443],[1.74266,50.67401],[1.74303,50.67232],[1.74329,50.67216],[1.74295,50.67201],[1.74055,50.67426]]]}},{"type":"Feature","properties":{"k":"BTA","s":0.197},"geometry":{"type":"Polygon","coordinates":[[[1.74162,50.67461],[1.74115,50.6756],[1.74057,50.67601],[1.74067,50.67608],[1.74137,50.67551],[1.74143,50.67505],[1.7418,50.67466],[1.74162,50.67461]]]}},{"type":"Feature","properties":{"k":"PPH","s":1.704},"geometry":{"type":"Polygon","coordinates":[[[1.74275,50.6758],[1.74199,50.67561],[1.7415,50.67628],[1.74237,50.67662],[1.74281,50.67663],[1.74412,50.67456],[1.74528,50.67422],[1.7445,50.67377],[1.74275,50.6758]]]}},{"type":"Feature","properties":{"k":"PPH","s":6.956},"geometry":{"type":"Polygon","coordinates":[[[1.7412,50.67672],[1.73885,50.67707],[1.73866,50.67783],[1.74038,50.67799],[1.74368,50.67896],[1.74499,50.67673],[1.74273,50.67684],[1.74281,50.67663],[1.74237,50.67662],[1.74143,50.67628],[1.7412,50.67672]]]}},{"type":"Feature","properties":{"k":"MDI","s":0.16},"geometry":{"type":"Polygon","coordinates":[[[1.74722,50.67668],[1.74746,50.67652],[1.74723,50.67625],[1.7475,50.67619],[1.7468,50.67618],[1.74722,50.67668]]]}},{"type":"Feature","properties":{"k":"PPH","s":2.71},"geometry":{"type":"Polygon","coordinates":[[[1.74361,50.67541],[1.74276,50.67683],[1.74505,50.67669],[1.74706,50.6761],[1.74361,50.67541]]]}},{"type":"Feature","properties":{"k":"MIS","s":2.41},"geometry":{"type":"Polygon","coordinates":[[[1.75015,50.67736],[1.75161,50.67764],[1.75297,50.67755],[1.75365,50.67686],[1.7523,50.67638],[1.75026,50.6768],[1.75015,50.67736]]]}},{"type":"Feature","properties":{"k":"PPH","s":2.134},"geometry":{"type":"MultiPolygon","coordinates":[[[[1.75297,50.67755],[1.75455,50.6772],[1.75439,50.67595],[1.7523,50.67638],[1.75365,50.67686],[1.75297,50.67755]]],[[[1.75026,50.67739],[1.75143,50.67765],[1.75218,50.67763],[1.75026,50.67739]]],[[[1.74974,50.67634],[1.74873,50.67685],[1.74911,50.67711],[1.75015,50.67736],[1.75025,50.67679],[1.74974,50.67634]]]]}},{"type":"Feature","properties":{"k":"MIS","s":0.892},"geometry":{"type":"Polygon","coordinates":[[[1.74978,50.67636],[1.75026,50.67679],[1.75231,50.67638],[1.75191,50.6759],[1.74978,50.67636]]]}},{"type":"Feature","properties":{"k":"PPH","s":2.227},"geometry":{"type":"Polygon","coordinates":[[[1.75069,50.67607],[1.75047,50.6759],[1.74832,50.6767],[1.74877,50.67681],[1.74974,50.67633],[1.75191,50.6759],[1.75231,50.67638],[1.75385,50.67605],[1.75252,50.67436],[1.75201,50.67483],[1.75254,50.67528],[1.75069,50.67607]]]}},{"type":"Feature","properties":{"k":"MIS","s":0.607},"geometry":{"type":"Polygon","coordinates":[[[1.75137,50.67541],[1.75047,50.6759],[1.75069,50.67607],[1.75254,50.67528],[1.75199,50.67485],[1.75137,50.67541]]]}},{"type":"Feature","properties":{"k":"MIS","s":3.59},"geometry":{"type":"Polygon","coordinates":[[[1.75008,50.67457],[1.74881,50.67556],[1.74979,50.67625],[1.75137,50.67541],[1.75253,50.67436],[1.75054,50.67337],[1.75008,50.67457]]]}},{"type":"Feature","properties":{"k":"PPH","s":7.149},"geometry":{"type":"Polygon","coordinates":[[[1.74462,50.67348],[1.74446,50.67363],[1.74541,50.67421],[1.74673,50.67462],[1.74815,50.6756],[1.74844,50.67528],[1.74885,50.67549],[1.74999,50.67454],[1.75023,50.6741],[1.75073,50.67223],[1.75056,50.67137],[1.74977,50.67144],[1.75003,50.67235],[1.74993,50.67342],[1.74795,50.67357],[1.74796,50.67328],[1.74462,50.67348]]]}},{"type":"Feature","properties":{"k":"PTR","s":2.203},"geometry":{"type":"Polygon","coordinates":[[[1.74993,50.67342],[1.75003,50.67235],[1.74977,50.67144],[1.74911,50.67158],[1.74934,50.67235],[1.74803,50.67247],[1.74795,50.67357],[1.74993,50.67342]]]}},{"type":"Feature","properties":{"k":"BTH","s":2.737},"geometry":{"type":"Polygon","coordinates":[[[1.75363,50.67342],[1.75093,50.67213],[1.75054,50.67337],[1.75253,50.67436],[1.75363,50.67342]]]}}]}