{"type":"FeatureCollection","features":[{"type":"Feature","properties":{"k":"JAC","s":0.198},"geometry":{"type":"MultiPolygon","coordinates":[[[[1.97882,50.30578],[1.97869,50.30577],[1.97895,50.30601],[1.97882,50.30578]]],[[[1.97603,50.30639],[1.97816,50.30574],[1.97644,50.30614],[1.97585,50.30617],[1.97603,50.30639]]]]}},{"type":"Feature","properties":{"k":"PPH","s":2.29},"geometry":{"type":"Polygon","coordinates":[[[1.95493,50.29972],[1.95466,50.30002],[1.95491,50.30012],[1.95593,50.2993],[1.9566,50.29959],[1.95609,50.30006],[1.95541,50.29995],[1.95507,50.30019],[1.95642,50.30058],[1.95786,50.30063],[1.958,50.30053],[1.95727,50.29978],[1.95537,50.29883],[1.95502,50.29892],[1.95448,50.29958],[1.95493,50.29972]]]}},{"type":"Feature","properties":{"k":"PPH","s":0.18},"geometry":{"type":"Polygon","coordinates":[[[1.95411,50.2995],[1.95438,50.29925],[1.95372,50.29905],[1.95349,50.29933],[1.95411,50.2995]]]}},{"type":"Feature","properties":{"k":"PPH","s":1.541},"geometry":{"type":"Polygon","coordinates":[[[1.95237,50.29815],[1.95372,50.29881],[1.95406,50.29859],[1.95493,50.29888],[1.95538,50.29878],[1.95321,50.29748],[1.95185,50.2982],[1.95237,50.29815]]]}},{"type":"Feature","properties":{"k":"PPH","s":14.856},"geometry":{"type":"Polygon","coordinates":[[[1.95325,50.29964],[1.9526,50.30043],[1.95237,50.30034],[1.95244,50.30022],[1.95205,50.3002],[1.95168,50.30095],[1.9522,50.30114],[1.95203,50.30134],[1.95319,50.30184],[1.95467,50.30305],[1.95605,50.30368],[1.95637,50.30379],[1.95669,50.30341],[1.96143,50.3052],[1.96195,50.30461],[1.95865,50.30349],[1.95964,50.30233],[1.95725,50.30115],[1.95533,50.30068],[1.95428,50.30022],[1.95444,50.30004],[1.95325,50.29964]]]}},{"type":"Feature","properties":{"k":"MIS","s":3.112},"geometry":{"type":"Polygon","coordinates":[[[1.9603,50.30552],[1.95943,50.30528],[1.95852,50.30475],[1.95498,50.30327],[1.95754,50.30519],[1.95885,50.3067],[1.9603,50.30552]]]}},{"type":"Feature","properties":{"k":"MIS","s":7.611},"geometry":{"type":"Polygon","coordinates":[[[1.95025,50.30677],[1.95606,50.30418],[1.95453,50.30305],[1.94977,50.30516],[1.95025,50.30677]]]}},{"type":"Feature","properties":{"k":"CZH","s":9.485},"geometry":{"type":"Polygon","coordinates":[[[1.95758,50.30542],[1.95606,50.30418],[1.95027,50.30677],[1.95059,50.30773],[1.95109,50.3083],[1.95758,50.30542]]]}},{"type":"Feature","properties":{"k":"ORH","s":4.436},"geometry":{"type":"Polygon","coordinates":[[[1.95111,50.3083],[1.95137,50.30883],[1.95158,50.30892],[1.95814,50.30605],[1.95757,50.30543],[1.95111,50.3083]]]}},{"type":"Feature","properties":{"k":"AVP","s":0.847},"geometry":{"type":"Polygon","coordinates":[[[1.95362,50.3098],[1.95389,50.30968],[1.95252,50.30851],[1.95155,50.30893],[1.95362,50.3098]]]}},{"type":"Feature","properties":{"k":"PHF","s":7.816},"geometry":{"type":"Polygon","coordinates":[[[1.95926,50.30738],[1.95814,50.30605],[1.95252,50.30851],[1.95389,50.30968],[1.95926,50.30738]]]}},{"type":"Feature","properties":{"k":"LIF","s":7.714},"geometry":{"type":"Polygon","coordinates":[[[1.95426,50.31016],[1.95505,50.311],[1.96044,50.30861],[1.95926,50.30738],[1.95369,50.30984],[1.95426,50.31016]]]}},{"type":"Feature","properties":{"k":"BTN","s":7.118},"geometry":{"type":"Polygon","coordinates":[[[1.9627,50.31088],[1.96654,50.30778],[1.96431,50.30695],[1.96133,50.3094],[1.9627,50.31088]]]}},{"type":"Feature","properties":{"k":"BTH","s":8.386},"geometry":{"type":"Polygon","coordinates":[[[1.96133,50.3094],[1.96431,50.30695],[1.9603,50.30552],[1.95885,50.3067],[1.96133,50.3094]]]}},{"type":"Feature","properties":{"k":"PPH","s":2.109},"geometry":{"type":"Polygon","coordinates":[[[1.96365,50.30668],[1.96467,50.30596],[1.96242,50.30498],[1.96157,50.30597],[1.96365,50.30668]]]}},{"type":"Feature","properties":{"k":"PPH","s":0.666},"geometry":{"type":"Polygon","coordinates":[[[1.96242,50.30498],[1.963,50.30522],[1.96316,50.305],[1.96193,50.3046],[1.96122,50.30544],[1.96187,50.30563],[1.96242,50.30498]]]}},{"type":"Feature","properties":{"k":"JAC","s":0.188},"geometry":{"type":"Polygon","coordinates":[[[1.96157,50.30597],[1.96187,50.30563],[1.96122,50.30544],[1.96101,50.30568],[1.96157,50.30597]]]}},{"type":"Feature","properties":{"k":"MIS","s":2.09},"geometry":{"type":"Polygon","coordinates":[[[1.96101,50.30568],[1.96143,50.3052],[1.95669,50.30341],[1.9564,50.3038],[1.96101,50.30568]]]}},{"type":"Feature","properties":{"k":"ORH","s":3.375},"geometry":{"type":"Polygon","coordinates":[[[1.96032,50.30384],[1.96159,50.30238],[1.96019,50.3017],[1.95865,50.30349],[1.96316,50.305],[1.96334,50.30474],[1.96032,50.30384]]]}},{"type":"Feature","properties":{"k":"BTA","s":0.109},"geometry":{"type":"Polygon","coordinates":[[[1.96113,50.30217],[1.96159,50.30238],[1.96025,50.30163],[1.96113,50.30217]]]}},{"type":"Feature","properties":{"k":"BTA","s":0.084},"geometry":{"type":"Polygon","coordinates":[[[1.96164,50.30232],[1.9616,50.30236],[1.96372,50.30314],[1.96164,50.30232]]]}},{"type":"Feature","properties":{"k":"BTH","s":1.472},"geometry":{"type":"Polygon","coordinates":[[[1.97869,50.30577],[1.97818,50.30573],[1.97603,50.30639],[1.97676,50.30713],[1.97889,50.30596],[1.97869,50.30577]]]}},{"type":"Feature","properties":{"k":"MIS","s":3.51},"geometry":{"type":"Polygon","coordinates":[[[1.97789,50.30846],[1.97805,50.30841],[1.98025,50.307],[1.97904,50.30596],[1.97676,50.30713],[1.97789,50.30846]]]}},{"type":"Feature","properties":{"k":"MLG","s":1.855},"geometry":{"type":"Polygon","coordinates":[[[1.97802,50.31229],[1.97889,50.31195],[1.97683,50.31004],[1.976,50.3104],[1.97802,50.31229]]]}},{"type":"Feature","properties":{"k":"BTH","s":1.078},"geometry":{"type":"MultiPolygon","coordinates":[[[[1.97775,50.31036],[1.97887,50.31108],[1.97714,50.30939],[1.97681,50.3094],[1.97775,50.31036]]],[[[1.97912,50.3119],[1.97803,50.31229],[1.97812,50.31242],[1.97843,50.31271],[1.97946,50.3123],[1.98007,50.31291],[1.97906,50.31134],[1.97912,50.3119]]]]}},{"type":"Feature","properties":{"k":"MIS","s":0.031},"geometry":{"type":"Polygon","coordinates":[[[1.97893,50.31342],[1.97894,50.31343],[1.98005,50.31299],[1.97893,50.31342]]]}},{"type":"Feature","properties":{"k":"MLG","s":0.758},"geometry":{"type":"Polygon","coordinates":[[[1.97893,50.31342],[1.98003,50.31294],[1.97945,50.3123],[1.9784,50.31272],[1.97893,50.31342]]]}},{"type":"Feature","properties":{"k":"PPH","s":1.87},"geometry":{"type":"Polygon","coordinates":[[[1.97857,50.31308],[1.97747,50.31185],[1.97624,50.31245],[1.97759,50.3134],[1.9773,50.31409],[1.97871,50.3135],[1.97857,50.31308]]]}},{"type":"Feature","properties":{"k":"BTN","s":3.068},"geometry":{"type":"Polygon","coordinates":[[[1.9616,50.30236],[1.96036,50.3038],[1.96255,50.30446],[1.96372,50.30314],[1.9616,50.30236]]]}},{"type":"Feature","properties":{"k":"PTR","s":0.098},"geometry":{"type":"Polygon","coordinates":[[[1.96495,50.30328],[1.9629,50.30272],[1.96401,50.3031],[1.96495,50.30328]]]}},{"type":"Feature","properties":{"k":"BTA","s":0.12},"geometry":{"type":"Polygon","coordinates":[[[1.9617,50.30232],[1.96487,50.30343],[1.96491,50.30335],[1.9617,50.30232]]]}},{"type":"Feature","properties":{"k":"ORH","s":0.275},"geometry":{"type":"Polygon","coordinates":[[[1.96683,50.30378],[1.96499,50.30329],[1.96508,50.30349],[1.96669,50.30393],[1.96683,50.30378]]]}},{"type":"Feature","properties":{"k":"BTA","s":0.085},"geometry":{"type":"Polygon","coordinates":[[[1.9666,50.304],[1.96666,50.30395],[1.96492,50.30339],[1.9666,50.304]]]}},{"type":"Feature","properties":{"k":"ORH","s":1.817},"geometry":{"type":"Polygon","coordinates":[[[1.96762,50.30387],[1.96869,50.30309],[1.96813,50.30252],[1.96807,50.30184],[1.96618,50.30354],[1.96762,50.30387]]]}},{"type":"Feature","properties":{"k":"BTH","s":0.479},"geometry":{"type":"Polygon","coordinates":[[[1.96861,50.30391],[1.96913,50.30353],[1.96869,50.30309],[1.96762,50.30387],[1.96861,50.30391]]]}},{"type":"Feature","properties":{"k":"BTA","s":0.243},"geometry":{"type":"Polygon","coordinates":[[[1.96706,50.30425],[1.96794,50.30476],[1.96744,50.30439],[1.96656,50.30401],[1.96371,50.30316],[1.96706,50.30425]]]}},{"type":"Feature","properties":{"k":"ORH","s":4.496},"geometry":{"type":"Polygon","coordinates":[[[1.96327,50.30468],[1.96368,50.30429],[1.96581,50.30521],[1.96745,50.30547],[1.96794,50.30476],[1.96706,50.30425],[1.96371,50.30316],[1.96254,50.30446],[1.96327,50.30468]]]}},{"type":"Feature","properties":{"k":"PPH","s":17.024},"geometry":{"type":"Polygon","coordinates":[[[1.96834,50.30569],[1.96852,50.30538],[1.96917,50.30556],[1.96937,50.3053],[1.96999,50.30544],[1.97035,50.30525],[1.96972,50.30504],[1.97024,50.30456],[1.96985,50.30424],[1.96954,50.30449],[1.96848,50.304],[1.96775,50.30458],[1.96799,50.30469],[1.96745,50.30547],[1.96538,50.30512],[1.96368,50.30429],[1.96301,50.30523],[1.96507,50.30611],[1.96471,50.3066],[1.96372,50.30666],[1.96484,50.30714],[1.96612,50.30754],[1.96649,50.3072],[1.97021,50.30899],[1.97064,50.30877],[1.97016,50.30851],[1.97094,50.3081],[1.97116,50.30828],[1.97145,50.3093],[1.9701,50.30991],[1.9697,50.30957],[1.9686,50.31045],[1.96878,50.31035],[1.96902,50.31057],[1.97039,50.31024],[1.97152,50.30974],[1.97191,50.3093],[1.97218,50.30827],[1.97183,50.30804],[1.97121,50.30813],[1.97063,50.30763],[1.97129,50.30731],[1.97129,50.30698],[1.97156,50.30684],[1.97029,50.3061],[1.96988,50.30597],[1.96972,50.30619],[1.96834,50.30569]]]}},{"type":"Feature","properties":{"k":"PPH","s":0.664},"geometry":{"type":"Polygon","coordinates":[[[1.9736,50.30668],[1.9731,50.30694],[1.97392,50.30764],[1.9742,50.30821],[1.97464,50.30807],[1.97435,50.30736],[1.9736,50.30668]]]}},{"type":"Feature","properties":{"k":"PPH","s":6.48},"geometry":{"type":"Polygon","coordinates":[[[1.97194,50.31074],[1.97277,50.31053],[1.97308,50.31067],[1.97398,50.31044],[1.97355,50.30991],[1.97287,50.31008],[1.97254,50.30966],[1.97426,50.30932],[1.97395,50.30872],[1.97429,50.30862],[1.97392,50.30783],[1.97295,50.30695],[1.97203,50.30709],[1.9723,50.30815],[1.97216,50.30973],[1.97158,50.30983],[1.96837,50.31115],[1.96825,50.31132],[1.96848,50.31188],[1.96976,50.3113],[1.9695,50.31075],[1.97194,50.31074]]]}},{"type":"Feature","properties":{"k":"PTC","s":0.13},"geometry":{"type":"Polygon","coordinates":[[[1.97497,50.30873],[1.97515,50.30867],[1.97486,50.30795],[1.97467,50.30811],[1.97497,50.30873]]]}},{"type":"Feature","properties":{"k":"PPH","s":0.143},"geometry":{"type":"Polygon","coordinates":[[[1.97681,50.3094],[1.97714,50.30939],[1.97675,50.30889],[1.97639,50.30901],[1.97681,50.3094]]]}},{"type":"Feature","properties":{"k":"MIS","s":6.633},"geometry":{"type":"Polygon","coordinates":[[[1.97515,50.30867],[1.97498,50.30876],[1.97553,50.30859],[1.97595,50.30908],[1.97783,50.30848],[1.97585,50.30617],[1.9751,50.30637],[1.97358,50.30515],[1.97225,50.30569],[1.97224,50.30571],[1.97438,50.30736],[1.97464,50.30802],[1.97486,50.30795],[1.97515,50.30867]]]}},{"type":"Feature","properties":{"k":"MIS","s":3.007},"geometry":{"type":"Polygon","coordinates":[[[1.97298,50.30539],[1.97358,50.30515],[1.9751,50.30637],[1.97616,50.30609],[1.9757,50.30577],[1.97476,50.30439],[1.97415,50.30387],[1.97238,50.30495],[1.97298,50.30539]]]}},{"type":"Feature","properties":{"k":"PPH","s":0.884},"geometry":{"type":"Polygon","coordinates":[[[1.97199,50.3047],[1.97114,50.3052],[1.97185,50.30589],[1.97298,50.30539],[1.97199,50.3047]]]}},{"type":"Feature","properties":{"k":"MIS","s":10.782},"geometry":{"type":"Polygon","coordinates":[[[1.96823,50.3024],[1.96877,50.30304],[1.96927,50.30267],[1.97238,50.30495],[1.97415,50.30387],[1.97343,50.30327],[1.97398,50.30266],[1.9719,50.30186],[1.97124,50.30178],[1.97058,50.30143],[1.97123,50.301],[1.9698,50.30035],[1.96809,50.30101],[1.96823,50.3024]]]}},{"type":"Feature","properties":{"k":"BTH","s":12.929},"geometry":{"type":"Polygon","coordinates":[[[1.96775,50.3012],[1.96645,50.30209],[1.96623,50.30199],[1.96791,50.30073],[1.96748,50.29871],[1.96657,50.29837],[1.96208,50.30237],[1.96613,50.30353],[1.96806,50.30181],[1.968,50.30117],[1.96775,50.3012]]]}},{"type":"Feature","properties":{"k":"BTH","s":7.122},"geometry":{"type":"Polygon","coordinates":[[[1.96743,50.29723],[1.96735,50.29798],[1.96765,50.29897],[1.97159,50.30074],[1.97245,50.29927],[1.9709,50.2982],[1.96923,50.29765],[1.96896,50.2979],[1.96743,50.29723]]]}},{"type":"Feature","properties":{"k":"PPH","s":0.341},"geometry":{"type":"Polygon","coordinates":[[[1.96743,50.29723],[1.96896,50.2979],[1.96923,50.29765],[1.96807,50.29733],[1.96758,50.29693],[1.96743,50.29723]]]}},{"type":"Feature","properties":{"k":"BTH","s":0.348},"geometry":{"type":"Polygon","coordinates":[[[1.96733,50.29732],[1.96754,50.29691],[1.96465,50.29711],[1.96733,50.29732]]]}},{"type":"Feature","properties":{"k":"TRE","s":5.433},"geometry":{"type":"Polygon","coordinates":[[[1.96897,50.31693],[1.96481,50.31877],[1.96616,50.31942],[1.96875,50.32009],[1.96897,50.31693]]]}},{"type":"Feature","properties":{"k":"MIS","s":1.343},"geometry":{"type":"Polygon","coordinates":[[[1.96894,50.31654],[1.96447,50.31853],[1.96481,50.31877],[1.96897,50.31693],[1.96894,50.31654]]]}},{"type":"Feature","properties":{"k":"BTN","s":7.583},"geometry":{"type":"Polygon","coordinates":[[[1.9689,50.32014],[1.97082,50.32064],[1.97152,50.31935],[1.97296,50.3181],[1.97123,50.31678],[1.96903,50.3178],[1.9689,50.32014]]]}},{"type":"Feature","properties":{"k":"BTH","s":1.035},"geometry":{"type":"MultiPolygon","coordinates":[[[[1.97297,50.3181],[1.97356,50.31759],[1.97179,50.31651],[1.97129,50.31674],[1.97297,50.3181]]]]}},{"type":"Feature","properties":{"k":"BTH","s":19.158},"geometry":{"type":"Polygon","coordinates":[[[1.96905,50.31753],[1.96904,50.31777],[1.97672,50.31433],[1.97545,50.31346],[1.97425,50.31409],[1.97371,50.3138],[1.97279,50.31419],[1.97215,50.31388],[1.972,50.31364],[1.97342,50.31262],[1.97349,50.31222],[1.97172,50.31133],[1.97085,50.31141],[1.96976,50.3113],[1.96848,50.31188],[1.96969,50.31388],[1.96925,50.31748],[1.96905,50.31753]]]}},{"type":"Feature","properties":{"k":"BFS","s":0.0},"geometry":{"type":"Polygon","coordinates":[]}},{"type":"Feature","properties":{"k":"BTA","s":0.059},"geometry":{"type":"Polygon","coordinates":[[[1.97728,50.31181],[1.97682,50.31129],[1.9767,50.31133],[1.97728,50.31181]]]}},{"type":"Feature","properties":{"k":"PPH","s":0.513},"geometry":{"type":"Polygon","coordinates":[[[1.97504,50.31191],[1.97647,50.31142],[1.9763,50.31124],[1.97658,50.31114],[1.97641,50.31101],[1.97486,50.31151],[1.97504,50.31191]]]}},{"type":"Feature","properties":{"k":"PPH","s":2.325},"geometry":{"type":"Polygon","coordinates":[[[1.97481,50.30926],[1.97427,50.30937],[1.97435,50.30953],[1.97344,50.30974],[1.97425,50.31046],[1.97486,50.31151],[1.97641,50.31101],[1.97481,50.30926]]]}},{"type":"Feature","properties":{"k":"PPH","s":1.36},"geometry":{"type":"Polygon","coordinates":[[[1.97526,50.31283],[1.9738,50.3132],[1.97251,50.31384],[1.97255,50.3141],[1.97279,50.31419],[1.97399,50.3137],[1.97471,50.31385],[1.97536,50.31341],[1.97526,50.31283]]]}},{"type":"Feature","properties":{"k":"PTC","s":9.481},"geometry":{"type":"Polygon","coordinates":[[[1.96274,50.31088],[1.9644,50.31245],[1.96864,50.30893],[1.96651,50.30778],[1.96274,50.31088]]]}},{"type":"Feature","properties":{"k":"BTH","s":14.579},"geometry":{"type":"Polygon","coordinates":[[[1.96442,50.31244],[1.9678,50.31476],[1.96902,50.31628],[1.96955,50.31382],[1.9678,50.31105],[1.9697,50.30957],[1.96951,50.30935],[1.97021,50.30899],[1.96649,50.3072],[1.96612,50.30754],[1.9687,50.30895],[1.96442,50.31244]]]}},{"type":"Feature","properties":{"k":"MIS","s":0.228},"geometry":{"type":"Polygon","coordinates":[[[1.96905,50.31753],[1.96925,50.31748],[1.96939,50.31625],[1.96919,50.31623],[1.96905,50.31753]]]}},{"type":"Feature","properties":{"k":"BTN","s":1.498},"geometry":{"type":"Polygon","coordinates":[[[1.96894,50.31654],[1.96876,50.3162],[1.96417,50.31827],[1.96447,50.31853],[1.96894,50.31654]]]}},{"type":"Feature","properties":{"k":"BTN","s":9.272},"geometry":{"type":"Polygon","coordinates":[[[1.96253,50.31639],[1.96447,50.31813],[1.96876,50.3162],[1.96802,50.31512],[1.96724,50.3144],[1.96253,50.31639]]]}},{"type":"Feature","properties":{"k":"BTN","s":0.072},"geometry":{"type":"Polygon","coordinates":[[[1.9631,50.31753],[1.96356,50.31767],[1.96352,50.31719],[1.96351,50.31719],[1.9631,50.31753]]]}},{"type":"Feature","properties":{"k":"LIF","s":0.1},"geometry":{"type":"Polygon","coordinates":[[[1.96128,50.3155],[1.96252,50.31639],[1.96134,50.31544],[1.96049,50.31514],[1.96072,50.3149],[1.96027,50.31512],[1.96128,50.3155]]]}},{"type":"Feature","properties":{"k":"CZH","s":0.709},"geometry":{"type":"Polygon","coordinates":[[[1.96086,50.31474],[1.96306,50.31237],[1.96244,50.31264],[1.96017,50.31512],[1.96086,50.31474]]]}},{"type":"Feature","properties":{"k":"LIF","s":8.497},"geometry":{"type":"Polygon","coordinates":[[[1.96049,50.31514],[1.96134,50.31544],[1.96253,50.31639],[1.96717,50.31434],[1.9649,50.31291],[1.96072,50.3149],[1.96049,50.31514]]]}},{"type":"Feature","properties":{"k":"CZH","s":2.725},"geometry":{"type":"Polygon","coordinates":[[[1.96378,50.31205],[1.96307,50.31237],[1.96072,50.3149],[1.96487,50.31288],[1.96378,50.31205]]]}},{"type":"Feature","properties":{"k":"MIS","s":0.043},"geometry":{"type":"MultiPolygon","coordinates":[[[[1.96334,50.31166],[1.96301,50.31202],[1.96349,50.31181],[1.96334,50.31166]]],[[[1.96181,50.31197],[1.96193,50.31187],[1.96175,50.31195],[1.96181,50.31197]]]]}},{"type":"Feature","properties":{"k":"MIS","s":0.275},"geometry":{"type":"Polygon","coordinates":[[[1.96244,50.31265],[1.9638,50.31206],[1.9635,50.31181],[1.963,50.31203],[1.96244,50.31265]]]}},{"type":"Feature","properties":{"k":"BTH","s":2.446},"geometry":{"type":"MultiPolygon","coordinates":[[[[1.96285,50.31116],[1.96208,50.3103],[1.95949,50.31145],[1.96175,50.31195],[1.96285,50.31116]]],[[[1.95759,50.31269],[1.95873,50.31178],[1.95719,50.31246],[1.95759,50.31269]]]]}},{"type":"Feature","properties":{"k":"BTH","s":5.293},"geometry":{"type":"Polygon","coordinates":[[[1.96195,50.31019],[1.96115,50.30938],[1.95584,50.31173],[1.95719,50.31246],[1.95874,50.31178],[1.95922,50.31139],[1.95948,50.31145],[1.96172,50.31045],[1.96161,50.31033],[1.96195,50.31019]]]}},{"type":"Feature","properties":{"k":"BTH","s":4.538},"geometry":{"type":"Polygon","coordinates":[[[1.96044,50.30861],[1.95508,50.31099],[1.95584,50.31173],[1.96116,50.30936],[1.96044,50.30861]]]}},{"type":"Feature","properties":{"k":"BTN","s":0.27},"geometry":{"type":"Polygon","coordinates":[[[1.96417,50.31827],[1.96447,50.31813],[1.96352,50.31719],[1.96357,50.31767],[1.96417,50.31827]]]}},{"type":"Feature","properties":{"k":"MIS","s":4.562},"geometry":{"type":"Polygon","coordinates":[[[1.94698,50.30685],[1.94794,50.30766],[1.95047,50.30865],[1.95079,50.30831],[1.95105,50.3084],[1.95039,50.30751],[1.94713,50.30548],[1.94643,50.30586],[1.94698,50.30685]]]}},{"type":"Feature","properties":{"k":"BTH","s":8.037},"geometry":{"type":"Polygon","coordinates":[[[1.95029,50.30237],[1.95059,50.30255],[1.94961,50.30297],[1.95,50.30505],[1.95449,50.30306],[1.95273,50.30173],[1.95082,50.30107],[1.95029,50.30237]]]}},{"type":"Feature","properties":{"k":"AVP","s":0.153},"geometry":{"type":"Polygon","coordinates":[[[1.94959,50.30396],[1.94978,50.30387],[1.94961,50.30297],[1.94942,50.30305],[1.94959,50.30396]]]}},{"type":"Feature","properties":{"k":"BTH","s":12.056},"geometry":{"type":"Polygon","coordinates":[[[1.95015,50.30665],[1.94919,50.30261],[1.94661,50.30096],[1.94662,50.30093],[1.94412,50.3021],[1.9447,50.30309],[1.95015,50.30665]]]}},{"type":"Feature","properties":{"k":"LIF","s":2.969},"geometry":{"type":"Polygon","coordinates":[[[1.94577,50.30463],[1.95039,50.30751],[1.95015,50.30665],[1.94487,50.30323],[1.94577,50.30463]]]}},{"type":"Feature","properties":{"k":"PPH","s":0.098},"geometry":{"type":"MultiPolygon","coordinates":[[[[1.94506,50.30557],[1.94671,50.30674],[1.94653,50.30656],[1.94506,50.30557]]],[[[1.94242,50.30438],[1.94162,50.30411],[1.94161,50.30412],[1.94316,50.30471],[1.94242,50.30438]]]]}},{"type":"Feature","properties":{"k":"BTH","s":1.598},"geometry":{"type":"Polygon","coordinates":[[[1.94478,50.30535],[1.94511,50.30511],[1.94292,50.3037],[1.94236,50.30363],[1.94188,50.30415],[1.94478,50.30535]]]}},{"type":"Feature","properties":{"k":"PPH","s":2.558},"geometry":{"type":"Polygon","coordinates":[[[1.94315,50.30375],[1.94477,50.30463],[1.94643,50.30586],[1.94713,50.30547],[1.94573,50.30459],[1.94476,50.30312],[1.94315,50.30375]]]}},{"type":"Feature","properties":{"k":"PPH","s":3.696},"geometry":{"type":"Polygon","coordinates":[[[1.94369,50.30347],[1.9439,50.30341],[1.94307,50.30296],[1.9426,50.30312],[1.94293,50.3021],[1.94259,50.30171],[1.94315,50.30131],[1.94259,50.30081],[1.94035,50.30156],[1.93986,50.30196],[1.9419,50.30314],[1.94369,50.30347]]]}},{"type":"Feature","properties":{"k":"PPH","s":0.619},"geometry":{"type":"Polygon","coordinates":[[[1.94236,50.30363],[1.94117,50.30331],[1.94077,50.30378],[1.94188,50.30415],[1.94236,50.30363]]]}},{"type":"Feature","properties":{"k":"PPH","s":0.553},"geometry":{"type":"Polygon","coordinates":[[[1.94511,50.3051],[1.94476,50.30537],[1.94661,50.30665],[1.94623,50.30585],[1.94511,50.3051]]]}},{"type":"Feature","properties":{"k":"PPH","s":0.779},"geometry":{"type":"MultiPolygon","coordinates":[[[[1.93831,50.3019],[1.93725,50.30235],[1.93793,50.3031],[1.93884,50.30245],[1.93831,50.3019]]]]}},{"type":"Feature","properties":{"k":"PPH","s":0.135},"geometry":{"type":"Polygon","coordinates":[[[1.93691,50.30165],[1.93672,50.30175],[1.93719,50.30227],[1.93744,50.30215],[1.93691,50.30165]]]}},{"type":"Feature","properties":{"k":"PPH","s":1.541},"geometry":{"type":"Polygon","coordinates":[[[1.93732,50.3002],[1.93817,50.30092],[1.94022,50.29977],[1.9389,50.29947],[1.93732,50.3002]]]}},{"type":"Feature","properties":{"k":"PPH","s":4.88},"geometry":{"type":"Polygon","coordinates":[[[1.93966,50.29911],[1.94098,50.29979],[1.9403,50.29992],[1.94099,50.3005],[1.94211,50.30028],[1.94126,50.29927],[1.94184,50.29847],[1.94133,50.29795],[1.94064,50.29831],[1.93926,50.2972],[1.93824,50.29754],[1.93983,50.29869],[1.9343,50.30152],[1.93446,50.30169],[1.93966,50.29911]]]}},{"type":"Feature","properties":{"k":"PPH","s":7.543},"geometry":{"type":"Polygon","coordinates":[[[1.93933,50.29854],[1.93812,50.29759],[1.93655,50.29829],[1.93604,50.29787],[1.93344,50.29836],[1.93314,50.29867],[1.93186,50.29916],[1.93307,50.30007],[1.93422,50.30146],[1.93657,50.30012],[1.93605,50.29989],[1.93506,50.30001],[1.935,50.30041],[1.93456,50.30069],[1.93423,50.30123],[1.93434,50.30034],[1.9348,50.29969],[1.93487,50.29908],[1.93628,50.29868],[1.93694,50.299],[1.93736,50.2986],[1.9373,50.29841],[1.93813,50.29824],[1.93818,50.29845],[1.93772,50.29861],[1.93785,50.29913],[1.93933,50.29854]]]}},{"type":"Feature","properties":{"k":"BTA","s":0.177},"geometry":{"type":"Polygon","coordinates":[[[1.93618,50.29684],[1.93736,50.29671],[1.93607,50.29679],[1.93625,50.29788],[1.93618,50.29684]]]}},{"type":"Feature","properties":{"k":"LUZ","s":1.33},"geometry":{"type":"Polygon","coordinates":[[[1.93765,50.29739],[1.93739,50.29679],[1.93618,50.29684],[1.93639,50.29741],[1.93625,50.29788],[1.93661,50.2982],[1.9381,50.29757],[1.93765,50.29739]]]}},{"type":"Feature","properties":{"k":"PPH","s":0.441},"geometry":{"type":"Polygon","coordinates":[[[1.93812,50.29743],[1.93875,50.29728],[1.93801,50.29638],[1.93765,50.29663],[1.93812,50.29743]]]}},{"type":"Feature","properties":{"k":"PPH","s":0.006},"geometry":{"type":"Polygon","coordinates":[[[1.94053,50.29528],[1.94059,50.2952],[1.9403,50.29538],[1.94053,50.29528]]]}},{"type":"Feature","properties":{"k":"PPH","s":0.0},"geometry":{"type":"Polygon","coordinates":[]}},{"type":"Feature","properties":{"k":"PPH","s":9.043},"geometry":{"type":"Polygon","coordinates":[[[1.9429,50.29589],[1.94454,50.29501],[1.94336,50.29405],[1.94412,50.29366],[1.94585,50.29502],[1.94704,50.29459],[1.94659,50.29392],[1.94611,50.29361],[1.94593,50.29296],[1.94498,50.29319],[1.94407,50.29306],[1.9434,50.29349],[1.94249,50.29336],[1.94205,50.29366],[1.94068,50.29532],[1.93954,50.29577],[1.94047,50.29675],[1.9429,50.29589]],[[1.94635,50.29443],[1.94612,50.2945],[1.94582,50.29425],[1.94609,50.29416],[1.94635,50.29443]]]}},{"type":"Feature","properties":{"k":"MIS","s":0.735},"geometry":{"type":"Polygon","coordinates":[[[1.94469,50.29489],[1.9453,50.2946],[1.94412,50.29366],[1.9435,50.29398],[1.94469,50.29489]]]}},{"type":"Feature","properties":{"k":"MIS","s":0.301},"geometry":{"type":"Polygon","coordinates":[[[1.94486,50.29535],[1.94565,50.29492],[1.94535,50.29464],[1.94453,50.29506],[1.94486,50.29535]]]}},{"type":"Feature","properties":{"k":"MIS","s":0.353},"geometry":{"type":"Polygon","coordinates":[[[1.94587,50.29514],[1.94566,50.29494],[1.94408,50.29578],[1.94436,50.2959],[1.94587,50.29514]]]}},{"type":"Feature","properties":{"k":"PPH","s":0.35},"geometry":{"type":"Polygon","coordinates":[[[1.9418,50.29764],[1.94226,50.29743],[1.94055,50.29678],[1.9404,50.29686],[1.9418,50.29764]]]}},{"type":"Feature","properties":{"k":"PPH","s":0.956},"geometry":{"type":"Polygon","coordinates":[[[1.94099,50.3005],[1.94012,50.29985],[1.93914,50.30026],[1.939,50.30051],[1.93973,50.30102],[1.94099,50.3005]]]}},{"type":"Feature","properties":{"k":"PPH","s":5.55},"geometry":{"type":"Polygon","coordinates":[[[1.94321,50.3013],[1.94264,50.30172],[1.94298,50.30211],[1.94265,50.30308],[1.94307,50.30293],[1.94392,50.30338],[1.9447,50.30309],[1.94412,50.3021],[1.94662,50.30093],[1.94555,50.29984],[1.94262,50.30081],[1.94321,50.3013]]]}},{"type":"Feature","properties":{"k":"PPH","s":2.026},"geometry":{"type":"Polygon","coordinates":[[[1.94762,50.3],[1.9481,50.3],[1.94814,50.29893],[1.94778,50.29897],[1.9457,50.29995],[1.94666,50.30092],[1.94754,50.30055],[1.94762,50.3]]]}},{"type":"Feature","properties":{"k":"BTH","s":2.559},"geometry":{"type":"Polygon","coordinates":[[[1.9466,50.30095],[1.94919,50.30261],[1.94893,50.30132],[1.94925,50.30061],[1.94806,50.30006],[1.94762,50.30003],[1.94754,50.30055],[1.9466,50.30095]]]}},{"type":"Feature","properties":{"k":"PPH","s":2.066},"geometry":{"type":"Polygon","coordinates":[[[1.95169,50.3009],[1.95239,50.2995],[1.95195,50.30002],[1.94856,50.29938],[1.94879,50.30006],[1.94919,50.30007],[1.95169,50.3009]]]}},{"type":"Feature","properties":{"k":"ORH","s":2.204},"geometry":{"type":"Polygon","coordinates":[[[1.9496,50.30056],[1.94908,50.30166],[1.94943,50.30304],[1.95059,50.30255],[1.95029,50.30237],[1.95082,50.30107],[1.9496,50.30056]]]}},{"type":"Feature","properties":{"k":"PPH","s":1.178},"geometry":{"type":"Polygon","coordinates":[[[1.95054,50.29966],[1.95073,50.29901],[1.94965,50.29883],[1.94838,50.29885],[1.94848,50.29936],[1.95054,50.29966]]]}},{"type":"Feature","properties":{"k":"MIS","s":0.731},"geometry":{"type":"Polygon","coordinates":[[[1.95191,50.29816],[1.95321,50.29748],[1.95254,50.29717],[1.95239,50.29725],[1.95257,50.29735],[1.95223,50.29755],[1.95161,50.2973],[1.95124,50.29775],[1.95191,50.29816]]]}},{"type":"Feature","properties":{"k":"BTA","s":0.043},"geometry":{"type":"Polygon","coordinates":[[[1.95185,50.2982],[1.95191,50.29816],[1.95114,50.2977],[1.95185,50.2982]]]}},{"type":"Feature","properties":{"k":"BOR","s":0.04},"geometry":{"type":"Polygon","coordinates":[[[1.95121,50.29774],[1.95161,50.2973],[1.95151,50.29727],[1.95121,50.29774]]]}},{"type":"Feature","properties":{"k":"PPH","s":1.598},"geometry":{"type":"Polygon","coordinates":[[[1.95274,50.29571],[1.95161,50.29587],[1.95119,50.29639],[1.95078,50.29627],[1.9506,50.29659],[1.95183,50.29675],[1.9522,50.29693],[1.95271,50.29639],[1.95314,50.29655],[1.95382,50.29584],[1.95274,50.29571]]]}},{"type":"Feature","properties":{"k":"PPH","s":0.462},"geometry":{"type":"Polygon","coordinates":[[[1.94876,50.29744],[1.9493,50.29757],[1.94966,50.29657],[1.94906,50.29655],[1.94876,50.29744]]]}},{"type":"Feature","properties":{"k":"PPH","s":1.255},"geometry":{"type":"Polygon","coordinates":[[[1.95028,50.29533],[1.95107,50.29429],[1.95,50.29361],[1.9494,50.29504],[1.95028,50.29533]]]}},{"type":"Feature","properties":{"k":"PPH","s":0.993},"geometry":{"type":"Polygon","coordinates":[[[1.9494,50.29504],[1.94979,50.29387],[1.94857,50.2944],[1.94903,50.29478],[1.94865,50.29496],[1.94874,50.29516],[1.94929,50.29556],[1.94947,50.29542],[1.9498,50.29562],[1.95009,50.2956],[1.95024,50.29539],[1.9494,50.29504]]]}},{"type":"Feature","properties":{"k":"BTN","s":2.412},"geometry":{"type":"Polygon","coordinates":[[[1.95117,50.29563],[1.95232,50.29471],[1.95188,50.29445],[1.9547,50.29303],[1.95425,50.2927],[1.95358,50.29285],[1.95246,50.29347],[1.9512,50.29437],[1.95039,50.29543],[1.95117,50.29563]]]}},{"type":"Feature","properties":{"k":"PPH","s":2.942},"geometry":{"type":"Polygon","coordinates":[[[1.95689,50.2958],[1.95508,50.29515],[1.95496,50.29485],[1.95474,50.29471],[1.95453,50.29487],[1.95427,50.29475],[1.95445,50.29459],[1.95409,50.29444],[1.95378,50.29438],[1.95313,50.29488],[1.95286,50.29565],[1.95418,50.29584],[1.95537,50.29627],[1.95689,50.2958]]]}},{"type":"Feature","properties":{"k":"MIS","s":2.143},"geometry":{"type":"Polygon","coordinates":[[[1.95408,50.29792],[1.95531,50.2964],[1.95391,50.29588],[1.95268,50.29711],[1.95408,50.29792]]]}},{"type":"Feature","properties":{"k":"PPH","s":2.531},"geometry":{"type":"Polygon","coordinates":[[[1.95746,50.29729],[1.95798,50.29568],[1.9571,50.29579],[1.9554,50.29633],[1.95488,50.29693],[1.95684,50.29743],[1.95746,50.29729]]]}},{"type":"Feature","properties":{"k":"PTR","s":2.497},"geometry":{"type":"Polygon","coordinates":[[[1.95512,50.29452],[1.95482,50.29474],[1.95509,50.29515],[1.9569,50.2958],[1.95788,50.29561],[1.95772,50.29398],[1.95583,50.29469],[1.95512,50.29452]]]}},{"type":"Feature","properties":{"k":"BTH","s":2.748},"geometry":{"type":"Polygon","coordinates":[[[1.96004,50.29584],[1.95983,50.29391],[1.95776,50.29434],[1.95789,50.29561],[1.96004,50.29584]]]}},{"type":"Feature","properties":{"k":"MIS","s":2.518},"geometry":{"type":"Polygon","coordinates":[[[1.96149,50.29596],[1.96155,50.29586],[1.96145,50.29493],[1.9611,50.29433],[1.96138,50.29423],[1.96131,50.29357],[1.95982,50.29391],[1.96004,50.29584],[1.96149,50.29596]]]}},{"type":"Feature","properties":{"k":"BTH","s":0.173},"geometry":{"type":"MultiPolygon","coordinates":[[[[1.96149,50.29419],[1.96154,50.29408],[1.96137,50.29412],[1.96149,50.29419]]],[[[1.96186,50.2956],[1.96145,50.29492],[1.96155,50.29587],[1.96186,50.2956]]],[[[1.96465,50.29715],[1.9628,50.29648],[1.96403,50.29698],[1.96465,50.29715]]]]}},{"type":"Feature","properties":{"k":"BTH","s":5.199},"geometry":{"type":"Polygon","coordinates":[[[1.95917,50.29584],[1.95915,50.29722],[1.96109,50.29724],[1.96106,50.29742],[1.96132,50.29746],[1.96244,50.29735],[1.96425,50.29815],[1.96518,50.2972],[1.96437,50.29719],[1.96145,50.296],[1.95917,50.29584]]]}},{"type":"Feature","properties":{"k":"LIF","s":6.641},"geometry":{"type":"Polygon","coordinates":[[[1.96299,50.29761],[1.96244,50.29735],[1.96033,50.29752],[1.9576,50.29992],[1.95827,50.30055],[1.95903,50.30094],[1.96299,50.29761]]]}},{"type":"Feature","properties":{"k":"BTH","s":1.604},"geometry":{"type":"Polygon","coordinates":[[[1.96339,50.29778],[1.963,50.2976],[1.95913,50.30099],[1.95953,50.30118],[1.96339,50.29778]]]}},{"type":"Feature","properties":{"k":"BTH","s":5.135},"geometry":{"type":"Polygon","coordinates":[[[1.96085,50.30177],[1.96156,50.30212],[1.96583,50.29831],[1.96665,50.29832],[1.9675,50.29865],[1.96726,50.29783],[1.96601,50.29728],[1.96515,50.29727],[1.96426,50.29814],[1.96479,50.2983],[1.96085,50.30177]]]}},{"type":"Feature","properties":{"k":"BTH","s":5.383},"geometry":{"type":"Polygon","coordinates":[[[1.96085,50.30177],[1.96476,50.29832],[1.96339,50.29778],[1.95953,50.30118],[1.96085,50.30177]]]}},{"type":"Feature","properties":{"k":"PPH","s":0.063},"geometry":{"type":"Polygon","coordinates":[[[1.9608,50.29161],[1.96088,50.29159],[1.96026,50.29091],[1.9608,50.29161]]]}},{"type":"Feature","properties":{"k":"LUZ","s":0.691},"geometry":{"type":"Polygon","coordinates":[[[1.96069,50.29286],[1.95967,50.29285],[1.96017,50.2938],[1.9611,50.29361],[1.96069,50.29286]]]}},{"type":"Feature","properties":{"k":"PPH","s":0.346},"geometry":{"type":"Polygon","coordinates":[[[1.9611,50.2936],[1.96174,50.29347],[1.96121,50.29287],[1.9607,50.29286],[1.9611,50.2936]]]}},{"type":"Feature","properties":{"k":"BTH","s":0.151},"geometry":{"type":"Polygon","coordinates":[[[1.96154,50.29408],[1.96174,50.29347],[1.96131,50.29357],[1.96137,50.2941],[1.96154,50.29408]]]}},{"type":"Feature","properties":{"k":"BTH","s":1.208},"geometry":{"type":"Polygon","coordinates":[[[1.95845,50.29387],[1.96018,50.29383],[1.95965,50.29284],[1.95835,50.29286],[1.95845,50.29387]]]}},{"type":"Feature","properties":{"k":"PPH","s":0.527},"geometry":{"type":"Polygon","coordinates":[[[1.95776,50.29434],[1.96018,50.29383],[1.95845,50.29387],[1.95844,50.29366],[1.95771,50.29386],[1.95776,50.29434]]]}},{"type":"Feature","properties":{"k":"PPH","s":3.408},"geometry":{"type":"Polygon","coordinates":[[[1.95835,50.29286],[1.95791,50.29289],[1.95589,50.2934],[1.95393,50.29428],[1.95482,50.29474],[1.95512,50.29452],[1.95583,50.29469],[1.95844,50.29366],[1.95835,50.29286]]]}},{"type":"Feature","properties":{"k":"MIS","s":3.808},"geometry":{"type":"Polygon","coordinates":[[[1.95316,50.29474],[1.95377,50.29426],[1.95572,50.29337],[1.95778,50.29282],[1.95883,50.29277],[1.95841,50.29211],[1.95697,50.29249],[1.95329,50.29389],[1.95311,50.29372],[1.95188,50.29445],[1.95232,50.29471],[1.95126,50.29565],[1.95216,50.29574],[1.95263,50.29564],[1.95316,50.29474]]]}},{"type":"Feature","properties":{"k":"MIS","s":2.048},"geometry":{"type":"Polygon","coordinates":[[[1.95142,50.29286],[1.95216,50.29352],[1.95349,50.29271],[1.95524,50.29246],[1.95381,50.29221],[1.95248,50.29239],[1.9509,50.29215],[1.95033,50.29228],[1.95117,50.29298],[1.95142,50.29286]]]}},{"type":"Feature","properties":{"k":"BTA","s":0.219},"geometry":{"type":"Polygon","coordinates":[[[1.9509,50.29215],[1.95185,50.29238],[1.95248,50.29239],[1.95381,50.29221],[1.95487,50.2924],[1.95521,50.2924],[1.95384,50.29214],[1.95248,50.29235],[1.95091,50.29211],[1.95031,50.29226],[1.9509,50.29215]]]}},{"type":"Feature","properties":{"k":"TRE","s":0.903},"geometry":{"type":"Polygon","coordinates":[[[1.95631,50.2928],[1.95686,50.29254],[1.95668,50.29236],[1.95515,50.29286],[1.95469,50.29268],[1.95425,50.2927],[1.9547,50.29303],[1.95313,50.29372],[1.95329,50.29387],[1.95631,50.2928]]]}},{"type":"Feature","properties":{"k":"BTA","s":0.12},"geometry":{"type":"Polygon","coordinates":[[[1.95256,50.29221],[1.95405,50.29202],[1.95394,50.29188],[1.95231,50.29215],[1.95256,50.29221]]]}},{"type":"Feature","properties":{"k":"BTH","s":1.646},"geometry":{"type":"Polygon","coordinates":[[[1.9523,50.29214],[1.95394,50.29188],[1.95276,50.29045],[1.95118,50.29079],[1.9523,50.29214]],[[1.95292,50.29126],[1.95269,50.29132],[1.95229,50.29113],[1.9518,50.29141],[1.95162,50.29119],[1.95227,50.29111],[1.95216,50.29071],[1.95249,50.29063],[1.95298,50.291],[1.95292,50.29126]]]}},{"type":"Feature","properties":{"k":"PPH","s":3.513},"geometry":{"type":"Polygon","coordinates":[[[1.95276,50.29044],[1.95358,50.29144],[1.954,50.29135],[1.95472,50.29182],[1.95649,50.29071],[1.95535,50.29003],[1.9538,50.28967],[1.95276,50.29044]]]}},{"type":"Feature","properties":{"k":"BTA","s":0.23},"geometry":{"type":"Polygon","coordinates":[[[1.95591,50.29224],[1.9568,50.29129],[1.95784,50.2912],[1.95837,50.29097],[1.95669,50.29126],[1.95622,50.29183],[1.95521,50.2924],[1.95591,50.29224]]]}},{"type":"Feature","properties":{"k":"MIS","s":0.738},"geometry":{"type":"Polygon","coordinates":[[[1.95862,50.29128],[1.9584,50.29101],[1.95674,50.29132],[1.95591,50.29224],[1.95862,50.29128]]]}},{"type":"Feature","properties":{"k":"PTR","s":0.427},"geometry":{"type":"Polygon","coordinates":[[[1.952,50.28572],[1.95304,50.28694],[1.95354,50.28677],[1.95229,50.28574],[1.952,50.28572]]]}},{"type":"Feature","properties":{"k":"BOR","s":0.005},"geometry":{"type":"MultiPolygon","coordinates":[[[[1.95008,50.28617],[1.95007,50.28618],[1.95014,50.28616],[1.95008,50.28617]]],[[[1.95126,50.28582],[1.95102,50.2859],[1.95132,50.28581],[1.95126,50.28582]]],[[[1.95224,50.28569],[1.95212,50.28571],[1.95229,50.28574],[1.95224,50.28569]]]]}},{"type":"Feature","properties":{"k":"BTN","s":0.0},"geometry":{"type":"Polygon","coordinates":[[[1.95008,50.28617],[1.95007,50.28617],[1.95007,50.28618],[1.95008,50.28617]]]}},{"type":"Feature","properties":{"k":"PPH","s":0.011},"geometry":{"type":"Polygon","coordinates":[[[1.94505,50.28908],[1.94456,50.29],[1.94502,50.2892],[1.94505,50.28908]]]}},{"type":"Feature","properties":{"k":"BTN","s":2.425},"geometry":{"type":"Polygon","coordinates":[[[1.96208,50.30237],[1.96663,50.29832],[1.96588,50.29831],[1.96156,50.30212],[1.96208,50.30237]]]}},{"type":"Feature","properties":{"k":"BTA","s":0.111},"geometry":{"type":"Polygon","coordinates":[]}},{"type":"Feature","properties":{"k":"BTH","s":0.005},"geometry":{"type":"Polygon","coordinates":[[[1.94629,50.28764],[1.94607,50.28773],[1.94566,50.28794],[1.94629,50.28764]]]}},{"type":"Feature","properties":{"k":"MIS","s":0.012},"geometry":{"type":"MultiPolygon","coordinates":[[[[1.94647,50.28758],[1.94742,50.28733],[1.94635,50.2876],[1.94647,50.28758]]],[[[1.94837,50.28694],[1.94837,50.28693],[1.94791,50.28717],[1.94837,50.28694]]]]}},{"type":"Feature","properties":{"k":"PTC","s":0.004},"geometry":{"type":"MultiPolygon","coordinates":[[[[1.94983,50.28621],[1.94978,50.28623],[1.94912,50.28655],[1.94983,50.28621]]]]}},{"type":"Feature","properties":{"k":"PPH","s":19.003},"geometry":{"type":"Polygon","coordinates":[[[1.94972,50.28626],[1.94731,50.28746],[1.9486,50.28882],[1.94809,50.2891],[1.94884,50.28978],[1.9495,50.28944],[1.9509,50.29075],[1.95291,50.29031],[1.95343,50.29],[1.95375,50.28951],[1.9557,50.28858],[1.95354,50.28677],[1.95304,50.28694],[1.952,50.28572],[1.94972,50.28626]]]}},{"type":"Feature","properties":{"k":"BTH","s":1.445},"geometry":{"type":"Polygon","coordinates":[[[1.95965,50.30234],[1.96021,50.30169],[1.95817,50.30074],[1.95768,50.30142],[1.95965,50.30234]]]}},{"type":"Feature","properties":{"k":"BTH","s":2.361},"geometry":{"type":"Polygon","coordinates":[[[1.9598,50.29754],[1.95966,50.29769],[1.95937,50.29749],[1.95901,50.29749],[1.95805,50.29855],[1.9575,50.29853],[1.9566,50.29933],[1.9576,50.29992],[1.9603,50.29755],[1.9598,50.29754]]]}},{"type":"Feature","properties":{"k":"LIF","s":2.622},"geometry":{"type":"Polygon","coordinates":[[[1.95667,50.29783],[1.95579,50.29891],[1.95649,50.29927],[1.9574,50.29848],[1.95805,50.29855],[1.95868,50.29788],[1.95488,50.29693],[1.95457,50.29731],[1.95667,50.29783]]]}},{"type":"Feature","properties":{"k":"PPH","s":0.56},"geometry":{"type":"Polygon","coordinates":[[[1.9481,50.29246],[1.94635,50.29128],[1.94603,50.29151],[1.94786,50.29267],[1.9481,50.29246]]]}},{"type":"Feature","properties":{"k":"MIS","s":1.258},"geometry":{"type":"Polygon","coordinates":[[[1.94686,50.29108],[1.94831,50.29237],[1.94897,50.29189],[1.94801,50.29089],[1.94686,50.29108]]]}},{"type":"Feature","properties":{"k":"PPH","s":0.633},"geometry":{"type":"Polygon","coordinates":[[[1.94976,50.29136],[1.94956,50.29114],[1.94806,50.29088],[1.94897,50.29189],[1.94976,50.29136]]]}},{"type":"Feature","properties":{"k":"PTR","s":0.818},"geometry":{"type":"Polygon","coordinates":[[[1.9498,50.29135],[1.95021,50.2911],[1.94827,50.28929],[1.94796,50.28944],[1.9498,50.29135]]]}},{"type":"Feature","properties":{"k":"AVP","s":0.396},"geometry":{"type":"Polygon","coordinates":[[[1.95227,50.29111],[1.95162,50.29119],[1.9518,50.29141],[1.95229,50.29113],[1.95269,50.29132],[1.95292,50.29126],[1.9528,50.29079],[1.95249,50.29063],[1.95216,50.29071],[1.95227,50.29111]]]}},{"type":"Feature","properties":{"k":"MIS","s":0.937},"geometry":{"type":"Polygon","coordinates":[[[1.95231,50.29215],[1.95116,50.29078],[1.9504,50.29109],[1.95105,50.29187],[1.95231,50.29215]]]}},{"type":"Feature","properties":{"k":"BTA","s":0.05},"geometry":{"type":"Polygon","coordinates":[[[1.95179,50.29215],[1.95235,50.29219],[1.95105,50.29187],[1.95179,50.29215]]]}},{"type":"Feature","properties":{"k":"PPH","s":1.838},"geometry":{"type":"Polygon","coordinates":[[[1.94576,50.2928],[1.94609,50.29291],[1.94656,50.29259],[1.94771,50.29329],[1.94789,50.29269],[1.94603,50.29151],[1.94608,50.29139],[1.94577,50.29144],[1.94506,50.29303],[1.94576,50.2928]]]}},{"type":"Feature","properties":{"k":"AVP","s":0.196},"geometry":{"type":"Polygon","coordinates":[[[1.94636,50.2928],[1.94656,50.29314],[1.94707,50.29313],[1.94709,50.29293],[1.94655,50.2927],[1.94636,50.2928]]]}},{"type":"Feature","properties":{"k":"BTH","s":0.652},"geometry":{"type":"Polygon","coordinates":[[[1.9463,50.29348],[1.9468,50.29378],[1.94771,50.2934],[1.94771,50.29329],[1.94656,50.29259],[1.94615,50.29287],[1.9463,50.29348]],[[1.94707,50.29313],[1.94683,50.29319],[1.94656,50.29314],[1.94636,50.2928],[1.94655,50.2927],[1.94709,50.29293],[1.94707,50.29313]]]}},{"type":"Feature","properties":{"k":"BTA","s":0.102},"geometry":{"type":"Polygon","coordinates":[[[1.94624,50.2935],[1.94677,50.29382],[1.94694,50.29385],[1.94771,50.29346],[1.9468,50.29378],[1.9463,50.29348],[1.9461,50.29291],[1.94624,50.2935]]]}},{"type":"Feature","properties":{"k":"PPH","s":1.166},"geometry":{"type":"Polygon","coordinates":[[[1.94486,50.29213],[1.94508,50.29156],[1.94405,50.29177],[1.9434,50.29235],[1.94373,50.29293],[1.94453,50.29298],[1.94486,50.29213]]]}},{"type":"Feature","properties":{"k":"PPH","s":0.122},"geometry":{"type":"Polygon","coordinates":[[[1.94542,50.29153],[1.94472,50.29299],[1.94482,50.293],[1.94542,50.29153]]]}},{"type":"Feature","properties":{"k":"PPH","s":0.23},"geometry":{"type":"Polygon","coordinates":[[[1.94479,50.29232],[1.94454,50.29298],[1.94472,50.29299],[1.94531,50.29154],[1.94509,50.29157],[1.94479,50.29232]]]}},{"type":"Feature","properties":{"k":"PPH","s":0.305},"geometry":{"type":"Polygon","coordinates":[[[1.94551,50.29197],[1.94572,50.29149],[1.94542,50.29153],[1.94482,50.293],[1.94505,50.29301],[1.94551,50.29197]]]}},{"type":"Feature","properties":{"k":"PPH","s":1.94},"geometry":{"type":"Polygon","coordinates":[[[1.94411,50.29172],[1.94601,50.29137],[1.94753,50.29085],[1.94676,50.29013],[1.9438,50.29143],[1.94358,50.29198],[1.94411,50.29172]]]}}]}