{"type":"FeatureCollection","features":[{"type":"Feature","properties":{"k":"MIS","s":1.134},"geometry":{"type":"Polygon","coordinates":[[[2.35833,50.57693],[2.35994,50.57634],[2.35915,50.57564],[2.35745,50.57672],[2.35833,50.57693]]]}},{"type":"Feature","properties":{"k":"BTH","s":0.552},"geometry":{"type":"Polygon","coordinates":[[[2.35959,50.57777],[2.36004,50.57748],[2.35906,50.57675],[2.35856,50.57695],[2.35959,50.57777]]]}},{"type":"Feature","properties":{"k":"PTR","s":0.989},"geometry":{"type":"Polygon","coordinates":[[[2.36539,50.57634],[2.36516,50.57577],[2.36449,50.57612],[2.36378,50.57567],[2.36297,50.57609],[2.36366,50.57659],[2.36539,50.57634]]]}},{"type":"Feature","properties":{"k":"PTC","s":6.0},"geometry":{"type":"Polygon","coordinates":[[[2.36132,50.57474],[2.36187,50.57527],[2.36152,50.57545],[2.361,50.57502],[2.36062,50.57574],[2.36411,50.57842],[2.36581,50.5772],[2.36536,50.5764],[2.36366,50.57659],[2.36297,50.57609],[2.3635,50.57579],[2.36148,50.57461],[2.36132,50.57474]]]}},{"type":"Feature","properties":{"k":"BTH","s":2.452},"geometry":{"type":"Polygon","coordinates":[[[2.3693,50.58209],[2.36904,50.58194],[2.36858,50.5825],[2.36971,50.58358],[2.37116,50.5828],[2.36931,50.58111],[2.36885,50.58168],[2.3693,50.58209]]]}},{"type":"Feature","properties":{"k":"MIS","s":1.67},"geometry":{"type":"Polygon","coordinates":[[[2.37188,50.58238],[2.36983,50.5805],[2.36931,50.58111],[2.37116,50.5828],[2.37188,50.58238]]]}},{"type":"Feature","properties":{"k":"MIS","s":0.012},"geometry":{"type":"MultiPolygon","coordinates":[[[[2.3689,50.58282],[2.3687,50.58264],[2.36967,50.5836],[2.3689,50.58282]]]]}},{"type":"Feature","properties":{"k":"BTH","s":3.466},"geometry":{"type":"Polygon","coordinates":[[[2.36826,50.58137],[2.36818,50.58063],[2.36677,50.57821],[2.36489,50.57951],[2.36826,50.58137]]]}},{"type":"Feature","properties":{"k":"BTH","s":6.648},"geometry":{"type":"Polygon","coordinates":[[[2.36763,50.57968],[2.36823,50.58035],[2.36842,50.58116],[2.37223,50.57718],[2.37099,50.57654],[2.36735,50.57902],[2.36763,50.57968]]]}},{"type":"Feature","properties":{"k":"BTH","s":3.14},"geometry":{"type":"Polygon","coordinates":[[[2.36668,50.57795],[2.36737,50.579],[2.3701,50.57714],[2.36868,50.5763],[2.36792,50.57651],[2.36839,50.57674],[2.36668,50.57795]]]}},{"type":"Feature","properties":{"k":"BTH","s":1.963},"geometry":{"type":"Polygon","coordinates":[[[2.36388,50.57896],[2.36489,50.57951],[2.36674,50.57823],[2.36609,50.57747],[2.36388,50.57896]]]}},{"type":"Feature","properties":{"k":"FVP","s":1.315},"geometry":{"type":"Polygon","coordinates":[[[2.3684,50.57674],[2.3679,50.57649],[2.36708,50.5765],[2.36605,50.57723],[2.36664,50.57794],[2.3684,50.57674]]]}},{"type":"Feature","properties":{"k":"PPH","s":0.549},"geometry":{"type":"Polygon","coordinates":[[[2.36551,50.57635],[2.36549,50.57637],[2.36604,50.57724],[2.36706,50.57651],[2.36551,50.57635]]]}},{"type":"Feature","properties":{"k":"PTC","s":1.928},"geometry":{"type":"Polygon","coordinates":[[[2.36716,50.57645],[2.36788,50.57644],[2.36904,50.57594],[2.36714,50.57492],[2.36602,50.57553],[2.36727,50.57637],[2.36716,50.57645]]]}},{"type":"Feature","properties":{"k":"CZH","s":1.333},"geometry":{"type":"Polygon","coordinates":[[[2.3701,50.57714],[2.37091,50.57658],[2.37045,50.57598],[2.36984,50.57581],[2.36942,50.57582],[2.36872,50.57629],[2.3701,50.57714]]]}},{"type":"Feature","properties":{"k":"BTH","s":2.57},"geometry":{"type":"Polygon","coordinates":[[[2.37347,50.57578],[2.37077,50.57477],[2.3698,50.57572],[2.37047,50.57586],[2.37126,50.57635],[2.37208,50.57661],[2.37347,50.57578]]]}},{"type":"Feature","properties":{"k":"BTH","s":1.734},"geometry":{"type":"Polygon","coordinates":[[[2.35927,50.58344],[2.35845,50.58438],[2.36007,50.58518],[2.36091,50.58427],[2.35927,50.58344]]]}},{"type":"Feature","properties":{"k":"BTN","s":1.195},"geometry":{"type":"Polygon","coordinates":[[[2.36753,50.56849],[2.36831,50.56898],[2.36852,50.56858],[2.36587,50.56698],[2.36541,50.56729],[2.36753,50.56849]]]}},{"type":"Feature","properties":{"k":"BTH","s":7.043},"geometry":{"type":"Polygon","coordinates":[[[2.36295,50.5684],[2.36333,50.56947],[2.36351,50.56939],[2.36427,50.56977],[2.3648,50.56929],[2.36692,50.57033],[2.36901,50.56954],[2.3654,50.56729],[2.36409,50.56832],[2.36295,50.5684]]]}},{"type":"Feature","properties":{"k":"JAC","s":0.031},"geometry":{"type":"Polygon","coordinates":[[[2.3674,50.57128],[2.36637,50.5706],[2.36736,50.5713],[2.3674,50.57128]]]}},{"type":"Feature","properties":{"k":"BTH","s":3.668},"geometry":{"type":"Polygon","coordinates":[[[2.36659,50.57164],[2.3667,50.57173],[2.36962,50.572],[2.3692,50.57139],[2.36907,50.56961],[2.36641,50.57059],[2.3674,50.57128],[2.36659,50.57164]]]}},{"type":"Feature","properties":{"k":"BTH","s":4.505},"geometry":{"type":"Polygon","coordinates":[[[2.36642,50.57179],[2.36598,50.57192],[2.36645,50.57215],[2.36552,50.57279],[2.36807,50.57404],[2.36975,50.57275],[2.36968,50.57209],[2.36642,50.57179]]]}},{"type":"Feature","properties":{"k":"BTH","s":4.475},"geometry":{"type":"Polygon","coordinates":[[[2.36809,50.57402],[2.36681,50.57467],[2.36911,50.57588],[2.36958,50.57572],[2.37046,50.57485],[2.36975,50.57275],[2.36809,50.57402]]]}},{"type":"Feature","properties":{"k":"CZH","s":0.153},"geometry":{"type":"Polygon","coordinates":[[[2.36958,50.57572],[2.36976,50.57572],[2.37075,50.57477],[2.37046,50.57485],[2.36958,50.57572]]]}},{"type":"Feature","properties":{"k":"PPH","s":0.343},"geometry":{"type":"Polygon","coordinates":[[[2.3619,50.57232],[2.3615,50.57201],[2.36102,50.57219],[2.36082,50.57247],[2.36118,50.57274],[2.3619,50.57232]]]}},{"type":"Feature","properties":{"k":"MIS","s":1.291},"geometry":{"type":"Polygon","coordinates":[[[2.35512,50.5747],[2.35397,50.57408],[2.35315,50.57457],[2.35291,50.57492],[2.35423,50.5755],[2.35512,50.5747]]]}},{"type":"Feature","properties":{"k":"BTH","s":5.074},"geometry":{"type":"Polygon","coordinates":[[[2.35449,50.57427],[2.35596,50.5732],[2.35197,50.57125],[2.35077,50.57216],[2.35449,50.57427]]]}},{"type":"Feature","properties":{"k":"BTH","s":2.939},"geometry":{"type":"Polygon","coordinates":[[[2.35284,50.57053],[2.35255,50.57078],[2.3539,50.57148],[2.35356,50.57171],[2.35223,50.57105],[2.35198,50.57124],[2.35596,50.5732],[2.35628,50.5729],[2.35462,50.57207],[2.35603,50.57095],[2.35524,50.57055],[2.35425,50.57125],[2.35284,50.57053]]]}},{"type":"Feature","properties":{"k":"CZH","s":1.155},"geometry":{"type":"Polygon","coordinates":[[[2.35555,50.57181],[2.3563,50.57113],[2.35601,50.57098],[2.35462,50.57207],[2.35628,50.5729],[2.35661,50.5723],[2.35555,50.57181]]]}},{"type":"Feature","properties":{"k":"PPH","s":0.992},"geometry":{"type":"Polygon","coordinates":[[[2.35631,50.57261],[2.35651,50.5727],[2.35582,50.57336],[2.35687,50.57381],[2.35699,50.57368],[2.35752,50.57393],[2.35763,50.57383],[2.35618,50.57313],[2.3566,50.57275],[2.35808,50.5735],[2.35832,50.57332],[2.35806,50.57303],[2.35658,50.57237],[2.35631,50.57261]]]}},{"type":"Feature","properties":{"k":"PTR","s":0.096},"geometry":{"type":"Polygon","coordinates":[[[2.35051,50.58741],[2.35113,50.58785],[2.35127,50.58774],[2.35062,50.58729],[2.35051,50.58741]]]}},{"type":"Feature","properties":{"k":"BTH","s":5.228},"geometry":{"type":"Polygon","coordinates":[[[2.35051,50.58741],[2.35272,50.58484],[2.35085,50.58397],[2.34862,50.58654],[2.35051,50.58741]]]}},{"type":"Feature","properties":{"k":"BTH","s":2.239},"geometry":{"type":"Polygon","coordinates":[[[2.34706,50.58406],[2.34965,50.58539],[2.35033,50.58458],[2.34789,50.58337],[2.34706,50.58406]]]}},{"type":"Feature","properties":{"k":"PHF","s":2.706},"geometry":{"type":"Polygon","coordinates":[[[2.34772,50.5861],[2.34875,50.58492],[2.34706,50.58406],[2.34553,50.58536],[2.34772,50.5861]]]}},{"type":"Feature","properties":{"k":"BTH","s":0.954},"geometry":{"type":"Polygon","coordinates":[[[2.34875,50.58492],[2.34766,50.58617],[2.34842,50.58645],[2.34943,50.58528],[2.34875,50.58492]]]}},{"type":"Feature","properties":{"k":"BTH","s":0.261},"geometry":{"type":"Polygon","coordinates":[[[2.34964,50.58538],[2.34943,50.58528],[2.34842,50.58645],[2.34862,50.58653],[2.34964,50.58538]]]}},{"type":"Feature","properties":{"k":"BTH","s":6.111},"geometry":{"type":"Polygon","coordinates":[[[2.34371,50.58229],[2.342,50.58377],[2.34535,50.58534],[2.34711,50.58393],[2.34371,50.58229]]]}},{"type":"Feature","properties":{"k":"MIS","s":2.454},"geometry":{"type":"Polygon","coordinates":[[[2.37908,50.57575],[2.37811,50.57476],[2.37693,50.57472],[2.37596,50.57513],[2.37769,50.57651],[2.37908,50.57575]]]}},{"type":"Feature","properties":{"k":"CZH","s":6.19},"geometry":{"type":"Polygon","coordinates":[[[2.37063,50.57471],[2.37347,50.57578],[2.37499,50.57443],[2.36979,50.5725],[2.37063,50.57471]]]}},{"type":"Feature","properties":{"k":"CZH","s":3.275},"geometry":{"type":"Polygon","coordinates":[[[2.37606,50.573],[2.37596,50.57214],[2.37746,50.5713],[2.37619,50.57056],[2.3734,50.57199],[2.37606,50.573]]]}},{"type":"Feature","properties":{"k":"BTH","s":1.856},"geometry":{"type":"Polygon","coordinates":[[[2.37179,50.57212],[2.37579,50.57364],[2.37608,50.5733],[2.37606,50.573],[2.3734,50.57199],[2.3728,50.57225],[2.37179,50.57212]]]}},{"type":"Feature","properties":{"k":"BTN","s":2.401},"geometry":{"type":"Polygon","coordinates":[[[2.37212,50.5688],[2.37077,50.56919],[2.37199,50.57083],[2.37375,50.56999],[2.37212,50.5688]]]}},{"type":"Feature","properties":{"k":"BTH","s":5.667},"geometry":{"type":"Polygon","coordinates":[[[2.37199,50.57083],[2.36938,50.57098],[2.3693,50.57135],[2.3697,50.57201],[2.37284,50.57216],[2.37526,50.57099],[2.37376,50.56998],[2.37199,50.57083]]]}},{"type":"Feature","properties":{"k":"BTH","s":2.708},"geometry":{"type":"Polygon","coordinates":[[[2.36923,50.56959],[2.36938,50.57098],[2.37197,50.5708],[2.37075,50.56917],[2.36923,50.56959]]]}},{"type":"Feature","properties":{"k":"PPH","s":0.398},"geometry":{"type":"Polygon","coordinates":[[[2.36912,50.56952],[2.36965,50.56933],[2.36857,50.56862],[2.36835,50.56901],[2.36912,50.56952]]]}},{"type":"Feature","properties":{"k":"MIS","s":0.524},"geometry":{"type":"Polygon","coordinates":[[[2.36965,50.56933],[2.37028,50.56917],[2.36893,50.56833],[2.36857,50.56862],[2.36965,50.56933]]]}},{"type":"Feature","properties":{"k":"MIS","s":0.794},"geometry":{"type":"Polygon","coordinates":[[[2.35431,50.57007],[2.35617,50.57101],[2.3552,50.56959],[2.35502,50.56972],[2.35452,50.5693],[2.35435,50.56942],[2.35453,50.56977],[2.35431,50.57007]]]}},{"type":"Feature","properties":{"k":"PPH","s":0.905},"geometry":{"type":"Polygon","coordinates":[[[2.35687,50.56833],[2.357,50.56819],[2.35653,50.56784],[2.3561,50.56815],[2.35627,50.56828],[2.35614,50.56839],[2.3574,50.56952],[2.35776,50.56936],[2.35755,50.56918],[2.35783,50.56904],[2.35687,50.56833]]]}},{"type":"Feature","properties":{"k":"PPH","s":0.981},"geometry":{"type":"Polygon","coordinates":[[[2.35799,50.56992],[2.35789,50.57036],[2.35936,50.56939],[2.35908,50.56915],[2.35846,50.5694],[2.35821,50.56917],[2.3585,50.56903],[2.35837,50.56893],[2.35857,50.56872],[2.35759,50.56919],[2.35781,50.56936],[2.35751,50.56959],[2.35799,50.56992]]]}},{"type":"Feature","properties":{"k":"PPH","s":2.091},"geometry":{"type":"Polygon","coordinates":[[[2.35757,50.56709],[2.35714,50.56747],[2.35763,50.56782],[2.35832,50.56744],[2.35916,50.56785],[2.35893,50.56801],[2.35949,50.56846],[2.35968,50.56834],[2.35995,50.56855],[2.35908,50.56902],[2.35936,50.56923],[2.36062,50.56837],[2.36086,50.56851],[2.36093,50.56823],[2.35857,50.56695],[2.35796,50.56735],[2.35757,50.56709]]]}},{"type":"Feature","properties":{"k":"PTR","s":0.077},"geometry":{"type":"Polygon","coordinates":[[[2.36219,50.56879],[2.36138,50.56842],[2.36129,50.56849],[2.36207,50.56887],[2.36219,50.56879]]]}},{"type":"Feature","properties":{"k":"PPH","s":0.473},"geometry":{"type":"Polygon","coordinates":[[[2.36239,50.56961],[2.36333,50.57016],[2.36384,50.56982],[2.36287,50.56928],[2.36239,50.56961]]]}},{"type":"Feature","properties":{"k":"PPH","s":1.523},"geometry":{"type":"Polygon","coordinates":[[[2.36361,50.57232],[2.36341,50.57216],[2.36369,50.57197],[2.36329,50.57168],[2.36357,50.57153],[2.36323,50.57119],[2.36371,50.5709],[2.36333,50.57067],[2.36149,50.57167],[2.36208,50.57236],[2.36259,50.57203],[2.36361,50.57232]]]}},{"type":"Feature","properties":{"k":"PPH","s":0.24},"geometry":{"type":"Polygon","coordinates":[[[2.3628,50.57065],[2.36227,50.57097],[2.36251,50.57115],[2.3633,50.57067],[2.36285,50.5704],[2.36267,50.5705],[2.3628,50.57065]]]}},{"type":"Feature","properties":{"k":"MLG","s":0.086},"geometry":{"type":"Polygon","coordinates":[[[2.36223,50.56892],[2.36323,50.56947],[2.36318,50.56934],[2.36223,50.56881],[2.36223,50.56892]]]}},{"type":"Feature","properties":{"k":"BTH","s":0.282},"geometry":{"type":"Polygon","coordinates":[[[2.36306,50.56899],[2.36285,50.56841],[2.36223,50.56881],[2.36318,50.56934],[2.36306,50.56899]]]}},{"type":"Feature","properties":{"k":"PTC","s":9.602},"geometry":{"type":"Polygon","coordinates":[[[2.36374,50.56827],[2.36413,50.5681],[2.36735,50.56594],[2.36471,50.56455],[2.36143,50.56683],[2.36117,50.5676],[2.36288,50.56833],[2.36374,50.56827]]]}},{"type":"Feature","properties":{"k":"BTH","s":9.449},"geometry":{"type":"Polygon","coordinates":[[[2.36586,50.56373],[2.36386,50.56267],[2.35902,50.56617],[2.36123,50.56735],[2.36138,50.56686],[2.36586,50.56373]]]}},{"type":"Feature","properties":{"k":"JAC","s":0.4},"geometry":{"type":"Polygon","coordinates":[[[2.36004,50.56767],[2.36048,50.56735],[2.35942,50.56688],[2.35902,50.56716],[2.36004,50.56767]]]}},{"type":"Feature","properties":{"k":"LIF","s":0.003},"geometry":{"type":"Polygon","coordinates":[[[2.36992,50.56222],[2.36993,50.56221],[2.3694,50.56199],[2.36992,50.56222]]]}},{"type":"Feature","properties":{"k":"BTH","s":0.001},"geometry":{"type":"Polygon","coordinates":[[[2.37027,50.56235],[2.36997,50.56223],[2.37026,50.56236],[2.37027,50.56235]]]}},{"type":"Feature","properties":{"k":"PTC","s":0.007},"geometry":{"type":"Polygon","coordinates":[]}},{"type":"Feature","properties":{"k":"BTH","s":8.947},"geometry":{"type":"Polygon","coordinates":[[[2.37169,50.56306],[2.36892,50.56186],[2.36532,50.56438],[2.36758,50.56556],[2.36772,50.56546],[2.3679,50.56558],[2.37169,50.56306]]]}},{"type":"Feature","properties":{"k":"BTH","s":3.611},"geometry":{"type":"Polygon","coordinates":[[[2.3672,50.56308],[2.36895,50.56184],[2.36645,50.56083],[2.36491,50.56189],[2.3672,50.56308]]]}},{"type":"Feature","properties":{"k":"BTH","s":3.558},"geometry":{"type":"Polygon","coordinates":[[[2.3653,50.56438],[2.36718,50.56308],[2.36491,50.5619],[2.36386,50.56267],[2.36586,50.56373],[2.36471,50.56455],[2.36735,50.56594],[2.36776,50.56566],[2.3653,50.56438]]]}},{"type":"Feature","properties":{"k":"MIS","s":1.313},"geometry":{"type":"Polygon","coordinates":[[[2.3711,50.56665],[2.36864,50.56516],[2.3681,50.56551],[2.37057,50.56699],[2.3711,50.56665]]]}},{"type":"Feature","properties":{"k":"BTN","s":5.383},"geometry":{"type":"Polygon","coordinates":[[[2.36893,50.56833],[2.37032,50.56918],[2.37183,50.5688],[2.36723,50.56608],[2.36587,50.56698],[2.36852,50.56858],[2.36893,50.56833]]]}},{"type":"Feature","properties":{"k":"BTH","s":4.086},"geometry":{"type":"Polygon","coordinates":[[[2.37184,50.5688],[2.37285,50.56822],[2.3681,50.56551],[2.36732,50.56612],[2.37184,50.5688]]]}},{"type":"Feature","properties":{"k":"PTR","s":0.992},"geometry":{"type":"Polygon","coordinates":[[[2.37002,50.56424],[2.36963,50.56451],[2.37209,50.566],[2.3725,50.56574],[2.37002,50.56424]]]}},{"type":"Feature","properties":{"k":"BTH","s":1.442},"geometry":{"type":"Polygon","coordinates":[[[2.37209,50.56601],[2.3696,50.56451],[2.36904,50.56488],[2.3715,50.56641],[2.37209,50.56601]]]}},{"type":"Feature","properties":{"k":"BTH","s":0.966},"geometry":{"type":"Polygon","coordinates":[[[2.36904,50.56488],[2.36864,50.56516],[2.3711,50.56665],[2.37148,50.5664],[2.36904,50.56488]]]}},{"type":"Feature","properties":{"k":"MIS","s":2.532},"geometry":{"type":"Polygon","coordinates":[[[2.37423,50.56586],[2.37075,50.56377],[2.37002,50.56424],[2.37352,50.56635],[2.37423,50.56586]]]}},{"type":"Feature","properties":{"k":"BTH","s":3.836},"geometry":{"type":"Polygon","coordinates":[[[2.3707,50.56692],[2.37285,50.56821],[2.37391,50.5676],[2.37373,50.5675],[2.3743,50.56714],[2.37451,50.56725],[2.37474,50.56711],[2.37252,50.56575],[2.3707,50.56692]]]}},{"type":"Feature","properties":{"k":"BTH","s":0.383},"geometry":{"type":"Polygon","coordinates":[[[2.37508,50.56691],[2.37383,50.56614],[2.37352,50.56635],[2.37477,50.56709],[2.37508,50.56691]]]}},{"type":"Feature","properties":{"k":"CZH","s":2.86},"geometry":{"type":"Polygon","coordinates":[[[2.37759,50.56541],[2.37591,50.56471],[2.37383,50.56614],[2.37512,50.56689],[2.37561,50.56659],[2.37513,50.56639],[2.37526,50.56627],[2.37598,50.56636],[2.37759,50.56541]]]}},{"type":"Feature","properties":{"k":"BTN","s":0.001},"geometry":{"type":"Polygon","coordinates":[]}},{"type":"Feature","properties":{"k":"LIF","s":0.006},"geometry":{"type":"Polygon","coordinates":[]}},{"type":"Feature","properties":{"k":"PHF","s":0.118},"geometry":{"type":"Polygon","coordinates":[[[2.37227,50.56328],[2.37452,50.56418],[2.37455,50.56414],[2.37227,50.56328]]]}},{"type":"Feature","properties":{"k":"MIS","s":0.266},"geometry":{"type":"Polygon","coordinates":[[[2.34952,50.573],[2.34978,50.57314],[2.35089,50.57235],[2.35065,50.57223],[2.34952,50.573]]]}},{"type":"Feature","properties":{"k":"PTC","s":3.294},"geometry":{"type":"Polygon","coordinates":[[[2.35089,50.57235],[2.34969,50.57324],[2.35297,50.57483],[2.35315,50.57457],[2.35292,50.57446],[2.35368,50.57394],[2.35089,50.57235]]]}},{"type":"Feature","properties":{"k":"ORH","s":6.359},"geometry":{"type":"Polygon","coordinates":[[[2.34766,50.57432],[2.35193,50.57637],[2.35297,50.57483],[2.34936,50.57309],[2.34863,50.57361],[2.34901,50.5739],[2.34846,50.57373],[2.34766,50.57432]]]}},{"type":"Feature","properties":{"k":"PTC","s":3.152},"geometry":{"type":"Polygon","coordinates":[[[2.34552,50.57586],[2.34405,50.57691],[2.3463,50.578],[2.34778,50.57692],[2.34552,50.57586]]]}},{"type":"Feature","properties":{"k":"PHF","s":7.809},"geometry":{"type":"Polygon","coordinates":[[[2.3436,50.57724],[2.34052,50.57944],[2.34323,50.58074],[2.34626,50.57854],[2.3436,50.57724]]]}},{"type":"Feature","properties":{"k":"BTH","s":3.264},"geometry":{"type":"Polygon","coordinates":[[[2.34286,50.58183],[2.3422,50.58244],[2.34384,50.58103],[2.34052,50.57944],[2.3396,50.58012],[2.34286,50.58183]]]}},{"type":"Feature","properties":{"k":"MIS","s":0.146},"geometry":{"type":"Polygon","coordinates":[[[2.3396,50.58012],[2.33946,50.58021],[2.34092,50.58091],[2.3396,50.58012]]]}},{"type":"Feature","properties":{"k":"BTN","s":0.035},"geometry":{"type":"Polygon","coordinates":[[[2.34219,50.58244],[2.34216,50.58242],[2.34109,50.58333],[2.34219,50.58244]]]}},{"type":"Feature","properties":{"k":"BTH","s":1.574},"geometry":{"type":"Polygon","coordinates":[[[2.34112,50.58335],[2.342,50.58377],[2.34371,50.58229],[2.34286,50.58187],[2.34112,50.58335]]]}},{"type":"Feature","properties":{"k":"MIS","s":2.902},"geometry":{"type":"Polygon","coordinates":[[[2.3435,50.58133],[2.34286,50.58187],[2.34711,50.58394],[2.34778,50.5834],[2.3435,50.58133]]]}},{"type":"Feature","properties":{"k":"MIS","s":1.582},"geometry":{"type":"Polygon","coordinates":[[[2.34777,50.58339],[2.34812,50.58308],[2.34384,50.58103],[2.34351,50.58133],[2.34777,50.58339]]]}},{"type":"Feature","properties":{"k":"PTC","s":14.597},"geometry":{"type":"Polygon","coordinates":[[[2.34324,50.58074],[2.34812,50.58308],[2.34933,50.58181],[2.35051,50.58009],[2.34626,50.57803],[2.34586,50.57831],[2.3463,50.57852],[2.34503,50.57943],[2.34633,50.57854],[2.34324,50.58074]]]}},{"type":"Feature","properties":{"k":"BTH","s":0.204},"geometry":{"type":"Polygon","coordinates":[[[2.34985,50.58325],[2.34864,50.58265],[2.34848,50.58282],[2.34968,50.58336],[2.34985,50.58325]]]}},{"type":"Feature","properties":{"k":"ORH","s":2.796},"geometry":{"type":"Polygon","coordinates":[[[2.35359,50.5771],[2.35182,50.57653],[2.35026,50.57812],[2.3516,50.57871],[2.35359,50.5771]]]}},{"type":"Feature","properties":{"k":"LIF","s":5.909},"geometry":{"type":"Polygon","coordinates":[[[2.34778,50.57692],[2.34626,50.57803],[2.35047,50.5801],[2.35155,50.57878],[2.34778,50.57692]]]}},{"type":"Feature","properties":{"k":"BTN","s":4.461},"geometry":{"type":"Polygon","coordinates":[[[2.35027,50.57811],[2.35107,50.57729],[2.34665,50.57509],[2.34561,50.57586],[2.35027,50.57811]]]}},{"type":"Feature","properties":{"k":"BTH","s":4.458},"geometry":{"type":"Polygon","coordinates":[[[2.35193,50.57637],[2.3477,50.57434],[2.34665,50.57509],[2.35107,50.57729],[2.35193,50.57637]]]}},{"type":"Feature","properties":{"k":"PPH","s":0.301},"geometry":{"type":"Polygon","coordinates":[[[2.35599,50.57692],[2.35535,50.57655],[2.3549,50.57691],[2.35559,50.57725],[2.35599,50.57692]]]}},{"type":"Feature","properties":{"k":"PPH","s":0.172},"geometry":{"type":"Polygon","coordinates":[[[2.35469,50.577],[2.35391,50.57702],[2.35469,50.57742],[2.35489,50.57726],[2.35469,50.577]]]}},{"type":"Feature","properties":{"k":"PPH","s":1.278},"geometry":{"type":"Polygon","coordinates":[[[2.35388,50.57691],[2.35457,50.57694],[2.35494,50.57676],[2.35222,50.57596],[2.35182,50.57653],[2.35359,50.5771],[2.35388,50.57691]]]}},{"type":"Feature","properties":{"k":"AVP","s":0.016},"geometry":{"type":"Polygon","coordinates":[[[2.35507,50.57891],[2.35501,50.57887],[2.35481,50.5791],[2.35507,50.57891]]]}},{"type":"Feature","properties":{"k":"PPH","s":1.376},"geometry":{"type":"Polygon","coordinates":[[[2.35558,50.57809],[2.35491,50.57776],[2.35419,50.57771],[2.35393,50.57748],[2.3536,50.5778],[2.35313,50.57757],[2.35277,50.57785],[2.35493,50.57884],[2.35558,50.57809]]]}},{"type":"Feature","properties":{"k":"BTN","s":2.277},"geometry":{"type":"Polygon","coordinates":[[[2.37056,50.57971],[2.37293,50.58182],[2.37377,50.5814],[2.37116,50.57909],[2.37056,50.57971]]]}},{"type":"Feature","properties":{"k":"BTN","s":0.681},"geometry":{"type":"Polygon","coordinates":[[[2.37132,50.5789],[2.37117,50.57907],[2.37379,50.58139],[2.37402,50.58127],[2.37132,50.5789]]]}},{"type":"Feature","properties":{"k":"BTH","s":7.127},"geometry":{"type":"Polygon","coordinates":[[[2.36354,50.5788],[2.3641,50.57841],[2.3606,50.57573],[2.36029,50.57624],[2.35967,50.57654],[2.3605,50.5772],[2.35959,50.57778],[2.36173,50.57882],[2.3641,50.58023],[2.36494,50.5796],[2.36354,50.5788]]]}},{"type":"Feature","properties":{"k":"BTH","s":0.67},"geometry":{"type":"Polygon","coordinates":[[[2.36388,50.57896],[2.36607,50.57745],[2.36586,50.57723],[2.36357,50.57878],[2.36388,50.57896]]]}},{"type":"Feature","properties":{"k":"BTN","s":0.604},"geometry":{"type":"Polygon","coordinates":[[[2.36081,50.57852],[2.36028,50.5783],[2.3594,50.57931],[2.35988,50.57961],[2.36081,50.57852]]]}},{"type":"Feature","properties":{"k":"PTR","s":1.629},"geometry":{"type":"Polygon","coordinates":[[[2.36416,50.58098],[2.36367,50.58066],[2.36377,50.58031],[2.36353,50.58006],[2.36256,50.58128],[2.36294,50.58254],[2.36466,50.58069],[2.36454,50.58064],[2.36416,50.58098]]]}},{"type":"Feature","properties":{"k":"ORH","s":0.978},"geometry":{"type":"Polygon","coordinates":[[[2.36317,50.58328],[2.36489,50.58081],[2.36466,50.58069],[2.36294,50.58254],[2.36317,50.58328]]]}},{"type":"Feature","properties":{"k":"ORH","s":3.892},"geometry":{"type":"Polygon","coordinates":[[[2.36222,50.58055],[2.35959,50.5836],[2.36095,50.58429],[2.36266,50.58228],[2.36222,50.58055]]]}},{"type":"Feature","properties":{"k":"BTH","s":7.928},"geometry":{"type":"Polygon","coordinates":[[[2.35704,50.58365],[2.35844,50.58438],[2.35926,50.58341],[2.3596,50.58358],[2.36221,50.58055],[2.36137,50.57894],[2.35704,50.58365]]]}},{"type":"Feature","properties":{"k":"BTH","s":1.573},"geometry":{"type":"Polygon","coordinates":[[[2.35965,50.58084],[2.35912,50.58051],[2.35654,50.58342],[2.3569,50.5836],[2.3578,50.58256],[2.35803,50.58268],[2.35965,50.58084]]]}},{"type":"Feature","properties":{"k":"ORH","s":3.132},"geometry":{"type":"Polygon","coordinates":[[[2.35526,50.57858],[2.35879,50.58086],[2.35944,50.58016],[2.35594,50.57791],[2.35526,50.57858]]]}},{"type":"Feature","properties":{"k":"BTH","s":2.951},"geometry":{"type":"Polygon","coordinates":[[[2.35467,50.57927],[2.35822,50.58155],[2.35879,50.58086],[2.35526,50.57858],[2.35467,50.57927]]]}},{"type":"Feature","properties":{"k":"BTN","s":6.443},"geometry":{"type":"Polygon","coordinates":[[[2.35267,50.58489],[2.355,50.58221],[2.35489,50.58184],[2.35378,50.58056],[2.35084,50.58397],[2.35267,50.58489]]]}},{"type":"Feature","properties":{"k":"ORH","s":4.338},"geometry":{"type":"Polygon","coordinates":[[[2.37502,50.57442],[2.37579,50.57364],[2.37179,50.57212],[2.36975,50.57213],[2.36979,50.5725],[2.37502,50.57442]]]}},{"type":"Feature","properties":{"k":"BTH","s":7.566},"geometry":{"type":"Polygon","coordinates":[[[2.35819,50.5875],[2.36009,50.58526],[2.35709,50.58374],[2.35519,50.58595],[2.35819,50.5875]]]}},{"type":"Feature","properties":{"k":"PTC","s":10.1},"geometry":{"type":"Polygon","coordinates":[[[2.35359,50.58971],[2.35632,50.58654],[2.35519,50.58595],[2.35709,50.58374],[2.35605,50.5832],[2.3517,50.58827],[2.35359,50.58971]]]}},{"type":"Feature","properties":{"k":"BTN","s":3.578},"geometry":{"type":"Polygon","coordinates":[[[2.35658,50.5775],[2.35594,50.57791],[2.35944,50.58016],[2.35912,50.58051],[2.35965,50.58084],[2.36137,50.57894],[2.36083,50.57851],[2.35988,50.57961],[2.35658,50.5775]]]}},{"type":"Feature","properties":{"k":"FVP","s":3.253},"geometry":{"type":"Polygon","coordinates":[[[2.35842,50.57713],[2.35759,50.57682],[2.3574,50.57679],[2.35658,50.5775],[2.35939,50.5793],[2.3603,50.57829],[2.35842,50.57713]]]}},{"type":"Feature","properties":{"k":"PPH","s":0.299},"geometry":{"type":"Polygon","coordinates":[[[2.35559,50.57725],[2.35631,50.57762],[2.3567,50.57734],[2.35599,50.57692],[2.35559,50.57725]]]}},{"type":"Feature","properties":{"k":"PHF","s":7.44},"geometry":{"type":"Polygon","coordinates":[[[2.3517,50.58827],[2.35605,50.5832],[2.35473,50.58253],[2.35062,50.58729],[2.35127,50.58774],[2.35113,50.58785],[2.3517,50.58827]]]}},{"type":"Feature","properties":{"k":"MIS","s":1.026},"geometry":{"type":"Polygon","coordinates":[[[2.35667,50.58672],[2.35632,50.58654],[2.35362,50.58969],[2.35384,50.58989],[2.35667,50.58672]]]}},{"type":"Feature","properties":{"k":"PTC","s":2.879},"geometry":{"type":"Polygon","coordinates":[[[2.35525,50.59091],[2.35818,50.58752],[2.35746,50.58713],[2.35456,50.59049],[2.35525,50.59091]]]}},{"type":"Feature","properties":{"k":"BTH","s":3.149},"geometry":{"type":"Polygon","coordinates":[[[2.35744,50.58714],[2.3566,50.5867],[2.35384,50.58989],[2.35453,50.59044],[2.35744,50.58714]]]}},{"type":"Feature","properties":{"k":"BTN","s":2.933},"geometry":{"type":"Polygon","coordinates":[[[2.37469,50.57836],[2.37507,50.57816],[2.37291,50.57747],[2.37132,50.5789],[2.37215,50.57961],[2.37469,50.57836]]]}},{"type":"Feature","properties":{"k":"MIS","s":1.643},"geometry":{"type":"Polygon","coordinates":[[[2.37779,50.5794],[2.37507,50.57816],[2.37469,50.57836],[2.37664,50.58003],[2.37779,50.5794]]]}},{"type":"Feature","properties":{"k":"LBF","s":0.631},"geometry":{"type":"Polygon","coordinates":[[[2.37796,50.57937],[2.37857,50.57908],[2.37737,50.57851],[2.37669,50.57885],[2.37796,50.57937]]]}},{"type":"Feature","properties":{"k":"BTN","s":0.002},"geometry":{"type":"Polygon","coordinates":[]}},{"type":"Feature","properties":{"k":"BTH","s":1.787},"geometry":{"type":"Polygon","coordinates":[[[2.37206,50.56875],[2.37399,50.57014],[2.3743,50.56995],[2.37565,50.57079],[2.37611,50.57051],[2.37255,50.56846],[2.37206,50.56875]]]}},{"type":"Feature","properties":{"k":"MIS","s":0.0},"geometry":{"type":"Polygon","coordinates":[]}},{"type":"Feature","properties":{"k":"MIS","s":5.261},"geometry":{"type":"Polygon","coordinates":[[[2.37214,50.57961],[2.37402,50.58127],[2.37664,50.58003],[2.37469,50.57836],[2.37214,50.57961]]]}},{"type":"Feature","properties":{"k":"MLG","s":0.527},"geometry":{"type":"Polygon","coordinates":[[[2.38052,50.57578],[2.37934,50.57449],[2.37911,50.57463],[2.37993,50.57565],[2.38023,50.57594],[2.38046,50.57612],[2.38074,50.57597],[2.38052,50.57578]]]}},{"type":"Feature","properties":{"k":"CZH","s":0.235},"geometry":{"type":"MultiPolygon","coordinates":[[[[2.37959,50.57468],[2.38077,50.57596],[2.3797,50.57466],[2.37992,50.57456],[2.37958,50.57426],[2.37937,50.57447],[2.37959,50.57468]]]]}},{"type":"Feature","properties":{"k":"PTR","s":2.168},"geometry":{"type":"Polygon","coordinates":[[[2.38118,50.57775],[2.38186,50.57745],[2.38204,50.57734],[2.38005,50.57585],[2.37907,50.57465],[2.37811,50.57475],[2.38118,50.57775]]]}},{"type":"Feature","properties":{"k":"BTH","s":3.135},"geometry":{"type":"Polygon","coordinates":[[[2.3791,50.57576],[2.37772,50.57652],[2.38006,50.57835],[2.38116,50.57775],[2.3791,50.57576]]]}},{"type":"Feature","properties":{"k":"MIS","s":1.462},"geometry":{"type":"Polygon","coordinates":[[[2.37994,50.57842],[2.37909,50.57766],[2.37737,50.57851],[2.37858,50.57907],[2.37994,50.57842]]]}},{"type":"Feature","properties":{"k":"MIS","s":1.661},"geometry":{"type":"Polygon","coordinates":[[[2.35602,50.5699],[2.35563,50.57016],[2.35614,50.5709],[2.35698,50.57134],[2.35778,50.57064],[2.35736,50.57031],[2.35799,50.56992],[2.35742,50.56952],[2.35669,50.56988],[2.35705,50.57013],[2.35675,50.57037],[2.35602,50.5699]]]}},{"type":"Feature","properties":{"k":"MIS","s":0.963},"geometry":{"type":"Polygon","coordinates":[[[2.35562,50.57017],[2.35601,50.5699],[2.35675,50.57037],[2.35705,50.57013],[2.35666,50.56988],[2.35696,50.56973],[2.35607,50.56901],[2.35525,50.56956],[2.35562,50.57017]]]}},{"type":"Feature","properties":{"k":"PTR","s":0.106},"geometry":{"type":"Polygon","coordinates":[[[2.35426,50.5712],[2.35284,50.57053],[2.35425,50.57125],[2.35516,50.57051],[2.35426,50.5712]]]}},{"type":"Feature","properties":{"k":"MIS","s":7.563},"geometry":{"type":"Polygon","coordinates":[[[2.37425,50.57638],[2.37431,50.57669],[2.37493,50.57702],[2.37436,50.57771],[2.37668,50.57883],[2.37909,50.57766],[2.37591,50.57518],[2.37425,50.57638]]]}},{"type":"Feature","properties":{"k":"PPH","s":0.486},"geometry":{"type":"Polygon","coordinates":[[[2.35764,50.57052],[2.35793,50.57074],[2.35956,50.56955],[2.35936,50.56939],[2.35764,50.57052]]]}},{"type":"Feature","properties":{"k":"PPH","s":0.494},"geometry":{"type":"Polygon","coordinates":[[[2.35758,50.57269],[2.35785,50.57245],[2.35835,50.57266],[2.35865,50.57236],[2.35768,50.57197],[2.35707,50.57256],[2.35766,50.57285],[2.35758,50.57269]]]}}]}