{"type":"FeatureCollection","features":[{"type":"Feature","properties":{"k":"CZH","s":0.187},"geometry":{"type":"Polygon","coordinates":[[[2.7839,50.34655],[2.78432,50.34642],[2.78427,50.34633],[2.78213,50.34639],[2.7839,50.34655]]]}},{"type":"Feature","properties":{"k":"PPH","s":0.194},"geometry":{"type":"Polygon","coordinates":[[[2.77775,50.31774],[2.77827,50.31826],[2.77861,50.31812],[2.77809,50.31761],[2.77775,50.31774]]]}},{"type":"Feature","properties":{"k":"BTH","s":7.001},"geometry":{"type":"Polygon","coordinates":[[[2.77461,50.34919],[2.78032,50.3497],[2.78001,50.34807],[2.77481,50.34758],[2.77461,50.34919]]]}},{"type":"Feature","properties":{"k":"PTR","s":1.427},"geometry":{"type":"Polygon","coordinates":[[[2.78,50.34805],[2.77992,50.3477],[2.77483,50.3472],[2.77483,50.34756],[2.78,50.34805]]]}},{"type":"Feature","properties":{"k":"PTC","s":4.32},"geometry":{"type":"Polygon","coordinates":[[[2.7748,50.34718],[2.77991,50.34768],[2.77955,50.34573],[2.77969,50.34657],[2.77488,50.3461],[2.77482,50.34645],[2.7748,50.34718]]]}},{"type":"Feature","properties":{"k":"PTC","s":3.826},"geometry":{"type":"Polygon","coordinates":[[[2.77488,50.3461],[2.77969,50.34657],[2.77951,50.3455],[2.77505,50.34509],[2.77488,50.3461]]]}},{"type":"Feature","properties":{"k":"PHF","s":0.571},"geometry":{"type":"Polygon","coordinates":[[[2.77461,50.34919],[2.77459,50.34927],[2.78035,50.34987],[2.78032,50.3497],[2.77461,50.34919]]]}},{"type":"Feature","properties":{"k":"PHF","s":3.948},"geometry":{"type":"Polygon","coordinates":[[[2.77507,50.34507],[2.7795,50.34548],[2.77926,50.34428],[2.77535,50.3439],[2.77507,50.34507]]]}},{"type":"Feature","properties":{"k":"BTN","s":1.925},"geometry":{"type":"Polygon","coordinates":[[[2.77535,50.3439],[2.77926,50.34428],[2.77913,50.34361],[2.77555,50.34327],[2.77535,50.3439]]]}},{"type":"Feature","properties":{"k":"ORP","s":0.435},"geometry":{"type":"Polygon","coordinates":[[[2.7761,50.34167],[2.77557,50.34327],[2.77684,50.34],[2.77666,50.33998],[2.7761,50.34167]]]}},{"type":"Feature","properties":{"k":"BTH","s":12.827},"geometry":{"type":"Polygon","coordinates":[[[2.78152,50.34044],[2.77684,50.34],[2.7757,50.34329],[2.77912,50.34361],[2.77903,50.34311],[2.78111,50.34331],[2.78145,50.3424],[2.78103,50.34151],[2.78172,50.34087],[2.78152,50.34044]]]}},{"type":"Feature","properties":{"k":"BTN","s":5.297},"geometry":{"type":"Polygon","coordinates":[[[2.78329,50.34448],[2.78147,50.34386],[2.78111,50.34332],[2.77911,50.34313],[2.77953,50.34531],[2.78401,50.34529],[2.78373,50.34471],[2.78329,50.34448]]]}},{"type":"Feature","properties":{"k":"MIS","s":1.947},"geometry":{"type":"Polygon","coordinates":[[[2.78123,50.33985],[2.77694,50.33953],[2.77673,50.33978],[2.77668,50.33998],[2.78153,50.34043],[2.78123,50.33985]]]}},{"type":"Feature","properties":{"k":"BTH","s":10.38},"geometry":{"type":"Polygon","coordinates":[[[2.7861,50.33675],[2.78111,50.33835],[2.78232,50.34071],[2.78705,50.33907],[2.7861,50.33675]]]}},{"type":"Feature","properties":{"k":"BTH","s":3.735},"geometry":{"type":"Polygon","coordinates":[[[2.7797,50.34617],[2.78213,50.34639],[2.78427,50.34633],[2.78421,50.34622],[2.78448,50.34617],[2.78401,50.34529],[2.77953,50.34531],[2.7797,50.34617]]]}},{"type":"Feature","properties":{"k":"BTH","s":13.317},"geometry":{"type":"Polygon","coordinates":[[[2.78441,50.33225],[2.77875,50.33375],[2.77926,50.3337],[2.77985,50.33493],[2.77957,50.33532],[2.78033,50.33679],[2.7854,50.33504],[2.78441,50.33225]]]}},{"type":"Feature","properties":{"k":"PPH","s":0.506},"geometry":{"type":"Polygon","coordinates":[[[2.77646,50.32995],[2.77689,50.33063],[2.7775,50.33059],[2.77738,50.32972],[2.77646,50.32995]]]}},{"type":"Feature","properties":{"k":"MIS","s":3.194},"geometry":{"type":"Polygon","coordinates":[[[2.78143,50.33034],[2.78128,50.33007],[2.78206,50.32986],[2.78186,50.32899],[2.77854,50.32987],[2.77859,50.33108],[2.78143,50.33034]]]}},{"type":"Feature","properties":{"k":"BTH","s":8.939},"geometry":{"type":"MultiPolygon","coordinates":[[[[2.78253,50.3308],[2.78222,50.33017],[2.77863,50.33106],[2.77861,50.33161],[2.77821,50.33174],[2.77846,50.33305],[2.78507,50.33131],[2.7852,50.33113],[2.78511,50.33111],[2.7859,50.32998],[2.78595,50.32988],[2.78253,50.3308]]],[[[2.78535,50.33093],[2.78563,50.33054],[2.7858,50.33021],[2.7859,50.32998],[2.7852,50.33113],[2.78535,50.33093]]]]}},{"type":"Feature","properties":{"k":"ORH","s":3.785},"geometry":{"type":"Polygon","coordinates":[[[2.77841,50.33306],[2.77866,50.33377],[2.78441,50.33225],[2.78509,50.33131],[2.77841,50.33306]]]}},{"type":"Feature","properties":{"k":"MIS","s":1.359},"geometry":{"type":"Polygon","coordinates":[[[2.78356,50.33042],[2.78393,50.33008],[2.78428,50.32855],[2.784,50.32817],[2.7827,50.33032],[2.78302,50.33046],[2.78356,50.33042]]]}},{"type":"Feature","properties":{"k":"MIS","s":1.307},"geometry":{"type":"Polygon","coordinates":[[[2.7825,50.32949],[2.78336,50.32777],[2.7828,50.32736],[2.78229,50.3275],[2.78214,50.32772],[2.78211,50.32849],[2.7825,50.32949]],[[2.78309,50.32792],[2.783,50.32789],[2.78304,50.32783],[2.78309,50.32792]]]}},{"type":"Feature","properties":{"k":"PTC","s":0.047},"geometry":{"type":"Polygon","coordinates":[[[2.78169,50.32899],[2.78186,50.32895],[2.7816,50.32867],[2.78142,50.32873],[2.78169,50.32899]]]}},{"type":"Feature","properties":{"k":"MIS","s":4.388},"geometry":{"type":"Polygon","coordinates":[[[2.77808,50.32786],[2.77797,50.32883],[2.77818,50.32995],[2.78189,50.32898],[2.77886,50.32746],[2.77808,50.32786]]]}},{"type":"Feature","properties":{"k":"BOR","s":0.121},"geometry":{"type":"Polygon","coordinates":[[[2.78153,50.3287],[2.7816,50.32867],[2.77887,50.3274],[2.78153,50.3287]]]}},{"type":"Feature","properties":{"k":"PPH","s":0.072},"geometry":{"type":"Polygon","coordinates":[[[2.78383,50.32592],[2.78411,50.32617],[2.78437,50.32605],[2.78406,50.32582],[2.78383,50.32592]]]}},{"type":"Feature","properties":{"k":"PPH","s":0.551},"geometry":{"type":"Polygon","coordinates":[[[2.78436,50.32519],[2.78379,50.32557],[2.78461,50.32624],[2.78515,50.32575],[2.78436,50.32519]]]}},{"type":"Feature","properties":{"k":"PPH","s":3.002},"geometry":{"type":"Polygon","coordinates":[[[2.78256,50.32574],[2.78357,50.32506],[2.78403,50.32537],[2.7846,50.32502],[2.78177,50.32284],[2.78199,50.32549],[2.78232,50.32551],[2.78256,50.32574]]]}},{"type":"Feature","properties":{"k":"JAC","s":0.078},"geometry":{"type":"Polygon","coordinates":[[[2.78542,50.32176],[2.7838,50.32287],[2.78548,50.32177],[2.78522,50.32143],[2.78542,50.32176]]]}},{"type":"Feature","properties":{"k":"BTH","s":1.975},"geometry":{"type":"Polygon","coordinates":[[[2.78258,50.32205],[2.78127,50.32124],[2.78176,50.32281],[2.78288,50.32371],[2.7838,50.3229],[2.78258,50.32205]]]}},{"type":"Feature","properties":{"k":"PPH","s":1.194},"geometry":{"type":"Polygon","coordinates":[[[2.7808,50.32613],[2.78187,50.32568],[2.78168,50.32411],[2.78156,50.3237],[2.78134,50.32366],[2.7808,50.32613]]]}},{"type":"Feature","properties":{"k":"FVP","s":2.203},"geometry":{"type":"Polygon","coordinates":[[[2.78007,50.32595],[2.78075,50.32359],[2.77959,50.32344],[2.77894,50.32569],[2.78007,50.32595]]]}},{"type":"Feature","properties":{"k":"BTH","s":10.756},"geometry":{"type":"Polygon","coordinates":[[[2.77639,50.32176],[2.77354,50.32297],[2.7739,50.32392],[2.77429,50.32394],[2.77481,50.32459],[2.77894,50.32569],[2.77958,50.32345],[2.77854,50.3233],[2.77639,50.32176]]]}},{"type":"Feature","properties":{"k":"ORP","s":1.233},"geometry":{"type":"Polygon","coordinates":[[[2.77414,50.32541],[2.77489,50.32686],[2.7757,50.32684],[2.7764,50.32714],[2.77467,50.32535],[2.77455,50.32524],[2.77414,50.32541]]]}},{"type":"Feature","properties":{"k":"ORH","s":3.398},"geometry":{"type":"Polygon","coordinates":[[[2.77689,50.32711],[2.77771,50.3266],[2.77823,50.32682],[2.77956,50.32592],[2.77572,50.32496],[2.77535,50.32542],[2.77689,50.32711]]]}},{"type":"Feature","properties":{"k":"BTH","s":3.427},"geometry":{"type":"Polygon","coordinates":[[[2.77711,50.31712],[2.78036,50.31615],[2.77991,50.31501],[2.77623,50.31616],[2.77711,50.31712]]]}},{"type":"Feature","properties":{"k":"BTH","s":0.362},"geometry":{"type":"Polygon","coordinates":[[[2.77489,50.32045],[2.77298,50.32098],[2.77306,50.32119],[2.77509,50.32062],[2.77489,50.32045]]]}},{"type":"Feature","properties":{"k":"PHF","s":14.265},"geometry":{"type":"Polygon","coordinates":[[[2.77854,50.3233],[2.78157,50.32364],[2.78169,50.32273],[2.78121,50.32101],[2.77909,50.31909],[2.77664,50.32045],[2.77553,50.31952],[2.7745,50.32001],[2.77854,50.3233]]]}},{"type":"Feature","properties":{"k":"BTH","s":0.007},"geometry":{"type":"Polygon","coordinates":[[[2.77841,50.31945],[2.7784,50.31944],[2.77772,50.31983],[2.77841,50.31945]]]}},{"type":"Feature","properties":{"k":"BTH","s":0.008},"geometry":{"type":"MultiPolygon","coordinates":[[[[2.77841,50.31944],[2.77842,50.31945],[2.77901,50.3191],[2.77841,50.31944]]]]}},{"type":"Feature","properties":{"k":"BTH","s":0.068},"geometry":{"type":"Polygon","coordinates":[[[2.78307,50.31457],[2.78456,50.31395],[2.78303,50.31448],[2.78307,50.31457]]]}},{"type":"Feature","properties":{"k":"BTN","s":2.512},"geometry":{"type":"Polygon","coordinates":[[[2.77827,50.31826],[2.77905,50.31904],[2.77943,50.31889],[2.77983,50.3192],[2.78117,50.31861],[2.78076,50.31726],[2.77827,50.31826]]]}},{"type":"Feature","properties":{"k":"ORP","s":1.73},"geometry":{"type":"Polygon","coordinates":[[[2.77945,50.31938],[2.78115,50.32096],[2.78132,50.32034],[2.78118,50.31865],[2.77945,50.31938]]]}},{"type":"Feature","properties":{"k":"LUZ","s":2.585},"geometry":{"type":"Polygon","coordinates":[[[2.78333,50.31945],[2.78129,50.32077],[2.78127,50.32117],[2.78212,50.32172],[2.78427,50.32033],[2.78333,50.31945]]]}},{"type":"Feature","properties":{"k":"LIF","s":3.226},"geometry":{"type":"Polygon","coordinates":[[[2.78432,50.32135],[2.78508,50.32109],[2.78432,50.3203],[2.78212,50.32172],[2.7838,50.32282],[2.78542,50.32176],[2.78517,50.32141],[2.78459,50.32164],[2.78432,50.32135]]]}},{"type":"Feature","properties":{"k":"BOR","s":0.052},"geometry":{"type":"Polygon","coordinates":[[[2.78422,50.3203],[2.78427,50.32033],[2.78392,50.31995],[2.78339,50.31959],[2.78422,50.3203]]]}},{"type":"Feature","properties":{"k":"BOR","s":0.213},"geometry":{"type":"Polygon","coordinates":[[[2.78429,50.31883],[2.78333,50.31945],[2.78345,50.31956],[2.78449,50.31887],[2.78409,50.3184],[2.78429,50.31883]]]}},{"type":"Feature","properties":{"k":"BTH","s":1.236},"geometry":{"type":"Polygon","coordinates":[[[2.78429,50.31883],[2.78395,50.31849],[2.78138,50.32016],[2.78129,50.32077],[2.78429,50.31883]]]}},{"type":"Feature","properties":{"k":"BTN","s":4.35},"geometry":{"type":"Polygon","coordinates":[[[2.78429,50.31656],[2.78129,50.31862],[2.78138,50.32016],[2.78487,50.3179],[2.78429,50.31656]]]}},{"type":"Feature","properties":{"k":"CZH","s":8.225},"geometry":{"type":"Polygon","coordinates":[[[2.78283,50.31429],[2.78183,50.31531],[2.78143,50.31426],[2.77988,50.31442],[2.78129,50.31862],[2.7842,50.31662],[2.78283,50.31429]]]}},{"type":"Feature","properties":{"k":"LUZ","s":2.771},"geometry":{"type":"Polygon","coordinates":[[[2.77861,50.31812],[2.78076,50.31726],[2.78036,50.31615],[2.77754,50.31698],[2.77861,50.31812]]]}},{"type":"Feature","properties":{"k":"BTH","s":2.232},"geometry":{"type":"Polygon","coordinates":[[[2.78305,50.31458],[2.78392,50.3158],[2.78578,50.31502],[2.78466,50.31392],[2.78305,50.31458]]]}},{"type":"Feature","properties":{"k":"BTN","s":7.49},"geometry":{"type":"Polygon","coordinates":[[[2.7861,50.33675],[2.7854,50.33505],[2.78032,50.33679],[2.78111,50.33835],[2.7861,50.33675]]]}},{"type":"Feature","properties":{"k":"BTN","s":6.349},"geometry":{"type":"Polygon","coordinates":[[[2.8082,50.3289],[2.81225,50.3316],[2.81402,50.33088],[2.80968,50.32799],[2.8082,50.3289]]]}},{"type":"Feature","properties":{"k":"BTN","s":6.884},"geometry":{"type":"Polygon","coordinates":[[[2.80563,50.33463],[2.80874,50.33343],[2.80737,50.3325],[2.80625,50.3313],[2.80368,50.33203],[2.80563,50.33463]]]}},{"type":"Feature","properties":{"k":"BTH","s":1.6},"geometry":{"type":"Polygon","coordinates":[[[2.8105,50.32799],[2.81449,50.33068],[2.81498,50.33048],[2.81124,50.32798],[2.8105,50.32799]]]}},{"type":"Feature","properties":{"k":"MIS","s":1.196},"geometry":{"type":"Polygon","coordinates":[[[2.80822,50.32771],[2.80688,50.32795],[2.80808,50.32877],[2.80953,50.3278],[2.80822,50.32771]]]}},{"type":"Feature","properties":{"k":"BTH","s":0.189},"geometry":{"type":"Polygon","coordinates":[[[2.80821,50.32883],[2.80978,50.32787],[2.80961,50.32781],[2.80809,50.32878],[2.80821,50.32883]]]}},{"type":"Feature","properties":{"k":"ORH","s":2.613},"geometry":{"type":"Polygon","coordinates":[[[2.80124,50.32796],[2.79955,50.32805],[2.79897,50.32952],[2.80179,50.32933],[2.80124,50.32796]]]}},{"type":"Feature","properties":{"k":"BTN","s":1.737},"geometry":{"type":"Polygon","coordinates":[[[2.7971,50.3283],[2.79805,50.3282],[2.80083,50.32657],[2.80048,50.32589],[2.79878,50.32699],[2.79899,50.32711],[2.7971,50.3283]]]}},{"type":"Feature","properties":{"k":"BTH","s":1.696},"geometry":{"type":"Polygon","coordinates":[[[2.80123,50.32791],[2.80083,50.32657],[2.79805,50.3282],[2.80123,50.32791]]]}},{"type":"Feature","properties":{"k":"LUZ","s":4.33},"geometry":{"type":"Polygon","coordinates":[[[2.79578,50.32756],[2.79492,50.3281],[2.79659,50.32832],[2.79878,50.32699],[2.80048,50.32589],[2.79944,50.32528],[2.79578,50.32756]]]}},{"type":"Feature","properties":{"k":"MIS","s":5.877},"geometry":{"type":"Polygon","coordinates":[[[2.80672,50.32794],[2.80775,50.32769],[2.80769,50.32766],[2.80567,50.32633],[2.80539,50.32695],[2.80222,50.32483],[2.80297,50.32454],[2.79723,50.32074],[2.7964,50.32116],[2.80672,50.32794]],[[2.80773,50.32769],[2.80674,50.32789],[2.80769,50.32766],[2.80773,50.32769]]]}},{"type":"Feature","properties":{"k":"BTH","s":17.265},"geometry":{"type":"Polygon","coordinates":[[[2.79829,50.3201],[2.79807,50.31995],[2.79543,50.32142],[2.79525,50.32152],[2.7973,50.32384],[2.80058,50.32594],[2.80138,50.3279],[2.80571,50.32802],[2.80672,50.32794],[2.7964,50.32116],[2.79829,50.3201]]]}},{"type":"Feature","properties":{"k":"BTH","s":0.224},"geometry":{"type":"MultiPolygon","coordinates":[[[[2.80252,50.32145],[2.8034,50.32195],[2.80251,50.32134],[2.80252,50.32145]]],[[[2.80452,50.32361],[2.80373,50.32264],[2.8034,50.32286],[2.80452,50.32361]]]]}},{"type":"Feature","properties":{"k":"BTH","s":0.241},"geometry":{"type":"Polygon","coordinates":[[[2.79726,50.32032],[2.79785,50.31997],[2.79511,50.32129],[2.79522,50.32142],[2.79726,50.32032]]]}},{"type":"Feature","properties":{"k":"CZH","s":4.643},"geometry":{"type":"Polygon","coordinates":[[[2.79311,50.31974],[2.78827,50.32229],[2.78929,50.32302],[2.79392,50.32055],[2.79311,50.31974]]]}},{"type":"Feature","properties":{"k":"ORH","s":8.718},"geometry":{"type":"Polygon","coordinates":[[[2.78484,50.31725],[2.78505,50.31797],[2.78616,50.31772],[2.78978,50.31623],[2.78748,50.31446],[2.78598,50.31522],[2.78578,50.31502],[2.78392,50.3158],[2.78484,50.31725]]]}},{"type":"Feature","properties":{"k":"BTN","s":1.777},"geometry":{"type":"Polygon","coordinates":[[[2.78898,50.31766],[2.78811,50.31692],[2.78608,50.31775],[2.78705,50.31849],[2.78898,50.31766]]]}},{"type":"Feature","properties":{"k":"BOR","s":0.101},"geometry":{"type":"Polygon","coordinates":[[[2.78588,50.31789],[2.78589,50.31785],[2.78582,50.31787],[2.78633,50.3201],[2.78588,50.31789]]]}},{"type":"Feature","properties":{"k":"BTH","s":1.706},"geometry":{"type":"Polygon","coordinates":[[[2.81499,50.33048],[2.81551,50.33027],[2.81232,50.32801],[2.81125,50.32797],[2.81499,50.33048]]]}},{"type":"Feature","properties":{"k":"BTN","s":14.972},"geometry":{"type":"Polygon","coordinates":[[[2.78634,50.32055],[2.78669,50.32155],[2.7874,50.32177],[2.78865,50.32271],[2.78757,50.3233],[2.78796,50.32361],[2.7892,50.32296],[2.78827,50.32229],[2.79311,50.31974],[2.79232,50.31852],[2.78976,50.31624],[2.78811,50.31692],[2.79025,50.31874],[2.78634,50.32055]]]}},{"type":"Feature","properties":{"k":"ORP","s":2.127},"geometry":{"type":"Polygon","coordinates":[[[2.79138,50.32296],[2.79052,50.32234],[2.78783,50.32368],[2.7885,50.32416],[2.78927,50.32373],[2.78956,50.32395],[2.79138,50.32296]]]}},{"type":"Feature","properties":{"k":"JAC","s":0.562},"geometry":{"type":"Polygon","coordinates":[[[2.78621,50.344],[2.78613,50.34423],[2.78782,50.34502],[2.78801,50.34487],[2.78384,50.34267],[2.78621,50.344]]]}},{"type":"Feature","properties":{"k":"BTN","s":0.069},"geometry":{"type":"Polygon","coordinates":[[[2.7857,50.34452],[2.7864,50.34514],[2.78633,50.34498],[2.7857,50.34452]]]}},{"type":"Feature","properties":{"k":"PTC","s":1.623},"geometry":{"type":"Polygon","coordinates":[[[2.81039,50.32797],[2.80983,50.32786],[2.80967,50.32798],[2.81402,50.33088],[2.81444,50.3307],[2.81039,50.32797]]]}},{"type":"Feature","properties":{"k":"BTN","s":2.433},"geometry":{"type":"Polygon","coordinates":[[[2.79052,50.32234],[2.79126,50.32288],[2.79461,50.32107],[2.79393,50.32056],[2.79052,50.32234]]]}},{"type":"Feature","properties":{"k":"PPH","s":0.397},"geometry":{"type":"Polygon","coordinates":[[[2.79138,50.32296],[2.79475,50.32115],[2.79461,50.32107],[2.79126,50.32288],[2.79138,50.32296]]]}},{"type":"Feature","properties":{"k":"PTC","s":6.289},"geometry":{"type":"Polygon","coordinates":[[[2.79338,50.32642],[2.79733,50.32396],[2.79654,50.32311],[2.79484,50.32404],[2.79387,50.32333],[2.79277,50.32394],[2.79357,50.32453],[2.7919,50.32542],[2.79338,50.32642]]]}},{"type":"Feature","properties":{"k":"MOT","s":0.227},"geometry":{"type":"Polygon","coordinates":[[[2.79374,50.3232],[2.79261,50.32382],[2.79277,50.32394],[2.79387,50.32333],[2.79484,50.32404],[2.79374,50.3232]]]}},{"type":"Feature","properties":{"k":"BTN","s":9.939},"geometry":{"type":"Polygon","coordinates":[[[2.79944,50.32527],[2.79735,50.32397],[2.79252,50.32697],[2.79357,50.3275],[2.79312,50.32778],[2.79492,50.32811],[2.79944,50.32527]]]}},{"type":"Feature","properties":{"k":"CZH","s":4.147},"geometry":{"type":"Polygon","coordinates":[[[2.79945,50.32812],[2.79939,50.32807],[2.79619,50.32835],[2.79318,50.32968],[2.79438,50.33047],[2.79945,50.32812]]]}},{"type":"Feature","properties":{"k":"JAC","s":0.288},"geometry":{"type":"Polygon","coordinates":[[[2.79358,50.3275],[2.79304,50.32717],[2.79244,50.3276],[2.79312,50.32777],[2.79358,50.3275]]]}},{"type":"Feature","properties":{"k":"PTR","s":0.285},"geometry":{"type":"Polygon","coordinates":[[[2.79118,50.32911],[2.79087,50.32877],[2.79011,50.32921],[2.79041,50.32947],[2.79118,50.32911]]]}},{"type":"Feature","properties":{"k":"PPH","s":1.227},"geometry":{"type":"Polygon","coordinates":[[[2.78775,50.32883],[2.78883,50.3281],[2.78791,50.32734],[2.78678,50.32796],[2.78775,50.32883]]]}},{"type":"Feature","properties":{"k":"ORP","s":2.777},"geometry":{"type":"Polygon","coordinates":[[[2.78644,50.32854],[2.78598,50.32789],[2.78504,50.32865],[2.78447,50.32842],[2.78404,50.33036],[2.78595,50.32988],[2.78644,50.32854]]]}},{"type":"Feature","properties":{"k":"PPH","s":4.03},"geometry":{"type":"Polygon","coordinates":[[[2.79044,50.32838],[2.78998,50.32791],[2.78929,50.32819],[2.78913,50.32802],[2.78881,50.32811],[2.78776,50.32883],[2.79017,50.33099],[2.79158,50.33052],[2.7896,50.32875],[2.79044,50.32838]]]}},{"type":"Feature","properties":{"k":"BTH","s":28.343},"geometry":{"type":"Polygon","coordinates":[[[2.78442,50.33252],[2.78616,50.33641],[2.79191,50.33444],[2.79048,50.33091],[2.79019,50.331],[2.78678,50.32796],[2.78652,50.32821],[2.78646,50.32889],[2.78564,50.3307],[2.78442,50.33252]]]}},{"type":"Feature","properties":{"k":"LUZ","s":1.503},"geometry":{"type":"Polygon","coordinates":[[[2.79254,50.33422],[2.79375,50.33381],[2.79338,50.33222],[2.79215,50.33316],[2.79254,50.33422]]]}},{"type":"Feature","properties":{"k":"ORH","s":6.961},"geometry":{"type":"Polygon","coordinates":[[[2.79373,50.33387],[2.79367,50.33389],[2.79313,50.33413],[2.79308,50.33408],[2.79306,50.33409],[2.78828,50.33574],[2.78888,50.33716],[2.7942,50.33531],[2.79373,50.33387]]]}},{"type":"Feature","properties":{"k":"BTH","s":3.006},"geometry":{"type":"Polygon","coordinates":[[[2.78913,50.3378],[2.79427,50.33601],[2.7942,50.33531],[2.78888,50.33716],[2.78913,50.3378]]]}},{"type":"Feature","properties":{"k":"LIF","s":1.703},"geometry":{"type":"Polygon","coordinates":[[[2.79416,50.33451],[2.79441,50.33539],[2.79664,50.33421],[2.79574,50.33354],[2.79416,50.33451]]]}},{"type":"Feature","properties":{"k":"LUZ","s":2.285},"geometry":{"type":"Polygon","coordinates":[[[2.79358,50.33255],[2.79406,50.33417],[2.79548,50.33328],[2.79561,50.33316],[2.79327,50.33106],[2.79358,50.33255]]]}},{"type":"Feature","properties":{"k":"BTN","s":1.397},"geometry":{"type":"Polygon","coordinates":[[[2.79213,50.33436],[2.79254,50.33422],[2.79129,50.33084],[2.79077,50.33099],[2.79213,50.33436]]]}},{"type":"Feature","properties":{"k":"BTN","s":4.709},"geometry":{"type":"Polygon","coordinates":[[[2.79191,50.33444],[2.79213,50.33436],[2.79077,50.33099],[2.79129,50.33084],[2.79215,50.33316],[2.79338,50.33222],[2.79301,50.33085],[2.79119,50.3291],[2.79041,50.32948],[2.79158,50.33052],[2.79048,50.33091],[2.79191,50.33444]]]}},{"type":"Feature","properties":{"k":"PPH","s":0.132},"geometry":{"type":"Polygon","coordinates":[[[2.79343,50.33107],[2.79438,50.33063],[2.79423,50.33052],[2.79331,50.33096],[2.79343,50.33107]]]}},{"type":"Feature","properties":{"k":"BOR","s":0.037},"geometry":{"type":"Polygon","coordinates":[]}},{"type":"Feature","properties":{"k":"BTN","s":1.097},"geometry":{"type":"Polygon","coordinates":[[[2.7943,50.33051],[2.79302,50.32955],[2.79221,50.32996],[2.79328,50.33093],[2.7943,50.33051]]]}},{"type":"Feature","properties":{"k":"PHF","s":6.588},"geometry":{"type":"Polygon","coordinates":[[[2.79626,50.33106],[2.79677,50.33122],[2.7972,50.33098],[2.79859,50.32984],[2.79899,50.32935],[2.79945,50.32812],[2.79425,50.33053],[2.79439,50.33063],[2.79345,50.3311],[2.79447,50.33208],[2.79602,50.33137],[2.79626,50.33106]]]}},{"type":"Feature","properties":{"k":"BTH","s":20.37},"geometry":{"type":"Polygon","coordinates":[[[2.8034,50.33176],[2.80177,50.32933],[2.79896,50.32953],[2.7973,50.33099],[2.7964,50.33149],[2.79602,50.33137],[2.79448,50.33207],[2.79743,50.33485],[2.8034,50.33176]]]}},{"type":"Feature","properties":{"k":"PTC","s":8.877},"geometry":{"type":"Polygon","coordinates":[[[2.80367,50.33202],[2.81007,50.33015],[2.80818,50.3289],[2.80259,50.33041],[2.80367,50.33202]]]}},{"type":"Feature","properties":{"k":"BTN","s":8.25},"geometry":{"type":"MultiPolygon","coordinates":[[[[2.80206,50.32975],[2.80228,50.33006],[2.80247,50.33029],[2.80259,50.33041],[2.80818,50.3289],[2.81007,50.33015],[2.81225,50.3316],[2.80683,50.32797],[2.80545,50.32806],[2.80155,50.32796],[2.80144,50.32809],[2.80206,50.32975]]],[[[2.80301,50.33108],[2.80325,50.33145],[2.80338,50.33163],[2.80367,50.33202],[2.80269,50.33051],[2.80301,50.33108]]],[[[2.80367,50.33203],[2.80625,50.3313],[2.80367,50.33202],[2.80367,50.33203]]]]}},{"type":"Feature","properties":{"k":"BTN","s":4.08},"geometry":{"type":"Polygon","coordinates":[[[2.80838,50.33196],[2.8095,50.3314],[2.81071,50.33222],[2.81225,50.3316],[2.81007,50.33015],[2.8073,50.33096],[2.80838,50.33196]]]}},{"type":"Feature","properties":{"k":"MIS","s":3.481},"geometry":{"type":"Polygon","coordinates":[[[2.78384,50.34267],[2.78801,50.34487],[2.78895,50.34419],[2.78502,50.34226],[2.78384,50.34267]]]}},{"type":"Feature","properties":{"k":"BTH","s":0.001},"geometry":{"type":"Polygon","coordinates":[[[2.80595,50.335],[2.80592,50.33492],[2.8059,50.33495],[2.80595,50.335]]]}},{"type":"Feature","properties":{"k":"BTH","s":11.385},"geometry":{"type":"Polygon","coordinates":[[[2.80005,50.33703],[2.80227,50.33891],[2.80397,50.33793],[2.8036,50.33764],[2.80454,50.33721],[2.80486,50.33745],[2.80708,50.33624],[2.80526,50.33438],[2.80005,50.33703]]]}},{"type":"Feature","properties":{"k":"BTN","s":7.064},"geometry":{"type":"Polygon","coordinates":[[[2.79841,50.33584],[2.80369,50.33311],[2.80443,50.33313],[2.80339,50.33177],[2.79743,50.33485],[2.79841,50.33584]]]}},{"type":"Feature","properties":{"k":"MIS","s":8.338},"geometry":{"type":"Polygon","coordinates":[[[2.80164,50.33597],[2.80179,50.33607],[2.80512,50.33435],[2.8046,50.33337],[2.80366,50.33345],[2.80366,50.33313],[2.7984,50.33584],[2.79896,50.33641],[2.79993,50.33698],[2.80087,50.33655],[2.80069,50.33642],[2.80164,50.33597]]]}},{"type":"Feature","properties":{"k":"PPH","s":0.946},"geometry":{"type":"Polygon","coordinates":[[[2.79498,50.33958],[2.79494,50.3389],[2.79339,50.33939],[2.79345,50.34008],[2.79498,50.33958]]]}},{"type":"Feature","properties":{"k":"BTH","s":4.562},"geometry":{"type":"Polygon","coordinates":[[[2.7944,50.33711],[2.7943,50.33601],[2.78916,50.33779],[2.78956,50.33879],[2.7944,50.33711]]]}},{"type":"Feature","properties":{"k":"BTN","s":10.443},"geometry":{"type":"Polygon","coordinates":[[[2.78733,50.33955],[2.78795,50.34112],[2.79491,50.33881],[2.7944,50.33711],[2.78733,50.33955]]]}},{"type":"Feature","properties":{"k":"BTH","s":5.111},"geometry":{"type":"Polygon","coordinates":[[[2.79197,50.34217],[2.79354,50.34151],[2.79339,50.33939],[2.78926,50.34082],[2.79197,50.34217]]]}},{"type":"Feature","properties":{"k":"BTH","s":6.095},"geometry":{"type":"Polygon","coordinates":[[[2.78956,50.33879],[2.78827,50.33574],[2.78609,50.33653],[2.78735,50.33955],[2.78956,50.33879]]]}},{"type":"Feature","properties":{"k":"BTH","s":8.597},"geometry":{"type":"Polygon","coordinates":[[[2.78331,50.34185],[2.78379,50.34265],[2.78789,50.34122],[2.78704,50.33908],[2.78236,50.3407],[2.78292,50.34176],[2.78331,50.34185]]]}},{"type":"Feature","properties":{"k":"BTH","s":3.636},"geometry":{"type":"Polygon","coordinates":[[[2.78712,50.34154],[2.78545,50.34211],[2.78926,50.34397],[2.78979,50.34359],[2.78926,50.34331],[2.79004,50.34298],[2.78712,50.34154]]]}},{"type":"Feature","properties":{"k":"BTH","s":3.944},"geometry":{"type":"Polygon","coordinates":[[[2.78925,50.34082],[2.78712,50.34154],[2.79004,50.34298],[2.79197,50.34217],[2.78925,50.34082]]]}},{"type":"Feature","properties":{"k":"BTH","s":0.0},"geometry":{"type":"Polygon","coordinates":[]}},{"type":"Feature","properties":{"k":"BTN","s":1.12},"geometry":{"type":"Polygon","coordinates":[[[2.78502,50.34226],[2.78895,50.34419],[2.78926,50.34397],[2.78545,50.34211],[2.78502,50.34226]]]}},{"type":"Feature","properties":{"k":"BTH","s":3.921},"geometry":{"type":"Polygon","coordinates":[[[2.78927,50.31875],[2.78958,50.31904],[2.79023,50.31873],[2.78898,50.31766],[2.78697,50.31853],[2.78611,50.31781],[2.78589,50.31785],[2.78639,50.32007],[2.78927,50.31875]]]}}]}