{"type":"FeatureCollection","features":[{"type":"Feature","properties":{"k":"PPH","s":0.127},"geometry":{"type":"Polygon","coordinates":[[[1.87975,50.37736],[1.87975,50.37751],[1.88082,50.37742],[1.88081,50.37727],[1.87975,50.37736]]]}},{"type":"Feature","properties":{"k":"BOR","s":0.022},"geometry":{"type":"Polygon","coordinates":[[[1.87396,50.37082],[1.87395,50.37085],[1.87495,50.37105],[1.87396,50.37082]]]}},{"type":"Feature","properties":{"k":"BTN","s":0.716},"geometry":{"type":"Polygon","coordinates":[[[1.87669,50.37659],[1.87597,50.37692],[1.8773,50.3778],[1.87778,50.37759],[1.87669,50.37659]]]}},{"type":"Feature","properties":{"k":"MIS","s":0.897},"geometry":{"type":"Polygon","coordinates":[[[1.87849,50.37734],[1.87811,50.37682],[1.87736,50.37629],[1.87669,50.37659],[1.87777,50.37759],[1.87849,50.37734]]]}},{"type":"Feature","properties":{"k":"MIS","s":0.661},"geometry":{"type":"Polygon","coordinates":[[[1.87733,50.37626],[1.87616,50.37564],[1.87546,50.37597],[1.87661,50.37657],[1.87733,50.37626]]]}},{"type":"Feature","properties":{"k":"BTN","s":0.722},"geometry":{"type":"MultiPolygon","coordinates":[[[[1.87346,50.37715],[1.87482,50.37626],[1.87321,50.377],[1.87346,50.37715]]],[[[1.87661,50.37657],[1.87546,50.37597],[1.87491,50.37622],[1.87591,50.37688],[1.87661,50.37657]]]]}},{"type":"Feature","properties":{"k":"PPH","s":2.023},"geometry":{"type":"Polygon","coordinates":[[[1.87965,50.37641],[1.87836,50.37472],[1.8781,50.37483],[1.87832,50.37515],[1.87805,50.37524],[1.87886,50.3761],[1.87836,50.37626],[1.87893,50.37707],[1.87909,50.37799],[1.87936,50.37818],[1.87989,50.37813],[1.87955,50.37752],[1.88008,50.37733],[1.87965,50.37641]]]}},{"type":"Feature","properties":{"k":"BTH","s":4.761},"geometry":{"type":"Polygon","coordinates":[[[1.8784,50.37471],[1.87968,50.3764],[1.88011,50.37733],[1.88077,50.37728],[1.88094,50.37741],[1.88099,50.37715],[1.88234,50.3769],[1.88171,50.37602],[1.8798,50.37416],[1.8784,50.37471]]]}},{"type":"Feature","properties":{"k":"BTH","s":0.505},"geometry":{"type":"Polygon","coordinates":[[[1.88171,50.37602],[1.88234,50.3769],[1.88253,50.37686],[1.88173,50.37585],[1.87897,50.37315],[1.8788,50.37314],[1.87949,50.37374],[1.88021,50.37446],[1.8798,50.37416],[1.88171,50.37602]]]}},{"type":"Feature","properties":{"k":"PPH","s":0.043},"geometry":{"type":"Polygon","coordinates":[[[1.8788,50.37314],[1.87892,50.37311],[1.87838,50.37269],[1.8788,50.37314]]]}},{"type":"Feature","properties":{"k":"PPH","s":2.157},"geometry":{"type":"Polygon","coordinates":[[[1.87508,50.37341],[1.87716,50.37472],[1.87735,50.37458],[1.87709,50.37435],[1.87744,50.37461],[1.87805,50.37524],[1.87832,50.37515],[1.8781,50.37483],[1.87835,50.37472],[1.87797,50.37432],[1.87657,50.37325],[1.87493,50.37251],[1.87488,50.37262],[1.87532,50.37286],[1.87558,50.37309],[1.87508,50.37341]],[[1.87558,50.37309],[1.87623,50.37349],[1.87635,50.37361],[1.87558,50.37309]]]}},{"type":"Feature","properties":{"k":"BTH","s":1.231},"geometry":{"type":"Polygon","coordinates":[[[1.87583,50.37225],[1.87476,50.37183],[1.87464,50.37199],[1.87493,50.37251],[1.87657,50.37325],[1.87752,50.37403],[1.87783,50.37387],[1.87583,50.37225]]]}},{"type":"Feature","properties":{"k":"MIS","s":3.044},"geometry":{"type":"Polygon","coordinates":[[[1.8788,50.37456],[1.87984,50.37415],[1.87707,50.37175],[1.87595,50.37223],[1.8788,50.37456]]]}},{"type":"Feature","properties":{"k":"MLG","s":0.022},"geometry":{"type":"Polygon","coordinates":[[[1.87791,50.3714],[1.87873,50.37113],[1.87869,50.37109],[1.87791,50.3714]]]}},{"type":"Feature","properties":{"k":"BTH","s":0.037},"geometry":{"type":"Polygon","coordinates":[[[1.87941,50.3709],[1.8794,50.37082],[1.87869,50.37109],[1.87941,50.3709]]]}},{"type":"Feature","properties":{"k":"PPH","s":1.015},"geometry":{"type":"Polygon","coordinates":[[[1.87805,50.36855],[1.87809,50.36917],[1.87788,50.36929],[1.87828,50.36965],[1.87901,50.3699],[1.87934,50.37054],[1.87884,50.36861],[1.87805,50.36855]]]}},{"type":"Feature","properties":{"k":"PPH","s":5.164},"geometry":{"type":"Polygon","coordinates":[[[1.8794,50.37082],[1.87899,50.3699],[1.87826,50.36967],[1.87706,50.36885],[1.87685,50.36892],[1.87784,50.37023],[1.87667,50.3705],[1.8763,50.36945],[1.87553,50.37004],[1.87613,50.37133],[1.87561,50.37149],[1.87507,50.3712],[1.87481,50.37178],[1.87599,50.37224],[1.87707,50.37175],[1.87831,50.37271],[1.87711,50.37169],[1.8794,50.37082]]]}},{"type":"Feature","properties":{"k":"PPH","s":0.805},"geometry":{"type":"Polygon","coordinates":[[[1.87734,50.36846],[1.87879,50.36853],[1.87898,50.36786],[1.8775,50.36792],[1.87734,50.36846]]]}},{"type":"Feature","properties":{"k":"PPH","s":0.039},"geometry":{"type":"Polygon","coordinates":[[[1.87904,50.36824],[1.87912,50.36786],[1.87898,50.36786],[1.87904,50.36824]]]}},{"type":"Feature","properties":{"k":"PPH","s":2.499},"geometry":{"type":"Polygon","coordinates":[[[1.87571,50.36721],[1.87757,50.36767],[1.8779,50.36636],[1.8765,50.36588],[1.87611,50.36621],[1.87543,50.36613],[1.87489,50.36676],[1.87571,50.36721]]]}},{"type":"Feature","properties":{"k":"PPH","s":3.587},"geometry":{"type":"Polygon","coordinates":[[[1.87782,50.36406],[1.87581,50.36449],[1.87553,50.36508],[1.87645,50.3653],[1.87623,50.36569],[1.87757,50.36616],[1.87858,50.36469],[1.879,50.36319],[1.87857,50.36335],[1.87782,50.36406]]]}},{"type":"Feature","properties":{"k":"PPH","s":0.888},"geometry":{"type":"Polygon","coordinates":[[[1.87708,50.36336],[1.87681,50.3643],[1.87782,50.36404],[1.87852,50.36333],[1.87718,50.36319],[1.87708,50.36336]]]}},{"type":"Feature","properties":{"k":"PPH","s":6.248},"geometry":{"type":"Polygon","coordinates":[[[1.87806,50.36022],[1.87719,50.36307],[1.87574,50.36304],[1.87604,50.36113],[1.87486,50.36304],[1.87568,50.36364],[1.87568,50.36445],[1.87677,50.36432],[1.87713,50.36319],[1.87852,50.36333],[1.87895,50.36315],[1.87938,50.36267],[1.87978,50.36079],[1.87838,50.36068],[1.87831,50.36013],[1.87806,50.36022]]]}},{"type":"Feature","properties":{"k":"LIF","s":3.763},"geometry":{"type":"Polygon","coordinates":[[[1.87604,50.36113],[1.87574,50.36304],[1.87719,50.36307],[1.87806,50.36022],[1.87674,50.35995],[1.87604,50.36113]]]}},{"type":"Feature","properties":{"k":"LIF","s":1.697},"geometry":{"type":"Polygon","coordinates":[[[1.87838,50.36068],[1.87994,50.3608],[1.8802,50.35951],[1.87875,50.35937],[1.87831,50.36013],[1.87838,50.36068]]]}},{"type":"Feature","properties":{"k":"TRE","s":0.238},"geometry":{"type":"Polygon","coordinates":[[[1.88114,50.35937],[1.88144,50.35939],[1.88183,50.35842],[1.88156,50.35835],[1.88114,50.35937]]]}},{"type":"Feature","properties":{"k":"PTC","s":6.012},"geometry":{"type":"Polygon","coordinates":[[[1.87674,50.35995],[1.87824,50.36025],[1.87875,50.35937],[1.8802,50.35951],[1.88024,50.3593],[1.88114,50.35937],[1.88155,50.35838],[1.87841,50.35721],[1.87674,50.35995]]]}},{"type":"Feature","properties":{"k":"BTN","s":8.006},"geometry":{"type":"Polygon","coordinates":[[[1.88183,50.35842],[1.88228,50.35731],[1.88155,50.3566],[1.88366,50.3557],[1.88022,50.3545],[1.87841,50.35721],[1.88183,50.35842]]]}},{"type":"Feature","properties":{"k":"BTH","s":4.622},"geometry":{"type":"Polygon","coordinates":[[[1.88305,50.3581],[1.88551,50.35703],[1.88488,50.35605],[1.8847,50.35524],[1.88155,50.3566],[1.88305,50.3581]]]}},{"type":"Feature","properties":{"k":"ORP","s":0.097},"geometry":{"type":"Polygon","coordinates":[[[1.88385,50.35887],[1.88388,50.35892],[1.88602,50.35799],[1.88385,50.35887]]]}},{"type":"Feature","properties":{"k":"BTH","s":0.002},"geometry":{"type":"Polygon","coordinates":[]}},{"type":"Feature","properties":{"k":"PPH","s":1.207},"geometry":{"type":"Polygon","coordinates":[[[1.87811,50.37682],[1.87849,50.37734],[1.87782,50.37763],[1.87867,50.37736],[1.87881,50.37823],[1.87936,50.37818],[1.87909,50.37799],[1.87893,50.37707],[1.87777,50.37568],[1.87703,50.37605],[1.87811,50.37682]]]}},{"type":"Feature","properties":{"k":"PTC","s":6.176},"geometry":{"type":"Polygon","coordinates":[[[1.88482,50.35537],[1.88526,50.35632],[1.88564,50.35618],[1.88731,50.3575],[1.88945,50.35698],[1.8853,50.35376],[1.88482,50.35537]]]}},{"type":"Feature","properties":{"k":"ORP","s":0.001},"geometry":{"type":"Polygon","coordinates":[]}},{"type":"Feature","properties":{"k":"BTH","s":2.238},"geometry":{"type":"Polygon","coordinates":[[[1.88945,50.35698],[1.88999,50.35674],[1.88552,50.35325],[1.8853,50.35376],[1.88945,50.35698]]]}},{"type":"Feature","properties":{"k":"MIS","s":5.989},"geometry":{"type":"MultiPolygon","coordinates":[[[[1.88025,50.35445],[1.88375,50.35566],[1.88471,50.35524],[1.88499,50.3541],[1.88128,50.35283],[1.88025,50.35445]]]]}},{"type":"Feature","properties":{"k":"PPH","s":1.777},"geometry":{"type":"Polygon","coordinates":[[[1.85698,50.35553],[1.85461,50.35359],[1.85347,50.35424],[1.85389,50.35445],[1.85415,50.35432],[1.85655,50.35575],[1.85698,50.35553]]]}},{"type":"Feature","properties":{"k":"ORH","s":0.496},"geometry":{"type":"Polygon","coordinates":[[[1.8515,50.35521],[1.85145,50.35526],[1.85267,50.35609],[1.85234,50.35616],[1.85409,50.3577],[1.8545,50.35799],[1.85476,50.35789],[1.85301,50.3566],[1.85264,50.3562],[1.85287,50.35607],[1.85165,50.35514],[1.8515,50.35521]]]}},{"type":"Feature","properties":{"k":"ORH","s":3.757},"geometry":{"type":"Polygon","coordinates":[[[1.85415,50.35433],[1.85313,50.35483],[1.8527,50.35458],[1.85162,50.35515],[1.85287,50.35607],[1.85265,50.3562],[1.85312,50.35662],[1.8557,50.35527],[1.85415,50.35433]]]}},{"type":"Feature","properties":{"k":"PHF","s":4.61},"geometry":{"type":"Polygon","coordinates":[[[1.85698,50.35554],[1.85655,50.35577],[1.85571,50.35527],[1.85315,50.35661],[1.85479,50.35783],[1.85776,50.3562],[1.85698,50.35554]]]}},{"type":"Feature","properties":{"k":"MIS","s":0.084},"geometry":{"type":"Polygon","coordinates":[[[1.8545,50.35799],[1.85409,50.3577],[1.85477,50.35843],[1.8545,50.35799]]]}},{"type":"Feature","properties":{"k":"BTH","s":6.223},"geometry":{"type":"Polygon","coordinates":[[[1.85825,50.3582],[1.85574,50.35959],[1.85805,50.36142],[1.85983,50.36036],[1.8596,50.35996],[1.85946,50.35806],[1.85866,50.35853],[1.85825,50.3582]]]}},{"type":"Feature","properties":{"k":"PPH","s":5.09},"geometry":{"type":"Polygon","coordinates":[[[1.86357,50.3636],[1.86339,50.36337],[1.86173,50.3624],[1.86155,50.36172],[1.85997,50.36041],[1.8583,50.36136],[1.86075,50.36302],[1.86107,50.36291],[1.86269,50.36382],[1.86357,50.3636]]]}},{"type":"Feature","properties":{"k":"MIS","s":4.339},"geometry":{"type":"Polygon","coordinates":[[[1.85984,50.36009],[1.86157,50.36162],[1.86313,50.36065],[1.86125,50.35929],[1.86027,50.35817],[1.85968,50.35848],[1.85984,50.36009]]]}},{"type":"Feature","properties":{"k":"PPR","s":0.096},"geometry":{"type":"Polygon","coordinates":[[[1.86081,50.35858],[1.86125,50.3585],[1.86041,50.3581],[1.86081,50.35858]]]}},{"type":"Feature","properties":{"k":"BTH","s":6.222},"geometry":{"type":"Polygon","coordinates":[[[1.85921,50.35764],[1.85878,50.35726],[1.85893,50.3572],[1.85767,50.35625],[1.8545,50.35799],[1.85574,50.35915],[1.85546,50.35926],[1.85577,50.35956],[1.85825,50.3582],[1.85866,50.35853],[1.85898,50.35834],[1.85921,50.35764]]]}},{"type":"Feature","properties":{"k":"BTH","s":0.198},"geometry":{"type":"MultiPolygon","coordinates":[[[[1.86968,50.35967],[1.86934,50.35952],[1.86893,50.3599],[1.86918,50.36004],[1.86968,50.35967]]],[[[1.86547,50.35852],[1.86552,50.35856],[1.86554,50.35855],[1.86504,50.35817],[1.86466,50.35801],[1.86547,50.35852]]],[[[1.86746,50.35932],[1.86713,50.35951],[1.86719,50.35954],[1.86746,50.35932]]],[[[1.86755,50.35927],[1.8685,50.35969],[1.86817,50.35953],[1.86755,50.35927]]]]}},{"type":"Feature","properties":{"k":"BOR","s":0.01},"geometry":{"type":"Polygon","coordinates":[[[1.86956,50.35982],[1.87029,50.36013],[1.87014,50.36005],[1.86956,50.35982]]]}},{"type":"Feature","properties":{"k":"MIS","s":0.202},"geometry":{"type":"MultiPolygon","coordinates":[[[[1.86956,50.35982],[1.8703,50.36011],[1.87041,50.36],[1.86966,50.3597],[1.86956,50.35982]]],[[[1.87158,50.35978],[1.87218,50.35889],[1.87146,50.35987],[1.87142,50.3604],[1.87158,50.35978]]]]}},{"type":"Feature","properties":{"k":"PPH","s":8.577},"geometry":{"type":"Polygon","coordinates":[[[1.87532,50.36038],[1.87542,50.36014],[1.87228,50.35893],[1.87185,50.36005],[1.87238,50.36024],[1.87157,50.36129],[1.8734,50.36189],[1.87269,50.3632],[1.8745,50.36347],[1.87473,50.36304],[1.87464,50.36203],[1.87494,50.36195],[1.87526,50.36118],[1.87517,50.36152],[1.8755,50.36176],[1.87615,50.36075],[1.87532,50.36038]]]}},{"type":"Feature","properties":{"k":"PPH","s":11.491},"geometry":{"type":"Polygon","coordinates":[[[1.87002,50.36213],[1.8705,50.36232],[1.86926,50.3639],[1.86984,50.36413],[1.87022,50.36361],[1.8709,50.36394],[1.87101,50.3637],[1.87211,50.36388],[1.87221,50.36367],[1.87304,50.36389],[1.87299,50.36403],[1.8741,50.36418],[1.87446,50.36346],[1.87268,50.3632],[1.87339,50.3619],[1.87156,50.36129],[1.87227,50.36027],[1.87184,50.36005],[1.87178,50.36044],[1.87066,50.3616],[1.8713,50.36058],[1.86949,50.35982],[1.86714,50.36152],[1.86955,50.36256],[1.87002,50.36213]]]}},{"type":"Feature","properties":{"k":"MIS","s":1.481},"geometry":{"type":"Polygon","coordinates":[[[1.86705,50.36283],[1.86845,50.36349],[1.8695,50.3626],[1.86814,50.36201],[1.86705,50.36283]]]}},{"type":"Feature","properties":{"k":"ORH","s":2.786},"geometry":{"type":"Polygon","coordinates":[[[1.86584,50.36052],[1.86451,50.36079],[1.86587,50.36172],[1.86514,50.36188],[1.86704,50.36284],[1.86815,50.36201],[1.8671,50.36154],[1.86584,50.36052]]]}},{"type":"Feature","properties":{"k":"MIS","s":2.817},"geometry":{"type":"Polygon","coordinates":[[[1.8671,50.36152],[1.86917,50.36003],[1.86751,50.35928],[1.86587,50.3605],[1.8671,50.36152]]]}},{"type":"Feature","properties":{"k":"PHF","s":6.926},"geometry":{"type":"Polygon","coordinates":[[[1.86458,50.35802],[1.86223,50.35918],[1.86133,50.35854],[1.86089,50.35869],[1.86148,50.35932],[1.86364,50.36089],[1.866,50.36041],[1.86719,50.35954],[1.86691,50.35964],[1.86517,50.35883],[1.86541,50.35853],[1.86458,50.35802]]]}},{"type":"Feature","properties":{"k":"MIS","s":2.53},"geometry":{"type":"Polygon","coordinates":[[[1.86185,50.3624],[1.86254,50.36283],[1.86443,50.36164],[1.86314,50.36067],[1.86158,50.36168],[1.86185,50.3624]]]}},{"type":"Feature","properties":{"k":"BTH","s":0.794},"geometry":{"type":"Polygon","coordinates":[[[1.86449,50.36078],[1.86372,50.36097],[1.86515,50.36187],[1.86587,50.36172],[1.86449,50.36078]]]}},{"type":"Feature","properties":{"k":"PPH","s":11.695},"geometry":{"type":"Polygon","coordinates":[[[1.8586,50.36679],[1.85971,50.36722],[1.86235,50.36682],[1.86349,50.3668],[1.86371,50.36635],[1.86741,50.36612],[1.86715,50.36514],[1.86647,50.3647],[1.8636,50.36362],[1.86191,50.36418],[1.86319,50.36482],[1.86299,50.36496],[1.86198,50.36522],[1.86161,50.36489],[1.86138,50.3649],[1.86149,50.36525],[1.86077,50.36554],[1.85933,50.36574],[1.85941,50.36608],[1.8586,50.36679]],[[1.85983,50.36611],[1.86099,50.36606],[1.86268,50.3656],[1.86367,50.36547],[1.86386,50.3657],[1.86253,50.36586],[1.86178,50.36613],[1.86001,50.36627],[1.85983,50.36611]]]}},{"type":"Feature","properties":{"k":"PPH","s":2.131},"geometry":{"type":"Polygon","coordinates":[[[1.86377,50.36636],[1.86353,50.3668],[1.86993,50.36645],[1.86928,50.36611],[1.86859,50.36612],[1.8672,50.36563],[1.86741,50.3661],[1.86377,50.36636]]]}},{"type":"Feature","properties":{"k":"PPH","s":1.19},"geometry":{"type":"Polygon","coordinates":[[[1.86937,50.36494],[1.86984,50.36423],[1.86936,50.36408],[1.86722,50.3651],[1.86838,50.3655],[1.86894,50.36481],[1.86937,50.36494]]]}},{"type":"Feature","properties":{"k":"PTR","s":4.823},"geometry":{"type":"Polygon","coordinates":[[[1.86414,50.36384],[1.86604,50.36441],[1.8672,50.36509],[1.86936,50.36406],[1.86622,50.36256],[1.86414,50.36384]]]}},{"type":"Feature","properties":{"k":"PPH","s":3.107},"geometry":{"type":"Polygon","coordinates":[[[1.87074,50.3654],[1.87136,50.36527],[1.87318,50.36574],[1.87333,50.3654],[1.87291,50.36532],[1.87301,50.36516],[1.87271,50.36511],[1.87287,50.36485],[1.86984,50.36423],[1.86937,50.36494],[1.86894,50.36481],[1.86838,50.3655],[1.86972,50.36587],[1.87026,50.36525],[1.87074,50.3654]]]}},{"type":"Feature","properties":{"k":"PPH","s":0.696},"geometry":{"type":"Polygon","coordinates":[[[1.87027,50.36738],[1.87114,50.36703],[1.86987,50.36653],[1.86899,50.3666],[1.87027,50.36738]]]}},{"type":"Feature","properties":{"k":"PPH","s":0.217},"geometry":{"type":"Polygon","coordinates":[[[1.87385,50.36966],[1.87386,50.36926],[1.87326,50.36943],[1.87321,50.36979],[1.87385,50.36966]]]}},{"type":"Feature","properties":{"k":"MLG","s":0.983},"geometry":{"type":"Polygon","coordinates":[[[1.87276,50.37044],[1.87396,50.37067],[1.87443,50.36946],[1.87431,50.3691],[1.87393,50.3692],[1.87397,50.36971],[1.87308,50.36985],[1.87276,50.37044]]]}},{"type":"Feature","properties":{"k":"BOR","s":0.018},"geometry":{"type":"Polygon","coordinates":[[[1.87529,50.36997],[1.87442,50.37004],[1.87447,50.37004],[1.87529,50.36997]]]}},{"type":"Feature","properties":{"k":"MIS","s":0.725},"geometry":{"type":"Polygon","coordinates":[[[1.87396,50.37082],[1.87497,50.37102],[1.87529,50.37],[1.87442,50.37004],[1.87396,50.37082]]]}},{"type":"Feature","properties":{"k":"PPH","s":0.575},"geometry":{"type":"Polygon","coordinates":[[[1.86911,50.37099],[1.87109,50.3692],[1.87077,50.36905],[1.86885,50.37086],[1.86911,50.37099]]]}},{"type":"Feature","properties":{"k":"PPH","s":0.7},"geometry":{"type":"Polygon","coordinates":[[[1.86748,50.37112],[1.86836,50.37021],[1.86609,50.37056],[1.86748,50.37112]]]}},{"type":"Feature","properties":{"k":"PTC","s":3.336},"geometry":{"type":"Polygon","coordinates":[[[1.86703,50.36927],[1.86456,50.36994],[1.86609,50.37056],[1.86836,50.37021],[1.86974,50.36877],[1.86703,50.36927]]]}},{"type":"Feature","properties":{"k":"PPH","s":5.581},"geometry":{"type":"Polygon","coordinates":[[[1.8713,50.36745],[1.87092,50.36715],[1.87029,50.36738],[1.86897,50.3666],[1.86699,50.36662],[1.8617,50.367],[1.86795,50.36758],[1.86943,50.36833],[1.87046,50.36775],[1.87074,50.36804],[1.87216,50.3676],[1.87177,50.36727],[1.8713,50.36745]]]}},{"type":"Feature","properties":{"k":"BTH","s":7.78},"geometry":{"type":"Polygon","coordinates":[[[1.86503,50.36974],[1.86902,50.36883],[1.8674,50.36821],[1.86345,50.36783],[1.86149,50.36701],[1.85951,50.36733],[1.86503,50.36974]]]}},{"type":"Feature","properties":{"k":"MLG","s":3.603},"geometry":{"type":"Polygon","coordinates":[[[1.86924,50.36823],[1.86826,50.36768],[1.86227,50.36702],[1.86189,50.36698],[1.86158,50.36701],[1.86149,50.36701],[1.86345,50.36783],[1.8674,50.36821],[1.86917,50.3688],[1.86924,50.36823]]]}},{"type":"Feature","properties":{"k":"ORP","s":16.233},"geometry":{"type":"Polygon","coordinates":[[[1.85472,50.37009],[1.85639,50.37049],[1.8562,50.3708],[1.85799,50.37184],[1.85888,50.37133],[1.85922,50.37151],[1.86067,50.37112],[1.86178,50.37039],[1.86377,50.37008],[1.85834,50.36772],[1.85552,50.36854],[1.8548,50.36894],[1.85501,50.36907],[1.85446,50.36938],[1.85423,50.36926],[1.8536,50.36965],[1.85472,50.37009]]]}},{"type":"Feature","properties":{"k":"BOR","s":0.003},"geometry":{"type":"Polygon","coordinates":[[[1.85948,50.36722],[1.8595,50.3672],[1.85912,50.36706],[1.85948,50.36722]]]}},{"type":"Feature","properties":{"k":"LIF","s":3.875},"geometry":{"type":"Polygon","coordinates":[[[1.86503,50.36974],[1.85951,50.36733],[1.85834,50.36772],[1.86391,50.37005],[1.86503,50.36974]]]}},{"type":"Feature","properties":{"k":"LUZ","s":0.896},"geometry":{"type":"MultiPolygon","coordinates":[[[[1.8625,50.36389],[1.86248,50.36376],[1.86103,50.36293],[1.86035,50.36332],[1.86195,50.36413],[1.8625,50.36389]]]]}},{"type":"Feature","properties":{"k":"BTN","s":0.014},"geometry":{"type":"Polygon","coordinates":[[[1.85853,50.36519],[1.85794,50.36538],[1.85843,50.36528],[1.85853,50.36519]]]}},{"type":"Feature","properties":{"k":"MIS","s":0.007},"geometry":{"type":"Polygon","coordinates":[[[1.85913,50.36499],[1.85853,50.36519],[1.85854,50.36522],[1.85913,50.36499]]]}},{"type":"Feature","properties":{"k":"BTH","s":0.007},"geometry":{"type":"Polygon","coordinates":[[[1.85509,50.36863],[1.85508,50.36858],[1.85485,50.36876],[1.85509,50.36863]]]}},{"type":"Feature","properties":{"k":"LIF","s":0.021},"geometry":{"type":"Polygon","coordinates":[[[1.85348,50.36967],[1.85423,50.36993],[1.85363,50.36966],[1.85348,50.36967]]]}},{"type":"Feature","properties":{"k":"BTH","s":4.996},"geometry":{"type":"Polygon","coordinates":[[[1.85502,50.37414],[1.86095,50.37617],[1.86162,50.3754],[1.85568,50.37339],[1.85502,50.37414]]]}},{"type":"Feature","properties":{"k":"BTH","s":2.688},"geometry":{"type":"Polygon","coordinates":[[[1.85984,50.37587],[1.85502,50.37415],[1.85455,50.37453],[1.85637,50.37517],[1.85922,50.37667],[1.85899,50.377],[1.85984,50.37587]]]}},{"type":"Feature","properties":{"k":"PTC","s":4.163},"geometry":{"type":"Polygon","coordinates":[[[1.86174,50.37697],[1.86215,50.37673],[1.86095,50.37617],[1.85983,50.37588],[1.85876,50.37732],[1.86051,50.37818],[1.86342,50.37735],[1.86296,50.37712],[1.8624,50.37734],[1.86174,50.37697]]]}},{"type":"Feature","properties":{"k":"BTH","s":6.374},"geometry":{"type":"Polygon","coordinates":[[[1.85662,50.37271],[1.86237,50.37476],[1.86349,50.37365],[1.8584,50.37191],[1.85662,50.37271]]]}},{"type":"Feature","properties":{"k":"BTH","s":4.004},"geometry":{"type":"Polygon","coordinates":[[[1.86226,50.37478],[1.85652,50.37273],[1.8559,50.37314],[1.85572,50.37335],[1.86162,50.3754],[1.86226,50.37478]]]}},{"type":"Feature","properties":{"k":"BTN","s":1.426},"geometry":{"type":"Polygon","coordinates":[[[1.85762,50.3719],[1.85694,50.37186],[1.85703,50.37135],[1.85595,50.37121],[1.85554,50.37188],[1.85525,50.37184],[1.85502,50.37227],[1.85671,50.37245],[1.85762,50.3719]]]}},{"type":"Feature","properties":{"k":"PTR","s":0.856},"geometry":{"type":"Polygon","coordinates":[[[1.85645,50.37269],[1.85799,50.37184],[1.8562,50.3708],[1.85595,50.37121],[1.85703,50.37135],[1.85694,50.37186],[1.85762,50.3719],[1.85671,50.37245],[1.85504,50.37234],[1.85645,50.37269]]]}},{"type":"Feature","properties":{"k":"PPH","s":0.366},"geometry":{"type":"Polygon","coordinates":[[[1.86051,50.37227],[1.86063,50.37214],[1.85918,50.37157],[1.85877,50.37176],[1.86051,50.37227]]]}},{"type":"Feature","properties":{"k":"BTP","s":0.333},"geometry":{"type":"Polygon","coordinates":[[[1.86037,50.37242],[1.85877,50.37176],[1.8584,50.37191],[1.86021,50.37257],[1.86037,50.37242]]]}},{"type":"Feature","properties":{"k":"BTH","s":10.79},"geometry":{"type":"Polygon","coordinates":[[[1.85918,50.37157],[1.8606,50.3721],[1.86128,50.37202],[1.86455,50.37236],[1.86648,50.37298],[1.86798,50.37132],[1.86456,50.36994],[1.86201,50.37041],[1.86091,50.37113],[1.8599,50.3714],[1.85918,50.37157]]]}},{"type":"Feature","properties":{"k":"PPH","s":3.217},"geometry":{"type":"Polygon","coordinates":[[[1.86065,50.37213],[1.86024,50.37255],[1.86351,50.37362],[1.86656,50.37435],[1.86719,50.37391],[1.86065,50.37213]]]}},{"type":"Feature","properties":{"k":"PPH","s":8.3},"geometry":{"type":"Polygon","coordinates":[[[1.86645,50.37301],[1.86429,50.37237],[1.86121,50.37204],[1.86064,50.37212],[1.86718,50.3739],[1.87008,50.3712],[1.86885,50.37086],[1.87077,50.36905],[1.87036,50.36886],[1.86975,50.36877],[1.86805,50.37053],[1.86748,50.37112],[1.86798,50.37132],[1.86645,50.37301]],[[1.86849,50.37155],[1.86808,50.37193],[1.86796,50.37175],[1.86822,50.37138],[1.86855,50.3714],[1.86849,50.37155]]]}},{"type":"Feature","properties":{"k":"BTH","s":7.391},"geometry":{"type":"Polygon","coordinates":[[[1.86922,50.37088],[1.87014,50.37119],[1.86942,50.37179],[1.8715,50.37269],[1.87262,50.37168],[1.87339,50.37178],[1.87396,50.37067],[1.87276,50.37044],[1.87308,50.36985],[1.87109,50.3692],[1.86922,50.37088]]]}},{"type":"Feature","properties":{"k":"MIS","s":4.682},"geometry":{"type":"Polygon","coordinates":[[[1.86158,50.382],[1.86181,50.38109],[1.85659,50.37854],[1.85569,50.37921],[1.86158,50.382]]]}},{"type":"Feature","properties":{"k":"PTC","s":1.741},"geometry":{"type":"Polygon","coordinates":[[[1.8715,50.37269],[1.87263,50.37319],[1.87439,50.37198],[1.87257,50.37172],[1.8715,50.37269]]]}},{"type":"Feature","properties":{"k":"PPH","s":1.393},"geometry":{"type":"Polygon","coordinates":[[[1.87375,50.3732],[1.87474,50.37266],[1.8745,50.37209],[1.87188,50.37392],[1.87258,50.37432],[1.87375,50.3732]]]}},{"type":"Feature","properties":{"k":"PTC","s":0.423},"geometry":{"type":"Polygon","coordinates":[[[1.8722,50.37454],[1.87145,50.37419],[1.87088,50.37459],[1.87169,50.37499],[1.8722,50.37454]]]}},{"type":"Feature","properties":{"k":"BTH","s":2.803},"geometry":{"type":"Polygon","coordinates":[[[1.86925,50.37429],[1.86873,50.37471],[1.86994,50.37501],[1.87253,50.37325],[1.87125,50.37267],[1.86925,50.37429]]]}},{"type":"Feature","properties":{"k":"CZH","s":4.607},"geometry":{"type":"Polygon","coordinates":[[[1.86692,50.37416],[1.86873,50.37471],[1.87125,50.37267],[1.86937,50.37182],[1.86692,50.37416]]]}},{"type":"Feature","properties":{"k":"PPH","s":10.039},"geometry":{"type":"Polygon","coordinates":[[[1.87688,50.37493],[1.87711,50.37476],[1.87428,50.37309],[1.87466,50.37351],[1.87447,50.37429],[1.87396,50.3745],[1.87352,50.37441],[1.87241,50.3752],[1.87135,50.37553],[1.8709,50.37625],[1.86926,50.3774],[1.86894,50.37804],[1.86928,50.37828],[1.86989,50.37841],[1.86967,50.37879],[1.86984,50.37879],[1.87007,50.37872],[1.87108,50.37741],[1.87231,50.37648],[1.87276,50.37672],[1.87308,50.37643],[1.87555,50.37532],[1.87703,50.37605],[1.87778,50.37567],[1.87688,50.37493]],[[1.87606,50.37485],[1.87641,50.37505],[1.87628,50.37523],[1.87523,50.37474],[1.8746,50.37464],[1.87486,50.37446],[1.87606,50.37485]]]}},{"type":"Feature","properties":{"k":"MIS","s":1.422},"geometry":{"type":"Polygon","coordinates":[[[1.87308,50.37643],[1.87276,50.37672],[1.87321,50.377],[1.87619,50.37566],[1.87555,50.37532],[1.87308,50.37643]]]}},{"type":"Feature","properties":{"k":"PTC","s":0.049},"geometry":{"type":"Polygon","coordinates":[[[1.87105,50.37887],[1.87214,50.37808],[1.87126,50.37863],[1.87105,50.37887]]]}},{"type":"Feature","properties":{"k":"BTH","s":7.788},"geometry":{"type":"Polygon","coordinates":[[[1.86715,50.37718],[1.86695,50.37756],[1.86571,50.37857],[1.86652,50.37898],[1.86601,50.37933],[1.8667,50.38004],[1.86718,50.37984],[1.86723,50.37942],[1.86884,50.37806],[1.8693,50.37725],[1.87108,50.37599],[1.87169,50.37499],[1.87087,50.37459],[1.86715,50.37718]]]}},{"type":"Feature","properties":{"k":"BTH","s":1.831},"geometry":{"type":"Polygon","coordinates":[[[1.86715,50.37437],[1.86692,50.37418],[1.86596,50.37468],[1.86899,50.37566],[1.86981,50.3751],[1.86715,50.37437]]]}},{"type":"Feature","properties":{"k":"BTH","s":0.728},"geometry":{"type":"Polygon","coordinates":[[[1.86585,50.3747],[1.86504,50.37553],[1.86502,50.37597],[1.8653,50.37621],[1.8664,50.3749],[1.86585,50.3747]]]}},{"type":"Feature","properties":{"k":"PTC","s":4.042},"geometry":{"type":"Polygon","coordinates":[[[1.86504,50.3765],[1.86394,50.37692],[1.86445,50.37715],[1.86738,50.37678],[1.86895,50.37572],[1.8664,50.3749],[1.86504,50.3765]]]}},{"type":"Feature","properties":{"k":"BTN","s":7.263},"geometry":{"type":"Polygon","coordinates":[[[1.86513,50.37437],[1.86538,50.37411],[1.86349,50.37365],[1.86106,50.37606],[1.86358,50.37731],[1.86446,50.37715],[1.86394,50.37692],[1.86511,50.37635],[1.86479,50.37573],[1.86552,50.37482],[1.86444,50.37443],[1.86465,50.37425],[1.86513,50.37437]]]}},{"type":"Feature","properties":{"k":"BTP","s":0.285},"geometry":{"type":"Polygon","coordinates":[[[1.86215,50.37673],[1.86174,50.37697],[1.8624,50.37734],[1.86296,50.37712],[1.86215,50.37673]]]}},{"type":"Feature","properties":{"k":"PPH","s":2.894},"geometry":{"type":"Polygon","coordinates":[[[1.86625,50.37763],[1.86731,50.3769],[1.86548,50.37707],[1.86254,50.37771],[1.86463,50.37872],[1.86625,50.37763]],[[1.86563,50.37715],[1.86583,50.37732],[1.86512,50.37724],[1.86563,50.37715]]]}},{"type":"Feature","properties":{"k":"BTH","s":2.434},"geometry":{"type":"Polygon","coordinates":[[[1.86254,50.37771],[1.8608,50.37819],[1.86329,50.37942],[1.86463,50.37872],[1.86254,50.37771]]]}},{"type":"Feature","properties":{"k":"PPH","s":1.048},"geometry":{"type":"Polygon","coordinates":[[[1.86637,50.38093],[1.86653,50.38082],[1.86422,50.37908],[1.86351,50.37943],[1.86637,50.38093]]]}},{"type":"Feature","properties":{"k":"ORP","s":0.84},"geometry":{"type":"Polygon","coordinates":[[[1.86609,50.38113],[1.86637,50.38093],[1.8635,50.37944],[1.86315,50.37963],[1.86609,50.38113]]]}},{"type":"Feature","properties":{"k":"ORP","s":0.077},"geometry":{"type":"Polygon","coordinates":[[[1.8657,50.38094],[1.86314,50.37963],[1.86306,50.37967],[1.8657,50.38094]]]}},{"type":"Feature","properties":{"k":"JAC","s":0.002},"geometry":{"type":"Polygon","coordinates":[[[1.867,50.38043],[1.867,50.38049],[1.86706,50.38047],[1.867,50.38043]]]}},{"type":"Feature","properties":{"k":"MIS","s":0.018},"geometry":{"type":"Polygon","coordinates":[[[1.86808,50.38004],[1.86853,50.37987],[1.86848,50.37983],[1.86808,50.38004]]]}},{"type":"Feature","properties":{"k":"CZH","s":0.019},"geometry":{"type":"Polygon","coordinates":[[[1.867,50.38043],[1.86706,50.38047],[1.86736,50.38035],[1.867,50.38043]]]}},{"type":"Feature","properties":{"k":"PPH","s":2.182},"geometry":{"type":"Polygon","coordinates":[[[1.8665,50.37898],[1.86543,50.37836],[1.86424,50.37907],[1.86655,50.38081],[1.867,50.38035],[1.86604,50.37929],[1.8665,50.37898]]]}},{"type":"Feature","properties":{"k":"MLG","s":1.904},"geometry":{"type":"Polygon","coordinates":[[[1.86928,50.37828],[1.86727,50.37951],[1.86747,50.38024],[1.86968,50.37934],[1.86996,50.37893],[1.86955,50.37886],[1.86982,50.3784],[1.86928,50.37828]]]}},{"type":"Feature","properties":{"k":"BTH","s":0.067},"geometry":{"type":"Polygon","coordinates":[[[1.86848,50.37983],[1.86853,50.37987],[1.86947,50.37954],[1.86941,50.37949],[1.86934,50.37947],[1.86848,50.37983]]]}},{"type":"Feature","properties":{"k":"MIS","s":0.17},"geometry":{"type":"Polygon","coordinates":[[[1.87075,50.37896],[1.86938,50.37946],[1.86947,50.37954],[1.87073,50.37911],[1.871,50.3788],[1.87075,50.37896]]]}},{"type":"Feature","properties":{"k":"ORH","s":2.802},"geometry":{"type":"Polygon","coordinates":[[[1.85876,50.37732],[1.85836,50.37789],[1.86245,50.37989],[1.86329,50.37942],[1.8608,50.37819],[1.86051,50.37818],[1.85876,50.37732]]]}},{"type":"Feature","properties":{"k":"BTH","s":4.84},"geometry":{"type":"Polygon","coordinates":[[[1.86195,50.38029],[1.86245,50.37989],[1.85836,50.37789],[1.85757,50.37901],[1.86182,50.38108],[1.86195,50.38029]]]}},{"type":"Feature","properties":{"k":"BTP","s":1.062},"geometry":{"type":"Polygon","coordinates":[[[1.88623,50.35782],[1.8873,50.3575],[1.88559,50.35617],[1.88526,50.35631],[1.88623,50.35782]]]}}]}