{"type":"FeatureCollection","features":[{"type":"Feature","properties":{"k":"PPH","s":0.425},"geometry":{"type":"Polygon","coordinates":[[[1.92416,50.51279],[1.92432,50.51234],[1.92327,50.51213],[1.92316,50.51269],[1.92416,50.51279]]]}},{"type":"Feature","properties":{"k":"MIS","s":1.923},"geometry":{"type":"Polygon","coordinates":[[[1.9523,50.51284],[1.95117,50.51412],[1.95252,50.51464],[1.95382,50.51357],[1.9523,50.51284]]]}},{"type":"Feature","properties":{"k":"PPH","s":0.397},"geometry":{"type":"Polygon","coordinates":[[[1.94544,50.51994],[1.94434,50.51907],[1.94388,50.51926],[1.9452,50.5201],[1.94544,50.51994]]]}},{"type":"Feature","properties":{"k":"PPH","s":22.36},"geometry":{"type":"Polygon","coordinates":[[[1.94086,50.51538],[1.94175,50.51552],[1.94224,50.51463],[1.94541,50.5155],[1.94521,50.51578],[1.94853,50.51633],[1.9509,50.51694],[1.95247,50.51777],[1.95188,50.51795],[1.9534,50.51874],[1.95552,50.51953],[1.95616,50.51999],[1.95678,50.5193],[1.95457,50.51814],[1.95438,50.51753],[1.95525,50.51697],[1.94632,50.51401],[1.9442,50.51359],[1.94394,50.5137],[1.94096,50.51354],[1.94213,50.51394],[1.94171,50.51451],[1.93877,50.51366],[1.93867,50.51378],[1.9378,50.51357],[1.93755,50.51404],[1.93795,50.51416],[1.93775,50.51445],[1.93823,50.51451],[1.93807,50.51488],[1.94007,50.51529],[1.94067,50.5143],[1.94108,50.51441],[1.94087,50.51472],[1.94124,50.51483],[1.94086,50.51538]]]}},{"type":"Feature","properties":{"k":"BTH","s":4.502},"geometry":{"type":"Polygon","coordinates":[[[1.94067,50.5163],[1.94712,50.51751],[1.94716,50.51683],[1.94684,50.5166],[1.9407,50.51545],[1.94067,50.5163]]]}},{"type":"Feature","properties":{"k":"MIS","s":2.165},"geometry":{"type":"Polygon","coordinates":[[[1.94499,50.51614],[1.94541,50.5155],[1.94224,50.51463],[1.94177,50.51553],[1.94499,50.51614]]]}},{"type":"Feature","properties":{"k":"TRE","s":3.489},"geometry":{"type":"Polygon","coordinates":[[[1.94099,50.51654],[1.94405,50.51748],[1.94495,50.51842],[1.94705,50.51855],[1.94712,50.51751],[1.94067,50.5163],[1.94099,50.51654]]]}},{"type":"Feature","properties":{"k":"BTH","s":3.086},"geometry":{"type":"Polygon","coordinates":[[[1.94386,50.51924],[1.94481,50.51898],[1.94466,50.51835],[1.94398,50.51758],[1.9409,50.51654],[1.94066,50.51664],[1.94386,50.51924]]]}},{"type":"Feature","properties":{"k":"ORH","s":4.939},"geometry":{"type":"Polygon","coordinates":[[[1.94194,50.51774],[1.94033,50.51646],[1.94035,50.51627],[1.93953,50.51624],[1.93836,50.51755],[1.93897,50.51784],[1.93831,50.51859],[1.93957,50.51926],[1.94194,50.51774]]]}},{"type":"Feature","properties":{"k":"PPH","s":9.418},"geometry":{"type":"Polygon","coordinates":[[[1.93892,50.51583],[1.93839,50.51567],[1.93878,50.51513],[1.93845,50.51505],[1.93818,50.51543],[1.93772,50.51534],[1.93797,50.51496],[1.93728,50.51482],[1.93676,50.51543],[1.93718,50.5148],[1.93684,50.51472],[1.9362,50.5155],[1.93475,50.51533],[1.93464,50.51554],[1.93323,50.51515],[1.93278,50.51567],[1.93294,50.51591],[1.93429,50.51666],[1.93605,50.51699],[1.93696,50.51743],[1.93797,50.51891],[1.93897,50.51784],[1.93836,50.51755],[1.93953,50.51624],[1.93972,50.51624],[1.93896,50.51597],[1.93892,50.51583]]]}},{"type":"Feature","properties":{"k":"PTR","s":0.236},"geometry":{"type":"Polygon","coordinates":[[[1.93882,50.5135],[1.93898,50.51307],[1.93788,50.51349],[1.93867,50.51368],[1.93882,50.5135]]]}},{"type":"Feature","properties":{"k":"PPH","s":1.126},"geometry":{"type":"Polygon","coordinates":[[[1.93543,50.51364],[1.93518,50.51363],[1.93518,50.51403],[1.93565,50.51405],[1.93568,50.51437],[1.93615,50.51454],[1.93618,50.51412],[1.93654,50.51428],[1.93677,50.51354],[1.93635,50.51343],[1.93649,50.51318],[1.93567,50.51302],[1.93543,50.51364]]]}},{"type":"Feature","properties":{"k":"PPH","s":3.259},"geometry":{"type":"Polygon","coordinates":[[[1.9324,50.5103],[1.93099,50.51027],[1.93057,50.51047],[1.93077,50.51061],[1.93577,50.51131],[1.93989,50.5123],[1.94078,50.51162],[1.94036,50.51156],[1.93946,50.51201],[1.93917,50.512],[1.93734,50.51132],[1.93534,50.51082],[1.93336,50.51056],[1.93384,50.51024],[1.93324,50.50992],[1.9324,50.5103]]]}},{"type":"Feature","properties":{"k":"BTH","s":3.673},"geometry":{"type":"Polygon","coordinates":[[[1.93777,50.51143],[1.93927,50.512],[1.94025,50.5116],[1.93672,50.5097],[1.93511,50.51077],[1.93777,50.51143]]]}},{"type":"Feature","properties":{"k":"PPH","s":0.627},"geometry":{"type":"Polygon","coordinates":[[[1.94374,50.51081],[1.94311,50.51107],[1.94394,50.51183],[1.94474,50.51151],[1.94374,50.51081]]]}},{"type":"Feature","properties":{"k":"MIS","s":1.647},"geometry":{"type":"Polygon","coordinates":[[[1.94451,50.51233],[1.94306,50.51107],[1.94243,50.51079],[1.94167,50.51116],[1.94361,50.51265],[1.94451,50.51233]]]}},{"type":"Feature","properties":{"k":"PPH","s":1.165},"geometry":{"type":"Polygon","coordinates":[[[1.94387,50.51364],[1.9441,50.51348],[1.9437,50.51267],[1.94284,50.51298],[1.94133,50.51314],[1.9412,50.51332],[1.94387,50.51364]]]}},{"type":"Feature","properties":{"k":"MIS","s":0.497},"geometry":{"type":"Polygon","coordinates":[[[1.94379,50.51271],[1.9442,50.51352],[1.94486,50.51264],[1.94441,50.51243],[1.94379,50.51271]]]}},{"type":"Feature","properties":{"k":"PPH","s":0.157},"geometry":{"type":"Polygon","coordinates":[[[1.94517,50.51213],[1.94496,50.51223],[1.94477,50.51246],[1.94509,50.51269],[1.94548,50.51223],[1.94517,50.51213]]]}},{"type":"Feature","properties":{"k":"CZH","s":4.219},"geometry":{"type":"Polygon","coordinates":[[[1.94308,50.51021],[1.9454,50.5119],[1.94685,50.51142],[1.9474,50.51088],[1.94556,50.50982],[1.94352,50.50981],[1.94363,50.50987],[1.94308,50.51021]]]}},{"type":"Feature","properties":{"k":"BTH","s":0.013},"geometry":{"type":"MultiPolygon","coordinates":[[[[1.95286,50.51296],[1.95283,50.51299],[1.95312,50.51316],[1.95286,50.51296]]],[[[1.95397,50.51361],[1.95425,50.51374],[1.95332,50.51327],[1.95397,50.51361]]]]}},{"type":"Feature","properties":{"k":"BTH","s":2.818},"geometry":{"type":"Polygon","coordinates":[[[1.92375,50.51364],[1.92189,50.51331],[1.92227,50.51252],[1.92149,50.51214],[1.92068,50.51316],[1.92008,50.51307],[1.92011,50.51378],[1.92334,50.51429],[1.92375,50.51364]]]}},{"type":"Feature","properties":{"k":"PTR","s":0.175},"geometry":{"type":"Polygon","coordinates":[[[1.95266,50.51469],[1.95394,50.51363],[1.95382,50.51357],[1.95252,50.51464],[1.95266,50.51469]]]}},{"type":"Feature","properties":{"k":"BTH","s":3.356},"geometry":{"type":"Polygon","coordinates":[[[1.94396,50.51938],[1.94274,50.51837],[1.94045,50.51991],[1.94173,50.52093],[1.94396,50.51938]]]}},{"type":"Feature","properties":{"k":"ORH","s":1.945},"geometry":{"type":"Polygon","coordinates":[[[1.92529,50.51133],[1.92451,50.51188],[1.92577,50.51217],[1.92689,50.51225],[1.92715,50.51154],[1.9267,50.5115],[1.92458,50.51054],[1.92378,50.51058],[1.92529,50.51133]]]}},{"type":"Feature","properties":{"k":"PPH","s":0.154},"geometry":{"type":"Polygon","coordinates":[[[1.92036,50.51189],[1.92114,50.51242],[1.92129,50.51222],[1.92053,50.51178],[1.92036,50.51189]]]}},{"type":"Feature","properties":{"k":"ORH","s":3.168},"geometry":{"type":"Polygon","coordinates":[[[1.94284,50.52189],[1.94531,50.52023],[1.94387,50.51944],[1.94173,50.52093],[1.94284,50.52189]]]}},{"type":"Feature","properties":{"k":"TTH","s":0.675},"geometry":{"type":"Polygon","coordinates":[[[1.94544,50.51994],[1.9452,50.5201],[1.94807,50.52171],[1.94826,50.52153],[1.94544,50.51994]]]}},{"type":"Feature","properties":{"k":"BTH","s":8.66},"geometry":{"type":"Polygon","coordinates":[[[1.94522,50.52029],[1.94284,50.52189],[1.9447,50.52359],[1.94787,50.52176],[1.95189,50.52455],[1.95205,50.52442],[1.94964,50.52221],[1.94826,50.52153],[1.94807,50.52171],[1.94593,50.52055],[1.94583,50.52062],[1.94522,50.52029]]]}},{"type":"Feature","properties":{"k":"TTH","s":1.8},"geometry":{"type":"Polygon","coordinates":[[[1.94531,50.52325],[1.94561,50.5235],[1.94718,50.52282],[1.9494,50.52283],[1.94787,50.52176],[1.94531,50.52325]]]}},{"type":"Feature","properties":{"k":"BTH","s":1.698},"geometry":{"type":"Polygon","coordinates":[[[1.9499,50.51717],[1.94718,50.51664],[1.94717,50.5168],[1.94738,50.51681],[1.94734,50.51727],[1.94907,50.51755],[1.95052,50.51808],[1.95107,50.51765],[1.9499,50.51717]]]}},{"type":"Feature","properties":{"k":"PPH","s":3.991},"geometry":{"type":"Polygon","coordinates":[[[1.91698,50.51233],[1.91848,50.51193],[1.91862,50.5122],[1.91938,50.51202],[1.92023,50.51154],[1.91981,50.51049],[1.91911,50.51],[1.91891,50.51047],[1.91796,50.51091],[1.91751,50.51059],[1.9162,50.51151],[1.91689,50.51194],[1.91698,50.51233]]]}},{"type":"Feature","properties":{"k":"MIS","s":2.103},"geometry":{"type":"Polygon","coordinates":[[[1.94045,50.51991],[1.94274,50.51837],[1.94194,50.51774],[1.93963,50.5193],[1.94045,50.51991]]]}},{"type":"Feature","properties":{"k":"BTH","s":1.503},"geometry":{"type":"Polygon","coordinates":[[[1.92111,50.52003],[1.92241,50.52099],[1.92359,50.5202],[1.92189,50.51944],[1.92111,50.52003]]]}},{"type":"Feature","properties":{"k":"PTR","s":0.0},"geometry":{"type":"Polygon","coordinates":[]}},{"type":"Feature","properties":{"k":"PPH","s":1.823},"geometry":{"type":"Polygon","coordinates":[[[1.91552,50.51225],[1.91669,50.51323],[1.91706,50.51389],[1.91792,50.51402],[1.91814,50.51365],[1.91697,50.51305],[1.91687,50.51195],[1.91617,50.51151],[1.91746,50.51056],[1.91569,50.51182],[1.91552,50.51225]]]}},{"type":"Feature","properties":{"k":"PPH","s":0.879},"geometry":{"type":"Polygon","coordinates":[[[1.9184,50.51318],[1.9178,50.51292],[1.91813,50.51263],[1.91734,50.51225],[1.91695,50.51234],[1.91697,50.51305],[1.91815,50.51364],[1.9184,50.51318]]]}},{"type":"Feature","properties":{"k":"JAC","s":0.086},"geometry":{"type":"Polygon","coordinates":[[[1.92068,50.51316],[1.92149,50.51214],[1.92063,50.51313],[1.92015,50.51307],[1.92068,50.51316]]]}},{"type":"Feature","properties":{"k":"MLG","s":2.694},"geometry":{"type":"Polygon","coordinates":[[[1.94734,50.51727],[1.94738,50.51681],[1.94717,50.5168],[1.94705,50.51855],[1.94909,50.5187],[1.9494,50.51826],[1.95005,50.51848],[1.95052,50.51808],[1.94997,50.51783],[1.94734,50.51727]]]}},{"type":"Feature","properties":{"k":"MIS","s":3.846},"geometry":{"type":"Polygon","coordinates":[[[1.95323,50.51626],[1.95549,50.51442],[1.95395,50.51364],[1.95146,50.51566],[1.95323,50.51626]]]}},{"type":"Feature","properties":{"k":"MIS","s":5.878},"geometry":{"type":"Polygon","coordinates":[[[1.95621,50.51736],[1.95826,50.5155],[1.95552,50.51442],[1.95324,50.51626],[1.95621,50.51736]]]}},{"type":"Feature","properties":{"k":"LUZ","s":0.004},"geometry":{"type":"Polygon","coordinates":[]}},{"type":"Feature","properties":{"k":"ORP","s":3.601},"geometry":{"type":"Polygon","coordinates":[[[1.95525,50.51697],[1.95438,50.51753],[1.95439,50.51771],[1.95471,50.51827],[1.95555,50.51856],[1.95678,50.5193],[1.95625,50.52006],[1.95802,50.51807],[1.95525,50.51697]]]}},{"type":"Feature","properties":{"k":"BTH","s":1.775},"geometry":{"type":"Polygon","coordinates":[[[1.93293,50.51599],[1.93235,50.51634],[1.93176,50.51791],[1.93272,50.51817],[1.93367,50.51645],[1.93293,50.51599]]]}},{"type":"Feature","properties":{"k":"MIS","s":10.336},"geometry":{"type":"Polygon","coordinates":[[[1.96056,50.51607],[1.96215,50.51624],[1.96244,50.51599],[1.96007,50.51218],[1.95918,50.51277],[1.95852,50.51267],[1.95677,50.51383],[1.95718,50.51417],[1.95671,50.51492],[1.96056,50.51607]]]}},{"type":"Feature","properties":{"k":"PTR","s":4.287},"geometry":{"type":"Polygon","coordinates":[[[1.91932,50.51465],[1.92105,50.51641],[1.92322,50.51439],[1.92284,50.51432],[1.9229,50.51422],[1.92012,50.51378],[1.91932,50.51465]]]}},{"type":"Feature","properties":{"k":"MIS","s":0.08},"geometry":{"type":"MultiPolygon","coordinates":[[[[1.95496,50.51409],[1.95425,50.51374],[1.95425,50.51375],[1.95496,50.51409]]],[[[1.95704,50.51353],[1.95691,50.51347],[1.95657,50.5138],[1.95704,50.51353]]],[[[1.95766,50.51321],[1.95774,50.51315],[1.9571,50.51355],[1.95766,50.51321]]],[[[1.95863,50.5126],[1.95852,50.51267],[1.95865,50.51261],[1.95863,50.5126]]],[[[1.9592,50.51275],[1.95901,50.5127],[1.95918,50.51277],[1.9592,50.51275]]],[[[1.95959,50.51251],[1.9599,50.51228],[1.9592,50.51275],[1.95959,50.51251]]],[[[1.96112,50.51184],[1.96203,50.5114],[1.96237,50.51103],[1.96121,50.51177],[1.96009,50.51217],[1.96112,50.51184]]]]}},{"type":"Feature","properties":{"k":"LIF","s":3.348},"geometry":{"type":"Polygon","coordinates":[[[1.91821,50.51624],[1.91861,50.51704],[1.92105,50.51641],[1.91932,50.51465],[1.91824,50.51494],[1.91821,50.51624]]]}},{"type":"Feature","properties":{"k":"MIS","s":3.697},"geometry":{"type":"Polygon","coordinates":[[[1.93503,50.51888],[1.93597,50.51705],[1.93419,50.5167],[1.93367,50.51645],[1.93273,50.51815],[1.93503,50.51888]]]}},{"type":"Feature","properties":{"k":"BTH","s":3.103},"geometry":{"type":"Polygon","coordinates":[[[1.96203,50.5114],[1.96333,50.51401],[1.96444,50.51214],[1.96425,50.51166],[1.96316,50.51095],[1.96239,50.511],[1.96203,50.5114]]]}},{"type":"Feature","properties":{"k":"MIS","s":4.899},"geometry":{"type":"Polygon","coordinates":[[[1.93225,50.51636],[1.9275,50.51552],[1.92726,50.5156],[1.92668,50.51651],[1.92902,50.51712],[1.93185,50.51757],[1.93225,50.51636]]]}},{"type":"Feature","properties":{"k":"LUZ","s":3.392},"geometry":{"type":"Polygon","coordinates":[[[1.92902,50.51712],[1.92668,50.51651],[1.92614,50.51719],[1.9283,50.51779],[1.93141,50.51828],[1.93185,50.51757],[1.92902,50.51712]]]}},{"type":"Feature","properties":{"k":"MIS","s":0.047},"geometry":{"type":"Polygon","coordinates":[[[1.92974,50.50575],[1.92972,50.50574],[1.92812,50.50704],[1.92974,50.50575]]]}},{"type":"Feature","properties":{"k":"PPH","s":2.133},"geometry":{"type":"Polygon","coordinates":[[[1.92802,50.5181],[1.92826,50.51783],[1.92614,50.5172],[1.92577,50.51782],[1.9279,50.51917],[1.92869,50.5183],[1.92802,50.5181]]]}},{"type":"Feature","properties":{"k":"MIS","s":0.007},"geometry":{"type":"Polygon","coordinates":[[[1.92818,50.51889],[1.9279,50.51918],[1.92753,50.51961],[1.92818,50.51889]]]}},{"type":"Feature","properties":{"k":"ORP","s":0.003},"geometry":{"type":"Polygon","coordinates":[[[1.9284,50.51864],[1.92816,50.51888],[1.92818,50.51889],[1.9284,50.51864]]]}},{"type":"Feature","properties":{"k":"PPH","s":0.801},"geometry":{"type":"Polygon","coordinates":[[[1.92671,50.5115],[1.92722,50.51099],[1.92598,50.51053],[1.92514,50.51057],[1.92503,50.51074],[1.92671,50.5115]]]}},{"type":"Feature","properties":{"k":"BTH","s":2.825},"geometry":{"type":"Polygon","coordinates":[[[1.92554,50.5188],[1.92729,50.51988],[1.9279,50.51917],[1.92656,50.51823],[1.92471,50.51731],[1.92393,50.51784],[1.92554,50.5188]]]}},{"type":"Feature","properties":{"k":"BTH","s":0.0},"geometry":{"type":"Polygon","coordinates":[]}},{"type":"Feature","properties":{"k":"MLC","s":0.52},"geometry":{"type":"Polygon","coordinates":[[[1.92221,50.5192],[1.92189,50.51944],[1.92359,50.5202],[1.92395,50.51997],[1.92221,50.5192]]]}},{"type":"Feature","properties":{"k":"MIS","s":1.029},"geometry":{"type":"Polygon","coordinates":[[[1.92156,50.51655],[1.92119,50.51641],[1.92068,50.51657],[1.92369,50.5181],[1.92393,50.51784],[1.92156,50.51655]]]}},{"type":"Feature","properties":{"k":"PPH","s":2.056},"geometry":{"type":"Polygon","coordinates":[[[1.92118,50.5164],[1.92394,50.51783],[1.92464,50.51734],[1.92193,50.51571],[1.92118,50.5164]]]}},{"type":"Feature","properties":{"k":"BTH","s":5.003},"geometry":{"type":"Polygon","coordinates":[[[1.92507,50.51851],[1.92399,50.51786],[1.92369,50.5181],[1.92068,50.51657],[1.91901,50.517],[1.92391,50.51953],[1.92507,50.51851]]]}},{"type":"Feature","properties":{"k":"LUZ","s":4.818},"geometry":{"type":"Polygon","coordinates":[[[1.92577,50.51782],[1.9263,50.51691],[1.92389,50.51592],[1.9251,50.51527],[1.92349,50.51421],[1.92193,50.51571],[1.92464,50.51734],[1.92577,50.51782]]]}},{"type":"Feature","properties":{"k":"PPH","s":1.145},"geometry":{"type":"Polygon","coordinates":[[[1.91714,50.51719],[1.91748,50.5174],[1.91805,50.51709],[1.91857,50.51705],[1.91812,50.51579],[1.91741,50.51582],[1.91714,50.51719]]]}},{"type":"Feature","properties":{"k":"MLG","s":2.487},"geometry":{"type":"Polygon","coordinates":[[[1.9263,50.51691],[1.92707,50.51597],[1.92719,50.51546],[1.92512,50.51526],[1.92389,50.51592],[1.9263,50.51691]]]}},{"type":"Feature","properties":{"k":"MIS","s":2.485},"geometry":{"type":"Polygon","coordinates":[[[1.92968,50.51591],[1.92995,50.51417],[1.9288,50.51402],[1.92746,50.51521],[1.92741,50.51546],[1.92968,50.51591]]]}},{"type":"Feature","properties":{"k":"BTN","s":0.005},"geometry":{"type":"MultiPolygon","coordinates":[[[[1.92547,50.51051],[1.92508,50.5105],[1.92533,50.51052],[1.92547,50.51051]]],[[[1.92612,50.51043],[1.92601,50.51037],[1.92602,50.51045],[1.92612,50.51043]]]]}},{"type":"Feature","properties":{"k":"LIF","s":4.028},"geometry":{"type":"Polygon","coordinates":[[[1.95728,50.52432],[1.95513,50.52403],[1.95479,50.52433],[1.95916,50.52662],[1.95985,50.52554],[1.95728,50.52432]]]}},{"type":"Feature","properties":{"k":"PPH","s":5.817},"geometry":{"type":"Polygon","coordinates":[[[1.92791,50.51308],[1.92664,50.513],[1.92616,50.51391],[1.92393,50.51357],[1.92356,50.51421],[1.92512,50.51526],[1.92719,50.51546],[1.92905,50.51361],[1.92868,50.51348],[1.9283,50.51368],[1.92766,50.51357],[1.92791,50.51308]]]}},{"type":"Feature","properties":{"k":"PPH","s":0.408},"geometry":{"type":"Polygon","coordinates":[[[1.92559,50.51286],[1.92629,50.51283],[1.92644,50.51226],[1.92577,50.51217],[1.92542,50.51259],[1.92559,50.51286]]]}},{"type":"Feature","properties":{"k":"MIS","s":0.915},"geometry":{"type":"Polygon","coordinates":[[[1.92382,50.51299],[1.92393,50.51357],[1.92526,50.51378],[1.92538,50.51292],[1.924,50.51284],[1.92382,50.51299]]]}},{"type":"Feature","properties":{"k":"JAC","s":0.113},"geometry":{"type":"Polygon","coordinates":[[[1.92189,50.51331],[1.92375,50.51364],[1.92194,50.51328],[1.92225,50.51257],[1.92189,50.51331]]]}},{"type":"Feature","properties":{"k":"PPH","s":3.735},"geometry":{"type":"Polygon","coordinates":[[[1.92156,50.511],[1.92213,50.51159],[1.92279,50.51199],[1.92433,50.51234],[1.92417,50.51277],[1.9255,50.51285],[1.92542,50.51259],[1.92582,50.51218],[1.92451,50.51188],[1.92529,50.51133],[1.92378,50.51058],[1.92156,50.511]]]}},{"type":"Feature","properties":{"k":"BTH","s":6.056},"geometry":{"type":"Polygon","coordinates":[[[1.95146,50.51565],[1.95263,50.51469],[1.94718,50.51279],[1.94617,50.51394],[1.95146,50.51565]]]}},{"type":"Feature","properties":{"k":"PPH","s":2.901},"geometry":{"type":"Polygon","coordinates":[[[1.94102,50.51663],[1.94398,50.51758],[1.94466,50.51835],[1.94481,50.51898],[1.94444,50.51912],[1.9455,50.51995],[1.94812,50.5214],[1.94835,50.5213],[1.94588,50.51912],[1.94646,50.51852],[1.94495,50.51842],[1.94405,50.51748],[1.94099,50.51654],[1.94048,50.51618],[1.94102,50.51663]]]}},{"type":"Feature","properties":{"k":"MIS","s":3.45},"geometry":{"type":"Polygon","coordinates":[[[1.92817,50.50852],[1.93098,50.50653],[1.92974,50.50575],[1.927,50.50798],[1.92817,50.50852]]]}},{"type":"Feature","properties":{"k":"PPH","s":0.011},"geometry":{"type":"MultiPolygon","coordinates":[[[[1.96229,50.5262],[1.96175,50.52606],[1.96226,50.52623],[1.96246,50.52612],[1.96229,50.5262]]]]}},{"type":"Feature","properties":{"k":"ORH","s":3.933},"geometry":{"type":"Polygon","coordinates":[[[1.95717,50.52323],[1.95811,50.52265],[1.95544,50.521],[1.95437,50.52159],[1.95295,50.52076],[1.95266,50.52099],[1.95665,50.52336],[1.95717,50.52323]]]}},{"type":"Feature","properties":{"k":"CZH","s":1.67},"geometry":{"type":"Polygon","coordinates":[[[1.9522,50.52797],[1.9518,50.52891],[1.95379,50.52942],[1.95434,50.52868],[1.95407,50.52861],[1.95416,50.52852],[1.9522,50.52797]]]}},{"type":"Feature","properties":{"k":"MIS","s":2.399},"geometry":{"type":"Polygon","coordinates":[[[1.95065,50.51686],[1.94824,50.51628],[1.94521,50.51578],[1.94496,50.51613],[1.94911,50.51687],[1.95053,50.51728],[1.95188,50.51795],[1.95247,50.51777],[1.95065,50.51686]]]}},{"type":"Feature","properties":{"k":"BTH","s":16.504},"geometry":{"type":"Polygon","coordinates":[[[1.95802,50.51807],[1.95667,50.51959],[1.96089,50.52195],[1.96118,50.51861],[1.96149,50.51747],[1.96208,50.51637],[1.96035,50.51609],[1.95826,50.5155],[1.95621,50.51736],[1.95802,50.51807]]]}},{"type":"Feature","properties":{"k":"MIS","s":1.623},"geometry":{"type":"Polygon","coordinates":[[[1.92221,50.5192],[1.92023,50.51834],[1.91958,50.51884],[1.92111,50.52002],[1.92221,50.5192]]]}},{"type":"Feature","properties":{"k":"LIF","s":0.917},"geometry":{"type":"Polygon","coordinates":[[[1.91976,50.51909],[1.91936,50.51879],[1.91894,50.51917],[1.92055,50.52041],[1.921,50.52005],[1.91976,50.51909]]]}},{"type":"Feature","properties":{"k":"LUZ","s":2.709},"geometry":{"type":"Polygon","coordinates":[[[1.91894,50.51917],[1.91936,50.51879],[1.91893,50.51854],[1.91752,50.51994],[1.91932,50.52081],[1.91896,50.52113],[1.91943,50.52135],[1.92055,50.52041],[1.91894,50.51917]]]}},{"type":"Feature","properties":{"k":"PPH","s":1.635},"geometry":{"type":"Polygon","coordinates":[[[1.91499,50.51967],[1.91646,50.52015],[1.91704,50.51939],[1.9177,50.51965],[1.91788,50.51947],[1.91614,50.51862],[1.91499,50.51967]]]}},{"type":"Feature","properties":{"k":"MIS","s":3.734},"geometry":{"type":"Polygon","coordinates":[[[1.91681,50.51792],[1.91385,50.51749],[1.91335,50.5185],[1.91245,50.51901],[1.91512,50.51944],[1.91681,50.51792]]]}},{"type":"Feature","properties":{"k":"PPH","s":0.484},"geometry":{"type":"Polygon","coordinates":[[[1.90967,50.52356],[1.90923,50.52357],[1.90974,50.52397],[1.91035,50.52415],[1.90945,50.52257],[1.90924,50.52327],[1.90953,50.52322],[1.90967,50.52356]]]}},{"type":"Feature","properties":{"k":"BTH","s":8.56},"geometry":{"type":"Polygon","coordinates":[[[1.90269,50.51985],[1.90539,50.51859],[1.90597,50.52002],[1.90725,50.52155],[1.90869,50.52404],[1.90909,50.52401],[1.90892,50.52299],[1.90783,50.52092],[1.90474,50.51714],[1.90132,50.51866],[1.90269,50.51985]]]}},{"type":"Feature","properties":{"k":"PPH","s":11.962},"geometry":{"type":"Polygon","coordinates":[[[1.92703,50.51292],[1.92849,50.51302],[1.92872,50.51249],[1.9289,50.51252],[1.92874,50.5129],[1.93009,50.51327],[1.93025,50.51284],[1.93052,50.51289],[1.93064,50.51338],[1.9311,50.51347],[1.93128,50.513],[1.93224,50.51309],[1.93197,50.51364],[1.93266,50.51379],[1.93301,50.51269],[1.93375,50.51279],[1.93405,50.51194],[1.93489,50.51203],[1.93448,50.5135],[1.93506,50.51361],[1.93542,50.51363],[1.93567,50.51302],[1.93649,50.51317],[1.93658,50.51301],[1.93734,50.51318],[1.93738,50.51292],[1.93796,50.51302],[1.93811,50.51266],[1.93614,50.51221],[1.93614,50.51197],[1.93173,50.51117],[1.93157,50.51134],[1.92925,50.51132],[1.92782,50.5116],[1.92715,50.51154],[1.92689,50.51225],[1.92747,50.51225],[1.92703,50.51292]]]}},{"type":"Feature","properties":{"k":"BTH","s":0.02},"geometry":{"type":"Polygon","coordinates":[[[1.93176,50.50698],[1.93012,50.50598],[1.93098,50.50653],[1.93176,50.50698]]]}},{"type":"Feature","properties":{"k":"BTH","s":0.036},"geometry":{"type":"MultiPolygon","coordinates":[[[[1.96346,50.51364],[1.96373,50.5133],[1.9635,50.51355],[1.96346,50.51364]]],[[[1.96327,50.51424],[1.96319,50.51498],[1.96339,50.51381],[1.96327,50.51424]]]]}},{"type":"Feature","properties":{"k":"PPH","s":0.088},"geometry":{"type":"Polygon","coordinates":[[[1.96287,50.52407],[1.96323,50.52386],[1.96305,50.5237],[1.9627,50.52375],[1.96287,50.52407]]]}},{"type":"Feature","properties":{"k":"PPH","s":2.707},"geometry":{"type":"Polygon","coordinates":[[[1.91427,50.52421],[1.91347,50.52343],[1.91167,50.52399],[1.91407,50.52579],[1.91547,50.52506],[1.9151,50.52523],[1.9138,50.52448],[1.91427,50.52421]]]}},{"type":"Feature","properties":{"k":"BTH","s":1.531},"geometry":{"type":"Polygon","coordinates":[[[1.91148,50.52377],[1.91029,50.52402],[1.91128,50.52465],[1.913,50.52527],[1.91358,50.52605],[1.91407,50.52579],[1.91148,50.52377]]]}},{"type":"Feature","properties":{"k":"PPH","s":6.881},"geometry":{"type":"Polygon","coordinates":[[[1.95827,50.5225],[1.95677,50.52074],[1.95562,50.51973],[1.95312,50.51875],[1.95255,50.51933],[1.95128,50.51911],[1.95017,50.51988],[1.95217,50.52121],[1.95372,50.51976],[1.95408,50.51996],[1.95349,50.52047],[1.95514,50.52056],[1.95818,50.52261],[1.95827,50.5225]]]}},{"type":"Feature","properties":{"k":"MLG","s":1.893},"geometry":{"type":"Polygon","coordinates":[[[1.95811,50.52265],[1.95818,50.52261],[1.95504,50.5205],[1.95356,50.52044],[1.95295,50.52076],[1.95437,50.52159],[1.95544,50.521],[1.95811,50.52265]]]}},{"type":"Feature","properties":{"k":"PPH","s":0.102},"geometry":{"type":"Polygon","coordinates":[[[1.90918,50.52355],[1.90919,50.524],[1.90973,50.52397],[1.90918,50.52355]]]}},{"type":"Feature","properties":{"k":"PPH","s":2.201},"geometry":{"type":"Polygon","coordinates":[[[1.91086,50.51858],[1.91091,50.5173],[1.90964,50.51682],[1.90911,50.51826],[1.90926,50.51883],[1.91086,50.51858]]]}},{"type":"Feature","properties":{"k":"PTC","s":4.378},"geometry":{"type":"Polygon","coordinates":[[[1.95543,50.52505],[1.95456,50.52556],[1.95835,50.52775],[1.95916,50.52662],[1.95509,50.52449],[1.95481,50.52471],[1.95543,50.52505]]]}},{"type":"Feature","properties":{"k":"ORH","s":5.636},"geometry":{"type":"Polygon","coordinates":[[[1.93071,50.50948],[1.93301,50.50776],[1.93098,50.50653],[1.92817,50.50852],[1.93064,50.50953],[1.92939,50.509],[1.93071,50.50948]]]}},{"type":"Feature","properties":{"k":"BTN","s":1.742},"geometry":{"type":"Polygon","coordinates":[[[1.95487,50.52872],[1.95427,50.52954],[1.95657,50.53014],[1.95716,50.52937],[1.95487,50.52872]]]}},{"type":"Feature","properties":{"k":"PPH","s":0.758},"geometry":{"type":"Polygon","coordinates":[[[1.96207,50.52178],[1.96173,50.52197],[1.96168,50.52241],[1.96224,50.52249],[1.9621,50.52295],[1.96271,50.523],[1.96235,50.52214],[1.96255,50.52104],[1.96171,50.52155],[1.96207,50.52178]]]}},{"type":"Feature","properties":{"k":"ORP","s":0.393},"geometry":{"type":"Polygon","coordinates":[[[1.95487,50.52872],[1.95416,50.52852],[1.95407,50.52861],[1.95434,50.52868],[1.95379,50.52942],[1.95427,50.52954],[1.95487,50.52872]]]}},{"type":"Feature","properties":{"k":"PPH","s":3.91},"geometry":{"type":"Polygon","coordinates":[[[1.95781,50.52334],[1.95743,50.52357],[1.95706,50.5233],[1.95717,50.52323],[1.95515,50.52394],[1.9573,50.52431],[1.95981,50.5255],[1.96012,50.52459],[1.95949,50.52442],[1.95951,50.52417],[1.95926,50.52412],[1.95943,50.52391],[1.95973,50.52397],[1.95978,50.52375],[1.95936,50.52339],[1.95945,50.5232],[1.95877,50.52318],[1.95895,50.52331],[1.95867,50.52346],[1.95851,50.52336],[1.95809,50.52352],[1.95781,50.52334]]]}},{"type":"Feature","properties":{"k":"PPH","s":0.575},"geometry":{"type":"Polygon","coordinates":[[[1.92665,50.50889],[1.92718,50.50924],[1.92809,50.50853],[1.92748,50.50828],[1.92512,50.50989],[1.92665,50.50889]]]}},{"type":"Feature","properties":{"k":"PPH","s":4.352},"geometry":{"type":"Polygon","coordinates":[[[1.95817,50.52222],[1.95896,50.52279],[1.96088,50.52195],[1.95667,50.51959],[1.95625,50.52006],[1.95817,50.52222]]]}},{"type":"Feature","properties":{"k":"PPH","s":5.866},"geometry":{"type":"Polygon","coordinates":[[[1.90597,50.52002],[1.90539,50.51859],[1.90269,50.51986],[1.90439,50.52074],[1.90518,50.52039],[1.90808,50.52408],[1.90869,50.52404],[1.90776,50.52243],[1.90597,50.52002]]]}},{"type":"Feature","properties":{"k":"MIS","s":2.216},"geometry":{"type":"Polygon","coordinates":[[[1.91956,50.51798],[1.92361,50.51979],[1.92391,50.51953],[1.91901,50.517],[1.91863,50.51711],[1.91956,50.51798]]]}},{"type":"Feature","properties":{"k":"MIS","s":2.647},"geometry":{"type":"Polygon","coordinates":[[[1.9572,50.52932],[1.95755,50.52886],[1.95153,50.52718],[1.9511,50.52758],[1.9572,50.52932]]]}},{"type":"Feature","properties":{"k":"BTN","s":2.501},"geometry":{"type":"Polygon","coordinates":[[[1.95197,50.52676],[1.95153,50.52718],[1.95755,50.52886],[1.95786,50.52843],[1.95197,50.52676]]]}},{"type":"Feature","properties":{"k":"MIS","s":1.62},"geometry":{"type":"Polygon","coordinates":[[[1.95255,50.51933],[1.95312,50.51875],[1.95146,50.51787],[1.9505,50.51864],[1.95133,50.51908],[1.95255,50.51933]]]}},{"type":"Feature","properties":{"k":"BTH","s":6.611},"geometry":{"type":"Polygon","coordinates":[[[1.95392,50.5252],[1.95365,50.52558],[1.95197,50.52676],[1.95786,50.52843],[1.95835,50.52775],[1.95392,50.5252]]]}},{"type":"Feature","properties":{"k":"BTH","s":0.021},"geometry":{"type":"Polygon","coordinates":[[[1.93412,50.5084],[1.93308,50.50778],[1.93307,50.50779],[1.93412,50.5084]]]}},{"type":"Feature","properties":{"k":"BTH","s":3.188},"geometry":{"type":"Polygon","coordinates":[[[1.92774,50.50964],[1.92665,50.50889],[1.92617,50.50922],[1.92773,50.51029],[1.92821,50.50998],[1.92919,50.51028],[1.93125,50.51017],[1.93122,50.50986],[1.92876,50.50882],[1.92774,50.50964]]]}},{"type":"Feature","properties":{"k":"MIS","s":3.018},"geometry":{"type":"Polygon","coordinates":[[[1.93384,50.51025],[1.93338,50.51055],[1.93508,50.51076],[1.93668,50.50968],[1.93547,50.50871],[1.93325,50.5099],[1.93384,50.51025]]]}},{"type":"Feature","properties":{"k":"MIS","s":2.737},"geometry":{"type":"Polygon","coordinates":[[[1.90827,50.51967],[1.90925,50.52129],[1.90996,50.52119],[1.91009,50.52065],[1.90913,50.51915],[1.90907,50.51812],[1.90776,50.51828],[1.90827,50.51967]]]}},{"type":"Feature","properties":{"k":"PPH","s":0.446},"geometry":{"type":"Polygon","coordinates":[[[1.9323,50.51444],[1.93246,50.51428],[1.93111,50.51395],[1.931,50.51414],[1.92998,50.51398],[1.92995,50.51419],[1.93083,50.51431],[1.931,50.51419],[1.9323,50.51444]]]}},{"type":"Feature","properties":{"k":"FVP","s":0.706},"geometry":{"type":"Polygon","coordinates":[[[1.95392,50.5252],[1.95456,50.52556],[1.95543,50.52505],[1.95481,50.52471],[1.95509,50.52449],[1.95479,50.52433],[1.95392,50.5252]]]}},{"type":"Feature","properties":{"k":"MIS","s":4.009},"geometry":{"type":"MultiPolygon","coordinates":[[[[1.92995,50.51419],[1.92971,50.51589],[1.93231,50.51629],[1.93262,50.51617],[1.93275,50.51611],[1.93275,50.5161],[1.93281,50.51599],[1.93262,50.51571],[1.93319,50.51497],[1.92995,50.51419]]],[[[1.9328,50.51605],[1.9328,50.51603],[1.93275,50.5161],[1.9328,50.51605]]]]}},{"type":"Feature","properties":{"k":"BTH","s":4.03},"geometry":{"type":"Polygon","coordinates":[[[1.95199,50.52186],[1.95515,50.52394],[1.95671,50.52339],[1.95264,50.52101],[1.95199,50.52186]]]}},{"type":"Feature","properties":{"k":"BTH","s":0.64},"geometry":{"type":"Polygon","coordinates":[[[1.92809,50.50853],[1.92718,50.50924],[1.92774,50.50964],[1.92877,50.50882],[1.92809,50.50853]]]}},{"type":"Feature","properties":{"k":"ORH","s":5.927},"geometry":{"type":"Polygon","coordinates":[[[1.96007,50.51218],[1.96249,50.51606],[1.96291,50.51573],[1.96333,50.51401],[1.96203,50.51139],[1.96007,50.51218]]]}},{"type":"Feature","properties":{"k":"PPH","s":1.63},"geometry":{"type":"Polygon","coordinates":[[[1.96438,50.52462],[1.9638,50.52492],[1.96334,50.52478],[1.96271,50.52516],[1.96259,50.52508],[1.96331,50.52461],[1.96281,50.52412],[1.96188,50.52468],[1.96301,50.52585],[1.96473,50.52497],[1.96438,50.52462]]]}},{"type":"Feature","properties":{"k":"PPH","s":0.255},"geometry":{"type":"Polygon","coordinates":[[[1.95857,50.52271],[1.95821,50.52285],[1.9586,50.52311],[1.95953,50.5231],[1.95857,50.52271]]]}},{"type":"Feature","properties":{"k":"PTR","s":4.838},"geometry":{"type":"Polygon","coordinates":[[[1.91373,50.51489],[1.91374,50.51549],[1.91334,50.5165],[1.9121,50.51753],[1.91179,50.51805],[1.91192,50.51877],[1.91227,50.5191],[1.91335,50.51849],[1.91419,50.51695],[1.91514,50.51611],[1.91509,50.51466],[1.91373,50.51489]]]}},{"type":"Feature","properties":{"k":"PPH","s":2.481},"geometry":{"type":"Polygon","coordinates":[[[1.90714,50.51973],[1.90808,50.52109],[1.90831,50.52139],[1.90925,50.52129],[1.90827,50.51967],[1.90776,50.51828],[1.90709,50.51838],[1.90714,50.51973]]]}},{"type":"Feature","properties":{"k":"PPH","s":0.179},"geometry":{"type":"Polygon","coordinates":[[[1.93272,50.51438],[1.93308,50.51398],[1.93248,50.51384],[1.93241,50.51418],[1.93272,50.51438]]]}},{"type":"Feature","properties":{"k":"PPH","s":0.655},"geometry":{"type":"MultiPolygon","coordinates":[[[[1.96253,50.52096],[1.96281,50.52079],[1.96109,50.51978],[1.96107,50.52052],[1.96253,50.52096]]]]}},{"type":"Feature","properties":{"k":"LIF","s":3.649},"geometry":{"type":"MultiPolygon","coordinates":[[[[1.95052,50.51389],[1.95108,50.51304],[1.95018,50.51271],[1.95042,50.51244],[1.94877,50.51214],[1.94746,50.51168],[1.94636,50.51245],[1.95052,50.51389]]]]}},{"type":"Feature","properties":{"k":"BTN","s":6.397},"geometry":{"type":"Polygon","coordinates":[[[1.91681,50.51792],[1.91715,50.5176],[1.91701,50.51725],[1.91722,50.51617],[1.91714,50.51395],[1.9167,50.514],[1.916,50.5145],[1.91509,50.51466],[1.91514,50.51611],[1.91382,50.51749],[1.91681,50.51792]]]}},{"type":"Feature","properties":{"k":"BTH","s":0.006},"geometry":{"type":"Polygon","coordinates":[[[1.93308,50.50778],[1.93235,50.50733],[1.93276,50.50759],[1.93308,50.50778]]]}},{"type":"Feature","properties":{"k":"PPH","s":2.294},"geometry":{"type":"Polygon","coordinates":[[[1.9312,50.51017],[1.92919,50.51028],[1.92821,50.50998],[1.92773,50.51029],[1.92617,50.50922],[1.9257,50.50955],[1.92714,50.51067],[1.92533,50.50982],[1.92519,50.50991],[1.92693,50.51074],[1.92772,50.51095],[1.9312,50.51017]]]}},{"type":"Feature","properties":{"k":"ORP","s":0.892},"geometry":{"type":"Polygon","coordinates":[[[1.91066,50.51715],[1.91167,50.51658],[1.91025,50.51613],[1.90967,50.51678],[1.91066,50.51715]]]}},{"type":"Feature","properties":{"k":"PTR","s":1.603},"geometry":{"type":"Polygon","coordinates":[[[1.91064,50.51624],[1.9117,50.51657],[1.9127,50.51568],[1.91262,50.51508],[1.91144,50.51528],[1.9104,50.51602],[1.91075,50.51613],[1.91064,50.51624]]]}},{"type":"Feature","properties":{"k":"ORH","s":0.002},"geometry":{"type":"Polygon","coordinates":[[[1.91166,50.51512],[1.91185,50.51499],[1.91155,50.51517],[1.91166,50.51512]]]}},{"type":"Feature","properties":{"k":"ORH","s":4.299},"geometry":{"type":"Polygon","coordinates":[[[1.9314,50.50988],[1.93139,50.51018],[1.93241,50.51024],[1.93499,50.50893],[1.93302,50.50776],[1.93062,50.50955],[1.9314,50.50988]]]}},{"type":"Feature","properties":{"k":"BTH","s":4.846},"geometry":{"type":"Polygon","coordinates":[[[1.91225,50.51475],[1.91259,50.51499],[1.91585,50.51447],[1.91654,50.51394],[1.91702,50.51381],[1.91675,50.51336],[1.91544,50.51227],[1.91225,50.51475]]]}},{"type":"Feature","properties":{"k":"PPH","s":0.001},"geometry":{"type":"MultiPolygon","coordinates":[[[[1.90711,50.51958],[1.90706,50.51962],[1.90711,50.5196],[1.90711,50.51958]]],[[[1.90697,50.5184],[1.90697,50.51841],[1.90705,50.51838],[1.90697,50.5184]]]]}},{"type":"Feature","properties":{"k":"MIS","s":0.0},"geometry":{"type":"Polygon","coordinates":[]}},{"type":"Feature","properties":{"k":"PPH","s":4.211},"geometry":{"type":"Polygon","coordinates":[[[1.90913,50.51885],[1.90926,50.51922],[1.91197,50.51884],[1.91187,50.51782],[1.91334,50.51648],[1.9137,50.51557],[1.9137,50.51491],[1.91264,50.51508],[1.91269,50.51574],[1.91247,50.51606],[1.91068,50.51715],[1.91091,50.5173],[1.91086,50.51858],[1.90913,50.51885]]]}},{"type":"Feature","properties":{"k":"PPH","s":5.76},"geometry":{"type":"Polygon","coordinates":[[[1.96094,50.52641],[1.96171,50.52605],[1.96229,50.5262],[1.96294,50.52589],[1.9624,50.52533],[1.96212,50.5254],[1.96144,50.52525],[1.96088,50.52475],[1.96057,50.52517],[1.96036,50.52514],[1.96054,50.5247],[1.96102,50.52459],[1.9608,50.5244],[1.96074,50.52464],[1.96037,50.52459],[1.95992,50.5259],[1.95832,50.52813],[1.95993,50.52885],[1.96072,50.52797],[1.96096,50.52739],[1.96094,50.52641]]]}}]}