{"type":"FeatureCollection","features":[{"type":"Feature","properties":{"k":"PPH","s":0.091},"geometry":{"type":"MultiPolygon","coordinates":[[[[1.86614,50.76405],[1.86732,50.76484],[1.86742,50.76483],[1.86614,50.76405]]],[[[1.86551,50.76331],[1.86556,50.76338],[1.86553,50.76332],[1.86551,50.76331]]],[[[1.86434,50.76215],[1.86348,50.76145],[1.86371,50.76174],[1.86424,50.76209],[1.8648,50.76271],[1.86495,50.76282],[1.86434,50.76215]]]]}},{"type":"Feature","properties":{"k":"MLF","s":0.013},"geometry":{"type":"Polygon","coordinates":[[[1.86052,50.75995],[1.86083,50.76],[1.86059,50.75988],[1.86052,50.75995]]]}},{"type":"Feature","properties":{"k":"MIS","s":2.995},"geometry":{"type":"Polygon","coordinates":[[[1.86329,50.76121],[1.86465,50.76013],[1.86266,50.75908],[1.8612,50.76012],[1.86329,50.76121]]]}},{"type":"Feature","properties":{"k":"PPH","s":2.349},"geometry":{"type":"Polygon","coordinates":[[[1.86322,50.75809],[1.86153,50.75752],[1.86111,50.75829],[1.86155,50.75854],[1.86258,50.75877],[1.86238,50.7591],[1.8604,50.75895],[1.86055,50.75983],[1.8612,50.76012],[1.86266,50.75908],[1.86322,50.75809]]]}},{"type":"Feature","properties":{"k":"MLF","s":0.165},"geometry":{"type":"Polygon","coordinates":[[[1.86878,50.76159],[1.86987,50.76124],[1.86976,50.7611],[1.86864,50.76143],[1.86878,50.76159]]]}},{"type":"Feature","properties":{"k":"BTH","s":3.063},"geometry":{"type":"Polygon","coordinates":[[[1.86856,50.75937],[1.86729,50.75819],[1.86645,50.75857],[1.86762,50.75985],[1.86864,50.76143],[1.86976,50.7611],[1.86856,50.75937]]]}},{"type":"Feature","properties":{"k":"PPH","s":0.606},"geometry":{"type":"Polygon","coordinates":[[[1.86962,50.76081],[1.86993,50.76122],[1.87184,50.7605],[1.87133,50.76058],[1.87114,50.76039],[1.86962,50.76081]]]}},{"type":"Feature","properties":{"k":"PPH","s":7.137},"geometry":{"type":"Polygon","coordinates":[[[1.86631,50.75747],[1.86795,50.75862],[1.87019,50.75793],[1.87187,50.75951],[1.8716,50.75997],[1.87193,50.76051],[1.87331,50.76006],[1.87276,50.75952],[1.87253,50.75898],[1.87115,50.75761],[1.87058,50.75783],[1.87022,50.75756],[1.87049,50.75742],[1.86827,50.75586],[1.8672,50.75668],[1.86794,50.75714],[1.86735,50.75744],[1.86687,50.75715],[1.86631,50.75747]]]}},{"type":"Feature","properties":{"k":"PPH","s":0.126},"geometry":{"type":"Polygon","coordinates":[[[1.87057,50.75781],[1.87113,50.75759],[1.87051,50.75743],[1.87027,50.75757],[1.87057,50.75781]]]}},{"type":"Feature","properties":{"k":"PPH","s":4.96},"geometry":{"type":"Polygon","coordinates":[[[1.87531,50.76028],[1.87602,50.75988],[1.87483,50.75907],[1.87269,50.7568],[1.87307,50.75665],[1.8724,50.75593],[1.87153,50.75633],[1.87162,50.75648],[1.87021,50.75713],[1.87121,50.75758],[1.87256,50.75891],[1.87322,50.75989],[1.87384,50.75961],[1.87141,50.75707],[1.87199,50.75684],[1.87419,50.75945],[1.87531,50.76028]],[[1.87191,50.75677],[1.8717,50.75653],[1.87177,50.75651],[1.87191,50.75677]]]}},{"type":"Feature","properties":{"k":"MIS","s":1.003},"geometry":{"type":"Polygon","coordinates":[[[1.87307,50.75665],[1.87269,50.7568],[1.87483,50.75907],[1.87538,50.75884],[1.87307,50.75665]]]}},{"type":"Feature","properties":{"k":"MIS","s":1.406},"geometry":{"type":"Polygon","coordinates":[[[1.87199,50.75684],[1.87141,50.75707],[1.87384,50.75961],[1.87423,50.75939],[1.87199,50.75684]]]}},{"type":"Feature","properties":{"k":"PPH","s":0.261},"geometry":{"type":"Polygon","coordinates":[[[1.87921,50.76051],[1.87803,50.75988],[1.87799,50.76012],[1.87896,50.76064],[1.87921,50.76051]]]}},{"type":"Feature","properties":{"k":"ORH","s":1.449},"geometry":{"type":"Polygon","coordinates":[[[1.87929,50.76107],[1.87585,50.75916],[1.87548,50.75943],[1.87568,50.75964],[1.87666,50.76018],[1.87797,50.76075],[1.8788,50.76136],[1.87929,50.76107]]]}},{"type":"Feature","properties":{"k":"ORH","s":1.848},"geometry":{"type":"Polygon","coordinates":[[[1.87489,50.76143],[1.87594,50.76076],[1.8742,50.75944],[1.87322,50.75989],[1.87489,50.76143]]]}},{"type":"Feature","properties":{"k":"PPH","s":0.153},"geometry":{"type":"Polygon","coordinates":[[[1.87263,50.7614],[1.87271,50.76155],[1.874,50.76097],[1.87393,50.76088],[1.87263,50.7614]]]}},{"type":"Feature","properties":{"k":"ORH","s":5.19},"geometry":{"type":"Polygon","coordinates":[[[1.87309,50.76204],[1.87332,50.76194],[1.87456,50.76277],[1.87412,50.76307],[1.87497,50.76327],[1.87556,50.76358],[1.87586,50.7638],[1.87578,50.76392],[1.8772,50.76465],[1.87806,50.76404],[1.87417,50.7609],[1.8727,50.76155],[1.87309,50.76204]]]}},{"type":"Feature","properties":{"k":"MIS","s":3.041},"geometry":{"type":"Polygon","coordinates":[[[1.87594,50.76076],[1.87489,50.76143],[1.8772,50.76339],[1.87839,50.76261],[1.87594,50.76076]]]}},{"type":"Feature","properties":{"k":"PPH","s":3.132},"geometry":{"type":"Polygon","coordinates":[[[1.88001,50.76272],[1.87917,50.76174],[1.87797,50.76075],[1.87729,50.76044],[1.87628,50.76098],[1.87796,50.76233],[1.87916,50.76315],[1.88001,50.76272]],[[1.87842,50.76262],[1.87843,50.76261],[1.87851,50.76266],[1.87842,50.76262]]]}},{"type":"Feature","properties":{"k":"ORH","s":1.239},"geometry":{"type":"Polygon","coordinates":[[[1.87809,50.764],[1.87946,50.76339],[1.87843,50.76261],[1.87732,50.76326],[1.87809,50.764]]]}},{"type":"Feature","properties":{"k":"PPH","s":0.727},"geometry":{"type":"Polygon","coordinates":[[[1.87885,50.76476],[1.87808,50.76404],[1.8772,50.76465],[1.87825,50.76518],[1.87885,50.76476]]]}},{"type":"Feature","properties":{"k":"PPH","s":8.552},"geometry":{"type":"Polygon","coordinates":[[[1.87497,50.76327],[1.87412,50.76307],[1.87456,50.76277],[1.87332,50.76194],[1.87309,50.76204],[1.87272,50.76157],[1.87049,50.76226],[1.87086,50.76276],[1.8721,50.76364],[1.87292,50.76397],[1.87364,50.76382],[1.87452,50.76409],[1.87642,50.76484],[1.87836,50.76584],[1.87861,50.76606],[1.8784,50.76622],[1.88034,50.76713],[1.87982,50.76757],[1.87999,50.76772],[1.88117,50.76674],[1.87956,50.7661],[1.87826,50.76517],[1.87578,50.76392],[1.87557,50.7636],[1.87497,50.76327]]]}},{"type":"Feature","properties":{"k":"BTH","s":2.213},"geometry":{"type":"Polygon","coordinates":[[[1.87642,50.76484],[1.87452,50.76409],[1.87369,50.76384],[1.87297,50.76399],[1.87686,50.76563],[1.87818,50.76638],[1.87861,50.76606],[1.87642,50.76484]]]}},{"type":"Feature","properties":{"k":"MIS","s":5.891},"geometry":{"type":"Polygon","coordinates":[[[1.87197,50.76361],[1.87082,50.76283],[1.87017,50.76167],[1.869,50.76204],[1.86935,50.76264],[1.87019,50.76336],[1.87517,50.76644],[1.87643,50.7655],[1.87197,50.76361]]]}},{"type":"Feature","properties":{"k":"BTN","s":2.471},"geometry":{"type":"Polygon","coordinates":[[[1.87019,50.76336],[1.8697,50.7636],[1.87472,50.76679],[1.87517,50.76644],[1.87019,50.76336]]]}},{"type":"Feature","properties":{"k":"BTH","s":3.682},"geometry":{"type":"Polygon","coordinates":[[[1.8698,50.76455],[1.86946,50.76472],[1.87011,50.76511],[1.87057,50.76567],[1.87121,50.76599],[1.87193,50.76674],[1.8733,50.76601],[1.86977,50.76365],[1.8691,50.76401],[1.8698,50.76455]]]}},{"type":"Feature","properties":{"k":"ORP","s":2.088},"geometry":{"type":"Polygon","coordinates":[[[1.86894,50.76402],[1.86965,50.76452],[1.86829,50.76524],[1.87008,50.76658],[1.87126,50.76604],[1.87057,50.76567],[1.87011,50.76511],[1.86946,50.76472],[1.8698,50.76455],[1.8691,50.76401],[1.8697,50.7636],[1.86894,50.76402]]]}},{"type":"Feature","properties":{"k":"PTR","s":0.43},"geometry":{"type":"Polygon","coordinates":[[[1.87018,50.76167],[1.86989,50.76126],[1.86878,50.7616],[1.86899,50.76199],[1.87018,50.76167]]]}},{"type":"Feature","properties":{"k":"PPH","s":0.875},"geometry":{"type":"Polygon","coordinates":[[[1.86942,50.76288],[1.86751,50.76352],[1.86785,50.76383],[1.86856,50.7638],[1.86991,50.76318],[1.86942,50.76288]]]}},{"type":"Feature","properties":{"k":"PPH","s":1.059},"geometry":{"type":"Polygon","coordinates":[[[1.86694,50.76289],[1.86759,50.76267],[1.86684,50.76135],[1.86585,50.76186],[1.86694,50.76289]]]}},{"type":"Feature","properties":{"k":"PPH","s":0.043},"geometry":{"type":"Polygon","coordinates":[[[1.8717,50.76919],[1.87185,50.76961],[1.87207,50.76944],[1.8717,50.76919]]]}},{"type":"Feature","properties":{"k":"BTH","s":2.08},"geometry":{"type":"Polygon","coordinates":[[[1.87408,50.76854],[1.87223,50.76944],[1.87419,50.77018],[1.87561,50.76941],[1.87408,50.76854]]]}},{"type":"Feature","properties":{"k":"PPH","s":1.704},"geometry":{"type":"MultiPolygon","coordinates":[[[[1.87561,50.76942],[1.87419,50.77018],[1.8747,50.77043],[1.87587,50.76959],[1.87561,50.76942]]],[[[1.87627,50.76898],[1.87475,50.76806],[1.87435,50.76835],[1.87392,50.76816],[1.87339,50.76852],[1.87365,50.76878],[1.87408,50.76854],[1.87561,50.76941],[1.87561,50.76942],[1.87627,50.76898]]]]}},{"type":"Feature","properties":{"k":"PPH","s":0.268},"geometry":{"type":"Polygon","coordinates":[[[1.91921,50.78287],[1.91955,50.78308],[1.91995,50.78227],[1.91965,50.78215],[1.91921,50.78287]]]}},{"type":"Feature","properties":{"k":"PPH","s":0.355},"geometry":{"type":"Polygon","coordinates":[[[1.91749,50.78208],[1.91663,50.78192],[1.9165,50.78246],[1.91737,50.78255],[1.91749,50.78208]]]}},{"type":"Feature","properties":{"k":"PPH","s":0.539},"geometry":{"type":"Polygon","coordinates":[[[1.9191,50.78194],[1.91925,50.78173],[1.91628,50.78096],[1.91603,50.78116],[1.9191,50.78194]]]}},{"type":"Feature","properties":{"k":"BTA","s":0.209},"geometry":{"type":"MultiPolygon","coordinates":[[[[1.91943,50.78173],[1.91934,50.78186],[1.91972,50.78204],[1.92014,50.78201],[1.91972,50.78194],[1.91946,50.78167],[1.91818,50.78152],[1.91943,50.78173]]],[[[1.92062,50.78223],[1.92138,50.7822],[1.92014,50.78201],[1.92062,50.78223]]]]}},{"type":"Feature","properties":{"k":"PPH","s":0.266},"geometry":{"type":"Polygon","coordinates":[[[1.92073,50.78241],[1.92034,50.78237],[1.92001,50.78315],[1.92048,50.78316],[1.92073,50.78241]]]}},{"type":"Feature","properties":{"k":"PPH","s":0.0},"geometry":{"type":"Polygon","coordinates":[[[1.92622,50.77786],[1.92624,50.77785],[1.92617,50.77786],[1.92622,50.77786]]]}},{"type":"Feature","properties":{"k":"PPH","s":0.002},"geometry":{"type":"Polygon","coordinates":[]}},{"type":"Feature","properties":{"k":"PPH","s":0.001},"geometry":{"type":"Polygon","coordinates":[]}},{"type":"Feature","properties":{"k":"PPH","s":1.629},"geometry":{"type":"Polygon","coordinates":[[[1.92232,50.77957],[1.92263,50.77995],[1.92426,50.77816],[1.92504,50.77782],[1.92616,50.77784],[1.92639,50.77771],[1.92471,50.77738],[1.92362,50.77814],[1.92232,50.77957]]]}},{"type":"Feature","properties":{"k":"LIF","s":6.8},"geometry":{"type":"Polygon","coordinates":[[[1.91955,50.7817],[1.91947,50.78183],[1.91972,50.78194],[1.92139,50.78218],[1.9219,50.78041],[1.92137,50.78017],[1.92207,50.77955],[1.92177,50.77921],[1.92083,50.78067],[1.92174,50.77917],[1.92129,50.77871],[1.92044,50.77824],[1.91827,50.78148],[1.91955,50.7817]]]}},{"type":"Feature","properties":{"k":"BTA","s":0.091},"geometry":{"type":"Polygon","coordinates":[[[1.9167,50.78103],[1.91629,50.78088],[1.91627,50.78094],[1.91818,50.78152],[1.9167,50.78103]]]}},{"type":"Feature","properties":{"k":"BTH","s":6.24},"geometry":{"type":"Polygon","coordinates":[[[1.91839,50.77755],[1.91629,50.78088],[1.91779,50.78137],[1.91821,50.78147],[1.92044,50.77824],[1.91839,50.77755]]]}},{"type":"Feature","properties":{"k":"BTN","s":0.017},"geometry":{"type":"MultiPolygon","coordinates":[[[[1.92137,50.77688],[1.92166,50.777],[1.91901,50.77584],[1.92137,50.77688]]],[[[1.92224,50.77695],[1.92219,50.77697],[1.92238,50.77697],[1.92224,50.77695]]]]}},{"type":"Feature","properties":{"k":"BTH","s":5.56},"geometry":{"type":"Polygon","coordinates":[[[1.92314,50.77715],[1.92238,50.77697],[1.9219,50.7771],[1.91904,50.77587],[1.91787,50.77724],[1.92031,50.77803],[1.9215,50.77868],[1.92211,50.77814],[1.9228,50.77844],[1.92314,50.77715]]]}},{"type":"Feature","properties":{"k":"PPH","s":0.008},"geometry":{"type":"Polygon","coordinates":[[[1.91903,50.77586],[1.919,50.77585],[1.91872,50.77621],[1.91903,50.77586]]]}},{"type":"Feature","properties":{"k":"LIF","s":0.009},"geometry":{"type":"Polygon","coordinates":[[[1.92357,50.77718],[1.92274,50.77704],[1.92353,50.7772],[1.92357,50.77718]]]}},{"type":"Feature","properties":{"k":"PPH","s":1.943},"geometry":{"type":"Polygon","coordinates":[[[1.87074,50.75572],[1.87163,50.75525],[1.86944,50.75368],[1.86856,50.75418],[1.87074,50.75572]]]}},{"type":"Feature","properties":{"k":"PTR","s":0.965},"geometry":{"type":"Polygon","coordinates":[[[1.86986,50.7551],[1.86845,50.75592],[1.86912,50.75638],[1.87057,50.75562],[1.86986,50.7551]]]}},{"type":"Feature","properties":{"k":"ORH","s":0.762},"geometry":{"type":"Polygon","coordinates":[[[1.87109,50.75604],[1.87056,50.75561],[1.86913,50.75638],[1.86965,50.75675],[1.87109,50.75604]]]}},{"type":"Feature","properties":{"k":"PTR","s":0.733},"geometry":{"type":"Polygon","coordinates":[[[1.87016,50.75713],[1.8716,50.75646],[1.87109,50.75604],[1.86965,50.75675],[1.87016,50.75713]]]}},{"type":"Feature","properties":{"k":"PTR","s":0.695},"geometry":{"type":"Polygon","coordinates":[[[1.87147,50.75631],[1.87239,50.75588],[1.87166,50.75526],[1.87076,50.75573],[1.87147,50.75631]]]}},{"type":"Feature","properties":{"k":"JAC","s":0.711},"geometry":{"type":"Polygon","coordinates":[[[1.86687,50.75713],[1.86735,50.75743],[1.8679,50.75715],[1.86682,50.75657],[1.86585,50.75717],[1.86629,50.75746],[1.86687,50.75713]]]}},{"type":"Feature","properties":{"k":"PTR","s":2.269},"geometry":{"type":"Polygon","coordinates":[[[1.86496,50.75667],[1.86611,50.75582],[1.86408,50.75479],[1.86296,50.75565],[1.86496,50.75667]]]}},{"type":"Feature","properties":{"k":"BTH","s":1.34},"geometry":{"type":"Polygon","coordinates":[[[1.8656,50.75552],[1.86647,50.75482],[1.86497,50.75408],[1.86411,50.75478],[1.8656,50.75552]]]}},{"type":"Feature","properties":{"k":"MIS","s":1.299},"geometry":{"type":"Polygon","coordinates":[[[1.86406,50.75476],[1.86497,50.75408],[1.86365,50.75342],[1.86247,50.75394],[1.86406,50.75476]]]}},{"type":"Feature","properties":{"k":"PPH","s":0.123},"geometry":{"type":"Polygon","coordinates":[[[1.86267,50.75405],[1.86247,50.75394],[1.86139,50.75486],[1.86267,50.75405]]]}},{"type":"Feature","properties":{"k":"LUZ","s":2.312},"geometry":{"type":"Polygon","coordinates":[[[1.86159,50.7561],[1.86127,50.75668],[1.86064,50.75716],[1.86321,50.75808],[1.86409,50.75747],[1.86159,50.7561]]]}},{"type":"Feature","properties":{"k":"ORP","s":0.027},"geometry":{"type":"Polygon","coordinates":[[[1.86573,50.75212],[1.86569,50.75212],[1.86464,50.7528],[1.86573,50.75212]]]}},{"type":"Feature","properties":{"k":"BTH","s":2.816},"geometry":{"type":"Polygon","coordinates":[[[1.8649,50.754],[1.86787,50.75225],[1.86769,50.75207],[1.86575,50.75211],[1.86372,50.75341],[1.8649,50.754]]]}},{"type":"Feature","properties":{"k":"PPH","s":0.92},"geometry":{"type":"Polygon","coordinates":[[[1.88618,50.77446],[1.88703,50.77383],[1.88616,50.77329],[1.88515,50.7741],[1.88618,50.77446]]]}},{"type":"Feature","properties":{"k":"PPH","s":1.155},"geometry":{"type":"Polygon","coordinates":[[[1.87149,50.76647],[1.87027,50.76697],[1.87086,50.76786],[1.87217,50.76729],[1.87149,50.76647]]]}},{"type":"Feature","properties":{"k":"MIS","s":0.755},"geometry":{"type":"Polygon","coordinates":[[[1.86941,50.75368],[1.86862,50.75301],[1.86774,50.75356],[1.86858,50.75414],[1.86941,50.75368]]]}},{"type":"Feature","properties":{"k":"PTR","s":0.96},"geometry":{"type":"Polygon","coordinates":[[[1.86738,50.75522],[1.86809,50.75564],[1.86949,50.75486],[1.86876,50.75435],[1.86738,50.75522]]]}},{"type":"Feature","properties":{"k":"ORH","s":0.518},"geometry":{"type":"Polygon","coordinates":[[[1.86845,50.7559],[1.86988,50.7551],[1.86949,50.75487],[1.86809,50.75566],[1.86845,50.7559]]]}},{"type":"Feature","properties":{"k":"ORH","s":0.004},"geometry":{"type":"MultiPolygon","coordinates":[[[[1.87128,50.75418],[1.8712,50.75415],[1.87144,50.7543],[1.87128,50.75418]]],[[[1.87326,50.75578],[1.87311,50.7556],[1.87323,50.75579],[1.87326,50.75578]]]]}},{"type":"Feature","properties":{"k":"PPH","s":0.004},"geometry":{"type":"Polygon","coordinates":[]}},{"type":"Feature","properties":{"k":"ORH","s":1.321},"geometry":{"type":"Polygon","coordinates":[[[1.89129,50.76664],[1.89055,50.76637],[1.89042,50.76652],[1.89414,50.76779],[1.89444,50.76735],[1.89148,50.76643],[1.89129,50.76664]]]}},{"type":"Feature","properties":{"k":"MCR","s":0.702},"geometry":{"type":"Polygon","coordinates":[[[1.89294,50.76881],[1.89364,50.76903],[1.89442,50.76798],[1.89374,50.76778],[1.89294,50.76881]]]}},{"type":"Feature","properties":{"k":"AVH","s":1.024},"geometry":{"type":"Polygon","coordinates":[[[1.89377,50.76907],[1.89278,50.76875],[1.89192,50.76973],[1.89296,50.7701],[1.89377,50.76907]]]}},{"type":"Feature","properties":{"k":"PTR","s":3.005},"geometry":{"type":"Polygon","coordinates":[[[1.89146,50.77145],[1.8931,50.77206],[1.89423,50.77056],[1.89282,50.77004],[1.89174,50.77112],[1.89135,50.77096],[1.88986,50.77214],[1.89039,50.77239],[1.89146,50.77145]]]}},{"type":"Feature","properties":{"k":"PTR","s":0.179},"geometry":{"type":"Polygon","coordinates":[[[1.89715,50.77033],[1.89695,50.77053],[1.89781,50.77083],[1.89798,50.77062],[1.89715,50.77033]]]}},{"type":"Feature","properties":{"k":"PPH","s":3.815},"geometry":{"type":"Polygon","coordinates":[[[1.91237,50.77882],[1.91114,50.77886],[1.91008,50.77855],[1.90958,50.77909],[1.91118,50.77958],[1.91092,50.77997],[1.9123,50.78035],[1.91267,50.77999],[1.91382,50.78055],[1.91429,50.77999],[1.91427,50.77944],[1.91237,50.77882]]]}},{"type":"Feature","properties":{"k":"PPH","s":0.743},"geometry":{"type":"Polygon","coordinates":[[[1.90974,50.78066],[1.90932,50.77987],[1.9084,50.78009],[1.90866,50.78036],[1.90816,50.78045],[1.9084,50.78086],[1.90974,50.78066]]]}},{"type":"Feature","properties":{"k":"PPH","s":0.189},"geometry":{"type":"Polygon","coordinates":[[[1.90901,50.77959],[1.90864,50.77942],[1.90801,50.77967],[1.90824,50.77992],[1.90901,50.77959]]]}},{"type":"Feature","properties":{"k":"ORH","s":1.0},"geometry":{"type":"Polygon","coordinates":[[[1.90409,50.77835],[1.90423,50.7784],[1.90437,50.77828],[1.9075,50.77942],[1.9078,50.77916],[1.90456,50.77796],[1.90409,50.77835]]]}},{"type":"Feature","properties":{"k":"ORH","s":2.052},"geometry":{"type":"Polygon","coordinates":[[[1.86776,50.75356],[1.86861,50.75299],[1.86785,50.75226],[1.86494,50.75399],[1.8656,50.75434],[1.86744,50.75332],[1.86776,50.75356]]]}},{"type":"Feature","properties":{"k":"BTH","s":2.353},"geometry":{"type":"Polygon","coordinates":[[[1.86735,50.75521],[1.86875,50.75435],[1.86744,50.75332],[1.8656,50.75434],[1.86735,50.75521]]]}},{"type":"Feature","properties":{"k":"PPH","s":0.035},"geometry":{"type":"Polygon","coordinates":[[[1.92095,50.78367],[1.92076,50.78405],[1.92115,50.78349],[1.92095,50.78367]]]}},{"type":"Feature","properties":{"k":"MIS","s":2.42},"geometry":{"type":"Polygon","coordinates":[[[1.88843,50.76898],[1.88774,50.76964],[1.8883,50.76985],[1.88815,50.77002],[1.89106,50.77122],[1.89135,50.77097],[1.89038,50.77054],[1.89088,50.77],[1.88843,50.76898]]]}},{"type":"Feature","properties":{"k":"ORH","s":10.302},"geometry":{"type":"Polygon","coordinates":[[[1.88789,50.76871],[1.89088,50.77],[1.89038,50.77055],[1.89171,50.77109],[1.89281,50.77006],[1.89192,50.76973],[1.89374,50.76778],[1.89012,50.76653],[1.88789,50.76871]]]}},{"type":"Feature","properties":{"k":"PPH","s":1.19},"geometry":{"type":"Polygon","coordinates":[[[1.90529,50.77782],[1.90514,50.77759],[1.90449,50.77777],[1.90458,50.77797],[1.90727,50.77896],[1.90759,50.77865],[1.90694,50.77843],[1.90707,50.77807],[1.90529,50.77782]]]}},{"type":"Feature","properties":{"k":"BTA","s":0.082},"geometry":{"type":"Polygon","coordinates":[[[1.90514,50.77759],[1.90529,50.77782],[1.9054,50.77758],[1.90517,50.7775],[1.90449,50.77777],[1.90514,50.77759]]]}},{"type":"Feature","properties":{"k":"MIS","s":2.947},"geometry":{"type":"Polygon","coordinates":[[[1.90678,50.77978],[1.90751,50.77943],[1.90437,50.77828],[1.90383,50.77876],[1.90321,50.77853],[1.90286,50.77897],[1.90538,50.77992],[1.90678,50.77978]]]}},{"type":"Feature","properties":{"k":"PPH","s":0.257},"geometry":{"type":"Polygon","coordinates":[[[1.90477,50.78159],[1.9052,50.78151],[1.90439,50.78074],[1.90411,50.78081],[1.90477,50.78159]]]}},{"type":"Feature","properties":{"k":"ORH","s":4.173},"geometry":{"type":"Polygon","coordinates":[[[1.90254,50.77935],[1.90266,50.77919],[1.90063,50.77853],[1.90079,50.77834],[1.90286,50.77897],[1.9032,50.77853],[1.90382,50.77876],[1.90423,50.7784],[1.90177,50.77744],[1.90098,50.77681],[1.89938,50.77708],[1.90028,50.77798],[1.89967,50.77848],[1.90254,50.77935]]]}},{"type":"Feature","properties":{"k":"PPH","s":0.639},"geometry":{"type":"Polygon","coordinates":[[[1.90392,50.77831],[1.90467,50.77788],[1.90343,50.77739],[1.90289,50.77789],[1.90392,50.77831]]]}},{"type":"Feature","properties":{"k":"PPH","s":0.855},"geometry":{"type":"Polygon","coordinates":[[[1.90251,50.77725],[1.9032,50.77757],[1.9038,50.77685],[1.90375,50.77668],[1.90316,50.77661],[1.90246,50.77697],[1.90211,50.77672],[1.9016,50.77698],[1.90207,50.77732],[1.90251,50.77725]]]}},{"type":"Feature","properties":{"k":"MIS","s":0.848},"geometry":{"type":"Polygon","coordinates":[[[1.89597,50.77156],[1.89669,50.77186],[1.89771,50.77081],[1.89693,50.77053],[1.89597,50.77156]]]}},{"type":"Feature","properties":{"k":"ORH","s":1.884},"geometry":{"type":"Polygon","coordinates":[[[1.88666,50.76781],[1.88544,50.76892],[1.88603,50.76925],[1.88732,50.76811],[1.88771,50.76832],[1.88631,50.76941],[1.8868,50.76973],[1.8884,50.76823],[1.88714,50.76766],[1.88688,50.76792],[1.88666,50.76781]]]}},{"type":"Feature","properties":{"k":"PTR","s":0.527},"geometry":{"type":"Polygon","coordinates":[[[1.88771,50.76832],[1.88732,50.76811],[1.88603,50.76925],[1.88631,50.76941],[1.88771,50.76832]]]}},{"type":"Feature","properties":{"k":"SOG","s":0.563},"geometry":{"type":"Polygon","coordinates":[[[1.88668,50.76779],[1.8869,50.7679],[1.88714,50.76766],[1.88607,50.76711],[1.88575,50.76742],[1.88652,50.76775],[1.88529,50.76882],[1.88544,50.76891],[1.88668,50.76779]]]}},{"type":"Feature","properties":{"k":"MIS","s":0.714},"geometry":{"type":"Polygon","coordinates":[[[1.88529,50.76882],[1.88652,50.76775],[1.88591,50.76749],[1.88481,50.7685],[1.88529,50.76882]]]}},{"type":"Feature","properties":{"k":"BTH","s":5.126},"geometry":{"type":"Polygon","coordinates":[[[1.88818,50.76593],[1.8857,50.7655],[1.88524,50.76605],[1.88665,50.76654],[1.88607,50.76711],[1.88839,50.76823],[1.89012,50.76653],[1.88818,50.76593]]]}},{"type":"Feature","properties":{"k":"PTR","s":2.093},"geometry":{"type":"Polygon","coordinates":[[[1.88382,50.76654],[1.88575,50.76741],[1.88665,50.76654],[1.88524,50.76605],[1.8857,50.76553],[1.8855,50.76545],[1.88511,50.76532],[1.88382,50.76654]]]}},{"type":"Feature","properties":{"k":"PTR","s":0.547},"geometry":{"type":"Polygon","coordinates":[[[1.88652,50.76525],[1.88633,50.7655],[1.88835,50.76586],[1.88856,50.76558],[1.88652,50.76525]]]}},{"type":"Feature","properties":{"k":"SOG","s":0.325},"geometry":{"type":"Polygon","coordinates":[[[1.89,50.76638],[1.89015,50.76622],[1.88856,50.76558],[1.88835,50.76586],[1.89,50.76638]]]}},{"type":"Feature","properties":{"k":"PPH","s":0.726},"geometry":{"type":"Polygon","coordinates":[[[1.88392,50.76478],[1.88427,50.76449],[1.88337,50.76379],[1.88182,50.7632],[1.88392,50.76478]]]}},{"type":"Feature","properties":{"k":"AVH","s":1.687},"geometry":{"type":"Polygon","coordinates":[[[1.89244,50.77683],[1.89279,50.77638],[1.89373,50.77666],[1.89456,50.7754],[1.89347,50.77497],[1.89258,50.77614],[1.89269,50.77595],[1.89219,50.77581],[1.89244,50.77683]]]}},{"type":"Feature","properties":{"k":"ORH","s":0.359},"geometry":{"type":"Polygon","coordinates":[[[1.89105,50.7763],[1.89158,50.77648],[1.8921,50.77586],[1.8918,50.77555],[1.89105,50.7763]]]}},{"type":"Feature","properties":{"k":"CZH","s":0.309},"geometry":{"type":"Polygon","coordinates":[[[1.89237,50.7768],[1.89234,50.77617],[1.8921,50.77586],[1.89157,50.77649],[1.89237,50.7768]]]}},{"type":"Feature","properties":{"k":"PPH","s":0.307},"geometry":{"type":"Polygon","coordinates":[[[1.9074,50.77329],[1.90748,50.77299],[1.90637,50.77271],[1.90614,50.773],[1.9074,50.77329]]]}},{"type":"Feature","properties":{"k":"PPH","s":0.562},"geometry":{"type":"Polygon","coordinates":[[[1.90446,50.77255],[1.9046,50.77263],[1.90612,50.77301],[1.90636,50.77271],[1.90495,50.77219],[1.90446,50.77255]]]}},{"type":"Feature","properties":{"k":"MIS","s":1.411},"geometry":{"type":"Polygon","coordinates":[[[1.90191,50.77287],[1.90362,50.77402],[1.9049,50.77341],[1.90427,50.77286],[1.90346,50.77327],[1.90298,50.77284],[1.90235,50.77261],[1.90191,50.77287]]]}},{"type":"Feature","properties":{"k":"MIS","s":1.307},"geometry":{"type":"Polygon","coordinates":[[[1.90304,50.77282],[1.9035,50.77325],[1.90427,50.77286],[1.90414,50.77246],[1.90326,50.77174],[1.90211,50.77241],[1.90304,50.77282]]]}},{"type":"Feature","properties":{"k":"MIS","s":0.235},"geometry":{"type":"Polygon","coordinates":[[[1.90424,50.77163],[1.9038,50.77128],[1.90334,50.77166],[1.90376,50.77195],[1.90424,50.77163]]]}},{"type":"Feature","properties":{"k":"PPH","s":0.803},"geometry":{"type":"Polygon","coordinates":[[[1.90669,50.77461],[1.90735,50.77417],[1.90739,50.77339],[1.90705,50.77331],[1.90605,50.77405],[1.90669,50.77461]]]}},{"type":"Feature","properties":{"k":"ORH","s":1.582},"geometry":{"type":"Polygon","coordinates":[[[1.90693,50.77568],[1.90831,50.77636],[1.90937,50.77535],[1.90831,50.77473],[1.90693,50.77568]]]}},{"type":"Feature","properties":{"k":"BTH","s":3.415},"geometry":{"type":"Polygon","coordinates":[[[1.91188,50.78432],[1.91188,50.78409],[1.90939,50.7841],[1.90485,50.78473],[1.90511,50.7853],[1.90941,50.78472],[1.91169,50.78473],[1.9117,50.78433],[1.91188,50.78432]]]}},{"type":"Feature","properties":{"k":"MIS","s":2.331},"geometry":{"type":"Polygon","coordinates":[[[1.91127,50.78347],[1.91038,50.78335],[1.90942,50.78342],[1.90847,50.78382],[1.90657,50.78417],[1.90596,50.78455],[1.90939,50.7841],[1.91188,50.78409],[1.91179,50.78332],[1.91127,50.78347]]]}},{"type":"Feature","properties":{"k":"BTA","s":0.115},"geometry":{"type":"Polygon","coordinates":[[[1.90898,50.78329],[1.90905,50.78344],[1.90999,50.78328],[1.90994,50.78312],[1.90898,50.78329]]]}},{"type":"Feature","properties":{"k":"PPH","s":0.832},"geometry":{"type":"Polygon","coordinates":[[[1.91482,50.78133],[1.91517,50.78148],[1.91537,50.78133],[1.91599,50.78138],[1.91631,50.78083],[1.91528,50.78017],[1.91498,50.78067],[1.9152,50.78074],[1.91482,50.78133]]]}},{"type":"Feature","properties":{"k":"PPH","s":0.886},"geometry":{"type":"Polygon","coordinates":[[[1.9148,50.78135],[1.9152,50.78074],[1.91498,50.78067],[1.91528,50.78017],[1.91429,50.77997],[1.91383,50.78056],[1.9148,50.78135]]]}},{"type":"Feature","properties":{"k":"AVP","s":0.312},"geometry":{"type":"Polygon","coordinates":[[[1.90905,50.77696],[1.90932,50.77669],[1.90863,50.77605],[1.90831,50.77636],[1.90905,50.77696]]]}},{"type":"Feature","properties":{"k":"BTH","s":0.816},"geometry":{"type":"MultiPolygon","coordinates":[[[[1.91018,50.77583],[1.90937,50.77535],[1.90863,50.77605],[1.90932,50.77669],[1.91018,50.77583]]],[[[1.90829,50.77466],[1.90824,50.7746],[1.90822,50.77459],[1.90829,50.77466]]]]}},{"type":"Feature","properties":{"k":"PPH","s":1.351},"geometry":{"type":"Polygon","coordinates":[[[1.90831,50.77473],[1.90738,50.77418],[1.90629,50.77515],[1.90639,50.77576],[1.90662,50.77583],[1.90831,50.77473]]]}},{"type":"Feature","properties":{"k":"BTH","s":4.829},"geometry":{"type":"Polygon","coordinates":[[[1.91309,50.77823],[1.91404,50.7766],[1.9124,50.776],[1.9126,50.77576],[1.91181,50.77547],[1.9101,50.77742],[1.91137,50.77795],[1.91309,50.77823]]]}},{"type":"Feature","properties":{"k":"JAC","s":0.045},"geometry":{"type":"Polygon","coordinates":[[[1.9126,50.77576],[1.91176,50.77539],[1.91162,50.77558],[1.91177,50.77546],[1.9126,50.77576]]]}},{"type":"Feature","properties":{"k":"JAC","s":0.069},"geometry":{"type":"Polygon","coordinates":[[[1.91181,50.77547],[1.91178,50.77546],[1.91066,50.77671],[1.9101,50.77742],[1.91181,50.77547]]]}},{"type":"Feature","properties":{"k":"MIS","s":0.493},"geometry":{"type":"Polygon","coordinates":[[[1.91602,50.77736],[1.9151,50.7786],[1.91554,50.77868],[1.91643,50.77751],[1.91602,50.77736]]]}},{"type":"Feature","properties":{"k":"PPH","s":12.047},"geometry":{"type":"Polygon","coordinates":[[[1.91216,50.77867],[1.91431,50.7794],[1.91447,50.77955],[1.91423,50.77993],[1.91485,50.77994],[1.91632,50.78081],[1.9184,50.77754],[1.91687,50.77699],[1.91354,50.77557],[1.91317,50.77592],[1.91264,50.77571],[1.9124,50.776],[1.91405,50.7766],[1.91309,50.77823],[1.91247,50.77813],[1.91216,50.77867]],[[1.91554,50.77868],[1.9151,50.7786],[1.91603,50.77736],[1.91642,50.77751],[1.91687,50.77699],[1.91554,50.77868]]]}},{"type":"Feature","properties":{"k":"PPH","s":2.705},"geometry":{"type":"Polygon","coordinates":[[[1.90043,50.78458],[1.89967,50.78479],[1.9002,50.78628],[1.90203,50.78615],[1.90219,50.78608],[1.90159,50.7844],[1.90057,50.78436],[1.90043,50.78458]]]}},{"type":"Feature","properties":{"k":"BTH","s":1.295},"geometry":{"type":"Polygon","coordinates":[[[1.91294,50.78467],[1.91294,50.78326],[1.91189,50.78324],[1.91187,50.78474],[1.91294,50.78467]]]}},{"type":"Feature","properties":{"k":"PPH","s":6.829},"geometry":{"type":"Polygon","coordinates":[[[1.90412,50.78803],[1.90288,50.78809],[1.90288,50.78777],[1.90195,50.78847],[1.90194,50.78886],[1.89979,50.78991],[1.89949,50.79038],[1.90133,50.79022],[1.90227,50.78956],[1.90405,50.78901],[1.90785,50.78861],[1.90753,50.78733],[1.90412,50.78803]]]}},{"type":"Feature","properties":{"k":"PPH","s":0.545},"geometry":{"type":"Polygon","coordinates":[[[1.91134,50.78237],[1.911,50.78223],[1.9106,50.78235],[1.91087,50.78327],[1.91142,50.78329],[1.91134,50.78237]]]}},{"type":"Feature","properties":{"k":"BTH","s":4.03},"geometry":{"type":"Polygon","coordinates":[[[1.90016,50.78846],[1.90006,50.78787],[1.89949,50.78793],[1.89923,50.78677],[1.89672,50.78695],[1.89685,50.78874],[1.90016,50.78846]]]}},{"type":"Feature","properties":{"k":"ORH","s":2.477},"geometry":{"type":"Polygon","coordinates":[[[1.89949,50.78791],[1.90109,50.78772],[1.90074,50.78633],[1.89671,50.78661],[1.89672,50.78695],[1.89923,50.78677],[1.89949,50.78791]]]}},{"type":"Feature","properties":{"k":"PPH","s":0.163},"geometry":{"type":"Polygon","coordinates":[[[1.90835,50.78283],[1.90865,50.78355],[1.90887,50.78348],[1.90865,50.78276],[1.90835,50.78283]]]}},{"type":"Feature","properties":{"k":"MIS","s":1.51},"geometry":{"type":"Polygon","coordinates":[[[1.89992,50.78204],[1.89729,50.78229],[1.89766,50.78304],[1.9001,50.78275],[1.89992,50.78204]]]}},{"type":"Feature","properties":{"k":"BTA","s":0.339},"geometry":{"type":"Polygon","coordinates":[[[1.90584,50.78458],[1.90657,50.78417],[1.90847,50.78382],[1.90942,50.78342],[1.91038,50.78335],[1.91127,50.78347],[1.91189,50.78323],[1.91131,50.7834],[1.91038,50.7833],[1.90942,50.78336],[1.90835,50.78379],[1.90669,50.78408],[1.9059,50.78451],[1.90484,50.78465],[1.90584,50.78458]]]}},{"type":"Feature","properties":{"k":"MIS","s":1.237},"geometry":{"type":"Polygon","coordinates":[[[1.88815,50.77002],[1.88781,50.7704],[1.8906,50.77159],[1.89106,50.77122],[1.88815,50.77002]]]}},{"type":"Feature","properties":{"k":"BTH","s":5.962},"geometry":{"type":"Polygon","coordinates":[[[1.90085,50.7812],[1.90086,50.77995],[1.89804,50.77948],[1.89741,50.78012],[1.89751,50.78034],[1.89739,50.7801],[1.89625,50.78048],[1.89581,50.78005],[1.89483,50.78135],[1.89526,50.78148],[1.89675,50.78122],[1.89828,50.78132],[1.90085,50.7812]]]}},{"type":"Feature","properties":{"k":"MIS","s":3.048},"geometry":{"type":"Polygon","coordinates":[[[1.89804,50.77948],[1.90086,50.77995],[1.90085,50.7812],[1.90129,50.7811],[1.90246,50.77946],[1.89863,50.77881],[1.89804,50.77948]]]}},{"type":"Feature","properties":{"k":"AVP","s":0.725},"geometry":{"type":"Polygon","coordinates":[[[1.87963,50.76226],[1.88044,50.76195],[1.87929,50.76107],[1.8788,50.76136],[1.87963,50.76226]]]}},{"type":"Feature","properties":{"k":"PPH","s":0.155},"geometry":{"type":"Polygon","coordinates":[[[1.87971,50.76087],[1.87921,50.76051],[1.87888,50.76069],[1.87941,50.76102],[1.87971,50.76087]]]}},{"type":"Feature","properties":{"k":"MIS","s":0.015},"geometry":{"type":"Polygon","coordinates":[[[1.90022,50.78257],[1.90008,50.78257],[1.90023,50.7826],[1.90079,50.78253],[1.90022,50.78257]]]}},{"type":"Feature","properties":{"k":"PTC","s":4.084},"geometry":{"type":"Polygon","coordinates":[[[1.90068,50.78129],[1.89862,50.78142],[1.89677,50.78125],[1.89524,50.78151],[1.89528,50.78224],[1.89733,50.78235],[1.89994,50.78203],[1.90008,50.78257],[1.90102,50.78252],[1.90068,50.78129]]]}},{"type":"Feature","properties":{"k":"BTH","s":0.026},"geometry":{"type":"Polygon","coordinates":[[[1.89622,50.77836],[1.89625,50.77808],[1.89599,50.77881],[1.89622,50.77836]]]}},{"type":"Feature","properties":{"k":"PPH","s":0.869},"geometry":{"type":"Polygon","coordinates":[[[1.90108,50.77669],[1.90171,50.77638],[1.90069,50.77568],[1.90057,50.77593],[1.90037,50.77591],[1.90001,50.77683],[1.90108,50.77669]]]}},{"type":"Feature","properties":{"k":"ORH","s":1.347},"geometry":{"type":"Polygon","coordinates":[[[1.89084,50.77473],[1.88965,50.77576],[1.891,50.77629],[1.8918,50.77553],[1.89084,50.77473]]]}},{"type":"Feature","properties":{"k":"MIS","s":0.946},"geometry":{"type":"Polygon","coordinates":[[[1.89061,50.77433],[1.89204,50.77315],[1.89127,50.77282],[1.89021,50.77369],[1.89061,50.77433]]]}},{"type":"Feature","properties":{"k":"PPH","s":6.759},"geometry":{"type":"Polygon","coordinates":[[[1.91187,50.78254],[1.91211,50.78309],[1.91303,50.78316],[1.91339,50.78206],[1.91568,50.78238],[1.916,50.78194],[1.91595,50.78146],[1.91538,50.78135],[1.91517,50.78149],[1.91475,50.78133],[1.9138,50.78057],[1.91268,50.78002],[1.91232,50.78038],[1.91109,50.78005],[1.91078,50.78031],[1.91011,50.78014],[1.90997,50.78043],[1.90965,50.78036],[1.91011,50.78086],[1.91196,50.78102],[1.9121,50.78074],[1.91259,50.78086],[1.91251,50.7811],[1.91289,50.78115],[1.91273,50.78128],[1.91258,50.78121],[1.91253,50.7814],[1.9115,50.78138],[1.91146,50.78232],[1.91187,50.78254]]]}},{"type":"Feature","properties":{"k":"PPH","s":0.556},"geometry":{"type":"Polygon","coordinates":[[[1.91561,50.78322],[1.91572,50.78242],[1.91648,50.78247],[1.91661,50.78191],[1.91604,50.78179],[1.9158,50.78232],[1.91534,50.78239],[1.91532,50.78303],[1.91503,50.78331],[1.91561,50.78322]]]}},{"type":"Feature","properties":{"k":"PPH","s":0.004},"geometry":{"type":"Polygon","coordinates":[[[1.89448,50.78879],[1.89448,50.78904],[1.89452,50.78879],[1.89448,50.78879]]]}},{"type":"Feature","properties":{"k":"ORH","s":2.053},"geometry":{"type":"Polygon","coordinates":[[[1.89967,50.77848],[1.90028,50.77798],[1.89963,50.77733],[1.89831,50.77783],[1.89905,50.77836],[1.89863,50.77881],[1.90246,50.77946],[1.90254,50.77935],[1.89967,50.77848]]]}},{"type":"Feature","properties":{"k":"BTA","s":0.067},"geometry":{"type":"Polygon","coordinates":[[[1.91059,50.78326],[1.91087,50.78327],[1.91083,50.78312],[1.91027,50.7831],[1.91031,50.78325],[1.91059,50.78326]]]}},{"type":"Feature","properties":{"k":"MIS","s":1.181},"geometry":{"type":"Polygon","coordinates":[[[1.91037,50.78512],[1.9131,50.78519],[1.91302,50.78477],[1.91037,50.78474],[1.90917,50.78481],[1.90924,50.78517],[1.91037,50.78512]]]}},{"type":"Feature","properties":{"k":"BTH","s":3.547},"geometry":{"type":"Polygon","coordinates":[[[1.90134,50.78109],[1.90139,50.78111],[1.90182,50.78109],[1.90253,50.77991],[1.90291,50.78001],[1.90223,50.78105],[1.90425,50.78069],[1.90469,50.78025],[1.90538,50.77992],[1.90079,50.77834],[1.90063,50.77853],[1.90267,50.77919],[1.90134,50.78109]]]}},{"type":"Feature","properties":{"k":"PPH","s":5.606},"geometry":{"type":"Polygon","coordinates":[[[1.90204,50.77393],[1.90102,50.7748],[1.90203,50.77526],[1.90132,50.77592],[1.9018,50.77629],[1.9021,50.77629],[1.90232,50.77596],[1.90293,50.77612],[1.90285,50.77645],[1.90341,50.77657],[1.90368,50.77607],[1.90326,50.77586],[1.90402,50.77524],[1.90359,50.77502],[1.90382,50.77485],[1.90486,50.775],[1.90464,50.77484],[1.90492,50.77476],[1.90484,50.77461],[1.90458,50.77466],[1.90421,50.77446],[1.90402,50.7746],[1.90361,50.77436],[1.90388,50.77417],[1.9042,50.77437],[1.90438,50.77428],[1.90399,50.77386],[1.90363,50.77404],[1.90193,50.77288],[1.90236,50.77261],[1.90208,50.77243],[1.9008,50.77334],[1.90204,50.77393]]]}},{"type":"Feature","properties":{"k":"PPH","s":1.403},"geometry":{"type":"Polygon","coordinates":[[[1.89628,50.77266],[1.89682,50.77194],[1.89636,50.77176],[1.89526,50.77296],[1.89662,50.77373],[1.89733,50.77304],[1.89628,50.77266]]]}},{"type":"Feature","properties":{"k":"BTH","s":2.371},"geometry":{"type":"Polygon","coordinates":[[[1.89041,50.77236],[1.89252,50.77322],[1.89308,50.77256],[1.89366,50.7728],[1.89392,50.77252],[1.89146,50.77145],[1.89041,50.77236]]]}},{"type":"Feature","properties":{"k":"BTH","s":0.398},"geometry":{"type":"Polygon","coordinates":[[[1.89617,50.77799],[1.89672,50.77774],[1.8952,50.77735],[1.89496,50.77749],[1.89617,50.77799]]]}},{"type":"Feature","properties":{"k":"PPH","s":11.873},"geometry":{"type":"Polygon","coordinates":[[[1.90408,50.78246],[1.90444,50.78247],[1.90487,50.78366],[1.90271,50.78416],[1.9028,50.78448],[1.9038,50.78492],[1.90446,50.78463],[1.90576,50.78447],[1.90653,50.78405],[1.90854,50.78366],[1.90759,50.78099],[1.9084,50.78086],[1.90754,50.77952],[1.90666,50.77989],[1.90677,50.78038],[1.90618,50.78021],[1.9062,50.78041],[1.90598,50.78042],[1.90608,50.78077],[1.90511,50.78079],[1.90468,50.78093],[1.90439,50.78074],[1.9052,50.78151],[1.90477,50.78159],[1.9049,50.78175],[1.90383,50.78177],[1.90408,50.78246]],[[1.90785,50.78016],[1.9076,50.78024],[1.90749,50.78001],[1.90771,50.77996],[1.90785,50.78016]]]}},{"type":"Feature","properties":{"k":"ORH","s":0.002},"geometry":{"type":"Polygon","coordinates":[]}},{"type":"Feature","properties":{"k":"PPH","s":0.015},"geometry":{"type":"Polygon","coordinates":[[[1.9126,50.78778],[1.9119,50.78777],[1.91327,50.78783],[1.9126,50.78778]]]}},{"type":"Feature","properties":{"k":"PPH","s":1.051},"geometry":{"type":"Polygon","coordinates":[[[1.91528,50.78261],[1.9153,50.78238],[1.9134,50.78207],[1.91304,50.78315],[1.91528,50.78261]]]}},{"type":"Feature","properties":{"k":"CZH","s":3.552},"geometry":{"type":"Polygon","coordinates":[[[1.90677,50.78744],[1.90879,50.78703],[1.90794,50.785],[1.9059,50.78529],[1.90677,50.78744]]]}},{"type":"Feature","properties":{"k":"PPH","s":0.004},"geometry":{"type":"Polygon","coordinates":[[[1.87809,50.77273],[1.87788,50.77268],[1.87826,50.77279],[1.87809,50.77273]]]}},{"type":"Feature","properties":{"k":"PPH","s":0.572},"geometry":{"type":"Polygon","coordinates":[[[1.87856,50.77286],[1.87899,50.77241],[1.87788,50.77201],[1.87737,50.77254],[1.87856,50.77286]]]}},{"type":"Feature","properties":{"k":"PPH","s":3.055},"geometry":{"type":"Polygon","coordinates":[[[1.88006,50.77104],[1.8795,50.77074],[1.87958,50.77064],[1.87848,50.77015],[1.87681,50.77145],[1.87906,50.77238],[1.87973,50.77175],[1.87946,50.7716],[1.88006,50.77104]]]}},{"type":"Feature","properties":{"k":"BTH","s":3.583},"geometry":{"type":"Polygon","coordinates":[[[1.87563,50.76942],[1.87587,50.76959],[1.8747,50.77043],[1.87678,50.77144],[1.87846,50.77014],[1.87631,50.769],[1.87563,50.76942]]]}},{"type":"Feature","properties":{"k":"BTH","s":1.724},"geometry":{"type":"Polygon","coordinates":[[[1.87785,50.76978],[1.87927,50.76874],[1.88005,50.76812],[1.87943,50.76765],[1.87712,50.76941],[1.87785,50.76978]]]}},{"type":"Feature","properties":{"k":"BTH","s":2.666},"geometry":{"type":"Polygon","coordinates":[[[1.87877,50.76688],[1.87607,50.76883],[1.87711,50.76941],[1.87968,50.76752],[1.87877,50.76688]]]}},{"type":"Feature","properties":{"k":"ORH","s":6.325},"geometry":{"type":"Polygon","coordinates":[[[1.87334,50.76598],[1.87174,50.76685],[1.87279,50.76789],[1.87138,50.76856],[1.87183,50.76924],[1.87219,50.76944],[1.87361,50.7688],[1.87335,50.76852],[1.87392,50.76816],[1.87367,50.76778],[1.87433,50.76826],[1.8747,50.768],[1.87439,50.7678],[1.87713,50.76583],[1.87643,50.7655],[1.87472,50.76679],[1.87334,50.76598]]]}},{"type":"Feature","properties":{"k":"PPH","s":0.766},"geometry":{"type":"Polygon","coordinates":[[[1.90223,50.78217],[1.90192,50.78119],[1.90127,50.78119],[1.90087,50.78137],[1.90106,50.78202],[1.90175,50.78196],[1.90157,50.78226],[1.90223,50.78217]]]}},{"type":"Feature","properties":{"k":"MIS","s":3.03},"geometry":{"type":"Polygon","coordinates":[[[1.87713,50.76583],[1.87445,50.76782],[1.87548,50.76845],[1.87822,50.76646],[1.87713,50.76583]]]}},{"type":"Feature","properties":{"k":"MIS","s":0.564},"geometry":{"type":"Polygon","coordinates":[[[1.87837,50.76626],[1.87825,50.76635],[1.87982,50.76758],[1.88032,50.76715],[1.87837,50.76626]]]}},{"type":"Feature","properties":{"k":"BTH","s":2.79},"geometry":{"type":"Polygon","coordinates":[[[1.87956,50.7661],[1.88266,50.76735],[1.88148,50.76852],[1.88175,50.76862],[1.88292,50.76748],[1.88371,50.76783],[1.88385,50.7677],[1.88353,50.76733],[1.88061,50.76595],[1.87886,50.76476],[1.87826,50.76517],[1.87956,50.7661]]]}},{"type":"Feature","properties":{"k":"MIS","s":0.161},"geometry":{"type":"Polygon","coordinates":[[[1.88057,50.76587],[1.88342,50.76718],[1.88336,50.76708],[1.88017,50.76562],[1.88057,50.76587]]]}},{"type":"Feature","properties":{"k":"PTR","s":1.306},"geometry":{"type":"Polygon","coordinates":[[[1.88278,50.76609],[1.88071,50.76515],[1.8802,50.76555],[1.88332,50.76695],[1.88278,50.76609]]]}},{"type":"Feature","properties":{"k":"MIS","s":1.791},"geometry":{"type":"Polygon","coordinates":[[[1.88509,50.76531],[1.88378,50.76485],[1.88258,50.76573],[1.88296,50.76619],[1.8838,50.76654],[1.88509,50.76531]]]}},{"type":"Feature","properties":{"k":"PTR","s":0.555},"geometry":{"type":"Polygon","coordinates":[[[1.88352,50.76707],[1.88417,50.76735],[1.88464,50.76692],[1.88301,50.76621],[1.88352,50.76707]]]}},{"type":"Feature","properties":{"k":"MIS","s":0.027},"geometry":{"type":"Polygon","coordinates":[[[1.8841,50.76742],[1.88376,50.76727],[1.88368,50.76732],[1.8841,50.76742]]]}},{"type":"Feature","properties":{"k":"AVP","s":0.896},"geometry":{"type":"Polygon","coordinates":[[[1.88292,50.76748],[1.88174,50.76862],[1.88243,50.76889],[1.88364,50.76779],[1.88292,50.76748]]]}},{"type":"Feature","properties":{"k":"MIS","s":1.275},"geometry":{"type":"Polygon","coordinates":[[[1.88386,50.76758],[1.88481,50.7685],[1.88591,50.76749],[1.88461,50.76695],[1.88386,50.76758]]]}},{"type":"Feature","properties":{"k":"MIS","s":3.12},"geometry":{"type":"Polygon","coordinates":[[[1.88503,50.77016],[1.88599,50.76929],[1.88488,50.76862],[1.88385,50.76772],[1.88246,50.7689],[1.88503,50.77016]]]}},{"type":"Feature","properties":{"k":"ORH","s":1.243},"geometry":{"type":"Polygon","coordinates":[[[1.88148,50.76852],[1.88264,50.76737],[1.88169,50.76697],[1.88052,50.76802],[1.88148,50.76852]]]}},{"type":"Feature","properties":{"k":"BTH","s":0.335},"geometry":{"type":"Polygon","coordinates":[[[1.88667,50.77306],[1.88741,50.77359],[1.88786,50.7733],[1.88694,50.77279],[1.88667,50.77306]]]}},{"type":"Feature","properties":{"k":"PTR","s":0.248},"geometry":{"type":"Polygon","coordinates":[[[1.89829,50.77263],[1.89871,50.77226],[1.89798,50.77185],[1.89802,50.7725],[1.89829,50.77263]]]}},{"type":"Feature","properties":{"k":"ORH","s":0.038},"geometry":{"type":"Polygon","coordinates":[[[1.89057,50.77467],[1.89069,50.77458],[1.89056,50.77439],[1.89035,50.77455],[1.89057,50.77467]]]}},{"type":"Feature","properties":{"k":"ORP","s":1.668},"geometry":{"type":"Polygon","coordinates":[[[1.88656,50.77258],[1.88754,50.77312],[1.88891,50.77209],[1.88867,50.77163],[1.88799,50.77132],[1.88656,50.77258]]]}},{"type":"Feature","properties":{"k":"BTH","s":0.592},"geometry":{"type":"Polygon","coordinates":[[[1.88987,50.77212],[1.89048,50.77154],[1.8895,50.77115],[1.889,50.77171],[1.88987,50.77212]]]}},{"type":"Feature","properties":{"k":"ORP","s":0.22},"geometry":{"type":"Polygon","coordinates":[[[1.88903,50.77222],[1.88891,50.77209],[1.88754,50.77312],[1.88769,50.77321],[1.88903,50.77222]]]}},{"type":"Feature","properties":{"k":"BTH","s":1.303},"geometry":{"type":"Polygon","coordinates":[[[1.8888,50.77383],[1.88977,50.77305],[1.88903,50.77222],[1.88769,50.77321],[1.8888,50.77383]]]}},{"type":"Feature","properties":{"k":"BTH","s":2.098},"geometry":{"type":"Polygon","coordinates":[[[1.89611,50.7787],[1.8954,50.77966],[1.89625,50.78048],[1.89744,50.78009],[1.89804,50.77948],[1.89611,50.7787]]]}},{"type":"Feature","properties":{"k":"ORP","s":1.209},"geometry":{"type":"Polygon","coordinates":[[[1.8892,50.77189],[1.88899,50.77208],[1.89021,50.77369],[1.89127,50.77282],[1.8892,50.77189]]]}},{"type":"Feature","properties":{"k":"ORP","s":0.149},"geometry":{"type":"Polygon","coordinates":[[[1.88026,50.76796],[1.87963,50.7675],[1.87943,50.76765],[1.88005,50.76812],[1.88026,50.76796]]]}},{"type":"Feature","properties":{"k":"MIS","s":1.188},"geometry":{"type":"Polygon","coordinates":[[[1.8784,50.77007],[1.88069,50.76824],[1.88026,50.76796],[1.87785,50.76978],[1.8784,50.77007]]]}},{"type":"Feature","properties":{"k":"BTH","s":2.589},"geometry":{"type":"Polygon","coordinates":[[[1.87964,50.77065],[1.88172,50.76869],[1.88069,50.76824],[1.87851,50.77012],[1.87964,50.77065]]]}},{"type":"Feature","properties":{"k":"BTH","s":1.602},"geometry":{"type":"Polygon","coordinates":[[[1.88246,50.76554],[1.88258,50.76573],[1.88378,50.76485],[1.88164,50.76318],[1.88246,50.76554]]]}},{"type":"Feature","properties":{"k":"MIS","s":3.86},"geometry":{"type":"Polygon","coordinates":[[[1.88173,50.76868],[1.8795,50.77074],[1.88116,50.77145],[1.8833,50.76939],[1.88173,50.76868]]]}},{"type":"Feature","properties":{"k":"PPH","s":0.282},"geometry":{"type":"Polygon","coordinates":[[[1.87953,50.77252],[1.88011,50.77193],[1.87973,50.77175],[1.87906,50.77238],[1.87953,50.77252]]]}},{"type":"Feature","properties":{"k":"PPH","s":0.206},"geometry":{"type":"Polygon","coordinates":[[[1.87826,50.77279],[1.87893,50.77298],[1.87947,50.77255],[1.87899,50.77241],[1.87854,50.77285],[1.87826,50.77279]]]}},{"type":"Feature","properties":{"k":"PPH","s":0.371},"geometry":{"type":"Polygon","coordinates":[[[1.88013,50.76479],[1.87952,50.76515],[1.88013,50.76558],[1.88071,50.76515],[1.88013,50.76479]]]}},{"type":"Feature","properties":{"k":"PPH","s":0.697},"geometry":{"type":"Polygon","coordinates":[[[1.8789,50.76472],[1.87951,50.76515],[1.88023,50.76473],[1.87973,50.76389],[1.8789,50.76472]]]}},{"type":"Feature","properties":{"k":"PPH","s":0.638},"geometry":{"type":"Polygon","coordinates":[[[1.87964,50.76382],[1.87945,50.7634],[1.8781,50.764],[1.87868,50.76452],[1.87964,50.76382]]]}},{"type":"Feature","properties":{"k":"PTR","s":0.682},"geometry":{"type":"Polygon","coordinates":[[[1.87953,50.77252],[1.88076,50.7729],[1.88122,50.77237],[1.88016,50.77195],[1.87953,50.77252]]]}},{"type":"Feature","properties":{"k":"PPH","s":0.966},"geometry":{"type":"Polygon","coordinates":[[[1.88082,50.77221],[1.88149,50.77161],[1.88014,50.77102],[1.8795,50.77161],[1.88082,50.77221]]]}},{"type":"Feature","properties":{"k":"PTR","s":0.995},"geometry":{"type":"Polygon","coordinates":[[[1.88207,50.77179],[1.88307,50.77215],[1.88396,50.77123],[1.88302,50.77083],[1.88207,50.77179]]]}},{"type":"Feature","properties":{"k":"PTR","s":1.067},"geometry":{"type":"Polygon","coordinates":[[[1.88311,50.77218],[1.88149,50.77161],[1.88082,50.77221],[1.88251,50.77279],[1.88311,50.77218]]]}},{"type":"Feature","properties":{"k":"PPH","s":2.194},"geometry":{"type":"Polygon","coordinates":[[[1.88125,50.77234],[1.88076,50.77289],[1.88271,50.77348],[1.88471,50.77176],[1.88385,50.7714],[1.88251,50.77279],[1.88125,50.77234]]]}},{"type":"Feature","properties":{"k":"PPH","s":2.417},"geometry":{"type":"Polygon","coordinates":[[[1.88406,50.77386],[1.88602,50.77235],[1.88473,50.77177],[1.88272,50.77348],[1.88406,50.77386]]]}},{"type":"Feature","properties":{"k":"MIS","s":1.102},"geometry":{"type":"Polygon","coordinates":[[[1.88496,50.77018],[1.88404,50.76978],[1.88302,50.77083],[1.88396,50.77123],[1.88496,50.77018]]]}},{"type":"Feature","properties":{"k":"MIS","s":1.899},"geometry":{"type":"Polygon","coordinates":[[[1.88209,50.77177],[1.88404,50.76977],[1.8833,50.7694],[1.88119,50.7714],[1.88209,50.77177]]]}},{"type":"Feature","properties":{"k":"BTH","s":1.134},"geometry":{"type":"Polygon","coordinates":[[[1.88685,50.77087],[1.88735,50.7704],[1.88628,50.76945],[1.88535,50.77029],[1.88685,50.77087]]]}},{"type":"Feature","properties":{"k":"BTH","s":0.602},"geometry":{"type":"Polygon","coordinates":[[[1.88714,50.77003],[1.88843,50.76898],[1.88792,50.76874],[1.88682,50.76974],[1.88714,50.77003]]]}},{"type":"Feature","properties":{"k":"BTH","s":0.421},"geometry":{"type":"Polygon","coordinates":[[[1.8883,50.76985],[1.88763,50.76959],[1.88714,50.77004],[1.88758,50.77054],[1.8883,50.76985]]]}},{"type":"Feature","properties":{"k":"SOG","s":0.248},"geometry":{"type":"Polygon","coordinates":[[[1.88773,50.77112],[1.88735,50.77041],[1.88685,50.77087],[1.88773,50.77112]]]}},{"type":"Feature","properties":{"k":"BTH","s":5.032},"geometry":{"type":"Polygon","coordinates":[[[1.90195,50.78117],[1.90271,50.78416],[1.90487,50.78366],[1.90444,50.78247],[1.90408,50.78246],[1.90383,50.78177],[1.9049,50.78175],[1.90411,50.78081],[1.90195,50.78117]]]}},{"type":"Feature","properties":{"k":"MIS","s":1.707},"geometry":{"type":"Polygon","coordinates":[[[1.88631,50.77074],[1.88494,50.77019],[1.88385,50.77136],[1.88509,50.77191],[1.88631,50.77074]]]}},{"type":"Feature","properties":{"k":"PHF","s":0.0},"geometry":{"type":"Polygon","coordinates":[[[1.89525,50.78224],[1.89526,50.78224],[1.89525,50.78213],[1.89525,50.78224]]]}},{"type":"Feature","properties":{"k":"ORP","s":0.945},"geometry":{"type":"Polygon","coordinates":[[[1.89232,50.77324],[1.89075,50.77455],[1.89114,50.77496],[1.89291,50.77342],[1.89232,50.77324]]]}},{"type":"Feature","properties":{"k":"BTH","s":2.34},"geometry":{"type":"Polygon","coordinates":[[[1.89851,50.77894],[1.89905,50.77836],[1.89831,50.77783],[1.89963,50.77733],[1.89937,50.77707],[1.89844,50.77724],[1.89684,50.77781],[1.89631,50.7781],[1.89626,50.77828],[1.89851,50.77894]]]}},{"type":"Feature","properties":{"k":"BTH","s":6.253},"geometry":{"type":"Polygon","coordinates":[[[1.90589,50.78527],[1.90312,50.78569],[1.90337,50.78678],[1.90284,50.78682],[1.90291,50.78806],[1.90415,50.788],[1.90679,50.78746],[1.90589,50.78527]]]}},{"type":"Feature","properties":{"k":"BTP","s":2.627},"geometry":{"type":"Polygon","coordinates":[[[1.90111,50.78759],[1.90136,50.78773],[1.9001,50.78787],[1.90022,50.78845],[1.90206,50.78821],[1.90272,50.78762],[1.90255,50.78648],[1.90196,50.78633],[1.90079,50.78636],[1.90111,50.78759]]]}},{"type":"Feature","properties":{"k":"BTH","s":1.646},"geometry":{"type":"MultiPolygon","coordinates":[[[[1.91807,50.78718],[1.91855,50.78599],[1.91663,50.7858],[1.91644,50.78689],[1.91807,50.78718]]],[[[1.91848,50.78721],[1.9186,50.78719],[1.91808,50.78718],[1.91848,50.78721]]]]}},{"type":"Feature","properties":{"k":"BTH","s":1.183},"geometry":{"type":"Polygon","coordinates":[[[1.9196,50.78385],[1.91925,50.78539],[1.91995,50.78544],[1.92076,50.78405],[1.9196,50.78385]]]}},{"type":"Feature","properties":{"k":"PHF","s":6.003},"geometry":{"type":"Polygon","coordinates":[[[1.92129,50.78324],[1.91618,50.78324],[1.91613,50.78506],[1.91925,50.78539],[1.9196,50.78385],[1.92074,50.78405],[1.92129,50.78324]]]}},{"type":"Feature","properties":{"k":"MIS","s":13.243},"geometry":{"type":"Polygon","coordinates":[[[1.8988,50.77091],[1.89798,50.77185],[1.89872,50.77222],[1.89924,50.77225],[1.89949,50.77205],[1.90008,50.77237],[1.90104,50.77164],[1.9021,50.77244],[1.90326,50.77174],[1.9014,50.77043],[1.90064,50.77103],[1.89767,50.77001],[1.89839,50.76915],[1.89646,50.76847],[1.89442,50.76798],[1.89296,50.77009],[1.89623,50.77128],[1.89712,50.77032],[1.8988,50.77091]]]}},{"type":"Feature","properties":{"k":"CZH","s":0.99},"geometry":{"type":"Polygon","coordinates":[[[1.8987,50.77034],[1.89965,50.76956],[1.89839,50.76915],[1.89771,50.76996],[1.8987,50.77034]]]}},{"type":"Feature","properties":{"k":"BTN","s":1.52},"geometry":{"type":"Polygon","coordinates":[[[1.90068,50.771],[1.9014,50.77043],[1.89969,50.76957],[1.89875,50.77036],[1.90068,50.771]]]}},{"type":"Feature","properties":{"k":"PPH","s":0.0},"geometry":{"type":"Polygon","coordinates":[]}},{"type":"Feature","properties":{"k":"MIS","s":0.76},"geometry":{"type":"Polygon","coordinates":[[[1.89671,50.78661],[1.89626,50.78661],[1.89639,50.78877],[1.89685,50.78874],[1.89671,50.78661]]]}},{"type":"Feature","properties":{"k":"MIS","s":0.888},"geometry":{"type":"Polygon","coordinates":[[[1.88763,50.77055],[1.88788,50.77114],[1.88893,50.77168],[1.8895,50.77114],[1.8878,50.77039],[1.88763,50.77055]]]}},{"type":"Feature","properties":{"k":"ORH","s":0.361},"geometry":{"type":"Polygon","coordinates":[[[1.89011,50.77459],[1.89028,50.77451],[1.89053,50.7743],[1.89016,50.77372],[1.88951,50.77425],[1.89011,50.77459]]]}},{"type":"Feature","properties":{"k":"PPH","s":1.245},"geometry":{"type":"Polygon","coordinates":[[[1.87426,50.75774],[1.87539,50.75874],[1.8759,50.75849],[1.87577,50.75831],[1.87466,50.75761],[1.87354,50.75619],[1.87301,50.75637],[1.87426,50.75774]]]}},{"type":"Feature","properties":{"k":"BTH","s":0.029},"geometry":{"type":"Polygon","coordinates":[[[1.8735,50.75617],[1.87391,50.75655],[1.87326,50.75578],[1.8735,50.75617]]]}},{"type":"Feature","properties":{"k":"PPH","s":0.707},"geometry":{"type":"Polygon","coordinates":[[[1.873,50.75634],[1.8735,50.75617],[1.87228,50.75495],[1.87183,50.75522],[1.873,50.75634]]]}},{"type":"Feature","properties":{"k":"BTH","s":0.289},"geometry":{"type":"Polygon","coordinates":[[[1.87041,50.75422],[1.87081,50.75398],[1.86888,50.75303],[1.87041,50.75422]]]}},{"type":"Feature","properties":{"k":"MIS","s":0.535},"geometry":{"type":"Polygon","coordinates":[[[1.86763,50.75202],[1.86697,50.7513],[1.86577,50.75207],[1.86763,50.75202]]]}},{"type":"Feature","properties":{"k":"MIS","s":0.137},"geometry":{"type":"Polygon","coordinates":[[[1.89778,50.77087],[1.89669,50.77186],[1.89684,50.77191],[1.89778,50.77087]]]}},{"type":"Feature","properties":{"k":"PPH","s":0.256},"geometry":{"type":"Polygon","coordinates":[[[1.91154,50.78324],[1.91204,50.78316],[1.91178,50.7826],[1.91135,50.78236],[1.91154,50.78324]]]}},{"type":"Feature","properties":{"k":"PTR","s":3.206},"geometry":{"type":"Polygon","coordinates":[[[1.89496,50.77749],[1.89561,50.7771],[1.89571,50.77672],[1.89651,50.77658],[1.89685,50.77669],[1.89724,50.77596],[1.89456,50.7754],[1.89373,50.77666],[1.89424,50.77681],[1.89395,50.77713],[1.89496,50.77749]]]}},{"type":"Feature","properties":{"k":"BTH","s":2.017},"geometry":{"type":"Polygon","coordinates":[[[1.89631,50.77264],[1.89741,50.77304],[1.89802,50.7725],[1.89798,50.77185],[1.8988,50.77091],[1.89798,50.77062],[1.89631,50.77264]]]}},{"type":"Feature","properties":{"k":"AVP","s":1.557},"geometry":{"type":"Polygon","coordinates":[[[1.88786,50.7733],[1.8874,50.7736],[1.88921,50.77474],[1.89016,50.77372],[1.88977,50.77305],[1.8888,50.77383],[1.88786,50.7733]]]}},{"type":"Feature","properties":{"k":"PPH","s":1.873},"geometry":{"type":"Polygon","coordinates":[[[1.8874,50.7736],[1.88622,50.77447],[1.8884,50.77535],[1.88921,50.77474],[1.8874,50.7736]]]}},{"type":"Feature","properties":{"k":"PPH","s":0.015},"geometry":{"type":"Polygon","coordinates":[[[1.89482,50.78946],[1.89443,50.7905],[1.89486,50.78946],[1.89482,50.78946]]]}},{"type":"Feature","properties":{"k":"PPH","s":3.7},"geometry":{"type":"Polygon","coordinates":[[[1.898,50.78958],[1.90023,50.78921],[1.90198,50.78833],[1.89752,50.78877],[1.89453,50.78882],[1.89449,50.78925],[1.898,50.78958]]]}},{"type":"Feature","properties":{"k":"BTH","s":7.737},"geometry":{"type":"Polygon","coordinates":[[[1.89596,50.7914],[1.8956,50.79182],[1.89563,50.79212],[1.90073,50.79287],[1.90109,50.79225],[1.90027,50.79205],[1.90048,50.79126],[1.90135,50.79028],[1.89586,50.79069],[1.89596,50.7914]]]}},{"type":"Feature","properties":{"k":"PPH","s":1.231},"geometry":{"type":"MultiPolygon","coordinates":[[[[1.899,50.79265],[1.89563,50.79212],[1.89565,50.79234],[1.90068,50.79315],[1.90073,50.79287],[1.899,50.79265]]],[[[1.89596,50.7914],[1.89586,50.79069],[1.89549,50.79071],[1.8956,50.79182],[1.89596,50.7914]]]]}},{"type":"Feature","properties":{"k":"PPR","s":0.54},"geometry":{"type":"Polygon","coordinates":[[[1.89395,50.77713],[1.89424,50.77681],[1.89279,50.77638],[1.89249,50.77683],[1.89395,50.77713]]]}},{"type":"Feature","properties":{"k":"PPH","s":1.889},"geometry":{"type":"Polygon","coordinates":[[[1.89701,50.7742],[1.89797,50.77447],[1.89855,50.77382],[1.89779,50.77353],[1.8987,50.7728],[1.89923,50.77301],[1.90008,50.77237],[1.89953,50.77207],[1.89925,50.77229],[1.89875,50.77226],[1.89739,50.77343],[1.8965,50.77468],[1.89701,50.7742]]]}},{"type":"Feature","properties":{"k":"ORP","s":0.369},"geometry":{"type":"Polygon","coordinates":[[[1.90221,50.78107],[1.90291,50.78001],[1.90253,50.77991],[1.90181,50.7811],[1.90221,50.78107]]]}},{"type":"Feature","properties":{"k":"PPH","s":3.691},"geometry":{"type":"Polygon","coordinates":[[[1.90027,50.77556],[1.90092,50.77514],[1.90115,50.77489],[1.90099,50.77477],[1.90202,50.77395],[1.90076,50.77336],[1.90209,50.77243],[1.90107,50.77166],[1.89924,50.77302],[1.89971,50.77327],[1.89999,50.77299],[1.90056,50.77324],[1.89969,50.77425],[1.90034,50.77452],[1.90003,50.77499],[1.9004,50.77514],[1.90027,50.77556]]]}},{"type":"Feature","properties":{"k":"MIS","s":0.668},"geometry":{"type":"Polygon","coordinates":[[[1.8948,50.78133],[1.89576,50.78005],[1.8954,50.77967],[1.89438,50.78112],[1.8948,50.78133]]]}},{"type":"Feature","properties":{"k":"PTR","s":1.631},"geometry":{"type":"Polygon","coordinates":[[[1.91613,50.78506],[1.91617,50.78398],[1.9154,50.78395],[1.91531,50.78434],[1.91304,50.78424],[1.91304,50.78473],[1.91613,50.78506]]]}},{"type":"Feature","properties":{"k":"MIS","s":0.376},"geometry":{"type":"Polygon","coordinates":[[[1.91544,50.78334],[1.91542,50.78391],[1.91617,50.78393],[1.91611,50.78324],[1.91544,50.78334]]]}},{"type":"Feature","properties":{"k":"PPH","s":0.604},"geometry":{"type":"Polygon","coordinates":[[[1.90484,50.78465],[1.9037,50.78499],[1.90375,50.78548],[1.90511,50.7853],[1.90484,50.78465]]]}},{"type":"Feature","properties":{"k":"MIS","s":1.039},"geometry":{"type":"Polygon","coordinates":[[[1.89813,50.78643],[1.9002,50.78628],[1.90007,50.78586],[1.89976,50.78574],[1.89789,50.78577],[1.89813,50.78643]]]}},{"type":"Feature","properties":{"k":"MIS","s":0.832},"geometry":{"type":"Polygon","coordinates":[[[1.89809,50.77941],[1.8985,50.77895],[1.89627,50.77833],[1.89608,50.77868],[1.89809,50.77941]]]}},{"type":"Feature","properties":{"k":"PPH","s":0.01},"geometry":{"type":"MultiPolygon","coordinates":[[[[1.89698,50.78494],[1.89744,50.78498],[1.89739,50.78486],[1.89698,50.78494]]]]}},{"type":"Feature","properties":{"k":"MIS","s":2.092},"geometry":{"type":"Polygon","coordinates":[[[1.88799,50.77132],[1.88632,50.77077],[1.88512,50.77192],[1.88656,50.77258],[1.88799,50.77132]]]}},{"type":"Feature","properties":{"k":"PPH","s":1.414},"geometry":{"type":"Polygon","coordinates":[[[1.89965,50.78482],[1.89758,50.78513],[1.898,50.78644],[1.89789,50.78577],[1.89996,50.7858],[1.89965,50.78482]]]}},{"type":"Feature","properties":{"k":"MIS","s":4.134},"geometry":{"type":"Polygon","coordinates":[[[1.90027,50.78337],[1.89653,50.78371],[1.89678,50.78487],[1.89739,50.78486],[1.89757,50.78511],[1.89947,50.78484],[1.90043,50.78458],[1.90027,50.78337]]]}},{"type":"Feature","properties":{"k":"PPH","s":3.823},"geometry":{"type":"Polygon","coordinates":[[[1.90764,50.78098],[1.90826,50.7828],[1.90874,50.78268],[1.90898,50.78329],[1.90994,50.78312],[1.90975,50.78254],[1.91009,50.78247],[1.91027,50.7831],[1.91083,50.78312],[1.9106,50.78235],[1.911,50.78224],[1.91034,50.78195],[1.90916,50.78192],[1.90918,50.78154],[1.91021,50.78157],[1.90975,50.78066],[1.90764,50.78098]]]}},{"type":"Feature","properties":{"k":"AME","s":11.862},"geometry":{"type":"Polygon","coordinates":[[[1.91367,50.78477],[1.91306,50.78476],[1.91313,50.78523],[1.9152,50.78535],[1.90923,50.7852],[1.90914,50.78482],[1.90793,50.78499],[1.90879,50.78703],[1.91185,50.78663],[1.91629,50.78687],[1.91659,50.78582],[1.91613,50.78575],[1.91855,50.78599],[1.91879,50.7854],[1.91367,50.78477]]]}}]}