{"type":"FeatureCollection","features":[{"type":"Feature","properties":{"k":"BTH","s":6.958},"geometry":{"type":"Polygon","coordinates":[[[2.20108,50.44933],[2.20019,50.44956],[2.20069,50.45087],[2.20478,50.45039],[2.20461,50.45001],[2.20562,50.44983],[2.2058,50.4502],[2.20682,50.45003],[2.20622,50.44942],[2.20447,50.44981],[2.20294,50.44895],[2.20664,50.44728],[2.20594,50.44719],[2.20108,50.44933]]]}},{"type":"Feature","properties":{"k":"JAC","s":0.106},"geometry":{"type":"Polygon","coordinates":[[[2.20579,50.45021],[2.20575,50.45009],[2.20473,50.45026],[2.20489,50.45036],[2.20579,50.45021]]]}},{"type":"Feature","properties":{"k":"BTH","s":2.433},"geometry":{"type":"Polygon","coordinates":[[[2.20543,50.4479],[2.20294,50.44895],[2.20447,50.44981],[2.20598,50.44947],[2.20516,50.44871],[2.20611,50.4483],[2.20543,50.4479]]]}},{"type":"Feature","properties":{"k":"PTR","s":1.08},"geometry":{"type":"Polygon","coordinates":[[[2.20516,50.44871],[2.20598,50.44947],[2.20742,50.44907],[2.2061,50.4483],[2.20516,50.44871]]]}},{"type":"Feature","properties":{"k":"BTH","s":0.312},"geometry":{"type":"Polygon","coordinates":[[[2.20705,50.45034],[2.20801,50.45037],[2.20776,50.44985],[2.20687,50.4501],[2.20705,50.45034]]]}},{"type":"Feature","properties":{"k":"MIS","s":0.427},"geometry":{"type":"Polygon","coordinates":[[[2.20881,50.45035],[2.20843,50.44949],[2.20778,50.44985],[2.20804,50.45036],[2.20881,50.45035]]]}},{"type":"Feature","properties":{"k":"MIS","s":0.105},"geometry":{"type":"Polygon","coordinates":[[[2.20757,50.44953],[2.20774,50.4498],[2.20822,50.44953],[2.20789,50.44938],[2.20757,50.44953]]]}},{"type":"Feature","properties":{"k":"BTH","s":0.723},"geometry":{"type":"Polygon","coordinates":[[[2.20774,50.4498],[2.20757,50.44953],[2.20796,50.44942],[2.20738,50.44909],[2.20621,50.44942],[2.20682,50.45004],[2.20774,50.4498]]]}},{"type":"Feature","properties":{"k":"LIF","s":3.922},"geometry":{"type":"Polygon","coordinates":[[[2.20813,50.44948],[2.20979,50.44862],[2.20841,50.44794],[2.20843,50.44742],[2.20669,50.44727],[2.20545,50.4479],[2.20813,50.44948]]]}},{"type":"Feature","properties":{"k":"BTN","s":1.155},"geometry":{"type":"Polygon","coordinates":[[[2.20668,50.44727],[2.20841,50.44742],[2.20827,50.44699],[2.20698,50.44661],[2.20606,50.44658],[2.20596,50.44719],[2.20668,50.44727]]]}},{"type":"Feature","properties":{"k":"BTH","s":0.826},"geometry":{"type":"Polygon","coordinates":[[[2.20867,50.44712],[2.20938,50.44754],[2.21125,50.44806],[2.21125,50.44791],[2.20897,50.44687],[2.20867,50.44712]]]}},{"type":"Feature","properties":{"k":"PPH","s":2.713},"geometry":{"type":"Polygon","coordinates":[[[2.21269,50.44892],[2.21321,50.4485],[2.21148,50.44819],[2.20964,50.44881],[2.20852,50.44942],[2.20867,50.44987],[2.21269,50.44892]]]}},{"type":"Feature","properties":{"k":"PPH","s":1.315},"geometry":{"type":"Polygon","coordinates":[[[2.21311,50.44725],[2.21145,50.4481],[2.21387,50.44852],[2.21414,50.44862],[2.21311,50.44725]]]}},{"type":"Feature","properties":{"k":"PPH","s":1.151},"geometry":{"type":"Polygon","coordinates":[[[2.21489,50.44672],[2.2141,50.44664],[2.21326,50.4463],[2.21304,50.44697],[2.21369,50.44769],[2.21499,50.44693],[2.21489,50.44672]]]}},{"type":"Feature","properties":{"k":"PPH","s":1.377},"geometry":{"type":"Polygon","coordinates":[[[2.21489,50.44859],[2.21561,50.44776],[2.21507,50.44744],[2.215,50.44694],[2.21365,50.44771],[2.21451,50.44873],[2.21489,50.44859]]]}},{"type":"Feature","properties":{"k":"PPH","s":2.518},"geometry":{"type":"Polygon","coordinates":[[[2.21131,50.44783],[2.21068,50.4471],[2.21204,50.4466],[2.21133,50.44616],[2.20906,50.44637],[2.20802,50.44576],[2.20751,50.44576],[2.20748,50.44606],[2.21131,50.44783]]]}},{"type":"Feature","properties":{"k":"MIS","s":0.916},"geometry":{"type":"Polygon","coordinates":[[[2.21738,50.44399],[2.21723,50.4441],[2.22008,50.44562],[2.22177,50.44599],[2.22191,50.44586],[2.22044,50.44536],[2.21738,50.44399]]]}},{"type":"Feature","properties":{"k":"PPH","s":0.723},"geometry":{"type":"Polygon","coordinates":[[[2.21724,50.4464],[2.21662,50.44586],[2.21575,50.44645],[2.21643,50.44706],[2.21724,50.4464]]]}},{"type":"Feature","properties":{"k":"FLA","s":1.49},"geometry":{"type":"Polygon","coordinates":[[[2.21719,50.44635],[2.21742,50.44636],[2.21915,50.44517],[2.21828,50.44473],[2.21663,50.44587],[2.21719,50.44635]]]}},{"type":"Feature","properties":{"k":"BTA","s":0.198},"geometry":{"type":"Polygon","coordinates":[[[2.21552,50.44742],[2.21529,50.44675],[2.21542,50.44752],[2.21705,50.44807],[2.21552,50.44742]]]}},{"type":"Feature","properties":{"k":"MIS","s":1.589},"geometry":{"type":"Polygon","coordinates":[[[2.21552,50.44742],[2.21708,50.44798],[2.21759,50.44655],[2.21722,50.44643],[2.21649,50.44708],[2.21575,50.44645],[2.21529,50.44675],[2.21552,50.44742]]]}},{"type":"Feature","properties":{"k":"PPH","s":3.265},"geometry":{"type":"Polygon","coordinates":[[[2.21756,50.44692],[2.2171,50.44807],[2.21761,50.44837],[2.2189,50.44837],[2.21948,50.44861],[2.22137,50.44758],[2.21756,50.44692]]]}},{"type":"Feature","properties":{"k":"JAC","s":0.796},"geometry":{"type":"Polygon","coordinates":[[[2.22239,50.44865],[2.22492,50.44821],[2.22534,50.44908],[2.22623,50.44935],[2.22669,50.44978],[2.22814,50.45037],[2.22896,50.45043],[2.22942,50.45068],[2.22948,50.45054],[2.22912,50.45015],[2.22817,50.45028],[2.22787,50.45002],[2.22677,50.4497],[2.22641,50.4493],[2.2255,50.44906],[2.22499,50.44813],[2.22234,50.44859],[2.22104,50.449],[2.22099,50.44925],[2.22239,50.44865]]]}},{"type":"Feature","properties":{"k":"MLG","s":8.477},"geometry":{"type":"Polygon","coordinates":[[[2.22942,50.45068],[2.22922,50.45053],[2.22814,50.45037],[2.22669,50.44978],[2.22623,50.44935],[2.22534,50.44908],[2.22492,50.44821],[2.22239,50.44865],[2.22091,50.44924],[2.22091,50.44935],[2.22533,50.45035],[2.22585,50.45107],[2.22646,50.45132],[2.22731,50.45112],[2.22806,50.45145],[2.22899,50.45149],[2.22942,50.45068]]]}},{"type":"Feature","properties":{"k":"PPH","s":21.109},"geometry":{"type":"MultiPolygon","coordinates":[[[[2.21965,50.44865],[2.22093,50.44881],[2.22422,50.44796],[2.22487,50.44796],[2.22522,50.44813],[2.22542,50.44885],[2.2266,50.44923],[2.22699,50.44965],[2.22849,50.45017],[2.2291,50.45003],[2.2296,50.45016],[2.22968,50.45034],[2.23029,50.45034],[2.23136,50.45061],[2.23229,50.45058],[2.23299,50.45086],[2.23355,50.4504],[2.23588,50.44948],[2.23592,50.44938],[2.22732,50.44779],[2.22402,50.44667],[2.2236,50.44666],[2.21989,50.4456],[2.21919,50.44521],[2.21741,50.44643],[2.21772,50.44652],[2.219,50.44624],[2.22109,50.44638],[2.22143,50.44644],[2.22245,50.44698],[2.21965,50.44865]]]]}},{"type":"Feature","properties":{"k":"PHF","s":9.691},"geometry":{"type":"Polygon","coordinates":[[[2.21807,50.44415],[2.22041,50.44518],[2.22389,50.44648],[2.22521,50.4452],[2.2193,50.44259],[2.21772,50.44375],[2.21824,50.44401],[2.21807,50.44415]]]}},{"type":"Feature","properties":{"k":"BTH","s":2.91},"geometry":{"type":"Polygon","coordinates":[[[2.22346,50.4443],[2.22553,50.44241],[2.22397,50.44207],[2.22187,50.4436],[2.22346,50.4443]]]}},{"type":"Feature","properties":{"k":"BTH","s":7.049},"geometry":{"type":"Polygon","coordinates":[[[2.22688,50.4458],[2.22816,50.44627],[2.22877,50.44444],[2.22696,50.44368],[2.22495,50.44288],[2.22347,50.4443],[2.22688,50.4458]],[[2.22553,50.44377],[2.22483,50.44371],[2.22476,50.44359],[2.22571,50.44368],[2.22563,50.44412],[2.22553,50.44377]]]}},{"type":"Feature","properties":{"k":"BTH","s":1.71},"geometry":{"type":"Polygon","coordinates":[[[2.22667,50.4397],[2.22732,50.43916],[2.22689,50.43903],[2.22575,50.44011],[2.22529,50.44001],[2.22323,50.44169],[2.22305,50.44159],[2.22283,50.44176],[2.22368,50.44201],[2.22667,50.4397]]]}},{"type":"Feature","properties":{"k":"MIS","s":2.136},"geometry":{"type":"Polygon","coordinates":[[[2.22732,50.43916],[2.22373,50.44197],[2.22446,50.44217],[2.22805,50.43935],[2.22732,50.43916]]]}},{"type":"Feature","properties":{"k":"BTH","s":5.665},"geometry":{"type":"Polygon","coordinates":[[[2.22397,50.44207],[2.22282,50.44178],[2.22063,50.44056],[2.21929,50.44196],[2.21979,50.44223],[2.21949,50.44246],[2.21967,50.44263],[2.22185,50.44359],[2.22397,50.44207]]]}},{"type":"Feature","properties":{"k":"MIS","s":0.018},"geometry":{"type":"Polygon","coordinates":[[[2.21949,50.44246],[2.21941,50.44251],[2.21967,50.44263],[2.21949,50.44246]]]}},{"type":"Feature","properties":{"k":"PHF","s":1.456},"geometry":{"type":"Polygon","coordinates":[[[2.24323,50.4356],[2.24411,50.4358],[2.24559,50.43399],[2.24467,50.43376],[2.24323,50.4356]]]}},{"type":"Feature","properties":{"k":"BTH","s":0.64},"geometry":{"type":"Polygon","coordinates":[[[2.24467,50.43376],[2.24559,50.43399],[2.24617,50.43339],[2.2453,50.43298],[2.24467,50.43376]]]}},{"type":"Feature","properties":{"k":"BTH","s":6.006},"geometry":{"type":"Polygon","coordinates":[[[2.24529,50.43298],[2.24442,50.43257],[2.24305,50.43393],[2.24031,50.43324],[2.24017,50.43521],[2.24351,50.43524],[2.24529,50.43298]]]}},{"type":"Feature","properties":{"k":"BTH","s":3.06},"geometry":{"type":"Polygon","coordinates":[[[2.24004,50.43527],[2.24021,50.43321],[2.23899,50.4329],[2.2378,50.43517],[2.24004,50.43527]]]}},{"type":"Feature","properties":{"k":"MIS","s":10.14},"geometry":{"type":"Polygon","coordinates":[[[2.22907,50.43943],[2.23096,50.44029],[2.23375,50.43907],[2.23278,50.43659],[2.22979,50.43789],[2.22713,50.43852],[2.22658,50.43882],[2.22907,50.43943]]]}},{"type":"Feature","properties":{"k":"BTN","s":0.297},"geometry":{"type":"MultiPolygon","coordinates":[[[[2.2342,50.43573],[2.2356,50.4349],[2.23199,50.43688],[2.23001,50.43775],[2.23205,50.43693],[2.2342,50.43573]]],[[[2.22683,50.43864],[2.22638,50.43886],[2.22644,50.43887],[2.22683,50.43864]]]]}},{"type":"Feature","properties":{"k":"MIS","s":12.001},"geometry":{"type":"Polygon","coordinates":[[[2.23278,50.43659],[2.23375,50.43907],[2.23564,50.4395],[2.23859,50.43527],[2.23564,50.43497],[2.23278,50.43659]]]}},{"type":"Feature","properties":{"k":"BTH","s":6.804},"geometry":{"type":"MultiPolygon","coordinates":[[[[2.2433,50.43531],[2.24305,50.4353],[2.24307,50.43567],[2.2433,50.43531]]],[[[2.23859,50.43527],[2.23564,50.4395],[2.23629,50.43963],[2.23939,50.43916],[2.23848,50.43803],[2.23847,50.43784],[2.23885,50.43771],[2.23813,50.43661],[2.23922,50.43618],[2.23967,50.4366],[2.24088,50.43628],[2.24033,50.43608],[2.24021,50.43559],[2.24047,50.43531],[2.23859,50.43527]]]]}},{"type":"Feature","properties":{"k":"MIS","s":2.139},"geometry":{"type":"Polygon","coordinates":[[[2.23619,50.43962],[2.23375,50.43907],[2.23268,50.4396],[2.23609,50.44057],[2.23619,50.43962]]]}},{"type":"Feature","properties":{"k":"ORH","s":2.453},"geometry":{"type":"Polygon","coordinates":[[[2.23625,50.43965],[2.23622,50.44041],[2.23922,50.44048],[2.23942,50.4392],[2.23625,50.43965]]]}},{"type":"Feature","properties":{"k":"PHF","s":4.041},"geometry":{"type":"Polygon","coordinates":[[[2.238,50.4425],[2.23918,50.44052],[2.23625,50.44046],[2.23546,50.44199],[2.238,50.4425]]]}},{"type":"Feature","properties":{"k":"PTC","s":0.039},"geometry":{"type":"Polygon","coordinates":[[[2.2382,50.44218],[2.23803,50.44251],[2.2381,50.44251],[2.23918,50.44053],[2.2382,50.44218]]]}},{"type":"Feature","properties":{"k":"BTH","s":9.963},"geometry":{"type":"Polygon","coordinates":[[[2.23544,50.44185],[2.23396,50.44153],[2.23104,50.44046],[2.2309,50.44027],[2.2289,50.43944],[2.22805,50.43934],[2.22668,50.44042],[2.23468,50.44335],[2.23544,50.44185]]]}},{"type":"Feature","properties":{"k":"CZH","s":4.678},"geometry":{"type":"Polygon","coordinates":[[[2.23605,50.44062],[2.23268,50.4396],[2.2309,50.44027],[2.23104,50.44046],[2.23396,50.44153],[2.23544,50.44185],[2.23605,50.44062]]]}},{"type":"Feature","properties":{"k":"LIF","s":11.292},"geometry":{"type":"Polygon","coordinates":[[[2.22492,50.44179],[2.23408,50.4446],[2.23468,50.44335],[2.22668,50.44042],[2.22492,50.44179]],[[2.22694,50.44128],[2.22708,50.44119],[2.22893,50.44211],[2.2288,50.4423],[2.22694,50.44128]]]}},{"type":"Feature","properties":{"k":"ORH","s":16.497},"geometry":{"type":"Polygon","coordinates":[[[2.23408,50.4446],[2.22492,50.44179],[2.22446,50.44217],[2.22553,50.44241],[2.22495,50.44288],[2.22877,50.44444],[2.22816,50.44627],[2.23263,50.44742],[2.23408,50.4446]]]}},{"type":"Feature","properties":{"k":"ORH","s":8.979},"geometry":{"type":"Polygon","coordinates":[[[2.235,50.44815],[2.22678,50.44593],[2.22619,50.4465],[2.22572,50.44665],[2.22439,50.44662],[2.22625,50.44729],[2.2289,50.448],[2.23506,50.44903],[2.235,50.44815]]]}},{"type":"Feature","properties":{"k":"JAC","s":0.0},"geometry":{"type":"Polygon","coordinates":[[[2.23612,50.44848],[2.2361,50.44841],[2.23608,50.44841],[2.23612,50.44848]]]}},{"type":"Feature","properties":{"k":"PPH","s":0.502},"geometry":{"type":"Polygon","coordinates":[[[2.23562,50.44832],[2.235,50.44815],[2.23506,50.44903],[2.23591,50.44917],[2.23562,50.44832]]]}},{"type":"Feature","properties":{"k":"PPH","s":0.077},"geometry":{"type":"MultiPolygon","coordinates":[[[[2.23573,50.45088],[2.23591,50.45087],[2.23593,50.45074],[2.23568,50.45075],[2.23573,50.45088]]],[[[2.2376,50.45128],[2.23761,50.45122],[2.23692,50.45117],[2.23605,50.45123],[2.2376,50.45128]]],[[[2.23611,50.45021],[2.23607,50.45028],[2.23612,50.45028],[2.23611,50.45021]]]]}},{"type":"Feature","properties":{"k":"LIF","s":5.176},"geometry":{"type":"Polygon","coordinates":[[[2.2329,50.44749],[2.23575,50.44822],[2.23588,50.44716],[2.23545,50.44706],[2.23589,50.4471],[2.23603,50.44595],[2.23629,50.44577],[2.23391,50.44521],[2.2329,50.44749]]]}},{"type":"Feature","properties":{"k":"BTH","s":8.768},"geometry":{"type":"Polygon","coordinates":[[[2.23544,50.44199],[2.23391,50.44521],[2.23629,50.44577],[2.23832,50.44431],[2.23803,50.44251],[2.23544,50.44199]]]}},{"type":"Feature","properties":{"k":"BTH","s":0.094},"geometry":{"type":"Polygon","coordinates":[[[2.24317,50.43725],[2.24352,50.43671],[2.24313,50.43663],[2.24317,50.43725]]]}},{"type":"Feature","properties":{"k":"ORH","s":0.577},"geometry":{"type":"Polygon","coordinates":[[[2.24313,50.43663],[2.24352,50.43671],[2.24411,50.4358],[2.24323,50.4356],[2.24313,50.43663]]]}},{"type":"Feature","properties":{"k":"MLG","s":0.04},"geometry":{"type":"Polygon","coordinates":[[[2.23784,50.45763],[2.23834,50.45697],[2.23784,50.45758],[2.2374,50.45934],[2.23784,50.45763]]]}},{"type":"Feature","properties":{"k":"PPH","s":5.802},"geometry":{"type":"Polygon","coordinates":[[[2.23414,50.45086],[2.23393,50.45114],[2.23373,50.45113],[2.23294,50.45245],[2.23353,50.45263],[2.23305,50.4532],[2.23513,50.45326],[2.2354,50.4529],[2.23603,50.45304],[2.23734,50.45226],[2.23757,50.45137],[2.23677,50.45123],[2.23589,50.45134],[2.23495,50.45083],[2.23414,50.45086]],[[2.23499,50.45273],[2.2347,50.45263],[2.23473,50.45239],[2.23513,50.45245],[2.23517,50.45219],[2.23396,50.45214],[2.23392,50.45185],[2.23521,50.45191],[2.23514,50.45257],[2.23499,50.45273]]]}},{"type":"Feature","properties":{"k":"PPH","s":9.213},"geometry":{"type":"Polygon","coordinates":[[[2.23407,50.45479],[2.23417,50.45507],[2.23452,50.45504],[2.23464,50.45554],[2.23635,50.45542],[2.23639,50.45589],[2.23843,50.45599],[2.23896,50.45399],[2.23637,50.45418],[2.23637,50.45389],[2.23504,50.45388],[2.23505,50.45364],[2.23411,50.45358],[2.2341,50.45328],[2.23383,50.45327],[2.23385,50.45372],[2.23355,50.4537],[2.23354,50.45395],[2.23098,50.45387],[2.23089,50.45526],[2.23192,50.45517],[2.23186,50.455],[2.23407,50.45479]]]}},{"type":"Feature","properties":{"k":"PPH","s":0.227},"geometry":{"type":"Polygon","coordinates":[[[2.23189,50.45204],[2.23151,50.45201],[2.23112,50.45266],[2.23139,50.45274],[2.23189,50.45204]]]}},{"type":"Feature","properties":{"k":"LUZ","s":0.845},"geometry":{"type":"Polygon","coordinates":[[[2.2288,50.45299],[2.22862,50.45296],[2.22837,50.45358],[2.22792,50.45347],[2.22816,50.4529],[2.22776,50.45282],[2.22727,50.45393],[2.22837,50.45418],[2.2288,50.45299]]]}},{"type":"Feature","properties":{"k":"PPH","s":0.915},"geometry":{"type":"Polygon","coordinates":[[[2.22837,50.45418],[2.22972,50.4545],[2.22982,50.45432],[2.23071,50.45428],[2.23078,50.45408],[2.22861,50.45361],[2.22837,50.45418]]]}},{"type":"Feature","properties":{"k":"BTN","s":6.924},"geometry":{"type":"Polygon","coordinates":[[[2.22813,50.45608],[2.23017,50.45715],[2.23066,50.45468],[2.22613,50.45368],[2.22669,50.45262],[2.22589,50.45411],[2.22566,50.45396],[2.22551,50.45428],[2.22813,50.45608]]]}},{"type":"Feature","properties":{"k":"BTH","s":4.0},"geometry":{"type":"Polygon","coordinates":[[[2.22894,50.45751],[2.22965,50.45773],[2.23007,50.4573],[2.22799,50.45628],[2.22814,50.45618],[2.22548,50.4544],[2.22478,50.45554],[2.22894,50.45751]]]}},{"type":"Feature","properties":{"k":"PPH","s":1.319},"geometry":{"type":"Polygon","coordinates":[[[2.23017,50.45715],[2.23113,50.45777],[2.23131,50.45805],[2.23142,50.45777],[2.23107,50.4558],[2.23077,50.45525],[2.23017,50.45715]]]}},{"type":"Feature","properties":{"k":"PPH","s":3.299},"geometry":{"type":"Polygon","coordinates":[[[2.23311,50.45846],[2.23348,50.45819],[2.2326,50.45721],[2.23193,50.45522],[2.23095,50.45534],[2.23164,50.45653],[2.23222,50.45824],[2.23359,50.45963],[2.2338,50.46027],[2.23459,50.45976],[2.23311,50.45846]]]}},{"type":"Feature","properties":{"k":"PPH","s":0.52},"geometry":{"type":"Polygon","coordinates":[[[2.23016,50.45799],[2.2303,50.45785],[2.23089,50.45835],[2.23122,50.45823],[2.23074,50.45767],[2.23007,50.45731],[2.22962,50.45777],[2.23016,50.45799]]]}},{"type":"Feature","properties":{"k":"BTH","s":12.569},"geometry":{"type":"Polygon","coordinates":[[[2.23056,50.45858],[2.23089,50.45836],[2.23031,50.45789],[2.23019,50.45802],[2.2287,50.45745],[2.22477,50.45556],[2.2243,50.45696],[2.22505,50.45757],[2.22519,50.45744],[2.2284,50.45893],[2.22882,50.45834],[2.23093,50.45928],[2.23001,50.46021],[2.23103,50.46064],[2.22973,50.46191],[2.23081,50.46254],[2.23389,50.46043],[2.23269,50.45986],[2.23209,50.45919],[2.23175,50.45941],[2.23056,50.45858]]]}},{"type":"Feature","properties":{"k":"ORH","s":14.248},"geometry":{"type":"Polygon","coordinates":[[[2.22971,50.46193],[2.23103,50.46064],[2.23001,50.46021],[2.23085,50.4593],[2.23032,50.45906],[2.22968,50.45981],[2.22848,50.45936],[2.22824,50.45965],[2.22732,50.45924],[2.22591,50.46036],[2.2258,50.46145],[2.22711,50.46223],[2.22905,50.46465],[2.23062,50.46405],[2.23051,50.46392],[2.23193,50.46321],[2.22971,50.46193]]]}},{"type":"Feature","properties":{"k":"BTH","s":4.873},"geometry":{"type":"Polygon","coordinates":[[[2.2308,50.46255],[2.2321,50.4633],[2.23545,50.46156],[2.23567,50.46123],[2.23389,50.46043],[2.2308,50.46255]]]}},{"type":"Feature","properties":{"k":"PPH","s":0.292},"geometry":{"type":"Polygon","coordinates":[[[2.23056,50.45858],[2.23175,50.45941],[2.23186,50.4593],[2.23089,50.45836],[2.23056,50.45858]]]}},{"type":"Feature","properties":{"k":"MIS","s":0.303},"geometry":{"type":"Polygon","coordinates":[[[2.23122,50.45824],[2.23091,50.45838],[2.23185,50.45928],[2.23209,50.45919],[2.23122,50.45824]]]}},{"type":"Feature","properties":{"k":"MIS","s":0.724},"geometry":{"type":"Polygon","coordinates":[[[2.23499,50.45953],[2.23354,50.45816],[2.23314,50.45847],[2.23469,50.4597],[2.23499,50.45953]]]}},{"type":"Feature","properties":{"k":"MIS","s":0.522},"geometry":{"type":"Polygon","coordinates":[[[2.23385,50.45797],[2.23354,50.45816],[2.23497,50.45951],[2.23525,50.45932],[2.23385,50.45797]]]}},{"type":"Feature","properties":{"k":"MIS","s":3.102},"geometry":{"type":"Polygon","coordinates":[[[2.23606,50.46125],[2.23709,50.46074],[2.23732,50.45967],[2.23651,50.4593],[2.23583,50.45994],[2.23528,50.45939],[2.23386,50.4603],[2.23606,50.46125]]]}},{"type":"Feature","properties":{"k":"MIS","s":0.008},"geometry":{"type":"Polygon","coordinates":[[[2.23731,50.45981],[2.23743,50.45933],[2.2374,50.45934],[2.23731,50.45981]]]}},{"type":"Feature","properties":{"k":"MIS","s":1.05},"geometry":{"type":"Polygon","coordinates":[[[2.23362,50.46354],[2.23579,50.46155],[2.23396,50.46249],[2.23276,50.46311],[2.23362,50.46354]]]}},{"type":"Feature","properties":{"k":"PHF","s":2.466},"geometry":{"type":"Polygon","coordinates":[[[2.23138,50.4656],[2.23302,50.46409],[2.23198,50.46354],[2.2298,50.46459],[2.23138,50.4656]]]}},{"type":"Feature","properties":{"k":"MIS","s":0.592},"geometry":{"type":"Polygon","coordinates":[[[2.23198,50.46353],[2.23302,50.46405],[2.2336,50.46355],[2.23274,50.46313],[2.23198,50.46353]]]}},{"type":"Feature","properties":{"k":"MIS","s":0.084},"geometry":{"type":"Polygon","coordinates":[[[2.22855,50.46469],[2.22781,50.46491],[2.22791,50.46503],[2.22864,50.46479],[2.22855,50.46469]]]}},{"type":"Feature","properties":{"k":"PHF","s":6.801},"geometry":{"type":"Polygon","coordinates":[[[2.22579,50.46584],[2.22915,50.46764],[2.23137,50.46561],[2.22979,50.46457],[2.22579,50.46584]]]}},{"type":"Feature","properties":{"k":"BTH","s":4.455},"geometry":{"type":"Polygon","coordinates":[[[2.22781,50.46491],[2.22904,50.46466],[2.22708,50.46224],[2.22618,50.4628],[2.22704,50.46343],[2.22649,50.46361],[2.22697,50.46445],[2.22512,50.46464],[2.22513,50.46473],[2.22567,50.46575],[2.22791,50.46503],[2.22781,50.46491]]]}},{"type":"Feature","properties":{"k":"PHF","s":0.834},"geometry":{"type":"Polygon","coordinates":[[[2.22584,50.46417],[2.22509,50.46419],[2.22511,50.46462],[2.22697,50.46445],[2.22649,50.46362],[2.2258,50.46382],[2.22584,50.46417]]]}},{"type":"Feature","properties":{"k":"MIS","s":2.335},"geometry":{"type":"Polygon","coordinates":[[[2.22558,50.46281],[2.22507,50.46418],[2.22585,50.46416],[2.2258,50.46384],[2.22704,50.46343],[2.22618,50.4628],[2.22678,50.4624],[2.22567,50.46165],[2.22461,50.46214],[2.22558,50.46281]]]}},{"type":"Feature","properties":{"k":"PPH","s":1.671},"geometry":{"type":"Polygon","coordinates":[[[2.22504,50.46409],[2.22546,50.46287],[2.22455,50.46218],[2.22385,50.46246],[2.22408,50.46264],[2.22334,50.46307],[2.22504,50.46409]]]}},{"type":"Feature","properties":{"k":"MIS","s":1.217},"geometry":{"type":"Polygon","coordinates":[[[2.22177,50.46392],[2.22192,50.46467],[2.224,50.46356],[2.22331,50.46308],[2.22177,50.46392]]]}},{"type":"Feature","properties":{"k":"PPH","s":0.055},"geometry":{"type":"Polygon","coordinates":[[[2.2143,50.46465],[2.21528,50.46436],[2.21424,50.46458],[2.2143,50.46465]]]}},{"type":"Feature","properties":{"k":"BTH","s":0.069},"geometry":{"type":"MultiPolygon","coordinates":[[[[2.22159,50.46308],[2.22159,50.46306],[2.21827,50.4627],[2.22159,50.46308]]],[[[2.21807,50.46308],[2.21755,50.46301],[2.21813,50.46316],[2.21813,50.46282],[2.21807,50.46308]]],[[[2.21681,50.46314],[2.21686,50.46326],[2.21706,50.46303],[2.21746,50.46299],[2.21718,50.46295],[2.21681,50.46314]]]]}},{"type":"Feature","properties":{"k":"MIS","s":6.357},"geometry":{"type":"Polygon","coordinates":[[[2.22408,50.46264],[2.22306,50.46186],[2.21779,50.46138],[2.21771,50.46179],[2.21815,50.46268],[2.22164,50.46306],[2.22178,50.46391],[2.22408,50.46264]]]}},{"type":"Feature","properties":{"k":"PPH","s":1.604},"geometry":{"type":"Polygon","coordinates":[[[2.22005,50.4609],[2.22025,50.46108],[2.22038,50.46036],[2.22154,50.45861],[2.22036,50.45839],[2.21991,50.45962],[2.22005,50.4609]]]}},{"type":"Feature","properties":{"k":"PPH","s":0.961},"geometry":{"type":"Polygon","coordinates":[[[2.22204,50.45933],[2.22254,50.45888],[2.22163,50.45868],[2.22081,50.45989],[2.22122,50.46021],[2.22209,50.45957],[2.22204,50.45933]]]}},{"type":"Feature","properties":{"k":"LUZ","s":1.24},"geometry":{"type":"Polygon","coordinates":[[[2.22319,50.45851],[2.22316,50.45759],[2.22256,50.45887],[2.22205,50.45943],[2.22214,50.45959],[2.22371,50.45992],[2.22319,50.45851]]]}},{"type":"Feature","properties":{"k":"PPH","s":2.456},"geometry":{"type":"Polygon","coordinates":[[[2.22385,50.46246],[2.22453,50.4622],[2.22214,50.45965],[2.22122,50.46021],[2.22385,50.46246]]]}},{"type":"Feature","properties":{"k":"MLG","s":0.85},"geometry":{"type":"Polygon","coordinates":[[[2.22385,50.46137],[2.22408,50.46165],[2.22381,50.46114],[2.22369,50.45991],[2.2222,50.4596],[2.22385,50.46137]]]}},{"type":"Feature","properties":{"k":"PTR","s":2.15},"geometry":{"type":"Polygon","coordinates":[[[2.2258,50.46145],[2.22591,50.4603],[2.22391,50.46092],[2.22411,50.46165],[2.22461,50.46214],[2.22566,50.46165],[2.22678,50.46242],[2.22708,50.46224],[2.2258,50.46145]]]}},{"type":"Feature","properties":{"k":"LUZ","s":0.45},"geometry":{"type":"Polygon","coordinates":[[[2.22608,50.45926],[2.22591,50.46036],[2.22692,50.45961],[2.22608,50.45926]]]}},{"type":"Feature","properties":{"k":"MIS","s":0.173},"geometry":{"type":"Polygon","coordinates":[[[2.22586,50.46021],[2.22406,50.46072],[2.22406,50.46085],[2.2259,50.4603],[2.22586,50.46021]]]}},{"type":"Feature","properties":{"k":"MIS","s":4.997},"geometry":{"type":"Polygon","coordinates":[[[2.2284,50.45894],[2.22518,50.45745],[2.22502,50.45761],[2.22426,50.45704],[2.22383,50.45816],[2.22372,50.45921],[2.22418,50.45901],[2.22481,50.45909],[2.22544,50.45782],[2.22633,50.45823],[2.22606,50.45926],[2.22693,50.45961],[2.22732,50.45921],[2.22822,50.45964],[2.22851,50.45935],[2.22968,50.4598],[2.23033,50.45905],[2.22881,50.45839],[2.2284,50.45894]]]}},{"type":"Feature","properties":{"k":"LUZ","s":1.049},"geometry":{"type":"Polygon","coordinates":[[[2.22489,50.45889],[2.22533,50.45884],[2.22541,50.45935],[2.22606,50.45926],[2.22633,50.45823],[2.22544,50.45782],[2.22489,50.45889]]]}},{"type":"Feature","properties":{"k":"LUZ","s":0.799},"geometry":{"type":"Polygon","coordinates":[[[2.22327,50.45857],[2.2237,50.45917],[2.22424,50.45705],[2.22324,50.45758],[2.22327,50.45857]]]}},{"type":"Feature","properties":{"k":"PPH","s":1.243},"geometry":{"type":"Polygon","coordinates":[[[2.22161,50.45868],[2.22254,50.45888],[2.22306,50.45782],[2.22295,50.45727],[2.22205,50.45727],[2.22161,50.45868]]]}},{"type":"Feature","properties":{"k":"MLG","s":0.362},"geometry":{"type":"Polygon","coordinates":[[[2.22316,50.45595],[2.22275,50.45593],[2.22266,50.45676],[2.22301,50.45727],[2.22316,50.45595]]]}},{"type":"Feature","properties":{"k":"ORH","s":0.401},"geometry":{"type":"Polygon","coordinates":[[[2.22275,50.45593],[2.22316,50.45595],[2.22366,50.45503],[2.22302,50.4548],[2.22275,50.45593]]]}},{"type":"Feature","properties":{"k":"BTH","s":2.899},"geometry":{"type":"Polygon","coordinates":[[[2.2254,50.45436],[2.2248,50.45409],[2.22337,50.45559],[2.22328,50.45748],[2.2243,50.45696],[2.2254,50.45436]]]}},{"type":"Feature","properties":{"k":"LUZ","s":0.975},"geometry":{"type":"Polygon","coordinates":[[[2.22633,50.45256],[2.2257,50.45245],[2.22477,50.45393],[2.22551,50.45428],[2.22633,50.45256]]]}},{"type":"Feature","properties":{"k":"PPH","s":0.647},"geometry":{"type":"Polygon","coordinates":[[[2.22735,50.45274],[2.22669,50.45262],[2.22613,50.45368],[2.22684,50.45384],[2.22735,50.45274]]]}},{"type":"Feature","properties":{"k":"PPH","s":1.595},"geometry":{"type":"Polygon","coordinates":[[[2.22318,50.45182],[2.22347,50.45128],[2.22077,50.45046],[2.22026,50.45116],[2.22318,50.45182]]]}},{"type":"Feature","properties":{"k":"BTN","s":1.609},"geometry":{"type":"Polygon","coordinates":[[[2.22064,50.45189],[2.22127,50.45209],[2.22099,50.4526],[2.22176,50.453],[2.22252,50.45177],[2.22019,50.45126],[2.21993,50.4519],[2.22064,50.45189]]]}},{"type":"Feature","properties":{"k":"JAC","s":0.168},"geometry":{"type":"Polygon","coordinates":[[[2.22188,50.45303],[2.22269,50.45181],[2.22252,50.45177],[2.22188,50.45303]]]}},{"type":"Feature","properties":{"k":"BTN","s":1.91},"geometry":{"type":"Polygon","coordinates":[[[2.22391,50.45283],[2.22285,50.45257],[2.22237,50.45326],[2.22301,50.45357],[2.22466,50.45391],[2.22485,50.45301],[2.22445,50.45293],[2.22488,50.45225],[2.22437,50.45214],[2.22391,50.45283]]]}},{"type":"Feature","properties":{"k":"MIS","s":1.233},"geometry":{"type":"Polygon","coordinates":[[[2.22289,50.45366],[2.22271,50.45449],[2.22309,50.45454],[2.22302,50.4548],[2.22366,50.45503],[2.22464,50.45404],[2.22289,50.45366]]]}},{"type":"Feature","properties":{"k":"JAC","s":0.029},"geometry":{"type":"Polygon","coordinates":[[[2.21996,50.45191],[2.22041,50.45202],[2.22062,50.4519],[2.21996,50.45191]]]}},{"type":"Feature","properties":{"k":"JAC","s":0.068},"geometry":{"type":"Polygon","coordinates":[[[2.21993,50.4519],[2.22019,50.45126],[2.22005,50.45124],[2.21993,50.4519]]]}},{"type":"Feature","properties":{"k":"PTC","s":1.139},"geometry":{"type":"Polygon","coordinates":[[[2.21545,50.45194],[2.21562,50.4525],[2.2169,50.45298],[2.21737,50.45233],[2.21581,50.45169],[2.21545,50.45194]]]}},{"type":"Feature","properties":{"k":"PPH","s":0.599},"geometry":{"type":"Polygon","coordinates":[[[2.21488,50.45147],[2.21539,50.45198],[2.21619,50.45143],[2.21543,50.45108],[2.21599,50.4506],[2.2158,50.45051],[2.21488,50.45147]]]}},{"type":"Feature","properties":{"k":"JAC","s":0.065},"geometry":{"type":"Polygon","coordinates":[[[2.21659,50.45291],[2.2163,50.45282],[2.21612,50.45306],[2.21638,50.45314],[2.21659,50.45291]]]}},{"type":"Feature","properties":{"k":"PHF","s":0.593},"geometry":{"type":"Polygon","coordinates":[[[2.21612,50.45306],[2.21605,50.45337],[2.21806,50.45417],[2.21824,50.45388],[2.21612,50.45306]]]}},{"type":"Feature","properties":{"k":"BTN","s":1.872},"geometry":{"type":"Polygon","coordinates":[[[2.21561,50.45434],[2.21746,50.45522],[2.21806,50.45417],[2.21605,50.45337],[2.21561,50.45434]]]}},{"type":"Feature","properties":{"k":"MLG","s":1.044},"geometry":{"type":"Polygon","coordinates":[[[2.21561,50.45434],[2.21518,50.45499],[2.21683,50.45565],[2.21737,50.45518],[2.21561,50.45434]]]}},{"type":"Feature","properties":{"k":"MIS","s":0.4},"geometry":{"type":"Polygon","coordinates":[[[2.21689,50.45568],[2.21519,50.45499],[2.21503,50.45524],[2.21665,50.45588],[2.21689,50.45568]]]}},{"type":"Feature","properties":{"k":"MIS","s":0.663},"geometry":{"type":"Polygon","coordinates":[[[2.2146,50.45632],[2.21568,50.4567],[2.21619,50.45629],[2.21487,50.45576],[2.2146,50.45632]]]}},{"type":"Feature","properties":{"k":"BTN","s":0.485},"geometry":{"type":"Polygon","coordinates":[[[2.21489,50.45563],[2.21625,50.45612],[2.21665,50.45588],[2.21505,50.45525],[2.21489,50.45563]]]}},{"type":"Feature","properties":{"k":"JAC","s":0.043},"geometry":{"type":"Polygon","coordinates":[[[2.21746,50.45522],[2.21737,50.45518],[2.21683,50.45565],[2.21746,50.45522]]]}},{"type":"Feature","properties":{"k":"PPH","s":3.212},"geometry":{"type":"Polygon","coordinates":[[[2.22052,50.45579],[2.2209,50.45427],[2.21848,50.45403],[2.21813,50.45449],[2.21814,50.45499],[2.2178,50.45556],[2.22052,50.45579]]]}},{"type":"Feature","properties":{"k":"ORH","s":1.491},"geometry":{"type":"Polygon","coordinates":[[[2.21439,50.45762],[2.2157,50.4568],[2.21452,50.45643],[2.21269,50.45769],[2.21346,50.45796],[2.21439,50.45762]]]}},{"type":"Feature","properties":{"k":"CZH","s":3.737},"geometry":{"type":"Polygon","coordinates":[[[2.2078,50.45771],[2.21139,50.4586],[2.21238,50.45769],[2.2104,50.45708],[2.20791,50.45675],[2.2078,50.45771]]]}},{"type":"Feature","properties":{"k":"MIS","s":0.885},"geometry":{"type":"Polygon","coordinates":[[[2.20783,50.45669],[2.20978,50.45696],[2.21003,50.45656],[2.2078,50.45606],[2.20783,50.45669]]]}},{"type":"Feature","properties":{"k":"PHF","s":14.641},"geometry":{"type":"Polygon","coordinates":[[[2.21003,50.45656],[2.20979,50.45696],[2.21245,50.45762],[2.2128,50.45755],[2.21375,50.45693],[2.21468,50.45602],[2.21594,50.45355],[2.21593,50.4531],[2.21547,50.45249],[2.21324,50.45459],[2.21187,50.45403],[2.21037,50.45508],[2.20912,50.45464],[2.20896,50.45446],[2.2079,50.45608],[2.21003,50.45656]]]}},{"type":"Feature","properties":{"k":"PHF","s":1.442},"geometry":{"type":"Polygon","coordinates":[[[2.21355,50.45347],[2.21245,50.45428],[2.21324,50.45458],[2.2154,50.45244],[2.21529,50.45206],[2.21355,50.45347]]]}},{"type":"Feature","properties":{"k":"BTN","s":5.619},"geometry":{"type":"Polygon","coordinates":[[[2.21227,50.45339],[2.21329,50.45263],[2.21397,50.45305],[2.21529,50.45206],[2.2141,50.45102],[2.21009,50.45158],[2.21033,50.45198],[2.21227,50.45339]]]}},{"type":"Feature","properties":{"k":"PTR","s":1.514},"geometry":{"type":"Polygon","coordinates":[[[2.21124,50.45129],[2.21101,50.45076],[2.20775,50.45139],[2.20799,50.45196],[2.21124,50.45129]]]}},{"type":"Feature","properties":{"k":"PTR","s":1.231},"geometry":{"type":"Polygon","coordinates":[[[2.20798,50.45335],[2.20934,50.45287],[2.20964,50.45309],[2.21027,50.45279],[2.20986,50.45248],[2.21035,50.45197],[2.20753,50.45281],[2.20798,50.45335]]]}},{"type":"Feature","properties":{"k":"BTH","s":6.558},"geometry":{"type":"Polygon","coordinates":[[[2.20912,50.45464],[2.21037,50.45508],[2.21187,50.45403],[2.21245,50.45429],[2.21391,50.45307],[2.21329,50.45263],[2.21227,50.45339],[2.21035,50.45197],[2.20987,50.45247],[2.21029,50.45277],[2.20964,50.45309],[2.20934,50.45287],[2.20799,50.45336],[2.20912,50.45464]]]}},{"type":"Feature","properties":{"k":"BTN","s":6.483},"geometry":{"type":"Polygon","coordinates":[[[2.20751,50.45281],[2.2102,50.45205],[2.21022,50.45183],[2.20624,50.45289],[2.20706,50.45363],[2.20608,50.45493],[2.20442,50.45589],[2.20596,50.45629],[2.20616,50.45598],[2.20773,50.45621],[2.20896,50.45446],[2.20751,50.45281]]]}},{"type":"Feature","properties":{"k":"BTH","s":1.098},"geometry":{"type":"Polygon","coordinates":[[[2.21025,50.45183],[2.21009,50.45158],[2.20624,50.45254],[2.20618,50.45284],[2.21025,50.45183]]]}},{"type":"Feature","properties":{"k":"CZH","s":2.66},"geometry":{"type":"Polygon","coordinates":[[[2.20799,50.45196],[2.20764,50.45114],[2.20481,50.45153],[2.20505,50.45282],[2.20799,50.45196]]]}},{"type":"Feature","properties":{"k":"BTH","s":2.922},"geometry":{"type":"Polygon","coordinates":[[[2.20616,50.45126],[2.20766,50.4511],[2.20745,50.45041],[2.20703,50.45038],[2.20666,50.45013],[2.20164,50.45089],[2.20169,50.45109],[2.2023,50.45114],[2.2023,50.45146],[2.20445,50.45117],[2.20461,50.45112],[2.20448,50.45086],[2.206,50.45064],[2.20616,50.45126]]]}},{"type":"Feature","properties":{"k":"JAC","s":0.758},"geometry":{"type":"Polygon","coordinates":[[[2.20236,50.4517],[2.20432,50.45155],[2.20514,50.45123],[2.20503,50.45078],[2.20448,50.45086],[2.20455,50.45115],[2.2023,50.45146],[2.20236,50.4517]]]}},{"type":"Feature","properties":{"k":"BTH","s":0.917},"geometry":{"type":"Polygon","coordinates":[[[2.20085,50.45261],[2.20097,50.45303],[2.20159,50.45288],[2.20505,50.45284],[2.20497,50.45265],[2.20085,50.45261]]]}},{"type":"Feature","properties":{"k":"CZH","s":7.629},"geometry":{"type":"Polygon","coordinates":[[[2.20293,50.45296],[2.20325,50.45467],[2.20179,50.45532],[2.20439,50.45589],[2.20615,50.45485],[2.20655,50.45439],[2.20706,50.45363],[2.20603,50.45259],[2.20464,50.45297],[2.20293,50.45296]]]}},{"type":"Feature","properties":{"k":"MIS","s":0.549},"geometry":{"type":"Polygon","coordinates":[[[2.20602,50.45628],[2.20782,50.45669],[2.20781,50.45623],[2.2062,50.456],[2.20602,50.45628]]]}},{"type":"Feature","properties":{"k":"MIS","s":9.561},"geometry":{"type":"Polygon","coordinates":[[[2.20453,50.45665],[2.20367,50.45869],[2.20414,50.45877],[2.20386,50.45947],[2.20456,50.45942],[2.20491,50.45864],[2.2067,50.45899],[2.20755,50.45792],[2.21113,50.4588],[2.21138,50.45861],[2.2078,50.45772],[2.20761,50.45787],[2.20786,50.45739],[2.20781,50.45673],[2.20179,50.45532],[2.20112,50.45583],[2.20453,50.45665]]]}},{"type":"Feature","properties":{"k":"BTH","s":1.93},"geometry":{"type":"Polygon","coordinates":[[[2.20384,50.45949],[2.20414,50.45877],[2.20276,50.45847],[2.20065,50.45755],[2.20031,50.45798],[2.20354,50.45953],[2.20384,50.45949]]]}},{"type":"Feature","properties":{"k":"PTC","s":3.647},"geometry":{"type":"Polygon","coordinates":[[[2.20588,50.4598],[2.2077,50.45992],[2.20929,50.46038],[2.20992,50.45963],[2.20688,50.45882],[2.20675,50.459],[2.20491,50.45865],[2.20454,50.45951],[2.20588,50.4598]]]}},{"type":"Feature","properties":{"k":"MIS","s":2.83},"geometry":{"type":"Polygon","coordinates":[[[2.20984,50.4596],[2.21113,50.4588],[2.20757,50.45793],[2.20686,50.4588],[2.20984,50.4596]]]}},{"type":"Feature","properties":{"k":"PTR","s":1.499},"geometry":{"type":"Polygon","coordinates":[[[2.21094,50.46061],[2.21189,50.45918],[2.21109,50.45899],[2.20959,50.46023],[2.21094,50.46061]]]}},{"type":"Feature","properties":{"k":"PTC","s":1.801},"geometry":{"type":"Polygon","coordinates":[[[2.21113,50.459],[2.21189,50.45918],[2.21281,50.45989],[2.21291,50.45877],[2.21348,50.45799],[2.21267,50.45774],[2.21113,50.459]]]}},{"type":"Feature","properties":{"k":"PPH","s":0.608},"geometry":{"type":"Polygon","coordinates":[[[2.21094,50.46061],[2.20959,50.46023],[2.20928,50.46076],[2.21023,50.46105],[2.21094,50.46061]]]}},{"type":"Feature","properties":{"k":"PPH","s":0.001},"geometry":{"type":"Polygon","coordinates":[[[2.19392,50.4616],[2.19401,50.46155],[2.194,50.46154],[2.19392,50.4616]]]}},{"type":"Feature","properties":{"k":"BTH","s":0.021},"geometry":{"type":"MultiPolygon","coordinates":[[[[2.19315,50.46046],[2.19276,50.46085],[2.19298,50.46073],[2.19315,50.46046]]]]}},{"type":"Feature","properties":{"k":"BTH","s":11.087},"geometry":{"type":"Polygon","coordinates":[[[2.19067,50.45867],[2.18946,50.45895],[2.19316,50.46041],[2.19318,50.46054],[2.19475,50.46096],[2.19761,50.45886],[2.19449,50.45761],[2.19067,50.45867]]]}},{"type":"Feature","properties":{"k":"MIS","s":1.931},"geometry":{"type":"Polygon","coordinates":[[[2.19423,50.46138],[2.19546,50.46192],[2.19598,50.46199],[2.19728,50.46122],[2.1956,50.46048],[2.19423,50.46138]]]}},{"type":"Feature","properties":{"k":"BTH","s":1.86},"geometry":{"type":"Polygon","coordinates":[[[2.19898,50.46078],[2.19664,50.45971],[2.19561,50.46047],[2.19728,50.46122],[2.19806,50.4609],[2.19898,50.46078]]]}},{"type":"Feature","properties":{"k":"MIS","s":7.197},"geometry":{"type":"Polygon","coordinates":[[[2.20011,50.46103],[2.20056,50.46061],[2.20154,50.46051],[2.20188,50.45995],[2.20252,50.45964],[2.19965,50.45821],[2.19773,50.45894],[2.19666,50.45971],[2.19898,50.46078],[2.20011,50.46103]]]}},{"type":"Feature","properties":{"k":"LUZ","s":1.217},"geometry":{"type":"Polygon","coordinates":[[[2.20336,50.45949],[2.20026,50.45801],[2.19965,50.45821],[2.20252,50.45964],[2.20336,50.45949]]]}},{"type":"Feature","properties":{"k":"BTN","s":8.947},"geometry":{"type":"Polygon","coordinates":[[[2.19835,50.45697],[2.19658,50.45624],[2.19635,50.45642],[2.20023,50.45796],[2.20064,50.45754],[2.2028,50.45844],[2.20367,50.45864],[2.20452,50.45666],[2.20114,50.45583],[2.2004,50.45639],[2.19948,50.45606],[2.1998,50.45575],[2.19833,50.45506],[2.19784,50.4554],[2.19925,50.45597],[2.19835,50.45697]]]}},{"type":"Feature","properties":{"k":"PTR","s":2.384},"geometry":{"type":"Polygon","coordinates":[[[2.19768,50.45885],[2.1989,50.45843],[2.19547,50.45705],[2.19461,50.45751],[2.19768,50.45885]]]}},{"type":"Feature","properties":{"k":"PTC","s":2.826},"geometry":{"type":"Polygon","coordinates":[[[2.19547,50.45705],[2.1989,50.45843],[2.20022,50.45798],[2.19631,50.45642],[2.19547,50.45705]]]}},{"type":"Feature","properties":{"k":"TRE","s":1.104},"geometry":{"type":"Polygon","coordinates":[[[2.19864,50.45662],[2.19919,50.45596],[2.19784,50.45543],[2.19724,50.45571],[2.19657,50.45623],[2.19698,50.45595],[2.19864,50.45662]]]}},{"type":"Feature","properties":{"k":"BTH","s":0.603},"geometry":{"type":"Polygon","coordinates":[[[2.19864,50.45662],[2.19698,50.45595],[2.19664,50.45626],[2.19834,50.45695],[2.19864,50.45662]]]}},{"type":"Feature","properties":{"k":"BTH","s":4.613},"geometry":{"type":"Polygon","coordinates":[[[2.20039,50.45345],[2.19836,50.45504],[2.19982,50.45576],[2.19949,50.45605],[2.2004,50.45639],[2.20241,50.45497],[2.20039,50.45345]]]}},{"type":"Feature","properties":{"k":"ORH","s":2.816},"geometry":{"type":"Polygon","coordinates":[[[2.20241,50.45497],[2.20323,50.45467],[2.2029,50.45294],[2.20147,50.45295],[2.20039,50.45345],[2.20241,50.45497]]]}},{"type":"Feature","properties":{"k":"PPH","s":1.361},"geometry":{"type":"Polygon","coordinates":[[[2.19942,50.45252],[2.19954,50.4529],[2.19891,50.45307],[2.19888,50.45327],[2.19824,50.45348],[2.19828,50.45387],[2.19913,50.45431],[2.19988,50.45375],[2.1994,50.45326],[2.20037,50.45285],[2.20029,50.45248],[2.19942,50.45252]]]}},{"type":"Feature","properties":{"k":"MIS","s":1.96},"geometry":{"type":"Polygon","coordinates":[[[2.19954,50.4529],[2.19941,50.45252],[2.20029,50.45248],[2.20037,50.45287],[2.19943,50.45326],[2.19988,50.45374],[2.20097,50.45303],[2.20084,50.4526],[2.20237,50.45255],[2.20235,50.45201],[2.19901,50.4522],[2.19915,50.453],[2.19954,50.4529]]]}},{"type":"Feature","properties":{"k":"BTH","s":1.512},"geometry":{"type":"Polygon","coordinates":[[[2.2023,50.45114],[2.20165,50.45111],[2.20159,50.45089],[2.19911,50.45084],[2.19927,50.45145],[2.20231,50.45167],[2.2023,50.45114]]]}},{"type":"Feature","properties":{"k":"JAC","s":0.405},"geometry":{"type":"Polygon","coordinates":[[[2.19915,50.453],[2.19892,50.45227],[2.19838,50.45225],[2.19829,50.45298],[2.19915,50.453]]]}},{"type":"Feature","properties":{"k":"PPH","s":0.696},"geometry":{"type":"Polygon","coordinates":[[[2.19643,50.45371],[2.19485,50.45363],[2.19474,50.45424],[2.19614,50.45427],[2.19643,50.45371]]]}},{"type":"Feature","properties":{"k":"PPH","s":0.443},"geometry":{"type":"Polygon","coordinates":[[[2.19464,50.45316],[2.19424,50.45339],[2.19645,50.45351],[2.19679,50.45327],[2.19464,50.45316]]]}},{"type":"Feature","properties":{"k":"MIS","s":0.0},"geometry":{"type":"Polygon","coordinates":[]}},{"type":"Feature","properties":{"k":"BTH","s":0.002},"geometry":{"type":"MultiPolygon","coordinates":[[[[2.19261,50.45563],[2.19238,50.45569],[2.19261,50.45565],[2.19261,50.45563]]]]}},{"type":"Feature","properties":{"k":"PPH","s":0.016},"geometry":{"type":"Polygon","coordinates":[[[2.19282,50.45509],[2.19334,50.45444],[2.19317,50.45444],[2.19332,50.45445],[2.19268,50.45524],[2.19282,50.45509]]]}},{"type":"Feature","properties":{"k":"JAC","s":0.021},"geometry":{"type":"Polygon","coordinates":[[[2.19261,50.45565],[2.19271,50.45561],[2.19277,50.45543],[2.19268,50.45525],[2.19261,50.45565]]]}},{"type":"Feature","properties":{"k":"JAC","s":0.171},"geometry":{"type":"Polygon","coordinates":[[[2.19378,50.45523],[2.19281,50.45539],[2.19275,50.45562],[2.19391,50.4554],[2.19378,50.45523]]]}},{"type":"Feature","properties":{"k":"PPH","s":1.95},"geometry":{"type":"Polygon","coordinates":[[[2.19551,50.45493],[2.19604,50.45427],[2.19476,50.45425],[2.19479,50.45394],[2.19339,50.45386],[2.1927,50.45442],[2.19336,50.45443],[2.19275,50.45539],[2.1938,50.45521],[2.19386,50.45444],[2.19464,50.45446],[2.19465,50.45504],[2.19551,50.45493]]]}},{"type":"Feature","properties":{"k":"PPH","s":0.43},"geometry":{"type":"Polygon","coordinates":[[[2.19464,50.45446],[2.19386,50.45444],[2.1938,50.45521],[2.19465,50.45504],[2.19464,50.45446]]]}},{"type":"Feature","properties":{"k":"PPH","s":0.243},"geometry":{"type":"Polygon","coordinates":[[[2.19556,50.4551],[2.19551,50.45494],[2.19378,50.45523],[2.1939,50.45537],[2.19556,50.4551]]]}},{"type":"Feature","properties":{"k":"LUZ","s":2.006},"geometry":{"type":"Polygon","coordinates":[[[2.19395,50.45539],[2.19562,50.45687],[2.19675,50.45597],[2.19571,50.45509],[2.19395,50.45539]]]}},{"type":"Feature","properties":{"k":"ORH","s":3.998},"geometry":{"type":"Polygon","coordinates":[[[2.19199,50.4573],[2.18996,50.45776],[2.19086,50.45853],[2.19432,50.45757],[2.1956,50.45689],[2.19471,50.4561],[2.19199,50.4573]]]}},{"type":"Feature","properties":{"k":"BTH","s":5.075},"geometry":{"type":"Polygon","coordinates":[[[2.19046,50.45629],[2.18908,50.457],[2.18996,50.45776],[2.19199,50.4573],[2.19471,50.4561],[2.19391,50.4554],[2.19046,50.45629]]]}},{"type":"Feature","properties":{"k":"ORH","s":1.325},"geometry":{"type":"Polygon","coordinates":[[[2.19084,50.45851],[2.1891,50.45702],[2.18838,50.45737],[2.18992,50.45875],[2.19084,50.45851]]]}}]}