{"type":"FeatureCollection","features":[{"type":"Feature","properties":{"k":"CZH","s":5.807},"geometry":{"type":"Polygon","coordinates":[[[2.78002,50.34781],[2.7855,50.3481],[2.7849,50.34694],[2.7842,50.34709],[2.7839,50.34655],[2.78213,50.34639],[2.77975,50.34645],[2.78002,50.34781]]]}},{"type":"Feature","properties":{"k":"BTH","s":1.187},"geometry":{"type":"Polygon","coordinates":[[[2.77441,50.35554],[2.77427,50.35627],[2.77505,50.35666],[2.77649,50.35549],[2.77441,50.35554]]]}},{"type":"Feature","properties":{"k":"BTH","s":0.268},"geometry":{"type":"Polygon","coordinates":[[[2.77975,50.34645],[2.78213,50.34639],[2.7797,50.34617],[2.77975,50.34645]]]}},{"type":"Feature","properties":{"k":"PHF","s":9.031},"geometry":{"type":"Polygon","coordinates":[[[2.77458,50.35125],[2.77995,50.35176],[2.78055,50.35099],[2.78035,50.34987],[2.77459,50.34927],[2.77458,50.35125]]]}},{"type":"Feature","properties":{"k":"BTH","s":1.004},"geometry":{"type":"Polygon","coordinates":[[[2.77454,50.35148],[2.7797,50.35198],[2.77995,50.35176],[2.77458,50.35125],[2.77454,50.35148]]]}},{"type":"Feature","properties":{"k":"BTH","s":5.569},"geometry":{"type":"Polygon","coordinates":[[[2.77605,50.36107],[2.78069,50.36374],[2.78167,50.36307],[2.77738,50.36014],[2.77605,50.36107]]]}},{"type":"Feature","properties":{"k":"BTH","s":4.997},"geometry":{"type":"Polygon","coordinates":[[[2.78023,50.34882],[2.78614,50.34936],[2.7855,50.3481],[2.78002,50.34781],[2.78023,50.34882]]]}},{"type":"Feature","properties":{"k":"CZH","s":2.567},"geometry":{"type":"Polygon","coordinates":[[[2.78614,50.34936],[2.78023,50.34882],[2.78033,50.34936],[2.7864,50.34985],[2.78614,50.34936]]]}},{"type":"Feature","properties":{"k":"CZH","s":3.457},"geometry":{"type":"Polygon","coordinates":[[[2.78644,50.34993],[2.78033,50.34937],[2.78048,50.35013],[2.78579,50.35063],[2.78644,50.34993]]]}},{"type":"Feature","properties":{"k":"BTH","s":3.878},"geometry":{"type":"Polygon","coordinates":[[[2.77996,50.35184],[2.78397,50.35236],[2.78523,50.35127],[2.78063,50.35085],[2.77996,50.35184]]]}},{"type":"Feature","properties":{"k":"PTC","s":2.639},"geometry":{"type":"Polygon","coordinates":[[[2.78063,50.35084],[2.78512,50.35125],[2.7858,50.35064],[2.78048,50.35014],[2.78063,50.35084]]]}},{"type":"Feature","properties":{"k":"BTH","s":2.082},"geometry":{"type":"Polygon","coordinates":[[[2.78322,50.35522],[2.78147,50.35525],[2.78096,50.35567],[2.78281,50.35728],[2.78322,50.35522]]]}},{"type":"Feature","properties":{"k":"MIS","s":0.148},"geometry":{"type":"Polygon","coordinates":[[[2.77866,50.35432],[2.77881,50.35402],[2.77846,50.354],[2.77842,50.35381],[2.77808,50.35424],[2.77866,50.35432]]]}},{"type":"Feature","properties":{"k":"MIS","s":1.334},"geometry":{"type":"Polygon","coordinates":[[[2.77986,50.35449],[2.77978,50.35464],[2.78045,50.35457],[2.78042,50.35475],[2.78111,50.35473],[2.78209,50.35392],[2.78143,50.35342],[2.78095,50.35389],[2.7798,50.3539],[2.77956,50.3544],[2.77986,50.35449]]]}},{"type":"Feature","properties":{"k":"MIS","s":1.434},"geometry":{"type":"Polygon","coordinates":[[[2.77882,50.35361],[2.78042,50.35383],[2.78085,50.35377],[2.78125,50.35341],[2.78061,50.35303],[2.77937,50.35286],[2.77891,50.35288],[2.77882,50.35361]]]}},{"type":"Feature","properties":{"k":"CZH","s":1.291},"geometry":{"type":"Polygon","coordinates":[[[2.77494,50.36061],[2.77581,50.36108],[2.77725,50.36014],[2.77628,50.35957],[2.77494,50.36061]]]}},{"type":"Feature","properties":{"k":"BTN","s":0.393},"geometry":{"type":"Polygon","coordinates":[[[2.77452,50.36201],[2.77497,50.36169],[2.77415,50.36124],[2.77365,50.36162],[2.77452,50.36201]]]}},{"type":"Feature","properties":{"k":"BTH","s":0.792},"geometry":{"type":"Polygon","coordinates":[[[2.77617,50.35504],[2.77438,50.35478],[2.77441,50.35554],[2.77592,50.35551],[2.77617,50.35504]]]}},{"type":"Feature","properties":{"k":"CZH","s":0.815},"geometry":{"type":"Polygon","coordinates":[[[2.77947,50.35543],[2.77948,50.35524],[2.77622,50.35503],[2.77597,50.3555],[2.77947,50.35543]]]}},{"type":"Feature","properties":{"k":"BTN","s":1.306},"geometry":{"type":"Polygon","coordinates":[[[2.77714,50.35764],[2.77986,50.35542],[2.77909,50.35543],[2.7766,50.35744],[2.77714,50.35764]]]}},{"type":"Feature","properties":{"k":"BTH","s":3.181},"geometry":{"type":"Polygon","coordinates":[[[2.7766,50.35744],[2.77908,50.35543],[2.7765,50.35549],[2.77505,50.35666],[2.7766,50.35744]]]}},{"type":"Feature","properties":{"k":"BTH","s":4.729},"geometry":{"type":"Polygon","coordinates":[[[2.77528,50.35951],[2.77735,50.35786],[2.7743,50.35633],[2.7739,50.35889],[2.77528,50.35951]]]}},{"type":"Feature","properties":{"k":"BTH","s":0.358},"geometry":{"type":"Polygon","coordinates":[[[2.77529,50.35952],[2.7739,50.35889],[2.77391,50.35922],[2.77498,50.35974],[2.77529,50.35952]]]}},{"type":"Feature","properties":{"k":"PTC","s":0.006},"geometry":{"type":"MultiPolygon","coordinates":[[[[2.77445,50.36009],[2.77474,50.35985],[2.7748,50.35976],[2.77445,50.36009]]]]}},{"type":"Feature","properties":{"k":"PHF","s":3.749},"geometry":{"type":"Polygon","coordinates":[[[2.7767,50.35979],[2.77727,50.36012],[2.78016,50.35823],[2.78007,50.35811],[2.78049,50.35799],[2.7794,50.35699],[2.77661,50.3593],[2.77692,50.35945],[2.7767,50.35979]]]}},{"type":"Feature","properties":{"k":"BTH","s":0.875},"geometry":{"type":"Polygon","coordinates":[[[2.77738,50.35783],[2.78044,50.35542],[2.77986,50.35542],[2.77714,50.35764],[2.77738,50.35783]]]}},{"type":"Feature","properties":{"k":"BTH","s":1.88},"geometry":{"type":"Polygon","coordinates":[[[2.78031,50.35615],[2.7794,50.35699],[2.78068,50.35805],[2.78196,50.35767],[2.78031,50.35615]]]}},{"type":"Feature","properties":{"k":"CZH","s":5.661},"geometry":{"type":"Polygon","coordinates":[[[2.78286,50.35777],[2.77915,50.35891],[2.78157,50.36062],[2.78376,50.35991],[2.78286,50.35777]]]}},{"type":"Feature","properties":{"k":"BTH","s":2.499},"geometry":{"type":"Polygon","coordinates":[[[2.78336,50.36189],[2.78469,50.36095],[2.78376,50.35991],[2.78157,50.36062],[2.78336,50.36189]]]}},{"type":"Feature","properties":{"k":"BTH","s":4.298},"geometry":{"type":"Polygon","coordinates":[[[2.78246,50.36253],[2.78336,50.36189],[2.77915,50.35891],[2.77824,50.35956],[2.78246,50.36253]]]}},{"type":"Feature","properties":{"k":"BTH","s":1.815},"geometry":{"type":"Polygon","coordinates":[[[2.78246,50.36253],[2.77824,50.35956],[2.77782,50.35985],[2.78211,50.36278],[2.78246,50.36253]]]}},{"type":"Feature","properties":{"k":"BTN","s":1.999},"geometry":{"type":"Polygon","coordinates":[[[2.77738,50.36014],[2.78167,50.36307],[2.78211,50.36278],[2.77782,50.35985],[2.77738,50.36014]]]}},{"type":"Feature","properties":{"k":"PTC","s":7.008},"geometry":{"type":"Polygon","coordinates":[[[2.78075,50.36376],[2.78253,50.36483],[2.7831,50.36448],[2.78616,50.36235],[2.78476,50.36101],[2.78075,50.36376]]]}},{"type":"Feature","properties":{"k":"ORP","s":0.002},"geometry":{"type":"Polygon","coordinates":[[[2.77425,50.35192],[2.77428,50.35201],[2.77429,50.35194],[2.77425,50.35192]]]}},{"type":"Feature","properties":{"k":"BTH","s":3.456},"geometry":{"type":"Polygon","coordinates":[[[2.79727,50.35792],[2.79962,50.36076],[2.80059,50.36017],[2.79857,50.35749],[2.79727,50.35792]]]}},{"type":"Feature","properties":{"k":"BOR","s":0.1},"geometry":{"type":"Polygon","coordinates":[[[2.80058,50.36015],[2.80059,50.36017],[2.80063,50.36015],[2.79863,50.35747],[2.80058,50.36015]]]}},{"type":"Feature","properties":{"k":"CZH","s":1.497},"geometry":{"type":"Polygon","coordinates":[[[2.80243,50.35761],[2.80196,50.35877],[2.80454,50.35776],[2.80375,50.35712],[2.80243,50.35761]]]}},{"type":"Feature","properties":{"k":"BOR","s":0.055},"geometry":{"type":"Polygon","coordinates":[[[2.80243,50.35761],[2.80385,50.35708],[2.80382,50.35705],[2.80243,50.35761]]]}},{"type":"Feature","properties":{"k":"BTH","s":4.648},"geometry":{"type":"Polygon","coordinates":[[[2.80576,50.35706],[2.80536,50.35668],[2.80427,50.35739],[2.80563,50.35868],[2.80773,50.35943],[2.80815,50.35751],[2.80576,50.35706]]]}},{"type":"Feature","properties":{"k":"MIS","s":1.549},"geometry":{"type":"Polygon","coordinates":[[[2.8051,50.35835],[2.80453,50.35776],[2.80198,50.35876],[2.80269,50.35925],[2.8051,50.35835]]]}},{"type":"Feature","properties":{"k":"MIS","s":1.227},"geometry":{"type":"Polygon","coordinates":[[[2.80332,50.35968],[2.80567,50.35877],[2.8051,50.35835],[2.8027,50.35925],[2.80332,50.35968]]]}},{"type":"Feature","properties":{"k":"BTH","s":1.843},"geometry":{"type":"Polygon","coordinates":[[[2.80682,50.35924],[2.80567,50.35877],[2.80332,50.35968],[2.80424,50.3603],[2.80682,50.35924]]]}},{"type":"Feature","properties":{"k":"LIF","s":2.352},"geometry":{"type":"Polygon","coordinates":[[[2.80839,50.35969],[2.80839,50.35966],[2.80692,50.35926],[2.80427,50.36029],[2.80516,50.36092],[2.80839,50.35969]]]}},{"type":"Feature","properties":{"k":"BTH","s":4.272},"geometry":{"type":"Polygon","coordinates":[[[2.80774,50.35943],[2.80994,50.35999],[2.81092,50.35996],[2.81142,50.3598],[2.81151,50.35925],[2.81122,50.35846],[2.80801,50.35816],[2.80774,50.35943]]]}},{"type":"Feature","properties":{"k":"JAC","s":0.189},"geometry":{"type":"Polygon","coordinates":[[[2.80756,50.35642],[2.8069,50.3563],[2.80667,50.35718],[2.80576,50.35706],[2.80675,50.35726],[2.80709,50.35637],[2.80759,50.35645],[2.80774,50.356],[2.80756,50.35642]]]}},{"type":"Feature","properties":{"k":"CZH","s":1.316},"geometry":{"type":"Polygon","coordinates":[[[2.80759,50.35645],[2.80709,50.35637],[2.80675,50.35726],[2.80815,50.35751],[2.80848,50.35608],[2.80784,50.35599],[2.80759,50.35645]]]}},{"type":"Feature","properties":{"k":"BTH","s":4.426},"geometry":{"type":"Polygon","coordinates":[[[2.81023,50.35619],[2.80848,50.35608],[2.80801,50.35816],[2.81123,50.35846],[2.81023,50.35619]]]}},{"type":"Feature","properties":{"k":"JAC","s":1.346},"geometry":{"type":"Polygon","coordinates":[[[2.80576,50.35705],[2.80615,50.3557],[2.80564,50.35559],[2.8056,50.35643],[2.80491,50.35546],[2.80463,50.35534],[2.80372,50.3556],[2.80436,50.35636],[2.80477,50.35616],[2.80576,50.35705]]]}},{"type":"Feature","properties":{"k":"PPH","s":6.792},"geometry":{"type":"Polygon","coordinates":[[[2.80512,50.3549],[2.80695,50.35469],[2.80702,50.35523],[2.808,50.35496],[2.80812,50.35599],[2.81021,50.35613],[2.80915,50.35288],[2.80771,50.3533],[2.808,50.35371],[2.80715,50.35399],[2.80661,50.35346],[2.80628,50.35356],[2.80599,50.35318],[2.80436,50.35365],[2.80438,50.35385],[2.80536,50.35376],[2.80547,50.35401],[2.80575,50.35401],[2.80583,50.35429],[2.805,50.35459],[2.80512,50.3549]]]}},{"type":"Feature","properties":{"k":"PTC","s":7.951},"geometry":{"type":"Polygon","coordinates":[[[2.82042,50.34911],[2.82235,50.3514],[2.82355,50.35154],[2.82403,50.35141],[2.82552,50.35027],[2.82368,50.34817],[2.82042,50.34911]]]}},{"type":"Feature","properties":{"k":"PHF","s":4.069},"geometry":{"type":"Polygon","coordinates":[[[2.82616,50.34759],[2.82519,50.34789],[2.8251,50.34776],[2.82369,50.34816],[2.82555,50.35025],[2.82658,50.34975],[2.82716,50.34919],[2.82612,50.34746],[2.82616,50.34759]]]}},{"type":"Feature","properties":{"k":"BTH","s":0.001},"geometry":{"type":"Polygon","coordinates":[[[2.82717,50.34921],[2.82716,50.34919],[2.82711,50.34924],[2.82717,50.34921]]]}},{"type":"Feature","properties":{"k":"BTH","s":3.836},"geometry":{"type":"Polygon","coordinates":[[[2.82273,50.3483],[2.82756,50.34686],[2.82673,50.34622],[2.82207,50.34736],[2.82273,50.3483]]]}},{"type":"Feature","properties":{"k":"ORP","s":3.649},"geometry":{"type":"Polygon","coordinates":[[[2.82207,50.34736],[2.82673,50.34622],[2.82626,50.34586],[2.82596,50.34594],[2.82516,50.34531],[2.82159,50.34661],[2.82207,50.34736]]]}},{"type":"Feature","properties":{"k":"BTH","s":5.992},"geometry":{"type":"Polygon","coordinates":[[[2.8244,50.34471],[2.82387,50.34355],[2.82042,50.34482],[2.82159,50.34661],[2.82516,50.34531],[2.8244,50.34471]]]}},{"type":"Feature","properties":{"k":"BTH","s":0.001},"geometry":{"type":"Polygon","coordinates":[[[2.82372,50.34229],[2.82372,50.3423],[2.82403,50.34253],[2.82372,50.34229]]]}},{"type":"Feature","properties":{"k":"CZH","s":0.0},"geometry":{"type":"Polygon","coordinates":[]}},{"type":"Feature","properties":{"k":"MIS","s":0.008},"geometry":{"type":"Polygon","coordinates":[]}},{"type":"Feature","properties":{"k":"BTH","s":20.349},"geometry":{"type":"Polygon","coordinates":[[[2.82042,50.34482],[2.82387,50.34355],[2.82452,50.3429],[2.82271,50.34152],[2.82115,50.34067],[2.82051,50.34015],[2.82163,50.33911],[2.82006,50.33741],[2.81693,50.33927],[2.82042,50.34482]]]}},{"type":"Feature","properties":{"k":"BTN","s":40.923},"geometry":{"type":"Polygon","coordinates":[[[2.82231,50.34841],[2.82201,50.34792],[2.82229,50.34784],[2.81677,50.33925],[2.81447,50.33771],[2.81057,50.33974],[2.81158,50.34069],[2.81359,50.34311],[2.8182,50.34724],[2.81985,50.34911],[2.82231,50.34841]]]}},{"type":"Feature","properties":{"k":"LBF","s":8.07},"geometry":{"type":"Polygon","coordinates":[[[2.81228,50.336],[2.80862,50.33784],[2.81068,50.33951],[2.81444,50.33759],[2.81228,50.336]]]}},{"type":"Feature","properties":{"k":"BTH","s":4.205},"geometry":{"type":"Polygon","coordinates":[[[2.81689,50.3392],[2.81862,50.33813],[2.8164,50.33659],[2.81449,50.33753],[2.81689,50.3392]]]}},{"type":"Feature","properties":{"k":"BTH","s":0.362},"geometry":{"type":"Polygon","coordinates":[[[2.81785,50.33587],[2.81965,50.33709],[2.81552,50.33421],[2.815,50.33351],[2.81462,50.33364],[2.81785,50.33587]]]}},{"type":"Feature","properties":{"k":"LIF","s":12.034},"geometry":{"type":"Polygon","coordinates":[[[2.79457,50.33702],[2.79529,50.33953],[2.79965,50.33692],[2.79893,50.33644],[2.79664,50.33421],[2.79442,50.33541],[2.79457,50.33702]]]}},{"type":"Feature","properties":{"k":"CZH","s":2.961},"geometry":{"type":"Polygon","coordinates":[[[2.82,50.33736],[2.81785,50.33587],[2.8164,50.33659],[2.81862,50.33813],[2.82,50.33736]]]}},{"type":"Feature","properties":{"k":"ORH","s":10.501},"geometry":{"type":"Polygon","coordinates":[[[2.81113,50.33503],[2.81447,50.33754],[2.81787,50.33586],[2.81459,50.33362],[2.81113,50.33503]]]}},{"type":"Feature","properties":{"k":"BTH","s":3.571},"geometry":{"type":"Polygon","coordinates":[[[2.81261,50.33352],[2.81064,50.33225],[2.8089,50.33361],[2.81049,50.33461],[2.81261,50.33352]]]}},{"type":"Feature","properties":{"k":"ORH","s":2.408},"geometry":{"type":"Polygon","coordinates":[[[2.80269,50.36196],[2.80439,50.36294],[2.80597,50.36215],[2.80488,50.36111],[2.80269,50.36196]]]}},{"type":"Feature","properties":{"k":"JAC","s":0.013},"geometry":{"type":"Polygon","coordinates":[[[2.80412,50.36277],[2.80409,50.36274],[2.80345,50.36325],[2.80412,50.36277]]]}},{"type":"Feature","properties":{"k":"PPH","s":0.075},"geometry":{"type":"Polygon","coordinates":[[[2.79591,50.36454],[2.79502,50.36511],[2.79589,50.36458],[2.79695,50.36494],[2.79591,50.36454]]]}},{"type":"Feature","properties":{"k":"BOR","s":0.034},"geometry":{"type":"Polygon","coordinates":[[[2.79385,50.36359],[2.79387,50.36363],[2.79409,50.36353],[2.79465,50.36322],[2.79385,50.36359]]]}},{"type":"Feature","properties":{"k":"BTH","s":5.856},"geometry":{"type":"Polygon","coordinates":[[[2.79858,50.34781],[2.80139,50.34637],[2.80542,50.34514],[2.80446,50.34389],[2.79822,50.34706],[2.79858,50.34781]]]}},{"type":"Feature","properties":{"k":"BOR","s":0.078},"geometry":{"type":"Polygon","coordinates":[[[2.79655,50.36233],[2.79645,50.3622],[2.79652,50.36231],[2.79408,50.36379],[2.79655,50.36233]]]}},{"type":"Feature","properties":{"k":"CZH","s":0.742},"geometry":{"type":"Polygon","coordinates":[[[2.79642,50.36222],[2.79614,50.36196],[2.79375,50.36339],[2.79391,50.36356],[2.79642,50.36222]]]}},{"type":"Feature","properties":{"k":"BOR","s":0.029},"geometry":{"type":"Polygon","coordinates":[[[2.79375,50.36339],[2.79438,50.36303],[2.79433,50.36299],[2.79375,50.36339]]]}},{"type":"Feature","properties":{"k":"BTH","s":1.465},"geometry":{"type":"Polygon","coordinates":[[[2.79775,50.36184],[2.79731,50.3613],[2.79614,50.36196],[2.79655,50.36233],[2.79405,50.36382],[2.79425,50.36409],[2.79775,50.36184]]]}},{"type":"Feature","properties":{"k":"BTH","s":1.778},"geometry":{"type":"Polygon","coordinates":[[[2.79483,50.36245],[2.795,50.36261],[2.79731,50.3613],[2.79696,50.36082],[2.79343,50.36273],[2.79365,50.36311],[2.79483,50.36245]]]}},{"type":"Feature","properties":{"k":"BTH","s":4.476},"geometry":{"type":"Polygon","coordinates":[[[2.79286,50.36221],[2.78923,50.36439],[2.79064,50.36571],[2.79329,50.36305],[2.79286,50.36221]]]}},{"type":"Feature","properties":{"k":"BTH","s":3.469},"geometry":{"type":"Polygon","coordinates":[[[2.78712,50.36327],[2.78616,50.36235],[2.78316,50.36448],[2.78462,50.36503],[2.78712,50.36327]]]}},{"type":"Feature","properties":{"k":"JAC","s":1.6},"geometry":{"type":"Polygon","coordinates":[[[2.78802,50.36405],[2.78712,50.36327],[2.78652,50.36371],[2.78697,50.36408],[2.78519,50.3653],[2.78576,50.36559],[2.78802,50.36405]]]}},{"type":"Feature","properties":{"k":"BTN","s":0.009},"geometry":{"type":"Polygon","coordinates":[[[2.80837,50.33314],[2.80874,50.33343],[2.8088,50.33341],[2.80837,50.33314]]]}},{"type":"Feature","properties":{"k":"BTH","s":0.054},"geometry":{"type":"Polygon","coordinates":[[[2.808,50.36138],[2.80913,50.35987],[2.80905,50.35985],[2.808,50.36138]]]}},{"type":"Feature","properties":{"k":"ORH","s":4.352},"geometry":{"type":"Polygon","coordinates":[[[2.8085,50.35969],[2.80495,50.36106],[2.80602,50.36212],[2.80709,50.36261],[2.80905,50.35985],[2.8085,50.35969]]]}},{"type":"Feature","properties":{"k":"PPH","s":1.743},"geometry":{"type":"Polygon","coordinates":[[[2.80269,50.36196],[2.80185,50.3623],[2.80251,50.36392],[2.80409,50.36274],[2.80269,50.36196]]]}},{"type":"Feature","properties":{"k":"BTH","s":5.73},"geometry":{"type":"Polygon","coordinates":[[[2.78576,50.36559],[2.78652,50.36594],[2.78656,50.36616],[2.7876,50.36684],[2.78928,50.36711],[2.79018,50.36614],[2.78802,50.36405],[2.78576,50.36559]]]}},{"type":"Feature","properties":{"k":"MIS","s":1.67},"geometry":{"type":"Polygon","coordinates":[[[2.80023,50.3628],[2.79864,50.36148],[2.79756,50.3621],[2.79933,50.36324],[2.80023,50.3628]]]}},{"type":"Feature","properties":{"k":"BTH","s":1.512},"geometry":{"type":"Polygon","coordinates":[[[2.79896,50.36402],[2.80188,50.36256],[2.80173,50.36205],[2.79814,50.36382],[2.79896,50.36402]]]}},{"type":"Feature","properties":{"k":"BTH","s":3.157},"geometry":{"type":"Polygon","coordinates":[[[2.79831,50.36436],[2.80034,50.36475],[2.80234,50.36374],[2.80188,50.36257],[2.79831,50.36436]]]}},{"type":"Feature","properties":{"k":"PPH","s":1.832},"geometry":{"type":"Polygon","coordinates":[[[2.79697,50.36357],[2.79603,50.36312],[2.79594,50.36321],[2.79643,50.3636],[2.79594,50.36386],[2.79795,50.36438],[2.79767,50.36463],[2.7997,50.36508],[2.80034,50.36475],[2.79831,50.36436],[2.79893,50.36403],[2.79697,50.36357]]]}},{"type":"Feature","properties":{"k":"PPH","s":0.007},"geometry":{"type":"Polygon","coordinates":[[[2.79878,50.36544],[2.79901,50.36557],[2.79906,50.36553],[2.79878,50.36544]]]}},{"type":"Feature","properties":{"k":"PHF","s":11.501},"geometry":{"type":"Polygon","coordinates":[[[2.78915,50.36443],[2.79286,50.36218],[2.79158,50.35974],[2.78858,50.3613],[2.7882,50.36163],[2.78773,50.36142],[2.7866,50.362],[2.78915,50.36443]]]}},{"type":"Feature","properties":{"k":"BFS","s":0.0},"geometry":{"type":"Polygon","coordinates":[]}},{"type":"Feature","properties":{"k":"PPH","s":0.04},"geometry":{"type":"Polygon","coordinates":[[[2.79889,50.36579],[2.79883,50.36585],[2.79952,50.36619],[2.79889,50.36579]]]}},{"type":"Feature","properties":{"k":"PPH","s":0.995},"geometry":{"type":"Polygon","coordinates":[[[2.79501,50.36507],[2.79622,50.3643],[2.79562,50.36384],[2.79514,50.36378],[2.79456,50.3641],[2.79501,50.36507]]]}},{"type":"Feature","properties":{"k":"PPH","s":0.851},"geometry":{"type":"Polygon","coordinates":[[[2.80248,50.3642],[2.80235,50.36374],[2.7997,50.36508],[2.79988,50.36527],[2.80096,50.36473],[2.80111,50.3649],[2.80248,50.3642]]]}},{"type":"Feature","properties":{"k":"MIS","s":2.924},"geometry":{"type":"Polygon","coordinates":[[[2.80122,50.36657],[2.80103,50.36668],[2.80132,50.36691],[2.80304,50.36566],[2.80265,50.36506],[2.80248,50.3642],[2.80013,50.36535],[2.8012,50.36614],[2.80122,50.36657]]]}},{"type":"Feature","properties":{"k":"BTH","s":5.016},"geometry":{"type":"Polygon","coordinates":[[[2.81073,50.33223],[2.81268,50.33348],[2.81518,50.3322],[2.81537,50.33177],[2.81425,50.3308],[2.81073,50.33223]]]}},{"type":"Feature","properties":{"k":"BTH","s":2.618},"geometry":{"type":"Polygon","coordinates":[[[2.81348,50.35347],[2.81464,50.35302],[2.81324,50.35073],[2.81208,50.35108],[2.81348,50.35347]]]}},{"type":"Feature","properties":{"k":"BTH","s":4.641},"geometry":{"type":"Polygon","coordinates":[[[2.80595,50.335],[2.80718,50.33627],[2.81048,50.3346],[2.8089,50.33361],[2.80613,50.3348],[2.80595,50.335]]]}},{"type":"Feature","properties":{"k":"MIS","s":0.0},"geometry":{"type":"Polygon","coordinates":[]}},{"type":"Feature","properties":{"k":"LIF","s":1.02},"geometry":{"type":"Polygon","coordinates":[[[2.80056,50.33743],[2.79981,50.33699],[2.79846,50.33772],[2.79924,50.33823],[2.80056,50.33743]]]}},{"type":"Feature","properties":{"k":"ORH","s":10.336},"geometry":{"type":"Polygon","coordinates":[[[2.79564,50.3404],[2.79628,50.34204],[2.79731,50.34137],[2.79785,50.34164],[2.80229,50.33897],[2.80063,50.33749],[2.79564,50.3404]]]}},{"type":"Feature","properties":{"k":"PPH","s":0.247},"geometry":{"type":"Polygon","coordinates":[[[2.80023,50.3628],[2.80036,50.36273],[2.79882,50.36138],[2.79864,50.36147],[2.80023,50.3628]]]}},{"type":"Feature","properties":{"k":"PPH","s":3.877},"geometry":{"type":"Polygon","coordinates":[[[2.80198,50.35878],[2.8018,50.35908],[2.8028,50.35988],[2.80254,50.36012],[2.80381,50.36116],[2.8041,50.36121],[2.8038,50.36133],[2.80251,50.36019],[2.80213,50.36055],[2.802,50.36045],[2.80152,50.36075],[2.8018,50.36108],[2.80183,50.36219],[2.80511,50.36093],[2.80198,50.35878]]]}},{"type":"Feature","properties":{"k":"MLG","s":0.73},"geometry":{"type":"Polygon","coordinates":[[[2.80168,50.36105],[2.80072,50.36023],[2.80023,50.36053],[2.80174,50.36178],[2.80168,50.36105]]]}},{"type":"Feature","properties":{"k":"BTN","s":2.354},"geometry":{"type":"Polygon","coordinates":[[[2.79756,50.3621],[2.79605,50.36312],[2.79699,50.36357],[2.79815,50.36382],[2.79933,50.36324],[2.79756,50.3621]]]}},{"type":"Feature","properties":{"k":"FVP","s":0.02},"geometry":{"type":"Polygon","coordinates":[]}},{"type":"Feature","properties":{"k":"PPH","s":0.068},"geometry":{"type":"Polygon","coordinates":[[[2.79947,50.36623],[2.80112,50.36723],[2.80114,50.36721],[2.79947,50.36623]]]}},{"type":"Feature","properties":{"k":"JAC","s":0.96},"geometry":{"type":"Polygon","coordinates":[[[2.80698,50.35164],[2.80785,50.35142],[2.80771,50.35112],[2.80838,50.35097],[2.8078,50.34966],[2.80698,50.35164]]]}},{"type":"Feature","properties":{"k":"PPH","s":3.362},"geometry":{"type":"Polygon","coordinates":[[[2.80464,50.35291],[2.80654,50.35235],[2.80726,50.35056],[2.80405,50.35134],[2.80464,50.35291]]]}},{"type":"Feature","properties":{"k":"MIS","s":0.948},"geometry":{"type":"Polygon","coordinates":[[[2.80422,50.35305],[2.80462,50.3529],[2.80399,50.35126],[2.80308,50.35146],[2.80422,50.35305]]]}},{"type":"Feature","properties":{"k":"JAC","s":1.356},"geometry":{"type":"Polygon","coordinates":[[[2.79504,50.35252],[2.79533,50.35293],[2.79593,50.35274],[2.79607,50.35292],[2.79765,50.35241],[2.79739,50.35202],[2.79957,50.35135],[2.79955,50.35123],[2.79504,50.35252]]]}},{"type":"Feature","properties":{"k":"PPH","s":0.374},"geometry":{"type":"Polygon","coordinates":[[[2.79866,50.35032],[2.79908,50.35118],[2.79948,50.35109],[2.79922,50.35016],[2.79866,50.35032]]]}},{"type":"Feature","properties":{"k":"PPH","s":7.609},"geometry":{"type":"Polygon","coordinates":[[[2.80023,50.34961],[2.80074,50.35025],[2.80025,50.35065],[2.80049,50.3511],[2.80395,50.35039],[2.80216,50.34753],[2.79912,50.34898],[2.79939,50.35005],[2.79992,50.34986],[2.79984,50.34973],[2.80023,50.34961]]]}},{"type":"Feature","properties":{"k":"BTH","s":18.924},"geometry":{"type":"Polygon","coordinates":[[[2.80308,50.34887],[2.80398,50.35044],[2.80778,50.34939],[2.80709,50.34783],[2.80542,50.34514],[2.80139,50.34637],[2.79857,50.34782],[2.79911,50.34898],[2.80216,50.34753],[2.80308,50.34887]]]}},{"type":"Feature","properties":{"k":"BTH","s":1.028},"geometry":{"type":"Polygon","coordinates":[[[2.79821,50.34705],[2.80259,50.34483],[2.80232,50.34467],[2.79811,50.34681],[2.79821,50.34705]]]}},{"type":"Feature","properties":{"k":"MIS","s":4.405},"geometry":{"type":"Polygon","coordinates":[[[2.81837,50.34801],[2.81828,50.34793],[2.81865,50.34781],[2.81814,50.34732],[2.81201,50.34896],[2.81233,50.34946],[2.81322,50.34924],[2.81335,50.34947],[2.81442,50.34916],[2.81507,50.3503],[2.81572,50.35019],[2.81511,50.34886],[2.81837,50.34801]]]}},{"type":"Feature","properties":{"k":"PPH","s":0.846},"geometry":{"type":"Polygon","coordinates":[[[2.81367,50.35001],[2.81396,50.34994],[2.81422,50.35045],[2.81468,50.35037],[2.81456,50.35015],[2.81495,50.35008],[2.81443,50.34919],[2.81338,50.34948],[2.81367,50.35001]]]}},{"type":"Feature","properties":{"k":"BTH","s":0.297},"geometry":{"type":"MultiPolygon","coordinates":[[[[2.80216,50.33884],[2.80224,50.33889],[2.80163,50.33836],[2.80216,50.33884]]],[[[2.80402,50.33796],[2.80397,50.33793],[2.80233,50.33895],[2.80402,50.33796]]],[[[2.80486,50.33748],[2.80715,50.33629],[2.80618,50.33526],[2.80708,50.33624],[2.80486,50.33745],[2.80454,50.33721],[2.8036,50.33764],[2.80371,50.33772],[2.80453,50.33725],[2.80486,50.33748]]]]}},{"type":"Feature","properties":{"k":"BTN","s":11.795},"geometry":{"type":"Polygon","coordinates":[[[2.80187,50.33988],[2.80246,50.34092],[2.81236,50.33595],[2.81114,50.33504],[2.80187,50.33988]]]}},{"type":"Feature","properties":{"k":"BTH","s":13.656},"geometry":{"type":"Polygon","coordinates":[[[2.80375,50.34287],[2.81037,50.33966],[2.80911,50.33837],[2.80852,50.33789],[2.80603,50.33912],[2.80635,50.33939],[2.80602,50.33913],[2.80246,50.34092],[2.80282,50.34151],[2.80375,50.34287]]]}},{"type":"Feature","properties":{"k":"CZH","s":4.632},"geometry":{"type":"Polygon","coordinates":[[[2.80433,50.34364],[2.81106,50.34026],[2.81034,50.33977],[2.80387,50.34301],[2.80433,50.34364]]]}},{"type":"Feature","properties":{"k":"MIS","s":7.471},"geometry":{"type":"Polygon","coordinates":[[[2.81207,50.34141],[2.81106,50.34028],[2.80433,50.34364],[2.80503,50.34445],[2.81207,50.34141]]]}},{"type":"Feature","properties":{"k":"BTH","s":5.98},"geometry":{"type":"Polygon","coordinates":[[[2.81207,50.34141],[2.80503,50.34445],[2.80542,50.34504],[2.81286,50.34245],[2.81207,50.34141]]]}},{"type":"Feature","properties":{"k":"BTH","s":8.902},"geometry":{"type":"Polygon","coordinates":[[[2.81402,50.34364],[2.81286,50.34245],[2.80542,50.34504],[2.80616,50.34613],[2.81402,50.34364]]]}},{"type":"Feature","properties":{"k":"BTH","s":3.129},"geometry":{"type":"Polygon","coordinates":[[[2.8026,50.34483],[2.80446,50.34389],[2.80337,50.34251],[2.80107,50.34377],[2.8026,50.34483]]]}},{"type":"Feature","properties":{"k":"PTC","s":6.451},"geometry":{"type":"Polygon","coordinates":[[[2.80107,50.34377],[2.80337,50.34251],[2.80179,50.34003],[2.79939,50.34142],[2.80107,50.34377]]]}},{"type":"Feature","properties":{"k":"BTH","s":11.872},"geometry":{"type":"Polygon","coordinates":[[[2.79811,50.3468],[2.80232,50.34467],[2.80071,50.34347],[2.79939,50.34142],[2.79689,50.34306],[2.79811,50.3468]]]}},{"type":"Feature","properties":{"k":"MIS","s":2.265},"geometry":{"type":"Polygon","coordinates":[[[2.79326,50.34474],[2.79561,50.34315],[2.79591,50.34257],[2.79557,50.34166],[2.79456,50.34294],[2.79335,50.34372],[2.793,50.34415],[2.79326,50.34474]]]}},{"type":"Feature","properties":{"k":"BTH","s":3.414},"geometry":{"type":"Polygon","coordinates":[[[2.79004,50.34298],[2.78926,50.34331],[2.78979,50.34359],[2.78926,50.34397],[2.7922,50.34541],[2.79302,50.34481],[2.79305,50.34451],[2.79004,50.34298]]]}},{"type":"Feature","properties":{"k":"BTH","s":3.344},"geometry":{"type":"Polygon","coordinates":[[[2.79314,50.34385],[2.79412,50.34323],[2.79197,50.34217],[2.79004,50.34298],[2.79304,50.34447],[2.79314,50.34385]]]}},{"type":"Feature","properties":{"k":"BTH","s":2.043},"geometry":{"type":"Polygon","coordinates":[[[2.79412,50.34323],[2.79496,50.34227],[2.79354,50.34151],[2.79197,50.34217],[2.79412,50.34323]]]}},{"type":"Feature","properties":{"k":"MIS","s":2.626},"geometry":{"type":"Polygon","coordinates":[[[2.79922,50.33824],[2.79845,50.33772],[2.79533,50.33963],[2.79567,50.34039],[2.79922,50.33824]]]}},{"type":"Feature","properties":{"k":"PPH","s":0.014},"geometry":{"type":"Polygon","coordinates":[[[2.79347,50.34003],[2.79347,50.34007],[2.79435,50.33985],[2.79347,50.34003]]]}},{"type":"Feature","properties":{"k":"BTN","s":0.866},"geometry":{"type":"Polygon","coordinates":[[[2.78926,50.34397],[2.78895,50.34419],[2.79186,50.34562],[2.79213,50.34546],[2.78926,50.34397]]]}},{"type":"Feature","properties":{"k":"BTN","s":0.015},"geometry":{"type":"Polygon","coordinates":[[[2.81402,50.33088],[2.81225,50.3316],[2.81226,50.33161],[2.81402,50.33088]]]}},{"type":"Feature","properties":{"k":"PTC","s":0.002},"geometry":{"type":"Polygon","coordinates":[[[2.81424,50.3308],[2.81402,50.33088],[2.81403,50.33089],[2.81424,50.3308]]]}},{"type":"Feature","properties":{"k":"OEI","s":1.799},"geometry":{"type":"Polygon","coordinates":[[[2.78438,50.35515],[2.78382,50.35624],[2.78371,50.35674],[2.7839,50.35696],[2.78557,50.35638],[2.78537,50.35516],[2.78438,50.35515]]]}},{"type":"Feature","properties":{"k":"MIS","s":1.657},"geometry":{"type":"Polygon","coordinates":[[[2.8102,50.34996],[2.81094,50.35125],[2.81186,50.351],[2.8114,50.35028],[2.8126,50.34995],[2.81228,50.34941],[2.8102,50.34996]]]}},{"type":"Feature","properties":{"k":"JAC","s":0.089},"geometry":{"type":"Polygon","coordinates":[[[2.81183,50.35113],[2.81207,50.35157],[2.8123,50.35151],[2.81204,50.35107],[2.81183,50.35113]]]}},{"type":"Feature","properties":{"k":"CZH","s":2.34},"geometry":{"type":"Polygon","coordinates":[[[2.80938,50.35345],[2.81224,50.35238],[2.81174,50.35164],[2.80902,50.35234],[2.80938,50.35345]]]}},{"type":"Feature","properties":{"k":"CZH","s":3.204},"geometry":{"type":"Polygon","coordinates":[[[2.8097,50.35468],[2.81289,50.35344],[2.81224,50.35238],[2.80937,50.35345],[2.8097,50.35468]]]}},{"type":"Feature","properties":{"k":"BTN","s":0.692},"geometry":{"type":"Polygon","coordinates":[[[2.80979,50.35492],[2.81302,50.35365],[2.81289,50.35344],[2.8097,50.35468],[2.80979,50.35492]]]}},{"type":"Feature","properties":{"k":"BTH","s":0.892},"geometry":{"type":"Polygon","coordinates":[[[2.81182,50.35164],[2.81302,50.35367],[2.81348,50.3535],[2.8123,50.35151],[2.81182,50.35164]]]}},{"type":"Feature","properties":{"k":"BTH","s":2.433},"geometry":{"type":"Polygon","coordinates":[[[2.78681,50.3522],[2.78592,50.35312],[2.78631,50.35391],[2.78851,50.35374],[2.78765,50.35215],[2.78681,50.3522]]]}},{"type":"Feature","properties":{"k":"TRE","s":1.181},"geometry":{"type":"Polygon","coordinates":[[[2.78862,50.35289],[2.78892,50.35394],[2.79024,50.35355],[2.78974,50.35251],[2.78862,50.35289]]]}},{"type":"Feature","properties":{"k":"OEI","s":0.449},"geometry":{"type":"Polygon","coordinates":[[[2.78549,50.3565],[2.78447,50.35701],[2.78473,50.35719],[2.78571,50.35666],[2.7869,50.35648],[2.78661,50.3563],[2.78549,50.3565]]]}},{"type":"Feature","properties":{"k":"BTH","s":3.859},"geometry":{"type":"Polygon","coordinates":[[[2.78473,50.35719],[2.78723,50.35895],[2.78865,50.35783],[2.7869,50.35648],[2.78571,50.35666],[2.78473,50.35719]]]}},{"type":"Feature","properties":{"k":"CZH","s":11.081},"geometry":{"type":"Polygon","coordinates":[[[2.78346,50.3574],[2.78365,50.35846],[2.7845,50.35997],[2.78659,50.362],[2.78803,50.36113],[2.78847,50.36129],[2.79156,50.3597],[2.79118,50.35897],[2.78934,50.35993],[2.78885,50.35957],[2.78629,50.36092],[2.78582,50.36026],[2.78733,50.35902],[2.78445,50.357],[2.78346,50.3574]]]}},{"type":"Feature","properties":{"k":"OEI","s":0.18},"geometry":{"type":"Polygon","coordinates":[[[2.78733,50.35902],[2.78877,50.35791],[2.78865,50.35783],[2.78723,50.35895],[2.78733,50.35902]]]}},{"type":"Feature","properties":{"k":"PPH","s":2.119},"geometry":{"type":"Polygon","coordinates":[[[2.7909,50.35852],[2.79088,50.35848],[2.78959,50.35915],[2.78876,50.35862],[2.78594,50.36043],[2.78629,50.36092],[2.7909,50.35852]],[[2.78754,50.35975],[2.78736,50.35963],[2.78758,50.35952],[2.78774,50.35963],[2.78754,50.35975]],[[2.78739,50.35978],[2.78743,50.35975],[2.78762,50.35978],[2.78758,50.35989],[2.78739,50.35978]]]}},{"type":"Feature","properties":{"k":"BTN","s":0.88},"geometry":{"type":"Polygon","coordinates":[[[2.79115,50.35898],[2.7909,50.35852],[2.78888,50.35959],[2.78934,50.35993],[2.79115,50.35898]]]}},{"type":"Feature","properties":{"k":"BTH","s":1.03},"geometry":{"type":"Polygon","coordinates":[[[2.78808,50.35743],[2.78873,50.35708],[2.78841,50.35666],[2.78918,50.35637],[2.78901,50.35611],[2.78698,50.35662],[2.78808,50.35743]]]}},{"type":"Feature","properties":{"k":"BOR","s":0.092},"geometry":{"type":"Polygon","coordinates":[[[2.79376,50.35711],[2.79559,50.35669],[2.79153,50.35758],[2.79376,50.35711]]]}},{"type":"Feature","properties":{"k":"BTH","s":0.932},"geometry":{"type":"Polygon","coordinates":[[[2.79235,50.35775],[2.79582,50.35687],[2.79555,50.3567],[2.79158,50.3576],[2.79171,50.35791],[2.79235,50.35775]]]}},{"type":"Feature","properties":{"k":"BOR","s":0.038},"geometry":{"type":"Polygon","coordinates":[[[2.79171,50.35791],[2.79167,50.35784],[2.79108,50.35799],[2.79171,50.35791]]]}},{"type":"Feature","properties":{"k":"BTH","s":20.702},"geometry":{"type":"Polygon","coordinates":[[[2.79344,50.36273],[2.79696,50.36081],[2.79775,50.36184],[2.79949,50.36084],[2.79663,50.35731],[2.79616,50.35716],[2.79116,50.35843],[2.79344,50.36273]]]}},{"type":"Feature","properties":{"k":"MIS","s":2.397},"geometry":{"type":"Polygon","coordinates":[[[2.79495,50.35361],[2.79457,50.35333],[2.79339,50.35308],[2.79226,50.35312],[2.79289,50.35415],[2.79461,50.3537],[2.79523,50.35456],[2.7968,50.35422],[2.79565,50.35343],[2.79495,50.35361]]]}},{"type":"Feature","properties":{"k":"BTH","s":7.612},"geometry":{"type":"Polygon","coordinates":[[[2.81403,50.34364],[2.80616,50.34613],[2.80679,50.34695],[2.81517,50.34469],[2.81403,50.34364]]]}},{"type":"Feature","properties":{"k":"PPH","s":0.597},"geometry":{"type":"Polygon","coordinates":[[[2.79545,50.35311],[2.79568,50.35338],[2.79788,50.35267],[2.79765,50.35241],[2.79545,50.35311]]]}},{"type":"Feature","properties":{"k":"PPH","s":0.282},"geometry":{"type":"Polygon","coordinates":[[[2.79824,50.35677],[2.79751,50.35699],[2.7978,50.35734],[2.79834,50.35716],[2.79857,50.35749],[2.79865,50.3573],[2.79824,50.35677]]]}},{"type":"Feature","properties":{"k":"MIS","s":14.607},"geometry":{"type":"Polygon","coordinates":[[[2.81029,50.346],[2.80679,50.34695],[2.80856,50.35125],[2.81068,50.35083],[2.8102,50.34996],[2.81229,50.34941],[2.81201,50.34896],[2.81816,50.3473],[2.81788,50.34707],[2.81184,50.34868],[2.81029,50.346]]]}},{"type":"Feature","properties":{"k":"BTH","s":2.712},"geometry":{"type":"Polygon","coordinates":[[[2.81788,50.34707],[2.81739,50.3466],[2.81157,50.34819],[2.81184,50.34868],[2.81788,50.34707]]]}},{"type":"Feature","properties":{"k":"PTC","s":7.807},"geometry":{"type":"Polygon","coordinates":[[[2.81157,50.34819],[2.81739,50.3466],[2.81581,50.34525],[2.81068,50.34663],[2.81157,50.34819]]]}},{"type":"Feature","properties":{"k":"BTH","s":2.92},"geometry":{"type":"Polygon","coordinates":[[[2.81029,50.346],[2.81068,50.34663],[2.81581,50.34525],[2.81517,50.34469],[2.81029,50.346]]]}},{"type":"Feature","properties":{"k":"BOR","s":0.016},"geometry":{"type":"Polygon","coordinates":[]}},{"type":"Feature","properties":{"k":"CZH","s":1.279},"geometry":{"type":"Polygon","coordinates":[[[2.78537,50.35517],[2.78558,50.35638],[2.78702,50.3562],[2.78681,50.3552],[2.78537,50.35517]]]}},{"type":"Feature","properties":{"k":"BTH","s":10.369},"geometry":{"type":"Polygon","coordinates":[[[2.81654,50.35014],[2.81324,50.35073],[2.81468,50.35303],[2.82013,50.35093],[2.81995,50.34949],[2.81951,50.34935],[2.81654,50.35014]]]}},{"type":"Feature","properties":{"k":"BOR","s":0.056},"geometry":{"type":"Polygon","coordinates":[[[2.78709,50.35619],[2.78681,50.3552],[2.78687,50.35549],[2.78709,50.35619]]]}},{"type":"Feature","properties":{"k":"MIS","s":2.684},"geometry":{"type":"Polygon","coordinates":[[[2.78801,50.34487],[2.79063,50.34626],[2.79097,50.34615],[2.79186,50.34562],[2.78895,50.34419],[2.78801,50.34487]]]}},{"type":"Feature","properties":{"k":"BTH","s":11.597},"geometry":{"type":"Polygon","coordinates":[[[2.79796,50.34701],[2.7973,50.34668],[2.79708,50.34614],[2.79717,50.34564],[2.79614,50.34382],[2.79584,50.34367],[2.79425,50.34485],[2.79366,50.3455],[2.79355,50.34712],[2.79309,50.34751],[2.79247,50.34767],[2.79303,50.34878],[2.79813,50.34732],[2.79796,50.34701]]]}},{"type":"Feature","properties":{"k":"BTH","s":4.521},"geometry":{"type":"Polygon","coordinates":[[[2.79314,50.34917],[2.79241,50.34776],[2.79131,50.34735],[2.78958,50.34869],[2.79036,50.35002],[2.79314,50.34917]]]}},{"type":"Feature","properties":{"k":"BTN","s":10.17},"geometry":{"type":"Polygon","coordinates":[[[2.79904,50.34963],[2.79812,50.34735],[2.79304,50.34878],[2.79412,50.35102],[2.79904,50.34963]]]}},{"type":"Feature","properties":{"k":"BTH","s":1.287},"geometry":{"type":"Polygon","coordinates":[[[2.79913,50.34995],[2.79904,50.34963],[2.79412,50.35102],[2.79428,50.3513],[2.79913,50.34995]]]}},{"type":"Feature","properties":{"k":"BTH","s":4.712},"geometry":{"type":"Polygon","coordinates":[[[2.79905,50.35122],[2.79848,50.35011],[2.79427,50.35134],[2.79503,50.35252],[2.79946,50.35118],[2.79905,50.35122]]]}},{"type":"Feature","properties":{"k":"ORH","s":8.976},"geometry":{"type":"Polygon","coordinates":[[[2.79418,50.35134],[2.79314,50.34917],[2.79036,50.35002],[2.79226,50.35312],[2.79339,50.35308],[2.79457,50.35333],[2.79495,50.35361],[2.79565,50.35343],[2.79418,50.35134]]]}},{"type":"Feature","properties":{"k":"JAC","s":1.183},"geometry":{"type":"Polygon","coordinates":[[[2.79022,50.35187],[2.78849,50.35239],[2.78861,50.35285],[2.78974,50.35251],[2.79007,50.35319],[2.79083,50.35299],[2.79022,50.35187]]]}},{"type":"Feature","properties":{"k":"CZH","s":6.609},"geometry":{"type":"Polygon","coordinates":[[[2.78929,50.34893],[2.78778,50.35017],[2.7882,50.35078],[2.788,50.35147],[2.78849,50.35238],[2.79025,50.35186],[2.7907,50.35271],[2.79188,50.35248],[2.78969,50.34888],[2.78942,50.3491],[2.78929,50.34893]]]}},{"type":"Feature","properties":{"k":"BTN","s":0.505},"geometry":{"type":"Polygon","coordinates":[[[2.78825,50.35409],[2.78818,50.35383],[2.78855,50.35379],[2.78631,50.35391],[2.78644,50.35415],[2.78825,50.35409]]]}},{"type":"Feature","properties":{"k":"BTH","s":7.955},"geometry":{"type":"Polygon","coordinates":[[[2.81322,50.35367],[2.81481,50.35541],[2.8168,50.35427],[2.81657,50.35401],[2.82017,50.35182],[2.81961,50.35118],[2.814,50.35336],[2.814,50.35337],[2.81322,50.35367]]]}},{"type":"Feature","properties":{"k":"BTH","s":8.161},"geometry":{"type":"Polygon","coordinates":[[[2.811,50.35759],[2.8148,50.35542],[2.8132,50.35367],[2.80985,50.35496],[2.811,50.35759]]]}},{"type":"Feature","properties":{"k":"JAC","s":0.088},"geometry":{"type":"Polygon","coordinates":[[[2.82068,50.34906],[2.82368,50.34817],[2.82365,50.34815],[2.82042,50.3491],[2.82068,50.34906]]]}},{"type":"Feature","properties":{"k":"BTN","s":8.485},"geometry":{"type":"Polygon","coordinates":[[[2.78948,50.34725],[2.78967,50.34664],[2.78945,50.3464],[2.7877,50.34554],[2.78647,50.3453],[2.78566,50.3445],[2.78459,50.34474],[2.78457,50.3449],[2.78599,50.34783],[2.78839,50.34716],[2.78867,50.34785],[2.78635,50.34854],[2.78689,50.3496],[2.78948,50.34725]]]}},{"type":"Feature","properties":{"k":"JAC","s":0.307},"geometry":{"type":"Polygon","coordinates":[[[2.78801,50.34487],[2.78782,50.34502],[2.7887,50.34528],[2.7898,50.34602],[2.79059,50.34626],[2.78801,50.34487]]]}},{"type":"Feature","properties":{"k":"JAC","s":0.336},"geometry":{"type":"Polygon","coordinates":[[[2.78867,50.34785],[2.78839,50.34716],[2.78599,50.34783],[2.78828,50.34725],[2.78851,50.3478],[2.78645,50.34852],[2.78867,50.34785]]]}},{"type":"Feature","properties":{"k":"BTH","s":2.639},"geometry":{"type":"Polygon","coordinates":[[[2.82082,50.34969],[2.82081,50.34969],[2.82017,50.35018],[2.82047,50.35181],[2.82139,50.35227],[2.82234,50.35139],[2.82082,50.34969]]]}}]}