{"type":"FeatureCollection","features":[{"type":"Feature","properties":{"k":"BTH","s":0.011},"geometry":{"type":"Polygon","coordinates":[[[2.19347,50.42294],[2.19393,50.4224],[2.1934,50.42296],[2.19347,50.42294]]]}},{"type":"Feature","properties":{"k":"BTA","s":0.223},"geometry":{"type":"Polygon","coordinates":[[[2.19609,50.43979],[2.19651,50.44014],[2.19683,50.4402],[2.19632,50.43982],[2.19445,50.43908],[2.19438,50.43917],[2.19609,50.43979]]]}},{"type":"Feature","properties":{"k":"BTA","s":0.159},"geometry":{"type":"Polygon","coordinates":[[[2.19563,50.43864],[2.19511,50.43842],[2.19603,50.43757],[2.19543,50.43714],[2.19555,50.4369],[2.19533,50.43715],[2.19592,50.43754],[2.19504,50.43843],[2.19554,50.43865],[2.19509,50.43932],[2.19563,50.43864]]]}},{"type":"Feature","properties":{"k":"PPH","s":1.682},"geometry":{"type":"Polygon","coordinates":[[[2.19177,50.43838],[2.19188,50.43871],[2.19403,50.43904],[2.19415,50.43921],[2.19464,50.43852],[2.19264,50.4378],[2.19177,50.43838]]]}},{"type":"Feature","properties":{"k":"PPH","s":0.679},"geometry":{"type":"Polygon","coordinates":[[[2.19142,50.43832],[2.1906,50.43814],[2.19022,50.43836],[2.19122,50.43915],[2.19178,50.43882],[2.19142,50.43832]]]}},{"type":"Feature","properties":{"k":"PPH","s":0.586},"geometry":{"type":"Polygon","coordinates":[[[2.19058,50.43761],[2.19024,50.43704],[2.18964,50.4371],[2.19019,50.43836],[2.19052,50.43816],[2.19037,50.43795],[2.19058,50.43761]]]}},{"type":"Feature","properties":{"k":"PPH","s":1.727},"geometry":{"type":"Polygon","coordinates":[[[2.19218,50.43758],[2.19137,50.43671],[2.19032,50.43668],[2.19074,50.43768],[2.19065,50.43798],[2.19153,50.43821],[2.19171,50.43841],[2.19265,50.43776],[2.19218,50.43758]]]}},{"type":"Feature","properties":{"k":"PPH","s":0.857},"geometry":{"type":"Polygon","coordinates":[[[2.1919,50.43671],[2.19136,50.43669],[2.19215,50.43754],[2.19325,50.438],[2.19367,50.43767],[2.1919,50.43671]]]}},{"type":"Feature","properties":{"k":"BTA","s":0.227},"geometry":{"type":"Polygon","coordinates":[[[2.19046,50.43608],[2.19015,50.43652],[2.19011,50.43703],[2.19057,50.43612],[2.19026,50.43514],[2.19046,50.43503],[2.19008,50.43509],[2.19046,50.43608]]]}},{"type":"Feature","properties":{"k":"MIS","s":2.691},"geometry":{"type":"Polygon","coordinates":[[[2.19681,50.43419],[2.19612,50.43504],[2.19969,50.43653],[2.20026,50.43585],[2.19777,50.4349],[2.19681,50.43419]]]}},{"type":"Feature","properties":{"k":"MIS","s":6.167},"geometry":{"type":"Polygon","coordinates":[[[2.19543,50.43714],[2.19603,50.43757],[2.19511,50.43842],[2.19563,50.43864],[2.19509,50.43932],[2.19686,50.44014],[2.19786,50.4384],[2.19706,50.43786],[2.19818,50.43716],[2.19775,50.43669],[2.19574,50.43553],[2.19543,50.43606],[2.19613,50.43627],[2.19543,50.43714]]]}},{"type":"Feature","properties":{"k":"PPH","s":0.943},"geometry":{"type":"Polygon","coordinates":[[[2.20089,50.43827],[2.20149,50.43815],[2.19907,50.43732],[2.19775,50.43669],[2.19818,50.43716],[2.19794,50.43738],[2.20089,50.43827]]]}},{"type":"Feature","properties":{"k":"MIS","s":0.178},"geometry":{"type":"Polygon","coordinates":[[[2.20063,50.43689],[2.20219,50.4374],[2.20228,50.43729],[2.20068,50.43677],[2.20063,50.43689]]]}},{"type":"Feature","properties":{"k":"PTC","s":6.434},"geometry":{"type":"Polygon","coordinates":[[[2.20262,50.43687],[2.20336,50.43715],[2.20463,50.43547],[2.20144,50.43426],[2.20011,50.43626],[2.20068,50.43677],[2.20228,50.43729],[2.20262,50.43687]]]}},{"type":"Feature","properties":{"k":"BTH","s":0.058},"geometry":{"type":"Polygon","coordinates":[[[2.20306,50.43761],[2.20425,50.43601],[2.20355,50.43693],[2.20306,50.43761]]]}},{"type":"Feature","properties":{"k":"ORP","s":0.399},"geometry":{"type":"Polygon","coordinates":[[[2.20219,50.4374],[2.20297,50.43766],[2.20336,50.43715],[2.20262,50.43687],[2.20219,50.4374]]]}},{"type":"Feature","properties":{"k":"JAC","s":0.495},"geometry":{"type":"MultiPolygon","coordinates":[[[[2.20391,50.4433],[2.20289,50.44294],[2.20274,50.44444],[2.20301,50.44485],[2.20282,50.44443],[2.20296,50.443],[2.2081,50.44501],[2.20391,50.4433]]],[[[2.20207,50.44264],[2.2011,50.44281],[2.20034,50.44251],[2.19886,50.44216],[2.19871,50.44235],[2.19889,50.44221],[2.2011,50.44285],[2.20207,50.4427],[2.20268,50.44293],[2.20258,50.44384],[2.20289,50.44294],[2.20207,50.44264]]]]}},{"type":"Feature","properties":{"k":"CZH","s":3.381},"geometry":{"type":"Polygon","coordinates":[[[2.20546,50.444],[2.20296,50.443],[2.20282,50.44443],[2.20301,50.44485],[2.20354,50.44503],[2.20425,50.44451],[2.20511,50.44483],[2.20554,50.44441],[2.2079,50.44532],[2.2081,50.44501],[2.20546,50.444]]]}},{"type":"Feature","properties":{"k":"BTH","s":0.575},"geometry":{"type":"MultiPolygon","coordinates":[[[[2.20531,50.44712],[2.20252,50.4485],[2.20263,50.4486],[2.20579,50.44717],[2.20531,50.44712]]],[[[2.20162,50.44911],[2.20173,50.44903],[2.20116,50.4493],[2.20162,50.44911]]]]}},{"type":"Feature","properties":{"k":"PPH","s":0.031},"geometry":{"type":"MultiPolygon","coordinates":[[[[2.21009,50.44636],[2.21054,50.44627],[2.20949,50.44634],[2.21009,50.44636]]],[[[2.20751,50.44576],[2.20801,50.44576],[2.20751,50.44573],[2.20751,50.44576]]]]}},{"type":"Feature","properties":{"k":"BTH","s":1.019},"geometry":{"type":"Polygon","coordinates":[[[2.20334,50.43484],[2.20438,50.43389],[2.20331,50.43332],[2.20269,50.4346],[2.20334,50.43484]]]}},{"type":"Feature","properties":{"k":"BTN","s":0.877},"geometry":{"type":"Polygon","coordinates":[[[2.20427,50.43127],[2.20455,50.43104],[2.20182,50.42947],[2.20156,50.42974],[2.20427,50.43127]]]}},{"type":"Feature","properties":{"k":"PHF","s":1.361},"geometry":{"type":"Polygon","coordinates":[[[2.20358,50.43048],[2.20455,50.43104],[2.20576,50.43002],[2.20447,50.42949],[2.20358,50.43048]]]}},{"type":"Feature","properties":{"k":"MIS","s":4.658},"geometry":{"type":"Polygon","coordinates":[[[2.20576,50.43002],[2.2059,50.42991],[2.20564,50.42964],[2.20581,50.42912],[2.20551,50.42854],[2.20517,50.42834],[2.20394,50.42972],[2.20373,50.42962],[2.20508,50.42815],[2.20364,50.42753],[2.20182,50.42947],[2.20358,50.43048],[2.20447,50.42949],[2.20576,50.43002]]]}},{"type":"Feature","properties":{"k":"JAC","s":0.822},"geometry":{"type":"Polygon","coordinates":[[[2.20357,50.42458],[2.20287,50.42562],[2.20302,50.42581],[2.20374,50.42461],[2.20573,50.42278],[2.20369,50.42404],[2.20357,50.42458]]]}},{"type":"Feature","properties":{"k":"BTH","s":1.734},"geometry":{"type":"Polygon","coordinates":[[[2.20455,50.42204],[2.20347,50.42262],[2.20368,50.42404],[2.20566,50.42274],[2.20455,50.42204]]]}},{"type":"Feature","properties":{"k":"LIF","s":0.814},"geometry":{"type":"Polygon","coordinates":[[[2.20325,50.42228],[2.20299,50.42211],[2.20201,50.42259],[2.2033,50.42342],[2.20356,50.42328],[2.20325,50.42228]]]}},{"type":"Feature","properties":{"k":"BTH","s":0.144},"geometry":{"type":"Polygon","coordinates":[[[2.20348,50.42258],[2.20454,50.42198],[2.20432,50.42189],[2.20342,50.42244],[2.20348,50.42258]]]}},{"type":"Feature","properties":{"k":"PPH","s":0.013},"geometry":{"type":"Polygon","coordinates":[[[2.20527,50.42228],[2.2048,50.42209],[2.20537,50.42239],[2.20527,50.42228]]]}},{"type":"Feature","properties":{"k":"PPH","s":0.009},"geometry":{"type":"Polygon","coordinates":[[[2.19268,50.45443],[2.1928,50.45443],[2.19337,50.45386],[2.19268,50.45443]]]}},{"type":"Feature","properties":{"k":"PPH","s":0.004},"geometry":{"type":"Polygon","coordinates":[[[2.19431,50.45336],[2.19446,50.45325],[2.19419,50.45339],[2.19431,50.45336]]]}},{"type":"Feature","properties":{"k":"JAC","s":0.171},"geometry":{"type":"MultiPolygon","coordinates":[[[[2.19208,50.45523],[2.19267,50.45553],[2.19268,50.45525],[2.19225,50.45488],[2.19208,50.45523]]],[[[2.19266,50.45562],[2.19266,50.45558],[2.19261,50.45563],[2.19266,50.45562]]]]}},{"type":"Feature","properties":{"k":"BTH","s":1.358},"geometry":{"type":"Polygon","coordinates":[[[2.19261,50.45563],[2.1916,50.45522],[2.1911,50.4554],[2.19032,50.45457],[2.18982,50.45521],[2.19086,50.45609],[2.19261,50.45563]]]}},{"type":"Feature","properties":{"k":"PPH","s":0.321},"geometry":{"type":"Polygon","coordinates":[[[2.19332,50.45445],[2.19279,50.45444],[2.19226,50.45488],[2.19268,50.45524],[2.19332,50.45445]]]}},{"type":"Feature","properties":{"k":"BTH","s":6.209},"geometry":{"type":"Polygon","coordinates":[[[2.18589,50.4585],[2.18807,50.45738],[2.18509,50.45522],[2.18312,50.45647],[2.18589,50.4585]]]}},{"type":"Feature","properties":{"k":"TRE","s":1.798},"geometry":{"type":"Polygon","coordinates":[[[2.18369,50.45419],[2.18286,50.45476],[2.18374,50.45552],[2.18282,50.45627],[2.18312,50.45647],[2.18509,50.45522],[2.18369,50.45419]]]}},{"type":"Feature","properties":{"k":"BTH","s":2.289},"geometry":{"type":"Polygon","coordinates":[[[2.18808,50.45738],[2.18873,50.45702],[2.18587,50.45469],[2.18479,50.45496],[2.18808,50.45738]]]}},{"type":"Feature","properties":{"k":"MIS","s":2.304},"geometry":{"type":"Polygon","coordinates":[[[2.19086,50.45608],[2.18983,50.45521],[2.18762,50.45612],[2.18886,50.45703],[2.19086,50.45608]]]}},{"type":"Feature","properties":{"k":"ORH","s":5.114},"geometry":{"type":"Polygon","coordinates":[[[2.18983,50.45521],[2.19028,50.45463],[2.19025,50.45431],[2.19096,50.45356],[2.1908,50.45319],[2.18815,50.45401],[2.18677,50.45465],[2.18643,50.45522],[2.18762,50.45612],[2.18983,50.45521]],[[2.1872,50.4553],[2.18687,50.45544],[2.18684,50.45541],[2.1872,50.4553]]]}},{"type":"Feature","properties":{"k":"PPH","s":4.168},"geometry":{"type":"Polygon","coordinates":[[[2.18815,50.45401],[2.18991,50.45347],[2.18959,50.45306],[2.18916,50.45316],[2.18901,50.45293],[2.1878,50.45311],[2.18761,50.45271],[2.18616,50.45278],[2.18621,50.45331],[2.1855,50.45328],[2.18596,50.45487],[2.18643,50.45522],[2.18677,50.45465],[2.18815,50.45401]]]}},{"type":"Feature","properties":{"k":"BTH","s":8.683},"geometry":{"type":"Polygon","coordinates":[[[2.18144,50.45392],[2.18286,50.45476],[2.1838,50.45412],[2.18433,50.45436],[2.18549,50.45402],[2.18532,50.45336],[2.1856,50.45269],[2.18888,50.45249],[2.19068,50.45165],[2.19006,50.45122],[2.18973,50.45151],[2.18806,50.45191],[2.18726,50.45183],[2.18582,50.45195],[2.18445,50.45158],[2.18382,50.45165],[2.18323,50.45182],[2.18367,50.45234],[2.18197,50.45376],[2.18144,50.45392]]]}},{"type":"Feature","properties":{"k":"PPH","s":2.184},"geometry":{"type":"Polygon","coordinates":[[[2.17879,50.45465],[2.17913,50.45486],[2.18176,50.45299],[2.18246,50.4534],[2.18367,50.45234],[2.18353,50.45214],[2.18259,50.45244],[2.18237,50.45219],[2.17879,50.45465]]]}},{"type":"Feature","properties":{"k":"PTR","s":0.277},"geometry":{"type":"Polygon","coordinates":[[[2.18353,50.45214],[2.18323,50.45182],[2.18237,50.45219],[2.18259,50.45244],[2.18353,50.45214]]]}},{"type":"Feature","properties":{"k":"PPH","s":2.696},"geometry":{"type":"Polygon","coordinates":[[[2.18109,50.45102],[2.18052,50.45178],[2.18179,50.45233],[2.18263,50.45184],[2.18389,50.45138],[2.184,50.45095],[2.18184,50.45067],[2.18109,50.45102]]]}},{"type":"Feature","properties":{"k":"PPH","s":2.187},"geometry":{"type":"Polygon","coordinates":[[[2.17931,50.45279],[2.17831,50.45393],[2.17909,50.45421],[2.17966,50.4538],[2.17936,50.45362],[2.18017,50.45297],[2.18078,50.45318],[2.18153,50.4525],[2.1809,50.4521],[2.18072,50.45232],[2.18047,50.45221],[2.18028,50.45245],[2.17977,50.45219],[2.17991,50.45183],[2.17964,50.45177],[2.17931,50.45279]]]}},{"type":"Feature","properties":{"k":"PPH","s":4.12},"geometry":{"type":"Polygon","coordinates":[[[2.17861,50.45471],[2.17834,50.45489],[2.17748,50.45501],[2.17748,50.45488],[2.17603,50.45481],[2.17522,50.45636],[2.17663,50.45664],[2.17723,50.45632],[2.17678,50.45666],[2.17712,50.45693],[2.17738,50.45689],[2.1775,50.45665],[2.17767,50.45727],[2.17834,50.45624],[2.17807,50.4561],[2.17902,50.45491],[2.17861,50.45471]]]}},{"type":"Feature","properties":{"k":"PPH","s":1.671},"geometry":{"type":"Polygon","coordinates":[[[2.18079,50.45432],[2.18047,50.45413],[2.17946,50.45486],[2.17912,50.45488],[2.1799,50.45567],[2.18072,50.45447],[2.18175,50.45511],[2.18241,50.45456],[2.18144,50.45392],[2.18079,50.45432]]]}},{"type":"Feature","properties":{"k":"CZH","s":4.787},"geometry":{"type":"Polygon","coordinates":[[[2.18374,50.45552],[2.18241,50.45456],[2.18175,50.45511],[2.18072,50.45447],[2.18012,50.45545],[2.18085,50.45615],[2.18175,50.45551],[2.18237,50.45596],[2.18156,50.45645],[2.18176,50.45661],[2.18144,50.4568],[2.18324,50.45795],[2.1842,50.45732],[2.18277,50.45627],[2.18374,50.45552]]]}},{"type":"Feature","properties":{"k":"CZH","s":0.558},"geometry":{"type":"Polygon","coordinates":[[[2.18085,50.45615],[2.18156,50.45645],[2.18237,50.45596],[2.18175,50.45551],[2.18085,50.45615]]]}},{"type":"Feature","properties":{"k":"BTH","s":7.325},"geometry":{"type":"Polygon","coordinates":[[[2.17807,50.4561],[2.17834,50.45624],[2.17767,50.45727],[2.17822,50.4577],[2.17868,50.45721],[2.17895,50.45731],[2.18238,50.45892],[2.1835,50.45815],[2.18128,50.45681],[2.18164,50.45658],[2.18085,50.45617],[2.18011,50.4555],[2.1799,50.45572],[2.17902,50.45491],[2.17807,50.4561]]]}},{"type":"Feature","properties":{"k":"PPH","s":1.212},"geometry":{"type":"Polygon","coordinates":[[[2.17717,50.45721],[2.17661,50.45772],[2.17855,50.45862],[2.17868,50.45814],[2.17748,50.45716],[2.17717,50.45721]]]}},{"type":"Feature","properties":{"k":"CZH","s":0.0},"geometry":{"type":"Polygon","coordinates":[[[2.17881,50.45855],[2.17879,50.45854],[2.17874,50.45854],[2.17881,50.45855]]]}},{"type":"Feature","properties":{"k":"MIS","s":1.251},"geometry":{"type":"Polygon","coordinates":[[[2.18245,50.45888],[2.18118,50.45973],[2.18173,50.46002],[2.18261,50.45938],[2.18442,50.46034],[2.18475,50.46007],[2.18245,50.45888]]]}},{"type":"Feature","properties":{"k":"PPH","s":3.537},"geometry":{"type":"Polygon","coordinates":[[[2.18117,50.45974],[2.18235,50.45893],[2.17991,50.45766],[2.1787,50.45723],[2.17823,50.45772],[2.17873,50.45826],[2.17865,50.45845],[2.18117,50.45974]]]}},{"type":"Feature","properties":{"k":"PTR","s":3.745},"geometry":{"type":"Polygon","coordinates":[[[2.18324,50.45795],[2.18353,50.45813],[2.18245,50.45888],[2.18474,50.46006],[2.18577,50.45851],[2.1842,50.45732],[2.18324,50.45795]]]}},{"type":"Feature","properties":{"k":"PPH","s":0.0},"geometry":{"type":"Polygon","coordinates":[]}},{"type":"Feature","properties":{"k":"BTN","s":7.083},"geometry":{"type":"Polygon","coordinates":[[[2.16328,50.45455],[2.16087,50.45489],[2.15966,50.45516],[2.15938,50.45534],[2.16273,50.45761],[2.1649,50.45607],[2.16328,50.45455]]]}},{"type":"Feature","properties":{"k":"LIF","s":4.034},"geometry":{"type":"Polygon","coordinates":[[[2.17055,50.45254],[2.16835,50.45302],[2.16884,50.45429],[2.17112,50.4547],[2.17113,50.45461],[2.17164,50.45467],[2.1714,50.45334],[2.17055,50.45254]]]}},{"type":"Feature","properties":{"k":"PPH","s":9.379},"geometry":{"type":"Polygon","coordinates":[[[2.16817,50.45438],[2.16792,50.45525],[2.16744,50.45534],[2.16709,50.45508],[2.16673,50.45505],[2.16619,50.45529],[2.16776,50.45664],[2.16929,50.45575],[2.17027,50.45467],[2.16884,50.45438],[2.16823,50.45299],[2.16695,50.45321],[2.16672,50.45332],[2.16668,50.45362],[2.16618,50.45376],[2.16584,50.45345],[2.16329,50.45455],[2.1649,50.45606],[2.16671,50.45467],[2.16817,50.45438]]]}},{"type":"Feature","properties":{"k":"PPH","s":2.187},"geometry":{"type":"Polygon","coordinates":[[[2.16601,50.45714],[2.16781,50.45674],[2.1661,50.45526],[2.16494,50.4562],[2.16601,50.45714]]]}},{"type":"Feature","properties":{"k":"BTH","s":1.663},"geometry":{"type":"Polygon","coordinates":[[[2.16483,50.45632],[2.16295,50.45764],[2.16589,50.45741],[2.16868,50.45929],[2.16483,50.45632]]]}},{"type":"Feature","properties":{"k":"PTC","s":16.269},"geometry":{"type":"Polygon","coordinates":[[[2.16872,50.45927],[2.16985,50.45878],[2.17097,50.45995],[2.17325,50.45885],[2.17295,50.45726],[2.17169,50.45481],[2.17039,50.45465],[2.16996,50.4554],[2.16867,50.45633],[2.16766,50.4568],[2.16583,50.4572],[2.16872,50.45927]]]}},{"type":"Feature","properties":{"k":"MIS","s":2.559},"geometry":{"type":"Polygon","coordinates":[[[2.17327,50.45595],[2.17403,50.45612],[2.1747,50.45482],[2.17178,50.45476],[2.17279,50.45678],[2.17327,50.45595]]]}},{"type":"Feature","properties":{"k":"BTH","s":2.65},"geometry":{"type":"Polygon","coordinates":[[[2.17522,50.45637],[2.17327,50.45596],[2.17285,50.45683],[2.17327,50.45781],[2.17337,50.45903],[2.17522,50.45637]]]}},{"type":"Feature","properties":{"k":"PPH","s":3.289},"geometry":{"type":"Polygon","coordinates":[[[2.17337,50.45903],[2.17336,50.45918],[2.17423,50.45872],[2.17454,50.458],[2.17574,50.45836],[2.17694,50.45735],[2.17663,50.45664],[2.17517,50.45643],[2.17337,50.45903]]]}},{"type":"Feature","properties":{"k":"MIS","s":1.306},"geometry":{"type":"Polygon","coordinates":[[[2.17595,50.45488],[2.17476,50.45483],[2.17407,50.45612],[2.17514,50.45633],[2.17595,50.45488]]]}},{"type":"Feature","properties":{"k":"PPH","s":2.322},"geometry":{"type":"Polygon","coordinates":[[[2.17266,50.4524],[2.17266,50.4528],[2.17818,50.45428],[2.17843,50.45402],[2.17585,50.45302],[2.17522,50.45318],[2.17472,50.45305],[2.17441,50.45293],[2.17468,50.4526],[2.17385,50.45242],[2.17353,50.45253],[2.17266,50.4524]]]}},{"type":"Feature","properties":{"k":"LIF","s":4.789},"geometry":{"type":"Polygon","coordinates":[[[2.17181,50.45472],[2.17503,50.4548],[2.17495,50.45429],[2.17542,50.4536],[2.17135,50.4525],[2.17108,50.45272],[2.17175,50.45384],[2.17181,50.45472]]]}},{"type":"Feature","properties":{"k":"MIS","s":29.394},"geometry":{"type":"Polygon","coordinates":[[[2.16884,50.44696],[2.17057,50.44922],[2.17009,50.44947],[2.17157,50.45036],[2.17155,50.45067],[2.17257,50.45113],[2.17252,50.45202],[2.17512,50.45266],[2.17831,50.45393],[2.17931,50.45279],[2.17953,50.45188],[2.17867,50.45169],[2.1788,50.45148],[2.17833,50.45119],[2.17859,50.451],[2.17797,50.45036],[2.17478,50.44782],[2.17416,50.44688],[2.16884,50.44696]]]}},{"type":"Feature","properties":{"k":"BTH","s":1.956},"geometry":{"type":"Polygon","coordinates":[[[2.17652,50.44786],[2.17666,50.44777],[2.17481,50.44683],[2.17438,50.44692],[2.17473,50.4476],[2.1761,50.4488],[2.1775,50.44823],[2.17652,50.44786]]]}},{"type":"Feature","properties":{"k":"BTH","s":0.885},"geometry":{"type":"Polygon","coordinates":[[[2.17481,50.44683],[2.17666,50.44777],[2.17719,50.44737],[2.17567,50.4466],[2.17481,50.44683]]]}},{"type":"Feature","properties":{"k":"MIS","s":0.001},"geometry":{"type":"Polygon","coordinates":[[[2.16918,50.44996],[2.16917,50.45],[2.16921,50.44998],[2.16918,50.44996]]]}},{"type":"Feature","properties":{"k":"BTH","s":3.668},"geometry":{"type":"Polygon","coordinates":[[[2.16844,50.44904],[2.16925,50.44984],[2.17057,50.44922],[2.16881,50.44696],[2.16755,50.44714],[2.16734,50.4473],[2.16844,50.44904]]]}},{"type":"Feature","properties":{"k":"MIS","s":1.855},"geometry":{"type":"Polygon","coordinates":[[[2.16726,50.44587],[2.16983,50.44682],[2.17184,50.44688],[2.16748,50.44529],[2.16726,50.44587]]]}},{"type":"Feature","properties":{"k":"BTH","s":1.222},"geometry":{"type":"Polygon","coordinates":[[[2.16736,50.44709],[2.16983,50.44682],[2.16726,50.44587],[2.16736,50.44709]]]}},{"type":"Feature","properties":{"k":"BTH","s":3.799},"geometry":{"type":"Polygon","coordinates":[[[2.17749,50.44569],[2.16884,50.44255],[2.16856,50.44308],[2.177,50.44601],[2.17749,50.44569]]]}},{"type":"Feature","properties":{"k":"BTH","s":14.116},"geometry":{"type":"Polygon","coordinates":[[[2.16748,50.44529],[2.17184,50.44688],[2.1732,50.44658],[2.17371,50.44679],[2.17491,50.44672],[2.177,50.44601],[2.16856,50.44308],[2.16748,50.44529]]]}},{"type":"Feature","properties":{"k":"MIS","s":0.927},"geometry":{"type":"Polygon","coordinates":[[[2.17815,50.4451],[2.17382,50.44355],[2.17347,50.44369],[2.17794,50.44528],[2.17815,50.4451]]]}},{"type":"Feature","properties":{"k":"MIS","s":2.003},"geometry":{"type":"Polygon","coordinates":[[[2.17794,50.44528],[2.17348,50.44369],[2.17279,50.44398],[2.17749,50.44569],[2.17794,50.44528]]]}},{"type":"Feature","properties":{"k":"MIS","s":0.011},"geometry":{"type":"Polygon","coordinates":[]}},{"type":"Feature","properties":{"k":"BTH","s":0.006},"geometry":{"type":"Polygon","coordinates":[]}},{"type":"Feature","properties":{"k":"BTN","s":5.203},"geometry":{"type":"Polygon","coordinates":[[[2.17455,50.44323],[2.1689,50.44121],[2.16884,50.44255],[2.17278,50.44398],[2.17516,50.44299],[2.17455,50.44323]]]}},{"type":"Feature","properties":{"k":"MIS","s":0.0},"geometry":{"type":"Polygon","coordinates":[]}},{"type":"Feature","properties":{"k":"PPH","s":0.043},"geometry":{"type":"MultiPolygon","coordinates":[[[[2.19613,50.42063],[2.19681,50.42014],[2.19528,50.42116],[2.19613,50.42063]]],[[[2.19859,50.41869],[2.19786,50.41929],[2.1986,50.41871],[2.19859,50.41869]]]]}},{"type":"Feature","properties":{"k":"PTC","s":5.116},"geometry":{"type":"Polygon","coordinates":[[[2.20103,50.41906],[2.19401,50.42304],[2.19535,50.42328],[2.19877,50.4214],[2.19855,50.42124],[2.20159,50.41976],[2.20103,50.41906]]]}},{"type":"Feature","properties":{"k":"MIS","s":6.763},"geometry":{"type":"Polygon","coordinates":[[[2.20103,50.41906],[2.20066,50.41863],[2.19865,50.4187],[2.19648,50.42041],[2.19476,50.42152],[2.19347,50.42294],[2.19394,50.42303],[2.20103,50.41906]]]}},{"type":"Feature","properties":{"k":"BTH","s":0.119},"geometry":{"type":"Polygon","coordinates":[[[2.20296,50.42209],[2.2028,50.42198],[2.20192,50.42252],[2.20296,50.42209]]]}},{"type":"Feature","properties":{"k":"BTH","s":0.011},"geometry":{"type":"MultiPolygon","coordinates":[[[[2.19782,50.42248],[2.19818,50.42243],[2.19793,50.42245],[2.19782,50.42248]]]]}},{"type":"Feature","properties":{"k":"PTC","s":0.406},"geometry":{"type":"Polygon","coordinates":[[[2.19918,50.42221],[2.19967,50.42201],[2.19919,50.42168],[2.19779,50.42242],[2.19918,50.42221]]]}},{"type":"Feature","properties":{"k":"PTC","s":1.203},"geometry":{"type":"Polygon","coordinates":[[[2.19647,50.42312],[2.19919,50.42168],[2.19877,50.4214],[2.19535,50.42328],[2.19647,50.42312]]]}},{"type":"Feature","properties":{"k":"AVP","s":3.003},"geometry":{"type":"Polygon","coordinates":[[[2.20283,50.42557],[2.20356,50.42421],[2.20098,50.42611],[2.20045,50.42737],[2.20124,50.42778],[2.20301,50.42581],[2.20283,50.42557]]]}},{"type":"Feature","properties":{"k":"BTH","s":2.68},"geometry":{"type":"Polygon","coordinates":[[[2.20356,50.42712],[2.20301,50.42581],[2.20124,50.42778],[2.20273,50.42855],[2.20352,50.42774],[2.20356,50.42712]]]}},{"type":"Feature","properties":{"k":"BTH","s":20.967},"geometry":{"type":"Polygon","coordinates":[[[2.19679,50.43173],[2.19725,50.43122],[2.19832,50.43165],[2.19828,50.42991],[2.19876,50.42888],[2.20088,50.42598],[2.20368,50.42405],[2.20365,50.42325],[2.20171,50.42458],[2.20081,50.42499],[2.20108,50.42485],[2.19948,50.42363],[2.19686,50.42689],[2.19394,50.43008],[2.19566,50.43125],[2.19679,50.43173]]]}},{"type":"Feature","properties":{"k":"PPH","s":0.001},"geometry":{"type":"Polygon","coordinates":[[[2.19454,50.42613],[2.19453,50.42615],[2.19458,50.42616],[2.19454,50.42613]]]}},{"type":"Feature","properties":{"k":"PHF","s":13.933},"geometry":{"type":"Polygon","coordinates":[[[2.19243,50.42902],[2.19394,50.43008],[2.19686,50.42689],[2.19948,50.42363],[2.19766,50.42254],[2.19608,50.4233],[2.19454,50.42614],[2.19547,50.42642],[2.19378,50.42812],[2.19243,50.42902]]]}},{"type":"Feature","properties":{"k":"MIS","s":0.0},"geometry":{"type":"Polygon","coordinates":[]}},{"type":"Feature","properties":{"k":"MIS","s":0.007},"geometry":{"type":"Polygon","coordinates":[[[2.19263,50.42883],[2.19272,50.42875],[2.19241,50.42895],[2.19263,50.42883]]]}},{"type":"Feature","properties":{"k":"MIS","s":0.363},"geometry":{"type":"Polygon","coordinates":[[[2.19197,50.42929],[2.1932,50.43001],[2.19343,50.42987],[2.19228,50.42905],[2.19197,50.42929]]]}},{"type":"Feature","properties":{"k":"BTN","s":0.04},"geometry":{"type":"Polygon","coordinates":[[[2.19243,50.42902],[2.19372,50.4281],[2.19272,50.42874],[2.19243,50.42902]]]}},{"type":"Feature","properties":{"k":"PPH","s":0.987},"geometry":{"type":"Polygon","coordinates":[[[2.20045,50.42737],[2.20054,50.42699],[2.20033,50.42689],[2.19871,50.42949],[2.19929,50.42965],[2.20045,50.42737]]]}},{"type":"Feature","properties":{"k":"LIF","s":2.989},"geometry":{"type":"Polygon","coordinates":[[[2.20273,50.42855],[2.20045,50.42737],[2.1997,50.42885],[2.20156,50.42974],[2.20273,50.42855]]]}},{"type":"Feature","properties":{"k":"HPC","s":0.11},"geometry":{"type":"Polygon","coordinates":[[[2.1979,50.43287],[2.19812,50.43297],[2.19849,50.43262],[2.19827,50.43249],[2.1979,50.43287]]]}},{"type":"Feature","properties":{"k":"BTH","s":15.451},"geometry":{"type":"Polygon","coordinates":[[[2.19837,50.43232],[2.19957,50.43327],[2.20269,50.4346],[2.20331,50.43332],[2.20239,50.43284],[2.20427,50.43127],[2.1997,50.42885],[2.19929,50.42965],[2.19871,50.42949],[2.19857,50.42974],[2.19866,50.43082],[2.19837,50.43232]]]}},{"type":"Feature","properties":{"k":"PTC","s":6.009},"geometry":{"type":"Polygon","coordinates":[[[2.20134,50.43422],[2.1992,50.43322],[2.19849,50.43262],[2.19812,50.43297],[2.1979,50.43287],[2.19681,50.43419],[2.19777,50.4349],[2.20026,50.43585],[2.20134,50.43422]]]}},{"type":"Feature","properties":{"k":"BTH","s":4.053},"geometry":{"type":"Polygon","coordinates":[[[2.19808,50.43241],[2.19688,50.43189],[2.19474,50.43372],[2.19465,50.4341],[2.19588,50.4351],[2.19808,50.43241]]]}},{"type":"Feature","properties":{"k":"MIS","s":1.431},"geometry":{"type":"Polygon","coordinates":[[[2.19457,50.43431],[2.19371,50.43539],[2.19528,50.43607],[2.19575,50.43531],[2.19457,50.43431]]]}},{"type":"Feature","properties":{"k":"BTH","s":2.523},"geometry":{"type":"Polygon","coordinates":[[[2.19373,50.43091],[2.19378,50.43166],[2.19432,50.4327],[2.19534,50.43209],[2.19569,50.43227],[2.19631,50.43171],[2.1932,50.43015],[2.19302,50.43032],[2.19373,50.43091]]]}},{"type":"Feature","properties":{"k":"PPH","s":2.541},"geometry":{"type":"Polygon","coordinates":[[[2.19321,50.43587],[2.19119,50.43379],[2.19082,50.43392],[2.19091,50.43455],[2.19038,50.43524],[2.19268,50.43635],[2.19321,50.43587]]]}},{"type":"Feature","properties":{"k":"CZH","s":0.001},"geometry":{"type":"Polygon","coordinates":[[[2.18683,50.43609],[2.18684,50.43602],[2.18678,50.43617],[2.18683,50.43609]]]}},{"type":"Feature","properties":{"k":"MIS","s":0.0},"geometry":{"type":"Polygon","coordinates":[]}},{"type":"Feature","properties":{"k":"MIS","s":1.822},"geometry":{"type":"Polygon","coordinates":[[[2.18968,50.43708],[2.19011,50.43703],[2.19015,50.43652],[2.19046,50.43608],[2.19008,50.43509],[2.18842,50.43539],[2.18968,50.43708]]]}},{"type":"Feature","properties":{"k":"ORH","s":4.676},"geometry":{"type":"Polygon","coordinates":[[[2.18681,50.43616],[2.1855,50.43727],[2.18526,50.4377],[2.18585,50.43812],[2.18725,50.43765],[2.18787,50.43852],[2.18851,50.43887],[2.18769,50.43704],[2.18935,50.43677],[2.18828,50.43542],[2.18692,50.43587],[2.18681,50.43616]]]}},{"type":"Feature","properties":{"k":"TRE","s":0.391},"geometry":{"type":"Polygon","coordinates":[[[2.1875,50.43797],[2.18724,50.43767],[2.18585,50.43813],[2.18614,50.43835],[2.1875,50.43797]]]}},{"type":"Feature","properties":{"k":"MIS","s":0.262},"geometry":{"type":"Polygon","coordinates":[[[2.18692,50.43834],[2.18787,50.43852],[2.18752,50.43798],[2.18646,50.43833],[2.18692,50.43834]]]}},{"type":"Feature","properties":{"k":"MIS","s":0.385},"geometry":{"type":"Polygon","coordinates":[[[2.18565,50.43863],[2.18526,50.43902],[2.18612,50.4394],[2.18653,50.43908],[2.18565,50.43863]]]}},{"type":"Feature","properties":{"k":"PPH","s":0.068},"geometry":{"type":"Polygon","coordinates":[[[2.184,50.4393],[2.18378,50.43967],[2.18395,50.4397],[2.18417,50.43933],[2.184,50.4393]]]}},{"type":"Feature","properties":{"k":"MIS","s":0.661},"geometry":{"type":"Polygon","coordinates":[[[2.18377,50.43988],[2.1838,50.43931],[2.18334,50.43945],[2.18279,50.43979],[2.18462,50.44097],[2.18477,50.44085],[2.18377,50.43988]]]}},{"type":"Feature","properties":{"k":"ORH","s":0.748},"geometry":{"type":"Polygon","coordinates":[[[2.18612,50.44025],[2.18477,50.43989],[2.18495,50.44092],[2.18469,50.4412],[2.18485,50.44135],[2.18612,50.44025]]]}},{"type":"Feature","properties":{"k":"PPH","s":1.621},"geometry":{"type":"Polygon","coordinates":[[[2.18392,50.4399],[2.18479,50.44071],[2.18463,50.4399],[2.1849,50.43926],[2.18553,50.43859],[2.18645,50.43829],[2.18615,50.43837],[2.18522,50.4377],[2.18392,50.4399]]]}},{"type":"Feature","properties":{"k":"PPH","s":1.062},"geometry":{"type":"Polygon","coordinates":[[[2.1905,50.43901],[2.18979,50.43931],[2.18947,50.43906],[2.18908,50.43914],[2.18836,50.43901],[2.18782,50.43859],[2.18626,50.43843],[2.18673,50.4387],[2.18762,50.43874],[2.18937,50.43946],[2.18982,50.43982],[2.19102,50.43929],[2.1905,50.43901]]]}},{"type":"Feature","properties":{"k":"PPH","s":0.884},"geometry":{"type":"Polygon","coordinates":[[[2.18775,50.43882],[2.18691,50.43866],[2.19033,50.44046],[2.1906,50.44026],[2.18775,50.43882]]]}},{"type":"Feature","properties":{"k":"MIS","s":4.754},"geometry":{"type":"Polygon","coordinates":[[[2.18924,50.44228],[2.18722,50.44104],[2.1858,50.4424],[2.18925,50.44356],[2.18982,50.44308],[2.19111,50.44374],[2.19158,50.44331],[2.18924,50.44228]]]}},{"type":"Feature","properties":{"k":"BTH","s":3.631},"geometry":{"type":"Polygon","coordinates":[[[2.18428,50.44188],[2.18378,50.44201],[2.18475,50.44141],[2.18462,50.44118],[2.18288,50.44197],[2.18232,50.44246],[2.18468,50.44382],[2.18486,50.44381],[2.18624,50.4426],[2.18588,50.44243],[2.18574,50.44257],[2.18428,50.44188]]]}},{"type":"Feature","properties":{"k":"BTH","s":3.001},"geometry":{"type":"Polygon","coordinates":[[[2.17832,50.4417],[2.18165,50.44288],[2.18261,50.44198],[2.17999,50.44102],[2.17832,50.4417]]]}},{"type":"Feature","properties":{"k":"ORH","s":0.808},"geometry":{"type":"Polygon","coordinates":[[[2.18266,50.44199],[2.18297,50.44177],[2.18064,50.44082],[2.18009,50.44105],[2.18266,50.44199]]]}},{"type":"Feature","properties":{"k":"LUZ","s":1.066},"geometry":{"type":"Polygon","coordinates":[[[2.18189,50.44054],[2.18166,50.4408],[2.18126,50.44063],[2.18071,50.4408],[2.18299,50.44176],[2.18346,50.44151],[2.18339,50.44134],[2.18189,50.44054]]]}},{"type":"Feature","properties":{"k":"ORH","s":1.702},"geometry":{"type":"Polygon","coordinates":[[[2.18357,50.44145],[2.18465,50.44099],[2.18282,50.4398],[2.18193,50.44051],[2.18357,50.44145]]]}},{"type":"Feature","properties":{"k":"PPH","s":0.099},"geometry":{"type":"MultiPolygon","coordinates":[[[[2.18163,50.44077],[2.18282,50.4398],[2.18186,50.44044],[2.18126,50.44063],[2.18163,50.44077]]],[[[2.18325,50.43947],[2.18296,50.43967],[2.18334,50.43944],[2.18325,50.43947]]]]}},{"type":"Feature","properties":{"k":"BTH","s":2.954},"geometry":{"type":"Polygon","coordinates":[[[2.18071,50.44359],[2.18165,50.44288],[2.17832,50.4417],[2.17696,50.44225],[2.18071,50.44359]]]}},{"type":"Feature","properties":{"k":"BTH","s":2.153},"geometry":{"type":"Polygon","coordinates":[[[2.18071,50.44359],[2.17699,50.44226],[2.17604,50.44263],[2.17997,50.44406],[2.18071,50.44359]]]}},{"type":"Feature","properties":{"k":"MIS","s":3.677},"geometry":{"type":"Polygon","coordinates":[[[2.17875,50.44474],[2.18,50.44407],[2.17604,50.44264],[2.17457,50.44325],[2.17875,50.44474]]]}},{"type":"Feature","properties":{"k":"LIF","s":7.761},"geometry":{"type":"Polygon","coordinates":[[[2.18223,50.44254],[2.17965,50.44436],[2.18212,50.44674],[2.18412,50.44548],[2.18289,50.44404],[2.18385,50.44338],[2.18223,50.44254]]]}},{"type":"Feature","properties":{"k":"BTH","s":1.053},"geometry":{"type":"Polygon","coordinates":[[[2.17924,50.44457],[2.1818,50.44693],[2.18214,50.44676],[2.17965,50.44436],[2.17924,50.44457]]]}},{"type":"Feature","properties":{"k":"BTH","s":1.399},"geometry":{"type":"Polygon","coordinates":[[[2.17953,50.44547],[2.17934,50.44645],[2.18013,50.4464],[2.18013,50.44613],[2.1805,50.44669],[2.18033,50.44695],[2.18119,50.44665],[2.18152,50.44706],[2.1818,50.44693],[2.18001,50.44527],[2.17953,50.44547]]]}},{"type":"Feature","properties":{"k":"BTH","s":1.315},"geometry":{"type":"Polygon","coordinates":[[[2.17815,50.44659],[2.17723,50.44605],[2.17567,50.4466],[2.17719,50.44737],[2.17815,50.44659]]]}},{"type":"Feature","properties":{"k":"BTH","s":0.825},"geometry":{"type":"Polygon","coordinates":[[[2.17913,50.44649],[2.1771,50.44803],[2.17752,50.4482],[2.17908,50.44708],[2.17913,50.44649]]]}},{"type":"Feature","properties":{"k":"PPH","s":4.267},"geometry":{"type":"Polygon","coordinates":[[[2.1797,50.45077],[2.17915,50.45103],[2.17942,50.45119],[2.17931,50.45127],[2.18018,50.45162],[2.18097,50.45101],[2.18014,50.4506],[2.17924,50.44979],[2.17841,50.44771],[2.1761,50.4488],[2.17796,50.45024],[2.17852,50.4499],[2.1797,50.45077]]]}},{"type":"Feature","properties":{"k":"MIS","s":3.242},"geometry":{"type":"Polygon","coordinates":[[[2.18032,50.44968],[2.1796,50.44733],[2.17877,50.44749],[2.17841,50.44771],[2.17924,50.44979],[2.18066,50.45085],[2.18126,50.4504],[2.18032,50.44968]]]}},{"type":"Feature","properties":{"k":"PPH","s":2.987},"geometry":{"type":"Polygon","coordinates":[[[2.18189,50.44969],[2.18025,50.44821],[2.18049,50.44956],[2.18138,50.45034],[2.18206,50.45059],[2.18508,50.45113],[2.18539,50.45099],[2.18234,50.44958],[2.18189,50.44969]]]}},{"type":"Feature","properties":{"k":"BTH","s":4.82},"geometry":{"type":"Polygon","coordinates":[[[2.18119,50.44665],[2.18019,50.44701],[2.18021,50.44642],[2.17929,50.44648],[2.17905,50.44737],[2.17972,50.44722],[2.18025,50.44821],[2.18201,50.44975],[2.18329,50.44893],[2.18119,50.44665]]]}},{"type":"Feature","properties":{"k":"ORP","s":4.807},"geometry":{"type":"Polygon","coordinates":[[[2.18559,50.44745],[2.18234,50.44958],[2.18405,50.45038],[2.18738,50.44806],[2.18559,50.44745]]]}},{"type":"Feature","properties":{"k":"BTH","s":10.051},"geometry":{"type":"Polygon","coordinates":[[[2.18359,50.44884],[2.18559,50.44745],[2.18654,50.4461],[2.18572,50.44538],[2.18665,50.44472],[2.18468,50.4439],[2.18344,50.44476],[2.18417,50.44551],[2.18154,50.44705],[2.18294,50.44868],[2.18326,50.44891],[2.18359,50.44884]]]}},{"type":"Feature","properties":{"k":"MIS","s":0.953},"geometry":{"type":"Polygon","coordinates":[[[2.18289,50.44404],[2.18339,50.44476],[2.18467,50.44388],[2.18385,50.44337],[2.18289,50.44404]]]}},{"type":"Feature","properties":{"k":"ORH","s":2.856},"geometry":{"type":"Polygon","coordinates":[[[2.18831,50.44445],[2.18555,50.44329],[2.18481,50.44392],[2.18665,50.44472],[2.18572,50.44538],[2.18634,50.4459],[2.18704,50.44564],[2.1872,50.44597],[2.18776,50.44571],[2.18683,50.44524],[2.18831,50.44445]]]}},{"type":"Feature","properties":{"k":"BTH","s":10.288},"geometry":{"type":"Polygon","coordinates":[[[2.18583,50.44326],[2.18555,50.44329],[2.18831,50.44445],[2.18683,50.44524],[2.18776,50.44571],[2.18716,50.44599],[2.18728,50.44621],[2.1885,50.4464],[2.1901,50.44569],[2.19127,50.44546],[2.19277,50.44441],[2.19258,50.44406],[2.19167,50.44395],[2.18982,50.44308],[2.18925,50.44356],[2.18632,50.44263],[2.18598,50.44291],[2.18616,50.44298],[2.18583,50.44326]]]}},{"type":"Feature","properties":{"k":"ORH","s":15.168},"geometry":{"type":"Polygon","coordinates":[[[2.18536,50.45092],[2.18508,50.45113],[2.18582,50.45143],[2.18779,50.45171],[2.18941,50.45146],[2.19186,50.45027],[2.19507,50.45011],[2.19428,50.44972],[2.19327,50.44972],[2.19116,50.44892],[2.1901,50.44973],[2.18932,50.44944],[2.18862,50.44986],[2.19032,50.44858],[2.18972,50.44815],[2.18868,50.44871],[2.18776,50.44783],[2.18405,50.45038],[2.18536,50.45092]]]}},{"type":"Feature","properties":{"k":"PPH","s":0.189},"geometry":{"type":"Polygon","coordinates":[[[2.19858,50.44531],[2.19899,50.445],[2.19861,50.44478],[2.19806,50.44506],[2.19858,50.44531]]]}},{"type":"Feature","properties":{"k":"PPH","s":4.958},"geometry":{"type":"Polygon","coordinates":[[[2.1983,50.44272],[2.19796,50.44232],[2.19747,50.44248],[2.19805,50.44355],[2.19878,50.44331],[2.19925,50.44385],[2.19994,50.44417],[2.19932,50.4447],[2.19989,50.44491],[2.20014,50.44468],[2.2003,50.44477],[2.20011,50.44504],[2.20065,50.4452],[2.20099,50.44481],[2.20131,50.44493],[2.20097,50.44535],[2.20148,50.44524],[2.20219,50.4447],[2.20284,50.44481],[2.20255,50.44446],[2.20279,50.44393],[2.20097,50.44367],[2.20015,50.44304],[2.19879,50.44248],[2.1983,50.44272]]]}},{"type":"Feature","properties":{"k":"CZH","s":1.928},"geometry":{"type":"Polygon","coordinates":[[[2.20103,50.4436],[2.20258,50.44384],[2.20268,50.44293],[2.20207,50.4427],[2.2011,50.44285],[2.19889,50.44221],[2.19877,50.44238],[2.19971,50.44276],[2.20103,50.4436]]]}},{"type":"Feature","properties":{"k":"PPH","s":0.387},"geometry":{"type":"MultiPolygon","coordinates":[[[[2.19761,50.43891],[2.19798,50.43831],[2.19728,50.43782],[2.1979,50.43746],[2.20065,50.43821],[2.19794,50.43739],[2.19712,50.43783],[2.19792,50.43839],[2.19761,50.43891]]],[[[2.19829,50.44095],[2.19863,50.44099],[2.19894,50.44126],[2.19869,50.44091],[2.1982,50.4408],[2.19803,50.4411],[2.19829,50.44095]]],[[[2.19904,50.4414],[2.199,50.44134],[2.19897,50.44147],[2.19904,50.4414]]],[[[2.20089,50.43827],[2.20169,50.4382],[2.20149,50.43815],[2.20089,50.43827]]]]}},{"type":"Feature","properties":{"k":"PPH","s":1.866},"geometry":{"type":"Polygon","coordinates":[[[2.19583,50.44245],[2.19626,50.44208],[2.19551,50.44147],[2.19419,50.44265],[2.19625,50.44365],[2.19664,50.4434],[2.19583,50.44245]]]}},{"type":"Feature","properties":{"k":"PPH","s":6.578},"geometry":{"type":"Polygon","coordinates":[[[2.18849,50.44175],[2.18931,50.44225],[2.19175,50.44331],[2.19276,50.44311],[2.19183,50.44255],[2.19246,50.44199],[2.19223,50.44181],[2.19268,50.44131],[2.19074,50.44027],[2.19037,50.44048],[2.19232,50.44148],[2.19224,50.44156],[2.1894,50.43998],[2.18919,50.44009],[2.18958,50.44031],[2.1891,50.44056],[2.1879,50.43993],[2.18747,50.44029],[2.18913,50.44124],[2.18849,50.44175]],[[2.19144,50.44191],[2.19163,50.442],[2.19152,50.44205],[2.18929,50.44066],[2.19144,50.44191]]]}},{"type":"Feature","properties":{"k":"PPH","s":0.265},"geometry":{"type":"Polygon","coordinates":[[[2.19168,50.44071],[2.19196,50.44087],[2.19272,50.44023],[2.19239,50.44005],[2.19168,50.44071]]]}},{"type":"Feature","properties":{"k":"PPH","s":1.201},"geometry":{"type":"Polygon","coordinates":[[[2.19198,50.43982],[2.19103,50.4393],[2.18985,50.43983],[2.19167,50.44069],[2.1921,50.44026],[2.19166,50.44006],[2.19198,50.43982]]]}},{"type":"Feature","properties":{"k":"PPH","s":1.452},"geometry":{"type":"Polygon","coordinates":[[[2.19156,50.43945],[2.1922,50.43954],[2.19196,50.43971],[2.19265,50.4401],[2.19286,50.43997],[2.19354,50.44027],[2.19412,50.43927],[2.19362,50.43909],[2.19273,50.43903],[2.19156,50.43945]]]}},{"type":"Feature","properties":{"k":"PPH","s":0.943},"geometry":{"type":"Polygon","coordinates":[[[2.19502,50.43978],[2.19432,50.44028],[2.19528,50.44086],[2.19603,50.44007],[2.19464,50.43942],[2.19463,50.43962],[2.19502,50.43978]]]}}]}