{"type":"FeatureCollection","features":[{"type":"Feature","properties":{"k":"FLA","s":0.494},"geometry":{"type":"Polygon","coordinates":[[[2.22581,50.78231],[2.22609,50.78244],[2.22777,50.78124],[2.22752,50.78106],[2.22581,50.78231]]]}},{"type":"Feature","properties":{"k":"MIS","s":1.521},"geometry":{"type":"Polygon","coordinates":[[[2.21263,50.77087],[2.21144,50.77145],[2.21196,50.77177],[2.21282,50.77138],[2.21286,50.77142],[2.2139,50.77097],[2.2123,50.76976],[2.21164,50.77013],[2.21265,50.77086],[2.21263,50.77087]],[[2.21268,50.77091],[2.21153,50.77148],[2.21263,50.77087],[2.21268,50.77091]],[[2.21307,50.77126],[2.21313,50.77129],[2.21288,50.7714],[2.21307,50.77126]]]}},{"type":"Feature","properties":{"k":"PPH","s":1.661},"geometry":{"type":"Polygon","coordinates":[[[2.21265,50.77086],[2.21164,50.77013],[2.21069,50.77063],[2.21088,50.7708],[2.21056,50.77102],[2.20988,50.77126],[2.21048,50.77178],[2.21265,50.77086]]]}},{"type":"Feature","properties":{"k":"PHF","s":2.802},"geometry":{"type":"Polygon","coordinates":[[[2.21171,50.77504],[2.21059,50.774],[2.20816,50.77599],[2.20905,50.77641],[2.21171,50.77504]]]}},{"type":"Feature","properties":{"k":"PPH","s":1.097},"geometry":{"type":"Polygon","coordinates":[[[2.22298,50.78052],[2.22321,50.7807],[2.22375,50.78072],[2.2258,50.77939],[2.22603,50.77946],[2.22565,50.77904],[2.22298,50.78052]]]}},{"type":"Feature","properties":{"k":"ORH","s":0.869},"geometry":{"type":"Polygon","coordinates":[[[2.22539,50.77877],[2.2227,50.78029],[2.22298,50.78052],[2.22563,50.77902],[2.22539,50.77877]]]}},{"type":"Feature","properties":{"k":"PPH","s":4.324},"geometry":{"type":"Polygon","coordinates":[[[2.2252,50.781],[2.22459,50.7811],[2.22369,50.78077],[2.22312,50.78077],[2.22199,50.78106],[2.22124,50.78153],[2.22358,50.78282],[2.22702,50.78048],[2.22689,50.78034],[2.2252,50.781]]]}},{"type":"Feature","properties":{"k":"BTA","s":0.195},"geometry":{"type":"Polygon","coordinates":[[[2.225,50.78421],[2.22401,50.78367],[2.22093,50.78236],[2.22501,50.78427],[2.2253,50.784],[2.225,50.78421]]]}},{"type":"Feature","properties":{"k":"BTA","s":0.099},"geometry":{"type":"Polygon","coordinates":[[[2.22565,50.7849],[2.22593,50.78494],[2.22417,50.78411],[2.22379,50.78399],[2.22357,50.78401],[2.22565,50.7849]]]}},{"type":"Feature","properties":{"k":"BTA","s":0.061},"geometry":{"type":"Polygon","coordinates":[[[2.22554,50.78413],[2.22546,50.78409],[2.22515,50.78434],[2.22616,50.78483],[2.22525,50.78433],[2.22554,50.78413]]]}},{"type":"Feature","properties":{"k":"PPH","s":1.298},"geometry":{"type":"Polygon","coordinates":[[[2.21085,50.77382],[2.21078,50.77402],[2.21184,50.775],[2.2124,50.77472],[2.21209,50.77419],[2.21237,50.7735],[2.21175,50.77328],[2.21085,50.77382]]]}},{"type":"Feature","properties":{"k":"JAC","s":0.859},"geometry":{"type":"Polygon","coordinates":[[[2.21713,50.77431],[2.2146,50.77296],[2.21425,50.77327],[2.21682,50.77453],[2.21713,50.77431]]]}},{"type":"Feature","properties":{"k":"PPH","s":0.588},"geometry":{"type":"Polygon","coordinates":[[[2.21471,50.77254],[2.21433,50.77278],[2.21593,50.7736],[2.21608,50.77331],[2.21426,50.77216],[2.21471,50.77254]]]}},{"type":"Feature","properties":{"k":"PPH","s":0.456},"geometry":{"type":"Polygon","coordinates":[[[2.21666,50.7727],[2.21574,50.77201],[2.21532,50.77224],[2.21474,50.77196],[2.21641,50.77288],[2.21666,50.7727]]]}},{"type":"Feature","properties":{"k":"PPH","s":0.454},"geometry":{"type":"Polygon","coordinates":[[[2.21626,50.77295],[2.21471,50.77196],[2.21523,50.77239],[2.21493,50.77258],[2.21608,50.77331],[2.21626,50.77295]]]}},{"type":"Feature","properties":{"k":"BTH","s":0.089},"geometry":{"type":"MultiPolygon","coordinates":[[[[2.21727,50.77455],[2.21745,50.77443],[2.21651,50.77393],[2.21734,50.77438],[2.21727,50.77455]]],[[[2.22012,50.77695],[2.22076,50.7773],[2.21929,50.7764],[2.22012,50.77695]]],[[[2.22177,50.77766],[2.22194,50.77768],[2.22088,50.77735],[2.22177,50.77766]]],[[[2.22233,50.77771],[2.22209,50.77771],[2.22229,50.77774],[2.22233,50.77771]]],[[[2.2164,50.77291],[2.21635,50.77297],[2.21665,50.77273],[2.2164,50.77291]]],[[[2.21599,50.77353],[2.21622,50.77315],[2.21612,50.77329],[2.21599,50.77353]]]]}},{"type":"Feature","properties":{"k":"BTH","s":0.167},"geometry":{"type":"Polygon","coordinates":[[[2.21348,50.76754],[2.21182,50.76658],[2.21335,50.7676],[2.21348,50.76754]]]}},{"type":"Feature","properties":{"k":"BTH","s":1.691},"geometry":{"type":"Polygon","coordinates":[[[2.21199,50.76819],[2.21335,50.7676],[2.21182,50.76658],[2.21065,50.76722],[2.21199,50.76819]]]}},{"type":"Feature","properties":{"k":"MIS","s":3.538},"geometry":{"type":"Polygon","coordinates":[[[2.21024,50.76744],[2.21193,50.76652],[2.20962,50.76498],[2.20811,50.76584],[2.21024,50.76744]]]}},{"type":"Feature","properties":{"k":"MIS","s":0.872},"geometry":{"type":"Polygon","coordinates":[[[2.2227,50.78029],[2.22539,50.77877],[2.22514,50.77849],[2.22238,50.78006],[2.2227,50.78029]]]}},{"type":"Feature","properties":{"k":"BTH","s":2.12},"geometry":{"type":"Polygon","coordinates":[[[2.22168,50.7795],[2.22238,50.78006],[2.22514,50.77849],[2.22453,50.77793],[2.22168,50.7795]]]}},{"type":"Feature","properties":{"k":"PPH","s":0.004},"geometry":{"type":"Polygon","coordinates":[[[2.22527,50.77843],[2.22525,50.77845],[2.22547,50.77864],[2.22527,50.77843]]]}},{"type":"Feature","properties":{"k":"CHU","s":0.777},"geometry":{"type":"Polygon","coordinates":[[[2.22835,50.78372],[2.22809,50.78349],[2.22628,50.78453],[2.22548,50.78416],[2.22525,50.78433],[2.22624,50.78483],[2.22835,50.78372]]]}},{"type":"Feature","properties":{"k":"PPH","s":0.0},"geometry":{"type":"Polygon","coordinates":[]}},{"type":"Feature","properties":{"k":"CHU","s":3.267},"geometry":{"type":"Polygon","coordinates":[[[2.225,50.78421],[2.2266,50.78331],[2.22765,50.78344],[2.22899,50.78258],[2.22808,50.78155],[2.22484,50.7838],[2.22332,50.78304],[2.22298,50.7832],[2.225,50.78421]]]}},{"type":"Feature","properties":{"k":"BTA","s":0.088},"geometry":{"type":"Polygon","coordinates":[[[2.2286,50.78639],[2.22867,50.7864],[2.22696,50.78528],[2.2286,50.78639]]]}},{"type":"Feature","properties":{"k":"CHU","s":3.592},"geometry":{"type":"Polygon","coordinates":[[[2.22725,50.78568],[2.227,50.78586],[2.22608,50.78533],[2.22542,50.78572],[2.22626,50.78617],[2.22567,50.78612],[2.22546,50.7863],[2.22609,50.7865],[2.22515,50.78728],[2.22662,50.78799],[2.22751,50.7874],[2.22696,50.78709],[2.22756,50.7866],[2.22806,50.78689],[2.22867,50.7864],[2.2269,50.78531],[2.22674,50.78538],[2.22725,50.78568]]]}},{"type":"Feature","properties":{"k":"CHU","s":3.316},"geometry":{"type":"Polygon","coordinates":[[[2.2227,50.78461],[2.22348,50.78499],[2.22136,50.78686],[2.2219,50.78721],[2.224,50.78522],[2.22515,50.78576],[2.22586,50.78533],[2.22561,50.78522],[2.2259,50.78497],[2.2239,50.78406],[2.22357,50.78401],[2.2227,50.78461]]]}},{"type":"Feature","properties":{"k":"PPH","s":0.965},"geometry":{"type":"Polygon","coordinates":[[[2.22462,50.78363],[2.22472,50.78371],[2.22486,50.78375],[2.22804,50.78154],[2.22778,50.78126],[2.22462,50.78363]]]}},{"type":"Feature","properties":{"k":"PPH","s":3.265},"geometry":{"type":"Polygon","coordinates":[[[2.22756,50.78102],[2.22702,50.78048],[2.22354,50.78288],[2.22377,50.78327],[2.22457,50.78362],[2.22609,50.78249],[2.22578,50.7823],[2.22756,50.78102]]]}},{"type":"Feature","properties":{"k":"CHU","s":0.296},"geometry":{"type":"Polygon","coordinates":[[[2.19826,50.75911],[2.19907,50.75859],[2.19873,50.75836],[2.19788,50.75889],[2.19826,50.75911]]]}},{"type":"Feature","properties":{"k":"LIF","s":0.011},"geometry":{"type":"Polygon","coordinates":[[[2.19894,50.75842],[2.19923,50.7586],[2.19843,50.75806],[2.19894,50.75842]]]}},{"type":"Feature","properties":{"k":"BTH","s":0.004},"geometry":{"type":"Polygon","coordinates":[]}},{"type":"Feature","properties":{"k":"BTH","s":0.02},"geometry":{"type":"MultiPolygon","coordinates":[]}},{"type":"Feature","properties":{"k":"BTH","s":4.08},"geometry":{"type":"Polygon","coordinates":[[[2.19357,50.756],[2.18888,50.75911],[2.18984,50.75953],[2.19499,50.75609],[2.19357,50.756]]]}},{"type":"Feature","properties":{"k":"BTH","s":4.436},"geometry":{"type":"Polygon","coordinates":[[[2.1974,50.7574],[2.1966,50.75681],[2.19148,50.76023],[2.19253,50.76066],[2.1974,50.7574]]]}},{"type":"Feature","properties":{"k":"BTH","s":3.838},"geometry":{"type":"Polygon","coordinates":[[[2.19819,50.75798],[2.19357,50.76106],[2.19468,50.76148],[2.19826,50.75911],[2.19788,50.75889],[2.19873,50.75836],[2.19819,50.75798]]]}},{"type":"Feature","properties":{"k":"POT","s":1.428},"geometry":{"type":"Polygon","coordinates":[[[2.2235,50.7828],[2.22121,50.78151],[2.22093,50.78236],[2.22298,50.7832],[2.2235,50.7828]]]}},{"type":"Feature","properties":{"k":"BTA","s":0.059},"geometry":{"type":"Polygon","coordinates":[[[2.2161,50.78207],[2.21718,50.78135],[2.21713,50.78132],[2.2161,50.78207]]]}},{"type":"Feature","properties":{"k":"PPH","s":3.661},"geometry":{"type":"Polygon","coordinates":[[[2.21634,50.77887],[2.21531,50.77975],[2.21601,50.78018],[2.21569,50.7804],[2.21686,50.78103],[2.21777,50.78034],[2.21811,50.78052],[2.21846,50.78027],[2.21745,50.77819],[2.21647,50.77892],[2.21634,50.77887]]]}},{"type":"Feature","properties":{"k":"MIS","s":5.399},"geometry":{"type":"Polygon","coordinates":[[[2.22023,50.78086],[2.22124,50.78065],[2.2218,50.78097],[2.22321,50.7807],[2.22168,50.7795],[2.22446,50.77792],[2.2227,50.77786],[2.21907,50.77995],[2.22023,50.78086]]]}},{"type":"Feature","properties":{"k":"BTN","s":4.991},"geometry":{"type":"Polygon","coordinates":[[[2.22012,50.77727],[2.2179,50.77851],[2.21792,50.77904],[2.21907,50.77995],[2.2226,50.77786],[2.22012,50.77727]]]}},{"type":"Feature","properties":{"k":"BTH","s":3.012},"geometry":{"type":"Polygon","coordinates":[[[2.21887,50.77787],[2.22013,50.77713],[2.21828,50.77573],[2.21796,50.77589],[2.21749,50.77577],[2.21677,50.77667],[2.21887,50.77787]]]}},{"type":"Feature","properties":{"k":"JAC","s":0.015},"geometry":{"type":"Polygon","coordinates":[[[2.21677,50.77667],[2.21696,50.77684],[2.21707,50.77683],[2.21677,50.77667]]]}},{"type":"Feature","properties":{"k":"BTH","s":1.338},"geometry":{"type":"Polygon","coordinates":[[[2.21788,50.77837],[2.21882,50.77788],[2.21699,50.77686],[2.21629,50.77746],[2.21788,50.77837]]]}},{"type":"Feature","properties":{"k":"PPH","s":0.149},"geometry":{"type":"Polygon","coordinates":[[[2.21731,50.77808],[2.21633,50.77887],[2.21647,50.77892],[2.21745,50.77819],[2.21731,50.77808]]]}},{"type":"Feature","properties":{"k":"BTN","s":3.331},"geometry":{"type":"Polygon","coordinates":[[[2.21147,50.77855],[2.21243,50.77958],[2.21518,50.77759],[2.21432,50.77712],[2.21375,50.77751],[2.21318,50.77724],[2.21147,50.77855]]]}},{"type":"Feature","properties":{"k":"PTR","s":1.802},"geometry":{"type":"Polygon","coordinates":[[[2.21731,50.77808],[2.21571,50.77733],[2.21441,50.77825],[2.21636,50.77884],[2.21731,50.77808]]]}},{"type":"Feature","properties":{"k":"PPH","s":3.05},"geometry":{"type":"Polygon","coordinates":[[[2.21581,50.7772],[2.21596,50.77686],[2.21652,50.7767],[2.21643,50.77647],[2.21686,50.77631],[2.21648,50.77608],[2.21684,50.77595],[2.21695,50.77516],[2.21625,50.77475],[2.21532,50.77541],[2.21502,50.77534],[2.21402,50.77593],[2.2139,50.77611],[2.21421,50.7761],[2.21422,50.77635],[2.21581,50.7772]],[[2.21607,50.7757],[2.21573,50.77601],[2.21553,50.77598],[2.2154,50.77581],[2.21582,50.77559],[2.21607,50.7757]]]}},{"type":"Feature","properties":{"k":"BOR","s":0.066},"geometry":{"type":"Polygon","coordinates":[[[2.21375,50.77751],[2.21432,50.77712],[2.2152,50.77757],[2.21431,50.77708],[2.21374,50.77748],[2.21318,50.7772],[2.21288,50.7774],[2.21318,50.77724],[2.21375,50.77751]]]}},{"type":"Feature","properties":{"k":"BTH","s":2.661},"geometry":{"type":"Polygon","coordinates":[[[2.21171,50.77504],[2.20905,50.77641],[2.20972,50.77667],[2.21319,50.7764],[2.21171,50.77504]]]}},{"type":"Feature","properties":{"k":"PPH","s":1.613},"geometry":{"type":"Polygon","coordinates":[[[2.20884,50.77822],[2.20988,50.77894],[2.21054,50.77862],[2.20993,50.77817],[2.20987,50.77751],[2.21028,50.77731],[2.21017,50.77702],[2.21036,50.77668],[2.2098,50.77673],[2.20879,50.77784],[2.20884,50.77822]]]}},{"type":"Feature","properties":{"k":"MDI","s":0.191},"geometry":{"type":"Polygon","coordinates":[[[2.21031,50.77944],[2.20932,50.77984],[2.2092,50.78016],[2.21045,50.77951],[2.21031,50.77944]]]}},{"type":"Feature","properties":{"k":"PTC","s":0.254},"geometry":{"type":"Polygon","coordinates":[[[2.20948,50.78028],[2.21077,50.77961],[2.21045,50.77951],[2.20923,50.78017],[2.20948,50.78028]]]}},{"type":"Feature","properties":{"k":"MDI","s":0.329},"geometry":{"type":"Polygon","coordinates":[[[2.20981,50.78041],[2.21108,50.77983],[2.21077,50.77961],[2.20948,50.78028],[2.20981,50.78041]]]}},{"type":"Feature","properties":{"k":"BTA","s":0.036},"geometry":{"type":"Polygon","coordinates":[[[2.21108,50.77983],[2.21114,50.77981],[2.21077,50.77955],[2.21036,50.77947],[2.21108,50.77983]]]}},{"type":"Feature","properties":{"k":"CHU","s":1.634},"geometry":{"type":"Polygon","coordinates":[[[2.21492,50.78104],[2.2148,50.78153],[2.21604,50.78205],[2.21713,50.78132],[2.21554,50.7804],[2.21492,50.78104]]]}},{"type":"Feature","properties":{"k":"PPH","s":3.605},"geometry":{"type":"Polygon","coordinates":[[[2.21509,50.78086],[2.21384,50.78035],[2.21247,50.78165],[2.21307,50.78238],[2.21367,50.78206],[2.21468,50.78301],[2.2161,50.78207],[2.2148,50.78153],[2.21509,50.78086]]]}},{"type":"Feature","properties":{"k":"PPH","s":7.799},"geometry":{"type":"Polygon","coordinates":[[[2.21223,50.78405],[2.21348,50.78315],[2.21174,50.78119],[2.21108,50.78151],[2.21079,50.78125],[2.2102,50.78149],[2.20969,50.7812],[2.20876,50.78171],[2.20874,50.78155],[2.208,50.78123],[2.2068,50.78243],[2.21223,50.78405]],[[2.21022,50.78256],[2.2104,50.78237],[2.21235,50.78362],[2.21209,50.78384],[2.21034,50.7833],[2.21087,50.78281],[2.21022,50.78256]]]}},{"type":"Feature","properties":{"k":"PPH","s":0.003},"geometry":{"type":"Polygon","coordinates":[[[2.20656,50.78245],[2.20684,50.78245],[2.20664,50.78238],[2.20656,50.78245]]]}},{"type":"Feature","properties":{"k":"BTA","s":0.133},"geometry":{"type":"Polygon","coordinates":[[[2.20663,50.78233],[2.20638,50.78247],[2.20453,50.78166],[2.20365,50.78144],[2.20636,50.78252],[2.20684,50.78239],[2.20663,50.78233]]]}},{"type":"Feature","properties":{"k":"BTH","s":3.922},"geometry":{"type":"Polygon","coordinates":[[[2.20638,50.78247],[2.20663,50.78233],[2.20684,50.78239],[2.208,50.78123],[2.20729,50.781],[2.20602,50.78093],[2.20428,50.78012],[2.2036,50.78079],[2.20409,50.78099],[2.20369,50.7814],[2.20638,50.78247]]]}},{"type":"Feature","properties":{"k":"MIS","s":1.512},"geometry":{"type":"Polygon","coordinates":[[[2.20364,50.78075],[2.20428,50.78012],[2.20567,50.77926],[2.20485,50.77884],[2.20319,50.77992],[2.20356,50.7801],[2.20312,50.78055],[2.20364,50.78075]]]}},{"type":"Feature","properties":{"k":"AVP","s":2.033},"geometry":{"type":"Polygon","coordinates":[[[2.20634,50.77938],[2.20673,50.77909],[2.20627,50.77886],[2.20437,50.78016],[2.20602,50.78093],[2.20735,50.78098],[2.2082,50.78032],[2.20634,50.77938]],[[2.20776,50.78034],[2.20711,50.78082],[2.20518,50.77987],[2.20592,50.77939],[2.20776,50.78034]]]}},{"type":"Feature","properties":{"k":"BTN","s":1.235},"geometry":{"type":"Polygon","coordinates":[[[2.20776,50.78034],[2.20592,50.77939],[2.20518,50.77987],[2.2071,50.78082],[2.20776,50.78034]]]}},{"type":"Feature","properties":{"k":"PPH","s":1.261},"geometry":{"type":"Polygon","coordinates":[[[2.20812,50.7804],[2.20737,50.78101],[2.20892,50.78156],[2.21011,50.7807],[2.2096,50.78045],[2.20906,50.78083],[2.20812,50.7804]]]}},{"type":"Feature","properties":{"k":"PPH","s":0.594},"geometry":{"type":"Polygon","coordinates":[[[2.20792,50.77882],[2.20833,50.77909],[2.20881,50.77883],[2.20925,50.77916],[2.20973,50.77892],[2.20882,50.77827],[2.20792,50.77882]]]}},{"type":"Feature","properties":{"k":"PPH","s":0.322},"geometry":{"type":"Polygon","coordinates":[[[2.20787,50.77885],[2.20714,50.77858],[2.20669,50.77897],[2.20725,50.77919],[2.20787,50.77885]]]}},{"type":"Feature","properties":{"k":"PPH","s":1.515},"geometry":{"type":"Polygon","coordinates":[[[2.20975,50.77674],[2.20804,50.77608],[2.20726,50.77661],[2.20797,50.7769],[2.20818,50.77747],[2.20876,50.77784],[2.20975,50.77674]]]}},{"type":"Feature","properties":{"k":"PPH","s":1.917},"geometry":{"type":"Polygon","coordinates":[[[2.20873,50.77784],[2.20818,50.77758],[2.20818,50.77726],[2.20764,50.77671],[2.20772,50.77693],[2.20704,50.77738],[2.20678,50.77724],[2.20602,50.77776],[2.20733,50.77839],[2.20749,50.77828],[2.20844,50.77849],[2.20881,50.77826],[2.20873,50.77784]]]}},{"type":"Feature","properties":{"k":"BOR","s":0.059},"geometry":{"type":"Polygon","coordinates":[[[2.20393,50.77836],[2.20485,50.77884],[2.20392,50.77832],[2.20288,50.77907],[2.20393,50.77836]]]}},{"type":"Feature","properties":{"k":"BOR","s":0.111},"geometry":{"type":"Polygon","coordinates":[[[2.20061,50.7792],[2.20017,50.77901],[2.20091,50.77813],[2.20283,50.77906],[2.2009,50.77809],[2.20012,50.77902],[2.20057,50.7792],[2.20053,50.7796],[2.20061,50.7792]]]}},{"type":"Feature","properties":{"k":"BTH","s":2.032},"geometry":{"type":"Polygon","coordinates":[[[2.20121,50.7796],[2.20196,50.77989],[2.20288,50.77926],[2.20284,50.77907],[2.20091,50.77813],[2.20017,50.77901],[2.20061,50.7792],[2.20059,50.77966],[2.20121,50.7796]]]}},{"type":"Feature","properties":{"k":"BTH","s":1.32},"geometry":{"type":"Polygon","coordinates":[[[2.19668,50.77686],[2.19609,50.7774],[2.19792,50.77833],[2.19864,50.77775],[2.19668,50.77686]]]}},{"type":"Feature","properties":{"k":"PPH","s":1.175},"geometry":{"type":"Polygon","coordinates":[[[2.19859,50.77868],[2.19752,50.77976],[2.19825,50.78009],[2.19861,50.77969],[2.19895,50.77983],[2.19954,50.77932],[2.19922,50.77914],[2.19934,50.77904],[2.19859,50.77868]]]}},{"type":"Feature","properties":{"k":"PPH","s":1.201},"geometry":{"type":"Polygon","coordinates":[[[2.19867,50.78029],[2.19752,50.77976],[2.19662,50.7806],[2.19776,50.78121],[2.19867,50.78029]]]}},{"type":"Feature","properties":{"k":"PPH","s":0.112},"geometry":{"type":"Polygon","coordinates":[[[2.19824,50.78084],[2.19827,50.78113],[2.19875,50.78129],[2.19889,50.7811],[2.19824,50.78084]]]}},{"type":"Feature","properties":{"k":"BTH","s":0.276},"geometry":{"type":"Polygon","coordinates":[[[2.20228,50.78004],[2.20323,50.77941],[2.20289,50.77925],[2.20196,50.77989],[2.20228,50.78004]]]}},{"type":"Feature","properties":{"k":"JAC","s":0.669},"geometry":{"type":"Polygon","coordinates":[[[2.20285,50.78049],[2.2023,50.78024],[2.20116,50.78118],[2.20167,50.78142],[2.20285,50.78049]]]}},{"type":"Feature","properties":{"k":"BTH","s":1.412},"geometry":{"type":"Polygon","coordinates":[[[2.20096,50.78287],[2.20164,50.78259],[2.20259,50.78187],[2.20189,50.78151],[2.19928,50.78316],[2.20096,50.78287]]]}},{"type":"Feature","properties":{"k":"BTA","s":0.002},"geometry":{"type":"MultiPolygon","coordinates":[[[[2.20332,50.78144],[2.20328,50.78147],[2.20341,50.78147],[2.20332,50.78144]]]]}},{"type":"Feature","properties":{"k":"BTA","s":0.148},"geometry":{"type":"Polygon","coordinates":[[[2.20094,50.78292],[2.20176,50.78258],[2.20264,50.78189],[2.20096,50.78287],[2.199,50.78322],[2.20094,50.78292]]]}},{"type":"Feature","properties":{"k":"PPH","s":0.527},"geometry":{"type":"Polygon","coordinates":[[[2.19834,50.78199],[2.19912,50.78223],[2.1991,50.78147],[2.19822,50.78119],[2.19834,50.78199]]]}},{"type":"Feature","properties":{"k":"PPH","s":0.221},"geometry":{"type":"Polygon","coordinates":[[[2.19834,50.78199],[2.1984,50.78187],[2.19811,50.7813],[2.19769,50.78171],[2.1973,50.78166],[2.19834,50.78199]]]}},{"type":"Feature","properties":{"k":"BTA","s":0.058},"geometry":{"type":"Polygon","coordinates":[[[2.19757,50.78301],[2.19716,50.78306],[2.19882,50.78321],[2.19757,50.78301]]]}},{"type":"Feature","properties":{"k":"PTC","s":1.176},"geometry":{"type":"Polygon","coordinates":[[[2.18573,50.77671],[2.18613,50.77643],[2.18306,50.77483],[2.18268,50.77513],[2.18573,50.77671]]]}},{"type":"Feature","properties":{"k":"BTH","s":3.986},"geometry":{"type":"MultiPolygon","coordinates":[[[[2.19169,50.77471],[2.19038,50.77383],[2.18771,50.77589],[2.18905,50.77673],[2.18826,50.77734],[2.18778,50.77709],[2.18827,50.77735],[2.19169,50.77471]]],[[[2.1872,50.77628],[2.18721,50.77628],[2.18771,50.77589],[2.1872,50.77628]]]]}},{"type":"Feature","properties":{"k":"ORH","s":4.47},"geometry":{"type":"Polygon","coordinates":[[[2.19251,50.77548],[2.19157,50.77482],[2.18827,50.77735],[2.18953,50.77806],[2.19252,50.77591],[2.19251,50.77548]]]}},{"type":"Feature","properties":{"k":"JAC","s":0.871},"geometry":{"type":"Polygon","coordinates":[[[2.18721,50.77628],[2.18819,50.77686],[2.18779,50.77709],[2.18826,50.77734],[2.18905,50.77673],[2.18771,50.77589],[2.18721,50.77628]]]}},{"type":"Feature","properties":{"k":"PPH","s":0.723},"geometry":{"type":"Polygon","coordinates":[[[2.19073,50.77905],[2.19002,50.77946],[2.19107,50.78008],[2.19182,50.77959],[2.19073,50.77905]]]}},{"type":"Feature","properties":{"k":"MIS","s":0.035},"geometry":{"type":"MultiPolygon","coordinates":[[[[2.19262,50.78],[2.19235,50.77987],[2.1928,50.78013],[2.19262,50.78]]],[[[2.19107,50.7801],[2.19007,50.7795],[2.19107,50.78012],[2.19182,50.77961],[2.19107,50.7801]]]]}},{"type":"Feature","properties":{"k":"BOR","s":0.0},"geometry":{"type":"Polygon","coordinates":[[[2.19525,50.78306],[2.19516,50.78307],[2.19525,50.78307],[2.19525,50.78306]]]}},{"type":"Feature","properties":{"k":"PTC","s":0.108},"geometry":{"type":"Polygon","coordinates":[[[2.19615,50.78229],[2.19622,50.78233],[2.19603,50.78096],[2.19615,50.78229]]]}},{"type":"Feature","properties":{"k":"POT","s":0.271},"geometry":{"type":"Polygon","coordinates":[[[2.19616,50.78125],[2.19625,50.78219],[2.19692,50.7816],[2.19616,50.78125]]]}},{"type":"Feature","properties":{"k":"PTC","s":0.077},"geometry":{"type":"Polygon","coordinates":[[[2.1963,50.78226],[2.19717,50.78148],[2.19709,50.78145],[2.1963,50.78226]]]}},{"type":"Feature","properties":{"k":"BTN","s":5.522},"geometry":{"type":"Polygon","coordinates":[[[2.19756,50.78301],[2.19882,50.78316],[2.19912,50.78223],[2.19694,50.78169],[2.19615,50.78229],[2.19599,50.78026],[2.1948,50.7796],[2.1946,50.78022],[2.19497,50.78136],[2.19492,50.78242],[2.19509,50.78307],[2.19756,50.78301]]]}},{"type":"Feature","properties":{"k":"PTC","s":0.152},"geometry":{"type":"Polygon","coordinates":[[[2.19692,50.7816],[2.19709,50.78145],[2.19614,50.78101],[2.19616,50.78125],[2.19692,50.7816]]]}},{"type":"Feature","properties":{"k":"CAR","s":0.68},"geometry":{"type":"Polygon","coordinates":[[[2.19603,50.78096],[2.19717,50.78148],[2.19758,50.78112],[2.19596,50.7803],[2.19603,50.78096]]]}},{"type":"Feature","properties":{"k":"BTH","s":0.0},"geometry":{"type":"Polygon","coordinates":[]}},{"type":"Feature","properties":{"k":"BTH","s":3.834},"geometry":{"type":"Polygon","coordinates":[[[2.19739,50.77807],[2.19663,50.77876],[2.19587,50.77837],[2.19491,50.77926],[2.1948,50.7796],[2.1966,50.7806],[2.19859,50.77868],[2.19739,50.77807]]]}},{"type":"Feature","properties":{"k":"JAC","s":0.222},"geometry":{"type":"Polygon","coordinates":[[[2.1949,50.77928],[2.19587,50.77837],[2.19564,50.77848],[2.19533,50.77834],[2.1949,50.77928]]]}},{"type":"Feature","properties":{"k":"BTN","s":1.099},"geometry":{"type":"Polygon","coordinates":[[[2.19663,50.77876],[2.19739,50.77806],[2.19609,50.7774],[2.19538,50.77807],[2.19663,50.77876]]]}},{"type":"Feature","properties":{"k":"BOR","s":0.013},"geometry":{"type":"Polygon","coordinates":[[[2.19532,50.77808],[2.19581,50.7783],[2.19538,50.77807],[2.19532,50.77808]]]}},{"type":"Feature","properties":{"k":"PTC","s":1.1},"geometry":{"type":"Polygon","coordinates":[[[2.1926,50.7784],[2.19246,50.77855],[2.19159,50.77872],[2.1928,50.77971],[2.19371,50.77898],[2.1926,50.7784]]]}},{"type":"Feature","properties":{"k":"PTR","s":0.819},"geometry":{"type":"Polygon","coordinates":[[[2.19282,50.7801],[2.19304,50.7799],[2.19155,50.7787],[2.19073,50.77905],[2.19282,50.7801]]]}},{"type":"Feature","properties":{"k":"ORP","s":3.932},"geometry":{"type":"Polygon","coordinates":[[[2.19097,50.77886],[2.19245,50.77845],[2.193,50.77805],[2.19244,50.77668],[2.19252,50.77591],[2.18953,50.77806],[2.19097,50.77886]]]}},{"type":"Feature","properties":{"k":"JAC","s":0.517},"geometry":{"type":"Polygon","coordinates":[[[2.19157,50.77482],[2.19256,50.77556],[2.19245,50.77668],[2.193,50.77805],[2.1931,50.77788],[2.19262,50.77657],[2.19275,50.77554],[2.1917,50.77472],[2.19157,50.77482]]]}},{"type":"Feature","properties":{"k":"PPH","s":1.232},"geometry":{"type":"Polygon","coordinates":[[[2.19391,50.77746],[2.19473,50.77789],[2.19539,50.77775],[2.19658,50.77661],[2.19598,50.77711],[2.19486,50.77656],[2.19391,50.77746]]]}},{"type":"Feature","properties":{"k":"BTH","s":3.798},"geometry":{"type":"Polygon","coordinates":[[[2.19742,50.77478],[2.19522,50.77373],[2.19423,50.77459],[2.19367,50.77542],[2.19605,50.776],[2.19742,50.77478]]]}},{"type":"Feature","properties":{"k":"LIF","s":8.78},"geometry":{"type":"Polygon","coordinates":[[[2.19312,50.77511],[2.19406,50.77377],[2.1954,50.77266],[2.19378,50.77207],[2.19148,50.77192],[2.19019,50.77209],[2.18913,50.77319],[2.19031,50.77362],[2.19312,50.77511]]]}},{"type":"Feature","properties":{"k":"MDI","s":1.408},"geometry":{"type":"Polygon","coordinates":[[[2.19405,50.77205],[2.19545,50.77263],[2.19654,50.77186],[2.19529,50.77118],[2.19405,50.77205]]]}},{"type":"Feature","properties":{"k":"ORH","s":0.472},"geometry":{"type":"Polygon","coordinates":[[[2.19672,50.77245],[2.19626,50.7729],[2.19686,50.77307],[2.19767,50.77241],[2.19733,50.77221],[2.19672,50.77245]]]}},{"type":"Feature","properties":{"k":"BTH","s":2.064},"geometry":{"type":"Polygon","coordinates":[[[2.194,50.77205],[2.19568,50.77089],[2.19475,50.77025],[2.19235,50.77192],[2.194,50.77205]]]}},{"type":"Feature","properties":{"k":"BTH","s":3.711},"geometry":{"type":"Polygon","coordinates":[[[2.19519,50.76885],[2.19438,50.76862],[2.19339,50.76931],[2.19671,50.77135],[2.19736,50.77087],[2.19692,50.77075],[2.19683,50.77051],[2.19715,50.7704],[2.19764,50.77067],[2.19778,50.77057],[2.19519,50.76885]]]}},{"type":"Feature","properties":{"k":"BTN","s":0.527},"geometry":{"type":"Polygon","coordinates":[[[2.19792,50.7706],[2.19815,50.77049],[2.19574,50.76897],[2.19521,50.76884],[2.19792,50.7706]]]}},{"type":"Feature","properties":{"k":"PTR","s":0.477},"geometry":{"type":"Polygon","coordinates":[[[2.19494,50.76837],[2.19574,50.76888],[2.19573,50.76863],[2.19361,50.76697],[2.19337,50.76709],[2.19494,50.76837]]]}},{"type":"Feature","properties":{"k":"BTH","s":0.474},"geometry":{"type":"Polygon","coordinates":[[[2.19317,50.7672],[2.19342,50.76751],[2.19505,50.76875],[2.19554,50.7688],[2.19332,50.76709],[2.19317,50.7672]]]}},{"type":"Feature","properties":{"k":"BTH","s":4.927},"geometry":{"type":"Polygon","coordinates":[[[2.19472,50.77024],[2.19328,50.76925],[2.18931,50.77207],[2.19101,50.77188],[2.19231,50.77192],[2.19472,50.77024]]]}},{"type":"Feature","properties":{"k":"BTH","s":1.091},"geometry":{"type":"Polygon","coordinates":[[[2.18989,50.76917],[2.18939,50.76907],[2.18789,50.77016],[2.18646,50.77123],[2.18689,50.77138],[2.18989,50.76917]]]}},{"type":"Feature","properties":{"k":"MIS","s":10.135},"geometry":{"type":"Polygon","coordinates":[[[2.1924,50.76744],[2.18685,50.77141],[2.18931,50.77207],[2.19438,50.76857],[2.1924,50.76744]],[[2.19306,50.76829],[2.19276,50.76805],[2.19396,50.7688],[2.19306,50.76829]]]}},{"type":"Feature","properties":{"k":"BTH","s":4.854},"geometry":{"type":"Polygon","coordinates":[[[2.18791,50.7681],[2.1897,50.76878],[2.19044,50.76894],[2.1924,50.76744],[2.1916,50.76696],[2.18903,50.76672],[2.18791,50.7681]]]}},{"type":"Feature","properties":{"k":"MIS","s":1.224},"geometry":{"type":"Polygon","coordinates":[[[2.18619,50.76841],[2.18831,50.76924],[2.18854,50.76926],[2.18906,50.76884],[2.18783,50.76826],[2.18619,50.76841]]]}},{"type":"Feature","properties":{"k":"MIS","s":1.906},"geometry":{"type":"Polygon","coordinates":[[[2.18615,50.76844],[2.18531,50.76911],[2.1832,50.77019],[2.18437,50.7706],[2.18688,50.76872],[2.18615,50.76844]]]}},{"type":"Feature","properties":{"k":"MIS","s":4.247},"geometry":{"type":"Polygon","coordinates":[[[2.18643,50.77125],[2.18939,50.76907],[2.18911,50.76886],[2.18859,50.76923],[2.1887,50.76929],[2.18835,50.7693],[2.18743,50.76905],[2.1869,50.76873],[2.18437,50.77061],[2.18643,50.77125]]]}},{"type":"Feature","properties":{"k":"BTH","s":3.619},"geometry":{"type":"Polygon","coordinates":[[[2.18458,50.77362],[2.18713,50.77165],[2.186,50.77115],[2.18275,50.7735],[2.18393,50.77411],[2.18457,50.77361],[2.18458,50.77362]]]}},{"type":"Feature","properties":{"k":"PTC","s":2.499},"geometry":{"type":"Polygon","coordinates":[[[2.18659,50.77213],[2.1851,50.77327],[2.18672,50.77413],[2.18821,50.77297],[2.18659,50.77213]]]}},{"type":"Feature","properties":{"k":"BTH","s":0.957},"geometry":{"type":"Polygon","coordinates":[[[2.18912,50.77319],[2.1902,50.7721],[2.18846,50.772],[2.1883,50.77252],[2.18912,50.77319]]]}},{"type":"Feature","properties":{"k":"MIS","s":1.059},"geometry":{"type":"Polygon","coordinates":[[[2.18877,50.77307],[2.18738,50.77196],[2.18698,50.77225],[2.18821,50.77297],[2.18672,50.77413],[2.18715,50.77431],[2.18877,50.77307]]]}},{"type":"Feature","properties":{"k":"MDI","s":2.578},"geometry":{"type":"Polygon","coordinates":[[[2.19037,50.77383],[2.18877,50.77307],[2.18713,50.77434],[2.18868,50.77512],[2.19037,50.77383]]]}},{"type":"Feature","properties":{"k":"ORH","s":4.431},"geometry":{"type":"Polygon","coordinates":[[[2.18845,50.77531],[2.18487,50.77345],[2.18367,50.77438],[2.1872,50.77628],[2.18845,50.77531]]]}},{"type":"Feature","properties":{"k":"BTN","s":1.802},"geometry":{"type":"Polygon","coordinates":[[[2.18308,50.77483],[2.18614,50.77643],[2.18675,50.77601],[2.18367,50.77438],[2.18308,50.77483]]]}},{"type":"Feature","properties":{"k":"MIS","s":0.006},"geometry":{"type":"Polygon","coordinates":[[[2.18333,50.7738],[2.18331,50.77381],[2.1839,50.77411],[2.18333,50.7738]]]}},{"type":"Feature","properties":{"k":"LIF","s":2.094},"geometry":{"type":"Polygon","coordinates":[[[2.18209,50.77318],[2.18275,50.7735],[2.18599,50.77115],[2.1852,50.77089],[2.18209,50.77318]]]}},{"type":"Feature","properties":{"k":"BTN","s":1.965},"geometry":{"type":"Polygon","coordinates":[[[2.18208,50.77319],[2.1852,50.77088],[2.18427,50.77064],[2.18146,50.77287],[2.18208,50.77319]]]}},{"type":"Feature","properties":{"k":"BTN","s":0.011},"geometry":{"type":"Polygon","coordinates":[[[2.18168,50.77299],[2.18331,50.77381],[2.18333,50.7738],[2.18168,50.77299]]]}},{"type":"Feature","properties":{"k":"LIF","s":0.006},"geometry":{"type":"Polygon","coordinates":[[[2.18069,50.77248],[2.18068,50.77249],[2.18146,50.77288],[2.18069,50.77248]]]}},{"type":"Feature","properties":{"k":"BTH","s":0.003},"geometry":{"type":"Polygon","coordinates":[[[2.18037,50.77232],[2.18036,50.77233],[2.18068,50.77249],[2.18037,50.77232]]]}},{"type":"Feature","properties":{"k":"CZH","s":1.099},"geometry":{"type":"Polygon","coordinates":[[[2.18181,50.77261],[2.17884,50.77107],[2.17824,50.77123],[2.18146,50.77287],[2.18181,50.77261]]]}},{"type":"Feature","properties":{"k":"LIF","s":0.043},"geometry":{"type":"Polygon","coordinates":[[[2.17824,50.77123],[2.17884,50.77107],[2.17821,50.77122],[2.17824,50.77123]]]}},{"type":"Feature","properties":{"k":"ORH","s":0.022},"geometry":{"type":"Polygon","coordinates":[[[2.17883,50.77154],[2.17881,50.77155],[2.18036,50.77233],[2.17883,50.77154]]]}},{"type":"Feature","properties":{"k":"BTN","s":4.001},"geometry":{"type":"Polygon","coordinates":[[[2.17172,50.76963],[2.17602,50.76645],[2.17503,50.76588],[2.17138,50.76863],[2.17172,50.76963]]]}},{"type":"Feature","properties":{"k":"MLG","s":1.933},"geometry":{"type":"Polygon","coordinates":[[[2.17644,50.76668],[2.17602,50.76645],[2.17172,50.76963],[2.17189,50.77005],[2.17644,50.76668]]]}},{"type":"Feature","properties":{"k":"CZH","s":4.575},"geometry":{"type":"Polygon","coordinates":[[[2.1758,50.76956],[2.17822,50.76772],[2.17643,50.7667],[2.17394,50.76856],[2.1758,50.76956]]]}},{"type":"Feature","properties":{"k":"CZH","s":0.008},"geometry":{"type":"MultiPolygon","coordinates":[[[[2.17562,50.76946],[2.17559,50.76945],[2.17567,50.7695],[2.17562,50.76946]]],[[[2.17394,50.76856],[2.17393,50.76857],[2.1755,50.7694],[2.17394,50.76856]]]]}},{"type":"Feature","properties":{"k":"BTH","s":0.001},"geometry":{"type":"Polygon","coordinates":[]}},{"type":"Feature","properties":{"k":"BTH","s":3.432},"geometry":{"type":"Polygon","coordinates":[[[2.17822,50.76772],[2.1758,50.76956],[2.17719,50.7703],[2.17961,50.7685],[2.17822,50.76772]]]}},{"type":"Feature","properties":{"k":"PTC","s":1.386},"geometry":{"type":"Polygon","coordinates":[[[2.18015,50.76882],[2.17961,50.7685],[2.17719,50.7703],[2.17777,50.77061],[2.18015,50.76882]]]}},{"type":"Feature","properties":{"k":"BTH","s":3.235},"geometry":{"type":"Polygon","coordinates":[[[2.18067,50.76906],[2.18044,50.76925],[2.17993,50.76898],[2.17777,50.77061],[2.17861,50.77106],[2.18022,50.77066],[2.18175,50.76955],[2.18067,50.76906]]]}},{"type":"Feature","properties":{"k":"MIS","s":0.778},"geometry":{"type":"Polygon","coordinates":[[[2.18183,50.7703],[2.18291,50.77016],[2.18175,50.76955],[2.18022,50.77066],[2.18183,50.7703]]]}},{"type":"Feature","properties":{"k":"BTH","s":5.09},"geometry":{"type":"Polygon","coordinates":[[[2.17884,50.77107],[2.18182,50.77261],[2.18427,50.77064],[2.18321,50.77028],[2.18274,50.77026],[2.17884,50.77107]]]}},{"type":"Feature","properties":{"k":"PTC","s":5.763},"geometry":{"type":"Polygon","coordinates":[[[2.18305,50.77015],[2.18556,50.76882],[2.18305,50.7677],[2.18256,50.76777],[2.1817,50.76744],[2.18047,50.76891],[2.18305,50.77015]]]}},{"type":"Feature","properties":{"k":"MIS","s":0.621},"geometry":{"type":"Polygon","coordinates":[[[2.18485,50.76675],[2.18346,50.76658],[2.18312,50.76701],[2.18471,50.76727],[2.18485,50.76675]]]}},{"type":"Feature","properties":{"k":"ORP","s":0.727},"geometry":{"type":"Polygon","coordinates":[[[2.1817,50.76743],[2.18294,50.76778],[2.1835,50.76723],[2.18217,50.76689],[2.1817,50.76743]]]}},{"type":"Feature","properties":{"k":"BTH","s":14.461},"geometry":{"type":"Polygon","coordinates":[[[2.17889,50.76518],[2.18119,50.76615],[2.18475,50.76668],[2.18501,50.76661],[2.18556,50.76562],[2.17891,50.76298],[2.17712,50.76475],[2.17576,50.76461],[2.17459,50.76561],[2.17627,50.76654],[2.17651,50.76653],[2.17804,50.76501],[2.17889,50.76518]]]}},{"type":"Feature","properties":{"k":"BTH","s":4.483},"geometry":{"type":"Polygon","coordinates":[[[2.17898,50.76809],[2.18056,50.76656],[2.1777,50.76538],[2.17642,50.76662],[2.17898,50.76809]]]}},{"type":"Feature","properties":{"k":"CZH","s":2.515},"geometry":{"type":"Polygon","coordinates":[[[2.18346,50.76658],[2.18119,50.76615],[2.17862,50.76508],[2.17804,50.76501],[2.1777,50.76538],[2.18057,50.76656],[2.18312,50.76701],[2.18346,50.76658]]]}},{"type":"Feature","properties":{"k":"MIS","s":2.832},"geometry":{"type":"Polygon","coordinates":[[[2.18047,50.76891],[2.18217,50.76689],[2.18057,50.76656],[2.17899,50.76809],[2.18047,50.76891]]]}},{"type":"Feature","properties":{"k":"BTH","s":2.147},"geometry":{"type":"Polygon","coordinates":[[[2.17116,50.76799],[2.17138,50.76863],[2.17503,50.76588],[2.17442,50.76558],[2.17116,50.76799]]]}},{"type":"Feature","properties":{"k":"BTH","s":2.863},"geometry":{"type":"Polygon","coordinates":[[[2.17341,50.76509],[2.17081,50.76701],[2.17116,50.76798],[2.17442,50.76558],[2.17341,50.76509]]]}},{"type":"Feature","properties":{"k":"BTH","s":1.962},"geometry":{"type":"Polygon","coordinates":[[[2.17459,50.76561],[2.17576,50.76461],[2.1754,50.76443],[2.17747,50.76248],[2.17694,50.76229],[2.17396,50.76526],[2.17341,50.76509],[2.17459,50.76561]]]}},{"type":"Feature","properties":{"k":"BTH","s":2.187},"geometry":{"type":"Polygon","coordinates":[[[2.17712,50.76474],[2.17891,50.76298],[2.17784,50.76261],[2.17581,50.76463],[2.17712,50.76474]]]}},{"type":"Feature","properties":{"k":"ORP","s":0.799},"geometry":{"type":"Polygon","coordinates":[[[2.17747,50.76248],[2.1754,50.76443],[2.17576,50.76461],[2.17784,50.76261],[2.17747,50.76248]]]}},{"type":"Feature","properties":{"k":"BTH","s":0.006},"geometry":{"type":"Polygon","coordinates":[[[2.17925,50.76067],[2.18002,50.76093],[2.18003,50.76092],[2.17925,50.76067]]]}},{"type":"Feature","properties":{"k":"BTH","s":2.523},"geometry":{"type":"Polygon","coordinates":[[[2.1789,50.76062],[2.17732,50.76236],[2.17882,50.76286],[2.18023,50.7611],[2.1789,50.76062]]]}},{"type":"Feature","properties":{"k":"BTH","s":2.488},"geometry":{"type":"Polygon","coordinates":[[[2.17882,50.76288],[2.18159,50.76392],[2.1824,50.7629],[2.17944,50.76211],[2.17882,50.76288]],[[2.18006,50.76302],[2.17911,50.76267],[2.17914,50.76264],[2.18006,50.76302]]]}},{"type":"Feature","properties":{"k":"ORP","s":1.848},"geometry":{"type":"Polygon","coordinates":[[[2.18299,50.76233],[2.17992,50.76149],[2.17944,50.76211],[2.1824,50.7629],[2.18159,50.76392],[2.18299,50.76233]]]}},{"type":"Feature","properties":{"k":"MIS","s":2.513},"geometry":{"type":"Polygon","coordinates":[[[2.18312,50.76455],[2.18443,50.76298],[2.18306,50.76225],[2.18168,50.76396],[2.18312,50.76455]]]}},{"type":"Feature","properties":{"k":"BTH","s":0.939},"geometry":{"type":"Polygon","coordinates":[[[2.1818,50.76153],[2.18024,50.76109],[2.17992,50.76149],[2.18299,50.76233],[2.1818,50.76153]]]}},{"type":"Feature","properties":{"k":"BTN","s":2.999},"geometry":{"type":"Polygon","coordinates":[[[2.18711,50.76161],[2.18778,50.76099],[2.18354,50.75915],[2.1829,50.75975],[2.18711,50.76161]]]}},{"type":"Feature","properties":{"k":"BTH","s":4.757},"geometry":{"type":"Polygon","coordinates":[[[2.18325,50.76111],[2.18306,50.76131],[2.1859,50.76272],[2.18711,50.76161],[2.1829,50.75975],[2.18196,50.76061],[2.18325,50.76111]]]}},{"type":"Feature","properties":{"k":"PPH","s":0.02},"geometry":{"type":"Polygon","coordinates":[[[2.18797,50.761],[2.18826,50.76073],[2.18819,50.76071],[2.18797,50.761]]]}},{"type":"Feature","properties":{"k":"PTC","s":5.419},"geometry":{"type":"Polygon","coordinates":[[[2.18938,50.76163],[2.18956,50.76158],[2.19057,50.76265],[2.19276,50.76081],[2.18958,50.7595],[2.18822,50.76069],[2.18938,50.76163]]]}},{"type":"Feature","properties":{"k":"ORH","s":4.816},"geometry":{"type":"Polygon","coordinates":[[[2.18596,50.76276],[2.18907,50.76446],[2.18963,50.76412],[2.18896,50.76283],[2.18926,50.76268],[2.18819,50.76119],[2.18791,50.76097],[2.18596,50.76276]]]}},{"type":"Feature","properties":{"k":"JAC","s":0.235},"geometry":{"type":"Polygon","coordinates":[[[2.18896,50.76283],[2.18955,50.76396],[2.18943,50.76353],[2.1897,50.76343],[2.18926,50.76268],[2.18896,50.76283]]]}},{"type":"Feature","properties":{"k":"LIF","s":3.996},"geometry":{"type":"Polygon","coordinates":[[[2.1893,50.76163],[2.18822,50.76069],[2.18797,50.761],[2.1897,50.76343],[2.18942,50.76359],[2.18963,50.76412],[2.18907,50.76446],[2.19082,50.76561],[2.1917,50.7654],[2.1893,50.76163]]]}},{"type":"Feature","properties":{"k":"PPH","s":1.968},"geometry":{"type":"Polygon","coordinates":[[[2.19208,50.76447],[2.18956,50.76158],[2.18938,50.76163],[2.18893,50.76119],[2.18857,50.76094],[2.19003,50.76262],[2.1917,50.7654],[2.19265,50.76489],[2.19208,50.76447]]]}},{"type":"Feature","properties":{"k":"SBO","s":3.117},"geometry":{"type":"Polygon","coordinates":[[[2.18775,50.76429],[2.18861,50.76472],[2.18902,50.76442],[2.18348,50.76148],[2.18306,50.76187],[2.18334,50.76178],[2.18559,50.76282],[2.18631,50.76323],[2.18608,50.76338],[2.18752,50.76414],[2.18716,50.76419],[2.18306,50.76196],[2.18279,50.7621],[2.18729,50.76465],[2.18775,50.76429]]]}},{"type":"Feature","properties":{"k":"BTH","s":2.75},"geometry":{"type":"Polygon","coordinates":[[[2.18605,50.76576],[2.18668,50.76498],[2.18399,50.7635],[2.18314,50.76454],[2.18605,50.76576]]]}},{"type":"Feature","properties":{"k":"PTC","s":1.496},"geometry":{"type":"Polygon","coordinates":[[[2.18705,50.76451],[2.18443,50.76298],[2.18399,50.7635],[2.18668,50.76498],[2.18705,50.76451]]]}},{"type":"Feature","properties":{"k":"BTN","s":3.987},"geometry":{"type":"Polygon","coordinates":[[[2.18737,50.76795],[2.18781,50.7678],[2.18894,50.76668],[2.18759,50.7665],[2.18567,50.76569],[2.18479,50.76729],[2.18628,50.76756],[2.18642,50.76786],[2.18737,50.76795]]]}},{"type":"Feature","properties":{"k":"PPH","s":0.766},"geometry":{"type":"Polygon","coordinates":[[[2.18902,50.76442],[2.18861,50.76472],[2.19039,50.76584],[2.19082,50.76561],[2.18902,50.76442]],[[2.19059,50.76568],[2.19038,50.76577],[2.1903,50.76567],[2.19059,50.76568]]]}},{"type":"Feature","properties":{"k":"BTH","s":0.768},"geometry":{"type":"Polygon","coordinates":[[[2.18982,50.76615],[2.19039,50.76584],[2.1889,50.76496],[2.18826,50.76522],[2.18982,50.76615]]]}},{"type":"Feature","properties":{"k":"PTC","s":3.138},"geometry":{"type":"Polygon","coordinates":[[[2.18758,50.76643],[2.18893,50.76663],[2.18982,50.76615],[2.18705,50.76451],[2.18605,50.76576],[2.18758,50.76643]]]}},{"type":"Feature","properties":{"k":"PPH","s":0.519},"geometry":{"type":"Polygon","coordinates":[[[2.18776,50.76432],[2.18732,50.76467],[2.18826,50.76522],[2.1889,50.76496],[2.18776,50.76432]]]}},{"type":"Feature","properties":{"k":"BTH","s":1.095},"geometry":{"type":"Polygon","coordinates":[[[2.19207,50.76657],[2.19076,50.7657],[2.18984,50.76621],[2.19079,50.76683],[2.19175,50.76678],[2.19207,50.76657]]]}},{"type":"Feature","properties":{"k":"BTH","s":1.388},"geometry":{"type":"Polygon","coordinates":[[[2.19316,50.76715],[2.19359,50.76694],[2.19206,50.76551],[2.19153,50.76547],[2.19076,50.7657],[2.19316,50.76715]]]}},{"type":"Feature","properties":{"k":"MIS","s":1.0},"geometry":{"type":"Polygon","coordinates":[[[2.19367,50.76814],[2.19441,50.76851],[2.19464,50.76846],[2.19311,50.76716],[2.19207,50.76657],[2.1916,50.76687],[2.19367,50.76814]]]}},{"type":"Feature","properties":{"k":"LIF","s":1.205},"geometry":{"type":"Polygon","coordinates":[[[2.19371,50.76491],[2.19324,50.76509],[2.19576,50.76718],[2.19619,50.76696],[2.19371,50.76491]]]}},{"type":"Feature","properties":{"k":"CZH","s":2.326},"geometry":{"type":"Polygon","coordinates":[[[2.19423,50.76713],[2.19437,50.76708],[2.19586,50.76818],[2.1966,50.76779],[2.19436,50.76618],[2.19323,50.76509],[2.19282,50.76522],[2.19423,50.76713]]]}},{"type":"Feature","properties":{"k":"ORH","s":8.329},"geometry":{"type":"Polygon","coordinates":[[[2.19437,50.76709],[2.19423,50.76714],[2.19281,50.76524],[2.19212,50.76553],[2.19445,50.76771],[2.19639,50.76896],[2.19812,50.76966],[2.19781,50.7699],[2.1981,50.77003],[2.19897,50.77024],[2.20102,50.76896],[2.19812,50.76703],[2.19586,50.76819],[2.19437,50.76709]]]}},{"type":"Feature","properties":{"k":"MIS","s":1.937},"geometry":{"type":"Polygon","coordinates":[[[2.19766,50.76726],[2.19393,50.76482],[2.19371,50.76491],[2.19619,50.76696],[2.19576,50.76718],[2.19661,50.76779],[2.19766,50.76726]]]}},{"type":"Feature","properties":{"k":"ORP","s":4.823},"geometry":{"type":"Polygon","coordinates":[[[2.19438,50.7646],[2.19812,50.76703],[2.19944,50.76633],[2.19596,50.76389],[2.19438,50.7646]]]}},{"type":"Feature","properties":{"k":"BTN","s":1.512},"geometry":{"type":"Polygon","coordinates":[[[2.19809,50.76703],[2.1964,50.76591],[2.19438,50.7646],[2.19395,50.76482],[2.19765,50.76725],[2.19809,50.76703]]]}},{"type":"Feature","properties":{"k":"PTC","s":0.109},"geometry":{"type":"Polygon","coordinates":[[[2.19529,50.76344],[2.19606,50.76379],[2.19625,50.7637],[2.19548,50.76334],[2.19529,50.76344]]]}},{"type":"Feature","properties":{"k":"CAR","s":1.004},"geometry":{"type":"Polygon","coordinates":[[[2.19548,50.76334],[2.19625,50.7637],[2.19643,50.76363],[2.19791,50.76258],[2.19717,50.76242],[2.19548,50.76334]]]}},{"type":"Feature","properties":{"k":"CZH","s":2.621},"geometry":{"type":"Polygon","coordinates":[[[2.19606,50.76379],[2.19529,50.76344],[2.19736,50.76232],[2.1956,50.76187],[2.1934,50.7628],[2.19584,50.76388],[2.19606,50.76379]]]}},{"type":"Feature","properties":{"k":"MIS","s":4.201},"geometry":{"type":"Polygon","coordinates":[[[2.19244,50.76477],[2.19326,50.76498],[2.19584,50.76388],[2.1934,50.7628],[2.19137,50.76366],[2.19244,50.76477]]]}},{"type":"Feature","properties":{"k":"ORP","s":5.217},"geometry":{"type":"Polygon","coordinates":[[[2.19057,50.76265],[2.19137,50.76366],[2.1956,50.76187],[2.19276,50.76081],[2.19057,50.76265]]]}},{"type":"Feature","properties":{"k":"CHU","s":0.996},"geometry":{"type":"Polygon","coordinates":[[[2.19593,50.76189],[2.19752,50.76229],[2.1982,50.76184],[2.19694,50.76121],[2.19593,50.76189]]]}},{"type":"Feature","properties":{"k":"PHF","s":4.158},"geometry":{"type":"Polygon","coordinates":[[[2.19593,50.76189],[2.20018,50.75904],[2.19907,50.75859],[2.19471,50.76149],[2.19593,50.76189]]]}},{"type":"Feature","properties":{"k":"BTN","s":3.923},"geometry":{"type":"Polygon","coordinates":[[[2.20018,50.75904],[2.19694,50.76121],[2.1982,50.76184],[2.20168,50.75954],[2.20018,50.75904]]]}},{"type":"Feature","properties":{"k":"PTC","s":0.084},"geometry":{"type":"Polygon","coordinates":[[[2.19736,50.76232],[2.19717,50.76242],[2.19791,50.76258],[2.19802,50.7625],[2.19736,50.76232]]]}},{"type":"Feature","properties":{"k":"BTN","s":2.772},"geometry":{"type":"Polygon","coordinates":[[[2.19813,50.76253],[2.19635,50.76372],[2.19758,50.76456],[2.1999,50.76337],[2.19813,50.76253]]]}},{"type":"Feature","properties":{"k":"BTH","s":5.245},"geometry":{"type":"Polygon","coordinates":[[[2.20135,50.76418],[2.20376,50.76278],[2.20065,50.76153],[2.19863,50.76263],[2.20135,50.76418]]]}},{"type":"Feature","properties":{"k":"BTH","s":2.772},"geometry":{"type":"Polygon","coordinates":[[[2.20239,50.76494],[2.20516,50.76336],[2.20376,50.76278],[2.20135,50.76418],[2.20239,50.76494]]]}},{"type":"Feature","properties":{"k":"BTH","s":3.465},"geometry":{"type":"Polygon","coordinates":[[[2.20197,50.76057],[2.20314,50.76001],[2.20169,50.75954],[2.19827,50.7618],[2.19907,50.76228],[2.20197,50.76057]]]}},{"type":"Feature","properties":{"k":"BTH","s":0.892},"geometry":{"type":"Polygon","coordinates":[[[2.20591,50.76365],[2.20647,50.76332],[2.20607,50.76353],[2.20091,50.76138],[2.20067,50.76153],[2.20591,50.76365]]]}},{"type":"Feature","properties":{"k":"FLA","s":1.599},"geometry":{"type":"Polygon","coordinates":[[[2.20521,50.76336],[2.20239,50.76494],[2.20289,50.76535],[2.20591,50.76365],[2.20521,50.76336]]]}},{"type":"Feature","properties":{"k":"BTN","s":4.886},"geometry":{"type":"Polygon","coordinates":[[[2.20289,50.76535],[2.20456,50.76605],[2.20814,50.764],[2.20682,50.76313],[2.20289,50.76535]]]}},{"type":"Feature","properties":{"k":"BTH","s":3.061},"geometry":{"type":"Polygon","coordinates":[[[2.20457,50.76605],[2.20583,50.76642],[2.20914,50.76467],[2.20814,50.764],[2.20457,50.76605]]]}},{"type":"Feature","properties":{"k":"BTH","s":5.428},"geometry":{"type":"Polygon","coordinates":[[[2.20788,50.76849],[2.20976,50.76771],[2.21098,50.76862],[2.21198,50.76819],[2.21066,50.76723],[2.21022,50.76746],[2.2081,50.76586],[2.20625,50.76687],[2.20788,50.76849]]]}},{"type":"Feature","properties":{"k":"BTN","s":4.947},"geometry":{"type":"Polygon","coordinates":[[[2.19997,50.76607],[2.19814,50.76702],[2.20103,50.76896],[2.20283,50.76801],[2.19997,50.76607]]]}},{"type":"Feature","properties":{"k":"LIF","s":5.563},"geometry":{"type":"Polygon","coordinates":[[[2.20284,50.768],[2.20497,50.76688],[2.20336,50.7661],[2.20221,50.76493],[2.19997,50.76607],[2.20284,50.768]]]}},{"type":"Feature","properties":{"k":"BTH","s":2.457},"geometry":{"type":"Polygon","coordinates":[[[2.1999,50.76337],[2.19758,50.76456],[2.1987,50.7653],[2.20107,50.76411],[2.1999,50.76337]]]}},{"type":"Feature","properties":{"k":"PTR","s":0.324},"geometry":{"type":"Polygon","coordinates":[[[2.19775,50.76988],[2.1981,50.76966],[2.19709,50.76931],[2.19629,50.76895],[2.19775,50.76988]]]}},{"type":"Feature","properties":{"k":"BTH","s":0.495},"geometry":{"type":"Polygon","coordinates":[[[2.20257,50.76969],[2.20334,50.76924],[2.20271,50.76882],[2.20198,50.76934],[2.20257,50.76969]]]}},{"type":"Feature","properties":{"k":"PTC","s":0.593},"geometry":{"type":"Polygon","coordinates":[[[2.20334,50.76924],[2.20257,50.76969],[2.20342,50.77019],[2.20416,50.76977],[2.20334,50.76924]]]}},{"type":"Feature","properties":{"k":"BTH","s":1.743},"geometry":{"type":"Polygon","coordinates":[[[2.20061,50.771],[2.20268,50.76975],[2.20187,50.76928],[2.19964,50.77048],[2.20061,50.771]]]}},{"type":"Feature","properties":{"k":"CAR","s":0.218},"geometry":{"type":"Polygon","coordinates":[[[2.20238,50.77005],[2.20294,50.77039],[2.20335,50.77015],[2.20275,50.7698],[2.20238,50.77005]]]}},{"type":"Feature","properties":{"k":"POT","s":0.069},"geometry":{"type":"Polygon","coordinates":[[[2.20294,50.77039],[2.20347,50.7707],[2.20362,50.77062],[2.20308,50.77031],[2.20294,50.77039]]]}},{"type":"Feature","properties":{"k":"BTH","s":1.91},"geometry":{"type":"Polygon","coordinates":[[[2.20373,50.77088],[2.20231,50.77],[2.20092,50.77082],[2.20243,50.77173],[2.20373,50.77088]]]}},{"type":"Feature","properties":{"k":"JAC","s":0.197},"geometry":{"type":"Polygon","coordinates":[[[2.20133,50.77163],[2.20214,50.77187],[2.20144,50.77146],[2.20072,50.77101],[2.20133,50.77163]]]}},{"type":"Feature","properties":{"k":"ORH","s":0.399},"geometry":{"type":"Polygon","coordinates":[[[2.1993,50.77083],[2.19905,50.77131],[2.19967,50.7716],[2.20013,50.77124],[2.19986,50.77107],[2.19995,50.77094],[2.1993,50.77083]]]}},{"type":"Feature","properties":{"k":"BTH","s":0.198},"geometry":{"type":"Polygon","coordinates":[[[2.19715,50.7704],[2.19677,50.77059],[2.19736,50.77087],[2.19764,50.77067],[2.19715,50.7704]]]}},{"type":"Feature","properties":{"k":"PPH","s":1.516},"geometry":{"type":"Polygon","coordinates":[[[2.19967,50.7716],[2.19905,50.77131],[2.19783,50.772],[2.19969,50.77301],[2.20005,50.77276],[2.19911,50.7722],[2.19993,50.77153],[2.20044,50.77178],[2.20079,50.77154],[2.20056,50.77137],[2.20076,50.77128],[2.20041,50.77104],[2.19967,50.7716]]]}},{"type":"Feature","properties":{"k":"PPH","s":0.378},"geometry":{"type":"Polygon","coordinates":[[[2.20453,50.77212],[2.20425,50.77247],[2.20516,50.77301],[2.20553,50.77278],[2.20453,50.77212]]]}},{"type":"Feature","properties":{"k":"PPH","s":1.202},"geometry":{"type":"Polygon","coordinates":[[[2.20354,50.77328],[2.20467,50.77391],[2.20558,50.77331],[2.2042,50.77248],[2.20354,50.77328]]]}},{"type":"Feature","properties":{"k":"PPH","s":0.504},"geometry":{"type":"Polygon","coordinates":[[[2.2039,50.7743],[2.20336,50.77468],[2.20428,50.7751],[2.20477,50.77477],[2.20461,50.7745],[2.2039,50.7743]]]}},{"type":"Feature","properties":{"k":"PPH","s":0.557},"geometry":{"type":"Polygon","coordinates":[[[2.20416,50.77521],[2.20445,50.77538],[2.20483,50.77519],[2.20513,50.77541],[2.20513,50.77559],[2.20479,50.77567],[2.20494,50.77576],[2.20439,50.77609],[2.20483,50.77629],[2.20568,50.77564],[2.20474,50.77485],[2.20416,50.77521]]]}},{"type":"Feature","properties":{"k":"MIS","s":1.991},"geometry":{"type":"Polygon","coordinates":[[[2.20607,50.77418],[2.2054,50.77469],[2.20633,50.77547],[2.20702,50.77553],[2.20809,50.77597],[2.20869,50.77549],[2.20607,50.77418]]]}},{"type":"Feature","properties":{"k":"BTH","s":1.803},"geometry":{"type":"Polygon","coordinates":[[[2.2093,50.77498],[2.20991,50.77445],[2.20716,50.7731],[2.20646,50.77356],[2.2093,50.77498]]]}},{"type":"Feature","properties":{"k":"BTH","s":1.468},"geometry":{"type":"Polygon","coordinates":[[[2.20936,50.77412],[2.20993,50.77359],[2.20786,50.77259],[2.20716,50.7731],[2.20991,50.77445],[2.20936,50.77412]]]}},{"type":"Feature","properties":{"k":"MIS","s":0.093},"geometry":{"type":"Polygon","coordinates":[[[2.2065,50.77346],[2.20657,50.77349],[2.20786,50.77259],[2.2065,50.77346]]]}},{"type":"Feature","properties":{"k":"PPH","s":0.441},"geometry":{"type":"Polygon","coordinates":[[[2.2068,50.77248],[2.20607,50.77306],[2.20662,50.77337],[2.20733,50.77289],[2.2068,50.77248]]]}},{"type":"Feature","properties":{"k":"PTC","s":1.984},"geometry":{"type":"Polygon","coordinates":[[[2.2101,50.77364],[2.21085,50.77314],[2.20959,50.77253],[2.20977,50.7723],[2.20907,50.77176],[2.20778,50.77254],[2.2101,50.77364]]]}},{"type":"Feature","properties":{"k":"MDI","s":0.027},"geometry":{"type":"Polygon","coordinates":[[[2.20755,50.77127],[2.20746,50.77132],[2.20777,50.77155],[2.20755,50.77127]]]}},{"type":"Feature","properties":{"k":"POT","s":0.071},"geometry":{"type":"Polygon","coordinates":[[[2.20308,50.77031],[2.20362,50.77062],[2.20375,50.77053],[2.20323,50.77022],[2.20308,50.77031]]]}},{"type":"Feature","properties":{"k":"POT","s":0.059},"geometry":{"type":"Polygon","coordinates":[[[2.20335,50.77015],[2.20323,50.77022],[2.20375,50.77053],[2.20335,50.77015]]]}},{"type":"Feature","properties":{"k":"POR","s":0.063},"geometry":{"type":"Polygon","coordinates":[[[2.20373,50.77037],[2.20445,50.76996],[2.20436,50.7699],[2.20373,50.77037]]]}},{"type":"Feature","properties":{"k":"OIG","s":0.018},"geometry":{"type":"Polygon","coordinates":[[[2.20434,50.76988],[2.2036,50.7703],[2.20364,50.77032],[2.20434,50.76988]]]}},{"type":"Feature","properties":{"k":"PTC","s":4.051},"geometry":{"type":"Polygon","coordinates":[[[2.19357,50.76106],[2.19492,50.76016],[2.19819,50.75798],[2.19742,50.75742],[2.19255,50.76065],[2.19357,50.76106]]]}},{"type":"Feature","properties":{"k":"BTH","s":7.2},"geometry":{"type":"Polygon","coordinates":[[[2.19148,50.76023],[2.19659,50.75681],[2.19488,50.75616],[2.18984,50.75953],[2.19148,50.76023]]]}},{"type":"Feature","properties":{"k":"CZH","s":7.628},"geometry":{"type":"Polygon","coordinates":[[[2.18942,50.75942],[2.18523,50.75763],[2.18354,50.75915],[2.18778,50.761],[2.18942,50.75942]]]}},{"type":"Feature","properties":{"k":"BTH","s":4.818},"geometry":{"type":"Polygon","coordinates":[[[2.18518,50.75761],[2.18319,50.75683],[2.18089,50.75895],[2.18291,50.75974],[2.18518,50.75761]]]}},{"type":"Feature","properties":{"k":"MIS","s":3.587},"geometry":{"type":"Polygon","coordinates":[[[2.18195,50.76061],[2.18281,50.75983],[2.18085,50.75896],[2.18318,50.75682],[2.18256,50.75657],[2.17968,50.75939],[2.18052,50.75998],[2.18195,50.76061]]]}},{"type":"Feature","properties":{"k":"PTC","s":0.001},"geometry":{"type":"Polygon","coordinates":[[[2.18454,50.75731],[2.18411,50.75715],[2.18454,50.75732],[2.18454,50.75731]]]}},{"type":"Feature","properties":{"k":"OIG","s":0.126},"geometry":{"type":"Polygon","coordinates":[[[2.20416,50.76977],[2.20342,50.77019],[2.2036,50.7703],[2.20434,50.76988],[2.20416,50.76977]]]}},{"type":"Feature","properties":{"k":"BTH","s":0.283},"geometry":{"type":"Polygon","coordinates":[[[2.20445,50.76996],[2.20372,50.77038],[2.20414,50.77062],[2.20485,50.77022],[2.20445,50.76996]]]}},{"type":"Feature","properties":{"k":"AVP","s":0.257},"geometry":{"type":"Polygon","coordinates":[[[2.2042,50.76964],[2.20437,50.76974],[2.20598,50.76868],[2.20582,50.76858],[2.2042,50.76964]]]}},{"type":"Feature","properties":{"k":"PTC","s":0.271},"geometry":{"type":"Polygon","coordinates":[[[2.2027,50.76882],[2.20487,50.77011],[2.20424,50.76962],[2.20287,50.76872],[2.2027,50.76882]]]}},{"type":"Feature","properties":{"k":"LIF","s":2.047},"geometry":{"type":"Polygon","coordinates":[[[2.20473,50.76788],[2.20287,50.76872],[2.20424,50.76962],[2.20582,50.76858],[2.20473,50.76788]]]}},{"type":"Feature","properties":{"k":"BTH","s":2.17},"geometry":{"type":"Polygon","coordinates":[[[2.20659,50.76907],[2.20674,50.76899],[2.20701,50.76917],[2.20779,50.76883],[2.20733,50.76832],[2.20565,50.76716],[2.20479,50.76764],[2.20479,50.76781],[2.20659,50.76907]]]}},{"type":"Feature","properties":{"k":"BOR","s":0.026},"geometry":{"type":"Polygon","coordinates":[[[2.21299,50.76977],[2.21293,50.76972],[2.21251,50.76993],[2.21299,50.76977]]]}},{"type":"Feature","properties":{"k":"BTP","s":0.051},"geometry":{"type":"Polygon","coordinates":[[[2.21279,50.77],[2.21324,50.76978],[2.21315,50.76969],[2.21267,50.76993],[2.21279,50.77]]]}},{"type":"Feature","properties":{"k":"BTH","s":0.533},"geometry":{"type":"Polygon","coordinates":[[[2.21347,50.76865],[2.21425,50.76834],[2.21343,50.76778],[2.21268,50.76811],[2.21347,50.76865]]]}},{"type":"Feature","properties":{"k":"BTH","s":0.184},"geometry":{"type":"Polygon","coordinates":[[[2.2145,50.76822],[2.21366,50.76766],[2.21342,50.76777],[2.21425,50.76834],[2.2145,50.76822]]]}},{"type":"Feature","properties":{"k":"BTP","s":0.853},"geometry":{"type":"Polygon","coordinates":[[[2.21568,50.76906],[2.21406,50.76976],[2.21455,50.7702],[2.21639,50.76938],[2.21613,50.76939],[2.21568,50.76906]]]}},{"type":"Feature","properties":{"k":"BTH","s":3.569},"geometry":{"type":"Polygon","coordinates":[[[2.21224,50.76915],[2.21299,50.76977],[2.21324,50.76978],[2.21257,50.76998],[2.21379,50.77089],[2.2147,50.7705],[2.21406,50.76976],[2.21568,50.76906],[2.21613,50.76939],[2.21628,50.76931],[2.21469,50.76819],[2.21224,50.76915]]]}},{"type":"Feature","properties":{"k":"BTP","s":0.089},"geometry":{"type":"Polygon","coordinates":[[[2.21393,50.77083],[2.21379,50.77089],[2.2139,50.77097],[2.21474,50.7706],[2.21455,50.77056],[2.21393,50.77083]]]}},{"type":"Feature","properties":{"k":"BTH","s":0.008},"geometry":{"type":"MultiPolygon","coordinates":[[[[2.21513,50.77119],[2.21478,50.77069],[2.2148,50.77075],[2.21499,50.77124],[2.21513,50.77119]]],[[[2.21473,50.77056],[2.21457,50.7702],[2.21499,50.77001],[2.21455,50.7702],[2.21473,50.77056]]]]}},{"type":"Feature","properties":{"k":"PTC","s":1.666},"geometry":{"type":"Polygon","coordinates":[[[2.2133,50.77179],[2.21276,50.77201],[2.21311,50.77237],[2.21522,50.77149],[2.21474,50.7706],[2.21286,50.77142],[2.2133,50.77179]]]}},{"type":"Feature","properties":{"k":"PTC","s":0.011},"geometry":{"type":"Polygon","coordinates":[[[2.21288,50.7714],[2.21313,50.77129],[2.21307,50.77126],[2.21288,50.7714]]]}},{"type":"Feature","properties":{"k":"CAR","s":0.063},"geometry":{"type":"Polygon","coordinates":[[[2.21263,50.77087],[2.21146,50.77144],[2.21153,50.77148],[2.21263,50.77087]]]}}]}