{"type":"FeatureCollection","features":[{"type":"Feature","properties":{"k":"MIS","s":0.025},"geometry":{"type":"MultiPolygon","coordinates":[[[[1.714,50.62674],[1.71381,50.62658],[1.71407,50.62705],[1.71419,50.62712],[1.714,50.62674]]]]}},{"type":"Feature","properties":{"k":"PPH","s":0.161},"geometry":{"type":"MultiPolygon","coordinates":[[[[1.71658,50.62831],[1.71641,50.62792],[1.71649,50.62969],[1.71658,50.62831]]],[[[1.71187,50.62558],[1.71177,50.62558],[1.71195,50.62565],[1.71187,50.62558]]]]}},{"type":"Feature","properties":{"k":"PPH","s":0.002},"geometry":{"type":"Polygon","coordinates":[[[1.71079,50.62484],[1.7106,50.6245],[1.71079,50.62487],[1.71079,50.62484]]]}},{"type":"Feature","properties":{"k":"BTH","s":16.387},"geometry":{"type":"Polygon","coordinates":[[[1.71569,50.6255],[1.71697,50.62519],[1.71846,50.62441],[1.71785,50.62418],[1.71816,50.62339],[1.71797,50.62298],[1.71615,50.62092],[1.71047,50.62425],[1.71083,50.62489],[1.71176,50.62555],[1.7129,50.62491],[1.71569,50.6255]]]}},{"type":"Feature","properties":{"k":"MIS","s":9.714},"geometry":{"type":"Polygon","coordinates":[[[1.70971,50.62183],[1.70998,50.62328],[1.71047,50.62425],[1.71615,50.62092],[1.71553,50.6201],[1.71378,50.62006],[1.71243,50.61972],[1.71265,50.62143],[1.70971,50.62183]]]}},{"type":"Feature","properties":{"k":"BTH","s":0.249},"geometry":{"type":"Polygon","coordinates":[[[1.70929,50.62193],[1.70998,50.62328],[1.70971,50.62183],[1.70929,50.62193]]]}},{"type":"Feature","properties":{"k":"BTN","s":3.123},"geometry":{"type":"Polygon","coordinates":[[[1.70936,50.61977],[1.71127,50.61943],[1.71183,50.61948],[1.71119,50.618],[1.70865,50.61807],[1.70936,50.61977]]]}},{"type":"Feature","properties":{"k":"PPH","s":1.456},"geometry":{"type":"Polygon","coordinates":[[[1.74809,50.60822],[1.74807,50.60871],[1.74865,50.60873],[1.74865,50.60921],[1.75023,50.60926],[1.75048,50.60882],[1.74943,50.60822],[1.74809,50.60822]]]}},{"type":"Feature","properties":{"k":"BTH","s":2.62},"geometry":{"type":"Polygon","coordinates":[[[1.74133,50.60802],[1.74232,50.60849],[1.7433,50.60842],[1.74435,50.60853],[1.74424,50.60713],[1.74275,50.6071],[1.74133,50.60802]]]}},{"type":"Feature","properties":{"k":"MIS","s":1.877},"geometry":{"type":"Polygon","coordinates":[[[1.74614,50.60832],[1.7469,50.60721],[1.74456,50.60708],[1.74481,50.60856],[1.74614,50.60832]]]}},{"type":"Feature","properties":{"k":"MIS","s":0.166},"geometry":{"type":"Polygon","coordinates":[[[1.74423,50.60685],[1.7433,50.60679],[1.74298,50.60701],[1.74425,50.60699],[1.74423,50.60685]]]}},{"type":"Feature","properties":{"k":"BTH","s":0.006},"geometry":{"type":"Polygon","coordinates":[[[1.7467,50.60717],[1.74749,50.60708],[1.74748,50.60706],[1.7467,50.60717]]]}},{"type":"Feature","properties":{"k":"BTH","s":0.004},"geometry":{"type":"Polygon","coordinates":[[[1.74784,50.60702],[1.74813,50.60697],[1.74748,50.60706],[1.74784,50.60702]]]}},{"type":"Feature","properties":{"k":"MIS","s":0.431},"geometry":{"type":"Polygon","coordinates":[[[1.74698,50.60745],[1.74933,50.60709],[1.74921,50.60686],[1.74696,50.60722],[1.74698,50.60745]]]}},{"type":"Feature","properties":{"k":"BTP","s":0.0},"geometry":{"type":"Polygon","coordinates":[]}},{"type":"Feature","properties":{"k":"PTR","s":0.0},"geometry":{"type":"Polygon","coordinates":[]}},{"type":"Feature","properties":{"k":"CZH","s":2.706},"geometry":{"type":"Polygon","coordinates":[[[1.72931,50.59512],[1.73133,50.59766],[1.73203,50.59809],[1.73185,50.59605],[1.72996,50.59511],[1.72931,50.59512]]]}},{"type":"Feature","properties":{"k":"BFS","s":0.082},"geometry":{"type":"Polygon","coordinates":[[[1.73271,50.5989],[1.73259,50.5988],[1.73214,50.59931],[1.73228,50.59938],[1.73271,50.5989]]]}},{"type":"Feature","properties":{"k":"ORH","s":12.042},"geometry":{"type":"Polygon","coordinates":[[[1.73271,50.5989],[1.73228,50.59938],[1.73214,50.59931],[1.73158,50.59971],[1.73001,50.60006],[1.72917,50.60045],[1.7303,50.60149],[1.73067,50.60204],[1.73065,50.60244],[1.73136,50.60338],[1.73604,50.60192],[1.73404,50.60026],[1.73271,50.5989]]]}},{"type":"Feature","properties":{"k":"PPH","s":0.885},"geometry":{"type":"Polygon","coordinates":[[[1.72834,50.59418],[1.72909,50.59476],[1.72926,50.59512],[1.73006,50.59511],[1.73104,50.59562],[1.73002,50.59507],[1.73041,50.59429],[1.72834,50.59418]]]}},{"type":"Feature","properties":{"k":"JAC","s":0.181},"geometry":{"type":"Polygon","coordinates":[[[1.72644,50.59528],[1.72926,50.59512],[1.72654,50.59523],[1.72585,50.59499],[1.7255,50.5946],[1.72554,50.59491],[1.72644,50.59528]]]}},{"type":"Feature","properties":{"k":"ORH","s":3.232},"geometry":{"type":"Polygon","coordinates":[[[1.72923,50.59508],[1.72878,50.59447],[1.72679,50.59334],[1.72549,50.59454],[1.72585,50.59499],[1.72654,50.59523],[1.72923,50.59508]]]}},{"type":"Feature","properties":{"k":"BTH","s":0.002},"geometry":{"type":"MultiPolygon","coordinates":[[[[1.72896,50.59419],[1.72898,50.59418],[1.72861,50.59417],[1.72896,50.59419]]]]}},{"type":"Feature","properties":{"k":"BTH","s":0.001},"geometry":{"type":"Polygon","coordinates":[]}},{"type":"Feature","properties":{"k":"ORP","s":0.002},"geometry":{"type":"Polygon","coordinates":[[[1.72898,50.59418],[1.72896,50.59419],[1.72928,50.5942],[1.72898,50.59418]]]}},{"type":"Feature","properties":{"k":"PTC","s":0.0},"geometry":{"type":"Polygon","coordinates":[[[1.72645,50.59323],[1.72634,50.5932],[1.72643,50.59323],[1.72645,50.59323]]]}},{"type":"Feature","properties":{"k":"PPH","s":4.549},"geometry":{"type":"Polygon","coordinates":[[[1.72459,50.59266],[1.71909,50.59128],[1.71908,50.59141],[1.72031,50.5919],[1.72086,50.59245],[1.72474,50.59366],[1.72549,50.59454],[1.72679,50.59334],[1.72459,50.59266]]]}},{"type":"Feature","properties":{"k":"PPH","s":0.028},"geometry":{"type":"Polygon","coordinates":[[[1.7075,50.61732],[1.70751,50.61738],[1.70884,50.61729],[1.7075,50.61732]]]}},{"type":"Feature","properties":{"k":"MIS","s":0.0},"geometry":{"type":"Polygon","coordinates":[[[1.7076,50.61781],[1.70761,50.61781],[1.70758,50.61772],[1.7076,50.61781]]]}},{"type":"Feature","properties":{"k":"LIF","s":0.006},"geometry":{"type":"MultiPolygon","coordinates":[[[[1.70852,50.61775],[1.70851,50.61773],[1.70848,50.61775],[1.70852,50.61775]]],[[[1.7086,50.61794],[1.70855,50.6178],[1.70852,50.61775],[1.7086,50.61794]]]]}},{"type":"Feature","properties":{"k":"AVP","s":1.408},"geometry":{"type":"Polygon","coordinates":[[[1.71111,50.61766],[1.70851,50.61773],[1.70865,50.61807],[1.71397,50.61796],[1.71381,50.61762],[1.71111,50.61766]]]}},{"type":"Feature","properties":{"k":"PPH","s":0.008},"geometry":{"type":"Polygon","coordinates":[[[1.7248,50.63325],[1.72491,50.63334],[1.72498,50.63326],[1.7248,50.63325]]]}},{"type":"Feature","properties":{"k":"BTN","s":0.458},"geometry":{"type":"MultiPolygon","coordinates":[[[[1.71325,50.59116],[1.7131,50.59133],[1.71393,50.59164],[1.71534,50.59173],[1.71471,50.5914],[1.71325,50.59116]]],[[[1.71147,50.5917],[1.71136,50.59173],[1.71124,50.59183],[1.71147,50.5917]]]]}},{"type":"Feature","properties":{"k":"ORH","s":0.29},"geometry":{"type":"Polygon","coordinates":[[[1.71656,50.59179],[1.71721,50.59161],[1.71514,50.59145],[1.71519,50.59165],[1.71656,50.59179]]]}},{"type":"Feature","properties":{"k":"LIF","s":0.032},"geometry":{"type":"Polygon","coordinates":[[[1.71519,50.59165],[1.71514,50.59145],[1.71472,50.5914],[1.71519,50.59165]]]}},{"type":"Feature","properties":{"k":"BTH","s":14.28},"geometry":{"type":"Polygon","coordinates":[[[1.71283,50.59585],[1.71784,50.5928],[1.71646,50.59287],[1.71674,50.59178],[1.7143,50.5917],[1.7131,50.59134],[1.71125,50.59183],[1.71065,50.5924],[1.71059,50.59316],[1.71283,50.59585]]]}},{"type":"Feature","properties":{"k":"BTH","s":0.161},"geometry":{"type":"MultiPolygon","coordinates":[[[[1.70654,50.59364],[1.70634,50.59436],[1.70713,50.59441],[1.70719,50.59439],[1.70636,50.59435],[1.7066,50.59367],[1.70624,50.5934],[1.70462,50.59283],[1.70654,50.59364]]],[[[1.7075,50.59432],[1.70835,50.594],[1.70719,50.59439],[1.7075,50.59432]]],[[[1.70894,50.5934],[1.70926,50.59328],[1.70893,50.59339],[1.70844,50.59395],[1.70894,50.5934]]],[[[1.71065,50.5924],[1.71088,50.59214],[1.71057,50.59241],[1.71056,50.59317],[1.71059,50.59317],[1.71065,50.5924]]]]}},{"type":"Feature","properties":{"k":"BOR","s":1.889},"geometry":{"type":"Polygon","coordinates":[[[1.71011,50.59591],[1.70455,50.59586],[1.70422,50.59288],[1.70619,50.59354],[1.70642,50.59373],[1.70619,50.5944],[1.70694,50.59453],[1.70842,50.59411],[1.70919,50.59341],[1.71068,50.59327],[1.71059,50.59316],[1.7091,50.59332],[1.70831,50.59402],[1.70696,50.59442],[1.70634,50.59436],[1.70659,50.59371],[1.7063,50.59346],[1.70457,50.59281],[1.70403,50.59275],[1.70439,50.59596],[1.71016,50.59602],[1.7127,50.59561],[1.71232,50.59547],[1.71011,50.59591]]]}},{"type":"Feature","properties":{"k":"PTC","s":12.624},"geometry":{"type":"Polygon","coordinates":[[[1.70919,50.59341],[1.70842,50.59411],[1.70694,50.59453],[1.70619,50.5944],[1.70642,50.59373],[1.70619,50.59354],[1.70422,50.59288],[1.70455,50.59586],[1.71011,50.59591],[1.71258,50.59547],[1.71068,50.59327],[1.70919,50.59341]]]}},{"type":"Feature","properties":{"k":"CZH","s":11.172},"geometry":{"type":"Polygon","coordinates":[[[1.71874,50.59128],[1.71777,50.59146],[1.71784,50.5928],[1.71282,50.59583],[1.71321,50.59675],[1.71392,50.59737],[1.71932,50.59417],[1.71874,50.59128]]]}},{"type":"Feature","properties":{"k":"BTH","s":10.118},"geometry":{"type":"Polygon","coordinates":[[[1.71464,50.5994],[1.71978,50.59639],[1.71932,50.59417],[1.71392,50.59737],[1.71464,50.5994]]]}},{"type":"Feature","properties":{"k":"PPH","s":2.553},"geometry":{"type":"Polygon","coordinates":[[[1.71302,50.59805],[1.71312,50.59908],[1.71362,50.59937],[1.71421,50.59925],[1.71376,50.5976],[1.7132,50.59715],[1.71286,50.59754],[1.7116,50.59826],[1.71148,50.59864],[1.7119,50.59912],[1.71263,50.59907],[1.71302,50.59805]]]}},{"type":"Feature","properties":{"k":"BTP","s":2.207},"geometry":{"type":"Polygon","coordinates":[[[1.71957,50.59683],[1.71991,50.59871],[1.72019,50.59854],[1.71978,50.59639],[1.71464,50.5994],[1.7153,50.60146],[1.71558,50.60129],[1.71501,50.59951],[1.71957,50.59683]]]}},{"type":"Feature","properties":{"k":"CZH","s":7.454},"geometry":{"type":"Polygon","coordinates":[[[1.71558,50.60129],[1.71991,50.59871],[1.71957,50.59683],[1.71504,50.59948],[1.71558,50.60129]]]}},{"type":"Feature","properties":{"k":"ORH","s":1.663},"geometry":{"type":"Polygon","coordinates":[[[1.71253,50.60152],[1.71265,50.60131],[1.71243,50.60072],[1.71285,50.60063],[1.71341,50.60013],[1.7137,50.60012],[1.71369,50.59978],[1.71266,50.59954],[1.7119,50.59968],[1.71167,50.60012],[1.71209,50.60151],[1.71253,50.60152]]]}},{"type":"Feature","properties":{"k":"BTH","s":12.245},"geometry":{"type":"Polygon","coordinates":[[[1.70469,50.60168],[1.71112,50.60168],[1.71113,50.60153],[1.71182,50.60143],[1.71126,50.5995],[1.70427,50.59944],[1.70469,50.60168]]]}},{"type":"Feature","properties":{"k":"BOR","s":0.476},"geometry":{"type":"Polygon","coordinates":[[[1.71016,50.59602],[1.70997,50.59601],[1.71108,50.5995],[1.71126,50.5995],[1.71016,50.59602]]]}},{"type":"Feature","properties":{"k":"PTC","s":17.295},"geometry":{"type":"Polygon","coordinates":[[[1.70441,50.59675],[1.70407,50.59675],[1.70444,50.59944],[1.71108,50.5995],[1.70997,50.59601],[1.70439,50.59596],[1.70441,50.59675]]]}},{"type":"Feature","properties":{"k":"ORH","s":1.512},"geometry":{"type":"Polygon","coordinates":[[[1.70118,50.6032],[1.70136,50.60309],[1.69821,50.59883],[1.6989,50.60078],[1.6995,50.60157],[1.70039,50.6022],[1.70025,50.60238],[1.70118,50.6032]]]}},{"type":"Feature","properties":{"k":"BTH","s":9.076},"geometry":{"type":"Polygon","coordinates":[[[1.69821,50.59883],[1.70136,50.60309],[1.70296,50.60202],[1.6993,50.597],[1.69856,50.5976],[1.69821,50.59883]]]}},{"type":"Feature","properties":{"k":"BTH","s":13.958},"geometry":{"type":"Polygon","coordinates":[[[1.70469,50.60168],[1.70398,50.59804],[1.70299,50.59811],[1.70212,50.59601],[1.70174,50.59607],[1.70076,50.59537],[1.70032,50.59529],[1.6993,50.597],[1.70296,50.60202],[1.70469,50.60168]]]}},{"type":"Feature","properties":{"k":"BOR","s":0.683},"geometry":{"type":"Polygon","coordinates":[[[1.70398,50.59805],[1.70427,50.59944],[1.70444,50.59944],[1.70407,50.59675],[1.70441,50.59675],[1.70439,50.59596],[1.7039,50.59596],[1.70398,50.59805]]]}},{"type":"Feature","properties":{"k":"CZH","s":2.312},"geometry":{"type":"Polygon","coordinates":[[[1.70247,50.59586],[1.70212,50.59601],[1.70299,50.59811],[1.70398,50.59804],[1.70385,50.59594],[1.70247,50.59586]]]}},{"type":"Feature","properties":{"k":"MIS","s":0.009},"geometry":{"type":"MultiPolygon","coordinates":[[[[1.70216,50.59596],[1.70193,50.59602],[1.70205,50.59602],[1.70216,50.59596]]],[[[1.70257,50.59563],[1.70251,50.59555],[1.70248,50.59577],[1.70257,50.59563]]]]}},{"type":"Feature","properties":{"k":"CZH","s":1.305},"geometry":{"type":"Polygon","coordinates":[[[1.70385,50.59594],[1.70439,50.59596],[1.70403,50.59275],[1.7035,50.5927],[1.70385,50.59594]]]}},{"type":"Feature","properties":{"k":"PPH","s":0.091},"geometry":{"type":"MultiPolygon","coordinates":[[[[1.70265,50.59545],[1.70243,50.59501],[1.70254,50.59532],[1.70257,50.59563],[1.70265,50.59545]]],[[[1.7021,50.59422],[1.70235,50.59476],[1.70232,50.59443],[1.7021,50.59422]]],[[[1.70226,50.59271],[1.70208,50.5931],[1.70192,50.59398],[1.70226,50.59271]]]]}},{"type":"Feature","properties":{"k":"PPH","s":0.02},"geometry":{"type":"MultiPolygon","coordinates":[[[[1.6984,50.59798],[1.69854,50.59761],[1.69852,50.59764],[1.6984,50.59798]]],[[[1.69985,50.59608],[1.69992,50.59583],[1.69959,50.59664],[1.69985,50.59608]]]]}},{"type":"Feature","properties":{"k":"MIS","s":1.892},"geometry":{"type":"Polygon","coordinates":[[[1.73428,50.62342],[1.73582,50.6237],[1.73725,50.62365],[1.73492,50.62242],[1.7357,50.62124],[1.73544,50.62108],[1.73467,50.62224],[1.73428,50.62342]]]}},{"type":"Feature","properties":{"k":"AVP","s":1.237},"geometry":{"type":"Polygon","coordinates":[[[1.73542,50.62093],[1.73704,50.6204],[1.73558,50.61968],[1.73458,50.6205],[1.73542,50.62093]]]}},{"type":"Feature","properties":{"k":"BTH","s":1.229},"geometry":{"type":"Polygon","coordinates":[[[1.73458,50.6205],[1.73558,50.61968],[1.73372,50.61919],[1.73317,50.61969],[1.73458,50.6205]]]}},{"type":"Feature","properties":{"k":"PPH","s":0.348},"geometry":{"type":"Polygon","coordinates":[[[1.73163,50.62023],[1.73107,50.62105],[1.73181,50.62107],[1.73185,50.62022],[1.73163,50.62023]]]}},{"type":"Feature","properties":{"k":"PPH","s":2.449},"geometry":{"type":"Polygon","coordinates":[[[1.73432,50.61823],[1.73217,50.61741],[1.73158,50.61781],[1.73238,50.61827],[1.7321,50.61859],[1.7323,50.6187],[1.73211,50.61895],[1.73234,50.61905],[1.73225,50.61914],[1.73317,50.61969],[1.73432,50.61823]]]}},{"type":"Feature","properties":{"k":"PPH","s":5.272},"geometry":{"type":"Polygon","coordinates":[[[1.73451,50.61637],[1.73341,50.61654],[1.73286,50.61683],[1.73329,50.61713],[1.73309,50.61728],[1.73409,50.61794],[1.73603,50.61814],[1.73614,50.61804],[1.7368,50.61831],[1.73798,50.61832],[1.73787,50.61684],[1.73562,50.61662],[1.73505,50.61674],[1.73451,50.61637]]]}},{"type":"Feature","properties":{"k":"PPH","s":1.545},"geometry":{"type":"Polygon","coordinates":[[[1.73794,50.61648],[1.73804,50.61792],[1.73891,50.61798],[1.73892,50.61761],[1.73949,50.61772],[1.73977,50.6169],[1.73794,50.61648]]]}},{"type":"Feature","properties":{"k":"PPH","s":10.7},"geometry":{"type":"Polygon","coordinates":[[[1.73789,50.61893],[1.73721,50.6188],[1.73713,50.61907],[1.73519,50.61876],[1.73433,50.61823],[1.73368,50.61917],[1.73585,50.61975],[1.73704,50.6204],[1.73804,50.62073],[1.73975,50.62102],[1.74024,50.62067],[1.73992,50.62062],[1.73981,50.62007],[1.74026,50.61974],[1.74105,50.61975],[1.74092,50.61756],[1.74039,50.61761],[1.74052,50.61702],[1.73978,50.61691],[1.7395,50.61773],[1.73894,50.61763],[1.73892,50.61798],[1.73804,50.61792],[1.73789,50.61893]]]}},{"type":"Feature","properties":{"k":"PPH","s":0.119},"geometry":{"type":"Polygon","coordinates":[[[1.74062,50.62083],[1.74036,50.6208],[1.7404,50.6211],[1.74111,50.62118],[1.74062,50.62083]]]}},{"type":"Feature","properties":{"k":"PPH","s":0.155},"geometry":{"type":"Polygon","coordinates":[[[1.74062,50.62047],[1.74036,50.62062],[1.74112,50.62102],[1.7411,50.62069],[1.74062,50.62047]]]}},{"type":"Feature","properties":{"k":"BTH","s":2.3},"geometry":{"type":"Polygon","coordinates":[[[1.74152,50.61694],[1.74158,50.61801],[1.74291,50.61826],[1.74314,50.61718],[1.74398,50.6173],[1.74358,50.61619],[1.74152,50.61694]]]}},{"type":"Feature","properties":{"k":"PPH","s":0.062},"geometry":{"type":"Polygon","coordinates":[[[1.74444,50.61729],[1.74454,50.6175],[1.74437,50.61778],[1.7444,50.61787],[1.74457,50.61746],[1.74487,50.61739],[1.74444,50.61729]]]}},{"type":"Feature","properties":{"k":"PPH","s":2.738},"geometry":{"type":"Polygon","coordinates":[[[1.7428,50.61958],[1.7431,50.61833],[1.74472,50.61851],[1.74433,50.61782],[1.74444,50.61739],[1.74316,50.61719],[1.74291,50.61827],[1.74158,50.61802],[1.74123,50.61827],[1.74126,50.61877],[1.74183,50.61877],[1.74183,50.61928],[1.7428,50.61958]]]}},{"type":"Feature","properties":{"k":"BTH","s":5.294},"geometry":{"type":"Polygon","coordinates":[[[1.74458,50.6185],[1.74311,50.61833],[1.7428,50.61958],[1.74183,50.61928],[1.74133,50.61972],[1.74136,50.62034],[1.74265,50.62118],[1.74377,50.62141],[1.74431,50.62131],[1.7443,50.62068],[1.74442,50.62031],[1.74458,50.6185]]]}},{"type":"Feature","properties":{"k":"BTA","s":0.281},"geometry":{"type":"Polygon","coordinates":[[[1.74265,50.62118],[1.74136,50.62034],[1.74253,50.62128],[1.74333,50.62146],[1.74329,50.62161],[1.74357,50.62136],[1.74265,50.62118]]]}},{"type":"Feature","properties":{"k":"BTA","s":0.302},"geometry":{"type":"Polygon","coordinates":[[[1.74403,50.62144],[1.74451,50.62125],[1.74455,50.62116],[1.74473,50.61852],[1.74458,50.6185],[1.74443,50.62119],[1.74414,50.62135],[1.74357,50.62136],[1.74403,50.62144]]]}},{"type":"Feature","properties":{"k":"PPH","s":0.003},"geometry":{"type":"MultiPolygon","coordinates":[[[[1.74387,50.62151],[1.74403,50.62144],[1.74386,50.62148],[1.74387,50.62151]]],[[[1.74454,50.62124],[1.74455,50.62116],[1.74451,50.62125],[1.74454,50.62124]]]]}},{"type":"Feature","properties":{"k":"BTH","s":0.553},"geometry":{"type":"Polygon","coordinates":[[[1.7414,50.62145],[1.74188,50.62131],[1.74324,50.6216],[1.74333,50.62146],[1.74253,50.62128],[1.74136,50.62046],[1.7414,50.62145]]]}},{"type":"Feature","properties":{"k":"PPH","s":1.119},"geometry":{"type":"Polygon","coordinates":[[[1.74354,50.62382],[1.74374,50.62152],[1.74335,50.62162],[1.74277,50.62378],[1.74354,50.62382]]]}},{"type":"Feature","properties":{"k":"BTA","s":0.119},"geometry":{"type":"Polygon","coordinates":[[[1.74293,50.62254],[1.74266,50.62371],[1.74331,50.62162],[1.74293,50.62254]]]}},{"type":"Feature","properties":{"k":"ORH","s":0.006},"geometry":{"type":"Polygon","coordinates":[[[1.74426,50.61635],[1.74429,50.61642],[1.74439,50.61605],[1.74426,50.61635]]]}},{"type":"Feature","properties":{"k":"PPH","s":0.447},"geometry":{"type":"Polygon","coordinates":[[[1.74445,50.61738],[1.74404,50.61669],[1.74428,50.61645],[1.74433,50.61591],[1.74358,50.61619],[1.74398,50.6173],[1.74445,50.61738]]]}},{"type":"Feature","properties":{"k":"PPH","s":0.572},"geometry":{"type":"Polygon","coordinates":[[[1.74246,50.61535],[1.74342,50.61616],[1.74429,50.61582],[1.74421,50.6156],[1.74334,50.61577],[1.74315,50.61525],[1.74328,50.61512],[1.74246,50.61535]]]}},{"type":"Feature","properties":{"k":"PPH","s":0.205},"geometry":{"type":"Polygon","coordinates":[[[1.7448,50.61559],[1.7457,50.61551],[1.74599,50.6153],[1.74477,50.61535],[1.7448,50.61559]]]}},{"type":"Feature","properties":{"k":"PPH","s":0.148},"geometry":{"type":"Polygon","coordinates":[[[1.7435,50.61504],[1.74328,50.61512],[1.74333,50.61523],[1.74425,50.61519],[1.7442,50.61502],[1.7435,50.61504]]]}},{"type":"Feature","properties":{"k":"MIS","s":1.296},"geometry":{"type":"Polygon","coordinates":[[[1.74316,50.6135],[1.74221,50.61345],[1.74235,50.61536],[1.74325,50.6151],[1.74316,50.6135]]]}},{"type":"Feature","properties":{"k":"PPH","s":1.296},"geometry":{"type":"Polygon","coordinates":[[[1.74408,50.61496],[1.74391,50.61446],[1.74412,50.61353],[1.74404,50.61278],[1.74344,50.61278],[1.74321,50.61351],[1.74344,50.61502],[1.74408,50.61496]]]}},{"type":"Feature","properties":{"k":"MIS","s":0.855},"geometry":{"type":"Polygon","coordinates":[[[1.7476,50.61403],[1.74808,50.61357],[1.7449,50.61325],[1.74492,50.61345],[1.7476,50.61403]]]}},{"type":"Feature","properties":{"k":"LUZ","s":2.389},"geometry":{"type":"Polygon","coordinates":[[[1.74756,50.61428],[1.74838,50.61349],[1.74768,50.61332],[1.74799,50.61267],[1.74462,50.61284],[1.74466,50.61368],[1.74756,50.61428]],[[1.7476,50.61403],[1.74491,50.61345],[1.7449,50.61325],[1.74808,50.61357],[1.7476,50.61403]]]}},{"type":"Feature","properties":{"k":"MIS","s":0.308},"geometry":{"type":"Polygon","coordinates":[[[1.74457,50.61389],[1.74457,50.61407],[1.74674,50.61451],[1.74692,50.61438],[1.74457,50.61389]]]}},{"type":"Feature","properties":{"k":"PPH","s":2.76},"geometry":{"type":"Polygon","coordinates":[[[1.74756,50.6143],[1.74414,50.6136],[1.74394,50.61443],[1.74405,50.61489],[1.74485,50.6153],[1.746,50.61527],[1.74756,50.6143]],[[1.74674,50.61451],[1.74457,50.61407],[1.74457,50.61389],[1.74692,50.61438],[1.74674,50.61451]]]}},{"type":"Feature","properties":{"k":"PPH","s":3.158},"geometry":{"type":"Polygon","coordinates":[[[1.74846,50.61519],[1.74873,50.61465],[1.74969,50.61408],[1.74987,50.61338],[1.74937,50.61289],[1.7474,50.6146],[1.74615,50.61534],[1.74674,50.6158],[1.74846,50.61519]]]}},{"type":"Feature","properties":{"k":"PPH","s":0.009},"geometry":{"type":"MultiPolygon","coordinates":[[[[1.74875,50.61468],[1.74873,50.61479],[1.74881,50.61466],[1.74875,50.61468]]],[[[1.74846,50.61525],[1.74851,50.61518],[1.74831,50.61529],[1.74846,50.61525]]]]}},{"type":"Feature","properties":{"k":"PPH","s":2.207},"geometry":{"type":"Polygon","coordinates":[[[1.74266,50.61347],[1.74329,50.61348],[1.74342,50.61276],[1.74409,50.61274],[1.74416,50.61358],[1.74461,50.61367],[1.74432,50.61014],[1.74414,50.61014],[1.74411,50.61042],[1.74381,50.61043],[1.74331,50.61272],[1.74295,50.61291],[1.74266,50.61347]]]}},{"type":"Feature","properties":{"k":"MIS","s":0.357},"geometry":{"type":"Polygon","coordinates":[[[1.74596,50.61141],[1.74585,50.60995],[1.74555,50.61002],[1.74574,50.61143],[1.74596,50.61141]]]}},{"type":"Feature","properties":{"k":"BTH","s":5.825},"geometry":{"type":"Polygon","coordinates":[[[1.74824,50.61162],[1.74677,50.61169],[1.74658,50.60949],[1.74438,50.61012],[1.74462,50.61284],[1.74799,50.61267],[1.74824,50.61162]],[[1.74585,50.60995],[1.74596,50.61141],[1.74564,50.61143],[1.74554,50.61002],[1.74585,50.60995]],[[1.74637,50.6115],[1.74638,50.61172],[1.74477,50.61179],[1.74476,50.61157],[1.74637,50.6115]]]}},{"type":"Feature","properties":{"k":"LUZ","s":1.745},"geometry":{"type":"Polygon","coordinates":[[[1.74677,50.61169],[1.74824,50.61162],[1.74713,50.60933],[1.74656,50.60939],[1.74677,50.61169]]]}},{"type":"Feature","properties":{"k":"PPH","s":2.828},"geometry":{"type":"Polygon","coordinates":[[[1.74824,50.61162],[1.74927,50.61169],[1.74932,50.61154],[1.74886,50.61132],[1.74829,50.61025],[1.74781,50.61023],[1.74809,50.6092],[1.74865,50.60921],[1.74865,50.60873],[1.74807,50.60871],[1.74808,50.60823],[1.74706,50.60831],[1.74645,50.60884],[1.74656,50.60939],[1.74713,50.60933],[1.74824,50.61162]]]}},{"type":"Feature","properties":{"k":"ORH","s":1.777},"geometry":{"type":"Polygon","coordinates":[[[1.7499,50.61029],[1.75023,50.60926],[1.74809,50.6092],[1.74782,50.61022],[1.7499,50.61029]]]}},{"type":"Feature","properties":{"k":"PPH","s":1.999},"geometry":{"type":"Polygon","coordinates":[[[1.74953,50.61115],[1.74995,50.61117],[1.75041,50.61052],[1.75006,50.61039],[1.75123,50.60919],[1.75199,50.60952],[1.75264,50.60887],[1.75218,50.6086],[1.75108,50.60829],[1.75034,50.60916],[1.74953,50.61115]]]}},{"type":"Feature","properties":{"k":"PTR","s":0.006},"geometry":{"type":"Polygon","coordinates":[[[1.75084,50.61071],[1.75159,50.60994],[1.75115,50.61038],[1.75084,50.61071]]]}},{"type":"Feature","properties":{"k":"ORH","s":1.144},"geometry":{"type":"Polygon","coordinates":[[[1.75199,50.60952],[1.75123,50.60919],[1.75006,50.61039],[1.75041,50.61052],[1.75012,50.61077],[1.75049,50.61095],[1.75199,50.60952]]]}},{"type":"Feature","properties":{"k":"PPH","s":0.0},"geometry":{"type":"Polygon","coordinates":[]}},{"type":"Feature","properties":{"k":"PPH","s":0.616},"geometry":{"type":"Polygon","coordinates":[[[1.74829,50.61024],[1.74866,50.61097],[1.74946,50.61084],[1.7499,50.61029],[1.74829,50.61024]]]}},{"type":"Feature","properties":{"k":"PPH","s":0.4},"geometry":{"type":"Polygon","coordinates":[[[1.74986,50.61198],[1.7493,50.61196],[1.74922,50.61274],[1.74996,50.61293],[1.74986,50.61198]]]}},{"type":"Feature","properties":{"k":"PPH","s":0.0},"geometry":{"type":"MultiPolygon","coordinates":[]}},{"type":"Feature","properties":{"k":"CZH","s":0.039},"geometry":{"type":"Polygon","coordinates":[[[1.75481,50.6088],[1.75434,50.60935],[1.75494,50.60886],[1.75481,50.6088]]]}},{"type":"Feature","properties":{"k":"MIS","s":0.531},"geometry":{"type":"Polygon","coordinates":[[[1.7544,50.60895],[1.75171,50.60755],[1.75149,50.60769],[1.75426,50.60912],[1.7544,50.60895]]]}},{"type":"Feature","properties":{"k":"LUZ","s":1.624},"geometry":{"type":"Polygon","coordinates":[[[1.75204,50.60746],[1.7496,50.60721],[1.74966,50.60738],[1.75125,50.60781],[1.75302,50.60859],[1.75429,50.60936],[1.75479,50.60879],[1.75204,50.60746]],[[1.7544,50.60895],[1.75426,50.60912],[1.75149,50.60769],[1.75171,50.60755],[1.7544,50.60895]]]}},{"type":"Feature","properties":{"k":"LUZ","s":0.0},"geometry":{"type":"Polygon","coordinates":[]}},{"type":"Feature","properties":{"k":"BTH","s":2.89},"geometry":{"type":"MultiPolygon","coordinates":[[[[1.75204,50.60746],[1.75346,50.60814],[1.75225,50.60717],[1.75123,50.60694],[1.74951,50.60681],[1.74921,50.60686],[1.74926,50.60695],[1.74933,50.60709],[1.74698,50.60745],[1.74698,50.60731],[1.74729,50.60718],[1.74692,50.60722],[1.74672,50.60754],[1.74771,50.60746],[1.7478,50.60765],[1.74687,50.60776],[1.74635,50.60817],[1.7491,50.60786],[1.74934,50.60759],[1.75068,50.6081],[1.75124,50.60781],[1.74966,50.60738],[1.7496,50.60721],[1.75204,50.60746]]],[[[1.74845,50.60697],[1.74729,50.60718],[1.74921,50.60686],[1.74845,50.60697]]]]}},{"type":"Feature","properties":{"k":"PPH","s":0.675},"geometry":{"type":"Polygon","coordinates":[[[1.75218,50.60858],[1.75285,50.60899],[1.75322,50.60873],[1.75123,50.60784],[1.75075,50.60812],[1.75218,50.60858]]]}},{"type":"Feature","properties":{"k":"AVP","s":4.08},"geometry":{"type":"Polygon","coordinates":[[[1.70906,50.61991],[1.7108,50.62157],[1.71035,50.62168],[1.71265,50.62143],[1.71243,50.61972],[1.71159,50.61949],[1.70906,50.61991]]]}},{"type":"Feature","properties":{"k":"LIF","s":4.285},"geometry":{"type":"Polygon","coordinates":[[[1.71368,50.61998],[1.715,50.62004],[1.71397,50.61796],[1.71119,50.618],[1.71183,50.61948],[1.71368,50.61998]]]}},{"type":"Feature","properties":{"k":"PPH","s":2.975},"geometry":{"type":"Polygon","coordinates":[[[1.70762,50.61781],[1.71521,50.61762],[1.719,50.61822],[1.71901,50.61833],[1.72056,50.6183],[1.7191,50.61827],[1.71924,50.61802],[1.71819,50.61763],[1.7167,50.61764],[1.71547,50.61737],[1.71,50.61741],[1.70974,50.61727],[1.70751,50.61738],[1.70762,50.61781]]]}},{"type":"Feature","properties":{"k":"PPH","s":1.173},"geometry":{"type":"Polygon","coordinates":[[[1.71501,50.61612],[1.71557,50.61535],[1.71457,50.61493],[1.71374,50.61587],[1.71327,50.61607],[1.71331,50.61621],[1.71501,50.61612]]]}},{"type":"Feature","properties":{"k":"PPH","s":2.331},"geometry":{"type":"Polygon","coordinates":[[[1.71263,50.61439],[1.71318,50.61448],[1.71334,50.61423],[1.71328,50.61443],[1.71436,50.61463],[1.71487,50.61443],[1.71531,50.61342],[1.7135,50.61294],[1.71263,50.61439]]]}},{"type":"Feature","properties":{"k":"PPH","s":1.65},"geometry":{"type":"Polygon","coordinates":[[[1.71476,50.61125],[1.71358,50.61098],[1.71303,50.61168],[1.7156,50.61185],[1.7159,50.61013],[1.71476,50.61125]]]}},{"type":"Feature","properties":{"k":"BTH","s":4.137},"geometry":{"type":"Polygon","coordinates":[[[1.71256,50.61066],[1.71476,50.61125],[1.71574,50.61012],[1.71601,50.61014],[1.71659,50.60915],[1.71572,50.60886],[1.71231,50.61072],[1.71172,50.61094],[1.7108,50.61099],[1.71058,50.61117],[1.71167,50.61157],[1.71256,50.61066]]]}},{"type":"Feature","properties":{"k":"BTH","s":3.084},"geometry":{"type":"Polygon","coordinates":[[[1.7123,50.61071],[1.71569,50.60884],[1.71402,50.6083],[1.71081,50.61097],[1.7123,50.61071]]]}},{"type":"Feature","properties":{"k":"PPH","s":8.396},"geometry":{"type":"Polygon","coordinates":[[[1.71149,50.6142],[1.71169,50.61398],[1.71198,50.61409],[1.71206,50.61399],[1.71177,50.61388],[1.71209,50.61356],[1.71275,50.6138],[1.71279,50.61363],[1.71299,50.6137],[1.7135,50.61294],[1.71523,50.61339],[1.71556,50.61236],[1.71558,50.61185],[1.71301,50.61169],[1.71358,50.61098],[1.71256,50.61066],[1.70954,50.61349],[1.71173,50.61437],[1.71149,50.6142]]]}},{"type":"Feature","properties":{"k":"MIS","s":2.007},"geometry":{"type":"Polygon","coordinates":[[[1.71061,50.61118],[1.70856,50.61311],[1.70954,50.61349],[1.71151,50.61151],[1.71061,50.61118]]]}},{"type":"Feature","properties":{"k":"BTH","s":13.424},"geometry":{"type":"Polygon","coordinates":[[[1.70856,50.61311],[1.71058,50.61117],[1.71404,50.60831],[1.71525,50.60705],[1.71291,50.60666],[1.70649,50.61235],[1.70856,50.61311]]]}},{"type":"Feature","properties":{"k":"TTH","s":1.416},"geometry":{"type":"Polygon","coordinates":[[[1.70593,50.61192],[1.7102,50.60906],[1.71174,50.6077],[1.7057,50.61172],[1.70593,50.61192]]]}},{"type":"Feature","properties":{"k":"MIS","s":8.525},"geometry":{"type":"Polygon","coordinates":[[[1.71291,50.60666],[1.71124,50.60651],[1.70456,50.6109],[1.7057,50.61172],[1.71174,50.6077],[1.71291,50.60666]]]}},{"type":"Feature","properties":{"k":"BTH","s":1.374},"geometry":{"type":"Polygon","coordinates":[[[1.70649,50.61235],[1.7102,50.60906],[1.70593,50.61192],[1.70649,50.61235]]]}},{"type":"Feature","properties":{"k":"LIF","s":4.368},"geometry":{"type":"Polygon","coordinates":[[[1.70715,50.61271],[1.70605,50.61208],[1.70315,50.61328],[1.70423,50.61505],[1.70715,50.61271]]]}},{"type":"Feature","properties":{"k":"MIS","s":2.416},"geometry":{"type":"Polygon","coordinates":[[[1.70604,50.61486],[1.70855,50.61317],[1.70716,50.6127],[1.70511,50.61446],[1.70604,50.61486]]]}},{"type":"Feature","properties":{"k":"PPH","s":5.097},"geometry":{"type":"Polygon","coordinates":[[[1.71103,50.61507],[1.71075,50.6157],[1.71215,50.61581],[1.71252,50.61621],[1.71321,50.61624],[1.7132,50.61606],[1.71415,50.61538],[1.7137,50.61516],[1.71347,50.61534],[1.71329,50.61524],[1.71297,50.61532],[1.71288,50.61556],[1.7131,50.61566],[1.71289,50.61584],[1.71221,50.61552],[1.71203,50.61566],[1.71141,50.61534],[1.71192,50.61516],[1.71239,50.61474],[1.70869,50.61324],[1.70702,50.61445],[1.71103,50.61507]]]}},{"type":"Feature","properties":{"k":"BTH","s":3.212},"geometry":{"type":"Polygon","coordinates":[[[1.7093,50.61547],[1.71061,50.61577],[1.71103,50.61507],[1.70702,50.61445],[1.70549,50.61567],[1.7093,50.61547]]]}},{"type":"Feature","properties":{"k":"JAC","s":0.031},"geometry":{"type":"Polygon","coordinates":[[[1.70512,50.6153],[1.70458,50.61561],[1.70468,50.61562],[1.70512,50.6153]]]}},{"type":"Feature","properties":{"k":"JAC","s":0.121},"geometry":{"type":"Polygon","coordinates":[[[1.70461,50.61587],[1.70458,50.61561],[1.7049,50.61536],[1.70398,50.61586],[1.70461,50.61587]]]}},{"type":"Feature","properties":{"k":"PPH","s":1.931},"geometry":{"type":"Polygon","coordinates":[[[1.70034,50.61581],[1.70039,50.61594],[1.70072,50.61634],[1.70213,50.61626],[1.70404,50.61595],[1.70361,50.61522],[1.70034,50.61581]]]}},{"type":"Feature","properties":{"k":"ORH","s":2.705},"geometry":{"type":"Polygon","coordinates":[[[1.70361,50.61522],[1.70301,50.61426],[1.6998,50.61485],[1.70036,50.61585],[1.70361,50.61522]]]}},{"type":"Feature","properties":{"k":"CZH","s":1.985},"geometry":{"type":"Polygon","coordinates":[[[1.70379,50.6155],[1.70398,50.61586],[1.70581,50.61478],[1.70511,50.61446],[1.70423,50.61505],[1.70315,50.61328],[1.70256,50.61353],[1.70379,50.6155]]]}},{"type":"Feature","properties":{"k":"MIS","s":2.6},"geometry":{"type":"Polygon","coordinates":[[[1.7005,50.61337],[1.69909,50.61397],[1.69936,50.61411],[1.70256,50.61353],[1.70605,50.61208],[1.70273,50.61272],[1.7005,50.61337]]]}},{"type":"Feature","properties":{"k":"ORP","s":1.418},"geometry":{"type":"Polygon","coordinates":[[[1.70269,50.61374],[1.69948,50.61436],[1.6998,50.61485],[1.70301,50.61426],[1.70269,50.61374]]]}},{"type":"Feature","properties":{"k":"BTN","s":0.652},"geometry":{"type":"Polygon","coordinates":[[[1.70255,50.61352],[1.69934,50.61414],[1.69948,50.61436],[1.70269,50.61374],[1.70255,50.61352]]]}},{"type":"Feature","properties":{"k":"MIS","s":0.009},"geometry":{"type":"MultiPolygon","coordinates":[[[[1.69935,50.61413],[1.69856,50.61365],[1.69934,50.61414],[1.69935,50.61413]]],[[[1.69724,50.61156],[1.69713,50.61149],[1.69741,50.61186],[1.69724,50.61156]]]]}},{"type":"Feature","properties":{"k":"ORH","s":0.013},"geometry":{"type":"Polygon","coordinates":[[[1.69667,50.61056],[1.69655,50.61033],[1.69665,50.61074],[1.69667,50.61056]]]}},{"type":"Feature","properties":{"k":"BTH","s":2.579},"geometry":{"type":"Polygon","coordinates":[[[1.70092,50.60837],[1.69967,50.60884],[1.70079,50.61065],[1.70238,50.6095],[1.70092,50.60837]]]}},{"type":"Feature","properties":{"k":"BTH","s":10.922},"geometry":{"type":"Polygon","coordinates":[[[1.69961,50.60875],[1.69619,50.61003],[1.69655,50.61032],[1.69673,50.61106],[1.69737,50.61174],[1.69754,50.61231],[1.70094,50.61092],[1.70135,50.61155],[1.70492,50.6112],[1.70238,50.6095],[1.7008,50.61065],[1.69961,50.60875]]]}},{"type":"Feature","properties":{"k":"ORP","s":6.294},"geometry":{"type":"Polygon","coordinates":[[[1.70492,50.6112],[1.70135,50.61155],[1.70094,50.61092],[1.69754,50.61231],[1.69775,50.61299],[1.69842,50.61356],[1.70162,50.61237],[1.70536,50.61151],[1.70492,50.6112]]]}},{"type":"Feature","properties":{"k":"BTN","s":3.439},"geometry":{"type":"Polygon","coordinates":[[[1.70541,50.61155],[1.70162,50.61237],[1.69842,50.61356],[1.69909,50.61397],[1.7005,50.61337],[1.70591,50.61196],[1.70541,50.61155]]]}},{"type":"Feature","properties":{"k":"BTH","s":4.099},"geometry":{"type":"Polygon","coordinates":[[[1.70242,50.60947],[1.70643,50.6068],[1.70342,50.60731],[1.70095,50.60839],[1.70242,50.60947]]]}},{"type":"Feature","properties":{"k":"BTH","s":8.804},"geometry":{"type":"Polygon","coordinates":[[[1.70143,50.60799],[1.70338,50.60725],[1.70756,50.60652],[1.70417,50.60485],[1.69966,50.60671],[1.70143,50.60799]]]}},{"type":"Feature","properties":{"k":"MIS","s":12.205},"geometry":{"type":"Polygon","coordinates":[[[1.69808,50.60739],[1.6987,50.60713],[1.70046,50.60838],[1.70143,50.60799],[1.69966,50.60671],[1.70417,50.60485],[1.70175,50.60368],[1.69965,50.60309],[1.69962,50.6033],[1.70039,50.60343],[1.70034,50.6037],[1.69964,50.60359],[1.69933,50.60398],[1.69885,50.60412],[1.69907,50.60517],[1.69872,50.6056],[1.69787,50.60567],[1.69691,50.60607],[1.69636,50.60612],[1.69808,50.60739]]]}},{"type":"Feature","properties":{"k":"ORP","s":0.102},"geometry":{"type":"Polygon","coordinates":[[[1.69961,50.60874],[1.69967,50.60884],[1.70092,50.60837],[1.69961,50.60874]]]}},{"type":"Feature","properties":{"k":"MIS","s":8.365},"geometry":{"type":"Polygon","coordinates":[[[1.69734,50.60953],[1.69979,50.60862],[1.69636,50.60612],[1.69565,50.60618],[1.69445,50.60599],[1.69343,50.60678],[1.69734,50.60953]]]}},{"type":"Feature","properties":{"k":"PPH","s":2.947},"geometry":{"type":"Polygon","coordinates":[[[1.69733,50.60953],[1.69343,50.60678],[1.69314,50.60696],[1.69339,50.60749],[1.69417,50.60819],[1.69434,50.60818],[1.69496,50.60881],[1.69485,50.60897],[1.69615,50.61],[1.69733,50.60953]]]}},{"type":"Feature","properties":{"k":"BTN","s":0.027},"geometry":{"type":"Polygon","coordinates":[[[1.69457,50.60854],[1.69478,50.60887],[1.69496,50.60881],[1.69457,50.60854]]]}},{"type":"Feature","properties":{"k":"BTH","s":0.001},"geometry":{"type":"Polygon","coordinates":[]}},{"type":"Feature","properties":{"k":"PPH","s":0.0},"geometry":{"type":"Polygon","coordinates":[]}},{"type":"Feature","properties":{"k":"PPH","s":0.016},"geometry":{"type":"Polygon","coordinates":[[[1.69885,50.60412],[1.69893,50.60412],[1.69893,50.60391],[1.69874,50.60391],[1.69885,50.60412]]]}},{"type":"Feature","properties":{"k":"FRA","s":0.165},"geometry":{"type":"Polygon","coordinates":[[[1.70039,50.60343],[1.69962,50.6033],[1.69964,50.60359],[1.70034,50.6037],[1.70039,50.60343]]]}},{"type":"Feature","properties":{"k":"BTN","s":7.1},"geometry":{"type":"Polygon","coordinates":[[[1.70731,50.60171],[1.71017,50.60564],[1.71242,50.6056],[1.70965,50.60175],[1.70731,50.60171]]]}},{"type":"Feature","properties":{"k":"ORH","s":17.651},"geometry":{"type":"Polygon","coordinates":[[[1.70461,50.60172],[1.70302,50.60204],[1.70127,50.60333],[1.70614,50.60576],[1.71017,50.60564],[1.70731,50.60171],[1.70461,50.60172]]]}},{"type":"Feature","properties":{"k":"BTN","s":12.616},"geometry":{"type":"Polygon","coordinates":[[[1.70456,50.6109],[1.71124,50.60651],[1.70956,50.60642],[1.70649,50.60678],[1.7041,50.60831],[1.70241,50.60947],[1.70456,50.6109]]]}},{"type":"Feature","properties":{"k":"ORH","s":3.461},"geometry":{"type":"Polygon","coordinates":[[[1.71257,50.6056],[1.70616,50.60579],[1.70724,50.60634],[1.70784,50.60647],[1.70992,50.60634],[1.71272,50.60654],[1.71257,50.6056]]]}},{"type":"Feature","properties":{"k":"ORH","s":2.935},"geometry":{"type":"Polygon","coordinates":[[[1.71525,50.60705],[1.71404,50.60831],[1.71659,50.60915],[1.71725,50.60793],[1.71525,50.60705]]]}},{"type":"Feature","properties":{"k":"ORH","s":0.153},"geometry":{"type":"Polygon","coordinates":[[[1.71631,50.60734],[1.71664,50.6075],[1.71662,50.60637],[1.71631,50.60734]]]}},{"type":"Feature","properties":{"k":"ORH","s":10.169},"geometry":{"type":"Polygon","coordinates":[[[1.7131,50.60659],[1.71537,50.60699],[1.71623,50.6073],[1.71706,50.60519],[1.71838,50.60451],[1.7188,50.60441],[1.71932,50.60451],[1.71997,50.60406],[1.72168,50.60354],[1.72095,50.60261],[1.71908,50.60339],[1.71726,50.60387],[1.71593,50.60473],[1.71244,50.60528],[1.7131,50.60659]]]}},{"type":"Feature","properties":{"k":"PPR","s":5.173},"geometry":{"type":"Polygon","coordinates":[[[1.71234,50.60512],[1.7133,50.60322],[1.71345,50.60244],[1.71226,50.60251],[1.71187,50.60175],[1.70965,50.60175],[1.71242,50.6056],[1.71234,50.60512]]]}},{"type":"Feature","properties":{"k":"BTH","s":13.78},"geometry":{"type":"Polygon","coordinates":[[[1.71359,50.60248],[1.7128,50.60441],[1.71529,50.60409],[1.71651,50.60334],[1.71883,50.6027],[1.72053,50.602],[1.71997,50.59892],[1.71556,50.60162],[1.71526,50.60163],[1.71539,50.6022],[1.71359,50.60248]]]}},{"type":"Feature","properties":{"k":"BTP","s":6.755},"geometry":{"type":"Polygon","coordinates":[[[1.71997,50.59892],[1.72053,50.602],[1.71883,50.6027],[1.71651,50.60334],[1.71529,50.60409],[1.7128,50.60441],[1.71245,50.60522],[1.71587,50.60471],[1.71715,50.60388],[1.71923,50.60334],[1.72095,50.60261],[1.72019,50.59854],[1.71517,50.60164],[1.7156,50.60154],[1.71997,50.59892]]]}},{"type":"Feature","properties":{"k":"MIS","s":5.41},"geometry":{"type":"Polygon","coordinates":[[[1.7255,50.60624],[1.72547,50.60599],[1.72463,50.60525],[1.7233,50.6037],[1.72284,50.60333],[1.72282,50.60331],[1.72052,50.60386],[1.72212,50.60387],[1.72351,50.60602],[1.72112,50.6069],[1.7214,50.60713],[1.72218,50.6069],[1.72473,50.60689],[1.72523,50.60632],[1.7255,50.60624]]]}},{"type":"Feature","properties":{"k":"MIS","s":6.998},"geometry":{"type":"Polygon","coordinates":[[[1.71762,50.60788],[1.71941,50.6081],[1.72139,50.60713],[1.72013,50.60641],[1.71934,50.60518],[1.71864,50.6056],[1.71803,50.60568],[1.71721,50.60557],[1.71713,50.60519],[1.71662,50.60637],[1.71664,50.6075],[1.71762,50.60788]]]}},{"type":"Feature","properties":{"k":"BTH","s":9.008},"geometry":{"type":"Polygon","coordinates":[[[1.71688,50.60879],[1.71964,50.60949],[1.72179,50.60926],[1.72195,50.60885],[1.72333,50.60923],[1.72406,50.6091],[1.72378,50.60831],[1.72471,50.60698],[1.7219,50.60702],[1.71947,50.60818],[1.71738,50.60792],[1.71688,50.60879]]]}},{"type":"Feature","properties":{"k":"ORH","s":6.817},"geometry":{"type":"Polygon","coordinates":[[[1.721,50.60695],[1.72351,50.60602],[1.72212,50.60387],[1.72059,50.60389],[1.71936,50.60459],[1.71934,50.60518],[1.71995,50.60621],[1.721,50.60695]]]}},{"type":"Feature","properties":{"k":"ORP","s":0.0},"geometry":{"type":"Polygon","coordinates":[]}},{"type":"Feature","properties":{"k":"BTH","s":1.695},"geometry":{"type":"Polygon","coordinates":[[[1.7376,50.60695],[1.73818,50.60686],[1.73816,50.60633],[1.73782,50.60573],[1.73615,50.60575],[1.73616,50.60683],[1.7375,50.60684],[1.7376,50.60695]]]}},{"type":"Feature","properties":{"k":"BTN","s":0.134},"geometry":{"type":"Polygon","coordinates":[[[1.74297,50.60702],[1.7432,50.6068],[1.74137,50.60701],[1.74297,50.60702]]]}},{"type":"Feature","properties":{"k":"BTN","s":2.113},"geometry":{"type":"Polygon","coordinates":[[[1.73966,50.60706],[1.73963,50.60827],[1.74105,50.60828],[1.74273,50.60709],[1.73966,50.60706]]]}},{"type":"Feature","properties":{"k":"PPH","s":2.446},"geometry":{"type":"Polygon","coordinates":[[[1.7433,50.60842],[1.74232,50.60849],[1.74156,50.60812],[1.74099,50.60877],[1.74049,50.60893],[1.73973,50.60894],[1.73969,50.60951],[1.74025,50.60951],[1.74084,50.60916],[1.741,50.60919],[1.74096,50.60962],[1.74141,50.60911],[1.74209,50.60911],[1.7425,50.60935],[1.74338,50.60924],[1.74431,50.60861],[1.7433,50.60842]]]}},{"type":"Feature","properties":{"k":"PPH","s":0.794},"geometry":{"type":"Polygon","coordinates":[[[1.73963,50.60827],[1.73961,50.60889],[1.74044,50.60891],[1.74098,50.60875],[1.7416,50.60814],[1.74133,50.60802],[1.74105,50.60828],[1.73963,50.60827]]]}},{"type":"Feature","properties":{"k":"PPH","s":2.438},"geometry":{"type":"Polygon","coordinates":[[[1.73801,50.60735],[1.73735,50.60861],[1.73722,50.60917],[1.73738,50.60932],[1.73767,50.60934],[1.7388,50.60874],[1.73914,50.60795],[1.73935,50.60802],[1.73927,50.60864],[1.73961,50.60889],[1.73966,50.60706],[1.73896,50.60706],[1.73893,50.60754],[1.73821,50.60757],[1.73801,50.60735]]]}},{"type":"Feature","properties":{"k":"BTP","s":20.349},"geometry":{"type":"Polygon","coordinates":[[[1.72651,50.61169],[1.72971,50.61356],[1.73384,50.61398],[1.73566,50.61093],[1.72918,50.61018],[1.726,50.60996],[1.72562,50.61003],[1.7255,50.61032],[1.72651,50.61169]]]}},{"type":"Feature","properties":{"k":"MIS","s":4.511},"geometry":{"type":"Polygon","coordinates":[[[1.73566,50.61093],[1.73384,50.61402],[1.73528,50.61443],[1.73587,50.6133],[1.73606,50.61334],[1.73742,50.61065],[1.73566,50.61093]]]}},{"type":"Feature","properties":{"k":"PPH","s":1.551},"geometry":{"type":"Polygon","coordinates":[[[1.74297,50.6109],[1.74297,50.6105],[1.74411,50.61042],[1.74414,50.61014],[1.74283,50.61017],[1.74205,50.60999],[1.74077,50.61045],[1.74079,50.61089],[1.74297,50.6109]]]}},{"type":"Feature","properties":{"k":"PPH","s":0.735},"geometry":{"type":"Polygon","coordinates":[[[1.74057,50.61123],[1.7405,50.61046],[1.73932,50.61047],[1.73913,50.6111],[1.74057,50.61123]]]}},{"type":"Feature","properties":{"k":"MIS","s":0.327},"geometry":{"type":"Polygon","coordinates":[[[1.74329,50.61138],[1.74118,50.61126],[1.74117,50.61146],[1.74325,50.61158],[1.74329,50.61138]]]}},{"type":"Feature","properties":{"k":"BTH","s":3.133},"geometry":{"type":"Polygon","coordinates":[[[1.74081,50.6109],[1.74089,50.61256],[1.74295,50.61289],[1.74323,50.6128],[1.74381,50.61043],[1.74297,50.6105],[1.74297,50.6109],[1.74081,50.6109]],[[1.74118,50.61126],[1.74329,50.61138],[1.74325,50.61158],[1.74117,50.61146],[1.74118,50.61126]],[[1.74247,50.61185],[1.74122,50.61178],[1.74124,50.61165],[1.74327,50.61177],[1.74325,50.6119],[1.74247,50.61185]],[[1.74299,50.61218],[1.74291,50.61271],[1.74195,50.61264],[1.74124,50.61215],[1.74299,50.61218]]]}},{"type":"Feature","properties":{"k":"LUZ","s":0.211},"geometry":{"type":"Polygon","coordinates":[[[1.74124,50.61165],[1.74122,50.61178],[1.74325,50.6119],[1.74327,50.61177],[1.74124,50.61165]]]}},{"type":"Feature","properties":{"k":"LUZ","s":0.499},"geometry":{"type":"Polygon","coordinates":[[[1.74298,50.61225],[1.74297,50.61224],[1.74124,50.61215],[1.74195,50.61264],[1.74291,50.61271],[1.74293,50.61253],[1.74298,50.61225]]]}},{"type":"Feature","properties":{"k":"PPH","s":2.336},"geometry":{"type":"Polygon","coordinates":[[[1.73628,50.63016],[1.73619,50.62921],[1.73759,50.62825],[1.73803,50.62824],[1.73786,50.628],[1.73846,50.62727],[1.73693,50.62702],[1.73626,50.62777],[1.73701,50.62813],[1.73617,50.62855],[1.7357,50.62905],[1.73508,50.62889],[1.73591,50.63],[1.73628,50.63016]]]}},{"type":"Feature","properties":{"k":"PPH","s":3.991},"geometry":{"type":"Polygon","coordinates":[[[1.73695,50.62703],[1.73846,50.62727],[1.73786,50.628],[1.73804,50.62825],[1.73951,50.62757],[1.7391,50.62735],[1.73931,50.62691],[1.73967,50.62632],[1.74049,50.62634],[1.74048,50.62595],[1.73877,50.62586],[1.7388,50.62542],[1.73725,50.62523],[1.73695,50.62703]]]}},{"type":"Feature","properties":{"k":"PPH","s":1.54},"geometry":{"type":"Polygon","coordinates":[[[1.73725,50.62523],[1.7388,50.62542],[1.73877,50.62586],[1.73965,50.62591],[1.73871,50.62423],[1.73822,50.62415],[1.73725,50.62523]]]}},{"type":"Feature","properties":{"k":"CZH","s":1.302},"geometry":{"type":"Polygon","coordinates":[[[1.74089,50.62288],[1.74062,50.62471],[1.74134,50.62478],[1.74116,50.62153],[1.74067,50.62167],[1.74089,50.62288]]]}},{"type":"Feature","properties":{"k":"MIS","s":2.659},"geometry":{"type":"Polygon","coordinates":[[[1.74324,50.6216],[1.74188,50.62131],[1.74138,50.62145],[1.74151,50.62366],[1.74266,50.62371],[1.74324,50.6216]]]}},{"type":"Feature","properties":{"k":"BTN","s":6.217},"geometry":{"type":"Polygon","coordinates":[[[1.73743,50.62208],[1.73841,50.62285],[1.74089,50.62289],[1.74054,50.62173],[1.74116,50.62153],[1.74107,50.62122],[1.7382,50.62082],[1.737,50.62048],[1.7355,50.62099],[1.73743,50.62208]]]}},{"type":"Feature","properties":{"k":"LIF","s":3.53},"geometry":{"type":"Polygon","coordinates":[[[1.73492,50.62242],[1.73725,50.62365],[1.73897,50.62359],[1.73726,50.6221],[1.7357,50.62124],[1.73492,50.62242]]]}},{"type":"Feature","properties":{"k":"PPH","s":0.546},"geometry":{"type":"Polygon","coordinates":[[[1.74091,50.61319],[1.74091,50.61337],[1.74265,50.61346],[1.74293,50.61291],[1.74215,50.6128],[1.74194,50.6132],[1.74091,50.61319]]]}},{"type":"Feature","properties":{"k":"LIF","s":7.316},"geometry":{"type":"Polygon","coordinates":[[[1.73915,50.61112],[1.73938,50.61024],[1.73826,50.6102],[1.73742,50.61065],[1.73547,50.61448],[1.73747,50.61505],[1.73915,50.61112]]]}},{"type":"Feature","properties":{"k":"BTP","s":6.264},"geometry":{"type":"Polygon","coordinates":[[[1.73746,50.61625],[1.73922,50.61671],[1.73918,50.61304],[1.74046,50.61293],[1.74027,50.61238],[1.74061,50.61237],[1.74055,50.61123],[1.73915,50.61112],[1.73751,50.61502],[1.73832,50.61521],[1.73746,50.61625]]]}},{"type":"Feature","properties":{"k":"BTH","s":2.043},"geometry":{"type":"Polygon","coordinates":[[[1.74242,50.61545],[1.74217,50.61346],[1.74097,50.61339],[1.74107,50.61545],[1.74242,50.61545]]]}},{"type":"Feature","properties":{"k":"MIS","s":3.867},"geometry":{"type":"Polygon","coordinates":[[[1.7398,50.61683],[1.74059,50.61582],[1.74077,50.61587],[1.74,50.61686],[1.74086,50.61697],[1.74069,50.61357],[1.73918,50.61366],[1.73922,50.61671],[1.7398,50.61683]]]}},{"type":"Feature","properties":{"k":"BTH","s":1.757},"geometry":{"type":"Polygon","coordinates":[[[1.7411,50.61546],[1.74119,50.61696],[1.74336,50.61619],[1.74243,50.61546],[1.74203,50.61545],[1.7411,50.61546]]]}},{"type":"Feature","properties":{"k":"FRA","s":0.174},"geometry":{"type":"Polygon","coordinates":[[[1.74,50.61686],[1.74077,50.61587],[1.74059,50.61582],[1.7398,50.61683],[1.74,50.61686]]]}},{"type":"Feature","properties":{"k":"FRA","s":0.788},"geometry":{"type":"Polygon","coordinates":[[[1.73667,50.61597],[1.73746,50.61625],[1.73832,50.61521],[1.73751,50.61504],[1.73667,50.61597]]]}},{"type":"Feature","properties":{"k":"PPH","s":5.054},"geometry":{"type":"Polygon","coordinates":[[[1.73329,50.6162],[1.73338,50.61608],[1.73297,50.61591],[1.73363,50.61531],[1.73421,50.6156],[1.7344,50.61548],[1.73465,50.61562],[1.73338,50.61645],[1.73667,50.61597],[1.73747,50.61505],[1.73382,50.61402],[1.73336,50.61478],[1.73221,50.61558],[1.73329,50.6162]]]}},{"type":"Feature","properties":{"k":"PTC","s":0.193},"geometry":{"type":"Polygon","coordinates":[[[1.73528,50.61443],[1.73547,50.61448],[1.73606,50.61334],[1.73587,50.6133],[1.73528,50.61443]]]}},{"type":"Feature","properties":{"k":"BTP","s":1.449},"geometry":{"type":"Polygon","coordinates":[[[1.73207,50.6155],[1.73305,50.61475],[1.73335,50.61478],[1.73228,50.61425],[1.73199,50.61394],[1.73077,50.61474],[1.73207,50.6155]]]}},{"type":"Feature","properties":{"k":"ORP","s":0.778},"geometry":{"type":"Polygon","coordinates":[[[1.73228,50.61425],[1.73335,50.61478],[1.73384,50.61398],[1.73201,50.6138],[1.73228,50.61425]]]}},{"type":"Feature","properties":{"k":"BTP","s":1.037},"geometry":{"type":"Polygon","coordinates":[[[1.73201,50.61396],[1.73201,50.6138],[1.72971,50.61356],[1.73077,50.61474],[1.73201,50.61396]]]}},{"type":"Feature","properties":{"k":"PPH","s":0.727},"geometry":{"type":"Polygon","coordinates":[[[1.72981,50.61466],[1.72912,50.61503],[1.73013,50.61578],[1.73099,50.61539],[1.72981,50.61466]]]}},{"type":"Feature","properties":{"k":"PFR","s":0.174},"geometry":{"type":"Polygon","coordinates":[[[1.73207,50.6155],[1.73221,50.61558],[1.73328,50.61483],[1.73305,50.61475],[1.73207,50.6155]]]}},{"type":"Feature","properties":{"k":"PPH","s":1.294},"geometry":{"type":"Polygon","coordinates":[[[1.72906,50.61701],[1.72968,50.61721],[1.73062,50.6168],[1.73002,50.61632],[1.73057,50.61599],[1.73075,50.61611],[1.73135,50.61593],[1.73087,50.61547],[1.72913,50.61644],[1.72925,50.61652],[1.72906,50.61701]]]}},{"type":"Feature","properties":{"k":"BOR","s":0.057},"geometry":{"type":"Polygon","coordinates":[[[1.72581,50.61499],[1.72641,50.61609],[1.72585,50.615],[1.7252,50.61438],[1.72474,50.61402],[1.72581,50.61499]]]}},{"type":"Feature","properties":{"k":"MLG","s":2.045},"geometry":{"type":"Polygon","coordinates":[[[1.72585,50.615],[1.72641,50.61609],[1.72735,50.61596],[1.72628,50.61412],[1.72521,50.61354],[1.72474,50.61402],[1.72585,50.615]]]}},{"type":"Feature","properties":{"k":"PPH","s":0.959},"geometry":{"type":"Polygon","coordinates":[[[1.72818,50.61561],[1.72743,50.61475],[1.72769,50.61431],[1.72735,50.614],[1.72667,50.61453],[1.7273,50.61559],[1.72751,50.61585],[1.72818,50.61561]]]}},{"type":"Feature","properties":{"k":"BTH","s":1.969},"geometry":{"type":"Polygon","coordinates":[[[1.72839,50.61582],[1.72926,50.6148],[1.72891,50.61441],[1.72949,50.61411],[1.7289,50.61348],[1.72781,50.61404],[1.72741,50.61467],[1.72839,50.61582]]]}},{"type":"Feature","properties":{"k":"PPH","s":2.797},"geometry":{"type":"Polygon","coordinates":[[[1.71607,50.6102],[1.71971,50.61091],[1.72,50.61053],[1.72071,50.61039],[1.72151,50.60935],[1.71961,50.60948],[1.71895,50.61036],[1.71637,50.60977],[1.71607,50.6102]]]}},{"type":"Feature","properties":{"k":"BTH","s":2.293},"geometry":{"type":"Polygon","coordinates":[[[1.71637,50.60976],[1.71895,50.61036],[1.71961,50.60948],[1.71688,50.60879],[1.71637,50.60976]]]}},{"type":"Feature","properties":{"k":"BTH","s":10.45},"geometry":{"type":"Polygon","coordinates":[[[1.71381,50.61762],[1.715,50.62004],[1.71755,50.6201],[1.71891,50.61998],[1.72123,50.61946],[1.72225,50.61883],[1.7209,50.61874],[1.72056,50.6183],[1.71901,50.61833],[1.719,50.61822],[1.71591,50.6177],[1.71381,50.61762]]]}},{"type":"Feature","properties":{"k":"MIS","s":1.751},"geometry":{"type":"Polygon","coordinates":[[[1.71835,50.6201],[1.71896,50.62095],[1.72089,50.62054],[1.72124,50.61959],[1.71835,50.6201]]]}},{"type":"Feature","properties":{"k":"CZH","s":4.356},"geometry":{"type":"Polygon","coordinates":[[[1.72192,50.62094],[1.72313,50.6208],[1.72356,50.61965],[1.7247,50.61871],[1.72417,50.61802],[1.72352,50.61804],[1.72262,50.61874],[1.72113,50.61955],[1.72089,50.62054],[1.72104,50.6202],[1.72165,50.62033],[1.72192,50.62094]]]}},{"type":"Feature","properties":{"k":"CZH","s":0.554},"geometry":{"type":"Polygon","coordinates":[[[1.72462,50.61836],[1.72545,50.61833],[1.72508,50.61753],[1.72399,50.61785],[1.72462,50.61836]]]}},{"type":"Feature","properties":{"k":"BTH","s":3.048},"geometry":{"type":"Polygon","coordinates":[[[1.72809,50.61872],[1.72846,50.61858],[1.7278,50.61708],[1.72521,50.6176],[1.72559,50.61847],[1.72632,50.61834],[1.72668,50.6188],[1.72809,50.61872]]]}},{"type":"Feature","properties":{"k":"CZH","s":1.512},"geometry":{"type":"Polygon","coordinates":[[[1.72852,50.62018],[1.72809,50.62007],[1.72802,50.62042],[1.72895,50.62114],[1.73011,50.61949],[1.72925,50.61904],[1.72852,50.62018]]]}},{"type":"Feature","properties":{"k":"BTH","s":5.292},"geometry":{"type":"Polygon","coordinates":[[[1.72435,50.61927],[1.72454,50.61885],[1.72356,50.61965],[1.72313,50.6208],[1.7238,50.62093],[1.72404,50.62116],[1.72487,50.62128],[1.72538,50.6209],[1.72605,50.62126],[1.72687,50.6208],[1.72797,50.62124],[1.72717,50.6208],[1.72702,50.61991],[1.72613,50.61917],[1.72531,50.619],[1.72435,50.61927]]]}},{"type":"Feature","properties":{"k":"BTH","s":1.602},"geometry":{"type":"Polygon","coordinates":[[[1.72817,50.61947],[1.72698,50.61967],[1.72678,50.61891],[1.72473,50.61873],[1.72462,50.61889],[1.7249,50.61911],[1.72563,50.619],[1.72613,50.61917],[1.72702,50.61991],[1.72717,50.6208],[1.72798,50.62118],[1.72817,50.61947]]]}},{"type":"Feature","properties":{"k":"PTR","s":1.586},"geometry":{"type":"Polygon","coordinates":[[[1.72793,50.62185],[1.72809,50.6217],[1.72738,50.62199],[1.72538,50.6209],[1.72487,50.62128],[1.72402,50.62116],[1.72467,50.62174],[1.72638,50.62209],[1.72664,50.62227],[1.72793,50.62185]]]}},{"type":"Feature","properties":{"k":"AVP","s":0.525},"geometry":{"type":"Polygon","coordinates":[[[1.72717,50.62137],[1.7266,50.62111],[1.72619,50.62133],[1.72727,50.62192],[1.72796,50.62166],[1.7277,50.62136],[1.72717,50.62137]]]}},{"type":"Feature","properties":{"k":"ORH","s":0.54},"geometry":{"type":"Polygon","coordinates":[[[1.72797,50.62124],[1.72687,50.6208],[1.72605,50.62126],[1.72619,50.62133],[1.7266,50.62111],[1.72717,50.62137],[1.7277,50.62136],[1.72796,50.62166],[1.72727,50.62192],[1.72738,50.62199],[1.72808,50.62171],[1.72797,50.62124]]]}},{"type":"Feature","properties":{"k":"MIS","s":0.484},"geometry":{"type":"Polygon","coordinates":[[[1.72804,50.62103],[1.7282,50.62175],[1.72894,50.62114],[1.72802,50.62042],[1.72804,50.62103]]]}},{"type":"Feature","properties":{"k":"BTN","s":1.775},"geometry":{"type":"Polygon","coordinates":[[[1.72893,50.62116],[1.7282,50.62175],[1.72875,50.62256],[1.73063,50.62004],[1.72998,50.61967],[1.72893,50.62116]]]}},{"type":"Feature","properties":{"k":"BTH","s":2.344},"geometry":{"type":"Polygon","coordinates":[[[1.72664,50.62227],[1.72628,50.62255],[1.72584,50.62324],[1.72594,50.62373],[1.72761,50.6235],[1.7288,50.62377],[1.72746,50.62202],[1.72664,50.62227]]]}},{"type":"Feature","properties":{"k":"PPH","s":2.91},"geometry":{"type":"Polygon","coordinates":[[[1.73428,50.62342],[1.73409,50.62382],[1.7374,50.62501],[1.73825,50.6241],[1.73908,50.62372],[1.73897,50.62359],[1.73582,50.6237],[1.73428,50.62342]]]}},{"type":"Feature","properties":{"k":"BTA","s":0.048},"geometry":{"type":"Polygon","coordinates":[[[1.73412,50.62361],[1.73344,50.62339],[1.7334,50.62346],[1.73412,50.62361]]]}},{"type":"Feature","properties":{"k":"PPH","s":10.356},"geometry":{"type":"Polygon","coordinates":[[[1.72989,50.62394],[1.73034,50.62415],[1.73051,50.62422],[1.73101,50.62383],[1.73081,50.6237],[1.73097,50.62356],[1.73119,50.62369],[1.73193,50.62332],[1.73269,50.62405],[1.73183,50.62448],[1.73152,50.62422],[1.7307,50.62446],[1.73237,50.62575],[1.73268,50.62577],[1.73408,50.62369],[1.7334,50.62346],[1.73427,50.62176],[1.73459,50.62129],[1.73505,50.62147],[1.73538,50.62102],[1.73469,50.62065],[1.73415,50.62093],[1.73305,50.62035],[1.73233,50.62119],[1.73165,50.62114],[1.72989,50.62394]]]}},{"type":"Feature","properties":{"k":"PTR","s":1.22},"geometry":{"type":"Polygon","coordinates":[[[1.72985,50.62391],[1.73165,50.62114],[1.73107,50.62106],[1.72953,50.6236],[1.72985,50.62391]]]}},{"type":"Feature","properties":{"k":"MIS","s":1.217},"geometry":{"type":"Polygon","coordinates":[[[1.72813,50.62177],[1.72746,50.62202],[1.7288,50.62377],[1.72966,50.62389],[1.72813,50.62177]]]}},{"type":"Feature","properties":{"k":"MIS","s":3.099},"geometry":{"type":"Polygon","coordinates":[[[1.72875,50.62256],[1.72953,50.6236],[1.73163,50.62023],[1.73055,50.61987],[1.73011,50.61949],[1.72998,50.61967],[1.73063,50.62004],[1.72875,50.62256]]]}},{"type":"Feature","properties":{"k":"BTH","s":1.041},"geometry":{"type":"Polygon","coordinates":[[[1.73505,50.62147],[1.73462,50.62127],[1.73344,50.62339],[1.73412,50.62361],[1.73505,50.62147]]]}},{"type":"Feature","properties":{"k":"PTR","s":0.095},"geometry":{"type":"Polygon","coordinates":[[[1.72752,50.6245],[1.72766,50.62428],[1.72748,50.62426],[1.72716,50.62483],[1.72731,50.62499],[1.72752,50.6245]]]}},{"type":"Feature","properties":{"k":"PTR","s":0.2},"geometry":{"type":"Polygon","coordinates":[[[1.72639,50.62369],[1.72594,50.62376],[1.72595,50.62419],[1.72694,50.62396],[1.72639,50.62369]]]}},{"type":"Feature","properties":{"k":"PTR","s":1.214},"geometry":{"type":"Polygon","coordinates":[[[1.72615,50.62471],[1.72594,50.62423],[1.72384,50.62422],[1.72364,50.62411],[1.72344,50.62473],[1.72422,50.62495],[1.7242,50.62474],[1.72484,50.62475],[1.72484,50.62496],[1.72615,50.62471]]]}},{"type":"Feature","properties":{"k":"MIS","s":1.341},"geometry":{"type":"Polygon","coordinates":[[[1.72166,50.62442],[1.7232,50.62521],[1.72358,50.62413],[1.72335,50.62427],[1.72208,50.62352],[1.72139,50.62379],[1.72216,50.62417],[1.72166,50.62442]]]}},{"type":"Feature","properties":{"k":"PPH","s":0.311},"geometry":{"type":"Polygon","coordinates":[[[1.72168,50.62478],[1.72185,50.6246],[1.72164,50.62434],[1.72216,50.62417],[1.72139,50.62379],[1.72137,50.62475],[1.72168,50.62478]]]}},{"type":"Feature","properties":{"k":"PPH","s":2.784},"geometry":{"type":"Polygon","coordinates":[[[1.72312,50.62244],[1.72266,50.62249],[1.72203,50.62186],[1.72118,50.62207],[1.7209,50.62246],[1.72124,50.62261],[1.72123,50.62284],[1.72061,50.62307],[1.72106,50.62345],[1.72142,50.62371],[1.72239,50.62342],[1.72251,50.62291],[1.72284,50.62295],[1.72283,50.62333],[1.72213,50.62355],[1.72335,50.62427],[1.7236,50.62414],[1.72312,50.62244]]]}},{"type":"Feature","properties":{"k":"PPH","s":2.147},"geometry":{"type":"Polygon","coordinates":[[[1.72293,50.62181],[1.72364,50.62411],[1.72378,50.62385],[1.72334,50.62276],[1.72457,50.62169],[1.7238,50.62093],[1.72313,50.6208],[1.72192,50.62094],[1.72219,50.62137],[1.72293,50.62181]]]}},{"type":"Feature","properties":{"k":"BOR","s":0.239},"geometry":{"type":"Polygon","coordinates":[[[1.71928,50.62212],[1.71978,50.62255],[1.71973,50.62224],[1.71929,50.62187],[1.718,50.62134],[1.71928,50.62212]]]}},{"type":"Feature","properties":{"k":"MIS","s":4.965},"geometry":{"type":"Polygon","coordinates":[[[1.71905,50.62114],[1.71835,50.6201],[1.71568,50.62013],[1.71833,50.62338],[1.71978,50.62255],[1.718,50.62134],[1.71905,50.62114]]]}},{"type":"Feature","properties":{"k":"PPH","s":7.929},"geometry":{"type":"Polygon","coordinates":[[[1.7194,50.62279],[1.71965,50.62297],[1.71998,50.62278],[1.72013,50.62289],[1.71981,50.62324],[1.71997,50.62338],[1.71947,50.62364],[1.71983,50.62394],[1.71977,50.62431],[1.71939,50.62458],[1.71853,50.62446],[1.71919,50.62389],[1.71836,50.62356],[1.7183,50.62368],[1.71812,50.6236],[1.7179,50.62417],[1.7185,50.62441],[1.71696,50.6252],[1.71572,50.62551],[1.71597,50.62652],[1.71843,50.62579],[1.72045,50.6261],[1.72095,50.62525],[1.72097,50.6248],[1.72145,50.62484],[1.7213,50.62361],[1.7206,50.62308],[1.72115,50.62286],[1.72124,50.62266],[1.72079,50.62231],[1.7194,50.62279]]]}},{"type":"Feature","properties":{"k":"MIS","s":1.33},"geometry":{"type":"Polygon","coordinates":[[[1.72338,50.6247],[1.7232,50.62521],[1.72189,50.62464],[1.72155,50.62484],[1.72155,50.6252],[1.72256,50.62593],[1.72305,50.62595],[1.72337,50.62564],[1.72353,50.62498],[1.72338,50.6247]]]}},{"type":"Feature","properties":{"k":"PPH","s":6.302},"geometry":{"type":"Polygon","coordinates":[[[1.71873,50.62808],[1.72092,50.62879],[1.72187,50.62887],[1.7218,50.62688],[1.72212,50.62583],[1.72122,50.62488],[1.72099,50.62482],[1.721,50.62525],[1.72046,50.62614],[1.71971,50.62596],[1.71938,50.62739],[1.71888,50.62731],[1.71873,50.62808]]]}},{"type":"Feature","properties":{"k":"PPH","s":5.526},"geometry":{"type":"Polygon","coordinates":[[[1.71597,50.62652],[1.71557,50.62691],[1.71429,50.62714],[1.71519,50.62799],[1.71762,50.62776],[1.71878,50.62753],[1.71887,50.6273],[1.71936,50.62737],[1.71969,50.62596],[1.71841,50.6258],[1.71597,50.62652]]]}},{"type":"Feature","properties":{"k":"PPH","s":2.455},"geometry":{"type":"Polygon","coordinates":[[[1.72671,50.62987],[1.72802,50.62871],[1.72715,50.62825],[1.72575,50.629],[1.72425,50.62947],[1.72522,50.63029],[1.72597,50.6296],[1.72671,50.62987]]]}},{"type":"Feature","properties":{"k":"MIS","s":0.007},"geometry":{"type":"MultiPolygon","coordinates":[[[[1.72734,50.63145],[1.72735,50.63144],[1.72728,50.63143],[1.72734,50.63145]]],[[[1.7259,50.63231],[1.72608,50.63219],[1.72595,50.63226],[1.7259,50.63231]]],[[[1.72538,50.63283],[1.72568,50.6325],[1.72548,50.63267],[1.72538,50.63283]]]]}},{"type":"Feature","properties":{"k":"MIS","s":0.44},"geometry":{"type":"Polygon","coordinates":[[[1.72885,50.62939],[1.72838,50.62916],[1.72755,50.62983],[1.72789,50.62996],[1.72761,50.63019],[1.72789,50.63029],[1.72885,50.62939]]]}},{"type":"Feature","properties":{"k":"ORH","s":1.859},"geometry":{"type":"Polygon","coordinates":[[[1.72597,50.6296],[1.72487,50.63065],[1.72699,50.63101],[1.72789,50.63029],[1.72597,50.6296]]]}},{"type":"Feature","properties":{"k":"BTH","s":0.823},"geometry":{"type":"Polygon","coordinates":[[[1.72755,50.62983],[1.72863,50.62893],[1.72804,50.62871],[1.72674,50.62987],[1.72761,50.63019],[1.72789,50.62996],[1.72755,50.62983]]]}},{"type":"Feature","properties":{"k":"JAC","s":0.318},"geometry":{"type":"Polygon","coordinates":[[[1.72992,50.6295],[1.72965,50.62921],[1.72877,50.62952],[1.72918,50.62985],[1.72992,50.6295]]]}},{"type":"Feature","properties":{"k":"ORP","s":3.019},"geometry":{"type":"Polygon","coordinates":[[[1.73072,50.62801],[1.72899,50.62795],[1.72748,50.62749],[1.72671,50.62804],[1.72863,50.62893],[1.72838,50.62916],[1.72885,50.62939],[1.73016,50.62898],[1.73087,50.62841],[1.73072,50.62801]]]}},{"type":"Feature","properties":{"k":"PPH","s":2.44},"geometry":{"type":"Polygon","coordinates":[[[1.72575,50.62899],[1.72713,50.62826],[1.72671,50.62804],[1.72748,50.62749],[1.72688,50.62736],[1.72575,50.62816],[1.72504,50.62841],[1.72484,50.62869],[1.72429,50.62879],[1.72408,50.62849],[1.72329,50.62862],[1.72366,50.62962],[1.72575,50.62899]]]}},{"type":"Feature","properties":{"k":"PPH","s":0.721},"geometry":{"type":"Polygon","coordinates":[[[1.7247,50.62845],[1.72443,50.62804],[1.72472,50.62781],[1.72391,50.62756],[1.72329,50.62862],[1.7247,50.62845]]]}},{"type":"Feature","properties":{"k":"BTN","s":1.89},"geometry":{"type":"Polygon","coordinates":[[[1.72472,50.6266],[1.72388,50.62755],[1.72571,50.62814],[1.72677,50.6273],[1.72472,50.6266]]]}},{"type":"Feature","properties":{"k":"ORH","s":1.901},"geometry":{"type":"Polygon","coordinates":[[[1.7276,50.62594],[1.72616,50.62539],[1.72495,50.62657],[1.72644,50.6271],[1.7276,50.62594]]]}},{"type":"Feature","properties":{"k":"BTN","s":0.352},"geometry":{"type":"Polygon","coordinates":[[[1.7234,50.62578],[1.72394,50.62578],[1.72412,50.62611],[1.72451,50.62563],[1.72359,50.62527],[1.7234,50.62578]]]}},{"type":"Feature","properties":{"k":"PTR","s":0.079},"geometry":{"type":"Polygon","coordinates":[[[1.72432,50.62614],[1.72467,50.6257],[1.72451,50.62563],[1.72412,50.62611],[1.72432,50.62614]]]}},{"type":"Feature","properties":{"k":"PPH","s":0.18},"geometry":{"type":"Polygon","coordinates":[[[1.72417,50.62544],[1.72467,50.6257],[1.72496,50.62534],[1.72436,50.62517],[1.72417,50.62544]]]}},{"type":"Feature","properties":{"k":"PPH","s":0.161},"geometry":{"type":"Polygon","coordinates":[[[1.72359,50.62527],[1.72417,50.62544],[1.72436,50.62517],[1.72367,50.62497],[1.72359,50.62527]]]}},{"type":"Feature","properties":{"k":"PTR","s":0.116},"geometry":{"type":"Polygon","coordinates":[[[1.72497,50.62534],[1.72536,50.62516],[1.72498,50.62505],[1.72435,50.62517],[1.72497,50.62534]]]}},{"type":"Feature","properties":{"k":"MIS","s":0.11},"geometry":{"type":"Polygon","coordinates":[[[1.72624,50.62514],[1.72635,50.62491],[1.72695,50.62499],[1.72622,50.6248],[1.72573,50.62494],[1.72624,50.62514]]]}},{"type":"Feature","properties":{"k":"PTR","s":0.14},"geometry":{"type":"Polygon","coordinates":[[[1.72695,50.62499],[1.72725,50.62468],[1.72622,50.6248],[1.72695,50.62499]]]}},{"type":"Feature","properties":{"k":"MIS","s":1.291},"geometry":{"type":"Polygon","coordinates":[[[1.72776,50.62751],[1.72749,50.62742],[1.72772,50.62709],[1.72878,50.62618],[1.72777,50.62578],[1.72647,50.62716],[1.72776,50.62751]]]}},{"type":"Feature","properties":{"k":"MIS","s":2.851},"geometry":{"type":"Polygon","coordinates":[[[1.73016,50.62412],[1.72777,50.62578],[1.72871,50.6262],[1.73057,50.6258],[1.73124,50.62504],[1.73016,50.62412]]]}},{"type":"Feature","properties":{"k":"ORH","s":1.386},"geometry":{"type":"Polygon","coordinates":[[[1.73052,50.62577],[1.73185,50.62722],[1.73202,50.62633],[1.73246,50.62591],[1.73124,50.62505],[1.73052,50.62577]]]}},{"type":"Feature","properties":{"k":"ORP","s":0.143},"geometry":{"type":"Polygon","coordinates":[[[1.73381,50.62493],[1.73361,50.62487],[1.73305,50.62559],[1.73327,50.62563],[1.73381,50.62493]]]}},{"type":"Feature","properties":{"k":"BTH","s":4.654},"geometry":{"type":"Polygon","coordinates":[[[1.73719,50.62627],[1.7374,50.62501],[1.73409,50.62382],[1.73358,50.62485],[1.73381,50.62493],[1.73327,50.62563],[1.73719,50.62627]]]}},{"type":"Feature","properties":{"k":"BTH","s":3.147},"geometry":{"type":"Polygon","coordinates":[[[1.73712,50.62671],[1.73723,50.62622],[1.73302,50.62559],[1.73263,50.62595],[1.7335,50.62702],[1.73436,50.62642],[1.73659,50.62736],[1.73712,50.62671]]]}},{"type":"Feature","properties":{"k":"ORH","s":0.93},"geometry":{"type":"Polygon","coordinates":[[[1.7323,50.62724],[1.73271,50.62706],[1.73298,50.62738],[1.73348,50.62718],[1.73254,50.62602],[1.73208,50.6264],[1.73194,50.62749],[1.73213,50.62703],[1.7323,50.62724]]]}},{"type":"Feature","properties":{"k":"BTH","s":2.009},"geometry":{"type":"Polygon","coordinates":[[[1.73656,50.62736],[1.73498,50.6267],[1.73385,50.62747],[1.73489,50.62851],[1.73539,50.62813],[1.7356,50.62821],[1.73656,50.62736]]]}},{"type":"Feature","properties":{"k":"BOR","s":0.028},"geometry":{"type":"Polygon","coordinates":[[[1.73437,50.62798],[1.73385,50.62747],[1.73488,50.62853],[1.73437,50.62798]]]}},{"type":"Feature","properties":{"k":"ORH","s":2.193},"geometry":{"type":"Polygon","coordinates":[[[1.73489,50.62876],[1.73349,50.62718],[1.7322,50.62769],[1.7329,50.629],[1.73489,50.62876]]]}},{"type":"Feature","properties":{"k":"MIS","s":1.097},"geometry":{"type":"Polygon","coordinates":[[[1.73197,50.62911],[1.73289,50.629],[1.7322,50.6277],[1.73186,50.62743],[1.73134,50.62805],[1.73197,50.62911]]]}},{"type":"Feature","properties":{"k":"MIS","s":0.297},"geometry":{"type":"Polygon","coordinates":[[[1.73298,50.62738],[1.73271,50.62706],[1.7323,50.62724],[1.73213,50.62703],[1.73194,50.62749],[1.73219,50.62769],[1.73298,50.62738]]]}},{"type":"Feature","properties":{"k":"BTH","s":3.403},"geometry":{"type":"Polygon","coordinates":[[[1.72877,50.62619],[1.73004,50.62685],[1.72912,50.62743],[1.72897,50.62775],[1.72933,50.62796],[1.73112,50.62788],[1.7318,50.62739],[1.73137,50.62655],[1.73059,50.62582],[1.72877,50.62619]]]}},{"type":"Feature","properties":{"k":"MIS","s":0.132},"geometry":{"type":"Polygon","coordinates":[[[1.73136,50.62791],[1.73136,50.62786],[1.73072,50.62801],[1.73087,50.62841],[1.73136,50.62791]]]}},{"type":"Feature","properties":{"k":"AVP","s":2.312},"geometry":{"type":"Polygon","coordinates":[[[1.73033,50.62898],[1.72965,50.62921],[1.72992,50.6295],[1.72918,50.62985],[1.72868,50.62958],[1.72768,50.63053],[1.72803,50.6308],[1.7294,50.63005],[1.73199,50.62915],[1.7313,50.6281],[1.73033,50.62898]]]}},{"type":"Feature","properties":{"k":"BTH","s":4.314},"geometry":{"type":"Polygon","coordinates":[[[1.73076,50.63032],[1.73237,50.6298],[1.73293,50.63063],[1.73438,50.63089],[1.73328,50.62897],[1.73197,50.62911],[1.7294,50.63005],[1.72803,50.6308],[1.72872,50.63129],[1.73076,50.63032]]]}},{"type":"Feature","properties":{"k":"BTH","s":2.294},"geometry":{"type":"MultiPolygon","coordinates":[[[[1.73377,50.63071],[1.73356,50.63074],[1.73448,50.63097],[1.73377,50.63071]]],[[[1.73265,50.63066],[1.73294,50.63066],[1.73237,50.6298],[1.73073,50.63035],[1.72871,50.63131],[1.72964,50.63185],[1.73015,50.63139],[1.73131,50.63082],[1.7321,50.63066],[1.73337,50.63072],[1.73265,50.63066]]]]}},{"type":"Feature","properties":{"k":"BTA","s":0.002},"geometry":{"type":"Polygon","coordinates":[[[1.73561,50.63133],[1.73569,50.63131],[1.73557,50.63128],[1.73561,50.63133]]]}},{"type":"Feature","properties":{"k":"PPH","s":0.012},"geometry":{"type":"Polygon","coordinates":[[[1.73485,50.63111],[1.73449,50.63094],[1.73506,50.63123],[1.73485,50.63111]]]}},{"type":"Feature","properties":{"k":"MIS","s":3.258},"geometry":{"type":"Polygon","coordinates":[[[1.73592,50.63119],[1.73613,50.63023],[1.73576,50.63],[1.73489,50.62876],[1.73328,50.62897],[1.73438,50.63089],[1.73509,50.63122],[1.73592,50.63119]]]}},{"type":"Feature","properties":{"k":"PPH","s":1.02},"geometry":{"type":"Polygon","coordinates":[[[1.73654,50.6302],[1.73703,50.62926],[1.73808,50.62849],[1.73761,50.62827],[1.73622,50.62921],[1.73631,50.63015],[1.73654,50.6302]]]}},{"type":"Feature","properties":{"k":"BTA","s":0.081},"geometry":{"type":"Polygon","coordinates":[[[1.7359,50.63125],[1.73611,50.63085],[1.73622,50.63044],[1.73613,50.63023],[1.73575,50.63129],[1.7359,50.63125]]]}},{"type":"Feature","properties":{"k":"PPH","s":0.141},"geometry":{"type":"MultiPolygon","coordinates":[[[[1.74073,50.62744],[1.74063,50.62751],[1.74101,50.62743],[1.74073,50.62744]]],[[[1.73958,50.62761],[1.73938,50.6278],[1.74046,50.62755],[1.73958,50.62761]]],[[[1.73828,50.62821],[1.73822,50.62832],[1.73925,50.62786],[1.73828,50.62821]]]]}}]}