{"type":"FeatureCollection","features":[{"type":"Feature","properties":{"k":"PPH","s":4.152},"geometry":{"type":"Polygon","coordinates":[[[3.00423,50.28403],[3.00359,50.28406],[3.00332,50.28502],[3.0026,50.28495],[3.00229,50.28643],[3.00331,50.28689],[3.00307,50.28787],[3.0042,50.28773],[3.0041,50.28709],[3.00373,50.28702],[3.00484,50.28491],[3.00423,50.28403]]]}},{"type":"Feature","properties":{"k":"BTH","s":1.293},"geometry":{"type":"Polygon","coordinates":[[[3.02238,50.29389],[3.02156,50.29488],[3.02305,50.29536],[3.02347,50.29454],[3.02238,50.29389]]]}},{"type":"Feature","properties":{"k":"PPH","s":1.061},"geometry":{"type":"Polygon","coordinates":[[[3.00484,50.28619],[3.00527,50.28468],[3.00485,50.28491],[3.00376,50.28705],[3.00465,50.28701],[3.00484,50.28619]]]}},{"type":"Feature","properties":{"k":"PPH","s":0.803},"geometry":{"type":"Polygon","coordinates":[[[3.00166,50.28437],[3.0027,50.28452],[3.0026,50.28495],[3.00333,50.28503],[3.00358,50.28406],[3.00174,50.28417],[3.00166,50.28437]]]}},{"type":"Feature","properties":{"k":"PPH","s":3.962},"geometry":{"type":"Polygon","coordinates":[[[3.01235,50.28522],[3.01285,50.28356],[3.01219,50.28372],[3.0115,50.28418],[3.00935,50.28412],[3.00888,50.2858],[3.01235,50.28522]]]}},{"type":"Feature","properties":{"k":"MIS","s":0.879},"geometry":{"type":"Polygon","coordinates":[[[3.01084,50.28556],[3.0111,50.28628],[3.01239,50.28606],[3.01234,50.28525],[3.01084,50.28556]]]}},{"type":"Feature","properties":{"k":"MIS","s":0.478},"geometry":{"type":"Polygon","coordinates":[[[3.0103,50.28638],[3.01109,50.28629],[3.01083,50.28556],[3.01001,50.2857],[3.0103,50.28638]]]}},{"type":"Feature","properties":{"k":"BTH","s":1.855},"geometry":{"type":"Polygon","coordinates":[[[3.00782,50.28667],[3.00959,50.28656],[3.00931,50.28576],[3.00744,50.28604],[3.00619,50.28643],[3.00641,50.28704],[3.00782,50.28667]]]}},{"type":"Feature","properties":{"k":"PPH","s":1.199},"geometry":{"type":"Polygon","coordinates":[[[3.00883,50.28579],[3.00928,50.28413],[3.00823,50.28443],[3.00791,50.2859],[3.00883,50.28579]]]}},{"type":"Feature","properties":{"k":"PPH","s":0.811},"geometry":{"type":"Polygon","coordinates":[[[3.00739,50.28466],[3.00705,50.28607],[3.0079,50.2859],[3.00815,50.28475],[3.00739,50.28466]]]}},{"type":"Feature","properties":{"k":"PPH","s":1.618},"geometry":{"type":"Polygon","coordinates":[[[3.00566,50.28454],[3.00651,50.28444],[3.00617,50.28636],[3.00704,50.28608],[3.00739,50.28466],[3.00687,50.28468],[3.00686,50.28406],[3.00567,50.28397],[3.00546,50.28429],[3.00566,50.28454]]]}},{"type":"Feature","properties":{"k":"JAC","s":0.407},"geometry":{"type":"Polygon","coordinates":[[[3.00641,50.28704],[3.00619,50.28643],[3.00541,50.2868],[3.0057,50.28734],[3.00641,50.28704]]]}},{"type":"Feature","properties":{"k":"BTH","s":0.001},"geometry":{"type":"MultiPolygon","coordinates":[]}},{"type":"Feature","properties":{"k":"MIS","s":0.241},"geometry":{"type":"Polygon","coordinates":[[[3.00494,50.28696],[3.0053,50.28757],[3.0057,50.28733],[3.00541,50.28682],[3.00494,50.28696]]]}},{"type":"Feature","properties":{"k":"JAC","s":0.168},"geometry":{"type":"Polygon","coordinates":[[[3.00492,50.28767],[3.00523,50.28761],[3.00494,50.28696],[3.00474,50.28702],[3.00492,50.28767]]]}},{"type":"Feature","properties":{"k":"PPH","s":0.315},"geometry":{"type":"Polygon","coordinates":[[[3.00418,50.28711],[3.00427,50.28772],[3.00492,50.28767],[3.00465,50.28704],[3.00418,50.28711]]]}},{"type":"Feature","properties":{"k":"BTH","s":1.034},"geometry":{"type":"Polygon","coordinates":[[[3.00307,50.28787],[3.00331,50.28689],[3.00227,50.28643],[3.00197,50.28761],[3.00307,50.28787]]]}},{"type":"Feature","properties":{"k":"PPH","s":0.015},"geometry":{"type":"Polygon","coordinates":[[[3.0022,50.2865],[3.00194,50.28749],[3.00206,50.28708],[3.0022,50.2865]]]}},{"type":"Feature","properties":{"k":"JAC","s":0.013},"geometry":{"type":"MultiPolygon","coordinates":[[[[3.04262,50.28297],[3.04246,50.28298],[3.04246,50.28306],[3.04262,50.28297]]],[[[3.04353,50.28268],[3.04338,50.28253],[3.04342,50.28269],[3.04353,50.28268]]]]}},{"type":"Feature","properties":{"k":"MIS","s":0.363},"geometry":{"type":"Polygon","coordinates":[[[3.04184,50.28833],[3.04227,50.28907],[3.04294,50.28889],[3.0423,50.28819],[3.04184,50.28833]]]}},{"type":"Feature","properties":{"k":"BTH","s":1.539},"geometry":{"type":"Polygon","coordinates":[[[3.0441,50.28781],[3.04482,50.28893],[3.04628,50.28845],[3.0457,50.28737],[3.0441,50.28781]]]}},{"type":"Feature","properties":{"k":"JAC","s":0.046},"geometry":{"type":"Polygon","coordinates":[[[3.0446,50.29083],[3.04639,50.29012],[3.04563,50.29038],[3.0446,50.29083]]]}},{"type":"Feature","properties":{"k":"PPH","s":2.023},"geometry":{"type":"Polygon","coordinates":[[[3.04904,50.2887],[3.04884,50.28812],[3.04739,50.28831],[3.04722,50.28812],[3.04492,50.28894],[3.04538,50.28937],[3.04558,50.28932],[3.04596,50.2898],[3.0465,50.28954],[3.04617,50.28912],[3.0477,50.2886],[3.04803,50.28897],[3.04904,50.2887]]]}},{"type":"Feature","properties":{"k":"BTH","s":2.825},"geometry":{"type":"Polygon","coordinates":[[[3.04744,50.28661],[3.05024,50.28583],[3.04955,50.28489],[3.04669,50.28548],[3.04744,50.28661]]]}},{"type":"Feature","properties":{"k":"PHF","s":5.322},"geometry":{"type":"Polygon","coordinates":[[[3.04473,50.28761],[3.04749,50.2866],[3.04669,50.28548],[3.04955,50.28489],[3.04914,50.28452],[3.0469,50.28484],[3.04448,50.2857],[3.04484,50.28617],[3.04356,50.28676],[3.04473,50.28761]]]}},{"type":"Feature","properties":{"k":"JAC","s":0.139},"geometry":{"type":"Polygon","coordinates":[[[3.0469,50.28484],[3.04706,50.28488],[3.0469,50.2848],[3.04648,50.28492],[3.04418,50.28574],[3.04407,50.28586],[3.0469,50.28484]]]}},{"type":"Feature","properties":{"k":"MIS","s":0.518},"geometry":{"type":"Polygon","coordinates":[[[3.05176,50.28484],[3.05026,50.28543],[3.05035,50.28577],[3.052,50.28521],[3.05176,50.28484]]]}},{"type":"Feature","properties":{"k":"MIS","s":0.015},"geometry":{"type":"Polygon","coordinates":[[[3.05578,50.28918],[3.05549,50.28918],[3.05558,50.28931],[3.05578,50.28918]]]}},{"type":"Feature","properties":{"k":"PTC","s":0.035},"geometry":{"type":"Polygon","coordinates":[[[3.05549,50.28918],[3.05525,50.28919],[3.05543,50.28942],[3.05549,50.28918]]]}},{"type":"Feature","properties":{"k":"PPH","s":2.193},"geometry":{"type":"Polygon","coordinates":[[[3.00616,50.2864],[3.00649,50.28446],[3.0053,50.28462],[3.00466,50.28697],[3.00616,50.2864]]]}},{"type":"Feature","properties":{"k":"BTH","s":4.078},"geometry":{"type":"Polygon","coordinates":[[[3.05132,50.29123],[3.05053,50.29162],[3.05112,50.29204],[3.05316,50.29109],[3.05449,50.29014],[3.05351,50.28924],[3.0511,50.29026],[3.05132,50.29123]]]}},{"type":"Feature","properties":{"k":"BTN","s":0.01},"geometry":{"type":"Polygon","coordinates":[[[3.04821,50.29343],[3.04783,50.29363],[3.04875,50.2932],[3.04821,50.29343]]]}},{"type":"Feature","properties":{"k":"BTH","s":4.556},"geometry":{"type":"Polygon","coordinates":[[[3.04756,50.29366],[3.05031,50.2924],[3.04952,50.29167],[3.04892,50.29191],[3.04774,50.29129],[3.04568,50.29218],[3.04756,50.29366]]]}},{"type":"Feature","properties":{"k":"CZH","s":1.781},"geometry":{"type":"Polygon","coordinates":[[[3.04638,50.29126],[3.04587,50.29149],[3.0461,50.29168],[3.04743,50.29107],[3.0472,50.29086],[3.04736,50.29078],[3.04639,50.29012],[3.04453,50.29083],[3.0449,50.29109],[3.04453,50.29126],[3.0448,50.29147],[3.04604,50.29098],[3.04638,50.29126]]]}},{"type":"Feature","properties":{"k":"JAC","s":0.011},"geometry":{"type":"Polygon","coordinates":[]}},{"type":"Feature","properties":{"k":"JAC","s":0.033},"geometry":{"type":"Polygon","coordinates":[[[3.04525,50.29181],[3.04592,50.29153],[3.04587,50.29149],[3.04525,50.29181]]]}},{"type":"Feature","properties":{"k":"JAC","s":0.01},"geometry":{"type":"Polygon","coordinates":[[[3.04486,50.29108],[3.0445,50.29124],[3.04488,50.29111],[3.04486,50.29108]]]}},{"type":"Feature","properties":{"k":"BTH","s":3.295},"geometry":{"type":"Polygon","coordinates":[[[3.04581,50.29249],[3.04316,50.29481],[3.04483,50.29512],[3.04687,50.29332],[3.04581,50.29249]]]}},{"type":"Feature","properties":{"k":"BTN","s":1.964},"geometry":{"type":"Polygon","coordinates":[[[3.04656,50.29545],[3.04691,50.29453],[3.04746,50.2938],[3.04686,50.29333],[3.04483,50.29512],[3.04656,50.29545]]]}},{"type":"Feature","properties":{"k":"PTC","s":5.328},"geometry":{"type":"Polygon","coordinates":[[[3.04069,50.2943],[3.04075,50.29435],[3.04316,50.29481],[3.04581,50.29249],[3.04533,50.29209],[3.04476,50.29236],[3.04417,50.2919],[3.04069,50.2943]]]}},{"type":"Feature","properties":{"k":"MIS","s":0.535},"geometry":{"type":"Polygon","coordinates":[[[3.04255,50.29219],[3.04282,50.29276],[3.04417,50.2919],[3.04389,50.2917],[3.04255,50.29219]]]}},{"type":"Feature","properties":{"k":"BTH","s":2.25},"geometry":{"type":"Polygon","coordinates":[[[3.0253,50.29475],[3.02625,50.29238],[3.02455,50.29305],[3.02388,50.29453],[3.0253,50.29475]]]}},{"type":"Feature","properties":{"k":"PHF","s":6.917},"geometry":{"type":"Polygon","coordinates":[[[3.02784,50.29527],[3.02867,50.29343],[3.02887,50.29347],[3.02956,50.29205],[3.02774,50.29198],[3.02625,50.29238],[3.0253,50.29475],[3.02784,50.29527]]]}},{"type":"Feature","properties":{"k":"PHF","s":7.243},"geometry":{"type":"Polygon","coordinates":[[[3.02306,50.29536],[3.02517,50.29601],[3.02422,50.29728],[3.02515,50.2978],[3.0263,50.2981],[3.0282,50.29543],[3.02359,50.29458],[3.02306,50.29536]]]}},{"type":"Feature","properties":{"k":"MIS","s":5.344},"geometry":{"type":"Polygon","coordinates":[[[3.0285,50.29868],[3.03013,50.29595],[3.0282,50.29543],[3.02634,50.29805],[3.0285,50.29868]]]}},{"type":"Feature","properties":{"k":"BTH","s":0.006},"geometry":{"type":"Polygon","coordinates":[[[3.02155,50.30093],[3.02143,50.30092],[3.02187,50.30109],[3.02155,50.30093]]]}},{"type":"Feature","properties":{"k":"MIS","s":0.065},"geometry":{"type":"MultiPolygon","coordinates":[[[[3.01841,50.29875],[3.01829,50.29872],[3.01951,50.29953],[3.01841,50.29875]]],[[[3.0176,50.29847],[3.01719,50.29839],[3.01829,50.29872],[3.0176,50.29847]]]]}},{"type":"Feature","properties":{"k":"PTC","s":9.193},"geometry":{"type":"Polygon","coordinates":[[[3.02201,50.29862],[3.02294,50.29928],[3.02328,50.29925],[3.02385,50.2996],[3.02362,50.30023],[3.02307,50.3009],[3.02343,50.30111],[3.02388,50.30057],[3.02483,50.30051],[3.02534,50.30072],[3.02695,50.29834],[3.02502,50.29782],[3.02289,50.29661],[3.0212,50.29863],[3.02201,50.29862]]]}},{"type":"Feature","properties":{"k":"PTC","s":3.299},"geometry":{"type":"Polygon","coordinates":[[[3.02534,50.30072],[3.02558,50.30082],[3.02732,50.30071],[3.02846,50.29879],[3.02695,50.29834],[3.02534,50.30072]]]}},{"type":"Feature","properties":{"k":"MIS","s":0.007},"geometry":{"type":"Polygon","coordinates":[[[3.02833,50.30066],[3.02777,50.3007],[3.02831,50.3007],[3.02833,50.30066]]]}},{"type":"Feature","properties":{"k":"JAC","s":0.001},"geometry":{"type":"Polygon","coordinates":[[[3.02948,50.30176],[3.02957,50.30176],[3.02953,50.30174],[3.02948,50.30176]]]}},{"type":"Feature","properties":{"k":"BTH","s":0.004},"geometry":{"type":"Polygon","coordinates":[]}},{"type":"Feature","properties":{"k":"PHF","s":3.97},"geometry":{"type":"Polygon","coordinates":[[[3.0183,50.29666],[3.02062,50.2971],[3.0217,50.29585],[3.02093,50.29541],[3.01844,50.29491],[3.0183,50.29666]]]}},{"type":"Feature","properties":{"k":"BTN","s":1.768},"geometry":{"type":"Polygon","coordinates":[[[3.02016,50.29763],[3.02064,50.29841],[3.02244,50.29631],[3.02171,50.29584],[3.02016,50.29763]]]}},{"type":"Feature","properties":{"k":"JAC","s":0.003},"geometry":{"type":"Polygon","coordinates":[[[3.01609,50.29728],[3.01597,50.29738],[3.01604,50.29738],[3.01609,50.29728]]]}},{"type":"Feature","properties":{"k":"BTN","s":0.003},"geometry":{"type":"MultiPolygon","coordinates":[[[[3.01842,50.29491],[3.01841,50.29508],[3.01844,50.29491],[3.01842,50.29491]]],[[[3.01745,50.29575],[3.01745,50.29577],[3.01758,50.29577],[3.01745,50.29575]]]]}},{"type":"Feature","properties":{"k":"BTN","s":1.504},"geometry":{"type":"Polygon","coordinates":[[[3.02422,50.29728],[3.02517,50.29601],[3.02384,50.29561],[3.02306,50.29662],[3.02422,50.29728]]]}},{"type":"Feature","properties":{"k":"BTN","s":0.701},"geometry":{"type":"Polygon","coordinates":[[[3.02306,50.29537],[3.02243,50.29623],[3.02306,50.29662],[3.02384,50.29561],[3.02306,50.29537]]]}},{"type":"Feature","properties":{"k":"MIS","s":1.04},"geometry":{"type":"Polygon","coordinates":[[[3.02113,50.2954],[3.02241,50.29623],[3.02306,50.29536],[3.02151,50.29498],[3.02113,50.2954]]]}},{"type":"Feature","properties":{"k":"MIS","s":1.69},"geometry":{"type":"Polygon","coordinates":[[[3.02092,50.29536],[3.02149,50.2948],[3.01869,50.29405],[3.01845,50.29487],[3.02092,50.29536]]]}},{"type":"Feature","properties":{"k":"PPH","s":1.743},"geometry":{"type":"Polygon","coordinates":[[[3.02511,50.30248],[3.02734,50.3037],[3.0276,50.30334],[3.02834,50.30297],[3.02806,50.30242],[3.02738,50.30206],[3.02648,50.30264],[3.02511,50.30248]]]}},{"type":"Feature","properties":{"k":"MIS","s":2.523},"geometry":{"type":"Polygon","coordinates":[[[3.01735,50.29704],[3.01622,50.29716],[3.01728,50.29714],[3.01727,50.29726],[3.01896,50.29767],[3.0197,50.29756],[3.02016,50.29763],[3.02062,50.2971],[3.0183,50.29666],[3.01835,50.29588],[3.01745,50.29577],[3.01735,50.29704]]]}},{"type":"Feature","properties":{"k":"LIF","s":0.038},"geometry":{"type":"MultiPolygon","coordinates":[[[[3.03176,50.29657],[3.03168,50.29653],[3.03161,50.29651],[3.03176,50.29657]]],[[[3.02942,50.30071],[3.02977,50.30068],[3.02993,50.30064],[3.02831,50.3007],[3.02942,50.30071]]]]}},{"type":"Feature","properties":{"k":"ORH","s":0.028},"geometry":{"type":"Polygon","coordinates":[[[3.01567,50.2983],[3.01719,50.29843],[3.01719,50.29839],[3.01567,50.2983]]]}},{"type":"Feature","properties":{"k":"BTN","s":1.177},"geometry":{"type":"Polygon","coordinates":[[[3.02064,50.2984],[3.0209,50.29864],[3.0211,50.29866],[3.02289,50.29661],[3.02243,50.29632],[3.02064,50.2984]]]}},{"type":"Feature","properties":{"k":"MIS","s":0.934},"geometry":{"type":"Polygon","coordinates":[[[3.0407,50.29188],[3.03997,50.29228],[3.04035,50.29345],[3.04131,50.29281],[3.0407,50.29188]]]}},{"type":"Feature","properties":{"k":"BTN","s":5.781},"geometry":{"type":"Polygon","coordinates":[[[3.03647,50.29173],[3.0368,50.29347],[3.03836,50.2937],[3.04055,50.29427],[3.03977,50.29209],[3.03872,50.29222],[3.03863,50.29119],[3.03744,50.29126],[3.0374,50.29169],[3.03647,50.29173]]]}},{"type":"Feature","properties":{"k":"PTC","s":6.995},"geometry":{"type":"Polygon","coordinates":[[[3.03038,50.29591],[3.03205,50.29667],[3.03427,50.29886],[3.03493,50.29799],[3.03557,50.29627],[3.03079,50.29496],[3.03038,50.29591]]]}},{"type":"Feature","properties":{"k":"BTH","s":0.001},"geometry":{"type":"Polygon","coordinates":[[[3.03126,50.29635],[3.03161,50.29651],[3.03161,50.2965],[3.03126,50.29635]]]}},{"type":"Feature","properties":{"k":"BTH","s":1.829},"geometry":{"type":"Polygon","coordinates":[[[3.0318,50.29523],[3.03557,50.29627],[3.03572,50.29583],[3.03098,50.29451],[3.03078,50.29495],[3.0318,50.29523]]]}},{"type":"Feature","properties":{"k":"BTN","s":1.805},"geometry":{"type":"Polygon","coordinates":[[[3.03423,50.29542],[3.03572,50.29583],[3.03564,50.29531],[3.0312,50.29409],[3.03099,50.29451],[3.03423,50.29542]]]}},{"type":"Feature","properties":{"k":"BTH","s":1.697},"geometry":{"type":"Polygon","coordinates":[[[3.03156,50.29373],[3.03604,50.29499],[3.03643,50.29484],[3.0363,50.29459],[3.03199,50.29338],[3.03156,50.29373]]]}},{"type":"Feature","properties":{"k":"BTH","s":1.746},"geometry":{"type":"Polygon","coordinates":[[[3.032,50.29338],[3.0363,50.29459],[3.03613,50.29428],[3.03626,50.29401],[3.03235,50.29293],[3.032,50.29338]]]}},{"type":"Feature","properties":{"k":"MIS","s":1.393},"geometry":{"type":"Polygon","coordinates":[[[3.03626,50.29401],[3.03646,50.29359],[3.03472,50.29309],[3.03329,50.29273],[3.03317,50.29288],[3.03246,50.2927],[3.03235,50.29293],[3.03626,50.29401]]]}},{"type":"Feature","properties":{"k":"MIS","s":0.475},"geometry":{"type":"Polygon","coordinates":[[[3.03573,50.29115],[3.03569,50.29101],[3.03521,50.29118],[3.03534,50.29218],[3.03594,50.29214],[3.03573,50.29115]]]}},{"type":"Feature","properties":{"k":"JAC","s":0.392},"geometry":{"type":"Polygon","coordinates":[[[3.03453,50.29148],[3.03377,50.29176],[3.03379,50.29216],[3.03358,50.29224],[3.03462,50.29223],[3.03453,50.29148]]]}},{"type":"Feature","properties":{"k":"BTH","s":0.594},"geometry":{"type":"Polygon","coordinates":[[[3.03358,50.29224],[3.03365,50.2928],[3.03472,50.29309],[3.03462,50.29223],[3.03358,50.29224]]]}},{"type":"Feature","properties":{"k":"JAC","s":0.019},"geometry":{"type":"Polygon","coordinates":[[[3.03358,50.2924],[3.03358,50.29223],[3.03354,50.29241],[3.03364,50.29276],[3.03358,50.2924]]]}},{"type":"Feature","properties":{"k":"JAC","s":0.036},"geometry":{"type":"MultiPolygon","coordinates":[[[[3.03317,50.29288],[3.03329,50.29273],[3.03363,50.2928],[3.03353,50.29225],[3.03359,50.29278],[3.03327,50.29269],[3.03317,50.29285],[3.0325,50.2927],[3.03317,50.29288]]],[[[3.03453,50.29148],[3.03453,50.29147],[3.03377,50.29176],[3.03453,50.29148]]],[[[3.03454,50.29179],[3.03466,50.29256],[3.03453,50.29148],[3.03454,50.29179]]]]}},{"type":"Feature","properties":{"k":"JAC","s":0.167},"geometry":{"type":"Polygon","coordinates":[[[3.03145,50.29168],[3.03018,50.29158],[3.03027,50.29198],[3.03024,50.29163],[3.03153,50.29174],[3.03152,50.29052],[3.03238,50.29051],[3.03145,50.29047],[3.03145,50.29168]]]}},{"type":"Feature","properties":{"k":"BTN","s":1.559},"geometry":{"type":"Polygon","coordinates":[[[3.0312,50.29409],[3.03567,50.29532],[3.03564,50.29513],[3.03604,50.29499],[3.03158,50.29374],[3.0312,50.29409]]]}},{"type":"Feature","properties":{"k":"BTH","s":5.21},"geometry":{"type":"Polygon","coordinates":[[[3.0302,50.29587],[3.0311,50.29403],[3.03224,50.29289],[3.03228,50.29279],[3.03183,50.29273],[3.0321,50.29217],[3.03125,50.29217],[3.03051,50.29392],[3.0287,50.29346],[3.028,50.29532],[3.0302,50.29587]]]}},{"type":"Feature","properties":{"k":"MIS","s":2.282},"geometry":{"type":"Polygon","coordinates":[[[3.02887,50.2935],[3.03051,50.29392],[3.03125,50.29217],[3.02958,50.29204],[3.02887,50.2935]]]}},{"type":"Feature","properties":{"k":"MIS","s":0.523},"geometry":{"type":"Polygon","coordinates":[[[3.02754,50.29185],[3.0271,50.29065],[3.02674,50.29069],[3.02688,50.29181],[3.02754,50.29185]]]}},{"type":"Feature","properties":{"k":"PPH","s":0.745},"geometry":{"type":"Polygon","coordinates":[[[3.02589,50.29173],[3.02688,50.29181],[3.02672,50.29067],[3.02603,50.29069],[3.02589,50.29173]]]}},{"type":"Feature","properties":{"k":"BTN","s":1.725},"geometry":{"type":"Polygon","coordinates":[[[3.02466,50.29009],[3.02398,50.29112],[3.02463,50.29168],[3.02589,50.29173],[3.02598,50.29072],[3.02466,50.29009]]]}},{"type":"Feature","properties":{"k":"BTN","s":1.437},"geometry":{"type":"Polygon","coordinates":[[[3.02651,50.29219],[3.02739,50.29194],[3.02448,50.29179],[3.02432,50.29307],[3.02651,50.29219]]]}},{"type":"Feature","properties":{"k":"FVL","s":2.778},"geometry":{"type":"Polygon","coordinates":[[[3.02147,50.2948],[3.02229,50.29382],[3.01905,50.29297],[3.01869,50.29405],[3.02147,50.2948]]]}},{"type":"Feature","properties":{"k":"BTH","s":1.565},"geometry":{"type":"Polygon","coordinates":[[[3.02963,50.29012],[3.03119,50.288],[3.03048,50.28779],[3.02856,50.29037],[3.02963,50.29012]]]}},{"type":"Feature","properties":{"k":"MIS","s":0.977},"geometry":{"type":"Polygon","coordinates":[[[3.02247,50.29384],[3.02388,50.29453],[3.02455,50.29305],[3.02247,50.29384]]]}},{"type":"Feature","properties":{"k":"BTN","s":1.698},"geometry":{"type":"Polygon","coordinates":[[[3.02309,50.29165],[3.02297,50.29283],[3.02334,50.29294],[3.02282,50.29369],[3.02432,50.29307],[3.02448,50.29179],[3.02309,50.29165]]]}},{"type":"Feature","properties":{"k":"MIS","s":1.458},"geometry":{"type":"MultiPolygon","coordinates":[[[[3.02282,50.29369],[3.02288,50.29339],[3.02153,50.29309],[3.02133,50.29354],[3.02237,50.2938],[3.02282,50.29369]]],[[[3.02309,50.29165],[3.02224,50.29154],[3.0218,50.2925],[3.02297,50.29279],[3.02309,50.29165]]]]}},{"type":"Feature","properties":{"k":"PTC","s":2.778},"geometry":{"type":"Polygon","coordinates":[[[3.02394,50.28933],[3.0221,50.28833],[3.02162,50.28908],[3.02252,50.28954],[3.02277,50.29028],[3.02398,50.29112],[3.02466,50.29009],[3.02394,50.28933]]]}},{"type":"Feature","properties":{"k":"PTC","s":6.697},"geometry":{"type":"Polygon","coordinates":[[[3.02282,50.28564],[3.02117,50.28525],[3.0204,50.28763],[3.02052,50.28836],[3.02094,50.28868],[3.02149,50.28788],[3.02278,50.28869],[3.0242,50.28575],[3.02282,50.28564]]]}},{"type":"Feature","properties":{"k":"MIS","s":0.008},"geometry":{"type":"Polygon","coordinates":[[[3.01759,50.28676],[3.01758,50.2868],[3.01784,50.28671],[3.01759,50.28676]]]}},{"type":"Feature","properties":{"k":"BTH","s":0.04},"geometry":{"type":"Polygon","coordinates":[[[3.01671,50.28683],[3.01669,50.28691],[3.01758,50.2868],[3.01671,50.28683]]]}},{"type":"Feature","properties":{"k":"BTH","s":1.55},"geometry":{"type":"Polygon","coordinates":[[[3.01592,50.28688],[3.01828,50.28663],[3.01857,50.28563],[3.01705,50.28605],[3.01612,50.28613],[3.01592,50.28688]]]}},{"type":"Feature","properties":{"k":"MIS","s":0.191},"geometry":{"type":"Polygon","coordinates":[[[3.01591,50.28689],[3.01612,50.28612],[3.0159,50.28613],[3.01567,50.28695],[3.01671,50.28683],[3.01591,50.28689]]]}},{"type":"Feature","properties":{"k":"OIG","s":1.276},"geometry":{"type":"Polygon","coordinates":[[[3.01328,50.28642],[3.01417,50.28682],[3.01567,50.28695],[3.0159,50.28613],[3.01293,50.28614],[3.01285,50.28643],[3.01328,50.28642]]]}},{"type":"Feature","properties":{"k":"BTN","s":0.119},"geometry":{"type":"Polygon","coordinates":[[[3.01238,50.28613],[3.01243,50.28644],[3.01285,50.28643],[3.01293,50.28614],[3.01238,50.28613]]]}},{"type":"Feature","properties":{"k":"MIS","s":1.499},"geometry":{"type":"Polygon","coordinates":[[[3.01416,50.28617],[3.01415,50.28498],[3.0132,50.28501],[3.01243,50.28522],[3.01243,50.28609],[3.01416,50.28617]]]}},{"type":"Feature","properties":{"k":"MIS","s":0.668},"geometry":{"type":"Polygon","coordinates":[[[3.01485,50.28616],[3.0151,50.28531],[3.0147,50.28537],[3.01468,50.285],[3.01417,50.285],[3.01417,50.28617],[3.01485,50.28616]]]}},{"type":"Feature","properties":{"k":"BTH","s":2.323},"geometry":{"type":"Polygon","coordinates":[[[3.02085,50.28596],[3.01861,50.2856],[3.01829,50.28663],[3.01926,50.28663],[3.01904,50.28722],[3.02033,50.28752],[3.02085,50.28596]]]}},{"type":"Feature","properties":{"k":"BTA","s":0.115},"geometry":{"type":"Polygon","coordinates":[[[3.02329,50.28572],[3.02428,50.28574],[3.02331,50.28567],[3.02124,50.28526],[3.02329,50.28572]]]}},{"type":"Feature","properties":{"k":"BTA","s":0.081},"geometry":{"type":"Polygon","coordinates":[[[3.0248,50.28577],[3.02425,50.28579],[3.02524,50.28591],[3.02669,50.28648],[3.02557,50.286],[3.0248,50.28577]]]}},{"type":"Feature","properties":{"k":"MIS","s":5.413},"geometry":{"type":"Polygon","coordinates":[[[3.02487,50.28582],[3.02425,50.28579],[3.02278,50.28869],[3.02409,50.28948],[3.02471,50.28846],[3.02669,50.28648],[3.02487,50.28582]]]}},{"type":"Feature","properties":{"k":"JAC","s":0.474},"geometry":{"type":"Polygon","coordinates":[[[3.02546,50.2886],[3.02584,50.28873],[3.02639,50.28824],[3.02535,50.28792],[3.0251,50.2882],[3.02546,50.2886]]]}},{"type":"Feature","properties":{"k":"MIS","s":0.91},"geometry":{"type":"Polygon","coordinates":[[[3.02602,50.28949],[3.02567,50.28912],[3.02491,50.28888],[3.02447,50.28893],[3.02415,50.28936],[3.02436,50.2897],[3.02474,50.28983],[3.02602,50.28949]]]}},{"type":"Feature","properties":{"k":"PPH","s":0.027},"geometry":{"type":"Polygon","coordinates":[[[3.02455,50.2899],[3.02473,50.28983],[3.02436,50.2897],[3.02455,50.2899]]]}},{"type":"Feature","properties":{"k":"JAC","s":0.521},"geometry":{"type":"Polygon","coordinates":[[[3.02652,50.2898],[3.026,50.28969],[3.02546,50.2904],[3.02631,50.29058],[3.02652,50.2898]]]}},{"type":"Feature","properties":{"k":"JAC","s":0.12},"geometry":{"type":"Polygon","coordinates":[[[3.03187,50.28844],[3.03213,50.28849],[3.03215,50.28809],[3.03121,50.28795],[3.03199,50.28817],[3.03187,50.28844]]]}},{"type":"Feature","properties":{"k":"PPH","s":0.485},"geometry":{"type":"Polygon","coordinates":[[[3.03529,50.2881],[3.03502,50.28814],[3.03605,50.28912],[3.03651,50.28898],[3.03636,50.28873],[3.03529,50.2881]]]}},{"type":"Feature","properties":{"k":"BTN","s":6.693},"geometry":{"type":"Polygon","coordinates":[[[3.03078,50.2902],[3.03199,50.28817],[3.03117,50.28803],[3.02963,50.29012],[3.02731,50.29068],[3.02762,50.2918],[3.03027,50.29198],[3.03018,50.29158],[3.03145,50.29168],[3.03145,50.29047],[3.03238,50.29051],[3.03237,50.29021],[3.03078,50.2902]]]}},{"type":"Feature","properties":{"k":"PPH","s":0.409},"geometry":{"type":"Polygon","coordinates":[[[3.03611,50.28852],[3.03599,50.28805],[3.03686,50.28768],[3.03668,50.28754],[3.03515,50.28801],[3.03611,50.28852]]]}},{"type":"Feature","properties":{"k":"BTA","s":0.044},"geometry":{"type":"Polygon","coordinates":[[[3.03054,50.28772],[3.03048,50.28779],[3.03119,50.288],[3.03054,50.28772]]]}},{"type":"Feature","properties":{"k":"PHF","s":9.729},"geometry":{"type":"MultiPolygon","coordinates":[[[[3.05535,50.28932],[3.05525,50.28919],[3.0535,50.28923],[3.0545,50.29015],[3.05493,50.28977],[3.05483,50.28969],[3.05535,50.28932]]],[[[3.04797,50.28655],[3.04569,50.28736],[3.04628,50.28845],[3.04723,50.28808],[3.0474,50.28827],[3.04881,50.28809],[3.04905,50.2887],[3.05042,50.28849],[3.05223,50.28845],[3.05158,50.28747],[3.05201,50.28731],[3.05076,50.28573],[3.04797,50.28655]]],[[[3.05307,50.2886],[3.05292,50.28857],[3.05311,50.28865],[3.05307,50.2886]]]]}}]}