{"type":"FeatureCollection","features":[{"type":"Feature","properties":{"k":"PPH","s":0.694},"geometry":{"type":"Polygon","coordinates":[[[2.14968,50.4623],[2.15011,50.46201],[2.14947,50.46166],[2.14916,50.46185],[2.14828,50.46147],[2.14937,50.46071],[2.14938,50.46051],[2.14807,50.46133],[2.1481,50.46164],[2.14968,50.4623]]]}},{"type":"Feature","properties":{"k":"PPH","s":0.91},"geometry":{"type":"Polygon","coordinates":[[[2.15242,50.47103],[2.15133,50.4706],[2.15059,50.47143],[2.15185,50.47169],[2.15242,50.47103]]]}},{"type":"Feature","properties":{"k":"PPH","s":0.907},"geometry":{"type":"Polygon","coordinates":[[[2.1485,50.46385],[2.14864,50.46404],[2.14937,50.46379],[2.14918,50.46353],[2.15017,50.46321],[2.1499,50.46289],[2.14776,50.46359],[2.148,50.46387],[2.1485,50.46385]]]}},{"type":"Feature","properties":{"k":"PPH","s":0.158},"geometry":{"type":"Polygon","coordinates":[[[2.14864,50.46404],[2.14889,50.46431],[2.14945,50.46401],[2.14932,50.4638],[2.14864,50.46404]]]}},{"type":"Feature","properties":{"k":"PPH","s":1.28},"geometry":{"type":"Polygon","coordinates":[[[2.1485,50.46625],[2.15007,50.4654],[2.14921,50.46476],[2.14774,50.46569],[2.1485,50.46625]]]}},{"type":"Feature","properties":{"k":"PPH","s":0.568},"geometry":{"type":"Polygon","coordinates":[[[2.14754,50.46437],[2.14695,50.46467],[2.14736,50.46517],[2.14861,50.46452],[2.14834,50.46429],[2.14759,50.46446],[2.14754,50.46437]]]}},{"type":"Feature","properties":{"k":"PPH","s":1.475},"geometry":{"type":"Polygon","coordinates":[[[2.14627,50.46487],[2.14515,50.46453],[2.14489,50.46473],[2.14456,50.46469],[2.14391,50.46441],[2.14292,50.46512],[2.14552,50.46534],[2.14627,50.46487]]]}},{"type":"Feature","properties":{"k":"PPH","s":0.011},"geometry":{"type":"Polygon","coordinates":[[[2.14392,50.46439],[2.14286,50.46513],[2.14287,50.46515],[2.14392,50.46439]]]}},{"type":"Feature","properties":{"k":"MIS","s":4.878},"geometry":{"type":"Polygon","coordinates":[[[2.14445,50.47609],[2.1452,50.47641],[2.1456,50.47595],[2.14523,50.47639],[2.14561,50.47597],[2.14618,50.47622],[2.14671,50.47496],[2.14221,50.47395],[2.14264,50.47522],[2.14424,50.4763],[2.14445,50.47609]]]}},{"type":"Feature","properties":{"k":"CZH","s":0.017},"geometry":{"type":"Polygon","coordinates":[[[2.15002,50.47723],[2.15041,50.47743],[2.15005,50.47715],[2.15002,50.47723]]]}},{"type":"Feature","properties":{"k":"BTH","s":2.328},"geometry":{"type":"MultiPolygon","coordinates":[[[[2.14861,50.47643],[2.14667,50.47515],[2.14581,50.47726],[2.1461,50.47742],[2.14861,50.47643]]],[[[2.14989,50.47712],[2.14901,50.4767],[2.15002,50.47723],[2.14989,50.47712]]]]}},{"type":"Feature","properties":{"k":"MIS","s":2.157},"geometry":{"type":"Polygon","coordinates":[[[2.14346,50.47417],[2.14672,50.47496],[2.14726,50.4745],[2.14459,50.47332],[2.14346,50.47417]]]}},{"type":"Feature","properties":{"k":"BOR","s":0.169},"geometry":{"type":"Polygon","coordinates":[[[2.14726,50.4745],[2.14733,50.47445],[2.14466,50.47327],[2.14726,50.4745]]]}},{"type":"Feature","properties":{"k":"BTH","s":1.608},"geometry":{"type":"Polygon","coordinates":[[[2.14863,50.47643],[2.14925,50.47599],[2.14743,50.47448],[2.14667,50.47515],[2.14863,50.47643]]]}},{"type":"Feature","properties":{"k":"MIS","s":0.914},"geometry":{"type":"Polygon","coordinates":[[[2.14892,50.47342],[2.1509,50.47219],[2.15005,50.47202],[2.14849,50.47322],[2.14892,50.47342]]]}},{"type":"Feature","properties":{"k":"MIS","s":2.443},"geometry":{"type":"Polygon","coordinates":[[[2.14846,50.47319],[2.15,50.47197],[2.14746,50.47141],[2.14658,50.47217],[2.14846,50.47319]]]}},{"type":"Feature","properties":{"k":"PPH","s":4.592},"geometry":{"type":"Polygon","coordinates":[[[2.14488,50.46435],[2.14531,50.46411],[2.14608,50.4647],[2.14756,50.46381],[2.148,50.46387],[2.14758,50.46339],[2.14878,50.46295],[2.14847,50.46262],[2.14871,50.46254],[2.14862,50.46231],[2.14837,50.4621],[2.14866,50.46195],[2.14793,50.4616],[2.14765,50.46165],[2.14627,50.46254],[2.1466,50.46267],[2.14428,50.46418],[2.14488,50.46435]]]}},{"type":"Feature","properties":{"k":"PTC","s":0.031},"geometry":{"type":"Polygon","coordinates":[[[2.15152,50.47005],[2.15155,50.47003],[2.15032,50.46966],[2.15152,50.47005]]]}},{"type":"Feature","properties":{"k":"MIS","s":4.964},"geometry":{"type":"Polygon","coordinates":[[[2.14747,50.47139],[2.14997,50.47195],[2.15161,50.47005],[2.14923,50.46933],[2.14738,50.47119],[2.14747,50.47139]]]}},{"type":"Feature","properties":{"k":"PPH","s":1.091},"geometry":{"type":"Polygon","coordinates":[[[2.1435,50.47028],[2.14591,50.47041],[2.14581,50.47126],[2.14423,50.47119],[2.14426,50.47148],[2.14468,50.47135],[2.14611,50.47141],[2.14627,50.47015],[2.14431,50.47019],[2.14368,50.46981],[2.1438,50.46846],[2.1435,50.47028]]]}},{"type":"Feature","properties":{"k":"MIS","s":0.432},"geometry":{"type":"Polygon","coordinates":[[[2.14807,50.47328],[2.14829,50.47308],[2.14659,50.47219],[2.14632,50.47236],[2.14807,50.47328]]]}},{"type":"Feature","properties":{"k":"PPH","s":0.837},"geometry":{"type":"Polygon","coordinates":[[[2.14561,50.47292],[2.14764,50.47396],[2.14791,50.47363],[2.14606,50.47256],[2.14561,50.47292]]]}},{"type":"Feature","properties":{"k":"PTR","s":1.777},"geometry":{"type":"Polygon","coordinates":[[[2.14386,50.47384],[2.14466,50.47327],[2.14432,50.47236],[2.14184,50.47283],[2.14386,50.47384]]]}},{"type":"Feature","properties":{"k":"BTH","s":2.834},"geometry":{"type":"Polygon","coordinates":[[[2.14386,50.47384],[2.14184,50.47283],[2.14432,50.47233],[2.14421,50.47143],[2.14164,50.47193],[2.14183,50.47285],[2.14221,50.47395],[2.1433,50.47425],[2.14386,50.47384]]]}},{"type":"Feature","properties":{"k":"MIS","s":13.59},"geometry":{"type":"Polygon","coordinates":[[[2.14112,50.46927],[2.14163,50.47188],[2.14424,50.47139],[2.14423,50.47119],[2.14581,50.47126],[2.14591,50.47041],[2.1435,50.47028],[2.1442,50.46693],[2.14536,50.4654],[2.14285,50.46515],[2.14172,50.46746],[2.14112,50.46927]]]}},{"type":"Feature","properties":{"k":"MIS","s":0.002},"geometry":{"type":"Polygon","coordinates":[[[2.1417,50.46746],[2.14163,50.46769],[2.14172,50.46746],[2.1417,50.46746]]]}},{"type":"Feature","properties":{"k":"PPH","s":2.551},"geometry":{"type":"Polygon","coordinates":[[[2.14665,50.46845],[2.14908,50.46701],[2.14797,50.46592],[2.14661,50.46632],[2.14718,50.46704],[2.14637,50.46834],[2.14665,50.46845]]]}},{"type":"Feature","properties":{"k":"PPH","s":1.547},"geometry":{"type":"Polygon","coordinates":[[[2.14867,50.46838],[2.1483,50.46814],[2.14947,50.46743],[2.14907,50.46702],[2.14664,50.46845],[2.14782,50.46891],[2.14867,50.46838]]]}},{"type":"Feature","properties":{"k":"PPH","s":4.665},"geometry":{"type":"Polygon","coordinates":[[[2.15242,50.46877],[2.15006,50.46814],[2.14793,50.4692],[2.14821,50.46951],[2.14701,50.4704],[2.14738,50.47119],[2.14923,50.46933],[2.15161,50.47005],[2.15242,50.46877]]]}},{"type":"Feature","properties":{"k":"PPH","s":0.413},"geometry":{"type":"Polygon","coordinates":[[[2.15068,50.46666],[2.15056,50.46658],[2.15032,50.46671],[2.15038,50.46694],[2.15107,50.46779],[2.15141,50.46746],[2.15068,50.46666]]]}},{"type":"Feature","properties":{"k":"PPH","s":0.567},"geometry":{"type":"Polygon","coordinates":[[[2.15076,50.46784],[2.14998,50.46702],[2.1494,50.46723],[2.15019,50.46811],[2.15076,50.46784]]]}},{"type":"Feature","properties":{"k":"PPH","s":1.3},"geometry":{"type":"Polygon","coordinates":[[[2.15131,50.4655],[2.15105,50.4653],[2.1508,50.46541],[2.15049,50.46519],[2.1485,50.46625],[2.14904,50.46686],[2.14927,50.46658],[2.15131,50.4655]]]}},{"type":"Feature","properties":{"k":"PPH","s":0.829},"geometry":{"type":"Polygon","coordinates":[[[2.15132,50.4655],[2.1495,50.46646],[2.14997,50.4668],[2.1517,50.46583],[2.15132,50.4655]]]}},{"type":"Feature","properties":{"k":"PPH","s":2.662},"geometry":{"type":"Polygon","coordinates":[[[2.15189,50.46822],[2.15156,50.46848],[2.15229,50.46864],[2.15245,50.46846],[2.15229,50.46833],[2.15241,50.46821],[2.15269,50.46829],[2.15316,50.46731],[2.1536,50.46587],[2.15272,50.46601],[2.15267,50.46628],[2.15225,50.46635],[2.15228,50.46685],[2.15158,50.46725],[2.1507,50.46668],[2.15141,50.46746],[2.15104,50.46781],[2.15189,50.46822]]]}},{"type":"Feature","properties":{"k":"ORH","s":2.628},"geometry":{"type":"Polygon","coordinates":[[[2.15409,50.46818],[2.15338,50.46901],[2.15265,50.46868],[2.15198,50.46965],[2.15218,50.46996],[2.15328,50.47043],[2.15505,50.46863],[2.15409,50.46818]]]}},{"type":"Feature","properties":{"k":"MIS","s":2.399},"geometry":{"type":"Polygon","coordinates":[[[2.1564,50.46932],[2.15666,50.4689],[2.15886,50.46705],[2.15868,50.46677],[2.1579,50.46668],[2.15544,50.46882],[2.1564,50.46932]]]}},{"type":"Feature","properties":{"k":"PTR","s":2.605},"geometry":{"type":"Polygon","coordinates":[[[2.15643,50.46648],[2.1544,50.46831],[2.15544,50.46882],[2.15782,50.46667],[2.15643,50.46648]]]}},{"type":"Feature","properties":{"k":"PPH","s":4.184},"geometry":{"type":"Polygon","coordinates":[[[2.15524,50.46593],[2.15383,50.46557],[2.15326,50.46736],[2.15376,50.46808],[2.15283,50.4688],[2.15338,50.46901],[2.15409,50.46818],[2.1544,50.46831],[2.15643,50.46648],[2.15524,50.46593]]]}},{"type":"Feature","properties":{"k":"BTH","s":13.462},"geometry":{"type":"Polygon","coordinates":[[[2.15571,50.47138],[2.15796,50.47242],[2.15953,50.47349],[2.16017,50.47322],[2.15885,50.47205],[2.16135,50.4711],[2.16067,50.46972],[2.15886,50.46705],[2.15666,50.4689],[2.15755,50.46952],[2.15571,50.47138]]]}},{"type":"Feature","properties":{"k":"BTH","s":0.015},"geometry":{"type":"Polygon","coordinates":[[[2.1616,50.47128],[2.16164,50.47128],[2.16117,50.4705],[2.1616,50.47128]]]}},{"type":"Feature","properties":{"k":"CZH","s":0.025},"geometry":{"type":"Polygon","coordinates":[[[2.16261,50.47289],[2.16164,50.47128],[2.1616,50.47128],[2.16261,50.47289]]]}},{"type":"Feature","properties":{"k":"MIS","s":4.444},"geometry":{"type":"Polygon","coordinates":[[[2.16096,50.47296],[2.1608,50.47302],[2.16294,50.47516],[2.16371,50.47475],[2.16135,50.4711],[2.15973,50.47171],[2.16096,50.47296]]]}},{"type":"Feature","properties":{"k":"BTH","s":1.088},"geometry":{"type":"Polygon","coordinates":[[[2.15973,50.47171],[2.15885,50.47205],[2.16018,50.47322],[2.16093,50.47293],[2.15973,50.47171]]]}},{"type":"Feature","properties":{"k":"CZH","s":2.895},"geometry":{"type":"Polygon","coordinates":[[[2.15576,50.47146],[2.15557,50.47188],[2.15763,50.47409],[2.15901,50.47318],[2.15793,50.4724],[2.15576,50.47146]]]}},{"type":"Feature","properties":{"k":"PTC","s":4.132},"geometry":{"type":"Polygon","coordinates":[[[2.15382,50.47064],[2.15571,50.47138],[2.15719,50.46993],[2.15626,50.46923],[2.15505,50.46863],[2.15395,50.46975],[2.15449,50.46997],[2.15382,50.47064]]]}},{"type":"Feature","properties":{"k":"PPH","s":0.346},"geometry":{"type":"Polygon","coordinates":[[[2.15554,50.47181],[2.15401,50.47115],[2.15383,50.47138],[2.15541,50.47202],[2.15554,50.47181]]]}},{"type":"Feature","properties":{"k":"MIS","s":0.401},"geometry":{"type":"Polygon","coordinates":[[[2.15382,50.47064],[2.15449,50.46997],[2.15395,50.46975],[2.15332,50.47045],[2.15382,50.47064]]]}},{"type":"Feature","properties":{"k":"PPH","s":0.308},"geometry":{"type":"Polygon","coordinates":[[[2.15207,50.45945],[2.15341,50.45858],[2.15371,50.45817],[2.15208,50.45929],[2.15118,50.45862],[2.15107,50.45873],[2.15207,50.45945]]]}},{"type":"Feature","properties":{"k":"CZH","s":5.78},"geometry":{"type":"Polygon","coordinates":[[[2.1557,50.47203],[2.15553,50.47186],[2.15541,50.47202],[2.15381,50.47138],[2.1542,50.47088],[2.15186,50.46985],[2.15137,50.47058],[2.15246,50.47103],[2.15189,50.47164],[2.15343,50.47394],[2.1557,50.47203]]]}},{"type":"Feature","properties":{"k":"PTR","s":0.579},"geometry":{"type":"Polygon","coordinates":[[[2.15175,50.47194],[2.15321,50.47396],[2.15284,50.47446],[2.15343,50.47394],[2.15189,50.47164],[2.15175,50.47194]]]}},{"type":"Feature","properties":{"k":"MIS","s":3.26},"geometry":{"type":"Polygon","coordinates":[[[2.15045,50.47534],[2.15258,50.47409],[2.15151,50.4724],[2.15092,50.4722],[2.15022,50.47275],[2.15076,50.47287],[2.15083,50.47333],[2.15015,50.4746],[2.14983,50.47482],[2.15045,50.47534]]]}},{"type":"Feature","properties":{"k":"BTH","s":7.281},"geometry":{"type":"Polygon","coordinates":[[[2.15487,50.47494],[2.15604,50.47578],[2.15805,50.47452],[2.1557,50.47203],[2.1533,50.47408],[2.15438,50.47526],[2.15487,50.47494]]]}},{"type":"Feature","properties":{"k":"BTH","s":11.667},"geometry":{"type":"Polygon","coordinates":[[[2.15313,50.47825],[2.1547,50.47845],[2.15638,50.47804],[2.15973,50.4765],[2.15782,50.47463],[2.15604,50.47578],[2.15487,50.47494],[2.15445,50.47521],[2.15561,50.476],[2.15496,50.47646],[2.15441,50.4761],[2.15249,50.47738],[2.15148,50.4778],[2.15313,50.47825]]]}},{"type":"Feature","properties":{"k":"BTH","s":6.199},"geometry":{"type":"Polygon","coordinates":[[[2.15044,50.47535],[2.15213,50.47746],[2.15249,50.47738],[2.15441,50.4761],[2.15392,50.47559],[2.15438,50.47526],[2.1533,50.47408],[2.15284,50.47447],[2.15284,50.47446],[2.15257,50.47411],[2.15044,50.47535]]]}},{"type":"Feature","properties":{"k":"JAC","s":0.001},"geometry":{"type":"Polygon","coordinates":[]}},{"type":"Feature","properties":{"k":"BTH","s":1.092},"geometry":{"type":"Polygon","coordinates":[[[2.16048,50.47618],[2.16099,50.47597],[2.15893,50.47398],[2.15853,50.47426],[2.16048,50.47618]]]}},{"type":"Feature","properties":{"k":"ORH","s":1.588},"geometry":{"type":"Polygon","coordinates":[[[2.15974,50.47649],[2.16047,50.47619],[2.15853,50.47426],[2.15783,50.47463],[2.15974,50.47649]]]}},{"type":"Feature","properties":{"k":"MIS","s":4.695},"geometry":{"type":"Polygon","coordinates":[[[2.16293,50.47516],[2.16078,50.473],[2.15957,50.4735],[2.15897,50.47398],[2.161,50.47597],[2.16293,50.47516]]]}},{"type":"Feature","properties":{"k":"PPH","s":2.81},"geometry":{"type":"Polygon","coordinates":[[[2.15644,50.46347],[2.15593,50.46357],[2.15549,50.46596],[2.15646,50.46639],[2.15683,50.46644],[2.1573,50.46495],[2.15644,50.46347]]]}},{"type":"Feature","properties":{"k":"PPH","s":3.421},"geometry":{"type":"Polygon","coordinates":[[[2.1554,50.46587],[2.15561,50.46364],[2.15642,50.46343],[2.15603,50.46272],[2.15496,50.46298],[2.15446,50.46374],[2.15452,50.46422],[2.15326,50.46473],[2.15375,50.46539],[2.1554,50.46587]]]}},{"type":"Feature","properties":{"k":"PPH","s":2.45},"geometry":{"type":"Polygon","coordinates":[[[2.15236,50.46517],[2.15306,50.46474],[2.15275,50.46427],[2.15195,50.46476],[2.15126,50.46423],[2.15062,50.46458],[2.15075,50.46501],[2.15203,50.46591],[2.15298,50.46592],[2.15361,50.46568],[2.15315,50.46487],[2.15249,50.46528],[2.15236,50.46517]]]}},{"type":"Feature","properties":{"k":"MIS","s":0.696},"geometry":{"type":"Polygon","coordinates":[[[2.15017,50.47201],[2.15159,50.4723],[2.15183,50.47175],[2.15059,50.47143],[2.15017,50.47201]]]}}]}