{"type":"FeatureCollection","features":[{"type":"Feature","properties":{"k":"BTH","s":15.212},"geometry":{"type":"Polygon","coordinates":[[[2.92907,50.15525],[2.92535,50.15405],[2.92161,50.15805],[2.92282,50.15885],[2.92461,50.15966],[2.92871,50.15525],[2.92907,50.15525]]]}},{"type":"Feature","properties":{"k":"PTC","s":6.091},"geometry":{"type":"Polygon","coordinates":[[[2.92871,50.15525],[2.92461,50.15966],[2.92581,50.1602],[2.9273,50.15902],[2.92953,50.15543],[2.92871,50.15525]]]}},{"type":"Feature","properties":{"k":"LIF","s":0.013},"geometry":{"type":"Polygon","coordinates":[[[2.93312,50.14889],[2.93308,50.14885],[2.93258,50.14914],[2.93312,50.14889]]]}},{"type":"Feature","properties":{"k":"BTN","s":4.001},"geometry":{"type":"Polygon","coordinates":[[[2.93127,50.14686],[2.92868,50.1482],[2.92988,50.14952],[2.93247,50.14817],[2.93127,50.14686]]]}},{"type":"Feature","properties":{"k":"BTN","s":2.06},"geometry":{"type":"Polygon","coordinates":[[[2.93028,50.1502],[2.93308,50.14885],[2.93247,50.14817],[2.92988,50.14952],[2.93028,50.1502]]]}},{"type":"Feature","properties":{"k":"PHF","s":10.017},"geometry":{"type":"Polygon","coordinates":[[[2.92429,50.14839],[2.9263,50.1501],[2.92734,50.15053],[2.92814,50.15164],[2.92904,50.15222],[2.9304,50.1511],[2.92688,50.14717],[2.92429,50.14839]]]}},{"type":"Feature","properties":{"k":"PHF","s":2.278},"geometry":{"type":"Polygon","coordinates":[[[2.93069,50.15087],[2.93013,50.15027],[2.93028,50.1502],[2.92987,50.14964],[2.92736,50.14695],[2.92688,50.14717],[2.9304,50.1511],[2.93069,50.15087]]]}},{"type":"Feature","properties":{"k":"BTH","s":2.081},"geometry":{"type":"Polygon","coordinates":[[[2.93127,50.14686],[2.93066,50.14621],[2.92803,50.14746],[2.92869,50.1482],[2.93127,50.14686]]]}},{"type":"Feature","properties":{"k":"BTH","s":1.658},"geometry":{"type":"Polygon","coordinates":[[[2.92755,50.14684],[2.92802,50.14746],[2.93066,50.14621],[2.93022,50.14573],[2.92755,50.14684]]]}},{"type":"Feature","properties":{"k":"BTH","s":9.378},"geometry":{"type":"Polygon","coordinates":[[[2.92501,50.14265],[2.92276,50.14358],[2.92512,50.14789],[2.92734,50.14688],[2.92501,50.14265]]]}},{"type":"Feature","properties":{"k":"PTC","s":9.186},"geometry":{"type":"Polygon","coordinates":[[[2.92501,50.14265],[2.92734,50.14688],[2.92948,50.14593],[2.92717,50.14157],[2.92501,50.14265]]]}},{"type":"Feature","properties":{"k":"BTN","s":0.021},"geometry":{"type":"Polygon","coordinates":[[[2.93253,50.14728],[2.93254,50.14722],[2.9318,50.14735],[2.93253,50.14728]]]}},{"type":"Feature","properties":{"k":"LIF","s":12.969},"geometry":{"type":"Polygon","coordinates":[[[2.93316,50.14458],[2.93096,50.1395],[2.93033,50.13953],[2.92977,50.13976],[2.92816,50.14094],[2.93052,50.14531],[2.93189,50.14491],[2.93196,50.14502],[2.93316,50.14458]]]}},{"type":"Feature","properties":{"k":"BTN","s":0.046},"geometry":{"type":"Polygon","coordinates":[[[2.93146,50.14041],[2.93108,50.13949],[2.93096,50.1395],[2.93146,50.14041]]]}},{"type":"Feature","properties":{"k":"BTH","s":0.686},"geometry":{"type":"Polygon","coordinates":[[[2.92972,50.13967],[2.92798,50.13863],[2.92758,50.13889],[2.92933,50.13993],[2.92972,50.13967]]]}},{"type":"Feature","properties":{"k":"BTH","s":0.001},"geometry":{"type":"Polygon","coordinates":[]}},{"type":"Feature","properties":{"k":"BTH","s":0.004},"geometry":{"type":"Polygon","coordinates":[[[2.92796,50.13862],[2.92797,50.13862],[2.92702,50.13805],[2.92796,50.13862]]]}},{"type":"Feature","properties":{"k":"BTH","s":0.713},"geometry":{"type":"Polygon","coordinates":[[[2.92578,50.13784],[2.92754,50.13889],[2.92796,50.13862],[2.92702,50.13805],[2.92592,50.13765],[2.92578,50.13784]]]}},{"type":"Feature","properties":{"k":"PTC","s":9.375},"geometry":{"type":"Polygon","coordinates":[[[2.92933,50.13994],[2.92579,50.13785],[2.92347,50.14001],[2.92651,50.14184],[2.92933,50.13994]]]}},{"type":"Feature","properties":{"k":"PHF","s":5.155},"geometry":{"type":"Polygon","coordinates":[[[2.9222,50.14172],[2.92415,50.14295],[2.92651,50.14184],[2.92347,50.14001],[2.9222,50.14172]]]}},{"type":"Feature","properties":{"k":"OIG","s":4.601},"geometry":{"type":"Polygon","coordinates":[[[2.92944,50.14586],[2.93055,50.14538],[2.92819,50.141],[2.9272,50.14163],[2.92944,50.14586]]]}},{"type":"Feature","properties":{"k":"BTH","s":1.362},"geometry":{"type":"Polygon","coordinates":[[[2.92128,50.1439],[2.92278,50.14352],[2.92366,50.14316],[2.92279,50.14264],[2.92242,50.14288],[2.92171,50.14265],[2.92116,50.14382],[2.92128,50.1439]]]}},{"type":"Feature","properties":{"k":"BTN","s":0.782},"geometry":{"type":"Polygon","coordinates":[[[2.92197,50.14213],[2.92366,50.14316],[2.92415,50.14295],[2.9222,50.14172],[2.92197,50.14213]]]}},{"type":"Feature","properties":{"k":"BTH","s":30.797},"geometry":{"type":"Polygon","coordinates":[[[2.9142,50.14151],[2.91958,50.1452],[2.92086,50.14411],[2.92198,50.14181],[2.92176,50.14169],[2.92191,50.14142],[2.92222,50.14093],[2.92243,50.14099],[2.92315,50.14015],[2.91833,50.13687],[2.9142,50.14151]]]}},{"type":"Feature","properties":{"k":"LUZ","s":1.303},"geometry":{"type":"Polygon","coordinates":[[[2.91369,50.14218],[2.91138,50.14467],[2.91156,50.14522],[2.91406,50.14243],[2.91369,50.14218]]]}},{"type":"Feature","properties":{"k":"BTH","s":4.052},"geometry":{"type":"Polygon","coordinates":[[[2.91007,50.13773],[2.91003,50.1382],[2.91292,50.14018],[2.91129,50.14198],[2.91223,50.14234],[2.9141,50.14027],[2.91038,50.13764],[2.91007,50.13773]]]}},{"type":"Feature","properties":{"k":"PTC","s":10.661},"geometry":{"type":"Polygon","coordinates":[[[2.91956,50.14519],[2.9142,50.14151],[2.9152,50.14039],[2.91079,50.13719],[2.9103,50.13758],[2.9141,50.14027],[2.91085,50.14386],[2.91138,50.14467],[2.91369,50.14218],[2.91874,50.14572],[2.91956,50.14519]]]}},{"type":"Feature","properties":{"k":"BTN","s":6.554},"geometry":{"type":"Polygon","coordinates":[[[2.91207,50.13622],[2.91079,50.13719],[2.9152,50.14039],[2.91628,50.13921],[2.91207,50.13622]]]}},{"type":"Feature","properties":{"k":"PTC","s":12.9},"geometry":{"type":"Polygon","coordinates":[[[2.9185,50.13668],[2.91486,50.1341],[2.91206,50.13622],[2.91633,50.13916],[2.9185,50.13668]]]}},{"type":"Feature","properties":{"k":"BTN","s":3.502},"geometry":{"type":"Polygon","coordinates":[[[2.92367,50.13966],[2.91888,50.13627],[2.91833,50.13687],[2.92315,50.14015],[2.92367,50.13966]]]}},{"type":"Feature","properties":{"k":"PTC","s":2.801},"geometry":{"type":"Polygon","coordinates":[[[2.91888,50.13627],[2.92367,50.13966],[2.92413,50.13923],[2.91927,50.13584],[2.91888,50.13627]]]}},{"type":"Feature","properties":{"k":"BTH","s":12.679},"geometry":{"type":"Polygon","coordinates":[[[2.92595,50.13725],[2.92107,50.13382],[2.91928,50.13582],[2.92415,50.1392],[2.92595,50.13725]],[[2.92556,50.13761],[2.92544,50.13754],[2.92552,50.13742],[2.92556,50.13761]]]}},{"type":"Feature","properties":{"k":"BTN","s":5.711},"geometry":{"type":"Polygon","coordinates":[[[2.91625,50.13309],[2.91956,50.13548],[2.92075,50.13416],[2.9174,50.13177],[2.91625,50.13309]]]}},{"type":"Feature","properties":{"k":"BTN","s":5.393},"geometry":{"type":"Polygon","coordinates":[[[2.91956,50.13549],[2.91622,50.13308],[2.91489,50.13409],[2.91852,50.13666],[2.91956,50.13549]]]}},{"type":"Feature","properties":{"k":"BTH","s":1.432},"geometry":{"type":"Polygon","coordinates":[[[2.91229,50.13595],[2.91068,50.13507],[2.91032,50.13635],[2.91118,50.1368],[2.91229,50.13595]]]}},{"type":"Feature","properties":{"k":"BTH","s":0.637},"geometry":{"type":"Polygon","coordinates":[[[2.91265,50.13568],[2.91077,50.13466],[2.91068,50.13507],[2.91229,50.13595],[2.91265,50.13568]]]}},{"type":"Feature","properties":{"k":"LBF","s":1.289},"geometry":{"type":"Polygon","coordinates":[[[2.91322,50.13524],[2.9109,50.13396],[2.91077,50.13466],[2.91265,50.13568],[2.91322,50.13524]]]}},{"type":"Feature","properties":{"k":"CZH","s":5.26},"geometry":{"type":"Polygon","coordinates":[[[2.9109,50.13396],[2.91322,50.13524],[2.91487,50.13402],[2.91093,50.13187],[2.9109,50.13396]]]}},{"type":"Feature","properties":{"k":"BTH","s":2.206},"geometry":{"type":"Polygon","coordinates":[[[2.91538,50.13363],[2.91085,50.13115],[2.91092,50.13185],[2.91488,50.13401],[2.91538,50.13363]]]}},{"type":"Feature","properties":{"k":"BOR","s":0.04},"geometry":{"type":"Polygon","coordinates":[[[2.91624,50.13295],[2.91622,50.13292],[2.91534,50.13361],[2.91624,50.13295]]]}},{"type":"Feature","properties":{"k":"PTC","s":4.615},"geometry":{"type":"Polygon","coordinates":[[[2.91138,50.13029],[2.91057,50.12987],[2.91086,50.131],[2.91111,50.13111],[2.91089,50.13107],[2.91089,50.13118],[2.91534,50.13361],[2.91622,50.13292],[2.91138,50.13029]]]}},{"type":"Feature","properties":{"k":"BTH","s":4.884},"geometry":{"type":"Polygon","coordinates":[[[2.91688,50.13233],[2.91059,50.12883],[2.91038,50.12931],[2.9105,50.12984],[2.91624,50.13293],[2.91688,50.13233]]]}},{"type":"Feature","properties":{"k":"PHF","s":11.664},"geometry":{"type":"Polygon","coordinates":[[[2.91769,50.13059],[2.91039,50.12658],[2.91029,50.12722],[2.9106,50.12805],[2.9106,50.12881],[2.91692,50.13228],[2.91752,50.13143],[2.91769,50.13059]]]}},{"type":"Feature","properties":{"k":"MIS","s":3.344},"geometry":{"type":"Polygon","coordinates":[[[2.91453,50.12814],[2.91447,50.1283],[2.91432,50.12825],[2.91071,50.12625],[2.91039,50.12658],[2.91769,50.13059],[2.91781,50.13],[2.91453,50.12814]]]}},{"type":"Feature","properties":{"k":"BTH","s":7.829},"geometry":{"type":"Polygon","coordinates":[[[2.92003,50.13363],[2.92075,50.13415],[2.9222,50.13255],[2.91798,50.12958],[2.9174,50.13177],[2.92003,50.13363]]]}},{"type":"Feature","properties":{"k":"BTH","s":2.683},"geometry":{"type":"Polygon","coordinates":[[[2.9201,50.13105],[2.9222,50.13255],[2.92262,50.13207],[2.91813,50.1289],[2.91799,50.12958],[2.9201,50.13105]]]}},{"type":"Feature","properties":{"k":"BTH","s":2.198},"geometry":{"type":"Polygon","coordinates":[[[2.92296,50.13171],[2.91825,50.12837],[2.91814,50.12889],[2.92262,50.13206],[2.92296,50.13171]]]}},{"type":"Feature","properties":{"k":"PHF","s":5.366},"geometry":{"type":"Polygon","coordinates":[[[2.92296,50.13171],[2.92383,50.13073],[2.92165,50.12918],[2.92131,50.12939],[2.91838,50.12731],[2.91825,50.12837],[2.92296,50.13171]]]}},{"type":"Feature","properties":{"k":"PTC","s":2.929},"geometry":{"type":"Polygon","coordinates":[[[2.92054,50.12763],[2.91888,50.12649],[2.91849,50.12689],[2.9238,50.13065],[2.92406,50.13017],[2.92054,50.12763]]]}},{"type":"Feature","properties":{"k":"ORH","s":1.251},"geometry":{"type":"Polygon","coordinates":[[[2.92054,50.12759],[2.92405,50.13012],[2.92427,50.12973],[2.91892,50.12647],[2.92054,50.12759]]]}},{"type":"Feature","properties":{"k":"PTC","s":2.798},"geometry":{"type":"Polygon","coordinates":[[[2.92911,50.13215],[2.92476,50.12905],[2.92443,50.12964],[2.92876,50.13264],[2.92911,50.13215]]]}},{"type":"Feature","properties":{"k":"LIF","s":15.362},"geometry":{"type":"Polygon","coordinates":[[[2.92229,50.13244],[2.92704,50.13577],[2.92876,50.13264],[2.92443,50.12964],[2.92392,50.13056],[2.92229,50.13244]]]}},{"type":"Feature","properties":{"k":"BTN","s":8.698},"geometry":{"type":"Polygon","coordinates":[[[2.92535,50.13457],[2.92229,50.13244],[2.92105,50.13382],[2.92583,50.13717],[2.92616,50.13678],[2.9264,50.13684],[2.92704,50.13577],[2.92535,50.13457]]]}},{"type":"Feature","properties":{"k":"BTH","s":1.585},"geometry":{"type":"Polygon","coordinates":[[[2.91274,50.12268],[2.91266,50.12255],[2.91256,50.12281],[2.91739,50.12547],[2.91901,50.12634],[2.91931,50.12615],[2.91274,50.12268]]]}},{"type":"Feature","properties":{"k":"BTH","s":6.08},"geometry":{"type":"MultiPolygon","coordinates":[[[[2.9185,50.12672],[2.91844,50.12682],[2.91901,50.12634],[2.9185,50.12672]]],[[[2.91837,50.12693],[2.9183,50.12717],[2.91214,50.12383],[2.91136,50.12515],[2.91497,50.12712],[2.91539,50.12606],[2.91826,50.1276],[2.91844,50.12682],[2.91837,50.12693]]]]}},{"type":"Feature","properties":{"k":"BTH","s":4.178},"geometry":{"type":"Polygon","coordinates":[[[2.9107,50.12624],[2.91447,50.1283],[2.91496,50.12712],[2.91135,50.12515],[2.9107,50.12624]]]}},{"type":"Feature","properties":{"k":"BTH","s":7.52},"geometry":{"type":"Polygon","coordinates":[[[2.91079,50.12609],[2.91135,50.12497],[2.90319,50.12437],[2.90282,50.1255],[2.91079,50.12609]]]}},{"type":"Feature","properties":{"k":"PHF","s":9.457},"geometry":{"type":"Polygon","coordinates":[[[2.90282,50.1255],[2.90223,50.12697],[2.91034,50.12758],[2.91024,50.12674],[2.91075,50.1261],[2.90282,50.1255]]]}},{"type":"Feature","properties":{"k":"BTH","s":5.694},"geometry":{"type":"MultiPolygon","coordinates":[[[[2.8992,50.12437],[2.89937,50.12463],[2.89928,50.12445],[2.8992,50.12437]]],[[[2.89968,50.12785],[2.90177,50.12779],[2.90284,50.1251],[2.89957,50.12499],[2.89978,50.12539],[2.89968,50.12785]]]]}},{"type":"Feature","properties":{"k":"PTC","s":0.234},"geometry":{"type":"Polygon","coordinates":[[[2.90484,50.12303],[2.90738,50.12212],[2.90388,50.1232],[2.90374,50.1234],[2.90484,50.12303]]]}},{"type":"Feature","properties":{"k":"BTN","s":6.176},"geometry":{"type":"Polygon","coordinates":[[[2.90318,50.12436],[2.91135,50.12497],[2.91185,50.1242],[2.91167,50.12419],[2.91173,50.12403],[2.90375,50.12345],[2.90318,50.12436]]]}},{"type":"Feature","properties":{"k":"BTN","s":2.459},"geometry":{"type":"Polygon","coordinates":[[[2.90468,50.12313],[2.90377,50.12345],[2.91173,50.12403],[2.91167,50.12419],[2.91184,50.1242],[2.91213,50.12366],[2.90468,50.12313]]]}},{"type":"Feature","properties":{"k":"BTH","s":8.462},"geometry":{"type":"Polygon","coordinates":[[[2.90812,50.12189],[2.90467,50.12312],[2.91214,50.12366],[2.91258,50.12252],[2.91239,50.12246],[2.91245,50.12228],[2.91043,50.12125],[2.90812,50.12189]]]}},{"type":"Feature","properties":{"k":"PHF","s":0.005},"geometry":{"type":"Polygon","coordinates":[[[2.91035,50.12121],[2.90991,50.12134],[2.91038,50.12123],[2.91035,50.12121]]]}},{"type":"Feature","properties":{"k":"BTH","s":1.175},"geometry":{"type":"Polygon","coordinates":[[[2.8906,50.122],[2.88988,50.122],[2.89008,50.12369],[2.89105,50.12345],[2.8906,50.122]]]}},{"type":"Feature","properties":{"k":"PPH","s":0.636},"geometry":{"type":"Polygon","coordinates":[[[2.89008,50.12369],[2.89021,50.12401],[2.89254,50.12344],[2.89229,50.12315],[2.89008,50.12369]]]}},{"type":"Feature","properties":{"k":"BTH","s":0.875},"geometry":{"type":"Polygon","coordinates":[[[2.89021,50.12401],[2.89033,50.12443],[2.89283,50.12382],[2.89255,50.12344],[2.89021,50.12401]]]}},{"type":"Feature","properties":{"k":"BTH","s":0.522},"geometry":{"type":"Polygon","coordinates":[[[2.89282,50.12383],[2.89031,50.12444],[2.89038,50.1247],[2.89297,50.12402],[2.89282,50.12383]]]}},{"type":"Feature","properties":{"k":"LBF","s":1.474},"geometry":{"type":"Polygon","coordinates":[[[2.89,50.12156],[2.88988,50.122],[2.89125,50.12199],[2.89398,50.12518],[2.89427,50.12512],[2.89167,50.12179],[2.89,50.12156]]]}},{"type":"Feature","properties":{"k":"BTH","s":0.192},"geometry":{"type":"Polygon","coordinates":[[[2.89918,50.12447],[2.8991,50.12437],[2.8981,50.12439],[2.89687,50.12465],[2.89918,50.12447]]]}},{"type":"Feature","properties":{"k":"BTH","s":22.91},"geometry":{"type":"Polygon","coordinates":[[[2.90152,50.12789],[2.89955,50.12793],[2.89976,50.12606],[2.89918,50.12447],[2.89678,50.12467],[2.89401,50.12518],[2.89428,50.12574],[2.89334,50.12941],[2.90144,50.12917],[2.90152,50.12789]]]}},{"type":"Feature","properties":{"k":"PTC","s":6.104},"geometry":{"type":"Polygon","coordinates":[[[2.89066,50.12774],[2.89381,50.12737],[2.89428,50.12558],[2.89377,50.12497],[2.89054,50.12578],[2.89066,50.12774]]]}},{"type":"Feature","properties":{"k":"BTN","s":1.879},"geometry":{"type":"Polygon","coordinates":[[[2.89054,50.12578],[2.89377,50.12497],[2.89322,50.12429],[2.89049,50.12498],[2.89054,50.12578]]]}},{"type":"Feature","properties":{"k":"BTN","s":0.718},"geometry":{"type":"Polygon","coordinates":[[[2.89055,50.12501],[2.8932,50.1243],[2.89297,50.12402],[2.89039,50.1247],[2.89055,50.12501]]]}},{"type":"Feature","properties":{"k":"PTC","s":4.865},"geometry":{"type":"Polygon","coordinates":[[[2.89332,50.12926],[2.89381,50.12737],[2.89066,50.12774],[2.88938,50.12938],[2.89332,50.12926]]]}},{"type":"Feature","properties":{"k":"MIS","s":1.065},"geometry":{"type":"Polygon","coordinates":[[[2.88908,50.1298],[2.8934,50.1297],[2.89326,50.12939],[2.88931,50.12949],[2.88908,50.1298]]]}},{"type":"Feature","properties":{"k":"BTN","s":0.303},"geometry":{"type":"Polygon","coordinates":[[[2.89326,50.12939],[2.89328,50.12928],[2.88938,50.12938],[2.89326,50.12939]]]}},{"type":"Feature","properties":{"k":"PHF","s":10.123},"geometry":{"type":"Polygon","coordinates":[[[2.88704,50.13209],[2.88717,50.13218],[2.89436,50.13169],[2.8934,50.12971],[2.88908,50.1298],[2.88704,50.13209]]]}},{"type":"Feature","properties":{"k":"BTH","s":6.759},"geometry":{"type":"Polygon","coordinates":[[[2.88692,50.13216],[2.88575,50.13341],[2.88494,50.134],[2.88764,50.13559],[2.88987,50.13401],[2.88692,50.13216]]]}},{"type":"Feature","properties":{"k":"BTH","s":0.537},"geometry":{"type":"Polygon","coordinates":[[[2.89237,50.13342],[2.88967,50.13373],[2.8898,50.13383],[2.89511,50.13322],[2.89506,50.1331],[2.89237,50.13342]]]}},{"type":"Feature","properties":{"k":"BTH","s":1.588},"geometry":{"type":"Polygon","coordinates":[[[2.88967,50.13373],[2.89506,50.1331],[2.8949,50.13279],[2.88916,50.13339],[2.88967,50.13373]]]}},{"type":"Feature","properties":{"k":"BTH","s":6.412},"geometry":{"type":"Polygon","coordinates":[[[2.88916,50.13339],[2.89491,50.13279],[2.89436,50.1317],[2.88716,50.13218],[2.88916,50.13339]]]}},{"type":"Feature","properties":{"k":"BTH","s":1.754},"geometry":{"type":"Polygon","coordinates":[[[2.87807,50.14749],[2.87886,50.14743],[2.87872,50.14445],[2.87797,50.14492],[2.87807,50.14749]]]}},{"type":"Feature","properties":{"k":"BTH","s":0.185},"geometry":{"type":"Polygon","coordinates":[[[2.87754,50.14519],[2.87654,50.14494],[2.87654,50.14508],[2.87734,50.14546],[2.87767,50.14511],[2.87754,50.14519]]]}},{"type":"Feature","properties":{"k":"BTN","s":0.0},"geometry":{"type":"Polygon","coordinates":[]}},{"type":"Feature","properties":{"k":"BTH","s":9.467},"geometry":{"type":"Polygon","coordinates":[[[2.88452,50.14468],[2.88307,50.14245],[2.8819,50.14318],[2.88062,50.14246],[2.88003,50.14283],[2.88031,50.14307],[2.87955,50.14347],[2.87983,50.14374],[2.87872,50.14445],[2.8788,50.14592],[2.88452,50.14468]]]}},{"type":"Feature","properties":{"k":"PHF","s":4.152},"geometry":{"type":"Polygon","coordinates":[[[2.8833,50.1459],[2.88306,50.14502],[2.88221,50.14519],[2.88286,50.14732],[2.88571,50.14723],[2.88507,50.1455],[2.8833,50.1459]]]}},{"type":"Feature","properties":{"k":"PTC","s":0.675},"geometry":{"type":"Polygon","coordinates":[[[2.88286,50.14732],[2.88221,50.14519],[2.88183,50.14528],[2.88244,50.14731],[2.88286,50.14732]]]}},{"type":"Feature","properties":{"k":"PTC","s":4.655},"geometry":{"type":"Polygon","coordinates":[[[2.88183,50.14528],[2.8788,50.14592],[2.87886,50.14745],[2.88243,50.14729],[2.88183,50.14528]]]}},{"type":"Feature","properties":{"k":"BTH","s":2.557},"geometry":{"type":"Polygon","coordinates":[[[2.90656,50.13345],[2.9064,50.13418],[2.91068,50.13448],[2.91079,50.13372],[2.90656,50.13345]]]}},{"type":"Feature","properties":{"k":"BTN","s":1.651},"geometry":{"type":"Polygon","coordinates":[[[2.90643,50.13419],[2.90634,50.13467],[2.91062,50.13496],[2.91068,50.13448],[2.90643,50.13419]]]}},{"type":"Feature","properties":{"k":"BTH","s":8.74},"geometry":{"type":"Polygon","coordinates":[[[2.90634,50.13467],[2.90197,50.13439],[2.90321,50.13585],[2.91022,50.13637],[2.91062,50.13496],[2.90634,50.13467]]]}},{"type":"Feature","properties":{"k":"CZH","s":4.946},"geometry":{"type":"Polygon","coordinates":[[[2.90197,50.13439],[2.90634,50.13467],[2.90656,50.13345],[2.90108,50.13307],[2.90197,50.13439]]]}},{"type":"Feature","properties":{"k":"BTH","s":2.726},"geometry":{"type":"Polygon","coordinates":[[[2.89655,50.13846],[2.90225,50.13765],[2.9024,50.13816],[2.90403,50.13796],[2.90398,50.13756],[2.90367,50.1369],[2.90058,50.13735],[2.90074,50.13768],[2.8963,50.1383],[2.89655,50.13846]]]}},{"type":"Feature","properties":{"k":"BTH","s":9.429},"geometry":{"type":"Polygon","coordinates":[[[2.90185,50.1377],[2.89655,50.13846],[2.89666,50.13854],[2.89727,50.13853],[2.89679,50.13863],[2.89871,50.13996],[2.90282,50.13938],[2.90319,50.14027],[2.90439,50.14007],[2.90403,50.13797],[2.90239,50.13819],[2.90225,50.13765],[2.90185,50.1377]]]}},{"type":"Feature","properties":{"k":"PTC","s":2.577},"geometry":{"type":"Polygon","coordinates":[[[2.90057,50.13735],[2.90367,50.1369],[2.90312,50.13591],[2.90015,50.13635],[2.90057,50.13735]]]}},{"type":"Feature","properties":{"k":"CZH","s":1.465},"geometry":{"type":"Polygon","coordinates":[[[2.90354,50.13587],[2.90321,50.13585],[2.90363,50.13662],[2.90581,50.13678],[2.90596,50.13605],[2.90354,50.13587]]]}},{"type":"Feature","properties":{"k":"BTN","s":12.423},"geometry":{"type":"Polygon","coordinates":[[[2.90596,50.13605],[2.90581,50.13678],[2.90366,50.13663],[2.90413,50.13753],[2.90434,50.13927],[2.90754,50.13951],[2.90836,50.13868],[2.90981,50.1378],[2.91021,50.13636],[2.90596,50.13605]]]}},{"type":"Feature","properties":{"k":"PPH","s":0.574},"geometry":{"type":"Polygon","coordinates":[[[2.91,50.1374],[2.90996,50.13772],[2.91118,50.1368],[2.91032,50.13636],[2.91,50.1374]]]}},{"type":"Feature","properties":{"k":"MIS","s":2.301},"geometry":{"type":"Polygon","coordinates":[[[2.90881,50.14057],[2.90905,50.14052],[2.90937,50.13963],[2.90905,50.13939],[2.90931,50.13925],[2.90951,50.13935],[2.90993,50.1384],[2.90988,50.13785],[2.90863,50.1386],[2.90771,50.13959],[2.90881,50.14057]]]}},{"type":"Feature","properties":{"k":"ORH","s":0.688},"geometry":{"type":"Polygon","coordinates":[[[2.90684,50.14038],[2.90466,50.14054],[2.90469,50.14102],[2.90653,50.14075],[2.90684,50.14038]]]}},{"type":"Feature","properties":{"k":"JAC","s":0.041},"geometry":{"type":"Polygon","coordinates":[[[2.90653,50.14075],[2.90469,50.14105],[2.90654,50.14078],[2.90653,50.14075]]]}},{"type":"Feature","properties":{"k":"PPH","s":1.393},"geometry":{"type":"Polygon","coordinates":[[[2.90708,50.14021],[2.90882,50.14179],[2.90892,50.14099],[2.90857,50.14072],[2.90881,50.14059],[2.90763,50.13953],[2.90708,50.14021]]]}},{"type":"Feature","properties":{"k":"CZH","s":7.308},"geometry":{"type":"Polygon","coordinates":[[[2.90958,50.14203],[2.91073,50.14071],[2.91111,50.141],[2.9097,50.14261],[2.91025,50.14314],[2.91292,50.14018],[2.91003,50.1382],[2.90924,50.14014],[2.90896,50.14156],[2.90958,50.14203]]]}},{"type":"Feature","properties":{"k":"PPH","s":0.973},"geometry":{"type":"Polygon","coordinates":[[[2.90892,50.14183],[2.9097,50.14261],[2.91111,50.141],[2.91073,50.14071],[2.90958,50.14203],[2.90896,50.14156],[2.90892,50.14183]]]}},{"type":"Feature","properties":{"k":"PPH","s":0.313},"geometry":{"type":"Polygon","coordinates":[[[2.90959,50.14349],[2.90999,50.14385],[2.91058,50.14361],[2.91015,50.14313],[2.90959,50.14349]]]}},{"type":"Feature","properties":{"k":"BTN","s":2.725},"geometry":{"type":"Polygon","coordinates":[[[2.90423,50.14265],[2.90514,50.14377],[2.90584,50.14354],[2.90478,50.14192],[2.9044,50.14007],[2.90332,50.14026],[2.90423,50.14265]]]}},{"type":"Feature","properties":{"k":"PTC","s":5.733},"geometry":{"type":"Polygon","coordinates":[[[2.90347,50.1418],[2.90269,50.1394],[2.89868,50.13997],[2.90173,50.14204],[2.90347,50.1418]]]}},{"type":"Feature","properties":{"k":"BTN","s":9.103},"geometry":{"type":"Polygon","coordinates":[[[2.8989,50.14539],[2.901,50.14461],[2.90331,50.14406],[2.90132,50.14191],[2.89715,50.14343],[2.8989,50.14539]]]}},{"type":"Feature","properties":{"k":"BTH","s":8.699},"geometry":{"type":"Polygon","coordinates":[[[2.89385,50.14464],[2.90132,50.14191],[2.89982,50.141],[2.8923,50.14378],[2.89385,50.14464]]]}},{"type":"Feature","properties":{"k":"PHF","s":12.17},"geometry":{"type":"Polygon","coordinates":[[[2.8923,50.14378],[2.89975,50.14099],[2.89804,50.13967],[2.89006,50.14265],[2.8923,50.14378]]]}},{"type":"Feature","properties":{"k":"BTN","s":15.723},"geometry":{"type":"Polygon","coordinates":[[[2.89537,50.13778],[2.88789,50.14155],[2.89006,50.14265],[2.89804,50.13967],[2.89537,50.13778]]]}},{"type":"Feature","properties":{"k":"BTH","s":3.233},"geometry":{"type":"Polygon","coordinates":[[[2.90074,50.13768],[2.90036,50.13687],[2.89528,50.13758],[2.89628,50.13829],[2.90074,50.13768]]]}},{"type":"Feature","properties":{"k":"BTH","s":5.693},"geometry":{"type":"Polygon","coordinates":[[[2.91443,50.1577],[2.91711,50.15535],[2.91515,50.15397],[2.91329,50.15549],[2.91443,50.1577]]]}},{"type":"Feature","properties":{"k":"BTH","s":1.241},"geometry":{"type":"Polygon","coordinates":[[[2.92073,50.15486],[2.92009,50.15454],[2.91833,50.15608],[2.91889,50.15645],[2.92073,50.15486]]]}},{"type":"Feature","properties":{"k":"MIS","s":0.148},"geometry":{"type":"Polygon","coordinates":[[[2.91893,50.15657],[2.91882,50.15667],[2.91986,50.15732],[2.92001,50.15722],[2.91893,50.15657]]]}},{"type":"Feature","properties":{"k":"BTH","s":9.555},"geometry":{"type":"Polygon","coordinates":[[[2.91812,50.15604],[2.91517,50.15864],[2.91543,50.15895],[2.91572,50.15881],[2.91585,50.15892],[2.9155,50.15907],[2.91662,50.1603],[2.91717,50.16063],[2.92064,50.15758],[2.92001,50.15722],[2.91986,50.15732],[2.91812,50.15604]]]}},{"type":"Feature","properties":{"k":"BTH","s":1.037},"geometry":{"type":"Polygon","coordinates":[[[2.9209,50.15773],[2.92064,50.15758],[2.9172,50.16064],[2.91746,50.16079],[2.9209,50.15773]]]}},{"type":"Feature","properties":{"k":"BTH","s":3.594},"geometry":{"type":"Polygon","coordinates":[[[2.88713,50.1353],[2.88623,50.13476],[2.88282,50.13717],[2.88302,50.13819],[2.88713,50.1353]]]}},{"type":"Feature","properties":{"k":"BTH","s":3.506},"geometry":{"type":"Polygon","coordinates":[[[2.88255,50.13632],[2.88281,50.13718],[2.88623,50.13476],[2.88492,50.13399],[2.88426,50.13445],[2.88255,50.13632]]]}},{"type":"Feature","properties":{"k":"BTH","s":0.203},"geometry":{"type":"Polygon","coordinates":[[[2.91867,50.16419],[2.91869,50.16419],[2.91897,50.16419],[2.91956,50.16301],[2.91867,50.16419]]]}},{"type":"Feature","properties":{"k":"BTH","s":2.978},"geometry":{"type":"Polygon","coordinates":[[[2.92202,50.15842],[2.91845,50.16158],[2.91931,50.16196],[2.9211,50.16038],[2.92254,50.15876],[2.92202,50.15842]]]}},{"type":"Feature","properties":{"k":"BTH","s":4.882},"geometry":{"type":"Polygon","coordinates":[[[2.91844,50.1616],[2.92203,50.15841],[2.9209,50.15772],[2.91722,50.16099],[2.91844,50.1616]]]}},{"type":"Feature","properties":{"k":"BTN","s":0.68},"geometry":{"type":"Polygon","coordinates":[[[2.92014,50.16229],[2.9207,50.16139],[2.92041,50.16117],[2.92109,50.1604],[2.91931,50.16197],[2.92014,50.16229]]]}},{"type":"Feature","properties":{"k":"JAC","s":0.431},"geometry":{"type":"MultiPolygon","coordinates":[[[[2.91758,50.16193],[2.91725,50.16212],[2.91982,50.16281],[2.92008,50.16239],[2.91986,50.16253],[2.9192,50.16253],[2.91807,50.16224],[2.91758,50.16193]]],[[[2.91954,50.16297],[2.91969,50.16302],[2.91977,50.16289],[2.91952,50.16287],[2.91954,50.16297]]]]}},{"type":"Feature","properties":{"k":"JAC","s":0.024},"geometry":{"type":"Polygon","coordinates":[[[2.91588,50.16303],[2.91671,50.16251],[2.91577,50.16303],[2.91588,50.16303]]]}},{"type":"Feature","properties":{"k":"BTN","s":2.477},"geometry":{"type":"Polygon","coordinates":[[[2.91701,50.16097],[2.91489,50.159],[2.91442,50.15917],[2.91657,50.1613],[2.91816,50.1622],[2.91918,50.16246],[2.91981,50.16248],[2.92005,50.16232],[2.91701,50.16097]]]}},{"type":"Feature","properties":{"k":"BTA","s":0.295},"geometry":{"type":"Polygon","coordinates":[[[2.91981,50.16248],[2.91918,50.16246],[2.91816,50.1622],[2.91642,50.16121],[2.91435,50.1592],[2.91637,50.16123],[2.91811,50.16224],[2.91917,50.1625],[2.91985,50.16252],[2.91999,50.16235],[2.91981,50.16248]]]}},{"type":"Feature","properties":{"k":"BTN","s":2.542},"geometry":{"type":"Polygon","coordinates":[[[2.9137,50.15985],[2.91438,50.16064],[2.91537,50.16131],[2.91728,50.16211],[2.91754,50.16195],[2.91632,50.16127],[2.91558,50.16061],[2.91366,50.15845],[2.91347,50.15846],[2.9137,50.15985]]]}},{"type":"Feature","properties":{"k":"BTA","s":0.241},"geometry":{"type":"Polygon","coordinates":[[[2.91558,50.16061],[2.91632,50.16127],[2.91754,50.16195],[2.91564,50.16059],[2.91368,50.15849],[2.91558,50.16061]]]}},{"type":"Feature","properties":{"k":"PTC","s":8.306},"geometry":{"type":"Polygon","coordinates":[[[2.91335,50.15848],[2.9098,50.1575],[2.91049,50.16141],[2.91348,50.16084],[2.91357,50.15939],[2.91335,50.15848]]]}},{"type":"Feature","properties":{"k":"LBF","s":0.552},"geometry":{"type":"Polygon","coordinates":[[[2.91577,50.16303],[2.91553,50.16316],[2.91867,50.16418],[2.91883,50.16399],[2.91577,50.16303]]]}},{"type":"Feature","properties":{"k":"PTC","s":10.137},"geometry":{"type":"Polygon","coordinates":[[[2.88361,50.1604],[2.88538,50.15952],[2.88329,50.15803],[2.8815,50.15825],[2.88179,50.15887],[2.88113,50.15897],[2.88087,50.15835],[2.87814,50.15886],[2.8812,50.16132],[2.88361,50.1604]]]}},{"type":"Feature","properties":{"k":"JAC","s":0.032},"geometry":{"type":"Polygon","coordinates":[[[2.90251,50.14992],[2.90333,50.14975],[2.9033,50.1497],[2.90251,50.14992]]]}},{"type":"Feature","properties":{"k":"JAC","s":0.024},"geometry":{"type":"Polygon","coordinates":[[[2.90333,50.14973],[2.90414,50.14957],[2.90412,50.14954],[2.90333,50.14973]]]}},{"type":"Feature","properties":{"k":"PPH","s":0.425},"geometry":{"type":"Polygon","coordinates":[[[2.90412,50.14956],[2.90457,50.14952],[2.90357,50.14794],[2.90332,50.14803],[2.90412,50.14956]]]}},{"type":"Feature","properties":{"k":"ORH","s":0.24},"geometry":{"type":"Polygon","coordinates":[[[2.9021,50.14917],[2.90173,50.14848],[2.90153,50.14855],[2.90229,50.14991],[2.90247,50.14987],[2.9021,50.14917]]]}},{"type":"Feature","properties":{"k":"ORH","s":1.04},"geometry":{"type":"Polygon","coordinates":[[[2.90248,50.14987],[2.9033,50.1497],[2.90254,50.14825],[2.90174,50.14849],[2.90248,50.14987]]]}},{"type":"Feature","properties":{"k":"OIG","s":8.598},"geometry":{"type":"Polygon","coordinates":[[[2.8915,50.15906],[2.88775,50.16108],[2.89025,50.16303],[2.89329,50.16127],[2.89216,50.16016],[2.8915,50.15906]]]}},{"type":"Feature","properties":{"k":"BTH","s":0.005},"geometry":{"type":"Polygon","coordinates":[[[2.89508,50.16179],[2.89512,50.16174],[2.89484,50.16171],[2.89508,50.16179]]]}},{"type":"Feature","properties":{"k":"BTH","s":0.154},"geometry":{"type":"Polygon","coordinates":[[[2.89381,50.16138],[2.89512,50.16174],[2.89532,50.16155],[2.89381,50.16138]]]}},{"type":"Feature","properties":{"k":"BTH","s":4.184},"geometry":{"type":"Polygon","coordinates":[[[2.89381,50.16138],[2.89532,50.16155],[2.89606,50.16083],[2.9013,50.16145],[2.90119,50.16104],[2.89229,50.16007],[2.89342,50.1612],[2.89381,50.16138]]]}},{"type":"Feature","properties":{"k":"BTH","s":14.053},"geometry":{"type":"Polygon","coordinates":[[[2.89229,50.16007],[2.90119,50.16104],[2.90111,50.15914],[2.89162,50.15811],[2.8917,50.15905],[2.89229,50.16007]]]}},{"type":"Feature","properties":{"k":"ORH","s":1.054},"geometry":{"type":"Polygon","coordinates":[[[2.90331,50.1497],[2.90412,50.14954],[2.90331,50.14801],[2.90255,50.14825],[2.90331,50.1497]]]}},{"type":"Feature","properties":{"k":"BTH","s":16.91},"geometry":{"type":"Polygon","coordinates":[[[2.90314,50.15714],[2.90167,50.15723],[2.9013,50.15813],[2.90124,50.15936],[2.90474,50.15935],[2.9052,50.16371],[2.90591,50.16406],[2.90737,50.16323],[2.90619,50.15677],[2.90313,50.15704],[2.90314,50.15714]]]}},{"type":"Feature","properties":{"k":"BTA","s":0.179},"geometry":{"type":"Polygon","coordinates":[[[2.90553,50.15176],[2.906,50.15165],[2.90592,50.15143],[2.90759,50.15102],[2.90787,50.15118],[2.90851,50.1506],[2.90867,50.15065],[2.9085,50.15053],[2.90786,50.15114],[2.90762,50.15097],[2.90583,50.15141],[2.90595,50.15162],[2.90545,50.15173],[2.90562,50.15204],[2.90553,50.15176]]]}},{"type":"Feature","properties":{"k":"BTN","s":1.771},"geometry":{"type":"Polygon","coordinates":[[[2.90851,50.1506],[2.9079,50.15118],[2.90759,50.15102],[2.90592,50.15143],[2.906,50.15165],[2.90553,50.15176],[2.90562,50.15204],[2.90926,50.1514],[2.90851,50.1506]]]}},{"type":"Feature","properties":{"k":"PPH","s":0.191},"geometry":{"type":"Polygon","coordinates":[[[2.90817,50.14986],[2.90848,50.15014],[2.90868,50.15006],[2.90887,50.15027],[2.90908,50.15019],[2.90876,50.1497],[2.90817,50.14986]]]}},{"type":"Feature","properties":{"k":"BTH","s":0.068},"geometry":{"type":"Polygon","coordinates":[[[2.90838,50.16267],[2.90619,50.1639],[2.90629,50.16393],[2.90838,50.16267]]]}},{"type":"Feature","properties":{"k":"BTH","s":14.231},"geometry":{"type":"Polygon","coordinates":[[[2.90671,50.15668],[2.90622,50.15678],[2.90739,50.16324],[2.91046,50.16143],[2.9098,50.15751],[2.90671,50.15668]]]}},{"type":"Feature","properties":{"k":"BTN","s":3.803},"geometry":{"type":"Polygon","coordinates":[[[2.90745,50.15347],[2.9083,50.1547],[2.91185,50.15423],[2.91135,50.15305],[2.90745,50.15347]]]}},{"type":"Feature","properties":{"k":"BTH","s":1.759},"geometry":{"type":"Polygon","coordinates":[[[2.92641,50.15431],[2.92715,50.15452],[2.93089,50.15109],[2.93069,50.15087],[2.92641,50.15431]]]}},{"type":"Feature","properties":{"k":"JAC","s":1.004},"geometry":{"type":"Polygon","coordinates":[[[2.89215,50.15552],[2.89139,50.15603],[2.8922,50.15613],[2.89227,50.15571],[2.89627,50.15616],[2.89642,50.15555],[2.89623,50.15587],[2.89215,50.15552]]]}},{"type":"Feature","properties":{"k":"BTH","s":1.098},"geometry":{"type":"Polygon","coordinates":[[[2.91946,50.12763],[2.91847,50.12692],[2.91838,50.12731],[2.92131,50.12939],[2.92165,50.12918],[2.91946,50.12763]]]}},{"type":"Feature","properties":{"k":"BTH","s":6.3},"geometry":{"type":"Polygon","coordinates":[[[2.91824,50.12765],[2.91541,50.1261],[2.91453,50.12814],[2.91781,50.13],[2.91824,50.12765]]]}},{"type":"Feature","properties":{"k":"BTH","s":5.909},"geometry":{"type":"Polygon","coordinates":[[[2.91257,50.12282],[2.91214,50.12383],[2.9183,50.12717],[2.9185,50.12672],[2.919,50.12633],[2.91257,50.12282]]]}},{"type":"Feature","properties":{"k":"BTH","s":3.071},"geometry":{"type":"Polygon","coordinates":[[[2.91697,50.15033],[2.91827,50.15083],[2.91939,50.15022],[2.91961,50.15036],[2.92139,50.14957],[2.92088,50.14863],[2.91697,50.15033]]]}},{"type":"Feature","properties":{"k":"BTN","s":1.909},"geometry":{"type":"Polygon","coordinates":[[[2.89642,50.14686],[2.89452,50.14853],[2.89616,50.14863],[2.89738,50.14762],[2.89642,50.14686]]]}},{"type":"Feature","properties":{"k":"BTH","s":4.792},"geometry":{"type":"Polygon","coordinates":[[[2.89199,50.14906],[2.89082,50.14835],[2.89013,50.14822],[2.89169,50.15097],[2.89564,50.15062],[2.89199,50.14906]]]}},{"type":"Feature","properties":{"k":"ORH","s":0.935},"geometry":{"type":"Polygon","coordinates":[[[2.89193,50.15131],[2.89604,50.15091],[2.89527,50.15092],[2.89519,50.15066],[2.89174,50.151],[2.89193,50.15131]]]}},{"type":"Feature","properties":{"k":"BTH","s":2.671},"geometry":{"type":"Polygon","coordinates":[[[2.91322,50.14803],[2.91474,50.14959],[2.91606,50.14905],[2.91516,50.1474],[2.91322,50.14803]]]}},{"type":"Feature","properties":{"k":"BOR","s":0.032},"geometry":{"type":"Polygon","coordinates":[[[2.89198,50.14888],[2.89196,50.14851],[2.89192,50.14844],[2.89174,50.14842],[2.89181,50.14887],[2.89178,50.14847],[2.89192,50.14851],[2.89195,50.14888],[2.89198,50.14888]]]}},{"type":"Feature","properties":{"k":"BTN","s":4.355},"geometry":{"type":"Polygon","coordinates":[[[2.92359,50.15322],[2.92222,50.15277],[2.92012,50.15455],[2.92073,50.15486],[2.9189,50.15645],[2.91956,50.15686],[2.92359,50.15322]]]}},{"type":"Feature","properties":{"k":"BTH","s":20.457},"geometry":{"type":"Polygon","coordinates":[[[2.88994,50.14811],[2.89369,50.14483],[2.89289,50.14416],[2.88963,50.14253],[2.8855,50.14611],[2.88594,50.14723],[2.88994,50.14811]]]}},{"type":"Feature","properties":{"k":"BTN","s":10.305},"geometry":{"type":"Polygon","coordinates":[[[2.88994,50.14811],[2.89094,50.1483],[2.89452,50.14853],[2.89642,50.14686],[2.89379,50.14474],[2.88994,50.14811]]]}},{"type":"Feature","properties":{"k":"JAC","s":0.543},"geometry":{"type":"Polygon","coordinates":[[[2.91137,50.14996],[2.91173,50.1505],[2.91278,50.15022],[2.91207,50.14958],[2.91137,50.14996]]]}},{"type":"Feature","properties":{"k":"BTN","s":5.968},"geometry":{"type":"Polygon","coordinates":[[[2.88352,50.13935],[2.88425,50.13973],[2.89109,50.13483],[2.89031,50.1343],[2.88349,50.13918],[2.88352,50.13935]]]}},{"type":"Feature","properties":{"k":"PTC","s":2.548},"geometry":{"type":"Polygon","coordinates":[[[2.88525,50.14022],[2.89023,50.13732],[2.88968,50.13691],[2.88476,50.13997],[2.88525,50.14022]]]}},{"type":"Feature","properties":{"k":"PTC","s":4.549},"geometry":{"type":"Polygon","coordinates":[[[2.88624,50.14074],[2.89125,50.13806],[2.89025,50.13734],[2.88528,50.14024],[2.88624,50.14074]]]}},{"type":"Feature","properties":{"k":"BOR","s":0.015},"geometry":{"type":"Polygon","coordinates":[[[2.88627,50.14072],[2.88624,50.14074],[2.88706,50.14114],[2.88627,50.14072]]]}},{"type":"Feature","properties":{"k":"BTN","s":9.823},"geometry":{"type":"Polygon","coordinates":[[[2.91606,50.14905],[2.91474,50.14959],[2.91697,50.15033],[2.9199,50.14903],[2.91828,50.14612],[2.91516,50.1474],[2.91606,50.14905]]]}},{"type":"Feature","properties":{"k":"MIS","s":5.3},"geometry":{"type":"Polygon","coordinates":[[[2.91754,50.14636],[2.91873,50.14571],[2.91406,50.14243],[2.91322,50.14331],[2.91754,50.14636]]]}},{"type":"Feature","properties":{"k":"PTC","s":6.307},"geometry":{"type":"Polygon","coordinates":[[[2.92157,50.14397],[2.92154,50.1439],[2.92024,50.14482],[2.92253,50.14905],[2.92397,50.14841],[2.92157,50.14397]]]}},{"type":"Feature","properties":{"k":"PTC","s":5.759},"geometry":{"type":"Polygon","coordinates":[[[2.91433,50.14955],[2.91312,50.1501],[2.91143,50.15058],[2.91206,50.15146],[2.91366,50.15241],[2.91647,50.15029],[2.91433,50.14955]]]}},{"type":"Feature","properties":{"k":"PTC","s":3.557},"geometry":{"type":"Polygon","coordinates":[[[2.91455,50.1532],[2.91781,50.15073],[2.91647,50.15028],[2.91366,50.15241],[2.91455,50.1532]]]}},{"type":"Feature","properties":{"k":"LBF","s":7.756},"geometry":{"type":"Polygon","coordinates":[[[2.91869,50.1512],[2.91803,50.15171],[2.91763,50.1515],[2.91829,50.15098],[2.9178,50.15074],[2.91455,50.1532],[2.91636,50.15473],[2.92001,50.15189],[2.91869,50.1512]]]}},{"type":"Feature","properties":{"k":"MIS","s":3.275},"geometry":{"type":"Polygon","coordinates":[[[2.91384,50.15266],[2.91304,50.15217],[2.91244,50.15262],[2.91314,50.15495],[2.91391,50.15493],[2.91515,50.15397],[2.91384,50.15266]]]}},{"type":"Feature","properties":{"k":"BTA","s":0.439},"geometry":{"type":"Polygon","coordinates":[[[2.913,50.15796],[2.9126,50.15616],[2.91191,50.15423],[2.91178,50.15425],[2.91288,50.15802],[2.91334,50.1582],[2.913,50.15796]]]}},{"type":"Feature","properties":{"k":"BTH","s":2.148},"geometry":{"type":"Polygon","coordinates":[[[2.91264,50.15343],[2.9119,50.15359],[2.9131,50.15793],[2.9133,50.15803],[2.91324,50.15732],[2.91343,50.15733],[2.91348,50.15694],[2.91264,50.15343]]]}},{"type":"Feature","properties":{"k":"BTH","s":6.609},"geometry":{"type":"Polygon","coordinates":[[[2.90985,50.15449],[2.9104,50.15763],[2.91323,50.1584],[2.91334,50.1582],[2.91288,50.15802],[2.9118,50.15424],[2.90985,50.15449]]]}},{"type":"Feature","properties":{"k":"JAC","s":0.069},"geometry":{"type":"Polygon","coordinates":[[[2.9133,50.15803],[2.91335,50.15805],[2.91343,50.15733],[2.91324,50.15732],[2.9133,50.15803]]]}},{"type":"Feature","properties":{"k":"BTH","s":6.549},"geometry":{"type":"Polygon","coordinates":[[[2.89887,50.14545],[2.89715,50.14343],[2.89383,50.14467],[2.89605,50.1465],[2.89887,50.14545]]]}},{"type":"Feature","properties":{"k":"PPH","s":1.271},"geometry":{"type":"Polygon","coordinates":[[[2.90401,50.14449],[2.90531,50.14417],[2.90441,50.14307],[2.90342,50.14335],[2.90363,50.14356],[2.90322,50.14371],[2.90381,50.14437],[2.90401,50.14449]],[[2.90376,50.14335],[2.90398,50.14328],[2.90407,50.14341],[2.90385,50.14348],[2.90376,50.14335]],[[2.90361,50.1434],[2.90368,50.14338],[2.90379,50.14351],[2.90361,50.1434]],[[2.90353,50.1438],[2.90372,50.14373],[2.90375,50.14376],[2.90353,50.1438]],[[2.90383,50.14386],[2.90377,50.14379],[2.90383,50.14376],[2.90383,50.14386]],[[2.90361,50.14411],[2.90349,50.14396],[2.90378,50.14388],[2.90388,50.14404],[2.90361,50.14411]]]}},{"type":"Feature","properties":{"k":"PPH","s":0.604},"geometry":{"type":"Polygon","coordinates":[[[2.90429,50.14698],[2.90411,50.14681],[2.90505,50.14647],[2.90459,50.14643],[2.90449,50.14626],[2.90308,50.14656],[2.90368,50.14714],[2.90429,50.14698]]]}},{"type":"Feature","properties":{"k":"PPH","s":6.128},"geometry":{"type":"Polygon","coordinates":[[[2.90229,50.14823],[2.90175,50.14758],[2.90347,50.14701],[2.90256,50.14622],[2.89985,50.14718],[2.89965,50.14702],[2.89949,50.14685],[2.9021,50.14591],[2.90189,50.14567],[2.89794,50.14709],[2.90013,50.14878],[2.90229,50.14823]]]}},{"type":"Feature","properties":{"k":"BTH","s":11.111},"geometry":{"type":"Polygon","coordinates":[[[2.89556,50.13579],[2.90232,50.13488],[2.90111,50.13359],[2.8916,50.13485],[2.89356,50.13631],[2.89556,50.13579]]]}},{"type":"Feature","properties":{"k":"PHF","s":5.097},"geometry":{"type":"Polygon","coordinates":[[[2.89575,50.13425],[2.90114,50.1335],[2.90076,50.13245],[2.89516,50.13312],[2.89575,50.13425]]]}},{"type":"Feature","properties":{"k":"PTC","s":8.004},"geometry":{"type":"Polygon","coordinates":[[[2.90088,50.13087],[2.89433,50.13144],[2.89516,50.13312],[2.90076,50.13245],[2.90088,50.13087]]]}},{"type":"Feature","properties":{"k":"PTC","s":10.918},"geometry":{"type":"Polygon","coordinates":[[[2.90088,50.13087],[2.90143,50.12919],[2.89334,50.12941],[2.89433,50.13144],[2.90088,50.13087]]]}},{"type":"Feature","properties":{"k":"BTH","s":5.038},"geometry":{"type":"Polygon","coordinates":[[[2.90189,50.14564],[2.9012,50.1447],[2.90071,50.14477],[2.89605,50.1465],[2.89715,50.14736],[2.90189,50.14564]]]}},{"type":"Feature","properties":{"k":"BTN","s":5.519},"geometry":{"type":"Polygon","coordinates":[[[2.90565,50.15208],[2.90571,50.1525],[2.90677,50.15238],[2.90745,50.15346],[2.91129,50.15306],[2.91046,50.15168],[2.90963,50.15194],[2.90926,50.1514],[2.90565,50.15208]]]}},{"type":"Feature","properties":{"k":"LIF","s":18.77},"geometry":{"type":"Polygon","coordinates":[[[2.90141,50.12961],[2.91052,50.13029],[2.9103,50.12932],[2.91058,50.12831],[2.91034,50.12758],[2.90223,50.12697],[2.90141,50.12961]]]}},{"type":"Feature","properties":{"k":"BOR","s":0.072},"geometry":{"type":"Polygon","coordinates":[[[2.91108,50.13117],[2.91051,50.12984],[2.91089,50.13118],[2.91089,50.13107],[2.91108,50.13117]]]}},{"type":"Feature","properties":{"k":"BTH","s":2.36},"geometry":{"type":"Polygon","coordinates":[[[2.89528,50.13758],[2.90036,50.13687],[2.90011,50.13634],[2.8946,50.13712],[2.89528,50.13758]]]}},{"type":"Feature","properties":{"k":"BTH","s":7.538},"geometry":{"type":"Polygon","coordinates":[[[2.90231,50.13489],[2.89579,50.13576],[2.89606,50.13608],[2.89362,50.13646],[2.8946,50.13712],[2.90312,50.13591],[2.90231,50.13489]]]}},{"type":"Feature","properties":{"k":"BTH","s":7.221},"geometry":{"type":"Polygon","coordinates":[[[2.9011,50.13055],[2.91077,50.1313],[2.91052,50.13029],[2.90141,50.12961],[2.9011,50.13055]]]}},{"type":"Feature","properties":{"k":"BTN","s":6.832},"geometry":{"type":"Polygon","coordinates":[[[2.90084,50.13142],[2.91086,50.13214],[2.91077,50.1313],[2.9011,50.13055],[2.90084,50.13142]]]}},{"type":"Feature","properties":{"k":"PTC","s":10.156},"geometry":{"type":"Polygon","coordinates":[[[2.91079,50.13372],[2.91084,50.13292],[2.90652,50.13258],[2.90651,50.13184],[2.90084,50.13142],[2.90108,50.13307],[2.91079,50.13372]]]}},{"type":"Feature","properties":{"k":"BTH","s":4.723},"geometry":{"type":"Polygon","coordinates":[[[2.88168,50.14739],[2.88175,50.14859],[2.88691,50.14875],[2.88585,50.1474],[2.88168,50.14739]]]}},{"type":"Feature","properties":{"k":"BTH","s":12.349},"geometry":{"type":"Polygon","coordinates":[[[2.88691,50.14875],[2.88175,50.14859],[2.8819,50.15125],[2.88843,50.15143],[2.88691,50.14875]]]}},{"type":"Feature","properties":{"k":"FLA","s":5.252},"geometry":{"type":"Polygon","coordinates":[[[2.87702,50.15329],[2.87665,50.14759],[2.87552,50.14771],[2.8758,50.1533],[2.87702,50.15329]]]}},{"type":"Feature","properties":{"k":"BTH","s":5.302},"geometry":{"type":"Polygon","coordinates":[[[2.87426,50.14807],[2.87461,50.15332],[2.8758,50.1533],[2.87552,50.14771],[2.87426,50.14807]]]}},{"type":"Feature","properties":{"k":"BTH","s":2.935},"geometry":{"type":"Polygon","coordinates":[[[2.90045,50.15568],[2.89642,50.15555],[2.89627,50.15616],[2.90139,50.15665],[2.90148,50.15606],[2.90056,50.15606],[2.90045,50.15568]]]}},{"type":"Feature","properties":{"k":"JAC","s":0.135},"geometry":{"type":"Polygon","coordinates":[[[2.90139,50.15665],[2.90166,50.15667],[2.90177,50.15606],[2.90148,50.15606],[2.90139,50.15665]]]}},{"type":"Feature","properties":{"k":"JAC","s":0.198},"geometry":{"type":"Polygon","coordinates":[[[2.89526,50.13591],[2.89347,50.13633],[2.8936,50.13642],[2.89557,50.13599],[2.89526,50.13591]]]}},{"type":"Feature","properties":{"k":"BTH","s":4.367},"geometry":{"type":"Polygon","coordinates":[[[2.87354,50.15334],[2.8746,50.15332],[2.87426,50.14807],[2.87334,50.14831],[2.87354,50.15334]]]}},{"type":"Feature","properties":{"k":"BTH","s":8.066},"geometry":{"type":"Polygon","coordinates":[[[2.92395,50.14851],[2.92002,50.15024],[2.91867,50.15106],[2.92046,50.15199],[2.92558,50.14957],[2.92429,50.14849],[2.92395,50.14851]]]}},{"type":"Feature","properties":{"k":"BTH","s":0.223},"geometry":{"type":"Polygon","coordinates":[[[2.91046,50.15168],[2.91059,50.15187],[2.90986,50.15065],[2.91024,50.15142],[2.90944,50.1517],[2.90963,50.15194],[2.91046,50.15168]]]}},{"type":"Feature","properties":{"k":"BTH","s":6.585},"geometry":{"type":"Polygon","coordinates":[[[2.92706,50.15046],[2.92621,50.15012],[2.92558,50.14957],[2.92046,50.15199],[2.92264,50.15279],[2.92706,50.15046]]]}},{"type":"Feature","properties":{"k":"PHF","s":9.503},"geometry":{"type":"Polygon","coordinates":[[[2.92903,50.15221],[2.92814,50.15164],[2.92707,50.15046],[2.92264,50.15279],[2.92641,50.15431],[2.92903,50.15221]]]}},{"type":"Feature","properties":{"k":"BTN","s":8.302},"geometry":{"type":"Polygon","coordinates":[[[2.92001,50.15189],[2.91636,50.15473],[2.91833,50.15608],[2.92223,50.15276],[2.92001,50.15189]]]}},{"type":"Feature","properties":{"k":"MIS","s":0.13},"geometry":{"type":"Polygon","coordinates":[[[2.89527,50.15093],[2.89601,50.15085],[2.89564,50.15062],[2.89519,50.15066],[2.89527,50.15093]]]}},{"type":"Feature","properties":{"k":"PTC","s":10.952},"geometry":{"type":"MultiPolygon","coordinates":[[[[2.89829,50.15198],[2.89877,50.15186],[2.89957,50.15046],[2.8994,50.14969],[2.90016,50.14889],[2.89908,50.14907],[2.89551,50.14864],[2.89174,50.14842],[2.89192,50.14844],[2.89196,50.14851],[2.89198,50.14888],[2.89191,50.14896],[2.89492,50.15011],[2.89651,50.15102],[2.89708,50.151],[2.89709,50.15136],[2.89829,50.15198]]],[[[2.89173,50.14842],[2.89179,50.14891],[2.89191,50.14896],[2.89178,50.14847],[2.89181,50.14887],[2.89174,50.14842],[2.89173,50.14842]]]]}},{"type":"Feature","properties":{"k":"PTC","s":12.818},"geometry":{"type":"Polygon","coordinates":[[[2.8914,50.15198],[2.89179,50.15194],[2.89306,50.15265],[2.89371,50.15227],[2.89486,50.15304],[2.89546,50.15378],[2.897,50.15381],[2.89837,50.15363],[2.89895,50.15353],[2.8988,50.15317],[2.89916,50.15312],[2.89808,50.15198],[2.89611,50.15091],[2.88869,50.15158],[2.88952,50.15323],[2.8914,50.15198]]]}},{"type":"Feature","properties":{"k":"BTH","s":12.486},"geometry":{"type":"Polygon","coordinates":[[[2.90111,50.15914],[2.90132,50.1575],[2.89286,50.15654],[2.89271,50.15684],[2.89215,50.15679],[2.89204,50.15703],[2.89154,50.15695],[2.89162,50.15811],[2.90111,50.15914]]]}},{"type":"Feature","properties":{"k":"BTH","s":4.441},"geometry":{"type":"Polygon","coordinates":[[[2.89132,50.13485],[2.89557,50.13426],[2.89511,50.13322],[2.8898,50.13384],[2.89132,50.13485]]]}},{"type":"Feature","properties":{"k":"BTH","s":7.464},"geometry":{"type":"Polygon","coordinates":[[[2.8834,50.14055],[2.88324,50.14244],[2.88413,50.14387],[2.88711,50.14124],[2.8832,50.13926],[2.8834,50.14055]]]}},{"type":"Feature","properties":{"k":"PPH","s":0.136},"geometry":{"type":"Polygon","coordinates":[[[2.91058,50.14446],[2.91056,50.14434],[2.90956,50.14468],[2.90964,50.14487],[2.91058,50.14446]]]}},{"type":"Feature","properties":{"k":"BOR","s":0.03},"geometry":{"type":"Polygon","coordinates":[[[2.89447,50.13716],[2.89373,50.13671],[2.89464,50.13732],[2.89447,50.13716]]]}},{"type":"Feature","properties":{"k":"BTH","s":2.398},"geometry":{"type":"Polygon","coordinates":[[[2.92064,50.14819],[2.92144,50.14956],[2.922,50.14929],[2.9198,50.14521],[2.91921,50.14559],[2.92064,50.14819]]]}},{"type":"Feature","properties":{"k":"PTC","s":2.872},"geometry":{"type":"Polygon","coordinates":[[[2.92088,50.14863],[2.9192,50.14558],[2.91828,50.14612],[2.9199,50.14903],[2.92088,50.14863]]]}},{"type":"Feature","properties":{"k":"PTC","s":9.776},"geometry":{"type":"Polygon","coordinates":[[[2.88707,50.14872],[2.88869,50.15158],[2.89193,50.15131],[2.89012,50.14822],[2.88601,50.14735],[2.88707,50.14872]]]}},{"type":"Feature","properties":{"k":"JAC","s":0.146},"geometry":{"type":"Polygon","coordinates":[[[2.90521,50.15318],[2.90518,50.15336],[2.90724,50.15318],[2.90521,50.15318]]]}},{"type":"Feature","properties":{"k":"MIS","s":1.043},"geometry":{"type":"Polygon","coordinates":[[[2.90315,50.15557],[2.90437,50.15553],[2.90321,50.15448],[2.90209,50.15566],[2.90315,50.15557]]]}},{"type":"Feature","properties":{"k":"JAC","s":0.136},"geometry":{"type":"Polygon","coordinates":[[[2.89343,50.13634],[2.89356,50.13631],[2.89247,50.13549],[2.89238,50.13557],[2.89343,50.13634]]]}},{"type":"Feature","properties":{"k":"BTN","s":3.104},"geometry":{"type":"Polygon","coordinates":[[[2.89989,50.14932],[2.90078,50.15093],[2.90151,50.15077],[2.90169,50.15111],[2.9021,50.15102],[2.90185,50.15054],[2.90257,50.15041],[2.90151,50.14854],[2.89989,50.14932]]]}},{"type":"Feature","properties":{"k":"MIS","s":1.791},"geometry":{"type":"Polygon","coordinates":[[[2.89951,50.14978],[2.89965,50.15054],[2.89887,50.15188],[2.90098,50.15131],[2.89986,50.14933],[2.89951,50.14978]]]}},{"type":"Feature","properties":{"k":"BOR","s":0.046},"geometry":{"type":"Polygon","coordinates":[[[2.89708,50.151],[2.89651,50.15102],[2.89699,50.15103],[2.89709,50.15136],[2.89708,50.151]]]}},{"type":"Feature","properties":{"k":"BTA","s":0.065},"geometry":{"type":"Polygon","coordinates":[[[2.90571,50.1525],[2.90558,50.15209],[2.90565,50.15256],[2.90676,50.15238],[2.90571,50.1525]]]}},{"type":"Feature","properties":{"k":"BTH","s":9.264},"geometry":{"type":"Polygon","coordinates":[[[2.91322,50.1433],[2.91172,50.14508],[2.91262,50.14576],[2.91363,50.1473],[2.91601,50.14691],[2.91754,50.14636],[2.91322,50.1433]]]}},{"type":"Feature","properties":{"k":"BTH","s":5.639},"geometry":{"type":"Polygon","coordinates":[[[2.88337,50.13927],[2.89031,50.1343],[2.88988,50.134],[2.88764,50.13559],[2.88714,50.13531],[2.88302,50.13819],[2.88337,50.13927]]]}},{"type":"Feature","properties":{"k":"BTN","s":2.619},"geometry":{"type":"Polygon","coordinates":[[[2.90651,50.13184],[2.90652,50.13258],[2.91084,50.13292],[2.91085,50.13214],[2.90651,50.13184]]]}},{"type":"Feature","properties":{"k":"JAC","s":0.105},"geometry":{"type":"Polygon","coordinates":[[[2.90191,50.15056],[2.90253,50.15037],[2.90185,50.15054],[2.9021,50.15102],[2.90169,50.15111],[2.90151,50.15077],[2.90078,50.15093],[2.90146,50.15083],[2.90164,50.15116],[2.90219,50.15105],[2.90191,50.15056]]]}},{"type":"Feature","properties":{"k":"BTN","s":2.143},"geometry":{"type":"Polygon","coordinates":[[[2.89633,50.15514],[2.89312,50.15487],[2.89215,50.15552],[2.89623,50.15587],[2.89633,50.15514]]]}},{"type":"Feature","properties":{"k":"BTH","s":8.757},"geometry":{"type":"Polygon","coordinates":[[[2.88804,50.15478],[2.88812,50.15349],[2.88951,50.15351],[2.88927,50.15308],[2.88199,50.15289],[2.88209,50.15461],[2.88804,50.15478]]]}},{"type":"Feature","properties":{"k":"BTH","s":4.1},"geometry":{"type":"Polygon","coordinates":[[[2.89204,50.13549],[2.88968,50.13691],[2.89124,50.13806],[2.89376,50.13669],[2.89204,50.13549]]]}},{"type":"Feature","properties":{"k":"MIS","s":1.06},"geometry":{"type":"Polygon","coordinates":[[[2.91715,50.15538],[2.91445,50.15773],[2.91465,50.15802],[2.91748,50.1556],[2.91715,50.15538]]]}},{"type":"Feature","properties":{"k":"BTN","s":1.066},"geometry":{"type":"Polygon","coordinates":[[[2.89827,50.14885],[2.89739,50.14761],[2.89616,50.14863],[2.89827,50.14885]]]}},{"type":"Feature","properties":{"k":"BTH","s":8.512},"geometry":{"type":"Polygon","coordinates":[[[2.8822,50.15799],[2.88194,50.15319],[2.87981,50.15323],[2.88008,50.15838],[2.8822,50.15799]]]}},{"type":"Feature","properties":{"k":"BTH","s":2.132},"geometry":{"type":"Polygon","coordinates":[[[2.92201,50.14928],[2.92253,50.14905],[2.92024,50.14482],[2.91979,50.14517],[2.92201,50.14928]]]}},{"type":"Feature","properties":{"k":"BTN","s":4.981},"geometry":{"type":"Polygon","coordinates":[[[2.88789,50.14155],[2.89537,50.13778],[2.89467,50.1373],[2.88706,50.14114],[2.88789,50.14155]]]}},{"type":"Feature","properties":{"k":"BTH","s":8.902},"geometry":{"type":"Polygon","coordinates":[[[2.89012,50.15657],[2.89014,50.15656],[2.888,50.15535],[2.88804,50.15476],[2.88209,50.15463],[2.88229,50.1563],[2.89012,50.15657]]]}},{"type":"Feature","properties":{"k":"BTN","s":8.958},"geometry":{"type":"Polygon","coordinates":[[[2.88199,50.15289],[2.88927,50.15308],[2.88842,50.15143],[2.8819,50.15125],[2.88199,50.15289]]]}},{"type":"Feature","properties":{"k":"BTA","s":0.017},"geometry":{"type":"Polygon","coordinates":[[[2.91049,50.15165],[2.91055,50.15163],[2.91039,50.15137],[2.91049,50.15165]]]}},{"type":"Feature","properties":{"k":"BTH","s":1.387},"geometry":{"type":"Polygon","coordinates":[[[2.89794,50.14709],[2.89715,50.14736],[2.89778,50.14787],[2.89821,50.14777],[2.89897,50.14894],[2.90014,50.14878],[2.89794,50.14709]]]}},{"type":"Feature","properties":{"k":"BTH","s":5.006},"geometry":{"type":"Polygon","coordinates":[[[2.90724,50.15318],[2.90518,50.15336],[2.90433,50.15429],[2.90371,50.15398],[2.90321,50.15448],[2.90405,50.1552],[2.9083,50.1547],[2.90724,50.15318]]]}},{"type":"Feature","properties":{"k":"BTN","s":5.673},"geometry":{"type":"Polygon","coordinates":[[[2.90132,50.1575],[2.90166,50.15667],[2.89227,50.15571],[2.8922,50.15613],[2.89294,50.15631],[2.89293,50.15655],[2.90132,50.1575]]]}},{"type":"Feature","properties":{"k":"BTN","s":9.729},"geometry":{"type":"Polygon","coordinates":[[[2.8855,50.14611],[2.88963,50.14253],[2.88711,50.14124],[2.88413,50.14387],[2.8855,50.14611]]]}},{"type":"Feature","properties":{"k":"PHF","s":4.602},"geometry":{"type":"Polygon","coordinates":[[[2.92445,50.15358],[2.9206,50.15747],[2.92161,50.15805],[2.92535,50.15405],[2.92445,50.15358]]]}},{"type":"Feature","properties":{"k":"BTH","s":5.132},"geometry":{"type":"Polygon","coordinates":[[[2.88475,50.13997],[2.89205,50.13549],[2.89109,50.13483],[2.88425,50.13973],[2.88475,50.13997]]]}},{"type":"Feature","properties":{"k":"BTH","s":2.396},"geometry":{"type":"Polygon","coordinates":[[[2.91465,50.15802],[2.91517,50.15864],[2.91812,50.15604],[2.91748,50.1556],[2.91465,50.15802]]]}},{"type":"Feature","properties":{"k":"JAC","s":0.044},"geometry":{"type":"Polygon","coordinates":[[[2.89294,50.15631],[2.89224,50.15614],[2.89222,50.15628],[2.89291,50.15635],[2.89294,50.15651],[2.89294,50.15631]]]}},{"type":"Feature","properties":{"k":"BTH","s":0.245},"geometry":{"type":"MultiPolygon","coordinates":[[[[2.87695,50.15633],[2.87696,50.15885],[2.87713,50.15883],[2.87695,50.15633]]],[[[2.87356,50.15334],[2.87675,50.1534],[2.87674,50.15329],[2.87356,50.15334]]]]}},{"type":"Feature","properties":{"k":"PTC","s":5.746},"geometry":{"type":"Polygon","coordinates":[[[2.88844,50.13954],[2.88627,50.14072],[2.88707,50.14113],[2.89464,50.13732],[2.89373,50.13671],[2.88844,50.13954]]]}},{"type":"Feature","properties":{"k":"BTH","s":34.536},"geometry":{"type":"Polygon","coordinates":[[[2.87666,50.14777],[2.87708,50.15328],[2.87674,50.15329],[2.87713,50.15883],[2.88008,50.15838],[2.87981,50.15323],[2.88194,50.15319],[2.88184,50.15142],[2.8809,50.15142],[2.8809,50.15098],[2.88181,50.15098],[2.88164,50.14812],[2.88062,50.14811],[2.88063,50.14769],[2.88162,50.14769],[2.8816,50.14747],[2.87975,50.1474],[2.87735,50.14756],[2.87741,50.14774],[2.87666,50.14777]]]}},{"type":"Feature","properties":{"k":"BTH","s":0.223},"geometry":{"type":"Polygon","coordinates":[[[2.91046,50.15168],[2.91059,50.15187],[2.90986,50.15065],[2.91024,50.15142],[2.90944,50.1517],[2.90963,50.15194],[2.91046,50.15168]]]}},{"type":"Feature","properties":{"k":"PHF","s":11.061},"geometry":{"type":"Polygon","coordinates":[[[2.8915,50.15906],[2.89109,50.15628],[2.88768,50.15812],[2.88568,50.15947],[2.88775,50.16108],[2.8915,50.15906]]]}},{"type":"Feature","properties":{"k":"OEI","s":2.14},"geometry":{"type":"Polygon","coordinates":[[[2.89313,50.15486],[2.89633,50.15514],[2.8964,50.15393],[2.89478,50.15402],[2.89313,50.15486]]]}},{"type":"Feature","properties":{"k":"BTA","s":0.012},"geometry":{"type":"Polygon","coordinates":[[[2.91066,50.15187],[2.91055,50.15163],[2.91048,50.15165],[2.91066,50.15187]]]}},{"type":"Feature","properties":{"k":"PTC","s":4.966},"geometry":{"type":"Polygon","coordinates":[[[2.89982,50.15442],[2.89968,50.15425],[2.89924,50.15435],[2.89893,50.15366],[2.8964,50.15393],[2.89629,50.15555],[2.90044,50.15568],[2.89982,50.15442]]]}},{"type":"Feature","properties":{"k":"PHF","s":8.751},"geometry":{"type":"Polygon","coordinates":[[[2.88405,50.15794],[2.88693,50.15827],[2.89012,50.15657],[2.88219,50.15629],[2.8823,50.15801],[2.88405,50.15794]]]}},{"type":"Feature","properties":{"k":"BTH","s":4.287},"geometry":{"type":"Polygon","coordinates":[[[2.92057,50.15746],[2.92443,50.15359],[2.9236,50.15321],[2.91959,50.15684],[2.92057,50.15746]]]}},{"type":"Feature","properties":{"k":"PTC","s":0.006},"geometry":{"type":"Polygon","coordinates":[[[2.90247,50.14987],[2.90229,50.14992],[2.90231,50.14995],[2.90247,50.14987]]]}},{"type":"Feature","properties":{"k":"BTN","s":4.99},"geometry":{"type":"Polygon","coordinates":[[[2.92157,50.14397],[2.92397,50.14841],[2.92512,50.14789],[2.92276,50.14358],[2.92157,50.14397]]]}}]}