{"type":"FeatureCollection","features":[{"type":"Feature","properties":{"k":"BTH","s":3.977},"geometry":{"type":"Polygon","coordinates":[[[2.18908,50.48041],[2.19022,50.48293],[2.19211,50.48124],[2.19157,50.48],[2.18908,50.48041]]]}},{"type":"Feature","properties":{"k":"BTH","s":3.154},"geometry":{"type":"Polygon","coordinates":[[[2.18171,50.48063],[2.18209,50.48152],[2.18626,50.4808],[2.1859,50.47992],[2.18171,50.48063]]]}},{"type":"Feature","properties":{"k":"MIS","s":3.849},"geometry":{"type":"Polygon","coordinates":[[[2.1859,50.47992],[2.18546,50.47883],[2.18125,50.47956],[2.18171,50.48064],[2.1859,50.47992]]]}},{"type":"Feature","properties":{"k":"BTH","s":4.634},"geometry":{"type":"MultiPolygon","coordinates":[[[[2.18626,50.48079],[2.18832,50.48044],[2.18721,50.47777],[2.18515,50.47814],[2.18626,50.48079]]]]}},{"type":"Feature","properties":{"k":"PTC","s":0.0},"geometry":{"type":"Polygon","coordinates":[]}},{"type":"Feature","properties":{"k":"PPH","s":0.0},"geometry":{"type":"Polygon","coordinates":[]}},{"type":"Feature","properties":{"k":"BTH","s":5.256},"geometry":{"type":"Polygon","coordinates":[[[2.17549,50.47746],[2.17604,50.47883],[2.18054,50.47807],[2.18008,50.47674],[2.17549,50.47746]]]}},{"type":"Feature","properties":{"k":"CAR","s":9.353},"geometry":{"type":"Polygon","coordinates":[[[2.18165,50.48084],[2.18082,50.47883],[2.17539,50.47978],[2.17615,50.48179],[2.18165,50.48084]]]}},{"type":"Feature","properties":{"k":"BTH","s":7.647},"geometry":{"type":"Polygon","coordinates":[[[2.18165,50.48085],[2.17614,50.4818],[2.17538,50.47977],[2.17332,50.48012],[2.17432,50.48284],[2.17497,50.48259],[2.1746,50.48148],[2.17491,50.48143],[2.17513,50.48269],[2.1819,50.48145],[2.18165,50.48085]]]}},{"type":"Feature","properties":{"k":"BTN","s":11.229},"geometry":{"type":"Polygon","coordinates":[[[2.18052,50.48432],[2.18094,50.48435],[2.18088,50.48491],[2.18117,50.48494],[2.18133,50.48309],[2.18216,50.48329],[2.18206,50.48501],[2.18306,50.48503],[2.18271,50.48334],[2.18194,50.4817],[2.17532,50.4828],[2.17654,50.48416],[2.17862,50.48391],[2.179,50.48471],[2.18049,50.48486],[2.18052,50.48432]]]}},{"type":"Feature","properties":{"k":"CZH","s":1.01},"geometry":{"type":"Polygon","coordinates":[[[2.17654,50.48416],[2.17691,50.48458],[2.179,50.48471],[2.17862,50.48391],[2.17654,50.48416]]]}},{"type":"Feature","properties":{"k":"MIS","s":1.198},"geometry":{"type":"Polygon","coordinates":[[[2.18216,50.48329],[2.18133,50.48309],[2.18117,50.48493],[2.18205,50.48496],[2.18216,50.48329]]]}},{"type":"Feature","properties":{"k":"PTC","s":0.814},"geometry":{"type":"Polygon","coordinates":[[[2.18411,50.48128],[2.18349,50.48139],[2.18412,50.4828],[2.18486,50.4829],[2.18411,50.48128]]]}},{"type":"Feature","properties":{"k":"MIS","s":1.26},"geometry":{"type":"Polygon","coordinates":[[[2.18219,50.48165],[2.18253,50.48257],[2.18404,50.48279],[2.18334,50.48141],[2.18219,50.48165]]]}},{"type":"Feature","properties":{"k":"PTC","s":1.078},"geometry":{"type":"Polygon","coordinates":[[[2.18486,50.4829],[2.1858,50.48304],[2.18481,50.48114],[2.18411,50.48127],[2.18486,50.4829]]]}},{"type":"Feature","properties":{"k":"PTC","s":0.855},"geometry":{"type":"Polygon","coordinates":[[[2.18616,50.4809],[2.18561,50.481],[2.18642,50.48274],[2.18703,50.48283],[2.18616,50.4809]]]}},{"type":"Feature","properties":{"k":"CZH","s":2.34},"geometry":{"type":"Polygon","coordinates":[[[2.1857,50.48301],[2.18951,50.48357],[2.18986,50.48322],[2.18642,50.48274],[2.18561,50.481],[2.18481,50.48113],[2.1857,50.48301]]]}},{"type":"Feature","properties":{"k":"BTH","s":5.883},"geometry":{"type":"Polygon","coordinates":[[[2.18703,50.48283],[2.18986,50.48322],[2.19022,50.48293],[2.18908,50.48041],[2.18617,50.48091],[2.18703,50.48283]]]}},{"type":"Feature","properties":{"k":"BTH","s":4.453},"geometry":{"type":"Polygon","coordinates":[[[2.1829,50.48343],[2.18835,50.48439],[2.18949,50.48357],[2.18253,50.48257],[2.1829,50.48343]]]}},{"type":"Feature","properties":{"k":"PTR","s":5.348},"geometry":{"type":"Polygon","coordinates":[[[2.18341,50.48513],[2.18635,50.48557],[2.18835,50.48439],[2.1829,50.48343],[2.18341,50.48513]]]}},{"type":"Feature","properties":{"k":"MIS","s":0.985},"geometry":{"type":"Polygon","coordinates":[[[2.18706,50.48676],[2.18312,50.48723],[2.18315,50.48752],[2.18699,50.48712],[2.18706,50.48676]]]}},{"type":"Feature","properties":{"k":"MIS","s":1.619},"geometry":{"type":"Polygon","coordinates":[[[2.18721,50.48641],[2.18741,50.48561],[2.1864,50.48564],[2.18427,50.48661],[2.18357,50.48678],[2.18361,50.4869],[2.18721,50.48641]]]}},{"type":"Feature","properties":{"k":"BTH","s":2.092},"geometry":{"type":"Polygon","coordinates":[[[2.18329,50.48518],[2.18316,50.48682],[2.18428,50.48654],[2.1863,50.48561],[2.18329,50.48518]]]}},{"type":"Feature","properties":{"k":"BTH","s":5.3},"geometry":{"type":"Polygon","coordinates":[[[2.18741,50.48561],[2.18721,50.48641],[2.18316,50.48703],[2.18316,50.48723],[2.18711,50.48678],[2.18643,50.48928],[2.18749,50.49027],[2.18875,50.48571],[2.18741,50.48561]]]}},{"type":"Feature","properties":{"k":"MIS","s":0.551},"geometry":{"type":"Polygon","coordinates":[[[2.1866,50.48862],[2.18704,50.48712],[2.18636,50.48718],[2.18634,50.48861],[2.1866,50.48862]]]}},{"type":"Feature","properties":{"k":"PPH","s":3.133},"geometry":{"type":"Polygon","coordinates":[[[2.18343,50.48814],[2.18385,50.48874],[2.18537,50.4888],[2.18634,50.48861],[2.18636,50.48718],[2.18319,50.48752],[2.18343,50.48814]]]}},{"type":"Feature","properties":{"k":"BTH","s":3.656},"geometry":{"type":"Polygon","coordinates":[[[2.18119,50.48767],[2.18054,50.48782],[2.18127,50.48996],[2.184,50.48971],[2.18309,50.48804],[2.18144,50.48848],[2.18119,50.48767]]]}},{"type":"Feature","properties":{"k":"PPH","s":1.296},"geometry":{"type":"Polygon","coordinates":[[[2.18146,50.48852],[2.18309,50.48804],[2.18299,50.48704],[2.18119,50.48767],[2.18146,50.48852]]]}},{"type":"Feature","properties":{"k":"BTH","s":8.105},"geometry":{"type":"Polygon","coordinates":[[[2.18294,50.48689],[2.18311,50.48516],[2.17695,50.48462],[2.17831,50.48618],[2.18022,50.48606],[2.18032,50.48751],[2.18099,50.48764],[2.18294,50.48689]]]}},{"type":"Feature","properties":{"k":"BTH","s":1.197},"geometry":{"type":"Polygon","coordinates":[[[2.18034,50.48779],[2.18033,50.48755],[2.17795,50.48668],[2.17847,50.48796],[2.18034,50.48779]]]}},{"type":"Feature","properties":{"k":"BTH","s":1.778},"geometry":{"type":"Polygon","coordinates":[[[2.1802,50.48607],[2.17776,50.48623],[2.17789,50.48662],[2.18029,50.4875],[2.1802,50.48607]]]}},{"type":"Feature","properties":{"k":"PTR","s":0.079},"geometry":{"type":"Polygon","coordinates":[[[2.17693,50.48621],[2.17788,50.48662],[2.17671,50.48602],[2.17693,50.48621]]]}},{"type":"Feature","properties":{"k":"BTH","s":4.662},"geometry":{"type":"Polygon","coordinates":[[[2.17847,50.48796],[2.17795,50.48669],[2.17546,50.48559],[2.17525,50.48576],[2.17563,50.48617],[2.17428,50.48708],[2.17472,50.48731],[2.17545,50.487],[2.17578,50.48855],[2.17746,50.48799],[2.17847,50.48796]]]}},{"type":"Feature","properties":{"k":"MIS","s":0.964},"geometry":{"type":"Polygon","coordinates":[[[2.17698,50.48849],[2.17719,50.48948],[2.17814,50.48906],[2.17788,50.48794],[2.17689,50.48826],[2.17698,50.48849]]]}},{"type":"Feature","properties":{"k":"ORH","s":2.377},"geometry":{"type":"Polygon","coordinates":[[[2.17651,50.48983],[2.17742,50.49181],[2.17807,50.49156],[2.17715,50.48947],[2.1769,50.48828],[2.17555,50.48866],[2.17651,50.48983]]]}},{"type":"Feature","properties":{"k":"PPH","s":0.643},"geometry":{"type":"Polygon","coordinates":[[[2.17781,50.48978],[2.17768,50.4893],[2.17721,50.48953],[2.17796,50.49117],[2.17837,50.49106],[2.17781,50.48978]]]}},{"type":"Feature","properties":{"k":"BTH","s":5.532},"geometry":{"type":"Polygon","coordinates":[[[2.17792,50.48796],[2.17855,50.4907],[2.17875,50.49066],[2.17967,50.49183],[2.1807,50.49149],[2.17991,50.49051],[2.18077,50.49041],[2.17996,50.48792],[2.17864,50.48804],[2.17792,50.48796]]]}},{"type":"Feature","properties":{"k":"ORH","s":3.636},"geometry":{"type":"Polygon","coordinates":[[[2.18077,50.49041],[2.17991,50.49051],[2.1807,50.49149],[2.1794,50.49191],[2.18015,50.49237],[2.1811,50.49186],[2.18132,50.49201],[2.18229,50.4918],[2.18127,50.48996],[2.18054,50.48782],[2.17996,50.48792],[2.18077,50.49041]]]}},{"type":"Feature","properties":{"k":"ORH","s":0.65},"geometry":{"type":"Polygon","coordinates":[[[2.17875,50.49066],[2.17831,50.49077],[2.17851,50.49132],[2.17912,50.49201],[2.17967,50.49183],[2.17875,50.49066]]]}},{"type":"Feature","properties":{"k":"BTH","s":9.49},"geometry":{"type":"Polygon","coordinates":[[[2.17742,50.49181],[2.1766,50.49007],[2.17356,50.49049],[2.1751,50.49299],[2.17535,50.49309],[2.17848,50.49336],[2.17968,50.49277],[2.18017,50.49239],[2.1794,50.49192],[2.17911,50.49202],[2.17838,50.49109],[2.17796,50.49117],[2.17807,50.49156],[2.17742,50.49181]]]}},{"type":"Feature","properties":{"k":"PPH","s":3.864},"geometry":{"type":"Polygon","coordinates":[[[2.17521,50.4936],[2.17602,50.49404],[2.17724,50.4941],[2.1771,50.49483],[2.17978,50.49544],[2.18025,50.49538],[2.18019,50.49506],[2.1778,50.49438],[2.17784,50.49417],[2.17878,50.49356],[2.17862,50.49346],[2.1752,50.49312],[2.17443,50.49209],[2.17355,50.49228],[2.1751,50.49332],[2.17521,50.4936]]]}},{"type":"Feature","properties":{"k":"PPH","s":1.146},"geometry":{"type":"Polygon","coordinates":[[[2.17876,50.49359],[2.17784,50.49417],[2.17781,50.49438],[2.18012,50.49503],[2.17876,50.49359]]]}},{"type":"Feature","properties":{"k":"PPH","s":0.498},"geometry":{"type":"Polygon","coordinates":[[[2.17723,50.4941],[2.17597,50.49408],[2.17634,50.49458],[2.17708,50.49482],[2.17723,50.4941]]]}},{"type":"Feature","properties":{"k":"BTH","s":0.944},"geometry":{"type":"Polygon","coordinates":[[[2.17684,50.49508],[2.17613,50.49481],[2.17564,50.49497],[2.17707,50.49572],[2.17769,50.49675],[2.17804,50.49622],[2.1778,50.4958],[2.17684,50.49508]]]}},{"type":"Feature","properties":{"k":"PTR","s":0.106},"geometry":{"type":"Polygon","coordinates":[[[2.1778,50.49696],[2.17817,50.49637],[2.17804,50.49622],[2.17769,50.49675],[2.1778,50.49696]]]}},{"type":"Feature","properties":{"k":"PPH","s":2.172},"geometry":{"type":"Polygon","coordinates":[[[2.1806,50.4968],[2.17842,50.49603],[2.17879,50.4953],[2.17613,50.49481],[2.17746,50.49541],[2.17817,50.49637],[2.17984,50.49705],[2.17998,50.49684],[2.18068,50.49708],[2.18097,50.49698],[2.18146,50.4971],[2.18171,50.49673],[2.18121,50.49656],[2.18132,50.49641],[2.18066,50.49626],[2.1806,50.4968]]]}},{"type":"Feature","properties":{"k":"VRG","s":0.217},"geometry":{"type":"Polygon","coordinates":[[[2.18161,50.4971],[2.18219,50.49715],[2.18244,50.49684],[2.18224,50.49656],[2.18161,50.4971]]]}},{"type":"Feature","properties":{"k":"PPH","s":1.097},"geometry":{"type":"Polygon","coordinates":[[[2.18218,50.49446],[2.18218,50.49412],[2.1818,50.49381],[2.18093,50.49453],[2.18236,50.49537],[2.18294,50.49502],[2.18218,50.49446]]]}},{"type":"Feature","properties":{"k":"PPH","s":0.475},"geometry":{"type":"Polygon","coordinates":[[[2.17938,50.49398],[2.18001,50.49365],[2.1791,50.49305],[2.17861,50.49333],[2.17938,50.49398]]]}},{"type":"Feature","properties":{"k":"PPH","s":4.923},"geometry":{"type":"Polygon","coordinates":[[[2.1794,50.49401],[2.18041,50.49511],[2.18129,50.49404],[2.18182,50.49376],[2.18265,50.4944],[2.18314,50.49422],[2.183,50.49409],[2.18337,50.49393],[2.18112,50.4919],[2.17915,50.49303],[2.18004,50.49367],[2.1794,50.49401]]]}},{"type":"Feature","properties":{"k":"PPH","s":0.535},"geometry":{"type":"Polygon","coordinates":[[[2.18271,50.49576],[2.18238,50.49603],[2.1827,50.49617],[2.18254,50.49634],[2.18348,50.49664],[2.18401,50.49627],[2.18271,50.49576]]]}},{"type":"Feature","properties":{"k":"PPH","s":0.503},"geometry":{"type":"Polygon","coordinates":[[[2.18337,50.49665],[2.1828,50.49646],[2.18246,50.49675],[2.18296,50.49743],[2.18341,50.49727],[2.18337,50.49665]]]}},{"type":"Feature","properties":{"k":"PPH","s":2.023},"geometry":{"type":"Polygon","coordinates":[[[2.18344,50.4967],[2.18358,50.49708],[2.18409,50.49702],[2.18528,50.49754],[2.18547,50.49742],[2.18546,50.49793],[2.18586,50.49789],[2.18564,50.4969],[2.1858,50.49625],[2.18526,50.49592],[2.18344,50.4967]]]}},{"type":"Feature","properties":{"k":"PPH","s":1.866},"geometry":{"type":"Polygon","coordinates":[[[2.1826,50.49536],[2.18326,50.4957],[2.18301,50.49594],[2.18401,50.49626],[2.1855,50.49575],[2.18408,50.49456],[2.18368,50.49473],[2.18398,50.49494],[2.18336,50.49538],[2.18291,50.49517],[2.1826,50.49536]]]}},{"type":"Feature","properties":{"k":"PPH","s":0.229},"geometry":{"type":"Polygon","coordinates":[[[2.18595,50.49548],[2.18616,50.49544],[2.18642,50.49501],[2.18604,50.49483],[2.18561,50.49518],[2.18595,50.49548]]]}},{"type":"Feature","properties":{"k":"PPH","s":1.596},"geometry":{"type":"Polygon","coordinates":[[[2.18582,50.49624],[2.18567,50.49678],[2.18609,50.49707],[2.18699,50.49679],[2.1869,50.4953],[2.18644,50.49503],[2.1862,50.49546],[2.18523,50.4959],[2.18582,50.49624]]]}},{"type":"Feature","properties":{"k":"PPH","s":0.392},"geometry":{"type":"Polygon","coordinates":[[[2.18765,50.49436],[2.18866,50.49387],[2.18835,50.49348],[2.18743,50.49397],[2.18765,50.49436]]]}},{"type":"Feature","properties":{"k":"PPH","s":0.831},"geometry":{"type":"Polygon","coordinates":[[[2.18797,50.49279],[2.18871,50.4939],[2.18952,50.49364],[2.1885,50.49241],[2.18797,50.49279]]]}},{"type":"Feature","properties":{"k":"PPH","s":0.494},"geometry":{"type":"Polygon","coordinates":[[[2.1869,50.493],[2.18624,50.49198],[2.18573,50.49214],[2.18637,50.49313],[2.1869,50.493]]]}},{"type":"Feature","properties":{"k":"PTR","s":1.64},"geometry":{"type":"Polygon","coordinates":[[[2.18541,50.4919],[2.18495,50.49121],[2.18253,50.49174],[2.18323,50.49253],[2.18541,50.4919]]]}},{"type":"Feature","properties":{"k":"ORH","s":3.804},"geometry":{"type":"Polygon","coordinates":[[[2.18493,50.4912],[2.184,50.48971],[2.18129,50.48996],[2.18229,50.4918],[2.18493,50.4912]]]}},{"type":"Feature","properties":{"k":"PPH","s":1.468},"geometry":{"type":"Polygon","coordinates":[[[2.18626,50.48895],[2.18628,50.48929],[2.18752,50.49039],[2.18807,50.49068],[2.18602,50.49137],[2.18639,50.49188],[2.18859,50.49099],[2.18758,50.49035],[2.18643,50.48928],[2.1866,50.48862],[2.18537,50.4888],[2.18577,50.489],[2.18626,50.48895]]]}},{"type":"Feature","properties":{"k":"PPH","s":1.618},"geometry":{"type":"Polygon","coordinates":[[[2.19046,50.48991],[2.19048,50.48943],[2.18919,50.48925],[2.18837,50.49083],[2.18982,50.49089],[2.18985,50.48992],[2.19046,50.48991]]]}},{"type":"Feature","properties":{"k":"PPH","s":0.513},"geometry":{"type":"Polygon","coordinates":[[[2.18827,50.49111],[2.18879,50.49156],[2.18974,50.49115],[2.18956,50.4909],[2.18833,50.49083],[2.18859,50.49099],[2.18827,50.49111]]]}},{"type":"Feature","properties":{"k":"PPH","s":0.349},"geometry":{"type":"Polygon","coordinates":[[[2.1902,50.49074],[2.1902,50.49045],[2.19041,50.49045],[2.19044,50.48992],[2.18985,50.48992],[2.18983,50.49092],[2.1902,50.49074]]]}},{"type":"Feature","properties":{"k":"PPH","s":1.138},"geometry":{"type":"Polygon","coordinates":[[[2.1924,50.48962],[2.19088,50.4894],[2.19073,50.49052],[2.19044,50.49068],[2.19182,50.49051],[2.1924,50.48962]]]}},{"type":"Feature","properties":{"k":"PPH","s":0.303},"geometry":{"type":"Polygon","coordinates":[[[2.1902,50.49072],[2.19071,50.49048],[2.1908,50.48951],[2.19048,50.48944],[2.19043,50.49052],[2.1902,50.49053],[2.1902,50.49072]]]}},{"type":"Feature","properties":{"k":"BTH","s":1.222},"geometry":{"type":"Polygon","coordinates":[[[2.19354,50.49085],[2.19463,50.49037],[2.19221,50.4899],[2.19182,50.49053],[2.19313,50.49087],[2.19354,50.49085]]]}},{"type":"Feature","properties":{"k":"PPH","s":6.268},"geometry":{"type":"Polygon","coordinates":[[[2.19272,50.49112],[2.19296,50.49294],[2.19142,50.49306],[2.19213,50.49352],[2.19306,50.49375],[2.19353,50.49363],[2.1937,50.49343],[2.1935,50.49332],[2.19362,50.49267],[2.19415,50.4927],[2.19444,50.49292],[2.19554,50.4927],[2.19617,50.49299],[2.19744,50.49248],[2.19851,50.49152],[2.19754,50.49172],[2.19628,50.49162],[2.19338,50.49103],[2.19272,50.49112]]]}},{"type":"Feature","properties":{"k":"PPH","s":2.327},"geometry":{"type":"Polygon","coordinates":[[[2.19114,50.49231],[2.19196,50.49205],[2.19207,50.49247],[2.19123,50.49258],[2.1914,50.49306],[2.19296,50.49295],[2.19271,50.49108],[2.19071,50.49118],[2.19114,50.49231]]]}},{"type":"Feature","properties":{"k":"PPH","s":0.535},"geometry":{"type":"Polygon","coordinates":[[[2.18981,50.49191],[2.18988,50.49191],[2.19023,50.49244],[2.19082,50.4924],[2.19094,50.49274],[2.1911,50.49271],[2.1906,50.49142],[2.19066,50.49179],[2.19006,50.4919],[2.18985,50.4917],[2.18981,50.4919],[2.18981,50.49191]]]}},{"type":"Feature","properties":{"k":"PPH","s":3.259},"geometry":{"type":"Polygon","coordinates":[[[2.18866,50.49789],[2.19061,50.49618],[2.18917,50.49576],[2.18874,50.49585],[2.1879,50.49556],[2.18731,50.49614],[2.18785,50.49619],[2.18793,50.49657],[2.18725,50.49663],[2.18762,50.49736],[2.18866,50.49789]],[[2.18862,50.49616],[2.19014,50.49657],[2.19003,50.49665],[2.18845,50.49622],[2.18862,50.49585],[2.18862,50.49616]]]}},{"type":"Feature","properties":{"k":"BTH","s":8.204},"geometry":{"type":"MultiPolygon","coordinates":[[[[2.192,50.49668],[2.19173,50.49649],[2.1892,50.49844],[2.1896,50.499],[2.19639,50.49667],[2.19538,50.49539],[2.19483,50.49504],[2.192,50.49668]]]]}},{"type":"Feature","properties":{"k":"PPH","s":2.476},"geometry":{"type":"Polygon","coordinates":[[[2.19641,50.49666],[2.19722,50.49636],[2.19677,50.4949],[2.1961,50.49485],[2.19497,50.49444],[2.19294,50.49563],[2.19319,50.49596],[2.19541,50.49468],[2.19564,50.49479],[2.19569,50.49574],[2.19641,50.49666]]]}},{"type":"Feature","properties":{"k":"PPH","s":0.977},"geometry":{"type":"Polygon","coordinates":[[[2.19787,50.49513],[2.19677,50.49492],[2.19722,50.49636],[2.19814,50.49599],[2.19787,50.49513]]]}},{"type":"Feature","properties":{"k":"PHF","s":6.181},"geometry":{"type":"MultiPolygon","coordinates":[[[[2.20258,50.49258],[2.19913,50.4934],[2.19969,50.49521],[2.1997,50.49484],[2.20278,50.49495],[2.20393,50.49439],[2.20258,50.49258]]],[[[2.19893,50.49565],[2.19897,50.49561],[2.19891,50.49564],[2.19893,50.49565]]]]}},{"type":"Feature","properties":{"k":"BTH","s":6.795},"geometry":{"type":"Polygon","coordinates":[[[2.1942,50.49073],[2.19433,50.49086],[2.19404,50.49113],[2.19717,50.49164],[2.19849,50.49142],[2.19892,50.49113],[2.19989,50.48902],[2.19965,50.48886],[2.1942,50.49073]]]}},{"type":"Feature","properties":{"k":"PPH","s":0.155},"geometry":{"type":"Polygon","coordinates":[[[2.19995,50.49099],[2.19943,50.49113],[2.19911,50.49099],[2.19891,50.49141],[2.20001,50.49111],[2.19995,50.49099]]]}},{"type":"Feature","properties":{"k":"PHF","s":8.683},"geometry":{"type":"Polygon","coordinates":[[[2.2036,50.48661],[2.20302,50.48597],[2.20175,50.48508],[2.19938,50.48433],[2.19807,50.48375],[2.19673,50.48504],[2.20243,50.48745],[2.2036,50.48661]]]}},{"type":"Feature","properties":{"k":"LIF","s":8.923},"geometry":{"type":"Polygon","coordinates":[[[2.20002,50.48869],[2.20128,50.48827],[2.20243,50.48745],[2.19673,50.48504],[2.19554,50.48617],[2.19718,50.48684],[2.19674,50.48731],[2.20002,50.48869]]]}},{"type":"Feature","properties":{"k":"BTH","s":2.141},"geometry":{"type":"Polygon","coordinates":[[[2.19871,50.48907],[2.19997,50.48867],[2.19675,50.48733],[2.19614,50.48799],[2.19871,50.48907]]]}},{"type":"Feature","properties":{"k":"MIS","s":1.561},"geometry":{"type":"Polygon","coordinates":[[[2.19871,50.48909],[2.1961,50.48801],[2.1955,50.48865],[2.19755,50.48944],[2.19871,50.48909]]]}},{"type":"Feature","properties":{"k":"MIS","s":1.871},"geometry":{"type":"Polygon","coordinates":[[[2.19755,50.48944],[2.19337,50.48795],[2.19285,50.48863],[2.19716,50.48956],[2.19755,50.48944]]]}},{"type":"Feature","properties":{"k":"BTH","s":5.002},"geometry":{"type":"Polygon","coordinates":[[[2.19088,50.4894],[2.1924,50.48962],[2.19226,50.48993],[2.19468,50.49037],[2.19716,50.48956],[2.19149,50.48833],[2.19088,50.4894]]]}},{"type":"Feature","properties":{"k":"BTH","s":1.072},"geometry":{"type":"Polygon","coordinates":[[[2.19355,50.48772],[2.1932,50.48746],[2.19229,50.48753],[2.19206,50.4881],[2.19175,50.48804],[2.19149,50.48833],[2.19285,50.48863],[2.19355,50.48772]]]}},{"type":"Feature","properties":{"k":"JAC","s":0.593},"geometry":{"type":"Polygon","coordinates":[[[2.1911,50.48867],[2.19173,50.488],[2.19207,50.48807],[2.19236,50.48752],[2.19137,50.48743],[2.19081,50.48948],[2.1911,50.48867]]]}},{"type":"Feature","properties":{"k":"PTC","s":9.992},"geometry":{"type":"Polygon","coordinates":[[[2.19079,50.4895],[2.19181,50.48581],[2.18875,50.48571],[2.18749,50.49027],[2.1884,50.49078],[2.1892,50.48925],[2.19079,50.4895]]]}},{"type":"Feature","properties":{"k":"BTH","s":1.148},"geometry":{"type":"Polygon","coordinates":[[[2.19181,50.48581],[2.19138,50.48743],[2.19258,50.48671],[2.19296,50.48629],[2.193,50.4858],[2.19181,50.48581]]]}},{"type":"Feature","properties":{"k":"BTH","s":0.13},"geometry":{"type":"Polygon","coordinates":[[[2.1928,50.48648],[2.1915,50.48744],[2.19301,50.48638],[2.193,50.4858],[2.1928,50.48648]]]}},{"type":"Feature","properties":{"k":"BTH","s":1.221},"geometry":{"type":"Polygon","coordinates":[[[2.19306,50.4863],[2.19265,50.48674],[2.19158,50.48745],[2.19321,50.48746],[2.19376,50.48569],[2.19307,50.48579],[2.19306,50.4863]]]}},{"type":"Feature","properties":{"k":"BTH","s":5.719},"geometry":{"type":"Polygon","coordinates":[[[2.19342,50.48797],[2.19549,50.48866],[2.19718,50.48684],[2.19423,50.48562],[2.19376,50.48569],[2.19321,50.48746],[2.19354,50.48773],[2.19342,50.48797]]]}},{"type":"Feature","properties":{"k":"BTH","s":4.012},"geometry":{"type":"Polygon","coordinates":[[[2.19185,50.48479],[2.1916,50.48507],[2.19426,50.48557],[2.19552,50.48616],[2.19807,50.48375],[2.19685,50.48324],[2.19466,50.48535],[2.19185,50.48479]]]}},{"type":"Feature","properties":{"k":"BTH","s":1.323},"geometry":{"type":"Polygon","coordinates":[[[2.19233,50.48425],[2.19185,50.48478],[2.19463,50.48535],[2.19512,50.48488],[2.19233,50.48425]]]}},{"type":"Feature","properties":{"k":"MIS","s":0.938},"geometry":{"type":"Polygon","coordinates":[[[2.19125,50.48574],[2.19234,50.4858],[2.19425,50.48559],[2.19158,50.48508],[2.19125,50.48574]]]}},{"type":"Feature","properties":{"k":"BTH","s":8.914},"geometry":{"type":"Polygon","coordinates":[[[2.18644,50.48559],[2.19117,50.48573],[2.19338,50.48309],[2.19119,50.48218],[2.18832,50.4845],[2.18644,50.48559]]]}},{"type":"Feature","properties":{"k":"BTH","s":1.192},"geometry":{"type":"Polygon","coordinates":[[[2.19338,50.48309],[2.19384,50.48258],[2.1917,50.48171],[2.19118,50.48218],[2.19338,50.48309]]]}},{"type":"Feature","properties":{"k":"BTH","s":4.663},"geometry":{"type":"Polygon","coordinates":[[[2.19292,50.48361],[2.19573,50.48431],[2.19681,50.48324],[2.19226,50.4812],[2.19171,50.4817],[2.19385,50.48258],[2.19292,50.48361]]]}},{"type":"Feature","properties":{"k":"BTH","s":0.386},"geometry":{"type":"MultiPolygon","coordinates":[[[[2.19684,50.48319],[2.1972,50.48334],[2.19811,50.48245],[2.19776,50.48229],[2.19684,50.48319]]],[[[2.19567,50.48271],[2.19603,50.48285],[2.19265,50.48135],[2.19567,50.48271]]]]}},{"type":"Feature","properties":{"k":"LIF","s":0.077},"geometry":{"type":"Polygon","coordinates":[[[2.19831,50.48226],[2.19794,50.48211],[2.19776,50.48229],[2.19811,50.48245],[2.19831,50.48226]]]}},{"type":"Feature","properties":{"k":"BTH","s":0.004},"geometry":{"type":"Polygon","coordinates":[[[2.19834,50.48225],[2.19794,50.48211],[2.19831,50.48226],[2.19834,50.48225]]]}},{"type":"Feature","properties":{"k":"BTH","s":5.114},"geometry":{"type":"Polygon","coordinates":[[[2.20186,50.48355],[2.19834,50.48225],[2.19722,50.48335],[2.20152,50.48493],[2.20243,50.4835],[2.20186,50.48355]]]}},{"type":"Feature","properties":{"k":"BTN","s":0.002},"geometry":{"type":"Polygon","coordinates":[]}},{"type":"Feature","properties":{"k":"ORH","s":0.009},"geometry":{"type":"Polygon","coordinates":[[[2.20415,50.48357],[2.20396,50.48337],[2.2039,50.48338],[2.20415,50.48357]]]}},{"type":"Feature","properties":{"k":"BTN","s":0.003},"geometry":{"type":"MultiPolygon","coordinates":[[[[2.20512,50.48433],[2.20483,50.48409],[2.20482,50.4841],[2.20512,50.48433]]],[[[2.2056,50.48472],[2.20548,50.48463],[2.20558,50.48474],[2.2056,50.48472]]]]}},{"type":"Feature","properties":{"k":"ORH","s":0.034},"geometry":{"type":"Polygon","coordinates":[[[2.20583,50.48503],[2.20624,50.48562],[2.20628,50.48559],[2.20565,50.48477],[2.20583,50.48503]]]}},{"type":"Feature","properties":{"k":"ORH","s":0.006},"geometry":{"type":"Polygon","coordinates":[[[2.2046,50.4839],[2.20418,50.48355],[2.20415,50.48357],[2.2046,50.4839]]]}},{"type":"Feature","properties":{"k":"PTC","s":11.003},"geometry":{"type":"Polygon","coordinates":[[[2.20188,50.4907],[2.20275,50.49049],[2.20559,50.48877],[2.20375,50.48667],[2.20147,50.48825],[2.2002,50.4887],[2.19911,50.49099],[2.20188,50.4907]]]}},{"type":"Feature","properties":{"k":"ORH","s":0.055},"geometry":{"type":"Polygon","coordinates":[[[2.20802,50.48725],[2.20699,50.48633],[2.20692,50.48638],[2.20802,50.48725]]]}},{"type":"Feature","properties":{"k":"BTH","s":12.086},"geometry":{"type":"Polygon","coordinates":[[[2.20801,50.48726],[2.20692,50.48639],[2.20548,50.48463],[2.2039,50.48338],[2.20243,50.4835],[2.20153,50.48493],[2.20296,50.48581],[2.20557,50.48868],[2.20801,50.48726]],[[2.20471,50.48763],[2.2047,50.48764],[2.20445,50.48734],[2.20471,50.48763]]]}},{"type":"Feature","properties":{"k":"BTH","s":0.035},"geometry":{"type":"Polygon","coordinates":[[[2.20692,50.48639],[2.20693,50.48638],[2.20699,50.48633],[2.20624,50.48562],[2.20692,50.48639]]]}},{"type":"Feature","properties":{"k":"BTH","s":0.037},"geometry":{"type":"Polygon","coordinates":[[[2.20902,50.4884],[2.20971,50.48885],[2.20771,50.48748],[2.20902,50.4884]]]}},{"type":"Feature","properties":{"k":"BTH","s":7.112},"geometry":{"type":"Polygon","coordinates":[[[2.20682,50.49008],[2.20764,50.49056],[2.2088,50.49068],[2.2118,50.49026],[2.21067,50.48965],[2.20767,50.4875],[2.2056,50.48865],[2.20682,50.49008]],[[2.20916,50.48869],[2.20932,50.48875],[2.20909,50.48895],[2.21076,50.49021],[2.20877,50.49042],[2.20893,50.49061],[2.20813,50.4906],[2.20814,50.49038],[2.20954,50.49024],[2.20887,50.48899],[2.20916,50.48869]]]}},{"type":"Feature","properties":{"k":"BTH","s":0.042},"geometry":{"type":"MultiPolygon","coordinates":[[[[2.20854,50.49095],[2.20866,50.49072],[2.20851,50.49072],[2.20854,50.49095]]],[[[2.21137,50.49041],[2.21128,50.49043],[2.21207,50.49034],[2.21137,50.49041]]]]}},{"type":"Feature","properties":{"k":"CZH","s":0.085},"geometry":{"type":"MultiPolygon","coordinates":[[[[2.20993,50.48901],[2.21034,50.48928],[2.20971,50.48885],[2.20993,50.48901]]],[[[2.21115,50.48968],[2.21098,50.48971],[2.2118,50.49026],[2.21115,50.48968]]]]}},{"type":"Feature","properties":{"k":"AVP","s":1.0},"geometry":{"type":"Polygon","coordinates":[[[2.20813,50.4906],[2.20893,50.49061],[2.20877,50.49042],[2.21076,50.49021],[2.20909,50.48895],[2.20932,50.48875],[2.20916,50.48869],[2.20887,50.48899],[2.20954,50.49024],[2.20814,50.49043],[2.20813,50.4906]]]}},{"type":"Feature","properties":{"k":"JAC","s":0.025},"geometry":{"type":"Polygon","coordinates":[[[2.20843,50.49084],[2.20853,50.49092],[2.20851,50.49072],[2.20824,50.49075],[2.20843,50.49084]]]}},{"type":"Feature","properties":{"k":"PTC","s":0.292},"geometry":{"type":"Polygon","coordinates":[[[2.20763,50.49234],[2.20634,50.4929],[2.20659,50.49311],[2.20783,50.49252],[2.20763,50.49234]]]}},{"type":"Feature","properties":{"k":"BTH","s":0.897},"geometry":{"type":"Polygon","coordinates":[[[2.2069,50.49094],[2.20843,50.49095],[2.20723,50.49053],[2.20578,50.49039],[2.20573,50.49111],[2.2069,50.49094]]]}},{"type":"Feature","properties":{"k":"PTC","s":4.159},"geometry":{"type":"Polygon","coordinates":[[[2.20079,50.49096],[2.20369,50.49098],[2.20584,50.4903],[2.20732,50.49048],[2.2067,50.49011],[2.20559,50.48877],[2.20275,50.49049],[2.19922,50.49104],[2.19943,50.49113],[2.19995,50.49099],[2.20001,50.49111],[2.20079,50.49096]]]}},{"type":"Feature","properties":{"k":"CZH","s":0.729},"geometry":{"type":"Polygon","coordinates":[[[2.20372,50.4941],[2.20394,50.49439],[2.20659,50.49311],[2.20635,50.49291],[2.20372,50.4941]]]}},{"type":"Feature","properties":{"k":"BTH","s":0.0},"geometry":{"type":"Polygon","coordinates":[]}},{"type":"Feature","properties":{"k":"ORH","s":0.007},"geometry":{"type":"Polygon","coordinates":[[[2.19584,50.51224],[2.19583,50.51279],[2.19587,50.51223],[2.19584,50.51224]]]}},{"type":"Feature","properties":{"k":"MIS","s":1.299},"geometry":{"type":"Polygon","coordinates":[[[2.19532,50.51328],[2.19582,50.51296],[2.19587,50.51223],[2.19555,50.5116],[2.1953,50.51169],[2.19475,50.51081],[2.19444,50.51097],[2.19503,50.51179],[2.19449,50.51195],[2.19532,50.51328]]]}},{"type":"Feature","properties":{"k":"PPH","s":0.663},"geometry":{"type":"Polygon","coordinates":[[[2.19375,50.51303],[2.19479,50.51242],[2.19448,50.51194],[2.19308,50.51269],[2.19375,50.51303]]]}},{"type":"Feature","properties":{"k":"MIS","s":1.102},"geometry":{"type":"Polygon","coordinates":[[[2.19384,50.51121],[2.19475,50.51081],[2.1953,50.51169],[2.19552,50.51161],[2.19482,50.51007],[2.1933,50.51058],[2.19384,50.51121]]]}},{"type":"Feature","properties":{"k":"PPH","s":3.596},"geometry":{"type":"Polygon","coordinates":[[[2.19307,50.51269],[2.19448,50.51193],[2.19364,50.51101],[2.19287,50.51126],[2.19199,50.51008],[2.19071,50.51063],[2.19195,50.51171],[2.19107,50.51212],[2.19206,50.51229],[2.19307,50.51269]]]}},{"type":"Feature","properties":{"k":"JAC","s":0.616},"geometry":{"type":"Polygon","coordinates":[[[2.19139,50.51124],[2.19008,50.51197],[2.19107,50.51212],[2.19195,50.51171],[2.19139,50.51124]]]}},{"type":"Feature","properties":{"k":"MIS","s":2.372},"geometry":{"type":"Polygon","coordinates":[[[2.18905,50.51109],[2.19033,50.51043],[2.18827,50.50897],[2.18719,50.5096],[2.18905,50.51109]]]}},{"type":"Feature","properties":{"k":"PPH","s":0.814},"geometry":{"type":"Polygon","coordinates":[[[2.19202,50.51007],[2.19288,50.51124],[2.19359,50.51101],[2.1927,50.50986],[2.19202,50.51007]]]}},{"type":"Feature","properties":{"k":"BTH","s":0.45},"geometry":{"type":"Polygon","coordinates":[[[2.19329,50.51053],[2.19381,50.51036],[2.19323,50.50953],[2.19268,50.50983],[2.19329,50.51053]]]}},{"type":"Feature","properties":{"k":"BTH","s":0.835},"geometry":{"type":"Polygon","coordinates":[[[2.19381,50.51036],[2.19483,50.51007],[2.1945,50.50926],[2.19327,50.50953],[2.19381,50.51036]]]}},{"type":"Feature","properties":{"k":"PHF","s":4.724},"geometry":{"type":"Polygon","coordinates":[[[2.19235,50.50502],[2.19153,50.50627],[2.19221,50.50751],[2.19293,50.5096],[2.1945,50.50926],[2.19304,50.50649],[2.1943,50.50618],[2.19319,50.50644],[2.19235,50.50502]]]}},{"type":"Feature","properties":{"k":"PTR","s":1.894},"geometry":{"type":"Polygon","coordinates":[[[2.19314,50.50477],[2.1924,50.5051],[2.19319,50.50644],[2.19453,50.50611],[2.19389,50.50449],[2.19335,50.50494],[2.19314,50.50477]]]}},{"type":"Feature","properties":{"k":"BTH","s":0.01},"geometry":{"type":"Polygon","coordinates":[[[2.19353,50.49939],[2.19355,50.49938],[2.19312,50.49855],[2.19353,50.49939]]]}},{"type":"Feature","properties":{"k":"MIS","s":1.077},"geometry":{"type":"Polygon","coordinates":[[[2.19271,50.49974],[2.19353,50.49939],[2.19294,50.49819],[2.19189,50.49859],[2.19271,50.49974]]]}},{"type":"Feature","properties":{"k":"BTH","s":1.39},"geometry":{"type":"Polygon","coordinates":[[[2.192,50.4987],[2.19187,50.49857],[2.19294,50.49819],[2.19279,50.49783],[2.1896,50.499],[2.19013,50.49954],[2.192,50.4987]]]}},{"type":"Feature","properties":{"k":"PPH","s":1.941},"geometry":{"type":"Polygon","coordinates":[[[2.18922,50.49839],[2.19167,50.49651],[2.19061,50.49618],[2.18866,50.49789],[2.18922,50.49839]]]}},{"type":"Feature","properties":{"k":"BTH","s":0.566},"geometry":{"type":"Polygon","coordinates":[[[2.19224,50.49906],[2.192,50.4987],[2.19013,50.49954],[2.19045,50.49972],[2.19224,50.49906]]]}},{"type":"Feature","properties":{"k":"MIS","s":0.655},"geometry":{"type":"Polygon","coordinates":[[[2.19224,50.49906],[2.19045,50.49972],[2.19257,50.4998],[2.19265,50.49964],[2.19224,50.49906]]]}},{"type":"Feature","properties":{"k":"ORH","s":1.888},"geometry":{"type":"Polygon","coordinates":[[[2.19033,50.49977],[2.19201,50.50159],[2.19312,50.50126],[2.19199,50.50005],[2.19246,50.49984],[2.19033,50.49977]]]}},{"type":"Feature","properties":{"k":"PPH","s":1.936},"geometry":{"type":"Polygon","coordinates":[[[2.18477,50.50406],[2.18515,50.50407],[2.186,50.50441],[2.18642,50.50408],[2.18705,50.50453],[2.18796,50.50399],[2.18756,50.50346],[2.18704,50.5033],[2.18508,50.50351],[2.18477,50.50406]]]}},{"type":"Feature","properties":{"k":"PPH","s":0.805},"geometry":{"type":"Polygon","coordinates":[[[2.18387,50.50476],[2.18491,50.50437],[2.18491,50.50408],[2.1844,50.50431],[2.18431,50.50422],[2.18452,50.50415],[2.18414,50.50368],[2.18311,50.50392],[2.18387,50.50476]]]}},{"type":"Feature","properties":{"k":"PPH","s":0.393},"geometry":{"type":"Polygon","coordinates":[[[2.18207,50.50445],[2.18258,50.50476],[2.18309,50.50432],[2.18343,50.50431],[2.18309,50.50393],[2.18207,50.50445]]]}},{"type":"Feature","properties":{"k":"PPH","s":4.035},"geometry":{"type":"Polygon","coordinates":[[[2.18499,50.50342],[2.18629,50.50272],[2.18637,50.50252],[2.18383,50.50207],[2.18206,50.503],[2.18137,50.50247],[2.1812,50.50262],[2.18142,50.50275],[2.18126,50.50289],[2.18106,50.5028],[2.1808,50.50336],[2.18194,50.50298],[2.18175,50.5031],[2.18198,50.50355],[2.18209,50.50338],[2.18254,50.50354],[2.18246,50.50374],[2.18285,50.50395],[2.18499,50.50342]]]}},{"type":"Feature","properties":{"k":"PPH","s":2.383},"geometry":{"type":"Polygon","coordinates":[[[2.18212,50.50298],[2.1837,50.50208],[2.18346,50.50163],[2.18356,50.50098],[2.18212,50.50048],[2.18183,50.50139],[2.18236,50.50163],[2.18151,50.50255],[2.18212,50.50298]]]}},{"type":"Feature","properties":{"k":"PPH","s":2.224},"geometry":{"type":"Polygon","coordinates":[[[2.18951,50.4991],[2.18861,50.4982],[2.18674,50.49869],[2.18625,50.49926],[2.18597,50.49919],[2.18586,50.49964],[2.18951,50.4991]]]}},{"type":"Feature","properties":{"k":"PPH","s":1.296},"geometry":{"type":"Polygon","coordinates":[[[2.18663,50.49773],[2.18679,50.49864],[2.18866,50.49815],[2.18732,50.4976],[2.18683,50.49686],[2.18619,50.49704],[2.18663,50.49773]]]}},{"type":"Feature","properties":{"k":"PPH","s":3.396},"geometry":{"type":"Polygon","coordinates":[[[2.18304,50.49751],[2.18279,50.49823],[2.18398,50.49835],[2.18386,50.49896],[2.18603,50.49908],[2.18606,50.49802],[2.18551,50.49796],[2.18524,50.49755],[2.18406,50.49705],[2.18347,50.4972],[2.18351,50.49735],[2.18304,50.49751]]]}},{"type":"Feature","properties":{"k":"PPH","s":0.107},"geometry":{"type":"Polygon","coordinates":[[[2.18252,50.49731],[2.18269,50.49718],[2.18244,50.49684],[2.18219,50.49715],[2.18252,50.49731]]]}},{"type":"Feature","properties":{"k":"PPH","s":0.736},"geometry":{"type":"Polygon","coordinates":[[[2.18363,50.50017],[2.18231,50.49999],[2.18214,50.50046],[2.18362,50.50098],[2.18363,50.50017]]]}},{"type":"Feature","properties":{"k":"PPH","s":7.503},"geometry":{"type":"Polygon","coordinates":[[[2.18194,50.49748],[2.18206,50.49729],[2.18159,50.49719],[2.18066,50.49844],[2.17989,50.49914],[2.17914,50.49954],[2.17978,50.50031],[2.17898,50.50092],[2.17804,50.50042],[2.17719,50.50082],[2.17953,50.502],[2.18089,50.501],[2.18118,50.50007],[2.18205,50.50025],[2.18243,50.49959],[2.18262,50.49831],[2.18202,50.49818],[2.18228,50.49757],[2.18194,50.49748]]]}},{"type":"Feature","properties":{"k":"PPH","s":2.106},"geometry":{"type":"Polygon","coordinates":[[[2.17953,50.502],[2.17719,50.50082],[2.17642,50.50167],[2.17748,50.50243],[2.17791,50.50214],[2.17874,50.50252],[2.17953,50.502]]]}},{"type":"Feature","properties":{"k":"PPH","s":3.561},"geometry":{"type":"Polygon","coordinates":[[[2.17914,50.50322],[2.17949,50.50292],[2.18009,50.50325],[2.18066,50.50308],[2.18118,50.50252],[2.1807,50.5023],[2.18097,50.50215],[2.18128,50.50238],[2.18203,50.50031],[2.18119,50.50008],[2.18102,50.50078],[2.18057,50.50136],[2.17834,50.50276],[2.17914,50.50322]]]}},{"type":"Feature","properties":{"k":"PPH","s":1.187},"geometry":{"type":"Polygon","coordinates":[[[2.18003,50.50431],[2.17995,50.50392],[2.18063,50.50338],[2.18053,50.50319],[2.17833,50.50418],[2.17924,50.50496],[2.18003,50.50431]]]}},{"type":"Feature","properties":{"k":"PPH","s":0.379},"geometry":{"type":"Polygon","coordinates":[[[2.17804,50.50421],[2.17875,50.50401],[2.17758,50.50341],[2.17716,50.50366],[2.17801,50.50405],[2.17804,50.50421]]]}},{"type":"Feature","properties":{"k":"PPH","s":0.363},"geometry":{"type":"Polygon","coordinates":[[[2.17708,50.50276],[2.17674,50.50255],[2.17579,50.50288],[2.17655,50.50319],[2.17746,50.50254],[2.17708,50.50276]]]}},{"type":"Feature","properties":{"k":"PPH","s":0.86},"geometry":{"type":"Polygon","coordinates":[[[2.17679,50.50538],[2.17755,50.50557],[2.17808,50.50501],[2.17746,50.50434],[2.17687,50.50452],[2.17679,50.50538]]]}},{"type":"Feature","properties":{"k":"PPH","s":0.565},"geometry":{"type":"Polygon","coordinates":[[[2.17792,50.5043],[2.17825,50.5047],[2.17795,50.50481],[2.17817,50.50539],[2.1791,50.505],[2.1783,50.50421],[2.17792,50.5043]]]}},{"type":"Feature","properties":{"k":"PPH","s":0.91},"geometry":{"type":"Polygon","coordinates":[[[2.17817,50.50539],[2.17909,50.50629],[2.17964,50.50618],[2.17975,50.506],[2.17971,50.50564],[2.17918,50.50502],[2.17817,50.50539]]]}},{"type":"Feature","properties":{"k":"PPH","s":1.76},"geometry":{"type":"Polygon","coordinates":[[[2.17795,50.50521],[2.17755,50.50557],[2.17679,50.50538],[2.17613,50.50632],[2.17722,50.50665],[2.1775,50.50647],[2.17807,50.50646],[2.17881,50.50606],[2.17795,50.50521]]]}},{"type":"Feature","properties":{"k":"PPH","s":1.635},"geometry":{"type":"Polygon","coordinates":[[[2.1776,50.50648],[2.17704,50.50686],[2.1775,50.50785],[2.17777,50.50785],[2.17836,50.50729],[2.17888,50.50757],[2.17927,50.5074],[2.17897,50.50697],[2.17862,50.50693],[2.1786,50.50669],[2.17905,50.50634],[2.17881,50.5061],[2.17834,50.50636],[2.1776,50.50648]]]}},{"type":"Feature","properties":{"k":"PPH","s":1.026},"geometry":{"type":"Polygon","coordinates":[[[2.17962,50.50884],[2.18056,50.50896],[2.1808,50.50788],[2.17983,50.50756],[2.17962,50.50884]]]}},{"type":"Feature","properties":{"k":"PTR","s":7.936},"geometry":{"type":"Polygon","coordinates":[[[2.1808,50.50788],[2.18056,50.50897],[2.18237,50.50961],[2.18326,50.50909],[2.1825,50.50852],[2.18314,50.50773],[2.18338,50.50791],[2.1843,50.50736],[2.18385,50.50652],[2.18301,50.50586],[2.18277,50.50595],[2.18172,50.50537],[2.18058,50.50635],[2.18062,50.50713],[2.17996,50.50734],[2.17985,50.50757],[2.1808,50.50788]]]}},{"type":"Feature","properties":{"k":"PPH","s":1.701},"geometry":{"type":"Polygon","coordinates":[[[2.17911,50.50705],[2.17964,50.50776],[2.18,50.50684],[2.18098,50.50569],[2.18193,50.50506],[2.18189,50.50479],[2.18164,50.5047],[2.18064,50.50583],[2.18033,50.50565],[2.17979,50.50566],[2.17978,50.5062],[2.17911,50.50637],[2.17864,50.50671],[2.17866,50.50692],[2.17883,50.50693],[2.17905,50.50661],[2.17937,50.50677],[2.17911,50.50705]]]}},{"type":"Feature","properties":{"k":"PPH","s":1.006},"geometry":{"type":"Polygon","coordinates":[[[2.17971,50.50564],[2.18055,50.50555],[2.18064,50.50471],[2.1801,50.50437],[2.17917,50.50502],[2.17971,50.50564]]]}},{"type":"Feature","properties":{"k":"PPH","s":0.392},"geometry":{"type":"Polygon","coordinates":[[[2.18008,50.50421],[2.18068,50.5047],[2.18064,50.50557],[2.18109,50.5044],[2.18083,50.50408],[2.18008,50.50421]]]}},{"type":"Feature","properties":{"k":"PPH","s":0.583},"geometry":{"type":"Polygon","coordinates":[[[2.1831,50.50433],[2.18231,50.50508],[2.18256,50.50526],[2.18387,50.50477],[2.18343,50.50432],[2.1831,50.50433]]]}},{"type":"Feature","properties":{"k":"PTR","s":3.279},"geometry":{"type":"Polygon","coordinates":[[[2.18391,50.50644],[2.18521,50.50628],[2.18592,50.50602],[2.18557,50.50551],[2.18581,50.50543],[2.185,50.50435],[2.18256,50.50526],[2.18391,50.50644]]]}},{"type":"Feature","properties":{"k":"MIS","s":4.697},"geometry":{"type":"Polygon","coordinates":[[[2.18582,50.5061],[2.18512,50.50635],[2.18411,50.50646],[2.18397,50.50654],[2.18418,50.50715],[2.18603,50.50866],[2.18712,50.50799],[2.18785,50.50858],[2.18863,50.50809],[2.18802,50.50756],[2.18689,50.50706],[2.18582,50.5061]]]}},{"type":"Feature","properties":{"k":"BTN","s":1.261},"geometry":{"type":"Polygon","coordinates":[[[2.18469,50.50897],[2.18557,50.50837],[2.18431,50.50741],[2.18341,50.50796],[2.18469,50.50897]]]}},{"type":"Feature","properties":{"k":"AVP","s":1.226},"geometry":{"type":"Polygon","coordinates":[[[2.1825,50.50852],[2.18371,50.50943],[2.18443,50.50878],[2.18314,50.50773],[2.1825,50.50852]]]}},{"type":"Feature","properties":{"k":"PPH","s":1.063},"geometry":{"type":"Polygon","coordinates":[[[2.183,50.51137],[2.18405,50.51077],[2.18241,50.50972],[2.1821,50.5102],[2.183,50.51137]]]}},{"type":"Feature","properties":{"k":"PPH","s":0.736},"geometry":{"type":"Polygon","coordinates":[[[2.18325,50.50909],[2.18238,50.5096],[2.18328,50.51016],[2.18412,50.50973],[2.18325,50.50909]]]}},{"type":"Feature","properties":{"k":"CZH","s":1.688},"geometry":{"type":"Polygon","coordinates":[[[2.18537,50.50851],[2.18469,50.50897],[2.18443,50.50878],[2.1837,50.50943],[2.18433,50.50992],[2.18523,50.50942],[2.18566,50.50979],[2.18658,50.50917],[2.18571,50.50854],[2.18554,50.50864],[2.18537,50.50851]]]}},{"type":"Feature","properties":{"k":"MIS","s":0.205},"geometry":{"type":"Polygon","coordinates":[[[2.18676,50.50934],[2.18657,50.50918],[2.18566,50.50978],[2.18581,50.50991],[2.18676,50.50934]]]}},{"type":"Feature","properties":{"k":"MIS","s":0.437},"geometry":{"type":"Polygon","coordinates":[[[2.18619,50.50882],[2.18692,50.5094],[2.18749,50.50905],[2.18669,50.50851],[2.18619,50.50882]]]}},{"type":"Feature","properties":{"k":"BTH","s":0.329},"geometry":{"type":"Polygon","coordinates":[[[2.18693,50.5094],[2.18719,50.5096],[2.18829,50.50895],[2.18799,50.50874],[2.18693,50.5094]]]}},{"type":"Feature","properties":{"k":"JAC","s":0.482},"geometry":{"type":"Polygon","coordinates":[[[2.18722,50.50969],[2.18678,50.50934],[2.18585,50.50994],[2.18629,50.51031],[2.18722,50.50969]]]}},{"type":"Feature","properties":{"k":"PPH","s":0.379},"geometry":{"type":"Polygon","coordinates":[[[2.1873,50.51453],[2.18667,50.51462],[2.187,50.51533],[2.18756,50.51553],[2.1873,50.51453]]]}},{"type":"Feature","properties":{"k":"PPH","s":0.043},"geometry":{"type":"Polygon","coordinates":[[[2.1853,50.51452],[2.1851,50.51447],[2.187,50.51533],[2.1853,50.51452]]]}},{"type":"Feature","properties":{"k":"BTH","s":0.004},"geometry":{"type":"Polygon","coordinates":[[[2.18455,50.51422],[2.18507,50.51446],[2.18509,50.51445],[2.18455,50.51422]]]}},{"type":"Feature","properties":{"k":"PPH","s":1.093},"geometry":{"type":"Polygon","coordinates":[[[2.1853,50.51452],[2.18571,50.51394],[2.18414,50.51316],[2.18358,50.51379],[2.1853,50.51452]]]}},{"type":"Feature","properties":{"k":"ORH","s":1.907},"geometry":{"type":"Polygon","coordinates":[[[2.18353,50.51377],[2.18406,50.51316],[2.18447,50.51332],[2.18474,50.51304],[2.18296,50.51209],[2.18177,50.51297],[2.18353,50.51377]]]}},{"type":"Feature","properties":{"k":"PPH","s":4.338},"geometry":{"type":"Polygon","coordinates":[[[2.18745,50.51316],[2.18736,50.5126],[2.18684,50.51267],[2.1856,50.51139],[2.18545,50.51144],[2.18529,50.51127],[2.1848,50.5116],[2.18614,50.51239],[2.18612,50.51265],[2.1852,50.5126],[2.18447,50.51332],[2.18571,50.51394],[2.18529,50.51453],[2.18701,50.5153],[2.18667,50.51462],[2.18732,50.51452],[2.18709,50.51317],[2.18745,50.51316]]]}},{"type":"Feature","properties":{"k":"BTH","s":4.881},"geometry":{"type":"Polygon","coordinates":[[[2.1876,50.51553],[2.18913,50.51591],[2.1888,50.51416],[2.18985,50.5128],[2.18816,50.51213],[2.18737,50.51259],[2.18745,50.51316],[2.18709,50.51317],[2.1876,50.51553]]]}},{"type":"Feature","properties":{"k":"BTH","s":3.006},"geometry":{"type":"Polygon","coordinates":[[[2.19088,50.51323],[2.19014,50.5129],[2.19085,50.51214],[2.18885,50.51168],[2.18838,50.51221],[2.18985,50.5128],[2.1888,50.51416],[2.18898,50.51517],[2.18939,50.51515],[2.18929,50.5146],[2.18954,50.51486],[2.19088,50.51323]]]}},{"type":"Feature","properties":{"k":"ORH","s":1.695},"geometry":{"type":"Polygon","coordinates":[[[2.1909,50.51213],[2.19015,50.5129],[2.19151,50.5135],[2.19299,50.5127],[2.1909,50.51213]]]}},{"type":"Feature","properties":{"k":"MIS","s":0.556},"geometry":{"type":"Polygon","coordinates":[[[2.18805,50.5157],[2.18979,50.51605],[2.18971,50.51502],[2.18929,50.5146],[2.18939,50.51515],[2.18898,50.51517],[2.18913,50.51591],[2.18805,50.5157]]]}},{"type":"Feature","properties":{"k":"BTH","s":2.356},"geometry":{"type":"Polygon","coordinates":[[[2.19011,50.51683],[2.19192,50.51718],[2.19301,50.5166],[2.19185,50.51625],[2.18975,50.51526],[2.19011,50.51683]]]}},{"type":"Feature","properties":{"k":"BTH","s":6.93},"geometry":{"type":"Polygon","coordinates":[[[2.19386,50.51588],[2.19245,50.51537],[2.19286,50.51476],[2.19218,50.51462],[2.19261,50.51397],[2.19399,50.51332],[2.193,50.51269],[2.19152,50.5135],[2.19089,50.51321],[2.18954,50.51486],[2.18973,50.51526],[2.19185,50.51625],[2.19301,50.5166],[2.19386,50.51588]]]}},{"type":"Feature","properties":{"k":"MIS","s":3.308},"geometry":{"type":"Polygon","coordinates":[[[2.19375,50.5162],[2.192,50.51719],[2.1946,50.51757],[2.19414,50.51702],[2.19568,50.51476],[2.19581,50.51303],[2.19554,50.51318],[2.19375,50.5162]]]}},{"type":"Feature","properties":{"k":"ORH","s":0.737},"geometry":{"type":"Polygon","coordinates":[[[2.19245,50.51537],[2.19386,50.51586],[2.19427,50.51528],[2.19275,50.5149],[2.19245,50.51537]]]}},{"type":"Feature","properties":{"k":"BTH","s":0.35},"geometry":{"type":"Polygon","coordinates":[[[2.19427,50.51528],[2.19445,50.51504],[2.19293,50.51466],[2.19275,50.5149],[2.19427,50.51528]]]}},{"type":"Feature","properties":{"k":"PTR","s":0.443},"geometry":{"type":"Polygon","coordinates":[[[2.19445,50.51503],[2.19462,50.51485],[2.19315,50.51421],[2.19289,50.51463],[2.19445,50.51503]]]}},{"type":"Feature","properties":{"k":"MIS","s":0.179},"geometry":{"type":"Polygon","coordinates":[[[2.19462,50.51485],[2.19481,50.51452],[2.19444,50.51423],[2.19406,50.51461],[2.19462,50.51485]]]}},{"type":"Feature","properties":{"k":"MIS","s":0.156},"geometry":{"type":"Polygon","coordinates":[[[2.19448,50.51415],[2.19473,50.51444],[2.19487,50.51437],[2.1949,50.5137],[2.19448,50.51415]]]}},{"type":"Feature","properties":{"k":"MIS","s":1.218},"geometry":{"type":"Polygon","coordinates":[[[2.19398,50.51333],[2.1926,50.51398],[2.19218,50.51462],[2.19282,50.51475],[2.19315,50.51421],[2.19404,50.5146],[2.19441,50.51418],[2.19398,50.51333]]]}},{"type":"Feature","properties":{"k":"PPH","s":0.635},"geometry":{"type":"Polygon","coordinates":[[[2.19445,50.51413],[2.19528,50.51331],[2.19495,50.51278],[2.19405,50.51329],[2.19445,50.51413]]]}},{"type":"Feature","properties":{"k":"PPH","s":0.253},"geometry":{"type":"Polygon","coordinates":[[[2.19405,50.51327],[2.19499,50.51276],[2.19487,50.51258],[2.19375,50.51304],[2.19405,50.51327]]]}},{"type":"Feature","properties":{"k":"MIS","s":0.149},"geometry":{"type":"Polygon","coordinates":[[[2.19503,50.51367],[2.19498,50.51426],[2.19543,50.51361],[2.19533,50.51334],[2.19503,50.51367]]]}},{"type":"Feature","properties":{"k":"ORH","s":0.0},"geometry":{"type":"Polygon","coordinates":[[[2.19203,50.52013],[2.19208,50.52022],[2.19209,50.52021],[2.19203,50.52013]]]}},{"type":"Feature","properties":{"k":"ORH","s":0.0},"geometry":{"type":"Polygon","coordinates":[]}},{"type":"Feature","properties":{"k":"BTH","s":0.002},"geometry":{"type":"Polygon","coordinates":[[[2.19156,50.51932],[2.19155,50.51932],[2.19166,50.51952],[2.19156,50.51932]]]}},{"type":"Feature","properties":{"k":"ORH","s":8.725},"geometry":{"type":"Polygon","coordinates":[[[2.1924,50.52074],[2.194,50.52051],[2.19437,50.52135],[2.19519,50.52118],[2.19461,50.51984],[2.19451,50.51923],[2.19481,50.51781],[2.1946,50.51757],[2.19207,50.5172],[2.1907,50.5178],[2.1924,50.52074]]]}},{"type":"Feature","properties":{"k":"BTH","s":0.019},"geometry":{"type":"Polygon","coordinates":[[[2.19114,50.51857],[2.19068,50.51776],[2.19065,50.51778],[2.19118,50.51869],[2.19114,50.51857]]]}},{"type":"Feature","properties":{"k":"PTR","s":0.0},"geometry":{"type":"Polygon","coordinates":[]}},{"type":"Feature","properties":{"k":"ORH","s":0.56},"geometry":{"type":"Polygon","coordinates":[[[2.19065,50.51773],[2.19192,50.51718],[2.19011,50.51683],[2.19065,50.51773]]]}},{"type":"Feature","properties":{"k":"PTR","s":0.006},"geometry":{"type":"Polygon","coordinates":[[[2.1912,50.51869],[2.19118,50.51869],[2.19135,50.51898],[2.1912,50.51869]]]}},{"type":"Feature","properties":{"k":"BTH","s":0.001},"geometry":{"type":"Polygon","coordinates":[]}},{"type":"Feature","properties":{"k":"CZH","s":2.407},"geometry":{"type":"Polygon","coordinates":[[[2.19522,50.52117],[2.193,50.52164],[2.19404,50.52287],[2.19589,50.52261],[2.19522,50.52117]]]}},{"type":"Feature","properties":{"k":"ORH","s":0.001},"geometry":{"type":"Polygon","coordinates":[]}},{"type":"Feature","properties":{"k":"BTH","s":0.0},"geometry":{"type":"Polygon","coordinates":[]}},{"type":"Feature","properties":{"k":"LIF","s":1.028},"geometry":{"type":"Polygon","coordinates":[[[2.19297,50.52159],[2.19435,50.52129],[2.194,50.52051],[2.19246,50.52075],[2.19297,50.52159]]]}},{"type":"Feature","properties":{"k":"MIS","s":0.007},"geometry":{"type":"Polygon","coordinates":[]}},{"type":"Feature","properties":{"k":"BTH","s":0.021},"geometry":{"type":"Polygon","coordinates":[[[2.19579,50.52238],[2.19582,50.52238],[2.19531,50.52132],[2.19579,50.52238]]]}},{"type":"Feature","properties":{"k":"BTH","s":0.94},"geometry":{"type":"Polygon","coordinates":[[[2.19454,50.52347],[2.19623,50.52329],[2.19594,50.52264],[2.19406,50.5229],[2.19454,50.52347]]]}},{"type":"Feature","properties":{"k":"BTH","s":0.005},"geometry":{"type":"MultiPolygon","coordinates":[[[[2.19624,50.52327],[2.19623,50.52329],[2.19625,50.52329],[2.19624,50.52327]]]]}},{"type":"Feature","properties":{"k":"PPH","s":1.407},"geometry":{"type":"Polygon","coordinates":[[[2.18233,50.50968],[2.18182,50.50938],[2.18005,50.50894],[2.17996,50.50922],[2.18057,50.51003],[2.18203,50.5102],[2.18233,50.50968]]]}},{"type":"Feature","properties":{"k":"ORH","s":1.076},"geometry":{"type":"Polygon","coordinates":[[[2.18687,50.51083],[2.18739,50.51124],[2.18821,50.51147],[2.18908,50.51118],[2.18804,50.51033],[2.18687,50.51083]]]}},{"type":"Feature","properties":{"k":"BTH","s":2.103},"geometry":{"type":"Polygon","coordinates":[[[2.18561,50.51139],[2.18684,50.51267],[2.18734,50.5126],[2.18815,50.51213],[2.18838,50.51221],[2.18884,50.51168],[2.18723,50.51126],[2.18561,50.51139]]]}},{"type":"Feature","properties":{"k":"BTH","s":3.669},"geometry":{"type":"Polygon","coordinates":[[[2.18409,50.50975],[2.18329,50.51016],[2.18404,50.51065],[2.18554,50.51128],[2.18733,50.51119],[2.18687,50.51083],[2.18798,50.5103],[2.18722,50.50969],[2.18629,50.51031],[2.18522,50.50942],[2.18435,50.50991],[2.18409,50.50975]]]}},{"type":"Feature","properties":{"k":"PPH","s":2.048},"geometry":{"type":"Polygon","coordinates":[[[2.18301,50.51137],[2.18497,50.51257],[2.18613,50.51262],[2.18614,50.51239],[2.1848,50.5116],[2.18529,50.51127],[2.18406,50.51077],[2.18301,50.51137]]]}},{"type":"Feature","properties":{"k":"MIS","s":2.606},"geometry":{"type":"Polygon","coordinates":[[[2.18119,50.51171],[2.18247,50.51235],[2.18296,50.51209],[2.18473,50.51303],[2.18507,50.51265],[2.18285,50.51135],[2.182,50.51149],[2.18127,50.51016],[2.18057,50.51008],[2.18119,50.51171]]]}},{"type":"Feature","properties":{"k":"BTH","s":0.887},"geometry":{"type":"Polygon","coordinates":[[[2.18069,50.51248],[2.18176,50.51293],[2.18247,50.51236],[2.18119,50.51171],[2.18069,50.51248]]]}},{"type":"Feature","properties":{"k":"PPH","s":0.448},"geometry":{"type":"Polygon","coordinates":[[[2.1802,50.51214],[2.18069,50.51233],[2.18112,50.51164],[2.18092,50.51111],[2.18075,50.51112],[2.1802,50.51214]]]}},{"type":"Feature","properties":{"k":"PPH","s":0.679},"geometry":{"type":"Polygon","coordinates":[[[2.18004,50.51206],[2.18061,50.51107],[2.17966,50.5109],[2.17945,50.51103],[2.17945,50.51183],[2.18062,50.51236],[2.18004,50.51206]]]}},{"type":"Feature","properties":{"k":"PPH","s":0.821},"geometry":{"type":"Polygon","coordinates":[[[2.18202,50.51148],[2.18288,50.51132],[2.18202,50.51021],[2.18128,50.51014],[2.18202,50.51148]]]}},{"type":"Feature","properties":{"k":"PPH","s":1.673},"geometry":{"type":"Polygon","coordinates":[[[2.17942,50.50902],[2.17832,50.50957],[2.17839,50.51065],[2.17851,50.51073],[2.18046,50.51002],[2.17942,50.50902]]]}},{"type":"Feature","properties":{"k":"PPH","s":1.014},"geometry":{"type":"Polygon","coordinates":[[[2.17905,50.51053],[2.17851,50.51073],[2.17919,50.51095],[2.17966,50.51087],[2.18092,50.51106],[2.18044,50.51003],[2.17905,50.51053]]]}},{"type":"Feature","properties":{"k":"PPH","s":1.463},"geometry":{"type":"Polygon","coordinates":[[[2.17477,50.50622],[2.17421,50.50672],[2.17534,50.5072],[2.17667,50.50544],[2.1762,50.50525],[2.17581,50.50573],[2.17477,50.50622]]]}},{"type":"Feature","properties":{"k":"PPH","s":3.095},"geometry":{"type":"Polygon","coordinates":[[[2.17232,50.50629],[2.17255,50.50655],[2.17391,50.5057],[2.17283,50.50677],[2.1748,50.50608],[2.17498,50.50586],[2.17422,50.50549],[2.1746,50.50502],[2.17372,50.50452],[2.17346,50.50481],[2.17323,50.50444],[2.17266,50.5042],[2.17227,50.50453],[2.17322,50.505],[2.17299,50.50533],[2.1725,50.50503],[2.17236,50.50516],[2.17208,50.50505],[2.17174,50.50526],[2.17141,50.50508],[2.17086,50.50538],[2.17164,50.50582],[2.1724,50.50541],[2.17308,50.50581],[2.17232,50.50629]]]}},{"type":"Feature","properties":{"k":"PPH","s":2.454},"geometry":{"type":"Polygon","coordinates":[[[2.16307,50.50297],[2.164,50.50307],[2.16414,50.50268],[2.16385,50.50263],[2.16389,50.50246],[2.16425,50.50252],[2.16436,50.50215],[2.1641,50.50212],[2.16417,50.50181],[2.15967,50.50205],[2.15973,50.50304],[2.16307,50.50297]],[[2.16328,50.50231],[2.16321,50.50292],[2.15982,50.50297],[2.1598,50.50261],[2.16328,50.50231]]]}},{"type":"Feature","properties":{"k":"TRE","s":1.303},"geometry":{"type":"Polygon","coordinates":[[[2.16321,50.50292],[2.16328,50.50231],[2.1598,50.50261],[2.15982,50.50297],[2.16321,50.50292]]]}},{"type":"Feature","properties":{"k":"PPH","s":2.564},"geometry":{"type":"Polygon","coordinates":[[[2.15807,50.50197],[2.16021,50.50203],[2.16013,50.50111],[2.16049,50.50107],[2.16098,50.49991],[2.16022,50.50021],[2.15955,50.50027],[2.15968,50.50094],[2.15793,50.50091],[2.15807,50.50197]]]}},{"type":"Feature","properties":{"k":"PTC","s":2.322},"geometry":{"type":"Polygon","coordinates":[[[2.15793,50.50091],[2.15813,50.5008],[2.15764,50.50026],[2.15746,50.50028],[2.15672,50.50051],[2.15675,50.50267],[2.15822,50.50272],[2.15793,50.50091]]]}},{"type":"Feature","properties":{"k":"BTA","s":0.075},"geometry":{"type":"Polygon","coordinates":[[[2.15718,50.50304],[2.15829,50.50308],[2.15828,50.503],[2.15691,50.50295],[2.15718,50.50304]]]}},{"type":"Feature","properties":{"k":"JAC","s":0.082},"geometry":{"type":"Polygon","coordinates":[[[2.15592,50.5027],[2.15591,50.50282],[2.15672,50.50291],[2.15674,50.50278],[2.15592,50.5027]]]}},{"type":"Feature","properties":{"k":"BTA","s":0.038},"geometry":{"type":"Polygon","coordinates":[[[2.15672,50.50291],[2.15591,50.50282],[2.15592,50.50287],[2.15672,50.50291]]]}},{"type":"Feature","properties":{"k":"BTA","s":0.073},"geometry":{"type":"Polygon","coordinates":[[[2.155,50.50274],[2.15592,50.50287],[2.15591,50.50281],[2.15416,50.50255],[2.155,50.50274]]]}},{"type":"Feature","properties":{"k":"BTA","s":0.0},"geometry":{"type":"Polygon","coordinates":[]}},{"type":"Feature","properties":{"k":"JAC","s":0.091},"geometry":{"type":"Polygon","coordinates":[[[2.1531,50.50223],[2.15323,50.50228],[2.15346,50.50185],[2.1531,50.5016],[2.1531,50.50223]]]}},{"type":"Feature","properties":{"k":"ORH","s":1.06},"geometry":{"type":"Polygon","coordinates":[[[2.15591,50.50281],[2.15595,50.50146],[2.15422,50.50225],[2.15416,50.50251],[2.15591,50.50281]]]}},{"type":"Feature","properties":{"k":"PTC","s":1.118},"geometry":{"type":"Polygon","coordinates":[[[2.15683,50.50154],[2.15672,50.50051],[2.15595,50.50146],[2.15592,50.5027],[2.15674,50.50275],[2.15683,50.50154]]]}},{"type":"Feature","properties":{"k":"BTN","s":8.703},"geometry":{"type":"Polygon","coordinates":[[[2.15331,50.50224],[2.15452,50.50209],[2.1559,50.50143],[2.15656,50.50071],[2.1565,50.49918],[2.15507,50.49777],[2.15372,50.49873],[2.15283,50.49828],[2.15388,50.49882],[2.15323,50.49993],[2.15302,50.50075],[2.1531,50.5016],[2.15337,50.50167],[2.15331,50.50224]]]}},{"type":"Feature","properties":{"k":"CZH","s":0.002},"geometry":{"type":"Polygon","coordinates":[[[2.15283,50.49827],[2.15255,50.49813],[2.15283,50.49828],[2.15283,50.49827]]]}},{"type":"Feature","properties":{"k":"PTC","s":0.014},"geometry":{"type":"Polygon","coordinates":[[[2.15214,50.49792],[2.15123,50.49742],[2.15121,50.49744],[2.15214,50.49792]]]}},{"type":"Feature","properties":{"k":"MIS","s":2.959},"geometry":{"type":"Polygon","coordinates":[[[2.15372,50.49873],[2.15507,50.49777],[2.15511,50.49729],[2.15524,50.49742],[2.15561,50.49724],[2.15438,50.49641],[2.15236,50.49804],[2.15372,50.49873]]]}},{"type":"Feature","properties":{"k":"PPH","s":1.134},"geometry":{"type":"Polygon","coordinates":[[[2.15539,50.49788],[2.15661,50.49902],[2.15714,50.49834],[2.15557,50.4972],[2.15526,50.49748],[2.15539,50.49788]]]}},{"type":"Feature","properties":{"k":"PTC","s":2.903},"geometry":{"type":"Polygon","coordinates":[[[2.15704,50.49828],[2.15819,50.49682],[2.15667,50.49595],[2.15513,50.49678],[2.15704,50.49828]]]}},{"type":"Feature","properties":{"k":"CZH","s":0.331},"geometry":{"type":"Polygon","coordinates":[[[2.15963,50.49729],[2.15852,50.49654],[2.15836,50.49674],[2.16002,50.49764],[2.16025,50.49747],[2.15979,50.49718],[2.15963,50.49729]]]}},{"type":"Feature","properties":{"k":"BTH","s":0.419},"geometry":{"type":"Polygon","coordinates":[[[2.16047,50.49736],[2.15865,50.49632],[2.15852,50.49654],[2.15918,50.49687],[2.15906,50.49698],[2.15963,50.49729],[2.15979,50.49718],[2.16032,50.49744],[2.16047,50.49736]]]}},{"type":"Feature","properties":{"k":"MIS","s":1.534},"geometry":{"type":"Polygon","coordinates":[[[2.16,50.49864],[2.16009,50.49856],[2.15992,50.49829],[2.16001,50.49764],[2.15834,50.49674],[2.15777,50.49749],[2.16,50.49864]]]}},{"type":"Feature","properties":{"k":"MIS","s":2.852},"geometry":{"type":"Polygon","coordinates":[[[2.15866,50.49895],[2.159,50.49827],[2.15866,50.49897],[2.15973,50.49958],[2.16072,50.49991],[2.16104,50.49983],[2.16141,50.49892],[2.16009,50.49857],[2.15999,50.49864],[2.15782,50.49751],[2.15789,50.49782],[2.15759,50.49829],[2.15866,50.49895]]]}},{"type":"Feature","properties":{"k":"PPH","s":0.913},"geometry":{"type":"Polygon","coordinates":[[[2.15834,50.50013],[2.15773,50.49982],[2.15697,50.49901],[2.15666,50.49903],[2.15672,50.50044],[2.15834,50.50013]]]}},{"type":"Feature","properties":{"k":"TTH","s":0.358},"geometry":{"type":"Polygon","coordinates":[[[2.16017,50.50017],[2.16102,50.49984],[2.16072,50.49991],[2.15973,50.49958],[2.15959,50.50024],[2.16017,50.50017]]]}},{"type":"Feature","properties":{"k":"BTH","s":1.651},"geometry":{"type":"Polygon","coordinates":[[[2.16207,50.50106],[2.16215,50.50076],[2.16253,50.5008],[2.16264,50.49994],[2.16123,50.4998],[2.16098,50.49991],[2.16049,50.50107],[2.16207,50.50106]]]}},{"type":"Feature","properties":{"k":"BTH","s":0.813},"geometry":{"type":"Polygon","coordinates":[[[2.16346,50.49894],[2.16142,50.49889],[2.16104,50.49983],[2.16346,50.49894]]]}},{"type":"Feature","properties":{"k":"BTH","s":0.532},"geometry":{"type":"Polygon","coordinates":[[[2.16182,50.49963],[2.16123,50.4998],[2.16264,50.49992],[2.16341,50.49905],[2.16182,50.49963]]]}},{"type":"Feature","properties":{"k":"MIS","s":3.078},"geometry":{"type":"Polygon","coordinates":[[[2.16001,50.49764],[2.16003,50.49853],[2.16127,50.49889],[2.16275,50.49891],[2.16334,50.49806],[2.16118,50.49732],[2.1605,50.49737],[2.16001,50.49764]]]}},{"type":"Feature","properties":{"k":"MIS","s":0.656},"geometry":{"type":"Polygon","coordinates":[[[2.16148,50.49741],[2.16304,50.49795],[2.16304,50.49702],[2.16148,50.49741]]]}},{"type":"Feature","properties":{"k":"BTH","s":0.774},"geometry":{"type":"Polygon","coordinates":[[[2.16345,50.49901],[2.16468,50.49856],[2.16334,50.49806],[2.16275,50.49891],[2.16345,50.49901]]]}},{"type":"Feature","properties":{"k":"CZH","s":5.497},"geometry":{"type":"Polygon","coordinates":[[[2.16677,50.49703],[2.1656,50.49686],[2.16304,50.49702],[2.16304,50.49793],[2.16469,50.49851],[2.16577,50.49834],[2.16786,50.49888],[2.16803,50.49795],[2.16766,50.49737],[2.16677,50.49703]]]}},{"type":"Feature","properties":{"k":"BTH","s":1.162},"geometry":{"type":"Polygon","coordinates":[[[2.16809,50.4979],[2.16804,50.49858],[2.16931,50.49759],[2.16798,50.49672],[2.16753,50.49697],[2.16809,50.4979]]]}},{"type":"Feature","properties":{"k":"BTH","s":1.627},"geometry":{"type":"Polygon","coordinates":[[[2.1693,50.49759],[2.16805,50.49859],[2.16876,50.49889],[2.17111,50.49871],[2.1693,50.49759]]]}},{"type":"Feature","properties":{"k":"PPH","s":0.126},"geometry":{"type":"Polygon","coordinates":[[[2.16798,50.49889],[2.16876,50.49889],[2.1683,50.49869],[2.16792,50.49853],[2.16798,50.49889]]]}},{"type":"Feature","properties":{"k":"BTH","s":3.147},"geometry":{"type":"Polygon","coordinates":[[[2.16538,50.50011],[2.16721,50.50058],[2.16801,50.50015],[2.16813,50.49931],[2.16787,50.49894],[2.16597,50.49842],[2.16538,50.50011]]]}},{"type":"Feature","properties":{"k":"BTH","s":0.006},"geometry":{"type":"Polygon","coordinates":[[[2.16811,50.49896],[2.16878,50.49895],[2.16808,50.49894],[2.16811,50.49896]]]}},{"type":"Feature","properties":{"k":"BTH","s":0.368},"geometry":{"type":"Polygon","coordinates":[[[2.16824,50.49936],[2.16821,50.50009],[2.16905,50.49956],[2.16808,50.49894],[2.16824,50.49936]]]}},{"type":"Feature","properties":{"k":"PPH","s":1.224},"geometry":{"type":"Polygon","coordinates":[[[2.16932,50.501],[2.1703,50.50035],[2.16905,50.49956],[2.16819,50.5001],[2.16932,50.501]]]}},{"type":"Feature","properties":{"k":"BTH","s":5.074},"geometry":{"type":"Polygon","coordinates":[[[2.16253,50.5008],[2.16298,50.50086],[2.16299,50.50111],[2.16517,50.5012],[2.16597,50.49842],[2.16484,50.49855],[2.16341,50.49905],[2.16264,50.49992],[2.16253,50.5008]]]}},{"type":"Feature","properties":{"k":"TRE","s":0.001},"geometry":{"type":"Polygon","coordinates":[[[2.16414,50.50319],[2.16394,50.50316],[2.16432,50.50324],[2.16414,50.50319]]]}},{"type":"Feature","properties":{"k":"PPH","s":3.783},"geometry":{"type":"Polygon","coordinates":[[[2.1645,50.50283],[2.16417,50.50299],[2.16409,50.50309],[2.16429,50.50298],[2.1644,50.50315],[2.16789,50.50417],[2.16872,50.50322],[2.16619,50.50229],[2.16464,50.50221],[2.1645,50.50283]]]}},{"type":"Feature","properties":{"k":"BTH","s":8.194},"geometry":{"type":"Polygon","coordinates":[[[2.16896,50.50106],[2.16912,50.50096],[2.16803,50.50016],[2.16721,50.50058],[2.16538,50.50011],[2.16517,50.5012],[2.16423,50.50112],[2.1641,50.50212],[2.16619,50.50229],[2.16872,50.50322],[2.16954,50.50226],[2.1693,50.50216],[2.16997,50.50162],[2.16896,50.50106]]]}},{"type":"Feature","properties":{"k":"JAC","s":0.115},"geometry":{"type":"Polygon","coordinates":[[[2.16997,50.50162],[2.1701,50.50152],[2.16912,50.50096],[2.16896,50.50106],[2.16997,50.50162]]]}},{"type":"Feature","properties":{"k":"PPH","s":3.815},"geometry":{"type":"Polygon","coordinates":[[[2.17014,50.50145],[2.1717,50.50215],[2.17193,50.50198],[2.17193,50.50227],[2.17251,50.50193],[2.17462,50.50288],[2.17545,50.50237],[2.17361,50.50127],[2.17443,50.50064],[2.17394,50.50037],[2.17217,50.50159],[2.17098,50.50077],[2.17014,50.50145]]]}},{"type":"Feature","properties":{"k":"PPH","s":2.921},"geometry":{"type":"Polygon","coordinates":[[[2.17047,50.50384],[2.17157,50.50259],[2.17121,50.50245],[2.17152,50.50216],[2.1701,50.50152],[2.1693,50.50216],[2.16954,50.50226],[2.16872,50.50322],[2.17047,50.50384]]]}},{"type":"Feature","properties":{"k":"PPH","s":1.772},"geometry":{"type":"Polygon","coordinates":[[[2.17075,50.50417],[2.17157,50.50448],[2.17143,50.50463],[2.17172,50.50479],[2.17252,50.50415],[2.17176,50.50387],[2.17193,50.5037],[2.17144,50.50351],[2.1709,50.50345],[2.17053,50.50389],[2.16965,50.50359],[2.16915,50.50417],[2.17035,50.50457],[2.17075,50.50417]]]}},{"type":"Feature","properties":{"k":"PPH","s":0.79},"geometry":{"type":"Polygon","coordinates":[[[2.17285,50.50395],[2.17395,50.50331],[2.17342,50.50301],[2.17308,50.50338],[2.1733,50.50349],[2.17319,50.50359],[2.17298,50.50349],[2.17273,50.50359],[2.17226,50.50338],[2.17256,50.50312],[2.17237,50.50304],[2.1722,50.5032],[2.17187,50.50307],[2.17157,50.50352],[2.17285,50.50395]]]}},{"type":"Feature","properties":{"k":"PPH","s":4.378},"geometry":{"type":"Polygon","coordinates":[[[2.17634,50.50437],[2.17648,50.50405],[2.17722,50.50348],[2.17575,50.50289],[2.1751,50.50297],[2.1761,50.50341],[2.17594,50.50361],[2.17481,50.50335],[2.17408,50.50399],[2.17422,50.50407],[2.17408,50.50425],[2.17491,50.50474],[2.17426,50.50548],[2.17504,50.50586],[2.17488,50.50619],[2.17579,50.50573],[2.17617,50.50524],[2.17671,50.50542],[2.17673,50.5045],[2.17634,50.50437]]]}},{"type":"Feature","properties":{"k":"MIS","s":1.049},"geometry":{"type":"Polygon","coordinates":[[[2.17253,50.50195],[2.17206,50.50232],[2.17391,50.50319],[2.1746,50.50288],[2.17253,50.50195]]]}},{"type":"Feature","properties":{"k":"BTH","s":1.522},"geometry":{"type":"Polygon","coordinates":[[[2.17619,50.50172],[2.17443,50.50064],[2.17367,50.50126],[2.17549,50.50235],[2.17619,50.50172]]]}},{"type":"Feature","properties":{"k":"ORH","s":0.533},"geometry":{"type":"Polygon","coordinates":[[[2.17418,50.5005],[2.17619,50.50172],[2.1764,50.50148],[2.17444,50.50033],[2.17418,50.5005]]]}},{"type":"Feature","properties":{"k":"BTH","s":0.48},"geometry":{"type":"Polygon","coordinates":[[[2.17443,50.50032],[2.1764,50.50148],[2.1766,50.50125],[2.17467,50.50016],[2.17443,50.50032]]]}},{"type":"Feature","properties":{"k":"PPH","s":2.46},"geometry":{"type":"Polygon","coordinates":[[[2.17419,50.50048],[2.1747,50.50014],[2.17597,50.50088],[2.17661,50.50039],[2.17568,50.49998],[2.17601,50.49967],[2.17462,50.49954],[2.17329,50.49877],[2.17254,50.49936],[2.17419,50.50048]]]}},{"type":"Feature","properties":{"k":"BTH","s":5.792},"geometry":{"type":"Polygon","coordinates":[[[2.16808,50.49896],[2.17217,50.50159],[2.17392,50.50037],[2.17123,50.4988],[2.16939,50.49892],[2.16939,50.49902],[2.16808,50.49896]]]}},{"type":"Feature","properties":{"k":"PPH","s":0.817},"geometry":{"type":"Polygon","coordinates":[[[2.17394,50.50037],[2.17396,50.5004],[2.17402,50.50023],[2.17251,50.49935],[2.17327,50.49875],[2.17242,50.49861],[2.17241,50.49861],[2.17231,50.49879],[2.17201,50.49878],[2.17199,50.49863],[2.1718,50.49865],[2.17127,50.49876],[2.17394,50.50037]]]}},{"type":"Feature","properties":{"k":"PPH","s":3.551},"geometry":{"type":"Polygon","coordinates":[[[2.16798,50.49672],[2.17111,50.49871],[2.17247,50.49856],[2.17057,50.49712],[2.16968,50.49669],[2.16721,50.49592],[2.167,50.4963],[2.16798,50.49672]]]}},{"type":"Feature","properties":{"k":"PPH","s":6.725},"geometry":{"type":"Polygon","coordinates":[[[2.17052,50.49642],[2.17041,50.49704],[2.17247,50.49856],[2.17331,50.49868],[2.17465,50.49945],[2.17593,50.49958],[2.17718,50.49925],[2.17778,50.49889],[2.17799,50.49903],[2.17879,50.49879],[2.17839,50.49815],[2.1778,50.49836],[2.17726,50.49781],[2.17623,50.49819],[2.1749,50.49752],[2.17357,50.49845],[2.17052,50.49642]]]}},{"type":"Feature","properties":{"k":"BTH","s":19.846},"geometry":{"type":"Polygon","coordinates":[[[2.17164,50.49334],[2.17027,50.49433],[2.16873,50.49394],[2.16812,50.49541],[2.17112,50.49667],[2.17358,50.4984],[2.1749,50.4975],[2.1756,50.49788],[2.17781,50.49721],[2.17682,50.49562],[2.17559,50.49499],[2.17385,50.49454],[2.17164,50.49334]]]}},{"type":"Feature","properties":{"k":"PPH","s":1.071},"geometry":{"type":"Polygon","coordinates":[[[2.17537,50.49486],[2.17626,50.49462],[2.17599,50.49418],[2.17477,50.49387],[2.17399,50.49427],[2.17537,50.49486]]]}},{"type":"Feature","properties":{"k":"PTR","s":0.035},"geometry":{"type":"Polygon","coordinates":[[[2.17425,50.49469],[2.17436,50.4946],[2.17394,50.49447],[2.17425,50.49469]]]}},{"type":"Feature","properties":{"k":"MIS","s":0.258},"geometry":{"type":"Polygon","coordinates":[[[2.1724,50.49355],[2.17176,50.49325],[2.17164,50.49334],[2.17385,50.49454],[2.1724,50.49355]]]}},{"type":"Feature","properties":{"k":"PPH","s":0.543},"geometry":{"type":"Polygon","coordinates":[[[2.17303,50.49332],[2.17249,50.4934],[2.17239,50.49307],[2.17194,50.49283],[2.17138,50.49262],[2.17098,50.49266],[2.17288,50.49374],[2.17317,50.49352],[2.17303,50.49332]]]}},{"type":"Feature","properties":{"k":"MIS","s":0.455},"geometry":{"type":"Polygon","coordinates":[[[2.17176,50.49325],[2.17133,50.49301],[2.17015,50.49428],[2.17176,50.49325]]]}},{"type":"Feature","properties":{"k":"BTH","s":5.372},"geometry":{"type":"Polygon","coordinates":[[[2.16522,50.49529],[2.16925,50.49649],[2.17043,50.49699],[2.17052,50.49642],[2.16961,50.49598],[2.16874,50.49578],[2.16405,50.49342],[2.1629,50.49383],[2.16372,50.49449],[2.16522,50.49529]]]}},{"type":"Feature","properties":{"k":"BTH","s":1.244},"geometry":{"type":"Polygon","coordinates":[[[2.16677,50.49703],[2.16767,50.49737],[2.16696,50.49633],[2.16692,50.49643],[2.16539,50.49614],[2.16472,50.49689],[2.16677,50.49703]]]}},{"type":"Feature","properties":{"k":"BTH","s":2.335},"geometry":{"type":"Polygon","coordinates":[[[2.16453,50.49506],[2.16387,50.49551],[2.16424,50.49565],[2.16356,50.49698],[2.1647,50.49688],[2.16543,50.49612],[2.16683,50.49641],[2.16696,50.49633],[2.16586,50.49556],[2.16453,50.49506]]]}},{"type":"Feature","properties":{"k":"BTH","s":0.609},"geometry":{"type":"Polygon","coordinates":[[[2.16387,50.49551],[2.1645,50.49505],[2.16375,50.49455],[2.16288,50.49526],[2.16387,50.49551]]]}},{"type":"Feature","properties":{"k":"CZH","s":5.863},"geometry":{"type":"Polygon","coordinates":[[[2.16612,50.49248],[2.16405,50.49342],[2.16812,50.49542],[2.16874,50.49392],[2.16911,50.4935],[2.16823,50.49306],[2.16612,50.49248]]]}},{"type":"Feature","properties":{"k":"BTH","s":3.695},"geometry":{"type":"Polygon","coordinates":[[[2.17137,50.49297],[2.1711,50.49277],[2.16982,50.49246],[2.16684,50.49206],[2.16609,50.49247],[2.1682,50.49307],[2.16963,50.4929],[2.16873,50.49394],[2.17015,50.49428],[2.17137,50.49297]]]}},{"type":"Feature","properties":{"k":"PPH","s":0.293},"geometry":{"type":"Polygon","coordinates":[[[2.16962,50.4929],[2.16823,50.49306],[2.16911,50.4935],[2.16962,50.4929]]]}},{"type":"Feature","properties":{"k":"CZH","s":2.714},"geometry":{"type":"Polygon","coordinates":[[[2.16857,50.49092],[2.16695,50.49199],[2.1695,50.49233],[2.1702,50.49184],[2.17132,50.49181],[2.17127,50.49111],[2.16927,50.49132],[2.16857,50.49092]]]}},{"type":"Feature","properties":{"k":"JAC","s":0.043},"geometry":{"type":"Polygon","coordinates":[[[2.16654,50.49194],[2.16671,50.49204],[2.16696,50.49188],[2.16678,50.49177],[2.16654,50.49194]]]}},{"type":"Feature","properties":{"k":"BTH","s":1.178},"geometry":{"type":"Polygon","coordinates":[[[2.16363,50.49349],[2.16474,50.49304],[2.16365,50.49219],[2.16254,50.49262],[2.16363,50.49349]]]}},{"type":"Feature","properties":{"k":"ORH","s":3.389},"geometry":{"type":"Polygon","coordinates":[[[2.16167,50.49201],[2.16252,50.49262],[2.16366,50.49217],[2.16475,50.49304],[2.16602,50.49244],[2.16485,50.49174],[2.16527,50.4916],[2.16387,50.49099],[2.16167,50.49201]]]}},{"type":"Feature","properties":{"k":"CZH","s":1.988},"geometry":{"type":"Polygon","coordinates":[[[2.16591,50.49045],[2.16411,50.49101],[2.16603,50.49199],[2.16658,50.49165],[2.16696,50.49188],[2.16751,50.49153],[2.16591,50.49045]]]}},{"type":"Feature","properties":{"k":"BTH","s":0.375},"geometry":{"type":"Polygon","coordinates":[[[2.16643,50.49222],[2.16527,50.4916],[2.16485,50.49174],[2.16603,50.49245],[2.16643,50.49222]]]}},{"type":"Feature","properties":{"k":"BTH","s":2.954},"geometry":{"type":"Polygon","coordinates":[[[2.16345,50.4911],[2.16384,50.49095],[2.16328,50.49063],[2.16317,50.49042],[2.16347,50.49032],[2.1641,50.49102],[2.16606,50.49038],[2.16492,50.48915],[2.16235,50.48999],[2.16345,50.4911]]]}},{"type":"Feature","properties":{"k":"BTH","s":2.497},"geometry":{"type":"Polygon","coordinates":[[[2.16512,50.48846],[2.16457,50.48843],[2.16509,50.48942],[2.16607,50.49038],[2.16587,50.49044],[2.16752,50.49151],[2.16813,50.49111],[2.16512,50.48846]]]}},{"type":"Feature","properties":{"k":"BTH","s":0.859},"geometry":{"type":"Polygon","coordinates":[[[2.16561,50.48851],[2.16512,50.48846],[2.16813,50.49111],[2.16837,50.49097],[2.16561,50.48851]]]}},{"type":"Feature","properties":{"k":"CZH","s":3.787},"geometry":{"type":"Polygon","coordinates":[[[2.17394,50.49127],[2.17278,50.48942],[2.17082,50.48984],[2.17185,50.49198],[2.17352,50.4915],[2.17345,50.49141],[2.17394,50.49127]]]}},{"type":"Feature","properties":{"k":"BTH","s":1.724},"geometry":{"type":"Polygon","coordinates":[[[2.16914,50.49124],[2.16927,50.4913],[2.17143,50.49108],[2.17081,50.48986],[2.16875,50.49081],[2.16933,50.49113],[2.16914,50.49124]]]}},{"type":"Feature","properties":{"k":"MIS","s":0.706},"geometry":{"type":"Polygon","coordinates":[[[2.17133,50.49182],[2.17021,50.49185],[2.1695,50.49233],[2.17086,50.49261],[2.17123,50.4925],[2.17133,50.49182]]]}},{"type":"Feature","properties":{"k":"PPH","s":0.449},"geometry":{"type":"Polygon","coordinates":[[[2.173,50.49311],[2.17266,50.49314],[2.17149,50.49252],[2.17133,50.49182],[2.17123,50.4925],[2.17086,50.49261],[2.17138,50.49262],[2.17194,50.49283],[2.17239,50.49307],[2.17249,50.4934],[2.17303,50.49332],[2.17317,50.49352],[2.17344,50.49333],[2.173,50.49311]]]}},{"type":"Feature","properties":{"k":"TRE","s":0.209},"geometry":{"type":"Polygon","coordinates":[[[2.17132,50.49181],[2.17166,50.4918],[2.17177,50.492],[2.17144,50.49109],[2.17127,50.49111],[2.17132,50.49181]]]}},{"type":"Feature","properties":{"k":"MIS","s":3.412},"geometry":{"type":"Polygon","coordinates":[[[2.17515,50.49366],[2.17508,50.49329],[2.17355,50.49228],[2.17443,50.49209],[2.17401,50.49137],[2.17177,50.49201],[2.17164,50.49181],[2.17143,50.49181],[2.17149,50.49252],[2.17266,50.49314],[2.173,50.49311],[2.17471,50.49374],[2.17551,50.49397],[2.17559,50.49389],[2.17515,50.49366]]]}},{"type":"Feature","properties":{"k":"BTN","s":0.409},"geometry":{"type":"Polygon","coordinates":[[[2.17356,50.49049],[2.17396,50.49044],[2.17328,50.48929],[2.1729,50.48939],[2.17356,50.49049]]]}},{"type":"Feature","properties":{"k":"ORH","s":10.553},"geometry":{"type":"Polygon","coordinates":[[[2.16389,50.48289],[2.16394,50.48277],[2.16545,50.48433],[2.169,50.4837],[2.16882,50.48316],[2.16695,50.48036],[2.16491,50.4816],[2.16423,50.48121],[2.16284,50.48207],[2.16389,50.48289]]]}},{"type":"Feature","properties":{"k":"BTH","s":0.518},"geometry":{"type":"MultiPolygon","coordinates":[[[[2.16468,50.48866],[2.16457,50.48844],[2.16575,50.48852],[2.16339,50.48828],[2.16387,50.48892],[2.16468,50.48866]]],[[[2.16586,50.48853],[2.16509,50.48673],[2.16508,50.48672],[2.16575,50.48852],[2.16586,50.48853]]]]}},{"type":"Feature","properties":{"k":"BTH","s":5.713},"geometry":{"type":"Polygon","coordinates":[[[2.16822,50.4881],[2.17047,50.48726],[2.17017,50.48689],[2.17095,50.48657],[2.16998,50.48509],[2.16662,50.48623],[2.16822,50.4881]]]}},{"type":"Feature","properties":{"k":"BTH","s":11.172},"geometry":{"type":"Polygon","coordinates":[[[2.16822,50.4881],[2.16662,50.48623],[2.16509,50.48673],[2.16586,50.48853],[2.16561,50.48851],[2.16837,50.49097],[2.17075,50.4898],[2.16969,50.48879],[2.1709,50.48836],[2.17048,50.48789],[2.17149,50.48753],[2.17115,50.487],[2.16822,50.4881]]]}},{"type":"Feature","properties":{"k":"CZH","s":1.344},"geometry":{"type":"Polygon","coordinates":[[[2.17191,50.48949],[2.1709,50.48837],[2.16969,50.48879],[2.17076,50.48981],[2.17191,50.48949]]]}},{"type":"Feature","properties":{"k":"MIS","s":1.509},"geometry":{"type":"Polygon","coordinates":[[[2.17384,50.48858],[2.17318,50.48727],[2.17185,50.4878],[2.17261,50.48895],[2.17384,50.48858]]]}},{"type":"Feature","properties":{"k":"MIS","s":0.854},"geometry":{"type":"Polygon","coordinates":[[[2.17239,50.48041],[2.17202,50.48047],[2.17302,50.48305],[2.1734,50.48299],[2.17239,50.48041]]]}},{"type":"Feature","properties":{"k":"MIS","s":4.684},"geometry":{"type":"Polygon","coordinates":[[[2.16923,50.48361],[2.16951,50.48369],[2.17221,50.4832],[2.17149,50.48135],[2.16814,50.48194],[2.16832,50.48231],[2.16893,50.48213],[2.16932,50.48235],[2.16916,50.48256],[2.16861,50.4826],[2.16923,50.48361]]]}},{"type":"Feature","properties":{"k":"LIF","s":0.974},"geometry":{"type":"Polygon","coordinates":[[[2.17197,50.48334],[2.16956,50.48376],[2.16941,50.48392],[2.1697,50.48447],[2.17215,50.48348],[2.17197,50.48334]]]}},{"type":"Feature","properties":{"k":"JAC","s":0.097},"geometry":{"type":"Polygon","coordinates":[[[2.17123,50.48697],[2.17114,50.48685],[2.17037,50.48714],[2.17052,50.48725],[2.17123,50.48697]]]}},{"type":"Feature","properties":{"k":"LIF","s":1.447},"geometry":{"type":"Polygon","coordinates":[[[2.17174,50.48558],[2.17188,50.4857],[2.1737,50.48488],[2.17286,50.48448],[2.17043,50.48559],[2.17066,50.486],[2.17174,50.48558]]]}},{"type":"Feature","properties":{"k":"MIS","s":2.832},"geometry":{"type":"Polygon","coordinates":[[[2.1697,50.48448],[2.1704,50.48561],[2.17318,50.48432],[2.17218,50.48348],[2.1697,50.48448]]]}},{"type":"Feature","properties":{"k":"BTH","s":2.886},"geometry":{"type":"Polygon","coordinates":[[[2.1766,50.49007],[2.17554,50.48866],[2.17328,50.48929],[2.17396,50.49044],[2.1766,50.49007]]]}},{"type":"Feature","properties":{"k":"BTH","s":0.644},"geometry":{"type":"Polygon","coordinates":[[[2.17563,50.48617],[2.17525,50.48576],[2.17388,50.48687],[2.17428,50.48708],[2.17563,50.48617]]]}},{"type":"Feature","properties":{"k":"BTH","s":2.113},"geometry":{"type":"Polygon","coordinates":[[[2.1734,50.48299],[2.17432,50.48283],[2.1733,50.48012],[2.17235,50.48028],[2.1734,50.48299]]]}},{"type":"Feature","properties":{"k":"LIF","s":0.732},"geometry":{"type":"Polygon","coordinates":[[[2.16334,50.48831],[2.16175,50.48944],[2.16189,50.48955],[2.16385,50.48892],[2.16334,50.48831]]]}},{"type":"Feature","properties":{"k":"MIS","s":0.002},"geometry":{"type":"Polygon","coordinates":[[[2.16351,50.48266],[2.16319,50.48244],[2.16363,50.48276],[2.16351,50.48266]]]}},{"type":"Feature","properties":{"k":"BTN","s":0.034},"geometry":{"type":"Polygon","coordinates":[[[2.15716,50.49171],[2.15779,50.49142],[2.15775,50.4914],[2.15621,50.49215],[2.15716,50.49171]]]}},{"type":"Feature","properties":{"k":"BTH","s":0.766},"geometry":{"type":"Polygon","coordinates":[[[2.16483,50.48894],[2.16468,50.48867],[2.1619,50.48957],[2.16221,50.48985],[2.16483,50.48894]]]}},{"type":"Feature","properties":{"k":"PTR","s":1.923},"geometry":{"type":"Polygon","coordinates":[[[2.16204,50.48972],[2.15992,50.49083],[2.16033,50.49107],[2.1615,50.49061],[2.16269,50.49145],[2.16343,50.49109],[2.16204,50.48972]]]}},{"type":"Feature","properties":{"k":"PHF","s":0.441},"geometry":{"type":"MultiPolygon","coordinates":[[[[2.15947,50.49058],[2.1591,50.49075],[2.16004,50.49161],[2.16027,50.49109],[2.15947,50.49058]]],[[[2.162,50.48971],[2.16158,50.48993],[2.16199,50.48974],[2.162,50.48971]]]]}},{"type":"Feature","properties":{"k":"CZH","s":1.318},"geometry":{"type":"Polygon","coordinates":[[[2.1615,50.49061],[2.1603,50.49108],[2.16167,50.49201],[2.16273,50.49148],[2.1615,50.49061]]]}},{"type":"Feature","properties":{"k":"BTH","s":4.999},"geometry":{"type":"Polygon","coordinates":[[[2.16191,50.49411],[2.16363,50.4935],[2.16035,50.49115],[2.16007,50.49167],[2.15909,50.49079],[2.15829,50.49118],[2.16191,50.49411]]]}},{"type":"Feature","properties":{"k":"BTH","s":3.295},"geometry":{"type":"Polygon","coordinates":[[[2.15807,50.49333],[2.15973,50.49242],[2.15829,50.49118],[2.15907,50.49077],[2.15528,50.49258],[2.1559,50.4923],[2.15807,50.49333]]]}},{"type":"Feature","properties":{"k":"MIS","s":5.649},"geometry":{"type":"Polygon","coordinates":[[[2.15751,50.49306],[2.15528,50.49407],[2.15569,50.49429],[2.15524,50.4945],[2.15635,50.49522],[2.15759,50.49514],[2.15889,50.49592],[2.15924,50.49549],[2.16021,50.49495],[2.15807,50.49333],[2.15751,50.49306]]]}},{"type":"Feature","properties":{"k":"BTN","s":3.662},"geometry":{"type":"Polygon","coordinates":[[[2.16191,50.49411],[2.15974,50.49242],[2.15806,50.49333],[2.16021,50.49495],[2.16052,50.49477],[2.16191,50.49411]]]}},{"type":"Feature","properties":{"k":"MIS","s":8.504},"geometry":{"type":"Polygon","coordinates":[[[2.16139,50.49737],[2.16353,50.49698],[2.16422,50.49565],[2.16286,50.49526],[2.16371,50.49453],[2.1628,50.49386],[2.15952,50.49536],[2.15895,50.49596],[2.16139,50.49737]]]}},{"type":"Feature","properties":{"k":"BTH","s":0.742},"geometry":{"type":"Polygon","coordinates":[[[2.1605,50.49737],[2.16118,50.49732],[2.15889,50.49598],[2.15862,50.49631],[2.1605,50.49737]]]}},{"type":"Feature","properties":{"k":"BTH","s":1.369},"geometry":{"type":"Polygon","coordinates":[[[2.15667,50.49595],[2.15822,50.49684],[2.15884,50.49595],[2.15762,50.49521],[2.15667,50.49595]]]}},{"type":"Feature","properties":{"k":"MIS","s":0.267},"geometry":{"type":"Polygon","coordinates":[[[2.15708,50.49573],[2.15751,50.49519],[2.15681,50.49518],[2.15636,50.49528],[2.15708,50.49573]]]}},{"type":"Feature","properties":{"k":"MIS","s":2.524},"geometry":{"type":"Polygon","coordinates":[[[2.15528,50.49407],[2.15751,50.49306],[2.1559,50.4923],[2.15387,50.49326],[2.15528,50.49407]]]}},{"type":"Feature","properties":{"k":"PTC","s":4.624},"geometry":{"type":"Polygon","coordinates":[[[2.15192,50.49381],[2.1548,50.49615],[2.15633,50.49524],[2.15523,50.49451],[2.15567,50.4943],[2.15387,50.49326],[2.15192,50.49381]]]}},{"type":"Feature","properties":{"k":"PTC","s":0.001},"geometry":{"type":"Polygon","coordinates":[[[2.15387,50.49326],[2.15402,50.49318],[2.15344,50.49345],[2.15387,50.49326]]]}},{"type":"Feature","properties":{"k":"PTC","s":0.017},"geometry":{"type":"Polygon","coordinates":[[[2.15194,50.49381],[2.15344,50.49346],[2.1519,50.4938],[2.15106,50.49422],[2.15194,50.49381]]]}},{"type":"Feature","properties":{"k":"PTC","s":1.056},"geometry":{"type":"Polygon","coordinates":[[[2.15192,50.49381],[2.15032,50.49458],[2.15113,50.49511],[2.15251,50.49434],[2.15192,50.49381]]]}},{"type":"Feature","properties":{"k":"PTC","s":0.012},"geometry":{"type":"Polygon","coordinates":[]}},{"type":"Feature","properties":{"k":"CZH","s":5.15},"geometry":{"type":"Polygon","coordinates":[[[2.1524,50.49606],[2.15123,50.49742],[2.15236,50.49804],[2.15358,50.49691],[2.1548,50.49616],[2.15251,50.49434],[2.15113,50.49511],[2.1524,50.49606]]]}},{"type":"Feature","properties":{"k":"BTH","s":0.075},"geometry":{"type":"MultiPolygon","coordinates":[[[[2.1524,50.49606],[2.15233,50.49599],[2.15121,50.49744],[2.1524,50.49606]]]]}},{"type":"Feature","properties":{"k":"BTH","s":14.368},"geometry":{"type":"Polygon","coordinates":[[[2.15603,50.47822],[2.15755,50.47962],[2.15904,50.48033],[2.16077,50.47945],[2.16016,50.47894],[2.16107,50.47842],[2.1604,50.47786],[2.16138,50.47742],[2.16148,50.4775],[2.16492,50.47686],[2.16434,50.47549],[2.16377,50.47485],[2.15603,50.47822]]]}},{"type":"Feature","properties":{"k":"BTH","s":0.002},"geometry":{"type":"Polygon","coordinates":[[[2.15784,50.47988],[2.15796,50.47993],[2.15777,50.47982],[2.15784,50.47988]]]}},{"type":"Feature","properties":{"k":"BTH","s":0.002},"geometry":{"type":"Polygon","coordinates":[[[2.15984,50.48068],[2.15965,50.48062],[2.16,50.48076],[2.15984,50.48068]]]}},{"type":"Feature","properties":{"k":"BTH","s":17.024},"geometry":{"type":"Polygon","coordinates":[[[2.15904,50.48033],[2.1595,50.48038],[2.16047,50.48083],[2.16107,50.48046],[2.1613,50.48069],[2.16089,50.48106],[2.16282,50.48207],[2.16666,50.47976],[2.16506,50.47707],[2.16466,50.47697],[2.16178,50.4775],[2.16114,50.47838],[2.16016,50.47894],[2.16077,50.47945],[2.15904,50.48033]]]}},{"type":"Feature","properties":{"k":"MIS","s":0.0},"geometry":{"type":"Polygon","coordinates":[]}},{"type":"Feature","properties":{"k":"PTR","s":5.374},"geometry":{"type":"Polygon","coordinates":[[[2.17153,50.47806],[2.1697,50.47404],[2.16833,50.47503],[2.16981,50.47837],[2.17153,50.47806]]]}},{"type":"Feature","properties":{"k":"MIS","s":2.633},"geometry":{"type":"Polygon","coordinates":[[[2.16981,50.47837],[2.16833,50.47503],[2.16746,50.47591],[2.16755,50.47609],[2.16767,50.47602],[2.16877,50.47838],[2.1687,50.47857],[2.16981,50.47837]]]}},{"type":"Feature","properties":{"k":"BTN","s":3.76},"geometry":{"type":"Polygon","coordinates":[[[2.16575,50.47805],[2.16722,50.47772],[2.1677,50.47875],[2.1687,50.47857],[2.16877,50.47838],[2.16767,50.47602],[2.16755,50.47609],[2.16746,50.47591],[2.16634,50.47686],[2.16514,50.47696],[2.16575,50.47805]]]}},{"type":"Feature","properties":{"k":"MIS","s":1.303},"geometry":{"type":"Polygon","coordinates":[[[2.16694,50.48035],[2.16666,50.47976],[2.16428,50.48118],[2.16488,50.48156],[2.16694,50.48035]]]}},{"type":"Feature","properties":{"k":"MIS","s":1.579},"geometry":{"type":"Polygon","coordinates":[[[2.16938,50.47976],[2.17098,50.47946],[2.17052,50.47832],[2.1689,50.47859],[2.16938,50.47976]]]}},{"type":"Feature","properties":{"k":"BTH","s":2.461},"geometry":{"type":"Polygon","coordinates":[[[2.16938,50.47975],[2.16888,50.47859],[2.16642,50.47905],[2.16691,50.48013],[2.16938,50.47975]]]}},{"type":"Feature","properties":{"k":"MIS","s":17.892},"geometry":{"type":"Polygon","coordinates":[[[2.17217,50.47858],[2.17198,50.47806],[2.17052,50.47832],[2.17098,50.47946],[2.16698,50.4802],[2.16814,50.48194],[2.17149,50.48135],[2.17221,50.48319],[2.17302,50.48305],[2.17203,50.48048],[2.17241,50.4804],[2.17238,50.48027],[2.18082,50.47882],[2.18053,50.47808],[2.17603,50.47884],[2.17569,50.47799],[2.17217,50.47858]]]}},{"type":"Feature","properties":{"k":"BTN","s":1.392},"geometry":{"type":"Polygon","coordinates":[[[2.1723,50.47802],[2.1725,50.47852],[2.17569,50.47799],[2.1754,50.47748],[2.1723,50.47802]]]}},{"type":"Feature","properties":{"k":"BTH","s":7.205},"geometry":{"type":"Polygon","coordinates":[[[2.17454,50.47757],[2.17303,50.47433],[2.17047,50.47564],[2.17153,50.47806],[2.17454,50.47757]]]}},{"type":"Feature","properties":{"k":"PPH","s":5.568},"geometry":{"type":"Polygon","coordinates":[[[2.17375,50.47398],[2.1722,50.47201],[2.17146,50.47255],[2.17064,50.4735],[2.1697,50.47404],[2.17047,50.47564],[2.17375,50.47398]]]}},{"type":"Feature","properties":{"k":"PTR","s":4.664},"geometry":{"type":"Polygon","coordinates":[[[2.17534,50.47477],[2.17445,50.47506],[2.17398,50.47422],[2.17378,50.474],[2.17304,50.47434],[2.17454,50.47756],[2.17642,50.47725],[2.17534,50.47477]]]}},{"type":"Feature","properties":{"k":"PPH","s":0.0},"geometry":{"type":"Polygon","coordinates":[]}},{"type":"Feature","properties":{"k":"PPH","s":0.014},"geometry":{"type":"MultiPolygon","coordinates":[[[[2.17268,50.47274],[2.17302,50.47314],[2.17272,50.47268],[2.17268,50.47274]]]]}},{"type":"Feature","properties":{"k":"CZH","s":0.021},"geometry":{"type":"Polygon","coordinates":[[[2.17137,50.47252],[2.1707,50.47331],[2.17101,50.47302],[2.17137,50.47252]]]}},{"type":"Feature","properties":{"k":"PTC","s":6.614},"geometry":{"type":"Polygon","coordinates":[[[2.1767,50.48602],[2.17785,50.48653],[2.17776,50.48623],[2.1783,50.48618],[2.17619,50.48377],[2.17193,50.4857],[2.17388,50.48685],[2.17546,50.48555],[2.17611,50.48586],[2.17639,50.4855],[2.17683,50.48594],[2.1767,50.48602]]]}},{"type":"Feature","properties":{"k":"BTH","s":6.008},"geometry":{"type":"Polygon","coordinates":[[[2.17174,50.48559],[2.1707,50.48602],[2.17185,50.48779],[2.17325,50.48724],[2.17384,50.48858],[2.17261,50.48895],[2.17283,50.48932],[2.17577,50.48853],[2.17545,50.487],[2.17472,50.48731],[2.17174,50.48559]]]}},{"type":"Feature","properties":{"k":"MIS","s":1.549},"geometry":{"type":"Polygon","coordinates":[[[2.17192,50.48948],[2.17267,50.4893],[2.17159,50.48753],[2.17048,50.48789],[2.17192,50.48948]]]}},{"type":"Feature","properties":{"k":"BTH","s":7.206},"geometry":{"type":"Polygon","coordinates":[[[2.16928,50.48384],[2.16512,50.48453],[2.1643,50.48542],[2.16509,50.48673],[2.16998,50.48509],[2.16928,50.48384]]]}},{"type":"Feature","properties":{"k":"BTH","s":3.747},"geometry":{"type":"Polygon","coordinates":[[[2.17619,50.48375],[2.17531,50.4828],[2.17201,50.48335],[2.17318,50.48432],[2.17286,50.48447],[2.17374,50.48487],[2.17619,50.48375]]]}}]}