{"type":"FeatureCollection","features":[{"type":"Feature","properties":{"k":"LIF","s":8.212},"geometry":{"type":"Polygon","coordinates":[[[2.57794,50.38326],[2.58369,50.38355],[2.58398,50.38198],[2.57716,50.38161],[2.57794,50.38326]]]}},{"type":"Feature","properties":{"k":"PTR","s":1.995},"geometry":{"type":"Polygon","coordinates":[[[2.57688,50.37941],[2.57673,50.37981],[2.57675,50.38001],[2.58143,50.38033],[2.58157,50.37985],[2.57688,50.37941]]]}},{"type":"Feature","properties":{"k":"PTC","s":8.694},"geometry":{"type":"Polygon","coordinates":[[[2.57688,50.37941],[2.5803,50.37976],[2.58107,50.37709],[2.57709,50.37621],[2.57697,50.37697],[2.57715,50.37859],[2.57688,50.37941]]]}},{"type":"Feature","properties":{"k":"PPH","s":2.148},"geometry":{"type":"Polygon","coordinates":[[[2.57709,50.37621],[2.57987,50.37673],[2.57974,50.37587],[2.57946,50.37587],[2.57949,50.37543],[2.57893,50.37527],[2.57892,50.37579],[2.57853,50.37576],[2.57852,50.37563],[2.57737,50.37537],[2.5773,50.37487],[2.5769,50.37479],[2.57709,50.37621]]]}},{"type":"Feature","properties":{"k":"MSW","s":1.421},"geometry":{"type":"Polygon","coordinates":[[[2.57982,50.37547],[2.58004,50.37687],[2.58107,50.37709],[2.58146,50.37584],[2.57982,50.37547]]]}},{"type":"Feature","properties":{"k":"BTH","s":3.917},"geometry":{"type":"Polygon","coordinates":[[[2.58029,50.37976],[2.58158,50.37984],[2.58261,50.37611],[2.58146,50.37585],[2.58029,50.37976]]]}},{"type":"Feature","properties":{"k":"MIS","s":4.959},"geometry":{"type":"Polygon","coordinates":[[[2.58143,50.38033],[2.57675,50.38001],[2.57713,50.38151],[2.58077,50.38173],[2.58082,50.38154],[2.58108,50.38155],[2.58143,50.38033]]]}},{"type":"Feature","properties":{"k":"PPH","s":2.15},"geometry":{"type":"Polygon","coordinates":[[[2.57946,50.37527],[2.57938,50.37327],[2.57779,50.37331],[2.57782,50.37488],[2.57813,50.37495],[2.57822,50.37457],[2.57853,50.37458],[2.57851,50.37504],[2.57946,50.37527]]]}},{"type":"Feature","properties":{"k":"BFS","s":0.034},"geometry":{"type":"Polygon","coordinates":[[[2.57791,50.37308],[2.58265,50.37294],[2.57794,50.37307],[2.57791,50.37308]]]}},{"type":"Feature","properties":{"k":"CZH","s":1.579},"geometry":{"type":"Polygon","coordinates":[[[2.57858,50.37261],[2.57793,50.37307],[2.58265,50.37296],[2.58264,50.37247],[2.57858,50.37261]]]}},{"type":"Feature","properties":{"k":"PPH","s":1.539},"geometry":{"type":"Polygon","coordinates":[[[2.58145,50.37251],[2.5806,50.37119],[2.5786,50.3726],[2.58145,50.37251]]]}},{"type":"Feature","properties":{"k":"BFS","s":0.0},"geometry":{"type":"Polygon","coordinates":[[[2.5818,50.37019],[2.5818,50.3702],[2.58182,50.3702],[2.5818,50.37019]]]}},{"type":"Feature","properties":{"k":"JAC","s":0.049},"geometry":{"type":"Polygon","coordinates":[[[2.58687,50.3779],[2.58688,50.37786],[2.58598,50.37769],[2.58546,50.37762],[2.58522,50.3776],[2.58519,50.37761],[2.58687,50.3779]]]}},{"type":"Feature","properties":{"k":"BTH","s":2.711},"geometry":{"type":"Polygon","coordinates":[[[2.58489,50.37834],[2.58889,50.37861],[2.58852,50.3774],[2.58811,50.37738],[2.58805,50.37719],[2.58742,50.37709],[2.58687,50.3779],[2.58521,50.37761],[2.58489,50.37834]]]}},{"type":"Feature","properties":{"k":"BTH","s":0.737},"geometry":{"type":"Polygon","coordinates":[[[2.59735,50.38173],[2.59725,50.38103],[2.5959,50.38121],[2.59614,50.38184],[2.59735,50.38173]]]}},{"type":"Feature","properties":{"k":"PTR","s":0.279},"geometry":{"type":"Polygon","coordinates":[[[2.59576,50.38032],[2.59557,50.38034],[2.59571,50.3818],[2.59601,50.38184],[2.59576,50.38032]]]}},{"type":"Feature","properties":{"k":"JAC","s":0.133},"geometry":{"type":"Polygon","coordinates":[[[2.59777,50.38288],[2.59776,50.38285],[2.59328,50.38371],[2.59777,50.38288]]]}},{"type":"Feature","properties":{"k":"BTH","s":18.778},"geometry":{"type":"Polygon","coordinates":[[[2.59301,50.38591],[2.59878,50.38473],[2.59798,50.38177],[2.59585,50.38194],[2.59055,50.38038],[2.59081,50.3813],[2.5916,50.38219],[2.5925,50.38284],[2.59301,50.38591]],[[2.59328,50.38371],[2.59776,50.38285],[2.59777,50.38288],[2.59328,50.38371]]]}},{"type":"Feature","properties":{"k":"PTC","s":12.066},"geometry":{"type":"Polygon","coordinates":[[[2.5929,50.38597],[2.59278,50.38465],[2.58423,50.3821],[2.58382,50.38372],[2.5936,50.38665],[2.5929,50.38597]]]}},{"type":"Feature","properties":{"k":"BTH","s":3.548},"geometry":{"type":"Polygon","coordinates":[[[2.5934,50.38659],[2.58382,50.38372],[2.58389,50.38394],[2.59465,50.38767],[2.5934,50.38659]]]}},{"type":"Feature","properties":{"k":"BTN","s":2.956},"geometry":{"type":"Polygon","coordinates":[[[2.59302,50.38593],[2.5952,50.388],[2.5964,50.38752],[2.59457,50.38564],[2.59302,50.38593]]]}},{"type":"Feature","properties":{"k":"JAC","s":0.394},"geometry":{"type":"Polygon","coordinates":[[[2.58422,50.38214],[2.59278,50.38465],[2.58423,50.38207],[2.58422,50.38214]]]}},{"type":"Feature","properties":{"k":"CZH","s":0.001},"geometry":{"type":"Polygon","coordinates":[[[2.59573,50.36601],[2.59569,50.36595],[2.59573,50.36604],[2.59573,50.36601]]]}},{"type":"Feature","properties":{"k":"LUZ","s":0.003},"geometry":{"type":"Polygon","coordinates":[[[2.59739,50.37642],[2.59727,50.37616],[2.59725,50.37617],[2.59739,50.37642]]]}},{"type":"Feature","properties":{"k":"CZH","s":0.607},"geometry":{"type":"Polygon","coordinates":[[[2.59862,50.38052],[2.59858,50.38024],[2.5958,50.38058],[2.59584,50.38086],[2.59862,50.38052]]]}},{"type":"Feature","properties":{"k":"ORH","s":0.44},"geometry":{"type":"Polygon","coordinates":[[[2.59858,50.38024],[2.59854,50.38006],[2.59577,50.38038],[2.5958,50.38058],[2.59858,50.38024]]]}},{"type":"Feature","properties":{"k":"MIS","s":0.762},"geometry":{"type":"Polygon","coordinates":[[[2.59864,50.38084],[2.59862,50.38052],[2.59584,50.38086],[2.59588,50.38113],[2.59864,50.38084]]]}},{"type":"Feature","properties":{"k":"MIS","s":0.739},"geometry":{"type":"Polygon","coordinates":[[[2.5984,50.3794],[2.59831,50.37906],[2.59554,50.37944],[2.59554,50.37975],[2.5984,50.3794]]]}},{"type":"Feature","properties":{"k":"MIS","s":0.913},"geometry":{"type":"Polygon","coordinates":[[[2.59847,50.37968],[2.59556,50.38],[2.59557,50.38034],[2.59854,50.38006],[2.59847,50.37968]]]}},{"type":"Feature","properties":{"k":"MIS","s":0.002},"geometry":{"type":"Polygon","coordinates":[[[2.59727,50.37616],[2.59717,50.37594],[2.59725,50.37617],[2.59727,50.37616]]]}},{"type":"Feature","properties":{"k":"PTC","s":9.775},"geometry":{"type":"Polygon","coordinates":[[[2.59011,50.38],[2.58857,50.37888],[2.58486,50.37846],[2.5844,50.37957],[2.58428,50.38063],[2.59066,50.38138],[2.59011,50.38]]]}},{"type":"Feature","properties":{"k":"JAC","s":0.261},"geometry":{"type":"Polygon","coordinates":[[[2.58456,50.38064],[2.58428,50.38063],[2.59079,50.38142],[2.59034,50.38033],[2.59066,50.38139],[2.58456,50.38064]]]}},{"type":"Feature","properties":{"k":"CZH","s":3.156},"geometry":{"type":"Polygon","coordinates":[[[2.59747,50.3673],[2.60129,50.36612],[2.60035,50.36574],[2.60006,50.36579],[2.5962,50.36701],[2.5968,50.36835],[2.5978,50.36804],[2.59747,50.3673]]]}},{"type":"Feature","properties":{"k":"MIS","s":2.725},"geometry":{"type":"Polygon","coordinates":[[[2.60008,50.36734],[2.60226,50.36662],[2.60126,50.36613],[2.59747,50.3673],[2.5978,50.36804],[2.60008,50.36734]]]}},{"type":"Feature","properties":{"k":"BTH","s":6.529},"geometry":{"type":"Polygon","coordinates":[[[2.60479,50.36807],[2.60571,50.36712],[2.60642,50.36679],[2.60494,50.36585],[2.60459,50.36608],[2.60361,50.36541],[2.60287,50.36545],[2.6027,50.36478],[2.6021,50.36437],[2.60032,50.36547],[2.60331,50.36705],[2.60479,50.36807]]]}},{"type":"Feature","properties":{"k":"BTH","s":0.446},"geometry":{"type":"MultiPolygon","coordinates":[[[[2.60259,50.36439],[2.60213,50.36436],[2.6021,50.36437],[2.6027,50.36478],[2.60259,50.36439]]],[[[2.60494,50.36585],[2.6038,50.36512],[2.60361,50.36541],[2.60459,50.36608],[2.60494,50.36585]]]]}},{"type":"Feature","properties":{"k":"LUZ","s":0.003},"geometry":{"type":"MultiPolygon","coordinates":[[[[2.59576,50.36611],[2.59577,50.3661],[2.59573,50.36604],[2.59576,50.36611]]],[[[2.59367,50.36677],[2.59309,50.36694],[2.59309,50.36695],[2.59367,50.36677]]]]}},{"type":"Feature","properties":{"k":"PTC","s":0.431},"geometry":{"type":"Polygon","coordinates":[[[2.59,50.3662],[2.58999,50.36637],[2.59278,50.36609],[2.59271,50.36587],[2.59,50.3662]]]}},{"type":"Feature","properties":{"k":"BTN","s":2.118},"geometry":{"type":"Polygon","coordinates":[[[2.58987,50.36729],[2.593,50.36697],[2.59276,50.36609],[2.58999,50.36637],[2.58987,50.36729]]]}},{"type":"Feature","properties":{"k":"BTH","s":0.01},"geometry":{"type":"Polygon","coordinates":[[[2.58984,50.36603],[2.58857,50.36608],[2.58984,50.36605],[2.58984,50.36603]]]}},{"type":"Feature","properties":{"k":"BTH","s":6.132},"geometry":{"type":"Polygon","coordinates":[[[2.58485,50.36623],[2.58379,50.36765],[2.58975,50.36748],[2.58985,50.36605],[2.58485,50.36623]]]}},{"type":"Feature","properties":{"k":"BTH","s":0.016},"geometry":{"type":"Polygon","coordinates":[[[2.58454,50.36665],[2.58485,50.36623],[2.58442,50.36675],[2.58454,50.36665]]]}},{"type":"Feature","properties":{"k":"BTH","s":0.037},"geometry":{"type":"Polygon","coordinates":[[[2.58382,50.36761],[2.58446,50.36676],[2.58372,50.36767],[2.58382,50.36761]]]}},{"type":"Feature","properties":{"k":"LIF","s":11.45},"geometry":{"type":"Polygon","coordinates":[[[2.59156,50.38056],[2.59571,50.3818],[2.59554,50.37944],[2.59831,50.37906],[2.59723,50.37627],[2.59671,50.37625],[2.59536,50.37852],[2.59292,50.37912],[2.59188,50.37959],[2.59156,50.38056]]]}},{"type":"Feature","properties":{"k":"JAC","s":0.216},"geometry":{"type":"Polygon","coordinates":[[[2.59147,50.37909],[2.59125,50.37876],[2.59105,50.37884],[2.59176,50.37994],[2.59147,50.37909]]]}},{"type":"Feature","properties":{"k":"MIS","s":0.166},"geometry":{"type":"Polygon","coordinates":[[[2.59144,50.38216],[2.59079,50.38142],[2.59052,50.3814],[2.59117,50.38221],[2.59144,50.38216]]]}},{"type":"Feature","properties":{"k":"BTH","s":13.125},"geometry":{"type":"Polygon","coordinates":[[[2.58414,50.38199],[2.59278,50.38455],[2.59235,50.3828],[2.59144,50.38216],[2.59117,50.38221],[2.59052,50.3814],[2.58427,50.38061],[2.58414,50.38199]]]}},{"type":"Feature","properties":{"k":"BTH","s":1.478},"geometry":{"type":"Polygon","coordinates":[[[2.58401,50.38192],[2.58403,50.38128],[2.58121,50.38112],[2.58103,50.38175],[2.58401,50.38192]]]}},{"type":"Feature","properties":{"k":"JAC","s":0.324},"geometry":{"type":"Polygon","coordinates":[[[2.5953,50.37848],[2.59288,50.37907],[2.59188,50.37959],[2.59292,50.37912],[2.59536,50.37852],[2.59662,50.37625],[2.5953,50.37848]]]}},{"type":"Feature","properties":{"k":"TRE","s":0.027},"geometry":{"type":"Polygon","coordinates":[[[2.58239,50.3769],[2.58243,50.37691],[2.58266,50.37612],[2.58239,50.3769]]]}},{"type":"Feature","properties":{"k":"BTH","s":8.579},"geometry":{"type":"Polygon","coordinates":[[[2.58243,50.3769],[2.5812,50.38112],[2.58404,50.38127],[2.58419,50.3797],[2.58506,50.37765],[2.58243,50.3769]]]}},{"type":"Feature","properties":{"k":"MLG","s":0.797},"geometry":{"type":"Polygon","coordinates":[[[2.59865,50.38084],[2.59725,50.38103],[2.59736,50.38174],[2.59864,50.38162],[2.59865,50.38084]]]}},{"type":"Feature","properties":{"k":"CZH","s":9.283},"geometry":{"type":"Polygon","coordinates":[[[2.6007,50.37257],[2.60085,50.37141],[2.60132,50.3708],[2.59833,50.36856],[2.59549,50.36946],[2.60029,50.37304],[2.6007,50.37257]]]}},{"type":"Feature","properties":{"k":"MIS","s":4.626},"geometry":{"type":"Polygon","coordinates":[[[2.59889,50.36839],[2.60304,50.36706],[2.60229,50.36661],[2.59802,50.36796],[2.59402,50.36924],[2.59422,50.36986],[2.59889,50.36839]]]}},{"type":"Feature","properties":{"k":"BTH","s":3.987},"geometry":{"type":"Polygon","coordinates":[[[2.59719,50.36669],[2.60027,50.36572],[2.59865,50.36471],[2.59566,50.36588],[2.5962,50.36701],[2.59719,50.36669]]]}},{"type":"Feature","properties":{"k":"BTN","s":3.925},"geometry":{"type":"Polygon","coordinates":[[[2.5899,50.36877],[2.5934,50.36839],[2.59301,50.36697],[2.58987,50.3673],[2.5899,50.36877]]]}},{"type":"Feature","properties":{"k":"BTN","s":5.801},"geometry":{"type":"Polygon","coordinates":[[[2.59578,50.3661],[2.59309,50.36695],[2.59382,50.3693],[2.5968,50.36836],[2.59578,50.3661]]]}},{"type":"Feature","properties":{"k":"ORH","s":9.198},"geometry":{"type":"Polygon","coordinates":[[[2.60302,50.36706],[2.59833,50.36856],[2.60132,50.3708],[2.6022,50.36998],[2.60439,50.3687],[2.6042,50.36858],[2.6048,50.36828],[2.60302,50.36706]]]}},{"type":"Feature","properties":{"k":"BTH","s":6.322},"geometry":{"type":"Polygon","coordinates":[[[2.58727,50.37055],[2.59389,50.36988],[2.59339,50.36849],[2.58988,50.36886],[2.5896,50.36907],[2.58868,50.36917],[2.58727,50.37055]]]}},{"type":"Feature","properties":{"k":"BTN","s":26.339},"geometry":{"type":"Polygon","coordinates":[[[2.59389,50.36988],[2.58728,50.37055],[2.58673,50.37191],[2.58545,50.37303],[2.58577,50.37444],[2.59041,50.37545],[2.59228,50.3734],[2.59314,50.37313],[2.59198,50.37042],[2.59228,50.37039],[2.59339,50.37309],[2.59524,50.37279],[2.59389,50.36988]],[[2.58633,50.37276],[2.59129,50.37384],[2.59127,50.37386],[2.58633,50.37276]]]}},{"type":"Feature","properties":{"k":"LIF","s":13.287},"geometry":{"type":"Polygon","coordinates":[[[2.60029,50.37304],[2.59549,50.36946],[2.59399,50.36993],[2.59474,50.37185],[2.59535,50.37278],[2.59557,50.37381],[2.59685,50.37488],[2.60029,50.37304]]]}},{"type":"Feature","properties":{"k":"JAC","s":0.112},"geometry":{"type":"Polygon","coordinates":[[[2.5863,50.37279],[2.59129,50.37384],[2.58633,50.37276],[2.5863,50.37279]]]}},{"type":"Feature","properties":{"k":"PPH","s":1.282},"geometry":{"type":"Polygon","coordinates":[[[2.58407,50.37492],[2.58282,50.37474],[2.58226,50.37591],[2.58343,50.37619],[2.58407,50.37492]]]}},{"type":"Feature","properties":{"k":"JAC","s":0.298},"geometry":{"type":"Polygon","coordinates":[[[2.58381,50.36767],[2.5897,50.36751],[2.58958,50.36889],[2.58946,50.36894],[2.58879,50.36898],[2.58848,50.36907],[2.58786,50.36958],[2.58791,50.36958],[2.58851,50.36909],[2.58947,50.36897],[2.58961,50.3689],[2.58975,50.36748],[2.58379,50.36765],[2.58219,50.36974],[2.58381,50.36767]]]}},{"type":"Feature","properties":{"k":"BTH","s":4.443},"geometry":{"type":"Polygon","coordinates":[[[2.58288,50.37472],[2.58568,50.37514],[2.58539,50.37285],[2.58265,50.37296],[2.58288,50.37472]]]}},{"type":"Feature","properties":{"k":"BTH","s":0.009},"geometry":{"type":"Polygon","coordinates":[[[2.59565,50.36585],[2.59566,50.36587],[2.59677,50.36543],[2.59565,50.36585]]]}},{"type":"Feature","properties":{"k":"JAC","s":0.104},"geometry":{"type":"Polygon","coordinates":[[[2.59032,50.37545],[2.59041,50.37545],[2.58577,50.37444],[2.59032,50.37545]]]}},{"type":"Feature","properties":{"k":"PTC","s":5.852},"geometry":{"type":"Polygon","coordinates":[[[2.58147,50.37251],[2.58264,50.37247],[2.58265,50.37296],[2.58539,50.37285],[2.58651,50.37197],[2.58687,50.3713],[2.58077,50.37138],[2.58147,50.37251]]]}},{"type":"Feature","properties":{"k":"LIF","s":7.652},"geometry":{"type":"Polygon","coordinates":[[[2.58715,50.37036],[2.58788,50.36959],[2.58219,50.36974],[2.58157,50.37049],[2.58065,50.37114],[2.58077,50.37138],[2.58687,50.3713],[2.58715,50.37036]]]}},{"type":"Feature","properties":{"k":"BTH","s":0.048},"geometry":{"type":"Polygon","coordinates":[[[2.58268,50.36909],[2.5831,50.36851],[2.5818,50.37019],[2.58268,50.36909]]]}},{"type":"Feature","properties":{"k":"BTH","s":0.017},"geometry":{"type":"Polygon","coordinates":[[[2.58318,50.36841],[2.58374,50.36768],[2.58308,50.36851],[2.58318,50.36841]]]}},{"type":"Feature","properties":{"k":"PHF","s":10.0},"geometry":{"type":"Polygon","coordinates":[[[2.58958,50.36889],[2.5897,50.36751],[2.58381,50.36767],[2.58223,50.36974],[2.58786,50.36958],[2.58848,50.36907],[2.58958,50.36889]]]}}]}