{"type":"FeatureCollection","features":[{"type":"Feature","properties":{"k":"MIS","s":0.631},"geometry":{"type":"Polygon","coordinates":[[[1.67974,50.38388],[1.67983,50.38386],[1.67794,50.38318],[1.67762,50.38324],[1.67792,50.3838],[1.67974,50.38388]]]}},{"type":"Feature","properties":{"k":"CZH","s":0.388},"geometry":{"type":"Polygon","coordinates":[[[1.67729,50.38377],[1.67792,50.38379],[1.67762,50.38324],[1.67793,50.38318],[1.67693,50.38293],[1.67729,50.38377]]]}},{"type":"Feature","properties":{"k":"MIS","s":0.363},"geometry":{"type":"Polygon","coordinates":[[[1.67693,50.38293],[1.677,50.38292],[1.67575,50.38257],[1.67548,50.38322],[1.67693,50.38293]]]}},{"type":"Feature","properties":{"k":"BTN","s":0.894},"geometry":{"type":"Polygon","coordinates":[[[1.67529,50.38368],[1.67729,50.38377],[1.67693,50.38293],[1.67548,50.38322],[1.67529,50.38368]]]}},{"type":"Feature","properties":{"k":"LIF","s":5.013},"geometry":{"type":"Polygon","coordinates":[[[1.67465,50.38226],[1.67127,50.38134],[1.67053,50.38343],[1.67401,50.38361],[1.67465,50.38226]]]}},{"type":"Feature","properties":{"k":"CZH","s":1.233},"geometry":{"type":"Polygon","coordinates":[[[1.67529,50.38369],[1.67575,50.38257],[1.67466,50.38226],[1.67403,50.38362],[1.67529,50.38369]]]}},{"type":"Feature","properties":{"k":"JAC","s":4.408},"geometry":{"type":"Polygon","coordinates":[[[1.63459,50.36722],[1.63609,50.36624],[1.63366,50.36436],[1.63273,50.36575],[1.63382,50.36745],[1.63459,50.36722]]]}},{"type":"Feature","properties":{"k":"PPH","s":0.043},"geometry":{"type":"Polygon","coordinates":[[[1.63613,50.36617],[1.6349,50.36526],[1.6361,50.36623],[1.63613,50.36617]]]}},{"type":"Feature","properties":{"k":"PPH","s":8.138},"geometry":{"type":"Polygon","coordinates":[[[1.63382,50.36762],[1.63294,50.3685],[1.63611,50.36967],[1.63746,50.36741],[1.63891,50.3661],[1.63731,50.36569],[1.63663,50.36566],[1.63598,50.36655],[1.63382,50.36762]]]}},{"type":"Feature","properties":{"k":"PPH","s":3.106},"geometry":{"type":"Polygon","coordinates":[[[1.64399,50.36753],[1.64128,50.36721],[1.64111,50.36783],[1.64034,50.36891],[1.64112,50.36908],[1.64199,50.36902],[1.64243,50.36816],[1.64437,50.36829],[1.64399,50.36753]]]}},{"type":"Feature","properties":{"k":"PPH","s":1.073},"geometry":{"type":"Polygon","coordinates":[[[1.64586,50.36768],[1.64605,50.36837],[1.64835,50.3685],[1.64834,50.36814],[1.64586,50.36768]]]}},{"type":"Feature","properties":{"k":"PPH","s":0.575},"geometry":{"type":"Polygon","coordinates":[[[1.64853,50.36992],[1.64842,50.36869],[1.64781,50.36874],[1.64796,50.36994],[1.64853,50.36992]]]}},{"type":"Feature","properties":{"k":"PPH","s":9.356},"geometry":{"type":"Polygon","coordinates":[[[1.64545,50.37406],[1.64793,50.37488],[1.64956,50.37565],[1.65174,50.37541],[1.64861,50.37252],[1.64822,50.37133],[1.6474,50.37131],[1.64779,50.37353],[1.64621,50.37254],[1.64503,50.37284],[1.64545,50.37406]]]}},{"type":"Feature","properties":{"k":"PPH","s":1.039},"geometry":{"type":"Polygon","coordinates":[[[1.6494,50.37628],[1.64952,50.37565],[1.64842,50.37524],[1.64741,50.37609],[1.6494,50.37628]]]}},{"type":"Feature","properties":{"k":"PPH","s":2.363},"geometry":{"type":"Polygon","coordinates":[[[1.64959,50.37566],[1.64942,50.37643],[1.65294,50.37654],[1.6527,50.37609],[1.65175,50.37541],[1.64959,50.37566]]]}},{"type":"Feature","properties":{"k":"BTN","s":2.438},"geometry":{"type":"Polygon","coordinates":[[[1.66064,50.37744],[1.65991,50.37947],[1.66116,50.37971],[1.6621,50.37721],[1.66064,50.37744]]]}},{"type":"Feature","properties":{"k":"BTH","s":11.044},"geometry":{"type":"Polygon","coordinates":[[[1.66611,50.38069],[1.66692,50.3786],[1.66712,50.37854],[1.66341,50.37696],[1.6621,50.37722],[1.66116,50.37971],[1.65991,50.37947],[1.66611,50.38069]]]}},{"type":"Feature","properties":{"k":"BTN","s":0.14},"geometry":{"type":"Polygon","coordinates":[[[1.66965,50.37899],[1.66987,50.37906],[1.66991,50.37892],[1.66711,50.37857],[1.66965,50.37899]]]}},{"type":"Feature","properties":{"k":"PHF","s":9.226},"geometry":{"type":"Polygon","coordinates":[[[1.66567,50.38219],[1.66631,50.38218],[1.6672,50.38265],[1.66865,50.38306],[1.66964,50.37899],[1.66692,50.3786],[1.66567,50.38219]],[[1.66727,50.37918],[1.66726,50.37937],[1.66701,50.37935],[1.66699,50.3792],[1.66727,50.37918]]]}},{"type":"Feature","properties":{"k":"MIS","s":5.28},"geometry":{"type":"Polygon","coordinates":[[[1.66858,50.38326],[1.67053,50.38343],[1.67168,50.38057],[1.66951,50.38024],[1.66987,50.37906],[1.66962,50.37905],[1.66858,50.38326]]]}},{"type":"Feature","properties":{"k":"BTN","s":0.071},"geometry":{"type":"Polygon","coordinates":[[[1.67127,50.38134],[1.67264,50.3817],[1.67136,50.38134],[1.67174,50.38058],[1.67127,50.38134]]]}},{"type":"Feature","properties":{"k":"BTH","s":14.959},"geometry":{"type":"Polygon","coordinates":[[[1.66094,50.38409],[1.66058,50.38566],[1.66206,50.38584],[1.66242,50.38434],[1.66491,50.38455],[1.66477,50.38574],[1.66697,50.38597],[1.66727,50.38457],[1.66504,50.38442],[1.66596,50.38253],[1.66436,50.38194],[1.66132,50.38133],[1.66098,50.38288],[1.65979,50.38277],[1.65952,50.38388],[1.66094,50.38409]]]}},{"type":"Feature","properties":{"k":"PTC","s":7.515},"geometry":{"type":"Polygon","coordinates":[[[1.66527,50.3822],[1.66541,50.38184],[1.66542,50.38184],[1.66576,50.38183],[1.66611,50.38069],[1.65991,50.37947],[1.65942,50.38096],[1.6646,50.38195],[1.66527,50.3822]]]}},{"type":"Feature","properties":{"k":"BTN","s":1.529},"geometry":{"type":"Polygon","coordinates":[[[1.66098,50.38288],[1.66132,50.38131],[1.66017,50.38114],[1.65978,50.38276],[1.66098,50.38288]]]}},{"type":"Feature","properties":{"k":"MIS","s":6.715},"geometry":{"type":"Polygon","coordinates":[[[1.65773,50.3808],[1.65697,50.3837],[1.6573,50.38416],[1.65939,50.38443],[1.66017,50.38115],[1.65773,50.3808]]]}},{"type":"Feature","properties":{"k":"MIS","s":5.704},"geometry":{"type":"Polygon","coordinates":[[[1.65422,50.38683],[1.65425,50.38694],[1.65566,50.38702],[1.65727,50.38075],[1.65682,50.38069],[1.65513,50.38411],[1.65422,50.38683]]]}},{"type":"Feature","properties":{"k":"CZH","s":2.487},"geometry":{"type":"Polygon","coordinates":[[[1.65622,50.38159],[1.65615,50.38152],[1.65527,50.38141],[1.65432,50.38169],[1.65415,50.38395],[1.6548,50.38403],[1.65622,50.38159]]]}},{"type":"Feature","properties":{"k":"PPH","s":0.544},"geometry":{"type":"Polygon","coordinates":[[[1.65416,50.38267],[1.65425,50.38159],[1.65349,50.38171],[1.6535,50.38249],[1.65416,50.38267]]]}},{"type":"Feature","properties":{"k":"ORP","s":4.421},"geometry":{"type":"Polygon","coordinates":[[[1.65991,50.37947],[1.66063,50.37745],[1.65918,50.37758],[1.65816,50.37931],[1.65776,50.38071],[1.65942,50.38096],[1.65991,50.37947]]]}},{"type":"Feature","properties":{"k":"LUZ","s":0.625},"geometry":{"type":"Polygon","coordinates":[[[1.65853,50.37744],[1.65817,50.37911],[1.65922,50.37694],[1.6588,50.3769],[1.65853,50.37744]]]}},{"type":"Feature","properties":{"k":"PPH","s":1.317},"geometry":{"type":"Polygon","coordinates":[[[1.6511,50.37684],[1.65297,50.37745],[1.65294,50.37654],[1.6494,50.37643],[1.64934,50.37674],[1.6511,50.37684]]]}},{"type":"Feature","properties":{"k":"MIS","s":0.053},"geometry":{"type":"Polygon","coordinates":[[[1.65357,50.38085],[1.65254,50.38102],[1.65432,50.38079],[1.65357,50.38085]]]}},{"type":"Feature","properties":{"k":"MIS","s":0.563},"geometry":{"type":"Polygon","coordinates":[[[1.65432,50.38079],[1.65254,50.38102],[1.65232,50.38144],[1.65425,50.38117],[1.65432,50.38079]]]}},{"type":"Feature","properties":{"k":"BTH","s":1.707},"geometry":{"type":"Polygon","coordinates":[[[1.64565,50.38322],[1.64405,50.3831],[1.64276,50.38378],[1.64334,50.38398],[1.64566,50.38407],[1.64565,50.38322]]]}},{"type":"Feature","properties":{"k":"PPH","s":20.115},"geometry":{"type":"Polygon","coordinates":[[[1.63941,50.38178],[1.63897,50.38245],[1.63892,50.38282],[1.63947,50.38409],[1.63995,50.38423],[1.64023,50.38408],[1.63994,50.38355],[1.64123,50.38321],[1.6422,50.38388],[1.64405,50.3831],[1.64576,50.38323],[1.64565,50.38446],[1.64628,50.38511],[1.64748,50.38413],[1.64876,50.38364],[1.64951,50.383],[1.64856,50.38184],[1.64826,50.38121],[1.64838,50.38076],[1.64724,50.38089],[1.64706,50.38127],[1.64633,50.38124],[1.64653,50.38032],[1.64486,50.38082],[1.63941,50.38178]]]}},{"type":"Feature","properties":{"k":"PPH","s":1.84},"geometry":{"type":"Polygon","coordinates":[[[1.64323,50.38003],[1.64368,50.38082],[1.64533,50.38037],[1.64498,50.37971],[1.64364,50.37973],[1.64185,50.37951],[1.64148,50.37957],[1.6414,50.37987],[1.64323,50.38003]]]}},{"type":"Feature","properties":{"k":"PPH","s":1.191},"geometry":{"type":"Polygon","coordinates":[[[1.64202,50.37999],[1.64195,50.38117],[1.64365,50.38082],[1.64321,50.38006],[1.64202,50.37999]]]}},{"type":"Feature","properties":{"k":"PPH","s":1.033},"geometry":{"type":"Polygon","coordinates":[[[1.6419,50.38118],[1.64196,50.37998],[1.64143,50.37996],[1.64052,50.38122],[1.6419,50.38118]]]}},{"type":"Feature","properties":{"k":"BTH","s":8.857},"geometry":{"type":"Polygon","coordinates":[[[1.63715,50.38548],[1.6381,50.38544],[1.63898,50.38476],[1.63938,50.38414],[1.63874,50.38253],[1.63908,50.38192],[1.63468,50.38279],[1.63551,50.38368],[1.63572,50.38515],[1.63715,50.38548]]]}},{"type":"Feature","properties":{"k":"BTA","s":0.48},"geometry":{"type":"Polygon","coordinates":[[[1.63779,50.38204],[1.63467,50.3827],[1.63468,50.38279],[1.63908,50.38192],[1.63874,50.38253],[1.63938,50.38414],[1.63916,50.38457],[1.63944,50.3841],[1.63884,50.38264],[1.63924,50.38186],[1.63779,50.38204]]]}},{"type":"Feature","properties":{"k":"BTH","s":0.86},"geometry":{"type":"Polygon","coordinates":[[[1.63507,50.38086],[1.63494,50.38083],[1.63442,50.38123],[1.63443,50.38181],[1.63476,50.3824],[1.63543,50.38226],[1.63507,50.38086]]]}},{"type":"Feature","properties":{"k":"BTH","s":11.152},"geometry":{"type":"Polygon","coordinates":[[[1.63353,50.38006],[1.63321,50.38075],[1.63439,50.38121],[1.63463,50.38093],[1.63506,50.38081],[1.63544,50.38226],[1.63769,50.3818],[1.63765,50.38138],[1.63794,50.38108],[1.63899,50.3812],[1.63948,50.38091],[1.63949,50.38066],[1.63882,50.38023],[1.63882,50.37882],[1.63737,50.37863],[1.63532,50.37892],[1.63467,50.37916],[1.63353,50.38006]]]}},{"type":"Feature","properties":{"k":"TRE","s":2.189},"geometry":{"type":"Polygon","coordinates":[[[1.64043,50.38139],[1.64101,50.38028],[1.63885,50.38001],[1.639,50.38041],[1.63959,50.38071],[1.63952,50.38092],[1.63898,50.38123],[1.63798,50.38111],[1.63771,50.38168],[1.63777,50.3818],[1.64043,50.38139]]]}},{"type":"Feature","properties":{"k":"MIS","s":1.818},"geometry":{"type":"Polygon","coordinates":[[[1.6403,50.37941],[1.63883,50.37882],[1.63884,50.38001],[1.6412,50.3803],[1.64142,50.37963],[1.6403,50.37941]]]}},{"type":"Feature","properties":{"k":"PPH","s":3.426},"geometry":{"type":"Polygon","coordinates":[[[1.63942,50.37794],[1.63902,50.37883],[1.64015,50.37926],[1.6407,50.37808],[1.64091,50.37672],[1.64001,50.37651],[1.63844,50.37664],[1.63833,50.37673],[1.63942,50.37794]]]}},{"type":"Feature","properties":{"k":"ORH","s":7.246},"geometry":{"type":"Polygon","coordinates":[[[1.64192,50.37946],[1.64223,50.37883],[1.6421,50.37868],[1.64338,50.3777],[1.64381,50.37789],[1.64483,50.37739],[1.64499,50.37619],[1.64357,50.37593],[1.64345,50.3761],[1.64254,50.37589],[1.64227,50.37654],[1.64123,50.37647],[1.64018,50.37926],[1.64192,50.37946]]]}},{"type":"Feature","properties":{"k":"BTH","s":2.927},"geometry":{"type":"Polygon","coordinates":[[[1.64195,50.37945],[1.64419,50.37967],[1.64418,50.37922],[1.64492,50.37914],[1.64507,50.37866],[1.64411,50.37826],[1.64377,50.37786],[1.64339,50.37771],[1.64217,50.37866],[1.64195,50.37945]]]}},{"type":"Feature","properties":{"k":"PPH","s":0.37},"geometry":{"type":"Polygon","coordinates":[[[1.64663,50.38006],[1.64501,50.37971],[1.64533,50.38038],[1.64663,50.38006]]]}},{"type":"Feature","properties":{"k":"PPH","s":2.406},"geometry":{"type":"Polygon","coordinates":[[[1.64518,50.37869],[1.64532,50.37847],[1.64661,50.37858],[1.6466,50.3782],[1.64725,50.37824],[1.64712,50.37778],[1.64666,50.37739],[1.64538,50.37749],[1.64475,50.37735],[1.64381,50.37789],[1.64411,50.37824],[1.64518,50.37869]]]}},{"type":"Feature","properties":{"k":"PPH","s":1.643},"geometry":{"type":"Polygon","coordinates":[[[1.64632,50.37652],[1.64502,50.3762],[1.64484,50.37741],[1.64577,50.37749],[1.64736,50.37731],[1.64632,50.37652]]]}},{"type":"Feature","properties":{"k":"PPH","s":0.78},"geometry":{"type":"Polygon","coordinates":[[[1.64737,50.37609],[1.64769,50.37571],[1.64626,50.37513],[1.64587,50.37579],[1.64737,50.37609]]]}},{"type":"Feature","properties":{"k":"PPH","s":1.72},"geometry":{"type":"Polygon","coordinates":[[[1.64596,50.37538],[1.64626,50.37508],[1.64773,50.37568],[1.64827,50.37524],[1.64789,50.37489],[1.6455,50.37409],[1.64539,50.37422],[1.64596,50.37538]]]}},{"type":"Feature","properties":{"k":"MIS","s":2.946},"geometry":{"type":"Polygon","coordinates":[[[1.64456,50.37449],[1.64305,50.37445],[1.64322,50.375],[1.64254,50.37555],[1.6456,50.37622],[1.64591,50.37547],[1.64506,50.37509],[1.64523,50.37474],[1.64456,50.37449]]]}},{"type":"Feature","properties":{"k":"PPH","s":1.769},"geometry":{"type":"Polygon","coordinates":[[[1.64283,50.37417],[1.64309,50.37443],[1.64505,50.37461],[1.64534,50.37428],[1.64534,50.37372],[1.6426,50.37345],[1.64257,50.37371],[1.6429,50.37385],[1.64283,50.37417]]]}},{"type":"Feature","properties":{"k":"PPH","s":2.706},"geometry":{"type":"Polygon","coordinates":[[[1.64172,50.37357],[1.64256,50.37368],[1.64259,50.37344],[1.64538,50.37372],[1.64496,50.37269],[1.64168,50.37246],[1.64172,50.37357]]]}},{"type":"Feature","properties":{"k":"PPH","s":4.163},"geometry":{"type":"Polygon","coordinates":[[[1.64495,50.37269],[1.64502,50.37281],[1.64618,50.37252],[1.64657,50.37262],[1.6478,50.37348],[1.64738,50.3713],[1.6442,50.37127],[1.64409,50.37263],[1.64495,50.37269]]]}},{"type":"Feature","properties":{"k":"PPH","s":0.449},"geometry":{"type":"Polygon","coordinates":[[[1.64761,50.37124],[1.64788,50.37124],[1.64731,50.36921],[1.64709,50.3693],[1.64761,50.37124]]]}},{"type":"Feature","properties":{"k":"PPH","s":1.03},"geometry":{"type":"Polygon","coordinates":[[[1.64697,50.37082],[1.6454,50.37082],[1.64532,50.37118],[1.64651,50.37122],[1.64757,50.37123],[1.64713,50.36946],[1.64674,50.36946],[1.64712,50.37122],[1.64697,50.37082]]]}},{"type":"Feature","properties":{"k":"PPH","s":5.604},"geometry":{"type":"Polygon","coordinates":[[[1.64436,50.36881],[1.64453,50.36948],[1.64713,50.36946],[1.64713,50.36924],[1.6474,50.36921],[1.6479,50.37124],[1.64823,50.37123],[1.64776,50.36874],[1.64842,50.36869],[1.64839,50.3685],[1.64615,50.3684],[1.64592,50.36824],[1.64586,50.36766],[1.64399,50.36753],[1.64431,50.36833],[1.64243,50.36816],[1.64199,50.36902],[1.64436,50.36881]]]}},{"type":"Feature","properties":{"k":"PPH","s":2.997},"geometry":{"type":"Polygon","coordinates":[[[1.64345,50.37082],[1.64342,50.37124],[1.64532,50.37118],[1.6454,50.37082],[1.64697,50.37082],[1.64712,50.37122],[1.64658,50.36949],[1.64452,50.36947],[1.64465,50.37083],[1.64345,50.37082]]]}},{"type":"Feature","properties":{"k":"PPH","s":5.456},"geometry":{"type":"Polygon","coordinates":[[[1.64428,50.36883],[1.64238,50.36903],[1.64223,50.36996],[1.64043,50.36974],[1.63978,50.36952],[1.63953,50.36983],[1.64034,50.37061],[1.64207,50.37085],[1.64231,50.37109],[1.64342,50.37125],[1.64346,50.37082],[1.64465,50.37082],[1.64428,50.36883]]]}},{"type":"Feature","properties":{"k":"BTA","s":0.08},"geometry":{"type":"Polygon","coordinates":[[[1.64337,50.37136],[1.64419,50.37132],[1.64201,50.37114],[1.64337,50.37136]]]}},{"type":"Feature","properties":{"k":"MIS","s":2.294},"geometry":{"type":"Polygon","coordinates":[[[1.64409,50.37263],[1.64419,50.37132],[1.642,50.37119],[1.6417,50.37245],[1.64409,50.37263]]]}},{"type":"Feature","properties":{"k":"PPH","s":5.108},"geometry":{"type":"Polygon","coordinates":[[[1.63963,50.37318],[1.64076,50.3732],[1.64075,50.37351],[1.64172,50.37357],[1.64168,50.37246],[1.64199,50.37092],[1.6403,50.37067],[1.63994,50.3704],[1.63892,50.3738],[1.63933,50.37387],[1.63963,50.37318]],[[1.6403,50.37195],[1.64023,50.37204],[1.64,50.37197],[1.64009,50.37186],[1.6403,50.37195]]]}},{"type":"Feature","properties":{"k":"PPH","s":0.563},"geometry":{"type":"Polygon","coordinates":[[[1.63879,50.37099],[1.6391,50.37027],[1.6379,50.37044],[1.63778,50.371],[1.63879,50.37099]]]}},{"type":"Feature","properties":{"k":"PPH","s":1.374},"geometry":{"type":"Polygon","coordinates":[[[1.64038,50.36895],[1.63982,50.36944],[1.64045,50.36972],[1.64221,50.36991],[1.6423,50.36903],[1.64038,50.36895]]]}},{"type":"Feature","properties":{"k":"PPH","s":3.099},"geometry":{"type":"Polygon","coordinates":[[[1.63937,50.36963],[1.64039,50.36867],[1.63718,50.36834],[1.63636,50.3693],[1.63627,50.36967],[1.63937,50.36963]]]}},{"type":"Feature","properties":{"k":"PPH","s":0.526},"geometry":{"type":"Polygon","coordinates":[[[1.63625,50.36991],[1.63851,50.3699],[1.63933,50.36964],[1.63634,50.36969],[1.63625,50.36991]]]}},{"type":"Feature","properties":{"k":"MIS","s":0.722},"geometry":{"type":"Polygon","coordinates":[[[1.63437,50.37086],[1.63646,50.37143],[1.63654,50.37091],[1.63495,50.37057],[1.63437,50.37086]]]}},{"type":"Feature","properties":{"k":"PPH","s":0.505},"geometry":{"type":"Polygon","coordinates":[[[1.63671,50.3705],[1.63537,50.37025],[1.63495,50.37057],[1.63655,50.37092],[1.63671,50.3705]]]}},{"type":"Feature","properties":{"k":"BTA","s":0.067},"geometry":{"type":"Polygon","coordinates":[[[1.63666,50.37089],[1.63658,50.37149],[1.63682,50.37059],[1.63777,50.37046],[1.63676,50.37055],[1.63666,50.37089]]]}},{"type":"Feature","properties":{"k":"BTA","s":0.029},"geometry":{"type":"Polygon","coordinates":[[[1.63646,50.37143],[1.63653,50.37145],[1.6366,50.37093],[1.63646,50.37143]]]}},{"type":"Feature","properties":{"k":"ORH","s":1.705},"geometry":{"type":"Polygon","coordinates":[[[1.63628,50.37268],[1.63712,50.37272],[1.63785,50.37045],[1.63682,50.37059],[1.63628,50.37268]]]}},{"type":"Feature","properties":{"k":"PPH","s":0.98},"geometry":{"type":"Polygon","coordinates":[[[1.63435,50.37089],[1.6339,50.37116],[1.63512,50.37152],[1.63498,50.37191],[1.63547,50.37212],[1.63582,50.37179],[1.63634,50.37177],[1.63645,50.37147],[1.63435,50.37089]]]}},{"type":"Feature","properties":{"k":"JAC","s":1.538},"geometry":{"type":"Polygon","coordinates":[[[1.63703,50.37306],[1.63714,50.37273],[1.63627,50.37268],[1.63639,50.3718],[1.63581,50.37181],[1.6355,50.37214],[1.63475,50.37197],[1.63425,50.37275],[1.63703,50.37306]]]}},{"type":"Feature","properties":{"k":"JAC","s":0.306},"geometry":{"type":"Polygon","coordinates":[[[1.63548,50.37303],[1.6368,50.37322],[1.63648,50.373],[1.63424,50.37276],[1.63416,50.3729],[1.63548,50.37303]]]}},{"type":"Feature","properties":{"k":"ORP","s":3.813},"geometry":{"type":"Polygon","coordinates":[[[1.6383,50.37489],[1.63875,50.37379],[1.63892,50.37381],[1.63993,50.37042],[1.63958,50.37025],[1.6391,50.37031],[1.63779,50.37363],[1.63712,50.37472],[1.6383,50.37489]]]}},{"type":"Feature","properties":{"k":"MIS","s":5.962},"geometry":{"type":"Polygon","coordinates":[[[1.64072,50.37324],[1.63965,50.37322],[1.63892,50.37488],[1.63932,50.3739],[1.63877,50.3738],[1.63832,50.37489],[1.64093,50.37536],[1.64245,50.37551],[1.64278,50.37539],[1.64319,50.37496],[1.6428,50.37421],[1.64288,50.37379],[1.64236,50.37358],[1.64071,50.37353],[1.64072,50.37324]]]}},{"type":"Feature","properties":{"k":"PPH","s":3.303},"geometry":{"type":"Polygon","coordinates":[[[1.63845,50.37662],[1.64002,50.37648],[1.64099,50.37671],[1.64133,50.37643],[1.64225,50.37652],[1.64246,50.3759],[1.64344,50.37608],[1.64356,50.3759],[1.64226,50.37553],[1.63948,50.37511],[1.63927,50.37582],[1.63845,50.37662]]]}},{"type":"Feature","properties":{"k":"PPH","s":2.421},"geometry":{"type":"Polygon","coordinates":[[[1.63683,50.37668],[1.63836,50.37666],[1.63926,50.37578],[1.63943,50.37511],[1.63799,50.37493],[1.63798,50.37569],[1.63664,50.37569],[1.63683,50.37668]]]}},{"type":"Feature","properties":{"k":"JAC","s":0.463},"geometry":{"type":"Polygon","coordinates":[[[1.63725,50.37566],[1.63719,50.37487],[1.63641,50.37487],[1.6366,50.37559],[1.63725,50.37566]]]}},{"type":"Feature","properties":{"k":"PPH","s":3.092},"geometry":{"type":"Polygon","coordinates":[[[1.63234,50.37492],[1.63698,50.3748],[1.63736,50.37434],[1.63305,50.37364],[1.63234,50.37492]]]}},{"type":"Feature","properties":{"k":"MIS","s":2.71},"geometry":{"type":"Polygon","coordinates":[[[1.63679,50.37665],[1.63622,50.37486],[1.63445,50.37489],[1.63481,50.37662],[1.63679,50.37665]]]}},{"type":"Feature","properties":{"k":"BTA","s":0.099},"geometry":{"type":"Polygon","coordinates":[[[1.63138,50.3757],[1.63238,50.37632],[1.63142,50.37566],[1.63023,50.3753],[1.63138,50.3757]]]}},{"type":"Feature","properties":{"k":"JAC","s":0.904},"geometry":{"type":"Polygon","coordinates":[[[1.63203,50.37428],[1.63109,50.37379],[1.63043,50.37481],[1.6317,50.37487],[1.63203,50.37428]]]}},{"type":"Feature","properties":{"k":"PPH","s":4.374},"geometry":{"type":"Polygon","coordinates":[[[1.6311,50.37353],[1.6324,50.37225],[1.62954,50.37104],[1.62837,50.37274],[1.6311,50.37353]]]}},{"type":"Feature","properties":{"k":"PPH","s":4.221},"geometry":{"type":"Polygon","coordinates":[[[1.63206,50.37429],[1.63171,50.37491],[1.63231,50.37492],[1.63303,50.37363],[1.63385,50.37373],[1.63388,50.3733],[1.63469,50.37203],[1.63335,50.37162],[1.63149,50.37317],[1.63109,50.37378],[1.63206,50.37429]]]}},{"type":"Feature","properties":{"k":"BTH","s":3.907},"geometry":{"type":"Polygon","coordinates":[[[1.63026,50.36939],[1.62984,50.36986],[1.63018,50.37022],[1.63015,50.37066],[1.62975,50.37097],[1.63243,50.37212],[1.63369,50.37114],[1.63026,50.36939]]]}},{"type":"Feature","properties":{"k":"BTH","s":0.676},"geometry":{"type":"Polygon","coordinates":[[[1.63519,50.37025],[1.63303,50.36949],[1.63279,50.36979],[1.63477,50.3705],[1.63519,50.37025]]]}},{"type":"Feature","properties":{"k":"PTR","s":1.399},"geometry":{"type":"Polygon","coordinates":[[[1.63273,50.36976],[1.63348,50.36885],[1.63284,50.36861],[1.63207,50.3692],[1.63202,50.36959],[1.63224,50.36985],[1.63383,50.37055],[1.63442,50.37069],[1.63477,50.3705],[1.63273,50.36976]]]}},{"type":"Feature","properties":{"k":"PTR","s":1.332},"geometry":{"type":"Polygon","coordinates":[[[1.63517,50.37023],[1.63593,50.3698],[1.6336,50.36889],[1.6331,50.36951],[1.63517,50.37023]]]}},{"type":"Feature","properties":{"k":"BTA","s":0.157},"geometry":{"type":"Polygon","coordinates":[[[1.6336,50.36889],[1.63592,50.36975],[1.63558,50.36994],[1.636,50.36981],[1.63598,50.36972],[1.63357,50.36883],[1.63313,50.36947],[1.6336,50.36889]]]}},{"type":"Feature","properties":{"k":"BTA","s":0.262},"geometry":{"type":"Polygon","coordinates":[[[1.63294,50.37021],[1.63202,50.36959],[1.63207,50.3692],[1.63284,50.36861],[1.63348,50.36885],[1.63274,50.36973],[1.63279,50.36978],[1.63357,50.36883],[1.63282,50.36855],[1.632,50.36918],[1.63195,50.36961],[1.6329,50.37025],[1.63435,50.37066],[1.63294,50.37021]]]}},{"type":"Feature","properties":{"k":"MIS","s":1.402},"geometry":{"type":"Polygon","coordinates":[[[1.6326,50.37067],[1.63373,50.37113],[1.63414,50.37089],[1.63196,50.36991],[1.63162,50.36915],[1.6306,50.3691],[1.63037,50.36932],[1.6326,50.37067]]]}},{"type":"Feature","properties":{"k":"JAC","s":0.194},"geometry":{"type":"Polygon","coordinates":[[[1.6306,50.3691],[1.63162,50.36915],[1.63171,50.36962],[1.63196,50.36991],[1.63309,50.37051],[1.63395,50.37085],[1.6342,50.37085],[1.63201,50.36988],[1.63168,50.36912],[1.63057,50.36906],[1.63039,50.36926],[1.6306,50.3691]]]}},{"type":"Feature","properties":{"k":"BTA","s":0.138},"geometry":{"type":"Polygon","coordinates":[[[1.63015,50.37066],[1.63018,50.37038],[1.62984,50.36986],[1.6303,50.36929],[1.62976,50.36977],[1.63009,50.37046],[1.6298,50.37094],[1.63015,50.37066]]]}},{"type":"Feature","properties":{"k":"BTA","s":0.443},"geometry":{"type":"Polygon","coordinates":[[[1.62411,50.37696],[1.62423,50.37662],[1.62415,50.37623],[1.62457,50.37498],[1.62456,50.37438],[1.62528,50.37413],[1.62617,50.37337],[1.62618,50.37323],[1.6257,50.37301],[1.62552,50.3724],[1.62537,50.3724],[1.62567,50.37312],[1.6261,50.37327],[1.62529,50.37405],[1.6245,50.37436],[1.62407,50.37614],[1.62411,50.37666],[1.62401,50.3769],[1.62347,50.37702],[1.62411,50.37696]]]}},{"type":"Feature","properties":{"k":"MIS","s":7.027},"geometry":{"type":"Polygon","coordinates":[[[1.62347,50.37702],[1.62401,50.3769],[1.6245,50.37436],[1.62529,50.37405],[1.6261,50.37327],[1.62567,50.37312],[1.62537,50.3724],[1.6246,50.37237],[1.62426,50.37249],[1.62354,50.37345],[1.62293,50.37362],[1.62176,50.37438],[1.62347,50.37702]]]}},{"type":"Feature","properties":{"k":"BTA","s":0.0},"geometry":{"type":"Polygon","coordinates":[]}},{"type":"Feature","properties":{"k":"MIS","s":0.001},"geometry":{"type":"Polygon","coordinates":[[[1.6234,50.37712],[1.62338,50.37708],[1.62325,50.3769],[1.6234,50.37712]]]}},{"type":"Feature","properties":{"k":"PTR","s":4.496},"geometry":{"type":"Polygon","coordinates":[[[1.62922,50.37749],[1.62929,50.37794],[1.6308,50.37783],[1.63091,50.3777],[1.63162,50.37783],[1.63245,50.37646],[1.63168,50.37585],[1.63017,50.37527],[1.62922,50.37749]]]}},{"type":"Feature","properties":{"k":"BTH","s":3.789},"geometry":{"type":"Polygon","coordinates":[[[1.6325,50.3764],[1.63117,50.37867],[1.63179,50.37875],[1.63232,50.3784],[1.63418,50.37771],[1.63467,50.37791],[1.63484,50.37773],[1.63498,50.37691],[1.63434,50.37665],[1.6325,50.3764]]]}},{"type":"Feature","properties":{"k":"BTA","s":0.147},"geometry":{"type":"Polygon","coordinates":[[[1.63425,50.37775],[1.63467,50.37791],[1.63418,50.37771],[1.63232,50.3784],[1.63179,50.37875],[1.63425,50.37775]]]}},{"type":"Feature","properties":{"k":"PTR","s":1.561},"geometry":{"type":"Polygon","coordinates":[[[1.62956,50.37943],[1.62994,50.38046],[1.63066,50.38022],[1.63087,50.37863],[1.62976,50.37848],[1.62956,50.37943]]]}},{"type":"Feature","properties":{"k":"MIS","s":1.106},"geometry":{"type":"Polygon","coordinates":[[[1.63075,50.37787],[1.62935,50.37795],[1.62929,50.37828],[1.63117,50.37863],[1.63161,50.37783],[1.63087,50.37771],[1.63075,50.37787]]]}},{"type":"Feature","properties":{"k":"BTH","s":0.024},"geometry":{"type":"Polygon","coordinates":[[[1.62846,50.37852],[1.62885,50.37837],[1.62853,50.37839],[1.62827,50.37853],[1.62846,50.37852]]]}},{"type":"Feature","properties":{"k":"LUZ","s":0.447},"geometry":{"type":"Polygon","coordinates":[[[1.67363,50.39082],[1.67444,50.3909],[1.67444,50.39012],[1.67353,50.39032],[1.67363,50.39082]]]}},{"type":"Feature","properties":{"k":"BTH","s":0.549},"geometry":{"type":"Polygon","coordinates":[[[1.67444,50.3909],[1.67524,50.39097],[1.67528,50.39006],[1.67444,50.39012],[1.67444,50.3909]]]}},{"type":"Feature","properties":{"k":"BTH","s":2.11},"geometry":{"type":"Polygon","coordinates":[[[1.67784,50.39162],[1.67864,50.39182],[1.6793,50.38971],[1.67819,50.3898],[1.67706,50.38964],[1.67425,50.38967],[1.67434,50.38991],[1.67724,50.38989],[1.67827,50.39003],[1.67784,50.39162]]]}},{"type":"Feature","properties":{"k":"MIS","s":1.002},"geometry":{"type":"Polygon","coordinates":[[[1.67647,50.39],[1.67528,50.39006],[1.67524,50.39097],[1.67641,50.39122],[1.67647,50.39]]]}},{"type":"Feature","properties":{"k":"LUZ","s":1.767},"geometry":{"type":"Polygon","coordinates":[[[1.67825,50.39016],[1.67648,50.39001],[1.67642,50.39124],[1.67782,50.39162],[1.67825,50.39016]]]}},{"type":"Feature","properties":{"k":"JAC","s":0.382},"geometry":{"type":"Polygon","coordinates":[[[1.67657,50.38986],[1.67434,50.38991],[1.6744,50.39007],[1.67629,50.38997],[1.67825,50.39013],[1.67827,50.39003],[1.67657,50.38986]]]}},{"type":"Feature","properties":{"k":"ORH","s":8.611},"geometry":{"type":"Polygon","coordinates":[[[1.68262,50.39059],[1.68426,50.39102],[1.68405,50.38953],[1.68393,50.38923],[1.68376,50.3889],[1.67679,50.38822],[1.6767,50.38963],[1.67816,50.38979],[1.68061,50.38968],[1.68262,50.39059]]]}},{"type":"Feature","properties":{"k":"BTH","s":8.769},"geometry":{"type":"Polygon","coordinates":[[[1.68042,50.38979],[1.6793,50.38971],[1.67868,50.39169],[1.67875,50.39184],[1.68205,50.39332],[1.68397,50.39108],[1.68042,50.38979]]]}},{"type":"Feature","properties":{"k":"MIS","s":6.336},"geometry":{"type":"Polygon","coordinates":[[[1.6768,50.38821],[1.68376,50.38888],[1.68267,50.38752],[1.67695,50.38697],[1.6768,50.38821]]]}},{"type":"Feature","properties":{"k":"BTH","s":7.085},"geometry":{"type":"Polygon","coordinates":[[[1.67726,50.3851],[1.67695,50.38697],[1.68267,50.38752],[1.68101,50.38546],[1.67726,50.3851]]]}},{"type":"Feature","properties":{"k":"LUZ","s":3.264},"geometry":{"type":"Polygon","coordinates":[[[1.67748,50.38386],[1.67726,50.3851],[1.68101,50.38545],[1.67996,50.38402],[1.67748,50.38386]]]}},{"type":"Feature","properties":{"k":"ORH","s":0.851},"geometry":{"type":"Polygon","coordinates":[[[1.68616,50.39489],[1.68699,50.39388],[1.68624,50.39352],[1.68538,50.39459],[1.68616,50.39489]]]}},{"type":"Feature","properties":{"k":"BTH","s":0.009},"geometry":{"type":"Polygon","coordinates":[[[1.68543,50.39473],[1.68514,50.39464],[1.6861,50.39498],[1.68543,50.39473]]]}},{"type":"Feature","properties":{"k":"BTH","s":2.2},"geometry":{"type":"Polygon","coordinates":[[[1.68861,50.39578],[1.68915,50.39519],[1.68701,50.39387],[1.68616,50.3949],[1.68861,50.39578]]]}},{"type":"Feature","properties":{"k":"BTH","s":5.608},"geometry":{"type":"Polygon","coordinates":[[[1.68538,50.39459],[1.68624,50.39352],[1.68518,50.39268],[1.68439,50.39156],[1.68426,50.39106],[1.68397,50.39108],[1.68205,50.39332],[1.68538,50.39459]]]}},{"type":"Feature","properties":{"k":"BTH","s":7.106},"geometry":{"type":"Polygon","coordinates":[[[1.67442,50.39222],[1.67408,50.39226],[1.67409,50.39213],[1.6731,50.39371],[1.67476,50.39472],[1.67791,50.39173],[1.6748,50.39103],[1.67413,50.39207],[1.67428,50.39202],[1.67442,50.39222]]]}},{"type":"Feature","properties":{"k":"BTH","s":0.283},"geometry":{"type":"Polygon","coordinates":[[[1.6756,50.39403],[1.67804,50.39176],[1.67791,50.39173],[1.67479,50.39474],[1.6756,50.39403]]]}},{"type":"Feature","properties":{"k":"ORH","s":3.047},"geometry":{"type":"Polygon","coordinates":[[[1.67804,50.39176],[1.67483,50.39476],[1.67569,50.3952],[1.67891,50.39204],[1.67804,50.39176]]]}},{"type":"Feature","properties":{"k":"MIS","s":5.031},"geometry":{"type":"Polygon","coordinates":[[[1.67351,50.39086],[1.67181,50.39045],[1.6714,50.39263],[1.6731,50.39372],[1.67479,50.391],[1.67351,50.39086]]]}},{"type":"Feature","properties":{"k":"BTN","s":4.446},"geometry":{"type":"Polygon","coordinates":[[[1.63965,50.38741],[1.63886,50.38905],[1.63834,50.3894],[1.63899,50.38956],[1.64036,50.38958],[1.64254,50.38938],[1.64202,50.38816],[1.63965,50.38741]]]}},{"type":"Feature","properties":{"k":"BTN","s":3.495},"geometry":{"type":"Polygon","coordinates":[[[1.64178,50.38947],[1.64119,50.38968],[1.64227,50.39034],[1.64199,50.39064],[1.64191,50.39156],[1.64358,50.39158],[1.64363,50.39008],[1.64304,50.38994],[1.64376,50.38994],[1.6448,50.39027],[1.64474,50.38944],[1.64178,50.38947]]]}},{"type":"Feature","properties":{"k":"PPH","s":4.737},"geometry":{"type":"MultiPolygon","coordinates":[[[[1.64291,50.3923],[1.64353,50.39238],[1.64358,50.39158],[1.64191,50.39156],[1.64214,50.39197],[1.64291,50.3923]]],[[[1.64732,50.39078],[1.64776,50.3903],[1.64624,50.39006],[1.64493,50.39045],[1.64363,50.39008],[1.64367,50.3914],[1.64554,50.39159],[1.64721,50.39153],[1.64732,50.39078]]]]}},{"type":"Feature","properties":{"k":"BTH","s":1.262},"geometry":{"type":"Polygon","coordinates":[[[1.64602,50.39007],[1.64646,50.38931],[1.64698,50.38906],[1.64709,50.38877],[1.6448,50.38945],[1.64486,50.39029],[1.64602,50.39007]]]}},{"type":"Feature","properties":{"k":"PPH","s":2.518},"geometry":{"type":"Polygon","coordinates":[[[1.64254,50.38938],[1.64465,50.3894],[1.64586,50.38913],[1.64605,50.38885],[1.64631,50.38887],[1.64625,50.38825],[1.6453,50.38827],[1.64511,50.38844],[1.64367,50.38868],[1.64219,50.38847],[1.64254,50.38938]]]}},{"type":"Feature","properties":{"k":"MIS","s":0.411},"geometry":{"type":"Polygon","coordinates":[[[1.64731,50.38821],[1.64627,50.38826],[1.64634,50.38883],[1.6471,50.38868],[1.64734,50.38847],[1.64731,50.38821]]]}},{"type":"Feature","properties":{"k":"BTH","s":2.569},"geometry":{"type":"Polygon","coordinates":[[[1.64406,50.38586],[1.6434,50.38627],[1.64504,50.38706],[1.64594,50.38728],[1.64638,50.38591],[1.646,50.3854],[1.64406,50.38586]]]}},{"type":"Feature","properties":{"k":"MIS","s":0.803},"geometry":{"type":"Polygon","coordinates":[[[1.64038,50.38691],[1.63981,50.38736],[1.64105,50.38781],[1.64177,50.3871],[1.64038,50.38691]]]}},{"type":"Feature","properties":{"k":"MIS","s":0.496},"geometry":{"type":"Polygon","coordinates":[[[1.64163,50.38703],[1.64199,50.38686],[1.63978,50.38635],[1.64033,50.38686],[1.64163,50.38703]]]}},{"type":"Feature","properties":{"k":"JAC","s":0.103},"geometry":{"type":"Polygon","coordinates":[[[1.63973,50.38632],[1.63964,50.38645],[1.64014,50.38683],[1.63978,50.38635],[1.64202,50.38683],[1.63973,50.38632]]]}},{"type":"Feature","properties":{"k":"PPH","s":1.797},"geometry":{"type":"Polygon","coordinates":[[[1.64109,50.3859],[1.64082,50.38652],[1.64197,50.38678],[1.64357,50.38594],[1.64343,50.3854],[1.64173,50.38557],[1.64171,50.38587],[1.64109,50.3859]]]}},{"type":"Feature","properties":{"k":"PPH","s":1.63},"geometry":{"type":"Polygon","coordinates":[[[1.6425,50.38388],[1.642,50.38402],[1.64159,50.38453],[1.64155,50.38468],[1.64159,50.38478],[1.64374,50.38445],[1.64561,50.38436],[1.64566,50.38409],[1.6425,50.38388]]]}},{"type":"Feature","properties":{"k":"PPH","s":0.406},"geometry":{"type":"Polygon","coordinates":[[[1.64699,50.38472],[1.64771,50.38488],[1.64822,50.38392],[1.64755,50.38417],[1.64699,50.38472]]]}},{"type":"Feature","properties":{"k":"MIS","s":4.898},"geometry":{"type":"Polygon","coordinates":[[[1.64919,50.38339],[1.64822,50.38392],[1.64732,50.38562],[1.64852,50.38582],[1.6514,50.38672],[1.65125,50.38579],[1.64986,50.3857],[1.65,50.38406],[1.65153,50.38408],[1.65155,50.38391],[1.64954,50.38361],[1.64919,50.38339]]]}},{"type":"Feature","properties":{"k":"PPH","s":3.082},"geometry":{"type":"Polygon","coordinates":[[[1.64638,50.38591],[1.64594,50.38728],[1.64702,50.38755],[1.6471,50.38712],[1.64806,50.38711],[1.64805,50.38683],[1.64724,50.38663],[1.64796,50.38674],[1.64895,50.38665],[1.64909,50.38605],[1.64601,50.38541],[1.64638,50.38591]]]}},{"type":"Feature","properties":{"k":"PPH","s":1.289},"geometry":{"type":"Polygon","coordinates":[[[1.64718,50.38716],[1.64693,50.38776],[1.64705,50.38815],[1.64893,50.38811],[1.64836,50.38712],[1.64718,50.38716]]]}},{"type":"Feature","properties":{"k":"PPH","s":3.022},"geometry":{"type":"Polygon","coordinates":[[[1.65138,50.38671],[1.64915,50.38603],[1.64896,50.38665],[1.6481,50.38673],[1.64814,50.38711],[1.64887,50.3871],[1.64891,50.38684],[1.64963,50.38692],[1.64971,50.38809],[1.65152,50.38808],[1.65138,50.38671]]]}},{"type":"Feature","properties":{"k":"ORH","s":3.375},"geometry":{"type":"Polygon","coordinates":[[[1.65179,50.38805],[1.65511,50.38838],[1.65406,50.38665],[1.65152,50.38664],[1.65179,50.38805]]]}},{"type":"Feature","properties":{"k":"SGH","s":3.972},"geometry":{"type":"Polygon","coordinates":[[[1.6537,50.38566],[1.65295,50.3847],[1.65219,50.38382],[1.65172,50.38379],[1.65143,50.38574],[1.65152,50.38664],[1.65406,50.38664],[1.6537,50.38566]]]}},{"type":"Feature","properties":{"k":"MIS","s":1.953},"geometry":{"type":"Polygon","coordinates":[[[1.65125,50.38579],[1.65153,50.38408],[1.65,50.38406],[1.64986,50.3857],[1.65125,50.38579]]]}},{"type":"Feature","properties":{"k":"ORP","s":0.934},"geometry":{"type":"Polygon","coordinates":[[[1.65938,50.38443],[1.65776,50.38423],[1.65731,50.38417],[1.65905,50.38551],[1.65938,50.38443]]]}},{"type":"Feature","properties":{"k":"MIS","s":0.879},"geometry":{"type":"Polygon","coordinates":[[[1.65516,50.38832],[1.65534,50.38833],[1.65566,50.38702],[1.65425,50.38694],[1.65516,50.38832]]]}},{"type":"Feature","properties":{"k":"SGH","s":2.572},"geometry":{"type":"Polygon","coordinates":[[[1.65268,50.38994],[1.65484,50.38998],[1.65521,50.38867],[1.65501,50.38865],[1.65506,50.38848],[1.65336,50.38826],[1.65268,50.38994]]]}},{"type":"Feature","properties":{"k":"MIS","s":0.578},"geometry":{"type":"Polygon","coordinates":[[[1.65489,50.38999],[1.65433,50.38998],[1.65413,50.39161],[1.65446,50.39161],[1.65489,50.38999]]]}},{"type":"Feature","properties":{"k":"ORP","s":0.908},"geometry":{"type":"Polygon","coordinates":[[[1.65409,50.39159],[1.65429,50.38999],[1.65355,50.38998],[1.65341,50.39158],[1.65409,50.39159]]]}},{"type":"Feature","properties":{"k":"BTN","s":0.952},"geometry":{"type":"Polygon","coordinates":[[[1.65114,50.39186],[1.65434,50.39199],[1.65446,50.39161],[1.65112,50.3915],[1.65114,50.39186]]]}},{"type":"Feature","properties":{"k":"LUZ","s":2.97},"geometry":{"type":"Polygon","coordinates":[[[1.64945,50.39208],[1.65099,50.39209],[1.6511,50.39003],[1.64924,50.38999],[1.6492,50.39173],[1.64946,50.39174],[1.64945,50.39208]]]}},{"type":"Feature","properties":{"k":"PPR","s":3.951},"geometry":{"type":"Polygon","coordinates":[[[1.65341,50.39158],[1.65355,50.38998],[1.65267,50.38995],[1.65301,50.38914],[1.65135,50.38907],[1.65112,50.3915],[1.65341,50.39158]]]}},{"type":"Feature","properties":{"k":"LUZ","s":0.368},"geometry":{"type":"Polygon","coordinates":[[[1.65169,50.38814],[1.65157,50.38839],[1.65327,50.3885],[1.65335,50.38826],[1.65169,50.38814]]]}},{"type":"Feature","properties":{"k":"MIS","s":0.908},"geometry":{"type":"Polygon","coordinates":[[[1.65135,50.38907],[1.65301,50.38914],[1.65327,50.3885],[1.65157,50.38837],[1.65135,50.38907]]]}},{"type":"Feature","properties":{"k":"MIS","s":2.551},"geometry":{"type":"Polygon","coordinates":[[[1.65114,50.38981],[1.65129,50.38885],[1.64916,50.38887],[1.6491,50.38843],[1.64726,50.38861],[1.64715,50.38901],[1.64874,50.38893],[1.64883,50.38959],[1.64789,50.3896],[1.6479,50.38972],[1.65114,50.38981]]]}},{"type":"Feature","properties":{"k":"MIS","s":1.672},"geometry":{"type":"Polygon","coordinates":[[[1.6491,50.38843],[1.64916,50.38886],[1.65129,50.38885],[1.65151,50.38814],[1.64772,50.38825],[1.64729,50.3886],[1.6491,50.38843]]]}},{"type":"Feature","properties":{"k":"PPH","s":1.007},"geometry":{"type":"Polygon","coordinates":[[[1.64741,50.38963],[1.64722,50.38905],[1.64663,50.38927],[1.64619,50.39004],[1.64778,50.3903],[1.64789,50.3896],[1.64741,50.38963]]]}},{"type":"Feature","properties":{"k":"BTH","s":0.577},"geometry":{"type":"Polygon","coordinates":[[[1.64791,50.38995],[1.6511,50.39003],[1.65113,50.38981],[1.64789,50.38972],[1.64791,50.38995]]]}},{"type":"Feature","properties":{"k":"MIS","s":2.419},"geometry":{"type":"Polygon","coordinates":[[[1.64926,50.38998],[1.64793,50.38995],[1.64783,50.3904],[1.64736,50.39081],[1.64727,50.39153],[1.64836,50.39174],[1.64918,50.39216],[1.64926,50.38998]]]}},{"type":"Feature","properties":{"k":"MIS","s":0.196},"geometry":{"type":"Polygon","coordinates":[[[1.64918,50.39216],[1.64955,50.39224],[1.65086,50.39217],[1.64945,50.39208],[1.64946,50.39174],[1.6492,50.39173],[1.64918,50.39216]]]}},{"type":"Feature","properties":{"k":"ORP","s":0.523},"geometry":{"type":"Polygon","coordinates":[[[1.65111,50.39215],[1.65429,50.39214],[1.65433,50.392],[1.65114,50.39186],[1.65111,50.39215]]]}},{"type":"Feature","properties":{"k":"BTN","s":0.001},"geometry":{"type":"Polygon","coordinates":[[[1.65731,50.39272],[1.6576,50.39272],[1.6576,50.39271],[1.65731,50.39272]]]}},{"type":"Feature","properties":{"k":"MIS","s":0.004},"geometry":{"type":"Polygon","coordinates":[[[1.65858,50.39265],[1.65903,50.39261],[1.65903,50.39259],[1.65858,50.39265]]]}},{"type":"Feature","properties":{"k":"LUZ","s":0.012},"geometry":{"type":"MultiPolygon","coordinates":[]}},{"type":"Feature","properties":{"k":"ORP","s":1.843},"geometry":{"type":"Polygon","coordinates":[[[1.66028,50.39295],[1.6603,50.39482],[1.661,50.39469],[1.66128,50.39195],[1.66052,50.39189],[1.66028,50.39295]]]}},{"type":"Feature","properties":{"k":"ORH","s":2.291},"geometry":{"type":"Polygon","coordinates":[[[1.66219,50.39447],[1.66235,50.39204],[1.66128,50.39195],[1.661,50.39469],[1.66219,50.39447]]]}},{"type":"Feature","properties":{"k":"ORH","s":5.226},"geometry":{"type":"Polygon","coordinates":[[[1.663,50.39198],[1.66625,50.3921],[1.66751,50.39403],[1.66825,50.39388],[1.66685,50.39158],[1.66578,50.39147],[1.66576,50.39003],[1.66464,50.38995],[1.66468,50.3908],[1.66324,50.39067],[1.663,50.39198]]]}},{"type":"Feature","properties":{"k":"PHF","s":5.044},"geometry":{"type":"Polygon","coordinates":[[[1.66546,50.39442],[1.66751,50.39403],[1.66625,50.3921],[1.66557,50.39209],[1.66554,50.39243],[1.6638,50.3924],[1.66362,50.39427],[1.66546,50.39442]]]}},{"type":"Feature","properties":{"k":"BTH","s":3.228},"geometry":{"type":"Polygon","coordinates":[[[1.66219,50.39447],[1.66362,50.39427],[1.6638,50.3924],[1.66331,50.39232],[1.66552,50.39242],[1.66556,50.39208],[1.66237,50.39196],[1.66219,50.39447]]]}},{"type":"Feature","properties":{"k":"MIS","s":4.062},"geometry":{"type":"Polygon","coordinates":[[[1.66825,50.39388],[1.67223,50.39316],[1.67139,50.39263],[1.6688,50.39274],[1.66879,50.39175],[1.66686,50.39159],[1.66825,50.39388]]]}},{"type":"Feature","properties":{"k":"LUZ","s":4.605},"geometry":{"type":"Polygon","coordinates":[[[1.6717,50.39117],[1.6669,50.39086],[1.66688,50.39159],[1.66879,50.39175],[1.6688,50.39274],[1.67138,50.39262],[1.6717,50.39117]]]}},{"type":"Feature","properties":{"k":"ORP","s":4.348},"geometry":{"type":"Polygon","coordinates":[[[1.66925,50.39102],[1.67077,50.39104],[1.67173,50.39115],[1.67181,50.39045],[1.66896,50.38969],[1.66693,50.38956],[1.66689,50.39084],[1.66925,50.39102]]]}},{"type":"Feature","properties":{"k":"BTN","s":2.815},"geometry":{"type":"Polygon","coordinates":[[[1.66962,50.38952],[1.66914,50.38968],[1.6736,50.39079],[1.6735,50.39015],[1.67439,50.3901],[1.6742,50.38954],[1.66962,50.38952]]]}},{"type":"Feature","properties":{"k":"LUZ","s":2.008},"geometry":{"type":"Polygon","coordinates":[[[1.66924,50.38835],[1.66916,50.38959],[1.67162,50.38953],[1.6714,50.38837],[1.66924,50.38835]]]}},{"type":"Feature","properties":{"k":"CZH","s":2.535},"geometry":{"type":"Polygon","coordinates":[[[1.66915,50.38961],[1.66922,50.38836],[1.66708,50.38865],[1.66708,50.38838],[1.66599,50.38822],[1.66559,50.38887],[1.66915,50.38961]]]}},{"type":"Feature","properties":{"k":"SGH","s":1.254},"geometry":{"type":"Polygon","coordinates":[[[1.66682,50.39157],[1.66688,50.3901],[1.66576,50.39003],[1.66577,50.39147],[1.66682,50.39157]]]}},{"type":"Feature","properties":{"k":"ORH","s":3.329},"geometry":{"type":"Polygon","coordinates":[[[1.66686,50.3901],[1.66689,50.38958],[1.66222,50.38937],[1.66206,50.39057],[1.66468,50.3908],[1.66463,50.38995],[1.66686,50.3901]]]}},{"type":"Feature","properties":{"k":"MIS","s":2.266},"geometry":{"type":"Polygon","coordinates":[[[1.66052,50.39189],[1.663,50.39198],[1.6632,50.391],[1.6603,50.39082],[1.66052,50.39189]]]}},{"type":"Feature","properties":{"k":"LUZ","s":2.099},"geometry":{"type":"Polygon","coordinates":[[[1.66029,50.39081],[1.6632,50.391],[1.66324,50.39067],[1.66206,50.39057],[1.66217,50.38974],[1.66007,50.38964],[1.66029,50.39081]]]}},{"type":"Feature","properties":{"k":"BTH","s":1.815},"geometry":{"type":"Polygon","coordinates":[[[1.66149,50.3892],[1.66164,50.38856],[1.66229,50.38864],[1.66253,50.38769],[1.6612,50.38696],[1.66073,50.3891],[1.66149,50.3892]]]}},{"type":"Feature","properties":{"k":"LUZ","s":0.792},"geometry":{"type":"Polygon","coordinates":[[[1.66306,50.38935],[1.66319,50.38875],[1.66165,50.38856],[1.66151,50.38922],[1.66306,50.38935]]]}},{"type":"Feature","properties":{"k":"CZH","s":2.731},"geometry":{"type":"Polygon","coordinates":[[[1.6634,50.3881],[1.66252,50.38768],[1.66227,50.38864],[1.66319,50.38875],[1.66304,50.38937],[1.66683,50.38951],[1.66688,50.38941],[1.6634,50.3881]]]}},{"type":"Feature","properties":{"k":"ORP","s":2.903},"geometry":{"type":"Polygon","coordinates":[[[1.6642,50.38701],[1.6637,50.38813],[1.66557,50.38885],[1.66597,50.38821],[1.66657,50.38781],[1.6667,50.38709],[1.66502,50.38694],[1.66498,50.38705],[1.6642,50.38701]]]}},{"type":"Feature","properties":{"k":"LUZ","s":6.874},"geometry":{"type":"Polygon","coordinates":[[[1.66308,50.38792],[1.66367,50.38807],[1.66426,50.38686],[1.6644,50.3857],[1.66477,50.38574],[1.66491,50.38455],[1.66242,50.38434],[1.66206,50.38584],[1.66115,50.38575],[1.66172,50.38718],[1.66308,50.38792]]]}},{"type":"Feature","properties":{"k":"BTN","s":4.366},"geometry":{"type":"Polygon","coordinates":[[[1.65876,50.38786],[1.65891,50.38789],[1.6587,50.38888],[1.66069,50.38911],[1.66116,50.38693],[1.65932,50.38582],[1.65876,50.38786]]]}},{"type":"Feature","properties":{"k":"ORP","s":3.036},"geometry":{"type":"Polygon","coordinates":[[[1.66058,50.38566],[1.66094,50.38409],[1.65949,50.38397],[1.65911,50.38555],[1.66134,50.38694],[1.66159,50.38686],[1.66113,50.38575],[1.66058,50.38566]]]}},{"type":"Feature","properties":{"k":"MIS","s":1.594},"geometry":{"type":"Polygon","coordinates":[[[1.66786,50.38312],[1.66703,50.38573],[1.66775,50.3858],[1.6685,50.38327],[1.66786,50.38312]]]}},{"type":"Feature","properties":{"k":"ORH","s":4.071},"geometry":{"type":"Polygon","coordinates":[[[1.66977,50.38598],[1.67051,50.3835],[1.66857,50.38329],[1.66775,50.3858],[1.66977,50.38598]]]}},{"type":"Feature","properties":{"k":"MIS","s":1.327},"geometry":{"type":"Polygon","coordinates":[[[1.66437,50.38593],[1.66798,50.38623],[1.66799,50.38635],[1.66945,50.38639],[1.66957,50.38596],[1.66703,50.38573],[1.66698,50.38597],[1.6644,50.3857],[1.66437,50.38593]]]}},{"type":"Feature","properties":{"k":"ORH","s":3.876},"geometry":{"type":"Polygon","coordinates":[[[1.66425,50.38687],[1.6667,50.38709],[1.66677,50.38654],[1.66802,50.38659],[1.66813,50.38731],[1.67022,50.38736],[1.67023,50.38642],[1.66799,50.38635],[1.66798,50.38623],[1.66437,50.38593],[1.66425,50.38687]]]}},{"type":"Feature","properties":{"k":"BTH","s":4.004},"geometry":{"type":"Polygon","coordinates":[[[1.66597,50.38821],[1.66711,50.38838],[1.6671,50.38862],[1.66919,50.38833],[1.6692,50.38801],[1.67072,50.38802],[1.67058,50.38739],[1.66813,50.38731],[1.66802,50.38659],[1.66677,50.38654],[1.66657,50.38781],[1.66597,50.38821]]]}},{"type":"Feature","properties":{"k":"CZH","s":10.777},"geometry":{"type":"Polygon","coordinates":[[[1.67072,50.38802],[1.67215,50.38804],[1.67264,50.38643],[1.67351,50.38634],[1.67396,50.38368],[1.67051,50.3835],[1.66977,50.38598],[1.66957,50.38596],[1.66945,50.38639],[1.67023,50.38642],[1.67022,50.38736],[1.67058,50.38739],[1.67072,50.38802]]]}},{"type":"Feature","properties":{"k":"PHF","s":3.874},"geometry":{"type":"Polygon","coordinates":[[[1.67574,50.38377],[1.67397,50.38369],[1.67351,50.38634],[1.6753,50.38651],[1.67574,50.38377]]]}},{"type":"Feature","properties":{"k":"MIS","s":3.705},"geometry":{"type":"Polygon","coordinates":[[[1.67695,50.38659],[1.67747,50.38384],[1.67575,50.38376],[1.6753,50.38651],[1.67695,50.38659]]]}},{"type":"Feature","properties":{"k":"BTH","s":12.771},"geometry":{"type":"Polygon","coordinates":[[[1.6742,50.38955],[1.67425,50.38968],[1.67669,50.38963],[1.67694,50.38657],[1.67275,50.38638],[1.67215,50.38804],[1.66921,50.38801],[1.6692,50.38834],[1.66945,50.38839],[1.67048,50.38847],[1.67141,50.38838],[1.67164,50.38954],[1.6742,50.38955]]]}},{"type":"Feature","properties":{"k":"BTH","s":2.511},"geometry":{"type":"Polygon","coordinates":[[[1.63056,50.38183],[1.63274,50.38188],[1.63246,50.38043],[1.63123,50.38057],[1.6306,50.38037],[1.63002,50.38056],[1.63056,50.38183]]]}},{"type":"Feature","properties":{"k":"BTA","s":0.266},"geometry":{"type":"Polygon","coordinates":[[[1.63253,50.38036],[1.63116,50.3805],[1.63069,50.38027],[1.62997,50.3805],[1.6306,50.38037],[1.63123,50.38057],[1.63246,50.38043],[1.63284,50.38184],[1.63253,50.38036]]]}},{"type":"Feature","properties":{"k":"MIS","s":0.004},"geometry":{"type":"Polygon","coordinates":[[[1.63007,50.3808],[1.62999,50.38067],[1.63019,50.38115],[1.63007,50.3808]]]}},{"type":"Feature","properties":{"k":"BTA","s":0.029},"geometry":{"type":"Polygon","coordinates":[[[1.62994,50.38046],[1.62996,50.3805],[1.63066,50.38022],[1.62994,50.38046]]]}},{"type":"Feature","properties":{"k":"PPH","s":2.477},"geometry":{"type":"Polygon","coordinates":[[[1.63294,50.3819],[1.63355,50.38202],[1.63335,50.38209],[1.63328,50.3828],[1.63476,50.3824],[1.63443,50.38181],[1.6344,50.38121],[1.63321,50.38078],[1.63329,50.38032],[1.63383,50.37975],[1.63257,50.37988],[1.63294,50.3819]]]}},{"type":"Feature","properties":{"k":"BTA","s":0.007},"geometry":{"type":"Polygon","coordinates":[[[1.63327,50.38202],[1.63323,50.38241],[1.63328,50.3822],[1.63327,50.38202]]]}},{"type":"Feature","properties":{"k":"MIS","s":0.022},"geometry":{"type":"Polygon","coordinates":[[[1.63334,50.38298],[1.63339,50.38311],[1.63362,50.38305],[1.63334,50.38298]]]}},{"type":"Feature","properties":{"k":"BTA","s":0.017},"geometry":{"type":"Polygon","coordinates":[[[1.63362,50.38305],[1.6334,50.38316],[1.6337,50.38308],[1.63362,50.38305]]]}},{"type":"Feature","properties":{"k":"PPH","s":0.0},"geometry":{"type":"Polygon","coordinates":[[[1.6412,50.3923],[1.64132,50.39226],[1.64126,50.39227],[1.6412,50.3923]]]}},{"type":"Feature","properties":{"k":"PPH","s":6.497},"geometry":{"type":"Polygon","coordinates":[[[1.6264,50.39209],[1.62786,50.39187],[1.63029,50.39073],[1.63086,50.39021],[1.62943,50.38989],[1.62923,50.3901],[1.627,50.38968],[1.62666,50.39004],[1.62612,50.38994],[1.62545,50.3913],[1.62537,50.39164],[1.6264,50.39209]]]}},{"type":"Feature","properties":{"k":"BTA","s":0.041},"geometry":{"type":"Polygon","coordinates":[[[1.63058,50.38561],[1.63027,50.38561],[1.6306,50.38565],[1.63079,50.3855],[1.63085,50.38538],[1.63084,50.38472],[1.63081,50.38536],[1.63058,50.38561]]]}},{"type":"Feature","properties":{"k":"MIS","s":0.133},"geometry":{"type":"Polygon","coordinates":[[[1.63076,50.38549],[1.63075,50.38494],[1.63029,50.38557],[1.63076,50.38549]]]}},{"type":"Feature","properties":{"k":"BTA","s":0.013},"geometry":{"type":"Polygon","coordinates":[[[1.63061,50.38566],[1.63026,50.38561],[1.63023,50.38565],[1.63061,50.38566]]]}},{"type":"Feature","properties":{"k":"BTA","s":0.126},"geometry":{"type":"MultiPolygon","coordinates":[[[[1.63195,50.38692],[1.63038,50.38706],[1.63198,50.38696],[1.63252,50.38638],[1.63253,50.38607],[1.63195,50.38692]]],[[[1.62962,50.38758],[1.62948,50.3876],[1.62959,50.38759],[1.62962,50.38758]]],[[[1.63006,50.38744],[1.63035,50.38726],[1.62981,50.38752],[1.63006,50.38744]]]]}},{"type":"Feature","properties":{"k":"BTH","s":2.324},"geometry":{"type":"Polygon","coordinates":[[[1.63023,50.38565],[1.62952,50.38669],[1.63038,50.38706],[1.63195,50.38692],[1.63245,50.38636],[1.63251,50.38602],[1.63023,50.38565]]]}},{"type":"Feature","properties":{"k":"BTA","s":0.084},"geometry":{"type":"Polygon","coordinates":[[[1.63202,50.38698],[1.63054,50.38711],[1.63042,50.38725],[1.63206,50.387],[1.63255,50.38647],[1.63202,50.38698]]]}},{"type":"Feature","properties":{"k":"ORH","s":2.986},"geometry":{"type":"Polygon","coordinates":[[[1.63206,50.387],[1.63058,50.38714],[1.63046,50.38729],[1.63183,50.38826],[1.63355,50.38811],[1.63387,50.38698],[1.63416,50.38683],[1.63248,50.38646],[1.63206,50.387]]]}},{"type":"Feature","properties":{"k":"BTN","s":5.435},"geometry":{"type":"Polygon","coordinates":[[[1.63091,50.38539],[1.63065,50.38567],[1.63262,50.38604],[1.63248,50.38646],[1.63416,50.38683],[1.63489,50.38681],[1.63537,50.38611],[1.63564,50.38512],[1.63553,50.38472],[1.63089,50.38506],[1.63091,50.38539]]]}},{"type":"Feature","properties":{"k":"BTA","s":0.207},"geometry":{"type":"Polygon","coordinates":[[[1.6311,50.38399],[1.63383,50.3831],[1.63374,50.38297],[1.63453,50.38274],[1.63366,50.38294],[1.63376,50.38308],[1.63105,50.38396],[1.63085,50.38538],[1.6306,50.38566],[1.63084,50.38551],[1.6311,50.38399]]]}},{"type":"Feature","properties":{"k":"LIF","s":5.4},"geometry":{"type":"Polygon","coordinates":[[[1.63539,50.38361],[1.63456,50.38277],[1.6311,50.38399],[1.63089,50.38506],[1.63553,50.38472],[1.63539,50.38361]]]}},{"type":"Feature","properties":{"k":"MIS","s":2.6},"geometry":{"type":"Polygon","coordinates":[[[1.64125,50.38474],[1.64197,50.38369],[1.64117,50.38324],[1.63995,50.38356],[1.64024,50.3841],[1.64,50.38425],[1.64029,50.38462],[1.63954,50.38541],[1.63938,50.38609],[1.63959,50.38627],[1.64125,50.38474]]]}},{"type":"Feature","properties":{"k":"BTA","s":0.127},"geometry":{"type":"Polygon","coordinates":[[[1.63938,50.38609],[1.63954,50.38541],[1.64029,50.38462],[1.64,50.38425],[1.64022,50.38462],[1.63947,50.38539],[1.6393,50.38609],[1.63955,50.38624],[1.63938,50.38609]]]}},{"type":"Feature","properties":{"k":"BTA","s":0.129},"geometry":{"type":"Polygon","coordinates":[[[1.64015,50.3846],[1.63941,50.38537],[1.6393,50.38609],[1.63947,50.38539],[1.64022,50.38462],[1.63995,50.38428],[1.63947,50.38411],[1.64015,50.3846]]]}},{"type":"Feature","properties":{"k":"MIS","s":1.364},"geometry":{"type":"Polygon","coordinates":[[[1.6408,50.38654],[1.64109,50.3859],[1.6417,50.38587],[1.64155,50.38468],[1.63963,50.3863],[1.6408,50.38654]]]}},{"type":"Feature","properties":{"k":"MIS","s":1.175},"geometry":{"type":"Polygon","coordinates":[[[1.63814,50.38545],[1.63893,50.38576],[1.63925,50.38605],[1.63941,50.38537],[1.64015,50.38455],[1.63945,50.38415],[1.63922,50.38456],[1.63814,50.38545]]]}},{"type":"Feature","properties":{"k":"JAC","s":0.093},"geometry":{"type":"Polygon","coordinates":[[[1.63969,50.38737],[1.641,50.38786],[1.63981,50.38736],[1.64032,50.38691],[1.63969,50.38737]]]}},{"type":"Feature","properties":{"k":"ORH","s":3.276},"geometry":{"type":"Polygon","coordinates":[[[1.637,50.38701],[1.63788,50.38626],[1.6391,50.38605],[1.63825,50.38552],[1.63716,50.38552],[1.63567,50.38526],[1.63535,50.38628],[1.63485,50.38687],[1.637,50.38701]]]}},{"type":"Feature","properties":{"k":"BTA","s":0.355},"geometry":{"type":"Polygon","coordinates":[[[1.63694,50.38724],[1.6363,50.38781],[1.63593,50.38901],[1.63677,50.39009],[1.6357,50.39081],[1.63559,50.39138],[1.63586,50.39073],[1.63686,50.39012],[1.636,50.38893],[1.63642,50.38781],[1.63711,50.38721],[1.637,50.38701],[1.63662,50.38701],[1.63694,50.38724]]]}},{"type":"Feature","properties":{"k":"PPH","s":3.202},"geometry":{"type":"Polygon","coordinates":[[[1.63788,50.39295],[1.63842,50.39311],[1.63903,50.39302],[1.63967,50.3925],[1.64038,50.39256],[1.64128,50.39223],[1.63998,50.39053],[1.63892,50.39085],[1.63925,50.39227],[1.638,50.39227],[1.63788,50.39295]]]}},{"type":"Feature","properties":{"k":"BTA","s":0.008},"geometry":{"type":"Polygon","coordinates":[[[1.63665,50.39273],[1.63664,50.39276],[1.63706,50.39279],[1.63665,50.39273]]]}},{"type":"Feature","properties":{"k":"JAC","s":0.001},"geometry":{"type":"MultiPolygon","coordinates":[]}},{"type":"Feature","properties":{"k":"BTA","s":0.0},"geometry":{"type":"Polygon","coordinates":[]}},{"type":"Feature","properties":{"k":"PPH","s":0.005},"geometry":{"type":"MultiPolygon","coordinates":[[[[1.62755,50.39334],[1.62757,50.3934],[1.62757,50.39334],[1.62755,50.39334]]],[[[1.62686,50.39297],[1.6273,50.39319],[1.62694,50.393],[1.62686,50.39297]]],[[[1.62678,50.39303],[1.6268,50.39313],[1.62682,50.39297],[1.62678,50.39303]]]]}},{"type":"Feature","properties":{"k":"PPH","s":2.634},"geometry":{"type":"Polygon","coordinates":[[[1.63041,50.39354],[1.63058,50.39253],[1.63019,50.39231],[1.62942,50.39258],[1.62892,50.39199],[1.62869,50.39199],[1.62818,50.39245],[1.6283,50.39288],[1.62763,50.39329],[1.62762,50.39351],[1.62904,50.3937],[1.62925,50.39367],[1.62921,50.3935],[1.63041,50.39354]]]}},{"type":"Feature","properties":{"k":"LUZ","s":0.0},"geometry":{"type":"MultiPolygon","coordinates":[]}},{"type":"Feature","properties":{"k":"PPH","s":3.071},"geometry":{"type":"Polygon","coordinates":[[[1.63236,50.39365],[1.63252,50.39354],[1.63338,50.3927],[1.63368,50.39127],[1.63162,50.3916],[1.63177,50.39191],[1.63118,50.39202],[1.63173,50.39317],[1.63119,50.39315],[1.63122,50.3934],[1.63236,50.39365]]]}},{"type":"Feature","properties":{"k":"PPH","s":4.236},"geometry":{"type":"Polygon","coordinates":[[[1.63395,50.39114],[1.63361,50.39061],[1.63368,50.39016],[1.63328,50.39002],[1.63313,50.38972],[1.63271,50.38955],[1.63175,50.38975],[1.63147,50.3901],[1.63169,50.39076],[1.6326,50.39089],[1.63242,50.39147],[1.63371,50.39126],[1.63338,50.3926],[1.63436,50.39263],[1.63516,50.39211],[1.63535,50.3923],[1.63582,50.39175],[1.63551,50.39165],[1.63559,50.39138],[1.63395,50.39114]]]}},{"type":"Feature","properties":{"k":"MIS","s":2.814},"geometry":{"type":"Polygon","coordinates":[[[1.63291,50.38822],[1.63189,50.38829],[1.63142,50.38955],[1.63069,50.39053],[1.6296,50.39113],[1.62974,50.39145],[1.63093,50.39131],[1.63157,50.39096],[1.63167,50.3906],[1.63147,50.3901],[1.6318,50.38971],[1.63256,50.38963],[1.63274,50.38946],[1.63309,50.38885],[1.63291,50.38822]]]}},{"type":"Feature","properties":{"k":"BTA","s":0.117},"geometry":{"type":"Polygon","coordinates":[[[1.63395,50.39008],[1.6342,50.39047],[1.63414,50.3909],[1.63426,50.39111],[1.63448,50.39121],[1.63419,50.39089],[1.63425,50.39049],[1.63409,50.3901],[1.63284,50.38942],[1.63395,50.39008]]]}},{"type":"Feature","properties":{"k":"MIS","s":1.561},"geometry":{"type":"Polygon","coordinates":[[[1.62942,50.38988],[1.63087,50.39022],[1.63159,50.38889],[1.63041,50.38879],[1.62942,50.38988]]]}},{"type":"Feature","properties":{"k":"BTA","s":0.204},"geometry":{"type":"Polygon","coordinates":[[[1.62704,50.38959],[1.62718,50.38911],[1.62755,50.38897],[1.62759,50.38886],[1.62713,50.38846],[1.62781,50.38843],[1.62817,50.3883],[1.62826,50.38818],[1.62778,50.38839],[1.62707,50.38844],[1.62752,50.38885],[1.6271,50.38911],[1.62697,50.38963],[1.6292,50.39001],[1.62704,50.38959]]]}},{"type":"Feature","properties":{"k":"MIS","s":2.806},"geometry":{"type":"Polygon","coordinates":[[[1.62781,50.38843],[1.62713,50.38846],[1.62759,50.38886],[1.62718,50.38911],[1.62704,50.38959],[1.62927,50.39002],[1.63004,50.38903],[1.6289,50.38826],[1.62848,50.3884],[1.62826,50.38824],[1.62781,50.38843]]]}},{"type":"Feature","properties":{"k":"PPH","s":0.995},"geometry":{"type":"Polygon","coordinates":[[[1.63903,50.38957],[1.63902,50.38961],[1.64033,50.39025],[1.64129,50.39025],[1.64188,50.39044],[1.64205,50.3903],[1.641,50.38958],[1.63903,50.38957]]]}},{"type":"Feature","properties":{"k":"MIS","s":4.448},"geometry":{"type":"Polygon","coordinates":[[[1.63875,50.38907],[1.63939,50.38758],[1.64006,50.38699],[1.63952,50.3865],[1.63925,50.38644],[1.63771,50.38715],[1.63693,50.38839],[1.63668,50.38834],[1.63717,50.38959],[1.63731,50.38971],[1.63875,50.38907]]]}},{"type":"Feature","properties":{"k":"BTA","s":0.107},"geometry":{"type":"Polygon","coordinates":[[[1.62845,50.38778],[1.6283,50.38817],[1.62856,50.3878],[1.62975,50.38763],[1.63047,50.38733],[1.62845,50.38778]]]}},{"type":"Feature","properties":{"k":"PPH","s":0.608},"geometry":{"type":"Polygon","coordinates":[[[1.63788,50.39012],[1.63772,50.3906],[1.63864,50.39077],[1.63937,50.39067],[1.63764,50.38973],[1.63788,50.39012]]]}},{"type":"Feature","properties":{"k":"MIS","s":0.888},"geometry":{"type":"Polygon","coordinates":[[[1.63922,50.39227],[1.6389,50.39085],[1.63849,50.39083],[1.638,50.39227],[1.63922,50.39227]]]}},{"type":"Feature","properties":{"k":"BTN","s":8.851},"geometry":{"type":"Polygon","coordinates":[[[1.63409,50.3901],[1.63431,50.3911],[1.6355,50.39136],[1.6357,50.39081],[1.63677,50.3901],[1.63593,50.38889],[1.6363,50.38781],[1.63694,50.38724],[1.63684,50.3871],[1.63639,50.38696],[1.63404,50.38692],[1.63338,50.38843],[1.63365,50.38865],[1.63361,50.38888],[1.63292,50.38901],[1.63256,50.38963],[1.63284,50.38942],[1.63409,50.3901]]]}},{"type":"Feature","properties":{"k":"PPH","s":2.019},"geometry":{"type":"Polygon","coordinates":[[[1.63631,50.38828],[1.63609,50.38904],[1.63691,50.3901],[1.63578,50.39089],[1.63555,50.39166],[1.63583,50.39174],[1.63671,50.39081],[1.63777,50.39044],[1.63754,50.38973],[1.63724,50.38971],[1.63668,50.38835],[1.63631,50.38828]]]}},{"type":"Feature","properties":{"k":"BTA","s":0.191},"geometry":{"type":"MultiPolygon","coordinates":[[[[1.63578,50.39089],[1.63678,50.39028],[1.63691,50.3901],[1.63689,50.38991],[1.63609,50.38904],[1.63686,50.39012],[1.63586,50.39073],[1.63574,50.39087],[1.63555,50.39166],[1.63578,50.39089]]],[[[1.63626,50.38828],[1.636,50.38893],[1.63609,50.38904],[1.63626,50.38828]]]]}},{"type":"Feature","properties":{"k":"MIS","s":2.49},"geometry":{"type":"Polygon","coordinates":[[[1.62999,50.38898],[1.63035,50.38878],[1.63156,50.38882],[1.63181,50.38828],[1.63133,50.38808],[1.63047,50.38733],[1.62975,50.38763],[1.62856,50.3878],[1.62837,50.3882],[1.62999,50.38898]]]}}]}