{"type":"FeatureCollection","features":[{"type":"Feature","properties":{"k":"BTH","s":0.302},"geometry":{"type":"Polygon","coordinates":[[[2.86092,50.24395],[2.861,50.24376],[2.85958,50.24298],[2.85934,50.24312],[2.86092,50.24395]]]}},{"type":"Feature","properties":{"k":"BTH","s":1.388},"geometry":{"type":"Polygon","coordinates":[[[2.83929,50.24843],[2.84016,50.24784],[2.83866,50.24679],[2.83802,50.24756],[2.83929,50.24843]]]}},{"type":"Feature","properties":{"k":"MIS","s":0.001},"geometry":{"type":"Polygon","coordinates":[[[2.83658,50.24904],[2.83643,50.24915],[2.83655,50.24909],[2.83658,50.24904]]]}},{"type":"Feature","properties":{"k":"PTC","s":0.983},"geometry":{"type":"Polygon","coordinates":[[[2.83802,50.24756],[2.83733,50.24852],[2.83679,50.24894],[2.83759,50.24901],[2.83887,50.24814],[2.83802,50.24756]]]}},{"type":"Feature","properties":{"k":"JAC","s":0.514},"geometry":{"type":"Polygon","coordinates":[[[2.83929,50.24843],[2.83887,50.24814],[2.83759,50.24901],[2.83836,50.24907],[2.83929,50.24843]]]}},{"type":"Feature","properties":{"k":"LIF","s":1.948},"geometry":{"type":"Polygon","coordinates":[[[2.83692,50.25113],[2.8365,50.25157],[2.83747,50.25167],[2.83954,50.24937],[2.83865,50.2492],[2.83692,50.25113]]]}},{"type":"Feature","properties":{"k":"BTH","s":3.752},"geometry":{"type":"Polygon","coordinates":[[[2.83828,50.24916],[2.8367,50.24902],[2.83521,50.25024],[2.83434,50.25138],[2.8362,50.25152],[2.83828,50.24916]]]}},{"type":"Feature","properties":{"k":"BTH","s":10.094},"geometry":{"type":"Polygon","coordinates":[[[2.83662,50.25511],[2.84149,50.24973],[2.83957,50.24935],[2.83428,50.25516],[2.83662,50.25511]]]}},{"type":"Feature","properties":{"k":"PHF","s":9.979},"geometry":{"type":"Polygon","coordinates":[[[2.8386,50.25495],[2.83948,50.25454],[2.84388,50.24973],[2.84247,50.24985],[2.84149,50.24973],[2.83662,50.25511],[2.8386,50.25495]]]}},{"type":"Feature","properties":{"k":"BTH","s":1.719},"geometry":{"type":"Polygon","coordinates":[[[2.84576,50.25317],[2.84479,50.25311],[2.84763,50.25465],[2.8493,50.25393],[2.84676,50.25353],[2.84576,50.25317]]]}},{"type":"Feature","properties":{"k":"MIS","s":1.808},"geometry":{"type":"Polygon","coordinates":[[[2.84479,50.25311],[2.84335,50.25305],[2.84699,50.25496],[2.84763,50.25465],[2.84479,50.25311]]]}},{"type":"Feature","properties":{"k":"BTH","s":1.247},"geometry":{"type":"Polygon","coordinates":[[[2.84335,50.25305],[2.84256,50.25303],[2.84653,50.25515],[2.84698,50.25496],[2.84335,50.25305]]]}},{"type":"Feature","properties":{"k":"PTC","s":1.734},"geometry":{"type":"Polygon","coordinates":[[[2.84255,50.25303],[2.84154,50.25302],[2.84597,50.25539],[2.84653,50.25516],[2.84255,50.25303]]]}},{"type":"Feature","properties":{"k":"BTH","s":5.541},"geometry":{"type":"Polygon","coordinates":[[[2.84555,50.25599],[2.84526,50.25614],[2.845,50.25594],[2.84429,50.25633],[2.85045,50.25931],[2.85136,50.25858],[2.84547,50.25573],[2.84532,50.2558],[2.84555,50.25599]]]}},{"type":"Feature","properties":{"k":"MIS","s":0.235},"geometry":{"type":"Polygon","coordinates":[[[2.84295,50.25735],[2.84291,50.25737],[2.84873,50.26029],[2.84295,50.25735]]]}},{"type":"Feature","properties":{"k":"MIS","s":0.28},"geometry":{"type":"Polygon","coordinates":[[[2.84269,50.25751],[2.84264,50.25754],[2.84505,50.25873],[2.84856,50.26044],[2.84269,50.25751]]]}},{"type":"Feature","properties":{"k":"BTH","s":24.922},"geometry":{"type":"Polygon","coordinates":[[[2.84185,50.24968],[2.84791,50.24551],[2.84404,50.24317],[2.84243,50.24428],[2.8403,50.24532],[2.83867,50.24679],[2.84016,50.24784],[2.83848,50.24899],[2.84185,50.24968]]]}},{"type":"Feature","properties":{"k":"MIS","s":0.165},"geometry":{"type":"Polygon","coordinates":[[[2.83534,50.25755],[2.83808,50.25511],[2.83802,50.25511],[2.83492,50.25784],[2.83534,50.25755]]]}},{"type":"Feature","properties":{"k":"MIS","s":0.165},"geometry":{"type":"Polygon","coordinates":[[[2.83431,50.25752],[2.83438,50.25756],[2.83664,50.25517],[2.83431,50.25752]]]}},{"type":"Feature","properties":{"k":"LIF","s":2.196},"geometry":{"type":"Polygon","coordinates":[[[2.83492,50.25784],[2.83802,50.25511],[2.83664,50.25517],[2.83438,50.25756],[2.83492,50.25784]]]}},{"type":"Feature","properties":{"k":"TRN","s":1.668},"geometry":{"type":"Polygon","coordinates":[[[2.83515,50.2577],[2.83463,50.2581],[2.8378,50.25982],[2.83829,50.25942],[2.83515,50.2577]]]}},{"type":"Feature","properties":{"k":"PTC","s":5.049},"geometry":{"type":"Polygon","coordinates":[[[2.83995,50.25841],[2.83647,50.25655],[2.83515,50.2577],[2.83829,50.25942],[2.83995,50.25841]]]}},{"type":"Feature","properties":{"k":"PPH","s":0.215},"geometry":{"type":"Polygon","coordinates":[[[2.87665,50.2483],[2.87714,50.24877],[2.87753,50.2489],[2.87905,50.24875],[2.87996,50.24893],[2.87901,50.2487],[2.87762,50.24887],[2.8772,50.24873],[2.87621,50.24718],[2.87665,50.2483]]]}},{"type":"Feature","properties":{"k":"BTN","s":0.437},"geometry":{"type":"Polygon","coordinates":[[[2.87765,50.24445],[2.87757,50.2444],[2.87525,50.24622],[2.87544,50.24632],[2.87765,50.24445]]]}},{"type":"Feature","properties":{"k":"BTH","s":3.093},"geometry":{"type":"Polygon","coordinates":[[[2.8754,50.24635],[2.87584,50.2466],[2.87613,50.24707],[2.87817,50.24626],[2.87889,50.24534],[2.87893,50.24529],[2.87898,50.24523],[2.87896,50.24521],[2.87885,50.24511],[2.87881,50.24508],[2.87833,50.24482],[2.87764,50.24542],[2.8769,50.24507],[2.8754,50.24635]],[[2.87894,50.24525],[2.87895,50.24522],[2.87896,50.24521],[2.87894,50.24525]]]}},{"type":"Feature","properties":{"k":"PHF","s":4.194},"geometry":{"type":"Polygon","coordinates":[[[2.87595,50.2435],[2.87332,50.24504],[2.87411,50.24532],[2.87525,50.24622],[2.87747,50.24434],[2.87595,50.2435]]]}},{"type":"Feature","properties":{"k":"BTH","s":3.469},"geometry":{"type":"Polygon","coordinates":[[[2.87359,50.24549],[2.8718,50.24399],[2.87093,50.2444],[2.87254,50.24567],[2.87345,50.24672],[2.87397,50.24675],[2.87413,50.247],[2.87587,50.24701],[2.87569,50.24668],[2.87359,50.24549]]]}},{"type":"Feature","properties":{"k":"BTA","s":0.553},"geometry":{"type":"Polygon","coordinates":[[[2.87466,50.24612],[2.87555,50.24657],[2.87605,50.2471],[2.87582,50.24666],[2.87476,50.24607],[2.87397,50.24535],[2.87322,50.24513],[2.87188,50.24387],[2.87173,50.24394],[2.87276,50.24482],[2.87315,50.24516],[2.87466,50.24612]],[[2.87277,50.24475],[2.87282,50.24479],[2.87276,50.24482],[2.87277,50.24475]],[[2.87344,50.24524],[2.87357,50.24527],[2.87353,50.24535],[2.87344,50.24524]]]}},{"type":"Feature","properties":{"k":"BTA","s":0.103},"geometry":{"type":"Polygon","coordinates":[[[2.87394,50.24529],[2.87479,50.24603],[2.8754,50.24635],[2.87411,50.24532],[2.87326,50.24511],[2.87394,50.24529]]]}},{"type":"Feature","properties":{"k":"BTN","s":2.376},"geometry":{"type":"Polygon","coordinates":[[[2.83463,50.25809],[2.83379,50.25857],[2.83713,50.26036],[2.8378,50.25982],[2.83463,50.25809]]]}},{"type":"Feature","properties":{"k":"LIF","s":15.442},"geometry":{"type":"Polygon","coordinates":[[[2.83569,50.26155],[2.83688,50.26246],[2.83876,50.26354],[2.84332,50.2649],[2.84496,50.26361],[2.83768,50.26007],[2.83569,50.26155]]]}},{"type":"Feature","properties":{"k":"LIF","s":20.9},"geometry":{"type":"Polygon","coordinates":[[[2.84278,50.26487],[2.8386,50.26352],[2.83737,50.26285],[2.83559,50.26156],[2.83477,50.26213],[2.83224,50.26333],[2.83603,50.26515],[2.83466,50.266],[2.83613,50.26666],[2.83658,50.26641],[2.83827,50.26719],[2.83872,50.26683],[2.83924,50.26707],[2.84278,50.26487]]]}},{"type":"Feature","properties":{"k":"PTC","s":0.005},"geometry":{"type":"Polygon","coordinates":[[[2.83926,50.26708],[2.83963,50.26684],[2.83924,50.26707],[2.83926,50.26708]]]}},{"type":"Feature","properties":{"k":"BTH","s":4.85},"geometry":{"type":"Polygon","coordinates":[[[2.83985,50.26671],[2.84198,50.26733],[2.84297,50.26839],[2.84324,50.26844],[2.84235,50.26732],[2.84459,50.26577],[2.84282,50.26491],[2.83962,50.26681],[2.83985,50.26671]]]}},{"type":"Feature","properties":{"k":"BTN","s":5.765},"geometry":{"type":"Polygon","coordinates":[[[2.84627,50.26704],[2.84573,50.26647],[2.8446,50.26578],[2.84239,50.26732],[2.84328,50.26845],[2.84361,50.26852],[2.84459,50.268],[2.84521,50.26839],[2.84618,50.26811],[2.84635,50.26895],[2.84673,50.26874],[2.84627,50.26704]]]}},{"type":"Feature","properties":{"k":"CPL","s":0.01},"geometry":{"type":"Polygon","coordinates":[[[2.84672,50.26712],[2.84669,50.26704],[2.84655,50.2671],[2.84672,50.26712]]]}},{"type":"Feature","properties":{"k":"ORP","s":0.07},"geometry":{"type":"Polygon","coordinates":[[[2.87489,50.24701],[2.8749,50.24705],[2.87484,50.24701],[2.87413,50.247],[2.87416,50.24705],[2.8759,50.24707],[2.87587,50.24701],[2.87489,50.24701]]]}},{"type":"Feature","properties":{"k":"BTA","s":0.151},"geometry":{"type":"Polygon","coordinates":[[[2.87626,50.24801],[2.87664,50.24859],[2.87496,50.24857],[2.87506,50.24868],[2.87677,50.24863],[2.87602,50.2472],[2.87626,50.24801]]]}},{"type":"Feature","properties":{"k":"CPL","s":0.006},"geometry":{"type":"Polygon","coordinates":[[[2.84723,50.26703],[2.84732,50.26701],[2.84727,50.26693],[2.84723,50.26703]]]}},{"type":"Feature","properties":{"k":"BTH","s":1.28},"geometry":{"type":"Polygon","coordinates":[[[2.84641,50.26704],[2.84942,50.26645],[2.84871,50.26602],[2.846,50.26656],[2.84641,50.26704]]]}},{"type":"Feature","properties":{"k":"PPH","s":0.952},"geometry":{"type":"Polygon","coordinates":[[[2.87093,50.25032],[2.86981,50.25028],[2.86963,50.25157],[2.87034,50.25167],[2.87093,50.25032]]]}},{"type":"Feature","properties":{"k":"PTC","s":8.188},"geometry":{"type":"Polygon","coordinates":[[[2.86214,50.25861],[2.86868,50.25962],[2.86905,50.25829],[2.86108,50.257],[2.86214,50.25861]]]}},{"type":"Feature","properties":{"k":"PTC","s":5.804},"geometry":{"type":"Polygon","coordinates":[[[2.87417,50.25398],[2.87353,50.25678],[2.87605,50.25757],[2.87652,50.2547],[2.87417,50.25398]]]}},{"type":"Feature","properties":{"k":"BTH","s":1.209},"geometry":{"type":"Polygon","coordinates":[[[2.87417,50.25398],[2.87371,50.25385],[2.87297,50.25663],[2.87353,50.25678],[2.87417,50.25398]]]}},{"type":"Feature","properties":{"k":"PTC","s":3.766},"geometry":{"type":"Polygon","coordinates":[[[2.8729,50.25355],[2.87543,50.2543],[2.8761,50.25198],[2.87586,50.25184],[2.87556,50.25234],[2.87501,50.25206],[2.87377,50.25203],[2.8729,50.25355]]]}},{"type":"Feature","properties":{"k":"BTA","s":0.053},"geometry":{"type":"Polygon","coordinates":[[[2.87559,50.25234],[2.87586,50.25184],[2.87555,50.2523],[2.87506,50.25213],[2.87559,50.25234]]]}},{"type":"Feature","properties":{"k":"BTH","s":4.634},"geometry":{"type":"Polygon","coordinates":[[[2.87755,50.25282],[2.8761,50.25198],[2.87543,50.2543],[2.87838,50.25518],[2.87836,50.2536],[2.87755,50.25282]]]}},{"type":"Feature","properties":{"k":"PPH","s":0.695},"geometry":{"type":"Polygon","coordinates":[[[2.87378,50.25062],[2.87339,50.25008],[2.87302,50.25036],[2.87245,50.25001],[2.87217,50.25025],[2.8725,50.25039],[2.87235,50.2506],[2.8727,50.2507],[2.8724,50.25142],[2.8728,50.2515],[2.87304,50.25098],[2.87285,50.25095],[2.87319,50.25059],[2.87378,50.25062]]]}},{"type":"Feature","properties":{"k":"BTA","s":0.025},"geometry":{"type":"Polygon","coordinates":[[[2.86967,50.2496],[2.86968,50.24954],[2.86906,50.24974],[2.86967,50.2496]]]}},{"type":"Feature","properties":{"k":"PPH","s":0.271},"geometry":{"type":"Polygon","coordinates":[[[2.86897,50.25029],[2.86954,50.25026],[2.86967,50.2496],[2.86905,50.2498],[2.86897,50.25029]]]}},{"type":"Feature","properties":{"k":"PPH","s":1.294},"geometry":{"type":"Polygon","coordinates":[[[2.86711,50.25179],[2.8678,50.25201],[2.86848,50.24981],[2.86769,50.24977],[2.86711,50.25179]],[[2.86791,50.25103],[2.86795,50.25095],[2.86805,50.25096],[2.86791,50.25103]]]}},{"type":"Feature","properties":{"k":"PPH","s":0.779},"geometry":{"type":"Polygon","coordinates":[[[2.86887,50.25041],[2.8683,50.25218],[2.86887,50.25235],[2.86932,50.25035],[2.86887,50.25041]]]}},{"type":"Feature","properties":{"k":"BTH","s":0.97},"geometry":{"type":"Polygon","coordinates":[[[2.86963,50.25157],[2.86981,50.25028],[2.86932,50.25035],[2.86887,50.25235],[2.86949,50.25254],[2.86963,50.25157]]]}},{"type":"Feature","properties":{"k":"BTP","s":0.854},"geometry":{"type":"Polygon","coordinates":[[[2.86106,50.24278],[2.86047,50.24244],[2.85958,50.24298],[2.861,50.24376],[2.86106,50.24278]]]}},{"type":"Feature","properties":{"k":"PTC","s":3.748},"geometry":{"type":"Polygon","coordinates":[[[2.86319,50.26],[2.86577,50.26037],[2.86612,50.26071],[2.86698,50.26085],[2.86783,50.26098],[2.86845,50.26003],[2.86244,50.2591],[2.86319,50.26]]]}},{"type":"Feature","properties":{"k":"BTN","s":7.319},"geometry":{"type":"Polygon","coordinates":[[[2.8683,50.26068],[2.86816,50.26059],[2.86752,50.26149],[2.87299,50.2649],[2.87474,50.26464],[2.86847,50.26044],[2.8683,50.26068]]]}},{"type":"Feature","properties":{"k":"LIF","s":8.599},"geometry":{"type":"Polygon","coordinates":[[[2.86817,50.26274],[2.86678,50.26368],[2.86944,50.26535],[2.87043,50.26555],[2.8731,50.265],[2.86752,50.26149],[2.86716,50.26178],[2.86817,50.26274]]]}},{"type":"Feature","properties":{"k":"PTC","s":0.423},"geometry":{"type":"Polygon","coordinates":[[[2.86661,50.2612],[2.86754,50.26136],[2.86782,50.26099],[2.86617,50.26073],[2.86661,50.2612]]]}},{"type":"Feature","properties":{"k":"PTC","s":0.0},"geometry":{"type":"Polygon","coordinates":[]}},{"type":"Feature","properties":{"k":"PTC","s":16.654},"geometry":{"type":"MultiPolygon","coordinates":[[[[2.87468,50.26465],[2.87474,50.26464],[2.8746,50.26461],[2.87468,50.26465]]],[[[2.86768,50.26131],[2.86781,50.26113],[2.86816,50.26059],[2.86752,50.26149],[2.86768,50.26131]]],[[[2.87308,50.26342],[2.87473,50.2629],[2.87351,50.26193],[2.87687,50.26052],[2.86922,50.25815],[2.86859,50.25994],[2.86874,50.26003],[2.86847,50.26044],[2.87308,50.26342]]]]}},{"type":"Feature","properties":{"k":"BTH","s":0.538},"geometry":{"type":"Polygon","coordinates":[[[2.8757,50.26013],[2.87564,50.26013],[2.87687,50.26052],[2.87829,50.25986],[2.8757,50.26013]]]}},{"type":"Feature","properties":{"k":"BTA","s":0.487},"geometry":{"type":"Polygon","coordinates":[[[2.86804,50.24122],[2.86874,50.24142],[2.87069,50.24282],[2.87168,50.24376],[2.87072,50.24418],[2.8708,50.24426],[2.87184,50.24379],[2.87056,50.24262],[2.86888,50.24138],[2.86799,50.24113],[2.86679,50.24136],[2.86804,50.24122]]]}},{"type":"Feature","properties":{"k":"BTH","s":4.145},"geometry":{"type":"Polygon","coordinates":[[[2.86965,50.24316],[2.87072,50.24418],[2.87168,50.24376],[2.87069,50.24282],[2.86874,50.24142],[2.86804,50.24122],[2.86685,50.24142],[2.86903,50.24346],[2.86965,50.24316]]]}},{"type":"Feature","properties":{"k":"BTN","s":3.426},"geometry":{"type":"Polygon","coordinates":[[[2.86663,50.24142],[2.86609,50.24165],[2.86367,50.24303],[2.86481,50.24387],[2.86759,50.24231],[2.86663,50.24142]]]}},{"type":"Feature","properties":{"k":"PTC","s":0.141},"geometry":{"type":"Polygon","coordinates":[[[2.87911,50.25868],[2.87894,50.25873],[2.8788,50.25962],[2.87907,50.25949],[2.87911,50.25868]]]}},{"type":"Feature","properties":{"k":"JAC","s":0.041},"geometry":{"type":"Polygon","coordinates":[[[2.87911,50.25868],[2.87912,50.25831],[2.879,50.25835],[2.87894,50.25873],[2.87911,50.25868]]]}},{"type":"Feature","properties":{"k":"BTH","s":0.044},"geometry":{"type":"Polygon","coordinates":[[[2.87917,50.25739],[2.879,50.25835],[2.87912,50.25831],[2.87917,50.25739]]]}},{"type":"Feature","properties":{"k":"BTH","s":11.67},"geometry":{"type":"Polygon","coordinates":[[[2.8788,50.25962],[2.87925,50.25542],[2.87654,50.25468],[2.87566,50.26013],[2.87829,50.25986],[2.8788,50.25962]]]}},{"type":"Feature","properties":{"k":"ORH","s":23.417},"geometry":{"type":"Polygon","coordinates":[[[2.86055,50.24473],[2.85896,50.24584],[2.85716,50.24681],[2.85842,50.24761],[2.85924,50.24762],[2.86093,50.24726],[2.86179,50.24762],[2.86281,50.24749],[2.86383,50.24799],[2.86486,50.24812],[2.86525,50.24802],[2.86563,50.24822],[2.8663,50.24741],[2.8655,50.24678],[2.8665,50.24619],[2.86501,50.24507],[2.86846,50.24315],[2.86792,50.24261],[2.86759,50.24231],[2.8648,50.24387],[2.86373,50.24307],[2.86055,50.24473]]]}},{"type":"Feature","properties":{"k":"ORH","s":0.46},"geometry":{"type":"Polygon","coordinates":[[[2.86853,50.24322],[2.86846,50.24315],[2.86501,50.24507],[2.8665,50.24619],[2.8652,50.24508],[2.86853,50.24322]]]}},{"type":"Feature","properties":{"k":"JAC","s":0.128},"geometry":{"type":"Polygon","coordinates":[[[2.87345,50.24672],[2.87311,50.24633],[2.8727,50.24659],[2.87289,50.24673],[2.87345,50.24672]]]}},{"type":"Feature","properties":{"k":"PPH","s":0.323},"geometry":{"type":"Polygon","coordinates":[[[2.87184,50.24626],[2.87253,50.24595],[2.87212,50.24556],[2.87139,50.24578],[2.87184,50.24626]]]}},{"type":"Feature","properties":{"k":"PPH","s":1.033},"geometry":{"type":"Polygon","coordinates":[[[2.87019,50.24469],[2.87139,50.24578],[2.87229,50.24548],[2.87087,50.24436],[2.87019,50.24469]]]}},{"type":"Feature","properties":{"k":"BTH","s":0.013},"geometry":{"type":"MultiPolygon","coordinates":[[[[2.87914,50.25096],[2.87884,50.25126],[2.87947,50.2507],[2.87914,50.25096]]]]}},{"type":"Feature","properties":{"k":"BTH","s":1.393},"geometry":{"type":"Polygon","coordinates":[[[2.87969,50.25054],[2.87789,50.24988],[2.87741,50.25089],[2.87872,50.25136],[2.87969,50.25054]]]}},{"type":"Feature","properties":{"k":"BTN","s":1.495},"geometry":{"type":"Polygon","coordinates":[[[2.87748,50.25093],[2.87687,50.25222],[2.87776,50.25275],[2.87828,50.2528],[2.87827,50.25205],[2.87798,50.25197],[2.87817,50.25169],[2.87844,50.25176],[2.87871,50.25137],[2.87748,50.25093]]]}},{"type":"Feature","properties":{"k":"ORP","s":0.062},"geometry":{"type":"Polygon","coordinates":[[[2.87093,50.2444],[2.8718,50.24399],[2.87173,50.24394],[2.87093,50.2444]]]}},{"type":"Feature","properties":{"k":"LIF","s":2.548},"geometry":{"type":"Polygon","coordinates":[[[2.84233,50.25759],[2.84851,50.26058],[2.84892,50.26017],[2.84297,50.25724],[2.84285,50.2573],[2.84873,50.26029],[2.84291,50.25737],[2.84233,50.25759]],[[2.8486,50.26041],[2.84856,50.26044],[2.84264,50.25754],[2.8486,50.26041]]]}},{"type":"Feature","properties":{"k":"PPH","s":0.754},"geometry":{"type":"Polygon","coordinates":[[[2.86419,50.24848],[2.86409,50.24888],[2.86457,50.24879],[2.86509,50.24909],[2.86615,50.24927],[2.86597,50.24859],[2.86569,50.24866],[2.86419,50.24848]]]}},{"type":"Feature","properties":{"k":"LIF","s":9.731},"geometry":{"type":"Polygon","coordinates":[[[2.88217,50.24714],[2.88034,50.24589],[2.87978,50.24648],[2.8785,50.24601],[2.87807,50.24639],[2.87628,50.24715],[2.87653,50.24789],[2.8772,50.24873],[2.87762,50.24887],[2.87901,50.2487],[2.88074,50.24907],[2.88217,50.24714]]]}},{"type":"Feature","properties":{"k":"BTH","s":1.043},"geometry":{"type":"Polygon","coordinates":[[[2.86671,50.24965],[2.86595,50.24944],[2.86521,50.25085],[2.86592,50.25121],[2.86671,50.24965]]]}},{"type":"Feature","properties":{"k":"PPH","s":0.997},"geometry":{"type":"Polygon","coordinates":[[[2.87342,50.24847],[2.8739,50.2483],[2.87395,50.24863],[2.87494,50.24856],[2.87437,50.2475],[2.87298,50.24795],[2.87342,50.24847]]]}},{"type":"Feature","properties":{"k":"PPH","s":0.574},"geometry":{"type":"Polygon","coordinates":[[[2.87532,50.25049],[2.87615,50.2503],[2.87572,50.24947],[2.87503,50.24954],[2.87532,50.25049]]]}},{"type":"Feature","properties":{"k":"PPH","s":0.746},"geometry":{"type":"Polygon","coordinates":[[[2.86232,50.24809],[2.86511,50.24839],[2.86512,50.24806],[2.86383,50.24799],[2.8629,50.2475],[2.86251,50.24751],[2.86232,50.24809]]]}},{"type":"Feature","properties":{"k":"CZH","s":6.849},"geometry":{"type":"Polygon","coordinates":[[[2.86199,50.25449],[2.86361,50.24986],[2.86328,50.24964],[2.86187,50.2494],[2.86132,50.24943],[2.86153,50.25116],[2.86038,50.25424],[2.86199,50.25449]]]}},{"type":"Feature","properties":{"k":"BTN","s":5.934},"geometry":{"type":"Polygon","coordinates":[[[2.84422,50.25625],[2.84597,50.25539],[2.84154,50.25302],[2.84073,50.25334],[2.84016,50.25403],[2.84422,50.25625]],[[2.84439,50.25596],[2.84056,50.25394],[2.84062,50.25388],[2.84439,50.25596]]]}},{"type":"Feature","properties":{"k":"JAC","s":0.732},"geometry":{"type":"Polygon","coordinates":[[[2.8678,50.25201],[2.8683,50.25218],[2.86884,50.25051],[2.86828,50.25044],[2.8678,50.25201]]]}},{"type":"Feature","properties":{"k":"BTH","s":1.278},"geometry":{"type":"Polygon","coordinates":[[[2.87687,50.25223],[2.87748,50.25092],[2.87636,50.25051],[2.87592,50.25173],[2.87687,50.25223]]]}},{"type":"Feature","properties":{"k":"PPH","s":0.975},"geometry":{"type":"Polygon","coordinates":[[[2.87675,50.24961],[2.87636,50.25051],[2.87742,50.25089],[2.87787,50.24989],[2.87675,50.24961]]]}},{"type":"Feature","properties":{"k":"PTR","s":0.918},"geometry":{"type":"Polygon","coordinates":[[[2.86509,50.24909],[2.86457,50.24879],[2.86421,50.24889],[2.86405,50.2494],[2.86499,50.24989],[2.86544,50.24995],[2.86582,50.24923],[2.86509,50.24909]]]}},{"type":"Feature","properties":{"k":"MIS","s":2.183},"geometry":{"type":"Polygon","coordinates":[[[2.86869,50.25962],[2.86214,50.25861],[2.86251,50.2591],[2.86845,50.26003],[2.86869,50.25962]]]}},{"type":"Feature","properties":{"k":"MIS","s":0.244},"geometry":{"type":"Polygon","coordinates":[[[2.84062,50.25388],[2.84056,50.25394],[2.84439,50.25596],[2.84062,50.25388]]]}},{"type":"Feature","properties":{"k":"PPH","s":0.379},"geometry":{"type":"Polygon","coordinates":[[[2.86164,50.24822],[2.86165,50.24802],[2.86075,50.24748],[2.86033,50.24756],[2.86128,50.24836],[2.86164,50.24822]]]}},{"type":"Feature","properties":{"k":"BTH","s":0.001},"geometry":{"type":"Polygon","coordinates":[]}},{"type":"Feature","properties":{"k":"JAC","s":1.951},"geometry":{"type":"Polygon","coordinates":[[[2.87494,50.24856],[2.87664,50.24859],[2.876,50.24716],[2.87449,50.24714],[2.87423,50.24714],[2.87494,50.24856]],[[2.87531,50.24719],[2.87452,50.2472],[2.87449,50.24714],[2.87531,50.24719]]]}},{"type":"Feature","properties":{"k":"BTH","s":1.231},"geometry":{"type":"Polygon","coordinates":[[[2.82925,50.25939],[2.83352,50.26261],[2.83374,50.26251],[2.83386,50.26237],[2.82936,50.25926],[2.82925,50.25939]]]}},{"type":"Feature","properties":{"k":"BTH","s":5.164},"geometry":{"type":"Polygon","coordinates":[[[2.83352,50.26261],[2.82925,50.25943],[2.82844,50.2606],[2.83063,50.26261],[2.83116,50.26234],[2.83038,50.26169],[2.83066,50.26155],[2.83241,50.26305],[2.83352,50.26261]]]}},{"type":"Feature","properties":{"k":"BTN","s":6.004},"geometry":{"type":"Polygon","coordinates":[[[2.83374,50.25997],[2.8305,50.25823],[2.82952,50.2591],[2.83412,50.26223],[2.83521,50.2616],[2.83341,50.26048],[2.83374,50.25997]]]}},{"type":"Feature","properties":{"k":"BTN","s":1.7},"geometry":{"type":"Polygon","coordinates":[[[2.83573,50.26098],[2.83591,50.26124],[2.83649,50.26084],[2.83309,50.25897],[2.8325,50.2593],[2.83573,50.26098]]]}},{"type":"Feature","properties":{"k":"BTH","s":1.56},"geometry":{"type":"Polygon","coordinates":[[[2.83309,50.25897],[2.83571,50.26036],[2.83631,50.25992],[2.83379,50.25857],[2.83309,50.25897]]]}},{"type":"Feature","properties":{"k":"BTN","s":7.571},"geometry":{"type":"Polygon","coordinates":[[[2.83431,50.25752],[2.83658,50.25516],[2.83321,50.25511],[2.83254,50.25655],[2.83177,50.25614],[2.83121,50.25727],[2.83367,50.25863],[2.83494,50.25787],[2.83431,50.25752]]]}},{"type":"Feature","properties":{"k":"CZH","s":1.181},"geometry":{"type":"Polygon","coordinates":[[[2.83309,50.25897],[2.83362,50.25867],[2.83124,50.25728],[2.83084,50.25775],[2.83309,50.25897]]]}},{"type":"Feature","properties":{"k":"BTH","s":1.027},"geometry":{"type":"Polygon","coordinates":[[[2.83255,50.25927],[2.83309,50.25897],[2.83084,50.25775],[2.8305,50.25818],[2.83255,50.25927]]]}},{"type":"Feature","properties":{"k":"MIS","s":0.286},"geometry":{"type":"Polygon","coordinates":[[[2.83251,50.25506],[2.83217,50.25506],[2.83177,50.25615],[2.83201,50.25626],[2.83251,50.25506]]]}},{"type":"Feature","properties":{"k":"MIS","s":0.397},"geometry":{"type":"Polygon","coordinates":[[[2.83233,50.25645],[2.83295,50.25509],[2.83257,50.25507],[2.83203,50.25627],[2.83233,50.25645]]]}},{"type":"Feature","properties":{"k":"PTC","s":7.134},"geometry":{"type":"Polygon","coordinates":[[[2.83425,50.25513],[2.83737,50.2517],[2.83438,50.25141],[2.83339,50.25339],[2.83234,50.25492],[2.83425,50.25513]]]}},{"type":"Feature","properties":{"k":"BTN","s":0.021},"geometry":{"type":"Polygon","coordinates":[[[2.84222,50.24433],[2.84327,50.24372],[2.84327,50.24369],[2.84222,50.24433]]]}},{"type":"Feature","properties":{"k":"PHF","s":4.891},"geometry":{"type":"Polygon","coordinates":[[[2.84571,50.24142],[2.84413,50.24313],[2.84614,50.24437],[2.84821,50.2429],[2.84571,50.24142]]]}},{"type":"Feature","properties":{"k":"MIS","s":0.021},"geometry":{"type":"Polygon","coordinates":[[[2.85451,50.24238],[2.8539,50.24255],[2.85452,50.24247],[2.85451,50.24238]]]}},{"type":"Feature","properties":{"k":"CHU","s":6.841},"geometry":{"type":"Polygon","coordinates":[[[2.85187,50.24333],[2.85186,50.24322],[2.84741,50.24052],[2.84591,50.24122],[2.84571,50.24142],[2.85025,50.24412],[2.85187,50.24333]]]}},{"type":"Feature","properties":{"k":"BTH","s":4.336},"geometry":{"type":"Polygon","coordinates":[[[2.85025,50.24412],[2.84821,50.2429],[2.84614,50.24436],[2.84806,50.24551],[2.85025,50.24412]]]}},{"type":"Feature","properties":{"k":"BTH","s":6.531},"geometry":{"type":"Polygon","coordinates":[[[2.84815,50.24556],[2.85063,50.24704],[2.85227,50.24593],[2.85187,50.24333],[2.85025,50.24412],[2.84815,50.24556]]]}},{"type":"Feature","properties":{"k":"LIF","s":13.558},"geometry":{"type":"Polygon","coordinates":[[[2.85297,50.24281],[2.85285,50.24629],[2.85322,50.24804],[2.8533,50.24977],[2.85567,50.24988],[2.85641,50.24973],[2.85502,50.24517],[2.85452,50.24247],[2.85297,50.24281]]]}},{"type":"Feature","properties":{"k":"BTH","s":7.64},"geometry":{"type":"Polygon","coordinates":[[[2.85934,50.24312],[2.85588,50.2452],[2.85635,50.24705],[2.85665,50.24702],[2.85928,50.24556],[2.86036,50.24477],[2.86092,50.24395],[2.85934,50.24312]]]}},{"type":"Feature","properties":{"k":"PPH","s":1.339},"geometry":{"type":"Polygon","coordinates":[[[2.85716,50.24681],[2.8565,50.24721],[2.85683,50.24796],[2.85751,50.24829],[2.85853,50.24782],[2.85716,50.24681]]]}},{"type":"Feature","properties":{"k":"PTR","s":0.272},"geometry":{"type":"Polygon","coordinates":[[[2.85673,50.248],[2.85668,50.24801],[2.85704,50.2489],[2.8573,50.24886],[2.85714,50.24856],[2.85766,50.24844],[2.85673,50.248]]]}},{"type":"Feature","properties":{"k":"MIS","s":0.892},"geometry":{"type":"Polygon","coordinates":[[[2.85958,50.24848],[2.85853,50.24782],[2.85751,50.24829],[2.85894,50.24894],[2.85958,50.24848]]]}},{"type":"Feature","properties":{"k":"PPH","s":1.176},"geometry":{"type":"Polygon","coordinates":[[[2.86033,50.24897],[2.86087,50.24856],[2.85966,50.24755],[2.85842,50.24761],[2.85845,50.24777],[2.86033,50.24897]]]}},{"type":"Feature","properties":{"k":"BTN","s":0.69},"geometry":{"type":"Polygon","coordinates":[[[2.85979,50.24963],[2.85995,50.2495],[2.8592,50.24921],[2.85811,50.24946],[2.85838,50.25004],[2.85979,50.24963]]]}},{"type":"Feature","properties":{"k":"MIS","s":0.734},"geometry":{"type":"Polygon","coordinates":[[[2.85733,50.24956],[2.85909,50.24915],[2.85819,50.24877],[2.85704,50.2489],[2.85733,50.24956]]]}},{"type":"Feature","properties":{"k":"BTN","s":2.094},"geometry":{"type":"Polygon","coordinates":[[[2.85414,50.25177],[2.85581,50.25102],[2.85483,50.25014],[2.85394,50.24983],[2.85336,50.24984],[2.85414,50.25177]]]}},{"type":"Feature","properties":{"k":"MIS","s":0.328},"geometry":{"type":"Polygon","coordinates":[[[2.85298,50.25162],[2.85296,50.25137],[2.85221,50.2519],[2.85269,50.25232],[2.8531,50.2521],[2.85298,50.25162]]]}},{"type":"Feature","properties":{"k":"BTN","s":2.761},"geometry":{"type":"Polygon","coordinates":[[[2.85271,50.25238],[2.85313,50.2522],[2.85275,50.2492],[2.85073,50.25059],[2.85271,50.25238]],[[2.85296,50.25137],[2.8531,50.2521],[2.85269,50.25232],[2.85221,50.2519],[2.85296,50.25137]]]}},{"type":"Feature","properties":{"k":"BTN","s":9.578},"geometry":{"type":"Polygon","coordinates":[[[2.85275,50.2492],[2.85227,50.24593],[2.84749,50.2492],[2.84958,50.24995],[2.85069,50.25062],[2.85275,50.2492]]]}},{"type":"Feature","properties":{"k":"ORP","s":7.038},"geometry":{"type":"Polygon","coordinates":[[[2.84912,50.25],[2.84827,50.24979],[2.84528,50.25306],[2.84749,50.25366],[2.85026,50.25062],[2.84912,50.25]]]}},{"type":"Feature","properties":{"k":"BTH","s":5.394},"geometry":{"type":"Polygon","coordinates":[[[2.84529,50.25305],[2.84827,50.24979],[2.84625,50.24965],[2.84334,50.25298],[2.84529,50.25305]]]}},{"type":"Feature","properties":{"k":"BTN","s":6.103},"geometry":{"type":"Polygon","coordinates":[[[2.84334,50.25298],[2.84625,50.24965],[2.84391,50.24973],[2.841,50.25297],[2.84334,50.25298]]]}},{"type":"Feature","properties":{"k":"BTN","s":7.084},"geometry":{"type":"Polygon","coordinates":[[[2.84464,50.24941],[2.84465,50.24956],[2.84681,50.24958],[2.8504,50.24699],[2.84889,50.24608],[2.84403,50.24944],[2.84464,50.24941]]]}},{"type":"Feature","properties":{"k":"PTC","s":5.501},"geometry":{"type":"Polygon","coordinates":[[[2.84186,50.24969],[2.84323,50.24969],[2.84349,50.24948],[2.84402,50.24944],[2.84888,50.24608],[2.84792,50.24551],[2.84186,50.24969]]]}},{"type":"Feature","properties":{"k":"PTC","s":2.513},"geometry":{"type":"Polygon","coordinates":[[[2.84871,50.26603],[2.84491,50.26378],[2.84429,50.26429],[2.84756,50.26625],[2.84871,50.26603]]]}},{"type":"Feature","properties":{"k":"BTH","s":2.846},"geometry":{"type":"Polygon","coordinates":[[[2.84598,50.26657],[2.84756,50.26625],[2.84429,50.26428],[2.84352,50.26495],[2.84598,50.26657]]]}},{"type":"Feature","properties":{"k":"PHF","s":12.597},"geometry":{"type":"Polygon","coordinates":[[[2.84661,50.26221],[2.83955,50.25877],[2.83911,50.25905],[2.83872,50.25931],[2.83855,50.25942],[2.83849,50.25946],[2.83816,50.25968],[2.83768,50.26007],[2.84497,50.2636],[2.84661,50.26221]]]}},{"type":"Feature","properties":{"k":"BTH","s":13.999},"geometry":{"type":"Polygon","coordinates":[[[2.83955,50.25877],[2.84661,50.26221],[2.8488,50.26074],[2.84201,50.25747],[2.83955,50.25877]]]}},{"type":"Feature","properties":{"k":"BTH","s":1.785},"geometry":{"type":"Polygon","coordinates":[[[2.85174,50.25846],[2.85132,50.25876],[2.85582,50.26142],[2.85563,50.26078],[2.85174,50.25846]]]}},{"type":"Feature","properties":{"k":"ORP","s":4.408},"geometry":{"type":"Polygon","coordinates":[[[2.85066,50.25942],[2.85643,50.2628],[2.85583,50.26142],[2.85132,50.25876],[2.84966,50.26009],[2.84977,50.26014],[2.85066,50.25942]]]}},{"type":"Feature","properties":{"k":"CPL","s":0.028},"geometry":{"type":"Polygon","coordinates":[[[2.85409,50.26163],[2.85401,50.26158],[2.85367,50.26181],[2.85409,50.26163]]]}},{"type":"Feature","properties":{"k":"PTC","s":13.428},"geometry":{"type":"Polygon","coordinates":[[[2.85643,50.2628],[2.85066,50.25942],[2.84891,50.26081],[2.85631,50.26512],[2.85714,50.26497],[2.85704,50.26477],[2.85723,50.26472],[2.85643,50.2628]],[[2.85409,50.26163],[2.85375,50.26186],[2.85367,50.26181],[2.85409,50.26163]],[[2.85413,50.26296],[2.85404,50.26292],[2.8544,50.26267],[2.85413,50.26296]]]}},{"type":"Feature","properties":{"k":"LUZ","s":0.028},"geometry":{"type":"Polygon","coordinates":[[[2.85447,50.26272],[2.8544,50.26267],[2.85404,50.26292],[2.85447,50.26272]]]}},{"type":"Feature","properties":{"k":"CPL","s":0.034},"geometry":{"type":"Polygon","coordinates":[[[2.8485,50.26274],[2.84839,50.26268],[2.84804,50.26292],[2.8485,50.26274]]]}},{"type":"Feature","properties":{"k":"CPL","s":0.172},"geometry":{"type":"Polygon","coordinates":[[[2.85379,50.26523],[2.85384,50.26535],[2.85382,50.26521],[2.84807,50.26197],[2.85379,50.26523]]]}},{"type":"Feature","properties":{"k":"BTN","s":5.498},"geometry":{"type":"Polygon","coordinates":[[[2.84981,50.26601],[2.85007,50.26584],[2.85065,50.26619],[2.85126,50.26609],[2.84589,50.26292],[2.84491,50.26378],[2.84942,50.26645],[2.85027,50.26629],[2.84981,50.26601]]]}},{"type":"Feature","properties":{"k":"PHF","s":26.434},"geometry":{"type":"Polygon","coordinates":[[[2.84675,50.26223],[2.84588,50.26292],[2.85126,50.26609],[2.85405,50.26555],[2.85585,50.2683],[2.85623,50.26847],[2.8567,50.26915],[2.85856,50.26869],[2.85609,50.265],[2.85409,50.26383],[2.85363,50.26402],[2.85399,50.26377],[2.84891,50.26081],[2.84675,50.26223]],[[2.8485,50.26274],[2.84804,50.26292],[2.84839,50.26268],[2.8485,50.26274]],[[2.8538,50.26536],[2.84807,50.26197],[2.8481,50.26195],[2.85382,50.26521],[2.8538,50.26536]]]}},{"type":"Feature","properties":{"k":"CPL","s":0.035},"geometry":{"type":"Polygon","coordinates":[[[2.85373,50.26407],[2.85409,50.26383],[2.85399,50.26377],[2.85373,50.26407]]]}},{"type":"Feature","properties":{"k":"CPL","s":0.009},"geometry":{"type":"Polygon","coordinates":[]}},{"type":"Feature","properties":{"k":"CPL","s":0.034},"geometry":{"type":"Polygon","coordinates":[[[2.85714,50.26497],[2.85733,50.26493],[2.85723,50.26472],[2.85704,50.26477],[2.85714,50.26497]]]}},{"type":"Feature","properties":{"k":"MIS","s":1.667},"geometry":{"type":"Polygon","coordinates":[[[2.85585,50.2594],[2.85727,50.25916],[2.85668,50.25767],[2.85544,50.25792],[2.85585,50.2594]]]}},{"type":"Feature","properties":{"k":"BTH","s":1.431},"geometry":{"type":"Polygon","coordinates":[[[2.85539,50.26012],[2.85213,50.25818],[2.85174,50.25846],[2.85564,50.26078],[2.85539,50.26012]]]}},{"type":"Feature","properties":{"k":"PTC","s":3.573},"geometry":{"type":"Polygon","coordinates":[[[2.85336,50.2588],[2.85534,50.25995],[2.85433,50.25656],[2.8522,50.25814],[2.85336,50.2588]]]}},{"type":"Feature","properties":{"k":"BTH","s":4.49},"geometry":{"type":"Polygon","coordinates":[[[2.85216,50.25799],[2.84653,50.25525],[2.84548,50.25573],[2.85136,50.25858],[2.85216,50.25799]]]}},{"type":"Feature","properties":{"k":"BTN","s":3.328},"geometry":{"type":"Polygon","coordinates":[[[2.85327,50.25697],[2.84825,50.25449],[2.84744,50.2549],[2.85271,50.25751],[2.85327,50.25697]]]}},{"type":"Feature","properties":{"k":"MIS","s":3.178},"geometry":{"type":"Polygon","coordinates":[[[2.85216,50.25798],[2.85271,50.25751],[2.84741,50.25489],[2.84664,50.25525],[2.85216,50.25798]]]}},{"type":"Feature","properties":{"k":"MIS","s":2.566},"geometry":{"type":"Polygon","coordinates":[[[2.84984,50.25383],[2.85357,50.25563],[2.85336,50.25446],[2.85109,50.25335],[2.84984,50.25383]]]}},{"type":"Feature","properties":{"k":"BTH","s":5.184},"geometry":{"type":"Polygon","coordinates":[[[2.85355,50.25645],[2.85357,50.25563],[2.84984,50.25383],[2.84825,50.25449],[2.85324,50.25695],[2.85355,50.25645]]]}},{"type":"Feature","properties":{"k":"BTP","s":6.284},"geometry":{"type":"Polygon","coordinates":[[[2.84749,50.25366],[2.8496,50.25382],[2.85249,50.25259],[2.85026,50.25062],[2.84749,50.25366]]]}},{"type":"Feature","properties":{"k":"PTC","s":0.113},"geometry":{"type":"Polygon","coordinates":[[[2.88342,50.25082],[2.88372,50.25035],[2.88337,50.25039],[2.88311,50.25082],[2.88342,50.25082]]]}},{"type":"Feature","properties":{"k":"PTC","s":0.121},"geometry":{"type":"Polygon","coordinates":[[[2.88342,50.25082],[2.88314,50.25076],[2.88283,50.25128],[2.88307,50.25137],[2.88342,50.25082]]]}},{"type":"Feature","properties":{"k":"BTH","s":0.017},"geometry":{"type":"Polygon","coordinates":[[[2.88237,50.2511],[2.8819,50.25093],[2.88289,50.25137],[2.88237,50.2511]]]}},{"type":"Feature","properties":{"k":"MIS","s":3.047},"geometry":{"type":"Polygon","coordinates":[[[2.88265,50.24958],[2.8837,50.24829],[2.88277,50.2474],[2.88217,50.24714],[2.88074,50.24907],[2.88265,50.24958]]]}},{"type":"Feature","properties":{"k":"BTP","s":0.015},"geometry":{"type":"Polygon","coordinates":[[[2.88371,50.24983],[2.88265,50.24958],[2.88369,50.24985],[2.88371,50.24983]]]}},{"type":"Feature","properties":{"k":"FLP","s":0.012},"geometry":{"type":"Polygon","coordinates":[[[2.88422,50.24995],[2.88369,50.24985],[2.88419,50.24998],[2.88422,50.24995]]]}},{"type":"Feature","properties":{"k":"BTA","s":0.001},"geometry":{"type":"Polygon","coordinates":[[[2.88427,50.24996],[2.88422,50.24995],[2.88419,50.24998],[2.88427,50.24996]]]}},{"type":"Feature","properties":{"k":"PTC","s":0.007},"geometry":{"type":"Polygon","coordinates":[[[2.88371,50.24823],[2.88336,50.2479],[2.88333,50.24791],[2.88371,50.24823]]]}},{"type":"Feature","properties":{"k":"MIS","s":0.01},"geometry":{"type":"Polygon","coordinates":[[[2.88289,50.24745],[2.88286,50.24743],[2.88327,50.24786],[2.88289,50.24745]]]}},{"type":"Feature","properties":{"k":"BTH","s":0.012},"geometry":{"type":"Polygon","coordinates":[[[2.82808,50.26083],[2.82725,50.26144],[2.82755,50.26125],[2.82808,50.26083]]]}},{"type":"Feature","properties":{"k":"BTH","s":2.025},"geometry":{"type":"MultiPolygon","coordinates":[[[[2.82704,50.26164],[2.82812,50.26235],[2.82903,50.26162],[2.83025,50.26283],[2.83063,50.26261],[2.82843,50.26057],[2.82704,50.26164]]],[[[2.82757,50.26277],[2.82731,50.26296],[2.82732,50.26297],[2.82757,50.26277]]]]}},{"type":"Feature","properties":{"k":"BTH","s":6.295},"geometry":{"type":"Polygon","coordinates":[[[2.83114,50.26373],[2.82903,50.26162],[2.82643,50.26357],[2.82893,50.26506],[2.83114,50.26373]]]}},{"type":"Feature","properties":{"k":"PTC","s":6.364},"geometry":{"type":"Polygon","coordinates":[[[2.82874,50.26537],[2.82753,50.26717],[2.82964,50.26817],[2.83083,50.26835],[2.83264,50.26726],[2.82874,50.26537]]]}},{"type":"Feature","properties":{"k":"CZH","s":0.05},"geometry":{"type":"Polygon","coordinates":[[[2.83467,50.26603],[2.83599,50.2666],[2.83466,50.266],[2.83292,50.26709],[2.83467,50.26603]]]}},{"type":"Feature","properties":{"k":"ORP","s":11.817},"geometry":{"type":"Polygon","coordinates":[[[2.83009,50.26437],[2.82874,50.26537],[2.83264,50.26726],[2.83603,50.26515],[2.83224,50.26332],[2.83009,50.26437]]]}},{"type":"Feature","properties":{"k":"PPH","s":1.098},"geometry":{"type":"Polygon","coordinates":[[[2.83116,50.26234],[2.83025,50.26283],[2.83114,50.26373],[2.83223,50.26323],[2.83116,50.26234]]]}},{"type":"Feature","properties":{"k":"TRN","s":0.514},"geometry":{"type":"Polygon","coordinates":[[[2.83066,50.26157],[2.8304,50.26169],[2.83223,50.26323],[2.83249,50.26311],[2.83066,50.26157]]]}},{"type":"Feature","properties":{"k":"MIS","s":1.05},"geometry":{"type":"Polygon","coordinates":[[[2.83421,50.26229],[2.82952,50.2591],[2.82937,50.25925],[2.83404,50.26238],[2.83421,50.26229]]]}},{"type":"Feature","properties":{"k":"BTA","s":0.014},"geometry":{"type":"Polygon","coordinates":[[[2.88371,50.25035],[2.88376,50.25028],[2.8834,50.25035],[2.88371,50.25035]]]}},{"type":"Feature","properties":{"k":"BTH","s":0.603},"geometry":{"type":"Polygon","coordinates":[[[2.85109,50.25335],[2.85336,50.25446],[2.85328,50.25407],[2.85152,50.25316],[2.85109,50.25335]]]}},{"type":"Feature","properties":{"k":"LUZ","s":0.745},"geometry":{"type":"Polygon","coordinates":[[[2.85328,50.25407],[2.85267,50.25279],[2.85152,50.25316],[2.85328,50.25407]]]}},{"type":"Feature","properties":{"k":"LUZ","s":3.1},"geometry":{"type":"Polygon","coordinates":[[[2.85492,50.25618],[2.85619,50.256],[2.85581,50.25562],[2.85629,50.25528],[2.85553,50.25328],[2.85424,50.25349],[2.85492,50.25618]]]}},{"type":"Feature","properties":{"k":"MIS","s":0.454},"geometry":{"type":"Polygon","coordinates":[[[2.85757,50.25572],[2.85733,50.25516],[2.85644,50.2553],[2.85644,50.25592],[2.85757,50.25572]]]}},{"type":"Feature","properties":{"k":"BTN","s":7.395},"geometry":{"type":"Polygon","coordinates":[[[2.85807,50.25149],[2.85938,50.2541],[2.86038,50.25424],[2.86151,50.25116],[2.86135,50.24989],[2.86011,50.25021],[2.85872,50.25079],[2.85876,50.25132],[2.85853,50.25107],[2.85826,50.25109],[2.85807,50.25149]]]}},{"type":"Feature","properties":{"k":"BTH","s":30.833},"geometry":{"type":"Polygon","coordinates":[[[2.85939,50.2541],[2.86108,50.257],[2.86905,50.25829],[2.8702,50.25468],[2.86877,50.25445],[2.8695,50.25259],[2.86758,50.25204],[2.86594,50.25134],[2.86462,50.25493],[2.85939,50.2541]]]}},{"type":"Feature","properties":{"k":"BTN","s":8.859},"geometry":{"type":"Polygon","coordinates":[[[2.86589,50.25129],[2.86361,50.24986],[2.86201,50.2545],[2.8645,50.2549],[2.86589,50.25129]]]}},{"type":"Feature","properties":{"k":"BTH","s":1.492},"geometry":{"type":"Polygon","coordinates":[[[2.86977,50.25461],[2.87042,50.25285],[2.8695,50.25259],[2.86877,50.25445],[2.86977,50.25461]]]}},{"type":"Feature","properties":{"k":"BTH","s":1.254},"geometry":{"type":"Polygon","coordinates":[[[2.87098,50.25298],[2.8729,50.25355],[2.87327,50.2529],[2.87119,50.25226],[2.87098,50.25298]]]}},{"type":"Feature","properties":{"k":"PPH","s":0.585},"geometry":{"type":"Polygon","coordinates":[[[2.87033,50.25377],[2.87082,50.25304],[2.87041,50.25288],[2.86977,50.25461],[2.87021,50.25468],[2.87053,50.2538],[2.87033,50.25377]]]}},{"type":"Feature","properties":{"k":"BTH","s":5.26},"geometry":{"type":"Polygon","coordinates":[[[2.87235,50.25642],[2.87299,50.25365],[2.871,50.25305],[2.86993,50.25567],[2.87235,50.25642]]]}},{"type":"Feature","properties":{"k":"BTH","s":1.558},"geometry":{"type":"Polygon","coordinates":[[[2.87296,50.25663],[2.87369,50.25385],[2.87299,50.25365],[2.87235,50.25643],[2.87296,50.25663]]]}},{"type":"Feature","properties":{"k":"BTN","s":7.001},"geometry":{"type":"Polygon","coordinates":[[[2.87005,50.25571],[2.86956,50.25693],[2.87583,50.25894],[2.87605,50.25757],[2.87005,50.25571]]]}},{"type":"Feature","properties":{"k":"PHF","s":6.369},"geometry":{"type":"Polygon","coordinates":[[[2.86925,50.25816],[2.87564,50.26013],[2.87583,50.25893],[2.86959,50.25697],[2.86925,50.25816]]]}},{"type":"Feature","properties":{"k":"ORP","s":5.607},"geometry":{"type":"Polygon","coordinates":[[[2.8562,50.2693],[2.85569,50.26847],[2.85595,50.26842],[2.85406,50.26557],[2.85314,50.26576],[2.8523,50.26593],[2.85478,50.26964],[2.8562,50.2693]]]}},{"type":"Feature","properties":{"k":"BTH","s":1.364},"geometry":{"type":"Polygon","coordinates":[[[2.85192,50.266],[2.85436,50.26974],[2.85478,50.26964],[2.85229,50.26593],[2.85192,50.266]]]}},{"type":"Feature","properties":{"k":"BTH","s":3.23},"geometry":{"type":"Polygon","coordinates":[[[2.85342,50.26998],[2.85436,50.26974],[2.85192,50.266],[2.85099,50.26619],[2.85342,50.26998]]]}},{"type":"Feature","properties":{"k":"BTH","s":2.975},"geometry":{"type":"Polygon","coordinates":[[[2.85009,50.26638],[2.85258,50.2702],[2.85342,50.26998],[2.85099,50.26619],[2.85009,50.26638]]]}},{"type":"Feature","properties":{"k":"PTC","s":0.734},"geometry":{"type":"Polygon","coordinates":[[[2.85236,50.27025],[2.85258,50.2702],[2.85009,50.26638],[2.84989,50.26642],[2.85236,50.27025]]]}},{"type":"Feature","properties":{"k":"CAR","s":8.13},"geometry":{"type":"Polygon","coordinates":[[[2.84989,50.26642],[2.84727,50.26693],[2.8488,50.26932],[2.85122,50.27054],[2.85236,50.27025],[2.84989,50.26642]]]}},{"type":"Feature","properties":{"k":"PTC","s":1.591},"geometry":{"type":"Polygon","coordinates":[[[2.8465,50.26716],[2.84686,50.26873],[2.84768,50.26837],[2.8488,50.26932],[2.84723,50.26703],[2.8465,50.26716]]]}}]}