{"type":"FeatureCollection","features":[{"type":"Feature","properties":{"k":"MIS","s":0.304},"geometry":{"type":"Polygon","coordinates":[[[2.48608,50.23333],[2.48545,50.23302],[2.48485,50.23393],[2.48608,50.23333]]]}},{"type":"Feature","properties":{"k":"LBF","s":2.814},"geometry":{"type":"Polygon","coordinates":[[[2.48189,50.23347],[2.48352,50.23089],[2.48226,50.23072],[2.48063,50.23328],[2.48189,50.23347]]]}},{"type":"Feature","properties":{"k":"BTN","s":0.996},"geometry":{"type":"Polygon","coordinates":[[[2.45553,50.23359],[2.45577,50.23386],[2.4586,50.23188],[2.45849,50.23182],[2.45882,50.23173],[2.45851,50.23152],[2.45553,50.23359]]]}},{"type":"Feature","properties":{"k":"BTN","s":0.966},"geometry":{"type":"Polygon","coordinates":[[[2.45852,50.23121],[2.45514,50.23357],[2.45556,50.234],[2.45577,50.23386],[2.45553,50.23359],[2.45851,50.23152],[2.45882,50.23173],[2.45901,50.23153],[2.45852,50.23121]]]}},{"type":"Feature","properties":{"k":"PTC","s":2.497},"geometry":{"type":"Polygon","coordinates":[[[2.45512,50.23355],[2.45851,50.2312],[2.4578,50.23075],[2.45457,50.23297],[2.45512,50.23355]]]}},{"type":"Feature","properties":{"k":"PHF","s":7.57},"geometry":{"type":"Polygon","coordinates":[[[2.45593,50.22966],[2.45276,50.2302],[2.45269,50.23093],[2.45457,50.23297],[2.4578,50.23075],[2.45593,50.22966]]]}},{"type":"Feature","properties":{"k":"MIS","s":3.248},"geometry":{"type":"Polygon","coordinates":[[[2.45237,50.22945],[2.4521,50.22984],[2.45284,50.23007],[2.45597,50.22955],[2.45348,50.22818],[2.45205,50.22901],[2.45237,50.22945]]]}},{"type":"Feature","properties":{"k":"CZH","s":0.861},"geometry":{"type":"Polygon","coordinates":[[[2.45236,50.2277],[2.45169,50.22851],[2.45204,50.22899],[2.45346,50.22817],[2.45236,50.2277]]]}},{"type":"Feature","properties":{"k":"BTH","s":2.844},"geometry":{"type":"Polygon","coordinates":[[[2.45737,50.22897],[2.45438,50.22736],[2.45347,50.22817],[2.45597,50.22955],[2.45614,50.22949],[2.45737,50.22897]]]}},{"type":"Feature","properties":{"k":"BTH","s":4.038},"geometry":{"type":"Polygon","coordinates":[[[2.45438,50.22736],[2.45737,50.22897],[2.45937,50.22864],[2.45544,50.22643],[2.45438,50.22736]]]}},{"type":"Feature","properties":{"k":"BTN","s":6.071},"geometry":{"type":"Polygon","coordinates":[[[2.45347,50.22817],[2.45671,50.2253],[2.45469,50.2244],[2.45233,50.22687],[2.45292,50.22703],[2.45236,50.2277],[2.45347,50.22817]]]}},{"type":"Feature","properties":{"k":"PPH","s":1.984},"geometry":{"type":"Polygon","coordinates":[[[2.45671,50.2253],[2.4577,50.2244],[2.45731,50.22454],[2.45636,50.22411],[2.4565,50.22399],[2.45745,50.22441],[2.45748,50.22431],[2.45569,50.22351],[2.45469,50.2244],[2.45671,50.2253]]]}},{"type":"Feature","properties":{"k":"BTH","s":0.0},"geometry":{"type":"Polygon","coordinates":[]}},{"type":"Feature","properties":{"k":"PPH","s":6.156},"geometry":{"type":"Polygon","coordinates":[[[2.45759,50.22126],[2.45998,50.22257],[2.46215,50.22118],[2.46133,50.21949],[2.45966,50.21973],[2.45759,50.22126]]]}},{"type":"Feature","properties":{"k":"MIS","s":3.0},"geometry":{"type":"Polygon","coordinates":[[[2.45932,50.22365],[2.46033,50.22278],[2.4576,50.22129],[2.45683,50.22216],[2.45932,50.22365]]]}},{"type":"Feature","properties":{"k":"MIS","s":2.895},"geometry":{"type":"Polygon","coordinates":[[[2.46215,50.22118],[2.45998,50.22257],[2.46163,50.22348],[2.46318,50.22249],[2.46215,50.22118]]]}},{"type":"Feature","properties":{"k":"MIS","s":1.897},"geometry":{"type":"Polygon","coordinates":[[[2.46315,50.2225],[2.46163,50.22349],[2.46317,50.22431],[2.46429,50.22359],[2.46315,50.2225]]]}},{"type":"Feature","properties":{"k":"MIS","s":0.36},"geometry":{"type":"Polygon","coordinates":[[[2.46963,50.22054],[2.47008,50.22111],[2.47071,50.22065],[2.4705,50.22035],[2.46963,50.22054]]]}},{"type":"Feature","properties":{"k":"MIS","s":0.943},"geometry":{"type":"Polygon","coordinates":[[[2.46997,50.22128],[2.46952,50.22057],[2.4683,50.22066],[2.46942,50.22193],[2.46997,50.22128]]]}},{"type":"Feature","properties":{"k":"PPH","s":1.049},"geometry":{"type":"Polygon","coordinates":[[[2.46934,50.2224],[2.47048,50.22196],[2.47128,50.221],[2.47108,50.22059],[2.47021,50.22118],[2.46917,50.2223],[2.46934,50.2224]]]}},{"type":"Feature","properties":{"k":"ORH","s":0.914},"geometry":{"type":"Polygon","coordinates":[[[2.46942,50.22193],[2.4683,50.22066],[2.46748,50.22072],[2.46908,50.22221],[2.46942,50.22193]]]}},{"type":"Feature","properties":{"k":"BTN","s":1.674},"geometry":{"type":"Polygon","coordinates":[[[2.4674,50.22072],[2.46611,50.22085],[2.46844,50.22267],[2.469,50.22228],[2.4674,50.22072]]]}},{"type":"Feature","properties":{"k":"PPH","s":1.485},"geometry":{"type":"Polygon","coordinates":[[[2.4645,50.22367],[2.46519,50.22415],[2.46701,50.22332],[2.46686,50.22326],[2.46708,50.22305],[2.46785,50.22338],[2.46627,50.22406],[2.46635,50.22418],[2.46751,50.22364],[2.4679,50.22375],[2.46794,50.2232],[2.46729,50.22276],[2.4645,50.22367]]]}},{"type":"Feature","properties":{"k":"BTH","s":2.323},"geometry":{"type":"Polygon","coordinates":[[[2.4645,50.22367],[2.46729,50.22276],[2.46627,50.22207],[2.4636,50.22284],[2.4645,50.22367]]]}},{"type":"Feature","properties":{"k":"BTN","s":4.104},"geometry":{"type":"Polygon","coordinates":[[[2.46837,50.24006],[2.47221,50.23981],[2.47305,50.23857],[2.46839,50.23885],[2.46837,50.24006]]]}},{"type":"Feature","properties":{"k":"BTN","s":3.878},"geometry":{"type":"Polygon","coordinates":[[[2.46309,50.22228],[2.46568,50.22167],[2.46794,50.2232],[2.46842,50.22267],[2.4661,50.22085],[2.46396,50.22112],[2.46255,50.2216],[2.46309,50.22228]]]}},{"type":"Feature","properties":{"k":"MIS","s":1.301},"geometry":{"type":"Polygon","coordinates":[[[2.46568,50.22167],[2.4631,50.22228],[2.46358,50.22284],[2.46626,50.22207],[2.46568,50.22167]]]}},{"type":"Feature","properties":{"k":"PPH","s":0.146},"geometry":{"type":"Polygon","coordinates":[[[2.46507,50.22544],[2.46467,50.22559],[2.46464,50.22599],[2.46523,50.22572],[2.46507,50.22544]]]}},{"type":"Feature","properties":{"k":"CZH","s":2.501},"geometry":{"type":"Polygon","coordinates":[[[2.46853,50.24085],[2.47064,50.24085],[2.47156,50.24076],[2.47221,50.23981],[2.46828,50.24006],[2.46853,50.24085]]]}},{"type":"Feature","properties":{"k":"MIS","s":0.309},"geometry":{"type":"Polygon","coordinates":[[[2.47613,50.23832],[2.47453,50.24066],[2.47471,50.24067],[2.47613,50.23832]]]}},{"type":"Feature","properties":{"k":"BTH","s":0.191},"geometry":{"type":"Polygon","coordinates":[[[2.48391,50.23391],[2.48224,50.23633],[2.48409,50.23394],[2.48391,50.23391]]]}},{"type":"Feature","properties":{"k":"PPH","s":0.234},"geometry":{"type":"Polygon","coordinates":[[[2.46671,50.22541],[2.46652,50.22527],[2.46515,50.22579],[2.46534,50.22593],[2.46671,50.22541]]]}},{"type":"Feature","properties":{"k":"PPH","s":0.076},"geometry":{"type":"Polygon","coordinates":[[[2.4703,50.22519],[2.47001,50.22488],[2.46976,50.22497],[2.47005,50.22526],[2.4703,50.22519]]]}},{"type":"Feature","properties":{"k":"PPH","s":0.595},"geometry":{"type":"Polygon","coordinates":[[[2.46845,50.22515],[2.46837,50.22493],[2.4675,50.22493],[2.46734,50.22463],[2.46685,50.22474],[2.4671,50.22507],[2.46664,50.2252],[2.46696,50.22551],[2.46845,50.22515]]]}},{"type":"Feature","properties":{"k":"PPH","s":0.267},"geometry":{"type":"Polygon","coordinates":[[[2.4703,50.22767],[2.46965,50.22737],[2.46923,50.22769],[2.46947,50.22803],[2.4703,50.22767]]]}},{"type":"Feature","properties":{"k":"PPH","s":0.614},"geometry":{"type":"Polygon","coordinates":[[[2.46774,50.22701],[2.46753,50.22676],[2.46545,50.22762],[2.46584,50.22784],[2.46774,50.22701]]]}},{"type":"Feature","properties":{"k":"PPH","s":1.89},"geometry":{"type":"Polygon","coordinates":[[[2.4646,50.22661],[2.46468,50.22676],[2.4652,50.22649],[2.46618,50.22732],[2.46713,50.22691],[2.46688,50.22667],[2.46707,50.22656],[2.46655,50.22613],[2.46727,50.22588],[2.46671,50.22541],[2.46534,50.22593],[2.46555,50.22608],[2.4646,50.22661]]]}},{"type":"Feature","properties":{"k":"PPH","s":0.291},"geometry":{"type":"Polygon","coordinates":[[[2.4646,50.22661],[2.46553,50.22608],[2.4651,50.2258],[2.46464,50.22604],[2.4646,50.22661]]]}},{"type":"Feature","properties":{"k":"PPH","s":4.932},"geometry":{"type":"Polygon","coordinates":[[[2.46252,50.22838],[2.46342,50.22818],[2.46475,50.22731],[2.46449,50.22715],[2.46454,50.22567],[2.46265,50.22664],[2.45985,50.2286],[2.46252,50.22838]]]}},{"type":"Feature","properties":{"k":"PTC","s":0.065},"geometry":{"type":"Polygon","coordinates":[[[2.46221,50.22679],[2.46224,50.22677],[2.46132,50.2263],[2.46221,50.22679]]]}},{"type":"Feature","properties":{"k":"PTC","s":5.405},"geometry":{"type":"Polygon","coordinates":[[[2.47505,50.24068],[2.47689,50.24068],[2.47927,50.23711],[2.47762,50.23686],[2.47505,50.24068]]]}},{"type":"Feature","properties":{"k":"PHF","s":10.5},"geometry":{"type":"Polygon","coordinates":[[[2.4745,50.24066],[2.47713,50.23682],[2.47413,50.23621],[2.47225,50.23862],[2.47305,50.23857],[2.47156,50.24076],[2.4745,50.24066]]]}},{"type":"Feature","properties":{"k":"CZH","s":3.798},"geometry":{"type":"Polygon","coordinates":[[[2.47263,50.23577],[2.47047,50.23873],[2.47225,50.23862],[2.47387,50.23659],[2.47413,50.23621],[2.47263,50.23577]]]}},{"type":"Feature","properties":{"k":"BTN","s":6.802},"geometry":{"type":"Polygon","coordinates":[[[2.4686,50.238],[2.46828,50.23886],[2.47047,50.23873],[2.47263,50.23577],[2.47033,50.23512],[2.4686,50.238]]]}},{"type":"Feature","properties":{"k":"PPH","s":8.486},"geometry":{"type":"Polygon","coordinates":[[[2.46458,50.2255],[2.46393,50.22508],[2.4642,50.22487],[2.46033,50.22278],[2.45932,50.22365],[2.45677,50.22222],[2.45638,50.22272],[2.46296,50.22632],[2.46458,50.2255]]]}},{"type":"Feature","properties":{"k":"MIS","s":0.542},"geometry":{"type":"Polygon","coordinates":[[[2.47652,50.23839],[2.47627,50.23833],[2.47472,50.24067],[2.47503,50.24066],[2.47652,50.23839]]]}},{"type":"Feature","properties":{"k":"BTH","s":4.205},"geometry":{"type":"Polygon","coordinates":[[[2.46228,50.22664],[2.46296,50.22632],[2.45638,50.22272],[2.45572,50.22338],[2.46228,50.22664]]]}},{"type":"Feature","properties":{"k":"MIS","s":7.864},"geometry":{"type":"Polygon","coordinates":[[[2.4577,50.2244],[2.45622,50.22573],[2.46043,50.22806],[2.46221,50.22679],[2.45958,50.22525],[2.4577,50.2244]]]}},{"type":"Feature","properties":{"k":"PTR","s":3.758},"geometry":{"type":"Polygon","coordinates":[[[2.46043,50.22806],[2.45622,50.22573],[2.45544,50.22643],[2.45937,50.22864],[2.46043,50.22806]]]}},{"type":"Feature","properties":{"k":"MIS","s":0.241},"geometry":{"type":"Polygon","coordinates":[[[2.47658,50.2384],[2.47762,50.23686],[2.47745,50.23683],[2.4764,50.23836],[2.47658,50.2384]]]}},{"type":"Feature","properties":{"k":"BTH","s":8.815},"geometry":{"type":"Polygon","coordinates":[[[2.46185,50.22852],[2.45928,50.22881],[2.46582,50.23294],[2.46677,50.23204],[2.46688,50.23172],[2.46185,50.22852]]]}},{"type":"Feature","properties":{"k":"MIS","s":4.956},"geometry":{"type":"Polygon","coordinates":[[[2.45689,50.22919],[2.46058,50.23153],[2.46207,50.23057],[2.45928,50.22881],[2.45689,50.22919]]]}},{"type":"Feature","properties":{"k":"PTC","s":2.755},"geometry":{"type":"Polygon","coordinates":[[[2.46058,50.23153],[2.45689,50.22919],[2.45618,50.22956],[2.45987,50.232],[2.46058,50.23153]]]}},{"type":"Feature","properties":{"k":"ORH","s":9.492},"geometry":{"type":"Polygon","coordinates":[[[2.45905,50.23156],[2.45556,50.234],[2.45584,50.23435],[2.45587,50.23532],[2.45627,50.23632],[2.46117,50.23299],[2.45905,50.23156]]]}},{"type":"Feature","properties":{"k":"PTR","s":3.307},"geometry":{"type":"Polygon","coordinates":[[[2.45627,50.23632],[2.45659,50.23689],[2.46187,50.23335],[2.46123,50.23294],[2.45627,50.23632]]]}},{"type":"Feature","properties":{"k":"BTH","s":5.412},"geometry":{"type":"Polygon","coordinates":[[[2.46582,50.23294],[2.46349,50.23147],[2.46133,50.23289],[2.46372,50.23443],[2.46582,50.23294]]]}},{"type":"Feature","properties":{"k":"MIS","s":2.247},"geometry":{"type":"Polygon","coordinates":[[[2.46307,50.2312],[2.46207,50.23057],[2.45987,50.232],[2.46085,50.23263],[2.46307,50.2312]]]}},{"type":"Feature","properties":{"k":"BTH","s":0.944},"geometry":{"type":"Polygon","coordinates":[[[2.4635,50.23147],[2.46307,50.2312],[2.46088,50.23261],[2.46134,50.23287],[2.4635,50.23147]]]}},{"type":"Feature","properties":{"k":"CZH","s":4.047},"geometry":{"type":"Polygon","coordinates":[[[2.46381,50.23454],[2.46912,50.23693],[2.46954,50.23622],[2.46475,50.23389],[2.46381,50.23454]]]}},{"type":"Feature","properties":{"k":"BTN","s":6.6},"geometry":{"type":"Polygon","coordinates":[[[2.46545,50.23337],[2.46977,50.2357],[2.47066,50.23411],[2.46685,50.23209],[2.46545,50.23337]]]}},{"type":"Feature","properties":{"k":"MIS","s":2.75},"geometry":{"type":"Polygon","coordinates":[[[2.46474,50.23389],[2.46954,50.23621],[2.46977,50.2357],[2.46544,50.23337],[2.46474,50.23389]]]}},{"type":"Feature","properties":{"k":"MIS","s":5.137},"geometry":{"type":"Polygon","coordinates":[[[2.47088,50.2328],[2.46753,50.23038],[2.46685,50.23209],[2.47066,50.23411],[2.47088,50.2328]]]}},{"type":"Feature","properties":{"k":"CZH","s":2.158},"geometry":{"type":"Polygon","coordinates":[[[2.46854,50.2311],[2.47089,50.23278],[2.47113,50.23081],[2.46956,50.23086],[2.46854,50.2311]]]}},{"type":"Feature","properties":{"k":"PPH","s":0.493},"geometry":{"type":"Polygon","coordinates":[[[2.46957,50.23085],[2.47098,50.23052],[2.47068,50.23029],[2.47013,50.23043],[2.46992,50.2302],[2.46914,50.2304],[2.46957,50.23085]]]}},{"type":"Feature","properties":{"k":"PPH","s":0.372},"geometry":{"type":"Polygon","coordinates":[[[2.47017,50.23038],[2.47067,50.23026],[2.47041,50.23003],[2.46961,50.23017],[2.46953,50.22982],[2.46879,50.23001],[2.46912,50.23039],[2.46997,50.23017],[2.47017,50.23038]]]}},{"type":"Feature","properties":{"k":"BTN","s":1.005},"geometry":{"type":"Polygon","coordinates":[[[2.46753,50.23038],[2.46852,50.2311],[2.46956,50.23086],[2.46873,50.23],[2.46822,50.23019],[2.46783,50.23001],[2.46753,50.23038]]]}},{"type":"Feature","properties":{"k":"PPH","s":6.224},"geometry":{"type":"Polygon","coordinates":[[[2.46221,50.2285],[2.46246,50.22869],[2.46223,50.22877],[2.46688,50.23172],[2.46723,50.23083],[2.46656,50.23062],[2.46667,50.23044],[2.46731,50.23063],[2.46757,50.23003],[2.46612,50.22939],[2.46635,50.22912],[2.46535,50.2282],[2.46502,50.22821],[2.46505,50.22851],[2.46537,50.22849],[2.46536,50.22878],[2.46512,50.22886],[2.46413,50.22885],[2.46403,50.22825],[2.46221,50.2285]]]}},{"type":"Feature","properties":{"k":"PPH","s":1.5},"geometry":{"type":"Polygon","coordinates":[[[2.46734,50.22842],[2.46685,50.22888],[2.46756,50.22921],[2.46935,50.22809],[2.46905,50.22765],[2.467,50.22829],[2.46734,50.22842]]]}},{"type":"Feature","properties":{"k":"PPH","s":0.185},"geometry":{"type":"Polygon","coordinates":[[[2.46828,50.22882],[2.46753,50.22924],[2.46897,50.22871],[2.4688,50.22854],[2.46828,50.22882]]]}},{"type":"Feature","properties":{"k":"PPH","s":0.627},"geometry":{"type":"Polygon","coordinates":[[[2.4717,50.22819],[2.47214,50.22838],[2.47275,50.22773],[2.47204,50.22732],[2.47149,50.22766],[2.47163,50.22773],[2.47146,50.22784],[2.4717,50.22819]]]}},{"type":"Feature","properties":{"k":"MIS","s":9.007},"geometry":{"type":"Polygon","coordinates":[[[2.48015,50.24079],[2.48243,50.23759],[2.47922,50.2371],[2.47692,50.24064],[2.48015,50.24079]]]}},{"type":"Feature","properties":{"k":"PPH","s":1.653},"geometry":{"type":"Polygon","coordinates":[[[2.47543,50.2274],[2.47506,50.2272],[2.47342,50.22836],[2.47385,50.22821],[2.47428,50.22847],[2.47408,50.22866],[2.47451,50.22837],[2.47507,50.22874],[2.47642,50.2278],[2.47563,50.22728],[2.47543,50.2274]]]}},{"type":"Feature","properties":{"k":"MIS","s":2.405},"geometry":{"type":"Polygon","coordinates":[[[2.47409,50.22952],[2.4749,50.23016],[2.47732,50.22837],[2.47642,50.2278],[2.47409,50.22952]]]}},{"type":"Feature","properties":{"k":"ORH","s":0.384},"geometry":{"type":"Polygon","coordinates":[[[2.47745,50.23683],[2.47715,50.23679],[2.47614,50.23829],[2.4764,50.23836],[2.47745,50.23683]]]}},{"type":"Feature","properties":{"k":"PPH","s":0.325},"geometry":{"type":"Polygon","coordinates":[[[2.47394,50.22895],[2.47438,50.22923],[2.47507,50.22874],[2.47465,50.22846],[2.47394,50.22895]]]}},{"type":"Feature","properties":{"k":"PPH","s":3.821},"geometry":{"type":"Polygon","coordinates":[[[2.47221,50.23104],[2.4728,50.23129],[2.47511,50.23141],[2.47568,50.23091],[2.47366,50.22936],[2.47328,50.22956],[2.47287,50.22922],[2.47309,50.22901],[2.47235,50.22887],[2.47218,50.22908],[2.47291,50.22933],[2.4722,50.23005],[2.47291,50.23042],[2.47221,50.23104]]]}},{"type":"Feature","properties":{"k":"PPH","s":1.433},"geometry":{"type":"Polygon","coordinates":[[[2.47153,50.22997],[2.47181,50.2298],[2.47215,50.22991],[2.47175,50.23017],[2.4719,50.23026],[2.47173,50.23038],[2.47151,50.23025],[2.47127,50.23051],[2.47221,50.23104],[2.47291,50.23042],[2.4722,50.23005],[2.47291,50.22933],[2.47216,50.22908],[2.47199,50.22944],[2.47166,50.22935],[2.47191,50.22886],[2.47181,50.22884],[2.47174,50.22908],[2.47145,50.229],[2.4712,50.22946],[2.47155,50.22973],[2.47137,50.22987],[2.47153,50.22997]]]}},{"type":"Feature","properties":{"k":"BTH","s":7.963},"geometry":{"type":"Polygon","coordinates":[[[2.47274,50.23137],[2.47204,50.23107],[2.47121,50.2313],[2.47093,50.23391],[2.47035,50.23494],[2.47196,50.23549],[2.47468,50.23148],[2.47274,50.23137]]]}},{"type":"Feature","properties":{"k":"CZH","s":4.939},"geometry":{"type":"Polygon","coordinates":[[[2.4732,50.23586],[2.47605,50.23173],[2.47468,50.23148],[2.47196,50.23549],[2.4732,50.23586]]]}},{"type":"Feature","properties":{"k":"BTH","s":7.35},"geometry":{"type":"Polygon","coordinates":[[[2.47772,50.23258],[2.47697,50.23201],[2.47605,50.23173],[2.4732,50.23586],[2.47512,50.23643],[2.47772,50.23258]]]}},{"type":"Feature","properties":{"k":"AVP","s":0.301},"geometry":{"type":"Polygon","coordinates":[[[2.47792,50.23254],[2.47779,50.2326],[2.4791,50.23331],[2.48099,50.23356],[2.48105,50.23347],[2.47955,50.23329],[2.47792,50.23254]]]}},{"type":"Feature","properties":{"k":"BTH","s":10.898},"geometry":{"type":"Polygon","coordinates":[[[2.47772,50.23258],[2.47512,50.23643],[2.47868,50.23697],[2.48099,50.23356],[2.47949,50.2334],[2.47772,50.23258]]]}},{"type":"Feature","properties":{"k":"BTN","s":2.254},"geometry":{"type":"Polygon","coordinates":[[[2.47868,50.23697],[2.47945,50.23708],[2.48175,50.23363],[2.48101,50.23354],[2.47868,50.23697]]]}},{"type":"Feature","properties":{"k":"SGH","s":0.399},"geometry":{"type":"Polygon","coordinates":[[[2.47957,50.2371],[2.48194,50.23358],[2.4818,50.23356],[2.47957,50.2371]]]}},{"type":"Feature","properties":{"k":"PPH","s":3.988},"geometry":{"type":"Polygon","coordinates":[[[2.46892,50.22333],[2.46887,50.22375],[2.46914,50.22376],[2.46916,50.22353],[2.46943,50.22353],[2.46965,50.22393],[2.47011,50.22416],[2.47036,50.22399],[2.46918,50.22332],[2.46941,50.22311],[2.47047,50.22279],[2.47024,50.22252],[2.47089,50.22227],[2.47152,50.22227],[2.47263,50.22198],[2.47226,50.22024],[2.47109,50.22059],[2.47129,50.221],[2.47048,50.22196],[2.46889,50.22247],[2.46814,50.22307],[2.46804,50.22358],[2.46851,50.22372],[2.46858,50.22331],[2.46892,50.22333]]]}},{"type":"Feature","properties":{"k":"PPH","s":0.121},"geometry":{"type":"Polygon","coordinates":[[[2.47089,50.22055],[2.47152,50.22032],[2.4705,50.22035],[2.47071,50.22065],[2.47089,50.22055]]]}},{"type":"Feature","properties":{"k":"MIS","s":5.987},"geometry":{"type":"Polygon","coordinates":[[[2.48142,50.23738],[2.48391,50.23391],[2.48194,50.23358],[2.47957,50.2371],[2.48142,50.23738]]]}},{"type":"Feature","properties":{"k":"AVP","s":0.045},"geometry":{"type":"Polygon","coordinates":[[[2.48101,50.23354],[2.4818,50.23356],[2.48105,50.23347],[2.48101,50.23354]]]}},{"type":"Feature","properties":{"k":"PPH","s":0.319},"geometry":{"type":"Polygon","coordinates":[[[2.47054,50.22343],[2.47079,50.22374],[2.47151,50.22361],[2.47141,50.22335],[2.4704,50.22329],[2.46963,50.22361],[2.47054,50.22343]]]}},{"type":"Feature","properties":{"k":"BTH","s":9.428},"geometry":{"type":"Polygon","coordinates":[[[2.47884,50.23294],[2.47952,50.23319],[2.4805,50.23329],[2.48213,50.23073],[2.47974,50.2299],[2.47905,50.22947],[2.47665,50.23154],[2.47884,50.23294]]]}},{"type":"Feature","properties":{"k":"MIS","s":2.596},"geometry":{"type":"Polygon","coordinates":[[[2.47665,50.23154],[2.47905,50.22947],[2.47828,50.22893],[2.4757,50.23082],[2.47665,50.23154]]]}},{"type":"Feature","properties":{"k":"PPH","s":2.536},"geometry":{"type":"Polygon","coordinates":[[[2.47734,50.22835],[2.4749,50.23016],[2.4757,50.23082],[2.47823,50.2289],[2.47734,50.22835]]]}},{"type":"Feature","properties":{"k":"PPH","s":2.133},"geometry":{"type":"Polygon","coordinates":[[[2.47829,50.22884],[2.47916,50.22944],[2.48082,50.22754],[2.48121,50.2268],[2.48077,50.22659],[2.47829,50.22884]]]}},{"type":"Feature","properties":{"k":"BTH","s":1.135},"geometry":{"type":"Polygon","coordinates":[[[2.48121,50.2268],[2.48189,50.22554],[2.48124,50.22523],[2.48006,50.22623],[2.48121,50.2268]]]}},{"type":"Feature","properties":{"k":"ORH","s":1.01},"geometry":{"type":"Polygon","coordinates":[[[2.4685,50.24099],[2.46866,50.24179],[2.47,50.24178],[2.47034,50.24095],[2.4685,50.24099]]]}},{"type":"Feature","properties":{"k":"BTN","s":0.105},"geometry":{"type":"Polygon","coordinates":[[[2.46815,50.23959],[2.46828,50.24006],[2.46839,50.23885],[2.46815,50.23959]]]}},{"type":"Feature","properties":{"k":"BTH","s":3.806},"geometry":{"type":"Polygon","coordinates":[[[2.46912,50.23693],[2.46382,50.23454],[2.46306,50.23504],[2.46877,50.23757],[2.46912,50.23693]]]}},{"type":"Feature","properties":{"k":"MIS","s":4.998},"geometry":{"type":"Polygon","coordinates":[[[2.46616,50.2375],[2.46829,50.23834],[2.4687,50.23757],[2.463,50.23512],[2.46196,50.23583],[2.46616,50.2375]]]}},{"type":"Feature","properties":{"k":"MIS","s":22.249},"geometry":{"type":"Polygon","coordinates":[[[2.46044,50.2389],[2.46024,50.23914],[2.46259,50.24021],[2.46259,50.24041],[2.46493,50.24047],[2.46836,50.24078],[2.46807,50.23938],[2.46783,50.23926],[2.46801,50.23843],[2.46826,50.23849],[2.46829,50.23834],[2.46193,50.23582],[2.45947,50.23751],[2.45979,50.23764],[2.45871,50.23831],[2.46044,50.2389]]]}},{"type":"Feature","properties":{"k":"MIS","s":10.993},"geometry":{"type":"Polygon","coordinates":[[[2.45774,50.2386],[2.46363,50.23447],[2.46187,50.23335],[2.45659,50.23689],[2.45774,50.2386]]]}},{"type":"Feature","properties":{"k":"BTH","s":1.345},"geometry":{"type":"Polygon","coordinates":[[[2.48189,50.22554],[2.48219,50.22496],[2.48204,50.22481],[2.48252,50.22441],[2.48127,50.22405],[2.48029,50.22476],[2.48189,50.22554]]]}},{"type":"Feature","properties":{"k":"ORH","s":2.011},"geometry":{"type":"Polygon","coordinates":[[[2.47621,50.22757],[2.47695,50.22803],[2.47939,50.22591],[2.47866,50.22556],[2.47621,50.22757]]]}},{"type":"Feature","properties":{"k":"PPH","s":1.229},"geometry":{"type":"Polygon","coordinates":[[[2.47666,50.22612],[2.47604,50.22656],[2.47683,50.22706],[2.47866,50.22556],[2.47833,50.2254],[2.47666,50.22612]]]}},{"type":"Feature","properties":{"k":"BTN","s":1.789},"geometry":{"type":"Polygon","coordinates":[[[2.47943,50.22588],[2.47695,50.22803],[2.47751,50.22839],[2.48002,50.22618],[2.47943,50.22588]]]}},{"type":"Feature","properties":{"k":"ORH","s":0.866},"geometry":{"type":"Polygon","coordinates":[[[2.47754,50.22839],[2.47781,50.22858],[2.48039,50.22641],[2.48008,50.22625],[2.47754,50.22839]]]}},{"type":"Feature","properties":{"k":"PPH","s":1.159},"geometry":{"type":"Polygon","coordinates":[[[2.4804,50.22641],[2.47782,50.22858],[2.47827,50.22885],[2.48075,50.22659],[2.4804,50.22641]]]}},{"type":"Feature","properties":{"k":"MIS","s":0.681},"geometry":{"type":"Polygon","coordinates":[[[2.47517,50.22687],[2.47621,50.22757],[2.47683,50.22706],[2.47604,50.22656],[2.47517,50.22687]]]}},{"type":"Feature","properties":{"k":"PPH","s":2.413},"geometry":{"type":"Polygon","coordinates":[[[2.47291,50.22734],[2.47395,50.228],[2.47484,50.22737],[2.47513,50.22682],[2.47372,50.22585],[2.47278,50.22642],[2.47291,50.22734]]]}},{"type":"Feature","properties":{"k":"BTH","s":2.428},"geometry":{"type":"Polygon","coordinates":[[[2.48409,50.23235],[2.48382,50.23143],[2.48403,50.23096],[2.48352,50.23089],[2.48189,50.23347],[2.48324,50.23369],[2.48409,50.23235]]]}},{"type":"Feature","properties":{"k":"BTN","s":0.631},"geometry":{"type":"Polygon","coordinates":[[[2.48413,50.23386],[2.48483,50.23272],[2.48433,50.23247],[2.48353,50.23375],[2.48413,50.23386]]]}},{"type":"Feature","properties":{"k":"BTN","s":0.335},"geometry":{"type":"Polygon","coordinates":[[[2.48433,50.23247],[2.48409,50.23235],[2.48324,50.23369],[2.48353,50.23375],[2.48433,50.23247]]]}},{"type":"Feature","properties":{"k":"PPH","s":0.612},"geometry":{"type":"Polygon","coordinates":[[[2.47054,50.22743],[2.47078,50.22724],[2.47135,50.2273],[2.47173,50.22704],[2.47098,50.22633],[2.47037,50.22718],[2.47054,50.22743]]]}},{"type":"Feature","properties":{"k":"PPH","s":0.346},"geometry":{"type":"Polygon","coordinates":[[[2.46993,50.22621],[2.47011,50.22654],[2.47067,50.22664],[2.47097,50.22632],[2.47066,50.22597],[2.46993,50.22621]]]}},{"type":"Feature","properties":{"k":"PPH","s":2.166},"geometry":{"type":"Polygon","coordinates":[[[2.47278,50.22642],[2.47372,50.22585],[2.4724,50.22494],[2.47145,50.22553],[2.47091,50.22507],[2.47015,50.22527],[2.47099,50.22619],[2.47129,50.22592],[2.47278,50.22642]]]}},{"type":"Feature","properties":{"k":"PPH","s":6.233},"geometry":{"type":"Polygon","coordinates":[[[2.47617,50.22649],[2.47656,50.22613],[2.47268,50.22374],[2.47139,50.22396],[2.47118,50.22372],[2.47024,50.22422],[2.47061,50.22453],[2.47044,50.22459],[2.47063,50.22479],[2.47045,50.22486],[2.47145,50.22553],[2.4724,50.22494],[2.47513,50.22682],[2.47617,50.22649]]]}},{"type":"Feature","properties":{"k":"BTH","s":0.662},"geometry":{"type":"Polygon","coordinates":[[[2.48485,50.23393],[2.48545,50.23302],[2.48483,50.23272],[2.48413,50.23386],[2.48485,50.23393]]]}},{"type":"Feature","properties":{"k":"PPH","s":0.353},"geometry":{"type":"Polygon","coordinates":[[[2.46618,50.225],[2.46507,50.22544],[2.46523,50.22572],[2.46652,50.22526],[2.46618,50.225]]]}}]}