{"type":"FeatureCollection","features":[{"type":"Feature","properties":{"k":"AVH","s":2.045},"geometry":{"type":"Polygon","coordinates":[[[1.95013,50.55838],[1.94909,50.55775],[1.94701,50.55919],[1.94823,50.55964],[1.95013,50.55838]]]}},{"type":"Feature","properties":{"k":"MIS","s":0.017},"geometry":{"type":"Polygon","coordinates":[[[1.94954,50.55805],[1.95015,50.55837],[1.94909,50.55774],[1.94954,50.55805]]]}},{"type":"Feature","properties":{"k":"BTH","s":0.0},"geometry":{"type":"Polygon","coordinates":[]}},{"type":"Feature","properties":{"k":"PHF","s":2.952},"geometry":{"type":"Polygon","coordinates":[[[1.9498,50.56034],[1.95209,50.55881],[1.95061,50.55829],[1.95002,50.55848],[1.94826,50.5597],[1.9498,50.56034]]]}},{"type":"Feature","properties":{"k":"BTN","s":2.598},"geometry":{"type":"Polygon","coordinates":[[[1.9498,50.56034],[1.9511,50.56088],[1.95346,50.5593],[1.95209,50.55881],[1.9498,50.56034]]]}},{"type":"Feature","properties":{"k":"MIS","s":2.913},"geometry":{"type":"Polygon","coordinates":[[[1.95286,50.56124],[1.95499,50.55984],[1.95347,50.5593],[1.95114,50.56087],[1.95252,50.56147],[1.95286,50.56124]]]}},{"type":"Feature","properties":{"k":"PTR","s":4.393},"geometry":{"type":"Polygon","coordinates":[[[1.9476,50.56128],[1.94956,50.56031],[1.94809,50.5597],[1.94431,50.56155],[1.94508,50.56255],[1.9476,50.56128]]]}},{"type":"Feature","properties":{"k":"ORH","s":2.504},"geometry":{"type":"Polygon","coordinates":[[[1.94994,50.56155],[1.95116,50.56096],[1.94956,50.56031],[1.9476,50.56128],[1.9487,50.56217],[1.94994,50.56155]]]}},{"type":"Feature","properties":{"k":"PPH","s":13.539},"geometry":{"type":"Polygon","coordinates":[[[1.95135,50.56424],[1.94986,50.56474],[1.9487,50.56217],[1.9476,50.56129],[1.94507,50.56256],[1.94962,50.56737],[1.95082,50.56794],[1.95159,50.56759],[1.95175,50.56717],[1.94983,50.5649],[1.95192,50.56415],[1.95089,50.5628],[1.95063,50.56288],[1.95135,50.56424]],[[1.94975,50.56636],[1.94922,50.56592],[1.94955,50.56599],[1.94996,50.56639],[1.94971,50.56664],[1.94949,50.56652],[1.94975,50.56636]]]}},{"type":"Feature","properties":{"k":"PTR","s":1.932},"geometry":{"type":"MultiPolygon","coordinates":[[[[1.94912,50.5634],[1.94986,50.56474],[1.95135,50.56424],[1.95068,50.56446],[1.94931,50.56189],[1.94992,50.56156],[1.94871,50.56218],[1.94912,50.5634]]],[[[1.9504,50.56218],[1.95089,50.56279],[1.94992,50.56156],[1.9504,50.56218]]],[[[1.95072,50.56283],[1.95089,50.5628],[1.95089,50.56279],[1.95072,50.56283]]]]}},{"type":"Feature","properties":{"k":"MLG","s":1.797},"geometry":{"type":"Polygon","coordinates":[[[1.94965,50.56253],[1.95068,50.56446],[1.95135,50.56424],[1.95063,50.56288],[1.95089,50.56279],[1.94992,50.56156],[1.94931,50.56189],[1.94965,50.56253]]]}},{"type":"Feature","properties":{"k":"MIS","s":0.945},"geometry":{"type":"Polygon","coordinates":[[[1.95409,50.56254],[1.95146,50.56351],[1.95171,50.56385],[1.9546,50.56278],[1.95409,50.56254]]]}},{"type":"Feature","properties":{"k":"BTH","s":4.254},"geometry":{"type":"Polygon","coordinates":[[[1.95147,50.5635],[1.95407,50.56253],[1.95238,50.56145],[1.95116,50.56096],[1.94992,50.56156],[1.95147,50.5635]]]}},{"type":"Feature","properties":{"k":"ORP","s":5.717},"geometry":{"type":"Polygon","coordinates":[[[1.95253,50.56149],[1.95462,50.56272],[1.95755,50.56078],[1.95499,50.55984],[1.95253,50.56149]]]}},{"type":"Feature","properties":{"k":"JAC","s":1.477},"geometry":{"type":"Polygon","coordinates":[[[1.9546,50.56278],[1.9517,50.56385],[1.95207,50.5643],[1.95541,50.56309],[1.9546,50.56278]]]}},{"type":"Feature","properties":{"k":"ORH","s":3.571},"geometry":{"type":"Polygon","coordinates":[[[1.95543,50.56308],[1.95206,50.56432],[1.95279,50.56527],[1.95654,50.56395],[1.95543,50.56308]]]}},{"type":"Feature","properties":{"k":"MIS","s":0.832},"geometry":{"type":"Polygon","coordinates":[[[1.95665,50.56418],[1.95651,50.56397],[1.95279,50.56527],[1.95296,50.56551],[1.95665,50.56418]]]}},{"type":"Feature","properties":{"k":"BTH","s":3.943},"geometry":{"type":"Polygon","coordinates":[[[1.95462,50.56272],[1.95607,50.56336],[1.95911,50.56145],[1.95754,50.56077],[1.95462,50.56272]]]}},{"type":"Feature","properties":{"k":"ORH","s":0.013},"geometry":{"type":"Polygon","coordinates":[]}},{"type":"Feature","properties":{"k":"LIF","s":4.996},"geometry":{"type":"Polygon","coordinates":[[[1.95954,50.56168],[1.95901,50.56156],[1.95828,50.56205],[1.96328,50.56543],[1.96435,50.56486],[1.95954,50.56168]]]}},{"type":"Feature","properties":{"k":"PHF","s":7.238},"geometry":{"type":"Polygon","coordinates":[[[1.95624,50.56343],[1.95663,50.56396],[1.95803,50.56321],[1.96022,50.56504],[1.96134,50.56645],[1.96328,50.56543],[1.95828,50.56205],[1.95624,50.56343]]]}},{"type":"Feature","properties":{"k":"ORP","s":0.301},"geometry":{"type":"Polygon","coordinates":[[[1.96216,50.56768],[1.96172,50.56811],[1.96231,50.5684],[1.96275,50.56798],[1.96216,50.56768]]]}},{"type":"Feature","properties":{"k":"ORH","s":12.27},"geometry":{"type":"Polygon","coordinates":[[[1.96299,50.56982],[1.96452,50.56837],[1.96409,50.56817],[1.96463,50.56767],[1.96657,50.56584],[1.965,50.56529],[1.96435,50.56486],[1.95949,50.56742],[1.96299,50.56982]],[[1.96275,50.56798],[1.96231,50.5684],[1.96172,50.56811],[1.96216,50.56768],[1.96275,50.56798]]]}},{"type":"Feature","properties":{"k":"BTN","s":1.518},"geometry":{"type":"Polygon","coordinates":[[[1.96636,50.56914],[1.96728,50.56952],[1.9685,50.56841],[1.96778,50.56817],[1.9692,50.56677],[1.96899,50.56669],[1.96636,50.56914]]]}},{"type":"Feature","properties":{"k":"BTH","s":3.602},"geometry":{"type":"Polygon","coordinates":[[[1.96505,50.56858],[1.96634,50.56913],[1.96899,50.56669],[1.96763,50.5662],[1.96505,50.56858]]]}},{"type":"Feature","properties":{"k":"ORH","s":2.559},"geometry":{"type":"Polygon","coordinates":[[[1.96412,50.56817],[1.96504,50.56858],[1.9676,50.56621],[1.96658,50.56586],[1.96412,50.56817]]]}},{"type":"Feature","properties":{"k":"ORH","s":3.663},"geometry":{"type":"Polygon","coordinates":[[[1.96418,50.57094],[1.96567,50.5718],[1.9678,50.56975],[1.96622,50.56908],[1.96418,50.57094]]]}},{"type":"Feature","properties":{"k":"PPH","s":1.365},"geometry":{"type":"Polygon","coordinates":[[[1.96936,50.57009],[1.96805,50.56954],[1.96729,50.57025],[1.96816,50.57121],[1.96936,50.57009]]]}},{"type":"Feature","properties":{"k":"BTH","s":2.113},"geometry":{"type":"Polygon","coordinates":[[[1.9678,50.56974],[1.96805,50.56951],[1.96936,50.57008],[1.9704,50.56915],[1.9685,50.56841],[1.96728,50.56952],[1.9678,50.56974]]]}},{"type":"Feature","properties":{"k":"PPH","s":3.428},"geometry":{"type":"Polygon","coordinates":[[[1.97233,50.57167],[1.97228,50.57141],[1.96931,50.57033],[1.96829,50.57125],[1.96862,50.5717],[1.96805,50.57244],[1.96944,50.57243],[1.97019,50.57176],[1.97201,50.57159],[1.97233,50.57167]]]}},{"type":"Feature","properties":{"k":"PPH","s":0.057},"geometry":{"type":"MultiPolygon","coordinates":[[[[1.97198,50.57158],[1.97201,50.57159],[1.97201,50.57158],[1.97198,50.57158]]],[[[1.9712,50.57163],[1.97187,50.57174],[1.97195,50.57158],[1.9712,50.57163]]],[[[1.97099,50.57216],[1.97106,50.5719],[1.97089,50.57226],[1.97099,50.57216]]]]}},{"type":"Feature","properties":{"k":"PPH","s":0.87},"geometry":{"type":"Polygon","coordinates":[[[1.97114,50.57164],[1.97019,50.57176],[1.96944,50.57243],[1.97028,50.57286],[1.97114,50.57164]]]}},{"type":"Feature","properties":{"k":"MIS","s":0.718},"geometry":{"type":"Polygon","coordinates":[[[1.96805,50.57244],[1.96862,50.5717],[1.96829,50.57125],[1.96697,50.57241],[1.96805,50.57244]]]}},{"type":"Feature","properties":{"k":"MIS","s":1.979},"geometry":{"type":"Polygon","coordinates":[[[1.9668,50.57238],[1.96816,50.57121],[1.96729,50.57025],[1.96568,50.57179],[1.9668,50.57238]]]}},{"type":"Feature","properties":{"k":"PPH","s":1.15},"geometry":{"type":"Polygon","coordinates":[[[1.96578,50.57262],[1.96647,50.57244],[1.96643,50.5723],[1.96439,50.57121],[1.96378,50.57158],[1.96578,50.57262]]]}},{"type":"Feature","properties":{"k":"PPH","s":2.475},"geometry":{"type":"Polygon","coordinates":[[[1.96191,50.57308],[1.96256,50.57281],[1.96271,50.57293],[1.96258,50.57313],[1.96324,50.57325],[1.96457,50.57296],[1.96433,50.57255],[1.9647,50.57247],[1.96482,50.57277],[1.96548,50.57248],[1.96378,50.57159],[1.96261,50.57254],[1.96122,50.57327],[1.96161,50.57346],[1.96211,50.5734],[1.96191,50.57308]]]}},{"type":"Feature","properties":{"k":"BTH","s":2.602},"geometry":{"type":"Polygon","coordinates":[[[1.96485,50.5685],[1.96325,50.57002],[1.96417,50.57093],[1.96621,50.56909],[1.96485,50.5685]]]}},{"type":"Feature","properties":{"k":"MLG","s":0.577},"geometry":{"type":"Polygon","coordinates":[[[1.96454,50.56836],[1.96416,50.5687],[1.96297,50.56985],[1.96321,50.57004],[1.96487,50.56849],[1.96454,50.56836]]]}},{"type":"Feature","properties":{"k":"ORH","s":2.85},"geometry":{"type":"Polygon","coordinates":[[[1.96272,50.57122],[1.96216,50.57172],[1.96278,50.57222],[1.96428,50.5712],[1.96256,50.56961],[1.96204,50.56933],[1.9616,50.57042],[1.96272,50.57122]]]}},{"type":"Feature","properties":{"k":"PPH","s":1.134},"geometry":{"type":"MultiPolygon","coordinates":[[[[1.96204,50.56933],[1.96256,50.56961],[1.96197,50.56914],[1.96018,50.57064],[1.96035,50.57074],[1.96094,50.57017],[1.96146,50.57043],[1.96204,50.56933]]],[[[1.96428,50.5712],[1.96278,50.57222],[1.96216,50.57172],[1.96272,50.57122],[1.96197,50.57071],[1.96154,50.57078],[1.96167,50.57106],[1.96198,50.57089],[1.9625,50.57122],[1.96199,50.57183],[1.96259,50.57242],[1.96436,50.5712],[1.96345,50.5703],[1.96256,50.56961],[1.96428,50.5712]]]]}},{"type":"Feature","properties":{"k":"ORH","s":2.82},"geometry":{"type":"Polygon","coordinates":[[[1.96072,50.56839],[1.95871,50.56971],[1.96018,50.57064],[1.96197,50.56914],[1.96072,50.56839]]]}},{"type":"Feature","properties":{"k":"PPH","s":1.38},"geometry":{"type":"Polygon","coordinates":[[[1.96132,50.57137],[1.96016,50.57063],[1.95863,50.57159],[1.95919,50.57188],[1.95957,50.57158],[1.96014,50.57193],[1.96132,50.57137]]]}},{"type":"Feature","properties":{"k":"PPH","s":1.316},"geometry":{"type":"Polygon","coordinates":[[[1.96199,50.57183],[1.96037,50.57264],[1.96122,50.57327],[1.96259,50.5725],[1.96199,50.57183]]]}},{"type":"Feature","properties":{"k":"PPH","s":0.556},"geometry":{"type":"Polygon","coordinates":[[[1.95965,50.5703],[1.95806,50.57129],[1.95833,50.57144],[1.95889,50.57105],[1.95914,50.57119],[1.96008,50.57056],[1.95965,50.5703]]]}},{"type":"Feature","properties":{"k":"PPH","s":2.066},"geometry":{"type":"Polygon","coordinates":[[[1.95335,50.56891],[1.95501,50.56972],[1.95638,50.5687],[1.95465,50.56803],[1.95335,50.56891]]]}},{"type":"Feature","properties":{"k":"MIS","s":1.866},"geometry":{"type":"Polygon","coordinates":[[[1.95819,50.57053],[1.95909,50.56997],[1.95767,50.56909],[1.95678,50.56886],[1.95605,50.5694],[1.95819,50.57053]]]}},{"type":"Feature","properties":{"k":"MIS","s":1.314},"geometry":{"type":"Polygon","coordinates":[[[1.95816,50.57055],[1.95602,50.56942],[1.9554,50.56988],[1.95747,50.57098],[1.95816,50.57055]]]}},{"type":"Feature","properties":{"k":"PPH","s":0.86},"geometry":{"type":"Polygon","coordinates":[[[1.95747,50.57098],[1.95806,50.57129],[1.95965,50.5703],[1.95909,50.56997],[1.95747,50.57098]]]}},{"type":"Feature","properties":{"k":"CZH","s":1.982},"geometry":{"type":"Polygon","coordinates":[[[1.95466,50.56803],[1.95767,50.56909],[1.95868,50.56969],[1.95632,50.56738],[1.95466,50.56803]]]}},{"type":"Feature","properties":{"k":"PTC","s":5.007},"geometry":{"type":"Polygon","coordinates":[[[1.95457,50.56492],[1.95632,50.56738],[1.95872,50.56967],[1.95943,50.56922],[1.95548,50.5646],[1.95457,50.56492]]]}},{"type":"Feature","properties":{"k":"FVP","s":3.819},"geometry":{"type":"Polygon","coordinates":[[[1.95781,50.56604],[1.95664,50.56419],[1.95548,50.5646],[1.95939,50.56918],[1.96063,50.56833],[1.95852,50.56679],[1.95781,50.56604]],[[1.95951,50.5687],[1.95777,50.56677],[1.95588,50.56464],[1.95611,50.56453],[1.95974,50.56859],[1.95951,50.5687]]]}},{"type":"Feature","properties":{"k":"BTN","s":1.064},"geometry":{"type":"Polygon","coordinates":[[[1.95951,50.5687],[1.95974,50.56859],[1.95611,50.56453],[1.95588,50.56464],[1.95951,50.5687]]]}},{"type":"Feature","properties":{"k":"BTH","s":7.541},"geometry":{"type":"Polygon","coordinates":[[[1.95783,50.56594],[1.95857,50.56676],[1.95949,50.56742],[1.96135,50.56645],[1.96022,50.56504],[1.95803,50.56321],[1.95663,50.56396],[1.95783,50.56594]]]}},{"type":"Feature","properties":{"k":"FVP","s":3.998},"geometry":{"type":"Polygon","coordinates":[[[1.95457,50.56492],[1.95294,50.56552],[1.95465,50.56803],[1.95632,50.56738],[1.95457,50.56492]]]}},{"type":"Feature","properties":{"k":"PPH","s":1.986},"geometry":{"type":"Polygon","coordinates":[[[1.95408,50.56826],[1.95327,50.56877],[1.95336,50.56884],[1.95465,50.56803],[1.95294,50.56552],[1.9521,50.56582],[1.95408,50.56826]]]}},{"type":"Feature","properties":{"k":"CZH","s":0.408},"geometry":{"type":"Polygon","coordinates":[[[1.95195,50.56844],[1.9521,50.5685],[1.95255,50.56812],[1.95176,50.56717],[1.95169,50.5675],[1.95131,50.5677],[1.9523,50.56816],[1.95195,50.56844]]]}},{"type":"Feature","properties":{"k":"FVP","s":0.398},"geometry":{"type":"Polygon","coordinates":[[[1.95084,50.56796],[1.95195,50.56844],[1.9523,50.56816],[1.95131,50.5677],[1.95084,50.56796]]]}},{"type":"Feature","properties":{"k":"PPH","s":2.963},"geometry":{"type":"Polygon","coordinates":[[[1.951,50.56618],[1.95264,50.56814],[1.95211,50.5685],[1.95315,50.56885],[1.95408,50.56826],[1.9521,50.56581],[1.951,50.56618]]]}},{"type":"Feature","properties":{"k":"ORH","s":2.682},"geometry":{"type":"Polygon","coordinates":[[[1.95295,50.56549],[1.95193,50.56415],[1.94991,50.56487],[1.95096,50.56613],[1.95295,50.56549]]]}},{"type":"Feature","properties":{"k":"PPH","s":2.859},"geometry":{"type":"Polygon","coordinates":[[[1.95228,50.5711],[1.95213,50.57122],[1.94949,50.57041],[1.95059,50.57137],[1.95362,50.57273],[1.95455,50.57184],[1.95228,50.5711]]]}},{"type":"Feature","properties":{"k":"BTH","s":1.521},"geometry":{"type":"Polygon","coordinates":[[[1.9515,50.57194],[1.95051,50.57147],[1.94895,50.57274],[1.94999,50.57314],[1.9515,50.57194]]]}},{"type":"Feature","properties":{"k":"PPH","s":4.906},"geometry":{"type":"Polygon","coordinates":[[[1.94929,50.57033],[1.94604,50.56866],[1.94509,50.56933],[1.94603,50.56996],[1.94633,50.56986],[1.94857,50.57129],[1.94957,50.5717],[1.94813,50.57247],[1.94891,50.57278],[1.95052,50.57146],[1.94929,50.57033]]]}},{"type":"Feature","properties":{"k":"ORH","s":6.846},"geometry":{"type":"Polygon","coordinates":[[[1.93577,50.57367],[1.93862,50.57445],[1.93922,50.573],[1.93793,50.57263],[1.93999,50.57066],[1.93867,50.57002],[1.93644,50.57228],[1.93577,50.57367]]]}},{"type":"Feature","properties":{"k":"MIS","s":1.672},"geometry":{"type":"Polygon","coordinates":[[[1.93637,50.56876],[1.93265,50.57166],[1.93182,50.57266],[1.93197,50.5727],[1.9367,50.56895],[1.93637,50.56876]]]}},{"type":"Feature","properties":{"k":"BTN","s":3.205},"geometry":{"type":"Polygon","coordinates":[[[1.93215,50.57256],[1.93303,50.57276],[1.93738,50.56934],[1.9367,50.56895],[1.93215,50.57256]]]}},{"type":"Feature","properties":{"k":"BTH","s":7.376},"geometry":{"type":"Polygon","coordinates":[[[1.93577,50.57367],[1.93668,50.57195],[1.93867,50.57002],[1.93738,50.56934],[1.93287,50.57289],[1.93577,50.57367]]]}},{"type":"Feature","properties":{"k":"BTH","s":1.874},"geometry":{"type":"Polygon","coordinates":[[[1.9362,50.56866],[1.93207,50.57104],[1.93265,50.57166],[1.93633,50.56873],[1.9362,50.56866]]]}},{"type":"Feature","properties":{"k":"MIS","s":2.035},"geometry":{"type":"Polygon","coordinates":[[[1.93164,50.57066],[1.93207,50.57104],[1.9362,50.56866],[1.93563,50.56835],[1.93164,50.57066]]]}},{"type":"Feature","properties":{"k":"PPH","s":1.676},"geometry":{"type":"Polygon","coordinates":[[[1.93862,50.56959],[1.93622,50.56801],[1.93563,50.56835],[1.94,50.57069],[1.94025,50.57042],[1.93862,50.56959]]]}},{"type":"Feature","properties":{"k":"PPH","s":1.935},"geometry":{"type":"Polygon","coordinates":[[[1.9344,50.56879],[1.93454,50.56901],[1.93622,50.56801],[1.93759,50.56671],[1.93725,50.56658],[1.93907,50.56479],[1.93756,50.56474],[1.93712,50.56679],[1.9356,50.56805],[1.9344,50.56879]]]}},{"type":"Feature","properties":{"k":"MIS","s":3.067},"geometry":{"type":"Polygon","coordinates":[[[1.93756,50.56474],[1.93633,50.56465],[1.93528,50.56825],[1.93715,50.56666],[1.93756,50.56474]]]}},{"type":"Feature","properties":{"k":"PTR","s":5.328},"geometry":{"type":"Polygon","coordinates":[[[1.93616,50.56465],[1.93606,50.56502],[1.93404,50.56519],[1.93343,50.56726],[1.9344,50.56879],[1.93528,50.56825],[1.93633,50.56465],[1.93616,50.56465]]]}},{"type":"Feature","properties":{"k":"PPH","s":0.716},"geometry":{"type":"MultiPolygon","coordinates":[[[[1.93606,50.56502],[1.93616,50.56465],[1.93456,50.56454],[1.93407,50.56515],[1.93606,50.56502]]]]}},{"type":"Feature","properties":{"k":"MIS","s":0.644},"geometry":{"type":"Polygon","coordinates":[[[1.94007,50.56609],[1.94074,50.56501],[1.93999,50.56481],[1.93953,50.56508],[1.94007,50.56609]]]}},{"type":"Feature","properties":{"k":"MLG","s":0.883},"geometry":{"type":"Polygon","coordinates":[[[1.94007,50.56612],[1.93952,50.56508],[1.93909,50.56478],[1.9386,50.56524],[1.9399,50.56666],[1.94007,50.56612]]]}},{"type":"Feature","properties":{"k":"MIS","s":2.712},"geometry":{"type":"Polygon","coordinates":[[[1.94201,50.56588],[1.94249,50.56695],[1.94414,50.56802],[1.94404,50.56856],[1.94508,50.56932],[1.94602,50.56864],[1.94342,50.56697],[1.94278,50.56641],[1.94237,50.5657],[1.9409,50.56507],[1.94201,50.56588]]]}},{"type":"Feature","properties":{"k":"BTH","s":2.052},"geometry":{"type":"Polygon","coordinates":[[[1.94338,50.56605],[1.94248,50.56575],[1.94282,50.56638],[1.94433,50.56754],[1.946,50.56654],[1.94338,50.56605]]]}},{"type":"Feature","properties":{"k":"PPH","s":7.391},"geometry":{"type":"Polygon","coordinates":[[[1.94586,50.56464],[1.94383,50.5636],[1.94131,50.56514],[1.9431,50.56587],[1.94799,50.5668],[1.94586,50.56464]],[[1.94629,50.5663],[1.94591,50.56622],[1.94594,50.56619],[1.94629,50.5663]]]}},{"type":"Feature","properties":{"k":"MIS","s":6.505},"geometry":{"type":"Polygon","coordinates":[[[1.94237,50.56205],[1.94383,50.5636],[1.94586,50.56464],[1.94799,50.5668],[1.94927,50.56724],[1.94513,50.5629],[1.94427,50.56165],[1.9434,50.56095],[1.94237,50.56205]]]}},{"type":"Feature","properties":{"k":"MIS","s":1.39},"geometry":{"type":"Polygon","coordinates":[[[1.942,50.56333],[1.94043,50.56481],[1.94128,50.56513],[1.94281,50.5637],[1.942,50.56333]]]}},{"type":"Feature","properties":{"k":"PTR","s":1.381},"geometry":{"type":"Polygon","coordinates":[[[1.94385,50.56358],[1.94282,50.56254],[1.942,50.56333],[1.94281,50.5637],[1.94131,50.56514],[1.94385,50.56358]]]}},{"type":"Feature","properties":{"k":"MIS","s":6.063},"geometry":{"type":"Polygon","coordinates":[[[1.94044,50.5648],[1.94282,50.56254],[1.94237,50.56205],[1.9434,50.56095],[1.94267,50.56034],[1.94104,50.56202],[1.94041,50.56201],[1.93913,50.5647],[1.94044,50.5648]]]}},{"type":"Feature","properties":{"k":"ORH","s":2.807},"geometry":{"type":"Polygon","coordinates":[[[1.94809,50.5597],[1.94695,50.55927],[1.94361,50.56091],[1.94431,50.56155],[1.94809,50.5597]]]}},{"type":"Feature","properties":{"k":"PHF","s":2.488},"geometry":{"type":"Polygon","coordinates":[[[1.94449,50.55891],[1.94237,50.55996],[1.94351,50.56092],[1.94555,50.55986],[1.94449,50.55891]]]}},{"type":"Feature","properties":{"k":"ORH","s":1.501},"geometry":{"type":"Polygon","coordinates":[[[1.94289,50.55759],[1.94555,50.55986],[1.94606,50.55961],[1.94349,50.55731],[1.94289,50.55759]]]}},{"type":"Feature","properties":{"k":"ORH","s":3.472},"geometry":{"type":"Polygon","coordinates":[[[1.94449,50.55891],[1.94289,50.55759],[1.941,50.55852],[1.94132,50.55906],[1.94239,50.55995],[1.94449,50.55891]]]}},{"type":"Feature","properties":{"k":"ORH","s":0.012},"geometry":{"type":"MultiPolygon","coordinates":[[[[1.9426,50.55773],[1.941,50.55851],[1.941,50.55852],[1.9426,50.55773]]],[[[1.94348,50.5573],[1.94301,50.55753],[1.94349,50.55731],[1.94348,50.5573]]]]}},{"type":"Feature","properties":{"k":"MIS","s":1.005},"geometry":{"type":"Polygon","coordinates":[[[1.94148,50.55935],[1.94096,50.55879],[1.93955,50.56016],[1.94045,50.56033],[1.94148,50.55935]]]}},{"type":"Feature","properties":{"k":"BTH","s":1.651},"geometry":{"type":"Polygon","coordinates":[[[1.93997,50.56197],[1.94103,50.56203],[1.94267,50.56034],[1.94205,50.55984],[1.93997,50.56197]]]}},{"type":"Feature","properties":{"k":"MIS","s":2.03},"geometry":{"type":"Polygon","coordinates":[[[1.94206,50.55983],[1.94147,50.55937],[1.93895,50.56194],[1.93995,50.56198],[1.94206,50.55983]]]}},{"type":"Feature","properties":{"k":"BTH","s":2.216},"geometry":{"type":"Polygon","coordinates":[[[1.93608,50.56016],[1.93754,50.56064],[1.9389,50.5592],[1.93732,50.55872],[1.93608,50.56016]]]}},{"type":"Feature","properties":{"k":"BTH","s":5.369},"geometry":{"type":"Polygon","coordinates":[[[1.93759,50.5606],[1.93743,50.5618],[1.93895,50.56193],[1.94045,50.56033],[1.93955,50.56016],[1.94096,50.55879],[1.9405,50.55771],[1.93759,50.5606]]]}},{"type":"Feature","properties":{"k":"BTH","s":0.015},"geometry":{"type":"Polygon","coordinates":[]}},{"type":"Feature","properties":{"k":"BTH","s":6.469},"geometry":{"type":"Polygon","coordinates":[[[1.94046,50.55753],[1.94005,50.5566],[1.93895,50.55558],[1.9356,50.55975],[1.93623,50.55998],[1.93733,50.55869],[1.93889,50.55918],[1.94046,50.55753]]]}},{"type":"Feature","properties":{"k":"PPH","s":0.0},"geometry":{"type":"Polygon","coordinates":[]}},{"type":"Feature","properties":{"k":"MIS","s":0.007},"geometry":{"type":"Polygon","coordinates":[[[1.93641,50.55884],[1.93543,50.55992],[1.93544,50.55993],[1.93641,50.55884]]]}},{"type":"Feature","properties":{"k":"BOR","s":0.113},"geometry":{"type":"Polygon","coordinates":[[[1.93544,50.55994],[1.9361,50.56014],[1.93623,50.55998],[1.9356,50.55975],[1.93544,50.55994]]]}},{"type":"Feature","properties":{"k":"CPL","s":0.044},"geometry":{"type":"Polygon","coordinates":[[[1.93541,50.55997],[1.93533,50.56041],[1.93564,50.56003],[1.93541,50.55997]]]}},{"type":"Feature","properties":{"k":"MLG","s":2.918},"geometry":{"type":"Polygon","coordinates":[[[1.93462,50.56441],[1.93557,50.56449],[1.93613,50.56018],[1.93564,50.56003],[1.93533,50.56041],[1.93462,50.56441]]]}},{"type":"Feature","properties":{"k":"CPL","s":4.554},"geometry":{"type":"Polygon","coordinates":[[[1.93702,50.56443],[1.93755,50.56065],[1.93613,50.56018],[1.93559,50.56431],[1.93702,50.56443]]]}},{"type":"Feature","properties":{"k":"CZH","s":2.618},"geometry":{"type":"Polygon","coordinates":[[[1.93865,50.56192],[1.93743,50.5618],[1.93701,50.56461],[1.93812,50.56469],[1.93865,50.56192]]]}},{"type":"Feature","properties":{"k":"BTH","s":2.897},"geometry":{"type":"Polygon","coordinates":[[[1.93901,50.5647],[1.94041,50.56201],[1.93865,50.56192],[1.93812,50.56469],[1.93901,50.5647]]]}},{"type":"Feature","properties":{"k":"PTR","s":0.153},"geometry":{"type":"Polygon","coordinates":[[[1.93674,50.56459],[1.93692,50.5646],[1.93659,50.5644],[1.93559,50.56431],[1.93557,50.56449],[1.93674,50.56459]]]}},{"type":"Feature","properties":{"k":"PTR","s":0.052},"geometry":{"type":"Polygon","coordinates":[[[1.93454,50.56901],[1.93342,50.56715],[1.93451,50.56901],[1.93291,50.56993],[1.93454,50.56901]]]}},{"type":"Feature","properties":{"k":"BTH","s":0.017},"geometry":{"type":"MultiPolygon","coordinates":[[[[1.93262,50.57169],[1.93264,50.57158],[1.93218,50.57218],[1.93262,50.57169]]]]}},{"type":"Feature","properties":{"k":"BTP","s":0.096},"geometry":{"type":"Polygon","coordinates":[[[1.93296,50.57362],[1.93314,50.57365],[1.93337,50.57307],[1.93296,50.57362]]]}},{"type":"Feature","properties":{"k":"LUZ","s":0.0},"geometry":{"type":"Polygon","coordinates":[]}},{"type":"Feature","properties":{"k":"MIS","s":2.949},"geometry":{"type":"Polygon","coordinates":[[[1.93091,50.5773],[1.93391,50.57821],[1.93503,50.57758],[1.93056,50.57615],[1.93091,50.5773]]]}},{"type":"Feature","properties":{"k":"BTN","s":0.063},"geometry":{"type":"MultiPolygon","coordinates":[[[[1.93454,50.57844],[1.93454,50.57845],[1.93455,50.57845],[1.93454,50.57844]]],[[[1.93118,50.57737],[1.93453,50.57844],[1.93391,50.57821],[1.93118,50.57737]]]]}},{"type":"Feature","properties":{"k":"ORH","s":0.002},"geometry":{"type":"Polygon","coordinates":[[[1.93091,50.5773],[1.93118,50.57738],[1.93118,50.57737],[1.93091,50.5773]]]}},{"type":"Feature","properties":{"k":"ORH","s":0.027},"geometry":{"type":"Polygon","coordinates":[]}},{"type":"Feature","properties":{"k":"PPH","s":6.524},"geometry":{"type":"Polygon","coordinates":[[[1.94812,50.58378],[1.94793,50.5837],[1.94638,50.58441],[1.94619,50.58427],[1.94776,50.5836],[1.94268,50.58149],[1.94157,50.58261],[1.94675,50.58484],[1.94812,50.58378]],[[1.94635,50.58335],[1.94618,50.58329],[1.94627,50.58314],[1.94647,50.58321],[1.94635,50.58335]]]}},{"type":"Feature","properties":{"k":"PPH","s":0.091},"geometry":{"type":"Polygon","coordinates":[[[1.94046,50.58218],[1.94322,50.5833],[1.94157,50.58261],[1.94046,50.58218]]]}},{"type":"Feature","properties":{"k":"BTH","s":14.709},"geometry":{"type":"Polygon","coordinates":[[[1.94154,50.58259],[1.94268,50.58141],[1.94389,50.58192],[1.94524,50.58055],[1.94404,50.58006],[1.94468,50.57938],[1.93763,50.57921],[1.93734,50.57907],[1.93629,50.58004],[1.93804,50.5811],[1.94154,50.58259]]]}},{"type":"Feature","properties":{"k":"BTH","s":2.02},"geometry":{"type":"Polygon","coordinates":[[[1.94524,50.58055],[1.94389,50.58192],[1.9452,50.58248],[1.94656,50.58109],[1.94524,50.58055]]]}},{"type":"Feature","properties":{"k":"PPH","s":2.275},"geometry":{"type":"Polygon","coordinates":[[[1.9447,50.57938],[1.94406,50.58005],[1.94602,50.58087],[1.94738,50.57953],[1.9447,50.57938]]]}},{"type":"Feature","properties":{"k":"ORH","s":1.276},"geometry":{"type":"Polygon","coordinates":[[[1.94414,50.57837],[1.94537,50.5771],[1.9445,50.57675],[1.94315,50.57811],[1.94414,50.57837]]]}},{"type":"Feature","properties":{"k":"BTH","s":5.598},"geometry":{"type":"Polygon","coordinates":[[[1.94325,50.57931],[1.94413,50.57837],[1.94016,50.57731],[1.93829,50.57918],[1.94325,50.57931]]]}},{"type":"Feature","properties":{"k":"ORH","s":6.632},"geometry":{"type":"Polygon","coordinates":[[[1.93901,50.57699],[1.93708,50.57642],[1.93391,50.57821],[1.93455,50.57845],[1.93629,50.58004],[1.93727,50.57914],[1.93706,50.57897],[1.93901,50.57699]]]}},{"type":"Feature","properties":{"k":"BTH","s":2.055},"geometry":{"type":"Polygon","coordinates":[[[1.93825,50.57918],[1.9401,50.57731],[1.93903,50.57702],[1.93722,50.57887],[1.93741,50.57904],[1.93825,50.57918]]]}},{"type":"Feature","properties":{"k":"PTC","s":4.542},"geometry":{"type":"Polygon","coordinates":[[[1.93762,50.5766],[1.94035,50.57736],[1.94239,50.57586],[1.94031,50.57501],[1.93762,50.5766]]]}},{"type":"Feature","properties":{"k":"PPH","s":1.084},"geometry":{"type":"Polygon","coordinates":[[[1.93762,50.5766],[1.94041,50.57496],[1.9399,50.57477],[1.93708,50.57642],[1.93762,50.5766]]]}},{"type":"Feature","properties":{"k":"PPH","s":8.178},"geometry":{"type":"Polygon","coordinates":[[[1.9324,50.57515],[1.93131,50.57639],[1.93503,50.57758],[1.9399,50.57477],[1.93818,50.5744],[1.93681,50.57596],[1.9324,50.57515]]]}},{"type":"Feature","properties":{"k":"ORH","s":2.845},"geometry":{"type":"Polygon","coordinates":[[[1.93681,50.57596],[1.9374,50.57529],[1.93267,50.57441],[1.93241,50.57514],[1.93681,50.57596]]]}},{"type":"Feature","properties":{"k":"BTH","s":10.302},"geometry":{"type":"Polygon","coordinates":[[[1.93818,50.5744],[1.93337,50.57307],[1.93314,50.57365],[1.93296,50.57362],[1.93317,50.57302],[1.93284,50.57293],[1.93177,50.5727],[1.93058,50.57357],[1.93013,50.57474],[1.93056,50.57615],[1.93131,50.57639],[1.93241,50.57514],[1.93267,50.57441],[1.9374,50.57529],[1.93818,50.5744]]]}},{"type":"Feature","properties":{"k":"PPH","s":0.894},"geometry":{"type":"Polygon","coordinates":[[[1.94051,50.57382],[1.93969,50.57354],[1.939,50.57452],[1.93982,50.57468],[1.94081,50.57397],[1.94069,50.57368],[1.94051,50.57382]]]}},{"type":"Feature","properties":{"k":"PPH","s":10.284},"geometry":{"type":"Polygon","coordinates":[[[1.93793,50.57263],[1.93922,50.573],[1.93862,50.57445],[1.939,50.57452],[1.93969,50.57354],[1.94037,50.57373],[1.9411,50.57313],[1.94089,50.57299],[1.94153,50.57257],[1.94235,50.57301],[1.942,50.57357],[1.94134,50.57372],[1.94011,50.57478],[1.94104,50.57514],[1.94286,50.5741],[1.94297,50.57386],[1.94469,50.57328],[1.9403,50.57045],[1.93793,50.57263]]]}},{"type":"Feature","properties":{"k":"MIS","s":2.357},"geometry":{"type":"Polygon","coordinates":[[[1.94298,50.57386],[1.94288,50.57409],[1.94103,50.57516],[1.94208,50.57564],[1.94558,50.57301],[1.94298,50.57386]]]}},{"type":"Feature","properties":{"k":"PPH","s":0.603},"geometry":{"type":"Polygon","coordinates":[[[1.9418,50.577],[1.94293,50.57609],[1.94239,50.57586],[1.94128,50.57669],[1.9418,50.577]]]}},{"type":"Feature","properties":{"k":"MIS","s":2.977},"geometry":{"type":"Polygon","coordinates":[[[1.94665,50.57423],[1.94548,50.57376],[1.94266,50.57591],[1.94379,50.57639],[1.94665,50.57423]]]}},{"type":"Feature","properties":{"k":"BTP","s":2.137},"geometry":{"type":"Polygon","coordinates":[[[1.94531,50.57703],[1.94823,50.57483],[1.94737,50.57452],[1.94454,50.57671],[1.94531,50.57703]]]}},{"type":"Feature","properties":{"k":"MIS","s":1.99},"geometry":{"type":"Polygon","coordinates":[[[1.94379,50.57639],[1.94454,50.5767],[1.94737,50.57452],[1.94665,50.57423],[1.94379,50.57639]]]}},{"type":"Feature","properties":{"k":"PTC","s":2.0},"geometry":{"type":"Polygon","coordinates":[[[1.94654,50.57292],[1.94558,50.57301],[1.94208,50.57564],[1.94266,50.57591],[1.94654,50.57292]]]}},{"type":"Feature","properties":{"k":"BTP","s":2.549},"geometry":{"type":"Polygon","coordinates":[[[1.94733,50.57649],[1.9462,50.57737],[1.94716,50.57776],[1.95001,50.57557],[1.94905,50.57519],[1.94733,50.57649]]]}},{"type":"Feature","properties":{"k":"MIS","s":10.497},"geometry":{"type":"Polygon","coordinates":[[[1.94619,50.57736],[1.94905,50.57518],[1.95003,50.57557],[1.95216,50.57418],[1.95214,50.57406],[1.94817,50.57249],[1.94741,50.57284],[1.9465,50.57297],[1.94548,50.57376],[1.94823,50.57483],[1.94533,50.57702],[1.94619,50.57736]]]}},{"type":"Feature","properties":{"k":"BTH","s":2.179},"geometry":{"type":"Polygon","coordinates":[[[1.95056,50.57636],[1.9496,50.57595],[1.94725,50.57775],[1.94815,50.57822],[1.95056,50.57636]]]}},{"type":"Feature","properties":{"k":"BTH","s":6.307},"geometry":{"type":"Polygon","coordinates":[[[1.94537,50.5771],[1.94326,50.57931],[1.94667,50.57937],[1.94857,50.57973],[1.94944,50.57968],[1.94955,50.5795],[1.94823,50.57914],[1.94872,50.57854],[1.94537,50.5771]],[[1.94531,50.57745],[1.94519,50.57741],[1.94532,50.57728],[1.94531,50.57745]]]}},{"type":"Feature","properties":{"k":"PPH","s":0.624},"geometry":{"type":"Polygon","coordinates":[[[1.94983,50.579],[1.94872,50.57856],[1.94825,50.57913],[1.94953,50.57948],[1.94983,50.579]]]}},{"type":"Feature","properties":{"k":"PPH","s":2.222},"geometry":{"type":"Polygon","coordinates":[[[1.95164,50.57829],[1.95119,50.57921],[1.95351,50.57924],[1.95399,50.57837],[1.95264,50.57782],[1.95164,50.57829]]]}},{"type":"Feature","properties":{"k":"PPH","s":2.745},"geometry":{"type":"Polygon","coordinates":[[[1.95155,50.57675],[1.95083,50.57726],[1.95276,50.5778],[1.95297,50.5777],[1.95407,50.57815],[1.95452,50.57771],[1.95178,50.57656],[1.95203,50.57638],[1.95006,50.57563],[1.9496,50.57595],[1.95155,50.57675]]]}},{"type":"Feature","properties":{"k":"PPH","s":0.516},"geometry":{"type":"Polygon","coordinates":[[[1.95685,50.57902],[1.95659,50.57899],[1.95524,50.57982],[1.95676,50.57977],[1.95685,50.57902]]]}},{"type":"Feature","properties":{"k":"PTC","s":1.672},"geometry":{"type":"Polygon","coordinates":[[[1.95911,50.58089],[1.95999,50.58057],[1.95894,50.57913],[1.95843,50.57896],[1.95768,50.57925],[1.95911,50.58089]]]}},{"type":"Feature","properties":{"k":"PPH","s":0.868},"geometry":{"type":"Polygon","coordinates":[[[1.95683,50.57987],[1.95727,50.57985],[1.95787,50.57951],[1.95768,50.57925],[1.95844,50.57897],[1.95704,50.57878],[1.95683,50.57987]]]}},{"type":"Feature","properties":{"k":"PPH","s":1.589},"geometry":{"type":"Polygon","coordinates":[[[1.95638,50.57478],[1.95597,50.57495],[1.95658,50.57554],[1.95568,50.57588],[1.95636,50.57655],[1.95747,50.57624],[1.95796,50.57665],[1.95832,50.57642],[1.95638,50.57478]]]}},{"type":"Feature","properties":{"k":"PPH","s":6.962},"geometry":{"type":"Polygon","coordinates":[[[1.95144,50.57481],[1.95007,50.57562],[1.95207,50.57637],[1.95179,50.57656],[1.95487,50.57787],[1.95522,50.57766],[1.95488,50.57741],[1.95535,50.57719],[1.95524,50.5769],[1.95573,50.57655],[1.95659,50.57739],[1.95695,50.57725],[1.95493,50.57516],[1.95304,50.5756],[1.95144,50.57481]]]}},{"type":"Feature","properties":{"k":"PPH","s":2.156},"geometry":{"type":"Polygon","coordinates":[[[1.95305,50.57559],[1.95436,50.57527],[1.95357,50.57409],[1.9523,50.57417],[1.95142,50.57478],[1.95305,50.57559]]]}},{"type":"Feature","properties":{"k":"PPH","s":2.625},"geometry":{"type":"Polygon","coordinates":[[[1.95439,50.57526],[1.95493,50.57514],[1.95569,50.57587],[1.95657,50.57554],[1.95596,50.57495],[1.95717,50.57441],[1.95596,50.5741],[1.95362,50.5741],[1.95439,50.57526]]]}},{"type":"Feature","properties":{"k":"PTC","s":5.15},"geometry":{"type":"Polygon","coordinates":[[[1.95234,50.5741],[1.95529,50.57407],[1.95577,50.57391],[1.95469,50.57327],[1.9515,50.57194],[1.94999,50.57314],[1.95234,50.5741]]]}},{"type":"Feature","properties":{"k":"PPH","s":3.879},"geometry":{"type":"Polygon","coordinates":[[[1.95554,50.57354],[1.95604,50.57404],[1.95717,50.57436],[1.95763,50.57435],[1.9579,50.57384],[1.95835,50.57388],[1.9584,50.57356],[1.95692,50.57302],[1.95455,50.57184],[1.95362,50.57273],[1.95554,50.57354]]]}},{"type":"Feature","properties":{"k":"PPH","s":1.591},"geometry":{"type":"Polygon","coordinates":[[[1.9604,50.5767],[1.9613,50.57652],[1.96073,50.57634],[1.96064,50.57604],[1.96162,50.57581],[1.96155,50.57568],[1.96179,50.57557],[1.96146,50.57545],[1.96143,50.57527],[1.96048,50.57494],[1.95997,50.57542],[1.95939,50.57568],[1.9604,50.5767]]]}},{"type":"Feature","properties":{"k":"PPH","s":0.374},"geometry":{"type":"Polygon","coordinates":[[[1.96279,50.57552],[1.96244,50.5755],[1.96241,50.57577],[1.964,50.5756],[1.9637,50.57515],[1.96279,50.57552]]]}},{"type":"Feature","properties":{"k":"PPH","s":0.264},"geometry":{"type":"Polygon","coordinates":[[[1.96352,50.57624],[1.96333,50.57604],[1.96246,50.57638],[1.96265,50.57679],[1.96352,50.57624]]]}},{"type":"Feature","properties":{"k":"PPH","s":0.876},"geometry":{"type":"Polygon","coordinates":[[[1.96475,50.575],[1.96585,50.57493],[1.96531,50.57375],[1.96481,50.57373],[1.96445,50.57444],[1.96482,50.57442],[1.96475,50.575]]]}},{"type":"Feature","properties":{"k":"PPH","s":0.574},"geometry":{"type":"Polygon","coordinates":[[[1.96678,50.57378],[1.96731,50.57385],[1.96733,50.57314],[1.96708,50.57288],[1.9663,50.57306],[1.96592,50.57268],[1.96678,50.57378]]]}},{"type":"Feature","properties":{"k":"PPH","s":0.536},"geometry":{"type":"Polygon","coordinates":[[[1.96588,50.57377],[1.96504,50.57373],[1.9653,50.57375],[1.96586,50.57496],[1.9664,50.5748],[1.96588,50.57377]]]}},{"type":"Feature","properties":{"k":"PPH","s":1.026},"geometry":{"type":"Polygon","coordinates":[[[1.96906,50.57419],[1.96895,50.57434],[1.96944,50.57448],[1.96973,50.57429],[1.9699,50.57364],[1.9687,50.57341],[1.96848,50.57366],[1.96769,50.57352],[1.96738,50.57392],[1.96735,50.57453],[1.96802,50.57462],[1.96836,50.57412],[1.9688,50.57428],[1.96906,50.57419]],[[1.96834,50.57412],[1.96817,50.57434],[1.96771,50.57438],[1.96759,50.57383],[1.96782,50.57365],[1.9686,50.57375],[1.96864,50.5741],[1.96836,50.57412],[1.96834,50.57412]],[[1.96894,50.5739],[1.96887,50.57397],[1.9688,50.57395],[1.96894,50.5739]],[[1.9695,50.5741],[1.96971,50.57416],[1.96947,50.57443],[1.96927,50.57437],[1.9695,50.5741]]]}},{"type":"Feature","properties":{"k":"MDI","s":0.448},"geometry":{"type":"Polygon","coordinates":[[[1.96864,50.5741],[1.9686,50.57373],[1.96782,50.57365],[1.96759,50.57383],[1.96771,50.57438],[1.96864,50.5741]]]}},{"type":"Feature","properties":{"k":"PPH","s":0.685},"geometry":{"type":"Polygon","coordinates":[[[1.96874,50.57257],[1.96863,50.57296],[1.96771,50.5729],[1.96772,50.57352],[1.96846,50.57364],[1.96931,50.57257],[1.96874,50.57257]]]}},{"type":"Feature","properties":{"k":"PPH","s":0.853},"geometry":{"type":"Polygon","coordinates":[[[1.96987,50.57363],[1.97004,50.57337],[1.97064,50.57308],[1.96935,50.57256],[1.96871,50.57341],[1.96987,50.57363]]]}},{"type":"Feature","properties":{"k":"MDI","s":0.056},"geometry":{"type":"Polygon","coordinates":[[[1.96947,50.57443],[1.96971,50.57416],[1.9695,50.5741],[1.96927,50.57437],[1.96947,50.57443]]]}},{"type":"Feature","properties":{"k":"MDI","s":0.021},"geometry":{"type":"Polygon","coordinates":[[[1.96895,50.57434],[1.96906,50.57419],[1.9689,50.57416],[1.96895,50.57434]]]}},{"type":"Feature","properties":{"k":"MDI","s":0.058},"geometry":{"type":"Polygon","coordinates":[[[1.96924,50.57445],[1.96886,50.57435],[1.96876,50.57451],[1.96913,50.57462],[1.96924,50.57445]]]}},{"type":"Feature","properties":{"k":"PPH","s":2.177},"geometry":{"type":"Polygon","coordinates":[[[1.96842,50.5751],[1.96718,50.57672],[1.96665,50.57649],[1.96617,50.5768],[1.96605,50.57714],[1.96785,50.57716],[1.96887,50.57737],[1.96916,50.57683],[1.96839,50.57642],[1.96893,50.5753],[1.96864,50.57533],[1.96842,50.5751]]]}},{"type":"Feature","properties":{"k":"PTR","s":0.14},"geometry":{"type":"Polygon","coordinates":[[[1.96795,50.57505],[1.96822,50.5752],[1.96857,50.57489],[1.96805,50.57471],[1.96795,50.57505]]]}},{"type":"Feature","properties":{"k":"PPH","s":0.273},"geometry":{"type":"Polygon","coordinates":[[[1.96524,50.57566],[1.96547,50.57582],[1.96643,50.57553],[1.96596,50.57523],[1.96524,50.57566]]]}},{"type":"Feature","properties":{"k":"PPH","s":3.37},"geometry":{"type":"Polygon","coordinates":[[[1.96547,50.57582],[1.96524,50.57566],[1.96464,50.57578],[1.96617,50.5768],[1.96665,50.57649],[1.96718,50.57672],[1.96786,50.57602],[1.96826,50.57524],[1.96795,50.57505],[1.96808,50.57466],[1.96739,50.57463],[1.96598,50.575],[1.96596,50.57523],[1.96643,50.57553],[1.96547,50.57582]]]}},{"type":"Feature","properties":{"k":"MIS","s":0.011},"geometry":{"type":"MultiPolygon","coordinates":[[[[1.96759,50.5776],[1.96816,50.57772],[1.96769,50.57761],[1.96759,50.5776]]],[[[1.96698,50.57837],[1.96727,50.5777],[1.96723,50.57773],[1.96698,50.57837]]]]}},{"type":"Feature","properties":{"k":"PPH","s":0.799},"geometry":{"type":"Polygon","coordinates":[[[1.96864,50.57779],[1.96886,50.57738],[1.96783,50.57719],[1.96586,50.57725],[1.96719,50.57763],[1.96749,50.57755],[1.96864,50.57779]]]}},{"type":"Feature","properties":{"k":"PPH","s":8.384},"geometry":{"type":"Polygon","coordinates":[[[1.96343,50.58027],[1.96339,50.58044],[1.96246,50.58044],[1.96201,50.58089],[1.9644,50.58151],[1.96411,50.58209],[1.96472,50.58237],[1.96562,50.58068],[1.96614,50.58071],[1.96728,50.57767],[1.96583,50.57727],[1.96543,50.57865],[1.96474,50.57851],[1.9638,50.57865],[1.96311,50.57841],[1.96292,50.57958],[1.96488,50.57976],[1.96484,50.57992],[1.96457,50.57989],[1.96441,50.58055],[1.96389,50.58049],[1.96395,50.58032],[1.96343,50.58027]]]}},{"type":"Feature","properties":{"k":"PTR","s":1.098},"geometry":{"type":"Polygon","coordinates":[[[1.96294,50.57777],[1.96303,50.57825],[1.96491,50.57802],[1.96491,50.57714],[1.96294,50.57777]]]}},{"type":"Feature","properties":{"k":"PPH","s":3.748},"geometry":{"type":"Polygon","coordinates":[[[1.96504,50.57718],[1.96493,50.57802],[1.96425,50.5781],[1.9643,50.57828],[1.96358,50.57841],[1.96402,50.57861],[1.96472,50.5785],[1.96541,50.57863],[1.96584,50.57718],[1.96615,50.57678],[1.96521,50.57621],[1.9648,50.57645],[1.9645,50.57623],[1.9649,50.57604],[1.96428,50.57568],[1.96385,50.57615],[1.96266,50.57681],[1.96277,50.577],[1.96321,50.57689],[1.96339,50.57719],[1.96297,50.57723],[1.96294,50.57776],[1.96504,50.57718]]]}},{"type":"Feature","properties":{"k":"PPH","s":2.133},"geometry":{"type":"Polygon","coordinates":[[[1.96272,50.57784],[1.96272,50.57716],[1.96117,50.57778],[1.96197,50.57956],[1.96281,50.57942],[1.96272,50.57784]]]}},{"type":"Feature","properties":{"k":"PPH","s":1.421},"geometry":{"type":"Polygon","coordinates":[[[1.95963,50.5782],[1.96159,50.57748],[1.96101,50.57677],[1.95997,50.577],[1.96017,50.57725],[1.95925,50.57762],[1.95963,50.5782]]]}},{"type":"Feature","properties":{"k":"PPH","s":1.477},"geometry":{"type":"Polygon","coordinates":[[[1.95906,50.57837],[1.95927,50.57887],[1.95884,50.57895],[1.95904,50.57915],[1.96153,50.57861],[1.96113,50.57772],[1.95906,50.57837]]]}},{"type":"Feature","properties":{"k":"BTN","s":2.215},"geometry":{"type":"Polygon","coordinates":[[[1.95982,50.58017],[1.96199,50.57969],[1.96154,50.57861],[1.95906,50.57915],[1.95982,50.58017]]]}},{"type":"Feature","properties":{"k":"PPH","s":1.801},"geometry":{"type":"Polygon","coordinates":[[[1.96029,50.58081],[1.96171,50.58106],[1.96229,50.58051],[1.96202,50.58038],[1.96204,50.57996],[1.9626,50.57995],[1.96283,50.57946],[1.95985,50.58019],[1.96029,50.58081]]]}},{"type":"Feature","properties":{"k":"BTH","s":1.111},"geometry":{"type":"Polygon","coordinates":[[[1.96164,50.58113],[1.96031,50.5809],[1.95996,50.58059],[1.95911,50.5809],[1.9607,50.58189],[1.96164,50.58113]]]}},{"type":"Feature","properties":{"k":"BTP","s":2.44},"geometry":{"type":"Polygon","coordinates":[[[1.96332,50.58301],[1.96359,50.58185],[1.96274,50.58139],[1.96174,50.58117],[1.96062,50.58205],[1.96332,50.58301]]]}},{"type":"Feature","properties":{"k":"BTH","s":3.561},"geometry":{"type":"Polygon","coordinates":[[[1.95911,50.5809],[1.95794,50.58181],[1.95788,50.58241],[1.95741,50.58312],[1.95837,50.58373],[1.96062,50.58195],[1.95911,50.5809]]]}},{"type":"Feature","properties":{"k":"PHF","s":7.976},"geometry":{"type":"Polygon","coordinates":[[[1.96513,50.58505],[1.96518,50.58447],[1.96006,50.58267],[1.95975,50.58294],[1.9596,50.58285],[1.95777,50.5843],[1.9617,50.58548],[1.96185,50.58474],[1.96513,50.58505]]]}},{"type":"Feature","properties":{"k":"BTH","s":0.367},"geometry":{"type":"Polygon","coordinates":[[[1.96335,50.58302],[1.96374,50.58318],[1.96394,50.58205],[1.96359,50.58185],[1.96335,50.58302]]]}},{"type":"Feature","properties":{"k":"MIS","s":4.414},"geometry":{"type":"Polygon","coordinates":[[[1.96348,50.58388],[1.96518,50.58447],[1.96533,50.58267],[1.96394,50.58205],[1.96374,50.58318],[1.96062,50.58205],[1.9599,50.58261],[1.96348,50.58388]]]}},{"type":"Feature","properties":{"k":"ORH","s":0.013},"geometry":{"type":"Polygon","coordinates":[]}},{"type":"Feature","properties":{"k":"BTH","s":0.672},"geometry":{"type":"Polygon","coordinates":[[[1.96292,50.5814],[1.96411,50.58208],[1.9644,50.58152],[1.96199,50.58089],[1.96185,50.58108],[1.96292,50.5814]]]}},{"type":"Feature","properties":{"k":"BTH","s":0.1},"geometry":{"type":"Polygon","coordinates":[[[1.96487,50.58214],[1.96578,50.5807],[1.96562,50.58068],[1.96487,50.58214]]]}},{"type":"Feature","properties":{"k":"PTC","s":0.0},"geometry":{"type":"MultiPolygon","coordinates":[]}},{"type":"Feature","properties":{"k":"BTH","s":1.546},"geometry":{"type":"Polygon","coordinates":[[[1.95496,50.5865],[1.95468,50.58674],[1.9603,50.58881],[1.96054,50.58855],[1.95496,50.5865]]]}},{"type":"Feature","properties":{"k":"LIF","s":12.751},"geometry":{"type":"Polygon","coordinates":[[[1.95498,50.58648],[1.96054,50.58855],[1.96138,50.58706],[1.9617,50.58548],[1.95777,50.5843],[1.95498,50.58648]]]}},{"type":"Feature","properties":{"k":"MIS","s":2.893},"geometry":{"type":"Polygon","coordinates":[[[1.95271,50.58818],[1.95442,50.58694],[1.95459,50.58664],[1.95346,50.58564],[1.9517,50.58705],[1.95271,50.58818]]]}},{"type":"Feature","properties":{"k":"BTH","s":1.284},"geometry":{"type":"Polygon","coordinates":[[[1.95423,50.58512],[1.95538,50.58611],[1.9558,50.58578],[1.95358,50.58381],[1.95308,50.58413],[1.95423,50.58512]]]}},{"type":"Feature","properties":{"k":"MIS","s":5.288},"geometry":{"type":"Polygon","coordinates":[[[1.95429,50.5833],[1.95354,50.58376],[1.95579,50.58576],[1.95837,50.58375],[1.95738,50.58311],[1.95681,50.58348],[1.95626,50.58358],[1.95566,50.58321],[1.95429,50.5833]]]}},{"type":"Feature","properties":{"k":"PPH","s":0.417},"geometry":{"type":"Polygon","coordinates":[[[1.95621,50.5835],[1.95628,50.58354],[1.95738,50.58308],[1.95779,50.5821],[1.95739,50.58263],[1.95621,50.5835]]]}},{"type":"Feature","properties":{"k":"PPH","s":1.818},"geometry":{"type":"Polygon","coordinates":[[[1.95789,50.5795],[1.95711,50.57995],[1.95764,50.58075],[1.95749,50.58107],[1.95775,50.58153],[1.95785,50.58168],[1.95822,50.58169],[1.95912,50.58088],[1.95789,50.5795]]]}},{"type":"Feature","properties":{"k":"PPH","s":0.307},"geometry":{"type":"Polygon","coordinates":[[[1.95645,50.58072],[1.95551,50.58017],[1.95621,50.58114],[1.95667,50.58099],[1.95645,50.58072]]]}},{"type":"Feature","properties":{"k":"PPH","s":0.573},"geometry":{"type":"Polygon","coordinates":[[[1.95639,50.58265],[1.9572,50.5819],[1.95636,50.58174],[1.95546,50.58212],[1.95639,50.58265]]]}},{"type":"Feature","properties":{"k":"PPH","s":2.207},"geometry":{"type":"Polygon","coordinates":[[[1.95432,50.57976],[1.95374,50.57974],[1.95407,50.58144],[1.95475,50.58227],[1.95663,50.58161],[1.95621,50.58117],[1.95538,50.58143],[1.95455,50.58077],[1.95432,50.57976]]]}},{"type":"Feature","properties":{"k":"PPH","s":1.118},"geometry":{"type":"Polygon","coordinates":[[[1.95514,50.5799],[1.95442,50.58025],[1.95457,50.58077],[1.95538,50.58143],[1.95618,50.58117],[1.95514,50.5799]]]}},{"type":"Feature","properties":{"k":"PPH","s":0.713},"geometry":{"type":"Polygon","coordinates":[[[1.95318,50.58171],[1.9542,50.58163],[1.95375,50.58028],[1.95333,50.58027],[1.95318,50.58171]]]}},{"type":"Feature","properties":{"k":"PPH","s":1.21},"geometry":{"type":"Polygon","coordinates":[[[1.95319,50.58385],[1.9542,50.58316],[1.95559,50.58309],[1.95504,50.58258],[1.95301,50.58296],[1.95245,50.58333],[1.95319,50.58385]]]}},{"type":"Feature","properties":{"k":"PPH","s":0.438},"geometry":{"type":"Polygon","coordinates":[[[1.95561,50.58309],[1.95613,50.58283],[1.95528,50.58215],[1.95487,50.58236],[1.95561,50.58309]]]}},{"type":"Feature","properties":{"k":"BTA","s":0.15},"geometry":{"type":"Polygon","coordinates":[[[1.95451,50.58323],[1.95566,50.58321],[1.95428,50.58318],[1.95354,50.58376],[1.95451,50.58323]]]}},{"type":"Feature","properties":{"k":"BTA","s":0.065},"geometry":{"type":"Polygon","coordinates":[[[1.95296,50.58402],[1.95306,50.58411],[1.95358,50.58381],[1.95347,50.58371],[1.95296,50.58402]]]}},{"type":"Feature","properties":{"k":"PPH","s":0.565},"geometry":{"type":"Polygon","coordinates":[[[1.95243,50.58428],[1.95317,50.58386],[1.95244,50.58333],[1.95167,50.58385],[1.95243,50.58428]]]}},{"type":"Feature","properties":{"k":"PPH","s":1.75},"geometry":{"type":"Polygon","coordinates":[[[1.951,50.58477],[1.95148,50.58486],[1.95244,50.58428],[1.95167,50.58385],[1.95222,50.58343],[1.95032,50.58226],[1.94994,50.58257],[1.95134,50.58348],[1.95084,50.58384],[1.95126,50.58417],[1.95085,50.58457],[1.951,50.58477]]]}},{"type":"Feature","properties":{"k":"PPH","s":2.157},"geometry":{"type":"Polygon","coordinates":[[[1.95069,50.5846],[1.95123,50.58417],[1.95064,50.58374],[1.95088,50.58383],[1.95134,50.58348],[1.94994,50.58258],[1.9496,50.58286],[1.95063,50.58361],[1.94984,50.58315],[1.94937,50.58337],[1.94959,50.58351],[1.94898,50.5846],[1.95069,50.5846]]]}},{"type":"Feature","properties":{"k":"MIS","s":2.266},"geometry":{"type":"Polygon","coordinates":[[[1.95055,50.58191],[1.9524,50.58262],[1.95297,50.58106],[1.95104,50.58079],[1.95055,50.58191]]]}},{"type":"Feature","properties":{"k":"PPH","s":0.566},"geometry":{"type":"Polygon","coordinates":[[[1.95298,50.58104],[1.95305,50.57997],[1.95233,50.58026],[1.95216,50.58065],[1.95199,50.58061],[1.95192,50.58086],[1.95298,50.58104]]]}},{"type":"Feature","properties":{"k":"MIS","s":2.674},"geometry":{"type":"Polygon","coordinates":[[[1.95028,50.58211],[1.95062,50.58111],[1.94754,50.58054],[1.94688,50.58123],[1.9481,50.58169],[1.95028,50.58211]]]}},{"type":"Feature","properties":{"k":"BTH","s":2.231},"geometry":{"type":"Polygon","coordinates":[[[1.94867,50.58076],[1.94917,50.58002],[1.9501,50.5802],[1.95018,50.58001],[1.94738,50.57953],[1.94602,50.58087],[1.94688,50.58123],[1.94754,50.58054],[1.94867,50.58076]]]}},{"type":"Feature","properties":{"k":"PPH","s":5.298},"geometry":{"type":"Polygon","coordinates":[[[1.94656,50.5811],[1.94522,50.58248],[1.94822,50.58375],[1.95027,50.58212],[1.94778,50.5816],[1.94656,50.5811]]]}},{"type":"Feature","properties":{"k":"PPH","s":1.275},"geometry":{"type":"Polygon","coordinates":[[[1.94784,50.58445],[1.94775,50.58471],[1.94717,50.58465],[1.94637,50.58554],[1.94897,50.5852],[1.94878,50.58458],[1.94784,50.58445]]]}},{"type":"Feature","properties":{"k":"PPH","s":0.007},"geometry":{"type":"MultiPolygon","coordinates":[[[[1.94936,50.58595],[1.94919,50.58561],[1.94937,50.58605],[1.94936,50.58595]]]]}},{"type":"Feature","properties":{"k":"PPH","s":0.703},"geometry":{"type":"Polygon","coordinates":[[[1.94883,50.58464],[1.94898,50.58519],[1.95096,50.58494],[1.9506,50.5847],[1.94883,50.58464]]]}},{"type":"Feature","properties":{"k":"PPH","s":0.236},"geometry":{"type":"Polygon","coordinates":[[[1.95145,50.58489],[1.94903,50.58523],[1.95154,50.58495],[1.95303,50.58409],[1.95145,50.58489]]]}},{"type":"Feature","properties":{"k":"MIS","s":3.707},"geometry":{"type":"Polygon","coordinates":[[[1.95144,50.58498],[1.94903,50.58523],[1.94935,50.58587],[1.9528,50.58502],[1.95467,50.58666],[1.95537,50.58611],[1.95303,50.58409],[1.95144,50.58498]]]}},{"type":"Feature","properties":{"k":"BTH","s":2.918},"geometry":{"type":"Polygon","coordinates":[[[1.94934,50.58587],[1.94954,50.58643],[1.95077,50.5862],[1.9517,50.58705],[1.95346,50.58564],[1.95276,50.58503],[1.94934,50.58587]]]}},{"type":"Feature","properties":{"k":"BTH","s":0.019},"geometry":{"type":"MultiPolygon","coordinates":[[[[1.94954,50.58643],[1.95076,50.58621],[1.95102,50.5864],[1.95077,50.5862],[1.94954,50.58643]]],[[[1.94938,50.58606],[1.94953,50.58643],[1.94954,50.58643],[1.94938,50.58606]]]]}},{"type":"Feature","properties":{"k":"MIS","s":0.003},"geometry":{"type":"Polygon","coordinates":[[[1.95232,50.58775],[1.9527,50.58819],[1.95271,50.58818],[1.95232,50.58775]]]}},{"type":"Feature","properties":{"k":"MIS","s":2.272},"geometry":{"type":"Polygon","coordinates":[[[1.95759,50.59117],[1.95864,50.59026],[1.9566,50.58934],[1.95554,50.59021],[1.95759,50.59117]]]}},{"type":"Feature","properties":{"k":"BTH","s":0.202},"geometry":{"type":"Polygon","coordinates":[[[1.95522,50.59024],[1.95755,50.59121],[1.95759,50.59117],[1.95547,50.59018],[1.95522,50.59024]]]}},{"type":"Feature","properties":{"k":"JAC","s":0.005},"geometry":{"type":"Polygon","coordinates":[[[1.95531,50.59009],[1.95518,50.59022],[1.95522,50.59024],[1.95531,50.59009]]]}},{"type":"Feature","properties":{"k":"MIS","s":10.713},"geometry":{"type":"Polygon","coordinates":[[[1.95864,50.59026],[1.9603,50.58881],[1.95468,50.58674],[1.9527,50.58819],[1.95482,50.59007],[1.95608,50.5891],[1.95864,50.59026]]]}},{"type":"Feature","properties":{"k":"BTH","s":0.594},"geometry":{"type":"Polygon","coordinates":[[[1.95608,50.5891],[1.95482,50.59007],[1.95519,50.59022],[1.95532,50.59008],[1.9555,50.59016],[1.9566,50.58934],[1.95608,50.5891]]]}}]}